{"type": "FeatureCollection", "features": [{"type": "Feature", "geometry": {"type": "LineString", "coordinates": [[-8.4847762, 40.1283047], [-8.4841267, 40.1278131]]}, "properties": {"bridge": "yes", "highway": "motorway", "lanes": "3", "layer": "1", "lit": "yes", "name": "Radial de Coimbra", "oneway": "yes", "ref": "A 13-1", "smoothness": "excellent", "surface": "asphalt", "toll": "no", "turn:lanes": "through|through;right|through;right"}}, {"type": "Feature", "geometry": {"type": "LineString", "coordinates": [[-8.4890001, 40.129766], [-8.4892168, 40.129793], [-8.4893709, 40.1298091], [-8.4895318, 40.1298304], [-8.4896875, 40.1298548], [-8.4898449, 40.1298853], [-8.4900142, 40.1299249], [-8.4901459, 40.12996], [-8.4902952, 40.1300069], [-8.4904478, 40.1300602], [-8.4905835, 40.1301149], [-8.4907395, 40.1301829], [-8.4908686, 40.1302459], [-8.4909892, 40.1303088], [-8.4911287, 40.1303881], [-8.4912617, 40.130474], [-8.4913788, 40.1305532], [-8.4915043, 40.1306454], [-8.4917791, 40.1308558], [-8.4918884, 40.1309387]]}, "properties": {"highway": "motorway", "lanes": "2", "name": "Radial de Coimbra", "oneway": "yes", "ref": "A 13-1", "surface": "asphalt", "toll": "yes"}}, {"type": "Feature", "geometry": {"type": "LineString", "coordinates": [[-8.4916987, 40.1306549], [-8.4912936, 40.1303919], [-8.4910456, 40.1302458], [-8.4908846, 40.1301558], [-8.4907355, 40.1300839], [-8.4905909, 40.1300259], [-8.4903971, 40.1299573], [-8.4902169, 40.1298939], [-8.4900381, 40.1298448], [-8.4898661, 40.1298034], [-8.4896679, 40.1297699], [-8.489438, 40.1297355], [-8.4892335, 40.1297127], [-8.4890213, 40.1296905], [-8.4879485, 40.1295713]]}, "properties": {"highway": "motorway", "lanes": "2", "name": "Radial de Coimbra", "oneway": "yes", "ref": "A 13-1", "smoothness": "excellent", "surface": "asphalt", "toll": "no"}}, {"type": "Feature", "geometry": {"type": "LineString", "coordinates": [[-8.4085104, 40.1257315], [-8.4089314, 40.1256694], [-8.4095481, 40.1255694], [-8.4100236, 40.1254939], [-8.410692, 40.12539], [-8.4113027, 40.1253031], [-8.4119874, 40.1252247], [-8.4126437, 40.1251712], [-8.4131729, 40.1251348], [-8.413702, 40.1251139], [-8.4143871, 40.1251054], [-8.4149497, 40.1251084], [-8.4154575, 40.1251266], [-8.4161606, 40.1251603], [-8.4188428, 40.1252908], [-8.4195321, 40.1253086], [-8.4204011, 40.1253106], [-8.4210996, 40.1252919], [-8.4217845, 40.1252494], [-8.422406, 40.1252007], [-8.4231343, 40.1251155], [-8.4236158, 40.1250453], [-8.4242478, 40.1249377], [-8.4248341, 40.1248209], [-8.4254403, 40.1246812], [-8.426145, 40.1245003], [-8.4266619, 40.1243554], [-8.4273316, 40.1241343], [-8.4278062, 40.1239661], [-8.4283759, 40.123744], [-8.4289818, 40.123491], [-8.4295524, 40.1232227], [-8.430079, 40.1229567], [-8.430523, 40.1227204], [-8.4308996, 40.1225027], [-8.4312775, 40.1222704], [-8.4316052, 40.1220616], [-8.4319375, 40.1218442], [-8.4335263, 40.1207588], [-8.4340097, 40.1204313], [-8.4346313, 40.1200595], [-8.4349885, 40.1198645], [-8.4353576, 40.1196813], [-8.4356805, 40.1195354], [-8.4360856, 40.1193685], [-8.4364214, 40.119252], [-8.4367542, 40.1191461], [-8.43725, 40.1190073], [-8.4377951, 40.1188769], [-8.4381591, 40.1188077], [-8.4386008, 40.118738], [-8.4392127, 40.1186732], [-8.439762, 40.118638], [-8.4402018, 40.1186303], [-8.4407174, 40.1186411], [-8.4412903, 40.1186789], [-8.4417785, 40.1187332], [-8.4423083, 40.1188166], [-8.4429482, 40.1189459], [-8.443508, 40.1190835], [-8.4441812, 40.1192864], [-8.4447198, 40.1194758], [-8.4469846, 40.1203504], [-8.447363, 40.1204884], [-8.4477163, 40.1206041], [-8.4480139, 40.1206913], [-8.4483182, 40.120775], [-8.4488349, 40.1209008], [-8.4491424, 40.1209679], [-8.4494663, 40.121034], [-8.4497601, 40.1210868], [-8.4500717, 40.1211343], [-8.4504768, 40.121185], [-8.4508569, 40.121223], [-8.4513853, 40.1212615], [-8.4518914, 40.1212851], [-8.4523029, 40.1212947], [-8.4538776, 40.1213071], [-8.4546804, 40.121326], [-8.455295, 40.1213599], [-8.4558219, 40.1214151], [-8.4563958, 40.1215066], [-8.45688, 40.1216048], [-8.457366, 40.1217364], [-8.4578609, 40.1218926], [-8.4583199, 40.12207], [-8.4588241, 40.1222912], [-8.4592627, 40.1225183], [-8.4596992, 40.1227628], [-8.4606399, 40.1233687], [-8.4614868, 40.1239009], [-8.4617952, 40.124072], [-8.4621071, 40.1242343], [-8.4625951, 40.124449], [-8.4631343, 40.1246492], [-8.4637183, 40.1248204], [-8.4642325, 40.1249392], [-8.4647651, 40.1250204], [-8.4652744, 40.1250732], [-8.4655856, 40.125093], [-8.465862, 40.1250987], [-8.4661551, 40.1250987], [-8.4664654, 40.1250873], [-8.4668145, 40.1250655], [-8.4671891, 40.1250226], [-8.4674648, 40.1249789], [-8.4677446, 40.1249307], [-8.4680848, 40.124856], [-8.4683955, 40.1247772], [-8.4687108, 40.1246776], [-8.4690337, 40.1245667], [-8.4693964, 40.1244219], [-8.4698057, 40.1242347], [-8.4702257, 40.1240193], [-8.470594, 40.1237911], [-8.4713035, 40.1233134], [-8.4718384, 40.1229294], [-8.4724726, 40.1225142], [-8.4728163, 40.1223151], [-8.4731245, 40.1221568], [-8.4734584, 40.1220142], [-8.4737993, 40.1218941], [-8.4741706, 40.1217865], [-8.4745173, 40.1217068], [-8.4748727, 40.1216509], [-8.4752547, 40.1216106], [-8.47564, 40.1215848], [-8.4761853, 40.121585], [-8.4765616, 40.1216146], [-8.476977, 40.1216682], [-8.4772817, 40.1217236], [-8.4775826, 40.1217997], [-8.4778723, 40.1218871], [-8.4781716, 40.1219893], [-8.4784419, 40.1221007], [-8.4787141, 40.1222268], [-8.4789721, 40.1223688], [-8.4792223, 40.1225181], [-8.479391, 40.1226332], [-8.4796134, 40.1227997], [-8.4798163, 40.1229769], [-8.4799764, 40.1231251], [-8.4801673, 40.1233233], [-8.480318, 40.1234982], [-8.4804219, 40.1236404]]}, "properties": {"highway": "motorway", "lanes": "2", "name": "Radial de Coimbra", "oneway": "yes", "ref": "A 13-1", "surface": "asphalt", "toll": "no"}}, {"type": "Feature", "geometry": {"type": "LineString", "coordinates": [[-8.4841295, 40.1279469], [-8.4846974, 40.1283689]]}, "properties": {"bridge": "yes", "highway": "motorway", "lanes": "3", "layer": "1", "lit": "yes", "name": "Radial de Coimbra", "oneway": "yes", "ref": "A 13-1", "surface": "asphalt", "toll": "no", "turn:lanes": "through|through;right|through;right"}}, {"type": "Feature", "geometry": {"type": "LineString", "coordinates": [[-8.4811629, 40.1245785], [-8.4808789, 40.1241329], [-8.4807408, 40.1239105], [-8.4805893, 40.1236917], [-8.4804319, 40.1234842], [-8.4802661, 40.1232772], [-8.4800691, 40.1230727], [-8.4798741, 40.1228903], [-8.479646, 40.1227031], [-8.4794237, 40.122538], [-8.4791959, 40.1223875], [-8.4789273, 40.1222377], [-8.4786645, 40.1221026], [-8.4783808, 40.1219763], [-8.47811, 40.1218727], [-8.4778201, 40.1217779], [-8.4775063, 40.1216863], [-8.4772116, 40.1216212], [-8.4768989, 40.1215672], [-8.4764325, 40.1215138], [-8.4760922, 40.1214978], [-8.4757409, 40.1214952], [-8.4753123, 40.1215143], [-8.4748784, 40.121558], [-8.474533, 40.121611], [-8.4741577, 40.1216867], [-8.473778, 40.1217956], [-8.4734336, 40.121917], [-8.4729741, 40.122115], [-8.4726763, 40.1222817], [-8.4724032, 40.1224484], [-8.4717082, 40.1229128], [-8.4707944, 40.1235324], [-8.470219, 40.1238955], [-8.4699432, 40.1240512], [-8.4696878, 40.1241832], [-8.46926, 40.1243779], [-8.4688503, 40.1245352], [-8.4684409, 40.124669], [-8.4680387, 40.1247727], [-8.467721, 40.124846], [-8.4673547, 40.124908], [-8.4670257, 40.124954], [-8.4666337, 40.1249902], [-8.4662615, 40.1250114], [-8.465875, 40.1250106], [-8.465562, 40.1250043], [-8.4652511, 40.1249837], [-8.4647807, 40.1249305], [-8.4642945, 40.1248521], [-8.4638586, 40.1247605], [-8.4634514, 40.1246468], [-8.4629995, 40.1245039], [-8.4625009, 40.1243033], [-8.4620271, 40.1240816], [-8.4615599, 40.1238194], [-8.4607877, 40.1233358], [-8.4601739, 40.122949], [-8.4596801, 40.1226453], [-8.4591871, 40.1223733], [-8.4588927, 40.1222213], [-8.4585695, 40.1220729], [-8.4581634, 40.1219111], [-8.4577312, 40.1217522], [-8.4574067, 40.1216522], [-8.4570487, 40.1215558], [-8.4565635, 40.1214407], [-8.4561167, 40.1213659], [-8.4555892, 40.1212993], [-8.4550292, 40.1212567], [-8.454497, 40.1212287], [-8.4539811, 40.1212222], [-8.4532747, 40.1212202], [-8.4526726, 40.1212144], [-8.4521396, 40.1212064], [-8.4517392, 40.1211958], [-8.4513178, 40.1211725], [-8.4507923, 40.1211274], [-8.4502561, 40.1210699], [-8.4497295, 40.1209933], [-8.4492975, 40.1209112], [-8.4488623, 40.1208172], [-8.4484113, 40.1207033], [-8.4479549, 40.1205779], [-8.4477045, 40.1205012], [-8.4474735, 40.1204247], [-8.446967, 40.1202395], [-8.4462605, 40.119968], [-8.4456086, 40.1197169], [-8.4450341, 40.1194972], [-8.4445396, 40.1193136], [-8.4442056, 40.1191949], [-8.4438514, 40.1190838], [-8.4435026, 40.1189867], [-8.4430904, 40.1188827], [-8.4426581, 40.1187841], [-8.4421743, 40.118699], [-8.4416083, 40.1186148], [-8.4411469, 40.118575], [-8.440649, 40.1185506], [-8.4402193, 40.1185432], [-8.439748, 40.1185504], [-8.4393192, 40.1185751], [-8.438873, 40.1186162], [-8.4384532, 40.1186689], [-8.4380555, 40.1187316], [-8.4376566, 40.1188101], [-8.437271, 40.1189022], [-8.4368112, 40.1190305], [-8.4364292, 40.1191481], [-8.4360388, 40.1192866], [-8.4356018, 40.1194622], [-8.4351698, 40.1196647], [-8.4345601, 40.1199912], [-8.4341504, 40.120233], [-8.4338148, 40.1204447], [-8.4334679, 40.1206776], [-8.4319775, 40.1217068], [-8.4315617, 40.1219802], [-8.4311986, 40.1222148], [-8.4308996, 40.1223923], [-8.4304929, 40.1226282], [-8.430087, 40.1228466], [-8.4295016, 40.1231454], [-8.4288976, 40.123425], [-8.4282783, 40.1236862], [-8.4276551, 40.1239274], [-8.4267999, 40.1242225], [-8.4261742, 40.1244071], [-8.4256258, 40.1245498], [-8.4250735, 40.1246794], [-8.4244851, 40.1248043], [-8.423933, 40.1249069], [-8.4233675, 40.1249927], [-8.4228353, 40.1250632], [-8.4223167, 40.1251208], [-8.4219093, 40.1251542], [-8.4214967, 40.125182], [-8.4208573, 40.1252133], [-8.4203299, 40.1252252], [-8.4197182, 40.1252226], [-8.4190908, 40.1252103], [-8.4168087, 40.1251083], [-8.4158453, 40.1250536], [-8.4149491, 40.1250226], [-8.4143664, 40.1250163], [-8.4137433, 40.1250271], [-8.4129986, 40.1250607], [-8.4123229, 40.1251064], [-8.4117838, 40.1251559], [-8.4111512, 40.1252416], [-8.4106645, 40.1253072], [-8.4100013, 40.1254133]]}, "properties": {"highway": "motorway", "lanes": "2", "name": "Radial de Coimbra", "oneway": "yes", "ref": "A 13-1", "surface": "asphalt", "toll": "no"}}, {"type": "Feature", "geometry": {"type": "LineString", "coordinates": [[-8.4870098, 40.1294164], [-8.4868121, 40.129365], [-8.4866617, 40.1293203], [-8.486516, 40.1292745], [-8.4863578, 40.1292172], [-8.486228, 40.1291668], [-8.4860725, 40.1291053], [-8.4859304, 40.1290391], [-8.4857238, 40.1289374]]}, "properties": {"highway": "motorway", "lanes": "2", "name": "Radial de Coimbra", "oneway": "yes", "ref": "A 13-1", "smoothness": "excellent", "surface": "asphalt", "toll": "no"}}, {"type": "Feature", "geometry": {"type": "LineString", "coordinates": [[-8.4924248, 40.1310721], [-8.4919316, 40.1308046]]}, "properties": {"highway": "motorway", "lanes": "2", "name": "Radial de Coimbra", "oneway": "yes", "ref": "A 13-1", "surface": "asphalt", "toll": "no"}}, {"type": "Feature", "geometry": {"type": "LineString", "coordinates": [[-8.4846974, 40.1283689], [-8.4850591, 40.1286378], [-8.4852661, 40.1287804], [-8.4854386, 40.128886], [-8.485566, 40.1289596], [-8.4856964, 40.129029], [-8.4858305, 40.1290958], [-8.4859694, 40.1291589], [-8.4861123, 40.1292214], [-8.4862851, 40.1292885]]}, "properties": {"highway": "motorway", "lanes": "3", "name": "Radial de Coimbra", "oneway": "yes", "ref": "A 13-1", "surface": "asphalt", "toll": "yes", "turn:lanes": "none|none|merge_to_left"}}, {"type": "Feature", "geometry": {"type": "LineString", "coordinates": [[-8.4879485, 40.1295713], [-8.4877337, 40.1295466], [-8.4875552, 40.1295241], [-8.4874052, 40.1295004], [-8.4872499, 40.1294699], [-8.4870098, 40.1294164]]}, "properties": {"highway": "motorway", "lanes": "3", "name": "Radial de Coimbra", "oneway": "yes", "ref": "A 13-1", "smoothness": "excellent", "surface": "asphalt", "toll": "no", "turn:lanes": "none|none|slight_right"}}, {"type": "Feature", "geometry": {"type": "LineString", "coordinates": [[-8.4870544, 40.1295259], [-8.4874342, 40.1295965], [-8.4876461, 40.1296296], [-8.48789, 40.1296619], [-8.4881195, 40.1296857], [-8.4884236, 40.1297146], [-8.4890001, 40.129766]]}, "properties": {"highway": "motorway", "lanes": "3", "name": "Radial de Coimbra", "oneway": "yes", "ref": "A 13-1", "surface": "asphalt", "toll": "yes", "turn:lanes": "none|none|merge_to_left"}}, {"type": "Feature", "geometry": {"type": "LineString", "coordinates": [[-8.3902867, 40.1184649], [-8.3904972, 40.1184919], [-8.3907555, 40.1185134], [-8.3909786, 40.1185198], [-8.3912294, 40.1185236], [-8.3915388, 40.1185166], [-8.3919122, 40.1185082], [-8.3921722, 40.1185064], [-8.3924862, 40.1185026], [-8.392808, 40.1185076], [-8.3931265, 40.1185232], [-8.3934121, 40.1185476], [-8.3937564, 40.118596], [-8.3940817, 40.1186598], [-8.3943823, 40.1187392], [-8.3946751, 40.1188259], [-8.394966, 40.1189307], [-8.3952356, 40.1190518], [-8.3955116, 40.1191899], [-8.3957703, 40.1193412], [-8.3960066, 40.1194959], [-8.3962368, 40.1196685], [-8.3964477, 40.1198485], [-8.396646, 40.120038], [-8.3968083, 40.1202068], [-8.3969841, 40.1204023], [-8.3970727, 40.1205108]]}, "properties": {"highway": "motorway", "lanes": "2", "name": "Radial de Coimbra", "oneway": "yes", "ref": "A 13-1", "surface": "asphalt", "toll": "no"}}, {"type": "Feature", "geometry": {"type": "LineString", "coordinates": [[-8.399378, 40.1234281], [-8.3995947, 40.123615], [-8.3998002, 40.1237889], [-8.4000163, 40.1239607], [-8.4002444, 40.1241295], [-8.4004625, 40.1242782], [-8.4006994, 40.1244258], [-8.4009475, 40.1245754], [-8.4012152, 40.1247217], [-8.4014682, 40.1248505], [-8.401744, 40.1249803], [-8.4020181, 40.1251016], [-8.4022972, 40.1252124], [-8.4025796, 40.1253157], [-8.4028739, 40.1254129], [-8.4031738, 40.1255042], [-8.4034697, 40.1255842], [-8.4037683, 40.1256567], [-8.4040773, 40.1257215], [-8.4043849, 40.125776], [-8.4046963, 40.125823], [-8.4050068, 40.1258619], [-8.4053102, 40.1258905], [-8.4055148, 40.1259068]]}, "properties": {"highway": "motorway", "lanes": "2", "name": "Radial de Coimbra", "oneway": "yes", "ref": "A 13-1", "surface": "asphalt", "toll": "no"}}, {"type": "Feature", "geometry": {"type": "LineString", "coordinates": [[-8.4000634, 40.1238695], [-8.3998685, 40.1237179], [-8.3996633, 40.1235401], [-8.3994502, 40.1233508], [-8.3992574, 40.1231604], [-8.3990647, 40.122957], [-8.398887, 40.122754], [-8.3987211, 40.1225539], [-8.3985553, 40.1223448], [-8.3983126, 40.1220258], [-8.3978365, 40.1213674], [-8.3974881, 40.1208728], [-8.3972998, 40.1206301], [-8.3971243, 40.1204104], [-8.3969587, 40.1202172], [-8.3967674, 40.1200125], [-8.396572, 40.1198264], [-8.3963645, 40.1196437], [-8.396172, 40.1194968]]}, "properties": {"highway": "motorway", "lanes": "2", "name": "Radial de Coimbra", "oneway": "yes", "ref": "A 13-1", "surface": "asphalt", "toll": "no"}}, {"type": "Feature", "geometry": {"type": "LineString", "coordinates": [[-8.4059794, 40.1258395], [-8.4056081, 40.1258221], [-8.4053471, 40.1258043], [-8.4050674, 40.1257799], [-8.4048163, 40.1257514], [-8.4046063, 40.1257229], [-8.4043835, 40.1256855], [-8.4041401, 40.1256389], [-8.4038382, 40.1255809], [-8.4035259, 40.1255072], [-8.4032159, 40.1254235], [-8.4029429, 40.1253449], [-8.4026267, 40.1252389], [-8.4024252, 40.1251644]]}, "properties": {"highway": "motorway", "lanes": "2", "name": "Radial de Coimbra", "oneway": "yes", "ref": "A 13-1", "surface": "asphalt", "toll": "no"}}, {"type": "Feature", "geometry": {"type": "LineString", "coordinates": [[-8.4841267, 40.1278131], [-8.4836656, 40.1274722], [-8.4834005, 40.127266], [-8.483183, 40.1270901], [-8.4829993, 40.1269361]]}, "properties": {"highway": "motorway", "lanes": "3", "name": "Radial de Coimbra", "oneway": "yes", "ref": "A 13-1", "surface": "asphalt", "toll": "no", "turn:lanes": "none|none|merge_to_left"}}, {"type": "Feature", "geometry": {"type": "LineString", "coordinates": [[-8.4857238, 40.1289374], [-8.485545, 40.1288357], [-8.4853392, 40.1287135], [-8.4850984, 40.1285467], [-8.4847762, 40.1283047]]}, "properties": {"highway": "motorway", "lanes": "2", "name": "Radial de Coimbra", "oneway": "yes", "ref": "A 13-1", "smoothness": "excellent", "surface": "asphalt", "toll": "no", "turn:lanes": "through|through;right"}}, {"type": "Feature", "geometry": {"type": "LineString", "coordinates": [[-8.4862851, 40.1292885], [-8.4864629, 40.1293511], [-8.4866407, 40.1294111], [-8.4868298, 40.1294633], [-8.4870544, 40.1295259]]}, "properties": {"highway": "motorway", "lanes": "2", "name": "Radial de Coimbra", "oneway": "yes", "ref": "A 13-1", "surface": "asphalt", "toll": "yes"}}, {"type": "Feature", "geometry": {"type": "LineString", "coordinates": [[-8.4832729, 40.1272907], [-8.4834939, 40.1274622], [-8.4837217, 40.1276363], [-8.4841295, 40.1279469]]}, "properties": {"highway": "motorway", "lanes": "2", "lit": "yes", "name": "Radial de Coimbra", "oneway": "yes", "ref": "A 13-1", "surface": "asphalt", "toll": "no", "turn:lanes": "through|through;right"}}, {"type": "Feature", "geometry": {"type": "LineString", "coordinates": [[-8.4822173, 40.1262967], [-8.4824052, 40.1265017], [-8.4825623, 40.1266596], [-8.482743, 40.1268367], [-8.4829401, 40.127013], [-8.4831219, 40.1271706], [-8.4832729, 40.1272907]]}, "properties": {"highway": "motorway", "lanes": "2", "name": "Radial de Coimbra", "oneway": "yes", "ref": "A 13-1", "surface": "asphalt", "toll": "no"}}, {"type": "Feature", "geometry": {"type": "LineString", "coordinates": [[-8.4814683, 40.1252508], [-8.4816833, 40.125585], [-8.4818983, 40.1258898], [-8.4820108, 40.1260385], [-8.4821025, 40.1261559], [-8.4822173, 40.1262967]]}, "properties": {"highway": "motorway", "lanes": "3", "name": "Radial de Coimbra", "oneway": "yes", "ref": "A 13-1", "surface": "asphalt", "toll": "no", "turn:lanes": "none|none|slight_right"}}, {"type": "Feature", "geometry": {"type": "LineString", "coordinates": [[-8.4804219, 40.1236404], [-8.4804719, 40.1237087], [-8.4806258, 40.1239324], [-8.4807646, 40.1241478], [-8.4809961, 40.1245111], [-8.4814683, 40.1252508]]}, "properties": {"highway": "motorway", "lanes": "2", "name": "Radial de Coimbra", "oneway": "yes", "ref": "A 13-1", "surface": "asphalt", "toll": "no", "turn:lanes": "through|through;slight_right"}}, {"type": "Feature", "geometry": {"type": "LineString", "coordinates": [[-8.482381, 40.1263256], [-8.4822063, 40.1261175], [-8.4820714, 40.1259432], [-8.4819635, 40.1257997], [-8.4818164, 40.1255929], [-8.4816716, 40.1253744], [-8.4811629, 40.1245785]]}, "properties": {"highway": "motorway", "lanes": "3", "name": "Radial de Coimbra", "oneway": "yes", "ref": "A 13-1", "surface": "asphalt", "toll": "no", "turn:lanes": "none|none|merge_to_left"}}, {"type": "Feature", "geometry": {"type": "LineString", "coordinates": [[-8.4829993, 40.1269361], [-8.4828698, 40.1268185], [-8.482763, 40.1267203], [-8.482381, 40.1263256]]}, "properties": {"highway": "motorway", "lanes": "2", "name": "Radial de Coimbra", "oneway": "yes", "ref": "A 13-1", "surface": "asphalt", "toll": "no"}}, {"type": "Feature", "geometry": {"type": "LineString", "coordinates": [[-8.4100013, 40.1254133], [-8.4095743, 40.1254764], [-8.4091796, 40.1255392], [-8.408746, 40.1256079], [-8.408218, 40.1256865], [-8.4079061, 40.1257285], [-8.4076377, 40.1257601]]}, "properties": {"highway": "motorway", "lanes": "2", "name": "Radial de Coimbra", "oneway": "yes", "ref": "A 13-1", "surface": "asphalt", "toll": "no", "turn:lanes": "through|through;slight_right"}}, {"type": "Feature", "geometry": {"type": "LineString", "coordinates": [[-8.4076377, 40.1257601], [-8.4073539, 40.1257894], [-8.4071267, 40.1258085], [-8.4068658, 40.1258255], [-8.4066612, 40.125835], [-8.4064298, 40.1258424], [-8.4059794, 40.1258395]]}, "properties": {"highway": "motorway", "lanes": "3", "name": "Radial de Coimbra", "oneway": "yes", "ref": "A 13-1", "surface": "asphalt", "toll": "no", "turn:lanes": "none|none|slight_right"}}, {"type": "Feature", "geometry": {"type": "LineString", "coordinates": [[-8.4024252, 40.1251644], [-8.4021902, 40.125071], [-8.4020121, 40.1249981], [-8.401781, 40.1248977], [-8.4015093, 40.1247704], [-8.4013282, 40.124677], [-8.4011091, 40.1245579], [-8.4009345, 40.1244565], [-8.4008027, 40.124376], [-8.4006137, 40.1242576], [-8.4003733, 40.1241], [-8.4002056, 40.1239769], [-8.4000634, 40.1238695]]}, "properties": {"highway": "motorway", "lanes": "3", "name": "Radial de Coimbra", "oneway": "yes", "ref": "A 13-1", "surface": "asphalt", "toll": "no", "turn:lanes": "none|none|merge_to_left"}}, {"type": "Feature", "geometry": {"type": "LineString", "coordinates": [[-8.3982136, 40.1220665], [-8.3983978, 40.1223088], [-8.3984999, 40.1224439], [-8.3986256, 40.1226034], [-8.3987535, 40.1227539], [-8.3989002, 40.1229226], [-8.3990843, 40.1231282], [-8.3992329, 40.1232834], [-8.399378, 40.1234281]]}, "properties": {"highway": "motorway", "lanes": "3", "name": "Radial de Coimbra", "oneway": "yes", "ref": "A 13-1", "surface": "asphalt", "toll": "no", "turn:lanes": "none|none|slight_right"}}, {"type": "Feature", "geometry": {"type": "LineString", "coordinates": [[-8.4055148, 40.1259068], [-8.405836, 40.1259219], [-8.4061715, 40.1259271], [-8.4064204, 40.1259264], [-8.4067308, 40.1259189], [-8.407057, 40.125903], [-8.4072866, 40.1258854], [-8.4075827, 40.1258541], [-8.4079008, 40.1258178], [-8.4082056, 40.1257768], [-8.4085104, 40.1257315]]}, "properties": {"highway": "motorway", "lanes": "3", "name": "Radial de Coimbra", "oneway": "yes", "ref": "A 13-1", "surface": "asphalt", "toll": "no", "turn:lanes": "none|none|merge_to_left"}}, {"type": "Feature", "geometry": {"type": "LineString", "coordinates": [[-8.3970727, 40.1205108], [-8.3972407, 40.1207186], [-8.397385, 40.1209067], [-8.3975346, 40.1211134], [-8.3977133, 40.1213659], [-8.3982136, 40.1220665]]}, "properties": {"highway": "motorway", "lanes": "2", "name": "Radial de Coimbra", "oneway": "yes", "ref": "A 13-1", "surface": "asphalt", "toll": "no", "turn:lanes": "through|through;slight_right"}}, {"type": "Feature", "geometry": {"type": "LineString", "coordinates": [[-8.396172, 40.1194968], [-8.3959408, 40.1193363], [-8.3957784, 40.1192347], [-8.3955964, 40.1191285], [-8.3954172, 40.1190324], [-8.3951578, 40.1189153], [-8.3948713, 40.1187982], [-8.3945762, 40.1187017], [-8.3942637, 40.118614], [-8.3940079, 40.1185523], [-8.3937295, 40.1185022], [-8.3932317, 40.1184435], [-8.3929272, 40.1184267], [-8.392588, 40.1184191], [-8.3922881, 40.1184194], [-8.3916074, 40.1184312]]}, "properties": {"highway": "motorway", "lanes": "2", "name": "Radial de Coimbra", "oneway": "yes", "ref": "A 13-1", "surface": "asphalt", "toll": "no", "turn:lanes": "through|slight_right"}}, {"type": "Feature", "geometry": {"type": "LineString", "coordinates": [[-8.4919316, 40.1308046], [-8.4916987, 40.1306549]]}, "properties": {"highway": "motorway", "lanes": "4", "name": "Radial de Coimbra", "oneway": "yes", "ref": "A 13-1", "smoothness": "excellent", "surface": "asphalt", "toll": "no"}}, {"type": "Feature", "geometry": {"type": "LineString", "coordinates": [[-8.4918884, 40.1309387], [-8.4922577, 40.1312192]]}, "properties": {"highway": "motorway", "lanes": "2", "name": "Radial de Coimbra", "oneway": "yes", "ref": "A 13-1", "surface": "asphalt", "toll": "yes"}}]}