{"type": "FeatureCollection", "features": [{"type": "Feature", "geometry": {"type": "LineString", "coordinates": [[-8.4718232, 40.2705526], [-8.4713774, 40.27046]]}, "properties": {"alt_name": "IP3", "highway": "motorway", "int_ref": "E 801", "lanes": "3", "name": "Autoestrada do Baixo Mondego", "oneway": "yes", "ref": "A 14;IP 3", "surface": "asphalt"}}, {"type": "Feature", "geometry": {"type": "LineString", "coordinates": [[-8.5355349, 40.2843398], [-8.5282647, 40.2849243], [-8.5276642, 40.2849853], [-8.5257421, 40.2851544]]}, "properties": {"highway": "motorway", "lanes": "2", "maxspeed": "120", "name": "Autoestrada do Baixo Mondego", "oneway": "yes", "ref": "A 14;IP 3", "source": "Bing", "surface": "asphalt", "toll": "yes"}}, {"type": "Feature", "geometry": {"type": "LineString", "coordinates": [[-8.5392734, 40.2841487], [-8.5412188, 40.2840042], [-8.5434358, 40.2838934], [-8.5458982, 40.2838488], [-8.5479159, 40.283871], [-8.5500845, 40.2839611], [-8.5524349, 40.2841212], [-8.5683586, 40.2856372], [-8.569501, 40.2857108], [-8.5705362, 40.2857269], [-8.5714546, 40.2856878], [-8.572405, 40.2855949], [-8.5733006, 40.2854564], [-8.5742987, 40.2852416], [-8.5752365, 40.2849737], [-8.5763989, 40.284561], [-8.5777411, 40.2839459], [-8.5890341, 40.2778877], [-8.5907562, 40.277], [-8.592693, 40.2760619], [-8.5948187, 40.2751149], [-8.5967434, 40.274319], [-8.5984724, 40.2736519], [-8.6002213, 40.2730214], [-8.6149646, 40.2679746], [-8.6175888, 40.2670466], [-8.6197771, 40.2661447], [-8.6211051, 40.2654902], [-8.6222738, 40.2648405], [-8.6242848, 40.2635952], [-8.6267662, 40.262011], [-8.6271449, 40.261763], [-8.6300321, 40.2599266], [-8.6307638, 40.2594738], [-8.6326588, 40.2582528], [-8.6341305, 40.2573628], [-8.6356133, 40.2565252], [-8.637206, 40.2556898], [-8.6385629, 40.2550116], [-8.6408136, 40.2539962], [-8.6480256, 40.2509596], [-8.6501785, 40.2500577], [-8.6516015, 40.2494442], [-8.652385, 40.2490799], [-8.653115, 40.2486977], [-8.6540563, 40.2481143], [-8.6549167, 40.2474922], [-8.655661, 40.2468431], [-8.6564098, 40.2460887], [-8.6569734, 40.2454055], [-8.6574049, 40.2447919], [-8.6578542, 40.2440932], [-8.6618766, 40.2374792], [-8.6624956, 40.2365492], [-8.6632535, 40.2354924], [-8.6641249, 40.2343411], [-8.665041, 40.2332106], [-8.6706638, 40.2266872], [-8.6726681, 40.2243432], [-8.6735646, 40.223271], [-8.6741021, 40.222508], [-8.6745547, 40.2217535], [-8.674891, 40.2210208], [-8.675185, 40.2201791], [-8.6753472, 40.2194585], [-8.6754373, 40.2187792], [-8.6754799, 40.2181826], [-8.6754504, 40.2173827], [-8.6753596, 40.216559], [-8.6752681, 40.2156632]]}, "properties": {"highway": "motorway", "lanes": "2", "maxspeed": "120", "name": "Autoestrada do Baixo Mondego", "oneway": "yes", "ref": "A 14;IP 3", "source": "Bing", "surface": "asphalt", "toll": "yes"}}, {"type": "Feature", "geometry": {"type": "LineString", "coordinates": [[-8.5356658, 40.2844457], [-8.5392734, 40.2841487]]}, "properties": {"bridge": "yes", "highway": "motorway", "lanes": "2", "layer": "1", "maxspeed": "120", "name": "Autoestrada do Baixo Mondego", "oneway": "yes", "ref": "A 14;IP 3", "source": "Bing", "surface": "asphalt", "toll": "yes"}}, {"type": "Feature", "geometry": {"type": "LineString", "coordinates": [[-8.5391293, 40.2840472], [-8.5355349, 40.2843398]]}, "properties": {"bridge": "yes", "highway": "motorway", "lanes": "2", "layer": "1", "maxspeed": "120", "name": "Autoestrada do Baixo Mondego", "oneway": "yes", "ref": "A 14;IP 3", "source": "Bing", "surface": "asphalt", "toll": "yes"}}, {"type": "Feature", "geometry": {"type": "LineString", "coordinates": [[-8.7124875, 40.1726155], [-8.7113592, 40.1730848], [-8.7101139, 40.1737524], [-8.7094777, 40.1741872], [-8.7085115, 40.1750352], [-8.707904, 40.1757056], [-8.7057432, 40.1790295], [-8.7025052, 40.1840848], [-8.6997257, 40.1882423], [-8.6987836, 40.189212], [-8.6979532, 40.1899088], [-8.697081, 40.1905081], [-8.6953984, 40.1913802]]}, "properties": {"highway": "motorway", "iof": "road", "lanes": "2", "maxspeed": "120", "name": "Autoestrada do Baixo Mondego", "oneway": "yes", "ref": "A 14;IP 3", "source": "Bing", "surface": "asphalt", "toll": "no", "type": "motorway"}}, {"type": "Feature", "geometry": {"type": "LineString", "coordinates": [[-8.8358107, 40.1505266], [-8.8334057, 40.1500782], [-8.8323147, 40.1498955]]}, "properties": {"highway": "motorway", "lanes": "2", "lit": "yes", "maxspeed": "120", "name": "Autoestrada do Baixo Mondego", "oneway": "yes", "ref": "A 14;IP 3", "source": "Bing", "surface": "asphalt", "toll": "no"}}, {"type": "Feature", "geometry": {"type": "LineString", "coordinates": [[-8.8383238, 40.1510644], [-8.8385545, 40.1511041]]}, "properties": {"destination:lanes": "Figueira da Foz|Figueira da Foz;Leiria", "destination:ref:lanes": "A 14|A14;EN 109", "highway": "motorway", "lanes": "2", "maxspeed": "60", "name": "Autoestrada do Baixo Mondego", "oneway": "yes", "ref": "A 14;IP 3", "source": "bing", "surface": "asphalt", "toll": "no", "turn:lanes": "through|through;right"}}, {"type": "Feature", "geometry": {"type": "LineString", "coordinates": [[-8.8358096, 40.1506115], [-8.8378205, 40.1509737]]}, "properties": {"bridge": "yes", "highway": "motorway", "lanes": "2", "layer": "1", "maxspeed": "100", "name": "Autoestrada do Baixo Mondego", "oneway": "yes", "ref": "A 14;IP 3", "surface": "asphalt", "toll": "no"}}, {"type": "Feature", "geometry": {"type": "LineString", "coordinates": [[-8.8383452, 40.1509962], [-8.8378385, 40.1509023], [-8.8358107, 40.1505266]]}, "properties": {"bridge": "yes", "highway": "motorway", "lanes": "2", "layer": "1", "maxspeed": "120", "name": "Autoestrada do Baixo Mondego", "oneway": "yes", "ref": "A 14;IP 3", "surface": "asphalt", "toll": "no"}}, {"type": "Feature", "geometry": {"type": "LineString", "coordinates": [[-8.4809693, 40.2735788], [-8.4811732, 40.2736571], [-8.4813893, 40.2737323], [-8.481614, 40.2738021], [-8.4818115, 40.2738572]]}, "properties": {"bridge": "viaduct", "highway": "motorway", "lanes": "3", "layer": "1", "lit": "yes", "name": "Autoestrada do Baixo Mondego", "oneway": "yes", "placement": "right_of:1", "ref": "A 14;IP 3", "source": "Bing", "surface": "asphalt", "toll": "yes"}}, {"type": "Feature", "geometry": {"type": "LineString", "coordinates": [[-8.5257271, 40.2852849], [-8.5276736, 40.2851218], [-8.5284416, 40.2850368], [-8.5298796, 40.2849215], [-8.5356658, 40.2844457]]}, "properties": {"highway": "motorway", "lanes": "2", "maxspeed": "120", "name": "Autoestrada do Baixo Mondego", "oneway": "yes", "ref": "A 14;IP 3", "source": "Bing", "surface": "asphalt", "toll": "yes"}}, {"type": "Feature", "geometry": {"type": "LineString", "coordinates": [[-8.5257421, 40.2851544], [-8.5251749, 40.2851962]]}, "properties": {"bridge": "yes", "highway": "motorway", "lanes": "2", "layer": "1", "maxspeed": "120", "name": "Autoestrada do Baixo Mondego", "oneway": "yes", "ref": "A 14;IP 3", "source": "Bing", "surface": "asphalt", "toll": "yes"}}, {"type": "Feature", "geometry": {"type": "LineString", "coordinates": [[-8.5251737, 40.2853293], [-8.5257271, 40.2852849]]}, "properties": {"bridge": "yes", "highway": "motorway", "lanes": "2", "layer": "1", "maxspeed": "120", "name": "Autoestrada do Baixo Mondego", "oneway": "yes", "ref": "A 14;IP 3", "source": "Bing", "surface": "asphalt", "toll": "yes"}}, {"type": "Feature", "geometry": {"type": "LineString", "coordinates": [[-8.5182817, 40.2853466], [-8.5172476, 40.285137], [-8.5163493, 40.2848802], [-8.5153272, 40.2844978], [-8.5145089, 40.2841097], [-8.5137767, 40.2836847], [-8.5131743, 40.2832781], [-8.5126187, 40.2828347], [-8.5118925, 40.2821587], [-8.5101948, 40.2803091], [-8.5067738, 40.2765128], [-8.5052086, 40.2747914]]}, "properties": {"highway": "motorway", "lanes": "2", "maxspeed": "120", "name": "Autoestrada do Baixo Mondego", "oneway": "yes", "ref": "A 14;IP 3", "source": "Bing", "surface": "asphalt", "toll": "yes"}}, {"type": "Feature", "geometry": {"type": "LineString", "coordinates": [[-8.4698034, 40.2702574], [-8.4708104, 40.2704661], [-8.4714085, 40.2705968]]}, "properties": {"alt_name": "IP3", "highway": "motorway", "int_ref": "E 801", "lanes": "3", "name": "Autoestrada do Baixo Mondego", "oneway": "yes", "ref": "A 14;IP 3", "surface": "asphalt"}}, {"type": "Feature", "geometry": {"type": "LineString", "coordinates": [[-8.4695005, 40.2701927], [-8.4698034, 40.2702574]]}, "properties": {"alt_name": "IP3", "bridge": "yes", "highway": "motorway", "int_ref": "E 801", "lanes": "3", "layer": "1", "name": "Autoestrada do Baixo Mondego", "oneway": "yes", "ref": "A 14;IP 3", "surface": "asphalt"}}, {"type": "Feature", "geometry": {"type": "LineString", "coordinates": [[-8.7953603, 40.1536688], [-8.7948048, 40.1536727]]}, "properties": {"bridge": "viaduct", "highway": "motorway", "lanes": "2", "layer": "1", "maxspeed": "120", "name": "Autoestrada do Baixo Mondego", "oneway": "yes", "ref": "A 14;IP 3", "source": "bing", "surface": "asphalt", "toll": "no"}}, {"type": "Feature", "geometry": {"type": "LineString", "coordinates": [[-8.7954071, 40.1537673], [-8.7967835, 40.1537588], [-8.7983796, 40.1537342], [-8.8003325, 40.1536993], [-8.8024104, 40.1536658], [-8.8033385, 40.1535986], [-8.8042726, 40.1534949], [-8.8053964, 40.153321], [-8.8109493, 40.1524346], [-8.8120095, 40.152217], [-8.8127257, 40.1520358], [-8.8180472, 40.1503962], [-8.8189955, 40.1501715], [-8.8199893, 40.149999], [-8.8210695, 40.1498943], [-8.8267849, 40.1497273], [-8.8285187, 40.1497314]]}, "properties": {"highway": "motorway", "lanes": "2", "lit": "no", "maxheight": "default", "maxspeed": "120", "name": "Autoestrada do Baixo Mondego", "oneway": "yes", "ref": "A 14;IP 3", "source": "Bing", "surface": "asphalt", "toll": "no"}}, {"type": "Feature", "geometry": {"type": "LineString", "coordinates": [[-8.794838, 40.1537752], [-8.7954071, 40.1537673]]}, "properties": {"bridge": "viaduct", "highway": "motorway", "lanes": "2", "layer": "1", "maxspeed": "120", "name": "Autoestrada do Baixo Mondego", "oneway": "yes", "ref": "A 14;IP 3", "source": "bing", "surface": "asphalt", "toll": "no"}}, {"type": "Feature", "geometry": {"type": "LineString", "coordinates": [[-8.6893465, 40.1938152], [-8.6911802, 40.1931257], [-8.6935002, 40.1922691], [-8.6954968, 40.1914755]]}, "properties": {"highway": "motorway", "iof": "road", "lanes": "2", "maxspeed": "120", "name": "Autoestrada do Baixo Mondego", "oneway": "yes", "ref": "A 14;IP 3", "source": "Bing", "surface": "asphalt", "toll": "yes", "type": "motorway"}}, {"type": "Feature", "geometry": {"type": "LineString", "coordinates": [[-8.6842573, 40.1957083], [-8.6893465, 40.1938152]]}, "properties": {"bridge": "viaduct", "highway": "motorway", "iof": "road", "lanes": "2", "layer": "1", "maxspeed": "120", "name": "Autoestrada do Baixo Mondego", "oneway": "yes", "ref": "A 14;IP 3", "source": "Bing", "surface": "asphalt", "toll": "yes", "type": "motorway"}}, {"type": "Feature", "geometry": {"type": "LineString", "coordinates": [[-8.6892846, 40.1937146], [-8.6841828, 40.1956067]]}, "properties": {"bridge": "viaduct", "highway": "motorway", "iof": "road", "lanes": "2", "layer": "1", "maxspeed": "120", "name": "Autoestrada do Baixo Mondego", "oneway": "yes", "ref": "A 14;IP 3", "source": "Bing", "surface": "asphalt", "toll": "yes", "type": "motorway"}}, {"type": "Feature", "geometry": {"type": "LineString", "coordinates": [[-8.6841828, 40.1956067], [-8.6834742, 40.1959177], [-8.6823026, 40.1964894], [-8.6815082, 40.1969316], [-8.6805641, 40.1975323], [-8.6797357, 40.1981207], [-8.678616, 40.1990355], [-8.6776718, 40.1999213], [-8.676784, 40.201016], [-8.6757221, 40.202595], [-8.6750066, 40.2040762], [-8.6747185, 40.2049073], [-8.6745313, 40.2055093], [-8.6743339, 40.2063094], [-8.6741979, 40.2072488], [-8.6741483, 40.2079219], [-8.674148, 40.2085479], [-8.6742987, 40.2102845], [-8.6744757, 40.2115705], [-8.6749164, 40.2144121]]}, "properties": {"highway": "motorway", "iof": "road", "lanes": "2", "maxspeed": "120", "name": "Autoestrada do Baixo Mondego", "oneway": "yes", "ref": "A 14;IP 3", "source": "Bing", "surface": "asphalt", "toll": "yes", "type": "motorway"}}, {"type": "Feature", "geometry": {"type": "LineString", "coordinates": [[-8.6750435, 40.2143022], [-8.6746528, 40.2117208], [-8.6744625, 40.2103804], [-8.6743261, 40.2086913], [-8.6743308, 40.208105], [-8.6743819, 40.2074139], [-8.6745183, 40.2064892], [-8.6746394, 40.205771], [-8.674856, 40.2049188], [-8.6751435, 40.2040972], [-8.6754801, 40.2034035], [-8.6758868, 40.2026346], [-8.6769289, 40.2010635], [-8.67781, 40.2000289], [-8.6787537, 40.1990949], [-8.6798472, 40.1981825], [-8.6807038, 40.197581], [-8.681606, 40.1970185], [-8.6824182, 40.1965726], [-8.6835521, 40.1960137], [-8.6842573, 40.1957083]]}, "properties": {"highway": "motorway", "iof": "road", "lanes": "2", "maxspeed": "120", "name": "Autoestrada do Baixo Mondego", "oneway": "yes", "ref": "A 14;IP 3", "source": "Bing", "surface": "asphalt", "toll": "yes", "type": "motorway"}}, {"type": "Feature", "geometry": {"type": "LineString", "coordinates": [[-8.6752681, 40.2156632], [-8.6750435, 40.2143022]]}, "properties": {"bridge": "viaduct", "highway": "motorway", "lanes": "2", "layer": "1", "maxspeed": "120", "name": "Autoestrada do Baixo Mondego", "oneway": "yes", "ref": "A 14;IP 3", "source": "Bing", "surface": "asphalt", "toll": "yes"}}, {"type": "Feature", "geometry": {"type": "LineString", "coordinates": [[-8.6749164, 40.2144121], [-8.6751366, 40.2157884]]}, "properties": {"bridge": "viaduct", "highway": "motorway", "lanes": "2", "layer": "1", "maxspeed": "120", "name": "Autoestrada do Baixo Mondego", "oneway": "yes", "ref": "A 14;IP 3", "source": "Bing", "surface": "asphalt", "toll": "yes"}}, {"type": "Feature", "geometry": {"type": "LineString", "coordinates": [[-8.6751366, 40.2157884], [-8.6752114, 40.2165784], [-8.6753074, 40.2173857], [-8.6753328, 40.2181994], [-8.6753003, 40.2187705], [-8.675203, 40.2194409], [-8.6750308, 40.2201683], [-8.6747428, 40.2209981], [-8.6744168, 40.2217137], [-8.6739666, 40.2224724], [-8.6734401, 40.2232117], [-8.6725185, 40.2243195], [-8.6705369, 40.2266223], [-8.6649789, 40.2330768], [-8.6639697, 40.2343223], [-8.6631441, 40.2354084], [-8.6623706, 40.2364977], [-8.6617059, 40.2374846], [-8.6577116, 40.2440609], [-8.6572656, 40.2447589], [-8.6568436, 40.2453461], [-8.6562847, 40.2460226], [-8.6555663, 40.2467552], [-8.6547731, 40.2474349], [-8.6539475, 40.2480382], [-8.6530625, 40.2485843], [-8.6523286, 40.2489721], [-8.6515509, 40.2493384], [-8.6501212, 40.2499535], [-8.6479688, 40.2508573], [-8.6407369, 40.2539003], [-8.6386823, 40.2548352], [-8.6384815, 40.2549236], [-8.6376094, 40.2553542], [-8.6371181, 40.2555968], [-8.6355133, 40.2564445], [-8.6340482, 40.2572941], [-8.631523, 40.2588013], [-8.6311157, 40.2590869], [-8.6295289, 40.2601017], [-8.6291265, 40.2603367], [-8.624185, 40.2635239], [-8.6222049, 40.2647424], [-8.6210672, 40.2653852], [-8.6197079, 40.266034], [-8.6175163, 40.2669569], [-8.6151051, 40.2677961], [-8.6001571, 40.2729178], [-8.5984066, 40.2735498], [-8.5966641, 40.2742245], [-8.5947479, 40.2750133], [-8.5926701, 40.2759422], [-8.5906681, 40.2769153], [-8.5889595, 40.2777894], [-8.5776539, 40.2838521], [-8.5763427, 40.2844531], [-8.5752426, 40.2848586], [-8.5742144, 40.2851384], [-8.5732633, 40.2853492], [-8.5723771, 40.2854839], [-8.5714652, 40.2855738], [-8.5705382, 40.2856152], [-8.5695071, 40.2856003], [-8.5683536, 40.2855219], [-8.5524351, 40.2840066], [-8.5501039, 40.283846], [-8.5479471, 40.2837609], [-8.5459046, 40.2837397], [-8.5434193, 40.2837837], [-8.5412181, 40.2838912], [-8.5391293, 40.2840472]]}, "properties": {"highway": "motorway", "lanes": "2", "maxspeed": "120", "name": "Autoestrada do Baixo Mondego", "oneway": "yes", "ref": "A 14;IP 3", "source": "Bing", "surface": "asphalt", "toll": "yes"}}, {"type": "Feature", "geometry": {"type": "LineString", "coordinates": [[-8.8300574, 40.1496206], [-8.829526, 40.1496062], [-8.8289109, 40.1496015], [-8.8267911, 40.1496257], [-8.8210585, 40.1497927], [-8.8200738, 40.1498922], [-8.8189468, 40.1500772], [-8.8180293, 40.1502944], [-8.8127094, 40.1519291], [-8.8119706, 40.152124], [-8.8108794, 40.1523538], [-8.8053665, 40.1532295], [-8.8042587, 40.1533957], [-8.8033425, 40.153498], [-8.8024443, 40.1535544], [-8.8002806, 40.1535986], [-8.7953603, 40.1536688]]}, "properties": {"highway": "motorway", "lanes": "2", "lit": "yes", "maxheight": "default", "maxspeed": "120", "name": "Autoestrada do Baixo Mondego", "oneway": "yes", "ref": "A 14;IP 3", "source": "Bing", "surface": "asphalt", "toll": "no"}}, {"type": "Feature", "geometry": {"type": "LineString", "coordinates": [[-8.8317305, 40.1499185], [-8.8322843, 40.150008]]}, "properties": {"bridge": "viaduct", "highway": "motorway", "lanes": "3", "layer": "1", "lit": "yes", "maxspeed": "120", "name": "Autoestrada do Baixo Mondego", "oneway": "yes", "ref": "A 14;IP 3", "source": "Bing", "surface": "asphalt", "toll": "no"}}, {"type": "Feature", "geometry": {"type": "LineString", "coordinates": [[-8.8323147, 40.1498955], [-8.83174, 40.1498036]]}, "properties": {"bridge": "viaduct", "highway": "motorway", "lanes": "2", "layer": "1", "lit": "yes", "maxspeed": "120", "name": "Autoestrada do Baixo Mondego", "oneway": "yes", "ref": "A 14;IP 3", "source": "Bing", "surface": "asphalt", "toll": "no"}}, {"type": "Feature", "geometry": {"type": "LineString", "coordinates": [[-8.8322843, 40.150008], [-8.8333748, 40.1501993], [-8.8345542, 40.150399]]}, "properties": {"highway": "motorway", "lanes": "3", "lit": "yes", "maxspeed": "120", "name": "Autoestrada do Baixo Mondego", "oneway": "yes", "ref": "A 14;IP 3", "source": "Bing", "surface": "asphalt", "toll": "no", "turn:lanes": "none|none|merge_to_left"}}, {"type": "Feature", "geometry": {"type": "LineString", "coordinates": [[-8.4907197, 40.273287], [-8.489527, 40.2736038], [-8.4887903, 40.2737489], [-8.4883469, 40.273812]]}, "properties": {"bridge": "viaduct", "highway": "motorway", "lanes": "2", "layer": "1", "name": "Autoestrada do Baixo Mondego", "oneway": "yes", "ref": "A 14;IP 3", "source": "Bing", "surface": "asphalt", "toll": "yes", "turn:lanes": "through|through;right"}}, {"type": "Feature", "geometry": {"type": "LineString", "coordinates": [[-8.472006, 40.2707629], [-8.4727941, 40.2709689], [-8.4733202, 40.2711027]]}, "properties": {"highway": "motorway", "int_ref": "E 801", "lanes": "2", "maxheight:signed": "no", "maxspeed": "60", "name": "Autoestrada do Baixo Mondego", "note": "Via Verde", "oneway": "yes", "ref": "A 14;IP 3", "source": "Bing", "surface": "asphalt"}}, {"type": "Feature", "geometry": {"type": "LineString", "coordinates": [[-8.4838006, 40.2734398], [-8.4832218, 40.2732502], [-8.4822739, 40.2729048]]}, "properties": {"change:lanes": "yes|yes|no", "destination:lanes": "Porto|Coimbra;Viseu|Coimbra;Viseu", "highway": "motorway", "lanes": "3", "lit": "yes", "name": "Autoestrada do Baixo Mondego", "oneway": "yes", "ref": "A 14;IP 3", "surface": "asphalt", "toll": "yes", "turn:lanes": "left|through|through"}}, {"type": "Feature", "geometry": {"type": "LineString", "coordinates": [[-8.5124993, 40.2829092], [-8.5131064, 40.2833887], [-8.5136927, 40.2837732], [-8.5144606, 40.2842179], [-8.5152755, 40.2846073], [-8.5163147, 40.2849903], [-8.5171917, 40.2852395], [-8.5182675, 40.2854636], [-8.5187854, 40.2855396], [-8.5192726, 40.2855935], [-8.51977, 40.285636], [-8.5202565, 40.2856621], [-8.5206752, 40.2856689], [-8.5210191, 40.2856543]]}, "properties": {"highway": "motorway", "lanes": "2", "maxheight:signed": "no", "maxspeed": "120", "name": "Autoestrada do Baixo Mondego", "oneway": "yes", "ref": "A 14;IP 3", "source": "Bing", "surface": "asphalt", "toll": "yes"}}, {"type": "Feature", "geometry": {"type": "LineString", "coordinates": [[-8.8413986, 40.151555], [-8.8410127, 40.1514834]]}, "properties": {"change:lanes": "no|no", "destination": "Viseu;Coimbra", "destination:symbol": "motorway", "highway": "motorway", "lanes": "2", "maxspeed": "90", "name": "Autoestrada do Baixo Mondego", "oneway": "yes", "ref": "A 14;IP 3", "source": "bing", "surface": "asphalt", "toll": "no"}}, {"type": "Feature", "geometry": {"type": "LineString", "coordinates": [[-8.4793832, 40.2728874], [-8.4796144, 40.2730107], [-8.4800329, 40.273209], [-8.4805986, 40.2734359]]}, "properties": {"change:lanes": "no|no", "destination": "Figueira da Foz", "highway": "motorway", "lanes": "2", "lit": "yes", "name": "Autoestrada do Baixo Mondego", "oneway": "yes", "ref": "A 14;IP 3", "source": "Bing", "surface": "asphalt", "toll": "yes"}}, {"type": "Feature", "geometry": {"type": "LineString", "coordinates": [[-8.4780913, 40.2723408], [-8.4787902, 40.2726424]]}, "properties": {"change:lanes": "no|no", "highway": "motorway", "int_ref": "E 801", "lanes": "2", "lit": "yes", "name": "Autoestrada do Baixo Mondego", "oneway": "yes", "ref": "A 14;IP 3", "source": "Bing", "surface": "asphalt", "toll": "yes", "turn:lanes": "through;left|through"}}, {"type": "Feature", "geometry": {"type": "LineString", "coordinates": [[-8.4796032, 40.2725471], [-8.4792851, 40.2725283], [-8.4789468, 40.2724793]]}, "properties": {"highway": "motorway", "lanes": "2", "lit": "yes", "name": "Autoestrada do Baixo Mondego", "oneway": "yes", "ref": "A 14;IP 3", "surface": "asphalt", "toll": "yes"}}, {"type": "Feature", "geometry": {"type": "LineString", "coordinates": [[-8.4777758, 40.2720435], [-8.4773538, 40.2718384], [-8.4768572, 40.2716372], [-8.4764082, 40.2714914], [-8.4760379, 40.2713926], [-8.4756466, 40.2712974], [-8.4744901, 40.2710788]]}, "properties": {"highway": "motorway", "int_ref": "E 801", "lanes": "3", "name": "Autoestrada do Baixo Mondego", "oneway": "yes", "ref": "A 14;IP 3", "surface": "asphalt", "toll": "yes"}}, {"type": "Feature", "geometry": {"type": "LineString", "coordinates": [[-8.4787902, 40.2726424], [-8.4793832, 40.2728874]]}, "properties": {"change:lanes": "yes|not_right|no", "destination:lanes": "Lisboa;Condeixa|Figueira|Figueira", "highway": "motorway", "int_ref": "E 801", "lanes": "3", "lit": "yes", "name": "Autoestrada do Baixo Mondego", "oneway": "yes", "ref": "A 14;IP 3", "source": "Bing", "surface": "asphalt", "toll": "yes", "turn:lanes": "left|through;left|through"}}, {"type": "Feature", "geometry": {"type": "LineString", "coordinates": [[-8.4823831, 40.2739932], [-8.4828741, 40.2740979], [-8.4833087, 40.2741738], [-8.4840492, 40.2742672]]}, "properties": {"bridge": "viaduct", "highway": "motorway", "lanes": "2", "layer": "1", "lit": "yes", "name": "Autoestrada do Baixo Mondego", "oneway": "yes", "ref": "A 14;IP 3", "source": "Bing", "surface": "asphalt", "toll": "yes"}}, {"type": "Feature", "geometry": {"type": "LineString", "coordinates": [[-8.4744901, 40.2710788], [-8.4733933, 40.2708754]]}, "properties": {"highway": "motorway", "int_ref": "E 801", "lanes": "1", "maxheight:signed": "no", "name": "Autoestrada do Baixo Mondego", "note": "Via Verde", "oneway": "yes", "ref": "A 14;IP 3", "surface": "asphalt", "toll": "yes"}}, {"type": "Feature", "geometry": {"type": "LineString", "coordinates": [[-8.4846883, 40.2736776], [-8.484361, 40.2735988], [-8.4838006, 40.2734398]]}, "properties": {"bridge": "viaduct", "change:lanes": "yes|yes|no", "highway": "motorway", "lanes": "3", "layer": "1", "lit": "yes", "name": "Autoestrada do Baixo Mondego", "oneway": "yes", "ref": "A 14;IP 3", "source": "Bing", "surface": "asphalt", "toll": "yes", "turn:lanes": "left|through|through"}}, {"type": "Feature", "geometry": {"type": "LineString", "coordinates": [[-8.4818115, 40.2738572], [-8.4823831, 40.2739932]]}, "properties": {"bridge": "viaduct", "highway": "motorway", "lanes": "3", "layer": "1", "lit": "yes", "name": "Autoestrada do Baixo Mondego", "oneway": "yes", "placement": "right_of:1", "ref": "A 14;IP 3", "source": "Bing", "surface": "asphalt", "toll": "yes", "turn:lanes": "through|through|merge_to_left"}}, {"type": "Feature", "geometry": {"type": "LineString", "coordinates": [[-8.4853382, 40.2743533], [-8.4859138, 40.2743445], [-8.486549, 40.2742901]]}, "properties": {"bridge": "viaduct", "highway": "motorway", "lanes": "3", "layer": "1", "name": "Autoestrada do Baixo Mondego", "oneway": "yes", "ref": "A 14;IP 3", "source": "Bing", "surface": "asphalt", "toll": "yes", "turn:lanes": "through|through|merge_to_left"}}, {"type": "Feature", "geometry": {"type": "LineString", "coordinates": [[-8.4840492, 40.2742672], [-8.4847051, 40.2743259], [-8.4853382, 40.2743533]]}, "properties": {"bridge": "viaduct", "highway": "motorway", "lanes": "3", "layer": "1", "lit": "yes", "maxspeed": "120", "maxspeed:type": "sign", "name": "Autoestrada do Baixo Mondego", "oneway": "yes", "ref": "A 14;IP 3", "source": "Bing", "surface": "asphalt", "toll": "yes"}}, {"type": "Feature", "geometry": {"type": "LineString", "coordinates": [[-8.4861751, 40.2738595], [-8.4857802, 40.2738339], [-8.4853568, 40.2737898]]}, "properties": {"bridge": "viaduct", "change:lanes": "no|yes", "destination": "Viseu;Coimbra Norte;Porto;Mealhada", "destination:ref:to": "IP 3;A 1", "highway": "motorway", "lanes": "2", "layer": "1", "lit": "yes", "name": "Autoestrada do Baixo Mondego", "oneway": "yes", "ref": "A 14;IP 3", "source": "Bing", "surface": "asphalt", "toll": "yes", "turn:lanes": "through;left|through"}}, {"type": "Feature", "geometry": {"type": "LineString", "coordinates": [[-8.4789468, 40.2724793], [-8.4786617, 40.2724117], [-8.4782836, 40.2722775], [-8.4777758, 40.2720435]]}, "properties": {"highway": "motorway", "int_ref": "E 801", "lanes": "2", "lit": "yes", "maxheight:signed": "no", "name": "Autoestrada do Baixo Mondego", "oneway": "yes", "ref": "A 14;IP 3", "surface": "asphalt", "toll": "yes", "turn:lanes": "through|through"}}, {"type": "Feature", "geometry": {"type": "LineString", "coordinates": [[-8.4877996, 40.2738579], [-8.4875288, 40.2738709], [-8.4871019, 40.2738862], [-8.4866886, 40.2738854]]}, "properties": {"bridge": "viaduct", "change:lanes": "no|yes|yes", "highway": "motorway", "lanes": "3", "layer": "1", "name": "Autoestrada do Baixo Mondego", "oneway": "yes", "ref": "A 14;IP 3", "source": "Bing", "surface": "asphalt", "toll": "yes", "turn:lanes": "through|through;right|right"}}, {"type": "Feature", "geometry": {"type": "LineString", "coordinates": [[-8.486549, 40.2742901], [-8.4869602, 40.2742544], [-8.4873929, 40.2741982], [-8.4878656, 40.274123], [-8.4882892, 40.2740368], [-8.489522, 40.273743], [-8.490755, 40.2733925]]}, "properties": {"bridge": "viaduct", "highway": "motorway", "lanes": "2", "layer": "1", "maxspeed": "120", "maxspeed:type": "sign", "name": "Autoestrada do Baixo Mondego", "oneway": "yes", "ref": "A 14;IP 3", "source": "Bing", "surface": "asphalt", "toll": "yes"}}, {"type": "Feature", "geometry": {"type": "LineString", "coordinates": [[-8.4818113, 40.2727383], [-8.4814591, 40.2726182], [-8.481202, 40.2725676], [-8.4809902, 40.2725385]]}, "properties": {"change:lanes": "yes|no", "destination": "Coimbra;Viseu", "highway": "motorway", "lanes": "2", "lit": "yes", "name": "Autoestrada do Baixo Mondego", "oneway": "yes", "ref": "A 14;IP 3", "surface": "asphalt", "toll": "yes"}}, {"type": "Feature", "geometry": {"type": "LineString", "coordinates": [[-8.4755531, 40.2714293], [-8.4759463, 40.271521], [-8.4763231, 40.2716217], [-8.4767755, 40.2717759]]}, "properties": {"destination:lanes": "Figueira da Foz|Figueira da Foz|Porto", "highway": "motorway", "int_ref": "E 801", "lanes": "3", "maxspeed:type": "PT:motorway", "name": "Autoestrada do Baixo Mondego", "oneway": "yes", "ref": "A 14;IP 3", "source": "Bing", "surface": "asphalt", "toll": "yes"}}, {"type": "Feature", "geometry": {"type": "LineString", "coordinates": [[-8.7799777, 40.152207], [-8.7802929, 40.1522995], [-8.7830945, 40.1532275], [-8.783935, 40.1534279], [-8.7846249, 40.1535688], [-8.7855613, 40.1537268], [-8.7865709, 40.1538183], [-8.7868793, 40.1538365], [-8.787623, 40.153877]]}, "properties": {"highway": "motorway", "iof": "road", "lanes": "2", "maxheight": "default", "maxspeed": "120", "name": "Autoestrada do Baixo Mondego", "oneway": "yes", "ref": "A 14;IP 3", "source": "Bing", "surface": "asphalt", "toll": "no", "type": "motorway"}}, {"type": "Feature", "geometry": {"type": "LineString", "coordinates": [[-8.7876279, 40.1537419], [-8.7868788, 40.1537305], [-8.7864984, 40.1536986], [-8.785462, 40.1535912], [-8.7846225, 40.1534535], [-8.783964, 40.1533183], [-8.7831452, 40.153118], [-8.782547, 40.1529083]]}, "properties": {"highway": "motorway", "iof": "road", "lanes": "2", "maxspeed": "120", "name": "Autoestrada do Baixo Mondego", "oneway": "yes", "ref": "A 14;IP 3", "source": "Bing", "surface": "asphalt", "toll": "no", "type": "motorway"}}, {"type": "Feature", "geometry": {"type": "LineString", "coordinates": [[-8.7130486, 40.1725876], [-8.7137789, 40.1724025], [-8.7146792, 40.172234], [-8.7155189, 40.1721154], [-8.7190778, 40.1717951], [-8.719974, 40.1716579], [-8.7208662, 40.1714626], [-8.7215808, 40.1712491], [-8.7221796, 40.171028], [-8.7229461, 40.1707016], [-8.723477, 40.1704255], [-8.7241277, 40.1700351], [-8.724782, 40.1695675], [-8.7251726, 40.1692456], [-8.7366606, 40.1583906], [-8.7370998, 40.1579329], [-8.7374131, 40.1575287], [-8.7377045, 40.1570634], [-8.7378852, 40.156694], [-8.7381317, 40.1560291], [-8.7386127, 40.1544959], [-8.7388403, 40.1539482], [-8.7392055, 40.1533487], [-8.7395668, 40.1529185], [-8.7401496, 40.1523891], [-8.7470618, 40.1471759], [-8.7479321, 40.1465564], [-8.7487604, 40.1460392], [-8.7496187, 40.1455906], [-8.7503612, 40.1452748], [-8.7512175, 40.1449773], [-8.7520997, 40.1447438], [-8.7528163, 40.1446096], [-8.7536586, 40.1444982], [-8.7545568, 40.1444555], [-8.7556307, 40.1444738], [-8.7562893, 40.1445394], [-8.7570698, 40.1446523], [-8.7578023, 40.1448003], [-8.7586786, 40.1450414], [-8.7597664, 40.145403], [-8.7703053, 40.1495499], [-8.7712793, 40.1498718], [-8.7721396, 40.1501159], [-8.7732913, 40.1503859], [-8.7753212, 40.1507796], [-8.7766546, 40.1510984], [-8.7799777, 40.152207]]}, "properties": {"highway": "motorway", "iof": "road", "lanes": "2", "maxheight": "default", "maxspeed": "120", "name": "Autoestrada do Baixo Mondego", "oneway": "yes", "ref": "A 14;IP 3", "source": "Bing", "surface": "asphalt", "toll": "no", "type": "motorway"}}, {"type": "Feature", "geometry": {"type": "LineString", "coordinates": [[-8.782547, 40.1529083], [-8.7786811, 40.1516353], [-8.7766765, 40.1510023], [-8.7753372, 40.1506773], [-8.7733272, 40.1502883], [-8.7721216, 40.1500045], [-8.7712753, 40.1497696], [-8.7703153, 40.1494415], [-8.7597764, 40.1452992], [-8.7587205, 40.1449498], [-8.7578083, 40.1446965], [-8.7570857, 40.1445516], [-8.7563013, 40.1444402], [-8.7556287, 40.1443837], [-8.7545548, 40.1443563], [-8.7536347, 40.1444005], [-8.7527604, 40.1445241], [-8.7520718, 40.1446523], [-8.7512035, 40.1448796], [-8.7503213, 40.1451802], [-8.7495468, 40.1455174], [-8.7486746, 40.145969], [-8.7478662, 40.1464725], [-8.746952, 40.1471149], [-8.7400459, 40.1523342], [-8.739497, 40.1528391], [-8.7390798, 40.1533258], [-8.7387185, 40.1539147], [-8.738491, 40.1544669], [-8.737996, 40.1560306], [-8.7377848, 40.1566129], [-8.7375868, 40.1570283], [-8.7372974, 40.1574875], [-8.736988, 40.1578826], [-8.7365588, 40.1583296], [-8.7251443, 40.1691211], [-8.7246778, 40.1695024], [-8.7240519, 40.1699634], [-8.7234072, 40.1703508], [-8.7228802, 40.1706192], [-8.7221337, 40.1709365], [-8.7215329, 40.1711591], [-8.7208223, 40.1713696], [-8.7199341, 40.1715694], [-8.7190539, 40.171696], [-8.715471, 40.1720178], [-8.7146, 40.1721238], [-8.713729, 40.1722906], [-8.7131133, 40.1724415], [-8.7124875, 40.1726155]]}, "properties": {"highway": "motorway", "iof": "road", "lanes": "2", "maxheight": "default", "maxspeed": "120", "name": "Autoestrada do Baixo Mondego", "oneway": "yes", "ref": "A 14;IP 3", "source": "Bing", "surface": "asphalt", "toll": "no", "type": "motorway"}}, {"type": "Feature", "geometry": {"type": "LineString", "coordinates": [[-8.838967, 40.1511035], [-8.8385789, 40.1510365], [-8.8383452, 40.1509962]]}, "properties": {"highway": "motorway", "lanes": "2", "maxspeed": "120", "name": "Autoestrada do Baixo Mondego", "oneway": "yes", "ref": "A 14;IP 3", "source": "bing", "surface": "asphalt", "toll": "no"}}, {"type": "Feature", "geometry": {"type": "LineString", "coordinates": [[-8.8378205, 40.1509737], [-8.8383238, 40.1510644]]}, "properties": {"bridge": "yes", "highway": "motorway", "lanes": "2", "layer": "1", "maxspeed": "80", "name": "Autoestrada do Baixo Mondego", "oneway": "yes", "ref": "A 14;IP 3", "surface": "asphalt", "toll": "no", "turn:lanes": "through|through;right"}}, {"type": "Feature", "geometry": {"type": "LineString", "coordinates": [[-8.8353319, 40.1505306], [-8.8358096, 40.1506115]]}, "properties": {"highway": "motorway", "lanes": "2", "maxspeed": "100", "name": "Autoestrada do Baixo Mondego", "oneway": "yes", "ref": "A 14;IP 3", "source": "Bing", "surface": "asphalt", "toll": "no"}}, {"type": "Feature", "geometry": {"type": "LineString", "coordinates": [[-8.8345542, 40.150399], [-8.8353319, 40.1505306]]}, "properties": {"highway": "motorway", "lanes": "2", "lit": "yes", "maxspeed": "120", "name": "Autoestrada do Baixo Mondego", "oneway": "yes", "ref": "A 14;IP 3", "source": "Bing", "surface": "asphalt", "toll": "no"}}, {"type": "Feature", "geometry": {"type": "LineString", "coordinates": [[-8.6953984, 40.1913802], [-8.6934303, 40.1921685], [-8.6911089, 40.1930284], [-8.6892846, 40.1937146]]}, "properties": {"highway": "motorway", "iof": "road", "lanes": "2", "maxspeed": "120", "name": "Autoestrada do Baixo Mondego", "oneway": "yes", "ref": "A 14;IP 3", "source": "Bing", "surface": "asphalt", "type": "motorway"}}, {"type": "Feature", "geometry": {"type": "LineString", "coordinates": [[-8.6954968, 40.1914755], [-8.6971447, 40.1906073], [-8.6980091, 40.1900156], [-8.6989512, 40.189241], [-8.6998025, 40.1882928], [-8.7026433, 40.1841222], [-8.7058791, 40.1790726], [-8.7080453, 40.1757779], [-8.7086487, 40.175091], [-8.7095036, 40.1743002], [-8.7104511, 40.1737279], [-8.7110147, 40.1733935], [-8.712315, 40.1728122], [-8.7130486, 40.1725876]]}, "properties": {"highway": "motorway", "iof": "road", "lanes": "2", "maxspeed": "120", "name": "Autoestrada do Baixo Mondego", "oneway": "yes", "ref": "A 14;IP 3", "source": "Bing", "surface": "asphalt", "type": "motorway"}}, {"type": "Feature", "geometry": {"type": "LineString", "coordinates": [[-8.4733202, 40.2711027], [-8.4743428, 40.271255], [-8.4747989, 40.2713135]]}, "properties": {"highway": "motorway", "int_ref": "E 801", "lanes": "2", "maxheight:signed": "no", "name": "Autoestrada do Baixo Mondego", "note": "Via Verde", "oneway": "yes", "ref": "A 14;IP 3", "source": "Bing", "surface": "asphalt", "toll": "yes"}}, {"type": "Feature", "geometry": {"type": "LineString", "coordinates": [[-8.4733933, 40.2708754], [-8.4723064, 40.2706581]]}, "properties": {"highway": "motorway", "int_ref": "E 801", "lanes": "1", "maxheight:signed": "no", "name": "Autoestrada do Baixo Mondego", "note": "Via Verde", "oneway": "yes", "ref": "A 14;IP 3", "surface": "asphalt"}}, {"type": "Feature", "geometry": {"type": "LineString", "coordinates": [[-8.8390367, 40.1511872], [-8.8409973, 40.1515574]]}, "properties": {"destination:lanes": "Figueira da Foz|Figueira da Foz;Leiria", "destination:ref:lanes": "A 14|A14;EN 109", "highway": "motorway", "lanes": "2", "lit": "yes", "maxspeed": "60", "name": "Autoestrada do Baixo Mondego", "oneway": "yes", "ref": "A 14;IP 3", "source": "bing", "surface": "asphalt", "toll": "no"}}, {"type": "Feature", "geometry": {"type": "LineString", "coordinates": [[-8.4800619, 40.2725277], [-8.4796032, 40.2725471]]}, "properties": {"highway": "motorway", "lanes": "3", "lit": "yes", "name": "Autoestrada do Baixo Mondego", "oneway": "yes", "ref": "A 14;IP 3", "surface": "asphalt", "toll": "yes"}}, {"type": "Feature", "geometry": {"type": "LineString", "coordinates": [[-8.4804138, 40.2725081], [-8.4800619, 40.2725277]]}, "properties": {"change:lanes": "yes|not_right|no", "highway": "motorway", "lanes": "3", "lit": "yes", "name": "Autoestrada do Baixo Mondego", "oneway": "yes", "ref": "A 14;IP 3", "surface": "asphalt", "toll": "yes"}}, {"type": "Feature", "geometry": {"type": "LineString", "coordinates": [[-8.4809902, 40.2725385], [-8.4807144, 40.2725206], [-8.4804138, 40.2725081]]}, "properties": {"highway": "motorway", "lanes": "2", "lit": "yes", "name": "Autoestrada do Baixo Mondego", "oneway": "yes", "ref": "A 14;IP 3", "surface": "asphalt", "toll": "yes"}}, {"type": "Feature", "geometry": {"type": "LineString", "coordinates": [[-8.4822739, 40.2729048], [-8.4818113, 40.2727383]]}, "properties": {"change:lanes": "no|not_left|no", "destination:lanes": "Porto|Coimbra;Viseu|Coimbra;Viseu", "highway": "motorway", "lanes": "3", "lit": "yes", "name": "Autoestrada do Baixo Mondego", "oneway": "yes", "ref": "A 14;IP 3", "surface": "asphalt", "toll": "yes", "turn:lanes": "left|through|through"}}, {"type": "Feature", "geometry": {"type": "LineString", "coordinates": [[-8.4853568, 40.2737898], [-8.4850228, 40.2737397], [-8.4846883, 40.2736776]]}, "properties": {"bridge": "viaduct", "change:lanes": "yes|no", "highway": "motorway", "lanes": "2", "layer": "1", "lit": "yes", "name": "Autoestrada do Baixo Mondego", "oneway": "yes", "ref": "A 14;IP 3", "source": "Bing", "surface": "asphalt", "toll": "yes", "turn:lanes": "through;left|through"}}, {"type": "Feature", "geometry": {"type": "LineString", "coordinates": [[-8.4866886, 40.2738854], [-8.4861751, 40.2738595]]}, "properties": {"bridge": "viaduct", "change:lanes": "no|not_right|no", "highway": "motorway", "lanes": "3", "layer": "1", "name": "Autoestrada do Baixo Mondego", "oneway": "yes", "ref": "A 14;IP 3", "source": "Bing", "surface": "asphalt", "toll": "yes", "turn:lanes": "through|through;right|right"}}, {"type": "Feature", "geometry": {"type": "LineString", "coordinates": [[-8.4883469, 40.273812], [-8.4877996, 40.2738579]]}, "properties": {"bridge": "viaduct", "change:lanes": "no|yes", "highway": "motorway", "lanes": "2", "layer": "1", "name": "Autoestrada do Baixo Mondego", "oneway": "yes", "ref": "A 14;IP 3", "source": "Bing", "surface": "asphalt", "toll": "yes", "turn:lanes": "through|through;right"}}, {"type": "Feature", "geometry": {"type": "LineString", "coordinates": [[-8.4807993, 40.2735133], [-8.4809693, 40.2735788]]}, "properties": {"highway": "motorway", "lanes": "3", "lit": "yes", "name": "Autoestrada do Baixo Mondego", "oneway": "yes", "placement": "right_of:1", "ref": "A 14;IP 3", "source": "Bing", "surface": "asphalt", "toll": "yes"}}, {"type": "Feature", "geometry": {"type": "LineString", "coordinates": [[-8.4805986, 40.2734359], [-8.4807993, 40.2735133]]}, "properties": {"destination": "Figueira da Foz", "highway": "motorway", "lanes": "2", "lit": "yes", "name": "Autoestrada do Baixo Mondego", "oneway": "yes", "ref": "A 14;IP 3", "source": "Bing", "surface": "asphalt", "toll": "yes"}}, {"type": "Feature", "geometry": {"type": "LineString", "coordinates": [[-8.4776382, 40.2721277], [-8.4780913, 40.2723408]]}, "properties": {"change:lanes": "not_right|not_right|no", "destination:lanes": "Lisboa;Condeixa;Figueira da Foz;Cantanhede|Figueira da Foz;Cantanhede|Porto;Mealhada", "highway": "motorway", "int_ref": "E 801", "lanes": "3", "maxheight:signed": "no", "name": "Autoestrada do Baixo Mondego", "oneway": "yes", "ref": "A 14;IP 3", "source": "Bing", "surface": "asphalt", "toll": "yes", "turn:lanes": "through|through|right"}}, {"type": "Feature", "geometry": {"type": "LineString", "coordinates": [[-8.4767755, 40.2717759], [-8.4772572, 40.2719625], [-8.4776382, 40.2721277]]}, "properties": {"change:lanes": "not_right|yes|yes", "destination:lanes": "Lisboa;Condeixa;Figueira da Foz;Cantanhede|Figueira da Foz;Cantanhede|Porto;Mealhada", "highway": "motorway", "int_ref": "E 801", "lanes": "3", "name": "Autoestrada do Baixo Mondego", "oneway": "yes", "ref": "A 14;IP 3", "source": "Bing", "surface": "asphalt", "toll": "yes", "turn:lanes": "through|through|right"}}, {"type": "Feature", "geometry": {"type": "LineString", "coordinates": [[-8.4723064, 40.2706581], [-8.4718232, 40.2705526]]}, "properties": {"highway": "motorway", "int_ref": "E 801", "lanes": "3", "name": "Autoestrada do Baixo Mondego", "oneway": "yes", "ref": "A 14;IP 3", "surface": "asphalt"}}, {"type": "Feature", "geometry": {"type": "LineString", "coordinates": [[-8.4744901, 40.2710788], [-8.4741104, 40.2710823]]}, "properties": {"highway": "motorway", "int_ref": "E 801", "lanes": "2", "oneway": "yes", "ref": "A 14;IP 3", "surface": "asphalt"}}, {"type": "Feature", "geometry": {"type": "LineString", "coordinates": [[-8.4744901, 40.2710788], [-8.4740213, 40.2708915]]}, "properties": {"highway": "motorway", "int_ref": "E 801", "lanes": "2", "oneway": "yes", "ref": "A 14;IP 3", "surface": "asphalt"}}, {"type": "Feature", "geometry": {"type": "LineString", "coordinates": [[-8.4726546, 40.2706249], [-8.4723064, 40.2706581]]}, "properties": {"highway": "motorway", "int_ref": "E 801", "lanes": "2", "oneway": "yes", "ref": "A 14;IP 3", "surface": "asphalt"}}, {"type": "Feature", "geometry": {"type": "LineString", "coordinates": [[-8.4740213, 40.2708915], [-8.4734239, 40.2707805], [-8.472909, 40.2706743], [-8.4726546, 40.2706249]]}, "properties": {"highway": "motorway", "int_ref": "E 801", "lanes": "3", "maxheight:signed": "no", "oneway": "yes", "ref": "A 14;IP 3", "surface": "asphalt"}}, {"type": "Feature", "geometry": {"type": "LineString", "coordinates": [[-8.4741104, 40.2710823], [-8.4737842, 40.2710182], [-8.4733704, 40.2709466], [-8.4728437, 40.2708292], [-8.4723064, 40.2706581]]}, "properties": {"highway": "motorway", "int_ref": "E 801", "lanes": "2", "maxheight:signed": "no", "oneway": "yes", "ref": "A 14;IP 3", "surface": "asphalt"}}, {"type": "Feature", "geometry": {"type": "LineString", "coordinates": [[-8.4741104, 40.2710823], [-8.4737684, 40.2710825], [-8.4733466, 40.2710204], [-8.4728279, 40.2708835], [-8.4723064, 40.2706581]]}, "properties": {"highway": "motorway", "int_ref": "E 801", "lanes": "1", "maxheight:signed": "no", "note": "Via Verde", "oneway": "yes", "ref": "A 14;IP 3", "surface": "asphalt"}}, {"type": "Feature", "geometry": {"type": "LineString", "coordinates": [[-8.4747989, 40.2713135], [-8.4755531, 40.2714293]]}, "properties": {"highway": "motorway", "int_ref": "E 801", "lanes": "3", "name": "Autoestrada do Baixo Mondego", "oneway": "yes", "ref": "A 14;IP 3", "source": "Bing", "surface": "asphalt", "toll": "yes"}}, {"type": "Feature", "geometry": {"type": "LineString", "coordinates": [[-8.4714085, 40.2705968], [-8.472006, 40.2707629]]}, "properties": {"highway": "motorway", "int_ref": "E 801", "lanes": "3", "name": "Autoestrada do Baixo Mondego", "oneway": "yes", "ref": "A 14;IP 3", "source": "Bing", "surface": "asphalt"}}, {"type": "Feature", "geometry": {"type": "LineString", "coordinates": [[-8.4742874, 40.2713398], [-8.4747989, 40.2713135]]}, "properties": {"highway": "motorway", "int_ref": "E 801", "lanes": "2", "oneway": "yes", "ref": "A 14;IP 3", "surface": "asphalt"}}, {"type": "Feature", "geometry": {"type": "LineString", "coordinates": [[-8.472006, 40.2707629], [-8.4725671, 40.2710121]]}, "properties": {"highway": "motorway", "int_ref": "E 801", "lanes": "2", "oneway": "yes", "ref": "A 14;IP 3", "surface": "asphalt"}}, {"type": "Feature", "geometry": {"type": "LineString", "coordinates": [[-8.4725671, 40.2710121], [-8.4732909, 40.2711935], [-8.4738132, 40.2712754], [-8.4742874, 40.2713398]]}, "properties": {"highway": "motorway", "int_ref": "E 801", "lanes": "3", "maxheight:signed": "no", "oneway": "yes", "ref": "A 14;IP 3", "surface": "asphalt"}}, {"type": "Feature", "geometry": {"type": "LineString", "coordinates": [[-8.4692326, 40.2701391], [-8.4695005, 40.2701927]]}, "properties": {"change:lanes": "yes|not_right|no", "highway": "motorway", "int_ref": "E 801", "lanes": "3", "name": "Autoestrada do Baixo Mondego", "oneway": "yes", "placement": "right_of:1", "ref": "A 14;IP 3", "surface": "asphalt"}}, {"type": "Feature", "geometry": {"type": "LineString", "coordinates": [[-8.8285187, 40.1497314], [-8.8289026, 40.1497092], [-8.8294859, 40.1497158], [-8.8300585, 40.1497307], [-8.8308266, 40.1497839], [-8.8313202, 40.1498479], [-8.8317305, 40.1499185]]}, "properties": {"highway": "motorway", "lanes": "2", "lit": "yes", "maxspeed": "120", "name": "Autoestrada do Baixo Mondego", "oneway": "yes", "ref": "A 14;IP 3", "source": "Bing", "surface": "asphalt", "toll": "no"}}, {"type": "Feature", "geometry": {"type": "LineString", "coordinates": [[-8.787623, 40.153877], [-8.7919468, 40.1538339], [-8.794838, 40.1537752]]}, "properties": {"highway": "motorway", "iof": "road", "lanes": "2", "maxspeed": "120", "name": "Autoestrada do Baixo Mondego", "oneway": "yes", "ref": "A 14;IP 3", "source": "Bing", "surface": "asphalt", "toll": "no", "type": "motorway"}}, {"type": "Feature", "geometry": {"type": "LineString", "coordinates": [[-8.7948048, 40.1536727], [-8.7937542, 40.1536885], [-8.7924181, 40.1537083], [-8.792009, 40.1536959], [-8.7876279, 40.1537419]]}, "properties": {"highway": "motorway", "iof": "road", "lanes": "2", "maxspeed": "120", "name": "Autoestrada do Baixo Mondego", "oneway": "yes", "ref": "A 14;IP 3", "source": "Bing", "surface": "asphalt", "toll": "no", "type": "motorway"}}, {"type": "Feature", "geometry": {"type": "LineString", "coordinates": [[-8.83174, 40.1498036], [-8.8313413, 40.1497512], [-8.83095, 40.1497069], [-8.8300574, 40.1496206]]}, "properties": {"highway": "motorway", "lanes": "2", "lit": "yes", "maxspeed": "120", "name": "Autoestrada do Baixo Mondego", "oneway": "yes", "ref": "A 14;IP 3", "source": "Bing", "surface": "asphalt", "toll": "no"}}, {"type": "Feature", "geometry": {"type": "LineString", "coordinates": [[-8.8409973, 40.1515574], [-8.8413604, 40.151626]]}, "properties": {"change:lanes": "no|no", "destination:lanes": "Figueira da Foz|Figueira da Foz;Leiria", "destination:ref:lanes": "A 14|A14;EN 109", "highway": "motorway", "lanes": "2", "maxspeed": "60", "name": "Autoestrada do Baixo Mondego", "oneway": "yes", "ref": "A 14;IP 3", "source": "bing", "surface": "asphalt", "toll": "no"}}, {"type": "Feature", "geometry": {"type": "LineString", "coordinates": [[-8.8410127, 40.1514834], [-8.838967, 40.1511035]]}, "properties": {"destination": "Viseu;Coimbra", "destination:symbol": "motorway", "highway": "motorway", "lanes": "2", "maxspeed": "90", "name": "Autoestrada do Baixo Mondego", "oneway": "yes", "ref": "A 14;IP 3", "source": "bing", "surface": "asphalt", "toll": "no"}}, {"type": "Feature", "geometry": {"type": "LineString", "coordinates": [[-8.8385545, 40.1511041], [-8.8390367, 40.1511872]]}, "properties": {"change:lanes": "no|no", "destination:lanes": "Figueira da Foz|Figueira da Foz;Leiria", "destination:ref:lanes": "A 14|A14;EN 109", "highway": "motorway", "lanes": "2", "maxspeed": "60", "name": "Autoestrada do Baixo Mondego", "oneway": "yes", "ref": "A 14;IP 3", "source": "bing", "surface": "asphalt", "toll": "no", "turn:lanes": "through|through;right"}}, {"type": "Feature", "geometry": {"type": "LineString", "coordinates": [[-8.490755, 40.2733925], [-8.4951398, 40.2722085], [-8.4960654, 40.2720021], [-8.4970923, 40.2718633], [-8.4978012, 40.2718265], [-8.4986533, 40.2718391], [-8.4995904, 40.271938], [-8.5006622, 40.2721538], [-8.5017332, 40.2725015]]}, "properties": {"highway": "motorway", "lanes": "2", "maxspeed": "120", "name": "Autoestrada do Baixo Mondego", "oneway": "yes", "ref": "A 14;IP 3", "source": "Bing", "surface": "asphalt", "toll": "yes"}}, {"type": "Feature", "geometry": {"type": "LineString", "coordinates": [[-8.5017332, 40.2725015], [-8.5026381, 40.2729147], [-8.5033836, 40.2733508], [-8.50396, 40.2737732], [-8.504459, 40.2742102], [-8.5050885, 40.2748598], [-8.5067124, 40.2766398], [-8.5100706, 40.2803754], [-8.5117988, 40.2822547], [-8.5124993, 40.2829092]]}, "properties": {"highway": "motorway", "lanes": "2", "maxspeed": "120", "name": "Autoestrada do Baixo Mondego", "oneway": "yes", "ref": "A 14;IP 3", "source": "Bing", "surface": "asphalt", "toll": "yes"}}, {"type": "Feature", "geometry": {"type": "LineString", "coordinates": [[-8.5210191, 40.2856543], [-8.5216112, 40.2855881], [-8.5229841, 40.2854899], [-8.5251737, 40.2853293]]}, "properties": {"highway": "motorway", "lanes": "2", "maxspeed": "120", "name": "Autoestrada do Baixo Mondego", "oneway": "yes", "ref": "A 14;IP 3", "source": "Bing", "surface": "asphalt", "toll": "yes"}}, {"type": "Feature", "geometry": {"type": "LineString", "coordinates": [[-8.5251749, 40.2851962], [-8.522998, 40.2853701], [-8.52269, 40.2853864]]}, "properties": {"highway": "motorway", "lanes": "2", "maxspeed": "120", "name": "Autoestrada do Baixo Mondego", "oneway": "yes", "ref": "A 14;IP 3", "source": "Bing", "surface": "asphalt", "toll": "yes"}}, {"type": "Feature", "geometry": {"type": "LineString", "coordinates": [[-8.52269, 40.2853864], [-8.5224916, 40.2853969], [-8.5210415, 40.2855009], [-8.5206897, 40.2855177], [-8.5202701, 40.2855193], [-8.5197914, 40.2855023], [-8.5192812, 40.2854664], [-8.5188208, 40.2854181], [-8.5182817, 40.2853466]]}, "properties": {"highway": "motorway", "lanes": "2", "maxspeed": "120", "name": "Autoestrada do Baixo Mondego", "oneway": "yes", "ref": "A 14;IP 3", "source": "Bing", "surface": "asphalt", "toll": "yes"}}, {"type": "Feature", "geometry": {"type": "LineString", "coordinates": [[-8.5052086, 40.2747914], [-8.5045262, 40.2740957], [-8.5040295, 40.2736683], [-8.5034211, 40.2732283], [-8.5027009, 40.2728125], [-8.5017981, 40.2724059], [-8.5007111, 40.2720419], [-8.4996271, 40.2718276], [-8.4986941, 40.271732]]}, "properties": {"highway": "motorway", "lanes": "2", "maxheight:signed": "no", "maxspeed": "120", "name": "Autoestrada do Baixo Mondego", "oneway": "yes", "ref": "A 14;IP 3", "source": "Bing", "surface": "asphalt", "toll": "yes"}}, {"type": "Feature", "geometry": {"type": "LineString", "coordinates": [[-8.4986941, 40.271732], [-8.4977732, 40.2717147], [-8.4970681, 40.2717539], [-8.4960581, 40.271891], [-8.4951025, 40.2721006], [-8.4907197, 40.273287]]}, "properties": {"highway": "motorway", "lanes": "2", "maxspeed": "120", "name": "Autoestrada do Baixo Mondego", "oneway": "yes", "ref": "A 14;IP 3", "source": "Bing", "surface": "asphalt", "toll": "yes"}}]}