{"type": "FeatureCollection", "features": [{"type": "Feature", "geometry": {"type": "LineString", "coordinates": [[-8.826548, 39.7294961], [-8.8264084, 39.7296369]]}, "properties": {"highway": "motorway", "lanes": "3", "lit": "yes", "maxspeed": "100", "name": "Variante da Batalha", "oneway": "yes", "ref": "A 19;IC 2", "surface": "asphalt", "toll": "no", "turn:lanes": "through|through|slight_right"}}, {"type": "Feature", "geometry": {"type": "LineString", "coordinates": [[-8.8268268, 39.7291906], [-8.826548, 39.7294961]]}, "properties": {"bridge": "yes", "highway": "motorway", "lanes": "3", "layer": "1", "lit": "yes", "maxspeed": "100", "name": "Variante da Batalha", "oneway": "yes", "ref": "A 19;IC 2", "surface": "asphalt", "toll": "no", "turn:lanes": "through|through|slight_right"}}, {"type": "Feature", "geometry": {"type": "LineString", "coordinates": [[-8.8269273, 39.7292345], [-8.8270417, 39.7291025]]}, "properties": {"highway": "motorway", "lanes": "2", "lit": "yes", "maxspeed": "120", "name": "Variante da Batalha", "oneway": "yes", "ref": "A 19;IC 2", "surface": "asphalt", "toll": "yes"}}, {"type": "Feature", "geometry": {"type": "LineString", "coordinates": [[-8.8266536, 39.7295392], [-8.8269273, 39.7292345]]}, "properties": {"bridge": "yes", "highway": "motorway", "lanes": "2", "layer": "1", "lit": "yes", "maxspeed": "100", "name": "Variante da Batalha", "oneway": "yes", "ref": "A 19;IC 2", "surface": "asphalt", "toll": "yes"}}, {"type": "Feature", "geometry": {"type": "LineString", "coordinates": [[-8.8206118, 39.7384993], [-8.8207525, 39.7383421], [-8.8208757, 39.738223], [-8.8211843, 39.7379389], [-8.8216738, 39.7375149], [-8.8225479, 39.7367246], [-8.8242041, 39.7352923], [-8.824282, 39.7352283]]}, "properties": {"highway": "motorway", "lanes": "3", "lit": "yes", "maxspeed": "100", "minspeed": "50", "name": "Variante da Batalha", "oneway": "yes", "ref": "A 19;IC 2", "smoothness": "excellent", "surface": "asphalt", "toll": "no"}}, {"type": "Feature", "geometry": {"type": "LineString", "coordinates": [[-8.8170998, 39.7523012], [-8.8174195, 39.751497]]}, "properties": {"bridge": "yes", "highway": "motorway", "lanes": "3", "layer": "1", "lit": "yes", "maxspeed": "100", "minspeed": "50", "name": "Variante da Batalha", "oneway": "yes", "ref": "A 19;IC 2", "smoothness": "excellent", "surface": "asphalt", "toll": "no"}}, {"type": "Feature", "geometry": {"type": "LineString", "coordinates": [[-8.817289, 39.7514555], [-8.8169875, 39.7522579]]}, "properties": {"bridge": "yes", "highway": "motorway", "lanes": "2", "layer": "1", "lit": "yes", "maxspeed": "90", "minspeed": "50", "name": "Variante da Batalha", "oneway": "yes", "ref": "A 19;IC 2", "smoothness": "good", "surface": "asphalt", "toll": "no"}}, {"type": "Feature", "geometry": {"type": "LineString", "coordinates": [[-8.8167691, 39.7531063], [-8.8170998, 39.7523012]]}, "properties": {"highway": "motorway", "lanes": "3", "lit": "yes", "maxspeed": "70", "name": "Variante da Batalha", "oneway": "yes", "ref": "A 19;IC 2", "smoothness": "excellent", "surface": "asphalt", "toll": "no"}}, {"type": "Feature", "geometry": {"type": "LineString", "coordinates": [[-8.8166411, 39.7533926], [-8.8167691, 39.7531063]]}, "properties": {"bridge": "yes", "highway": "motorway", "lanes": "3", "layer": "1", "lit": "yes", "maxspeed": "70", "name": "Variante da Batalha", "oneway": "yes", "ref": "A 19;IC 2", "smoothness": "excellent", "surface": "asphalt", "toll": "no"}}, {"type": "Feature", "geometry": {"type": "LineString", "coordinates": [[-8.8158395, 39.7545712], [-8.8159123, 39.7544779], [-8.8159809, 39.7543894], [-8.8160481, 39.7543012], [-8.816147, 39.7541654], [-8.8162343, 39.7540382], [-8.8163228, 39.7538989]]}, "properties": {"highway": "motorway", "lanes": "1", "lit": "yes", "maxspeed": "70", "name": "Variante da Batalha", "oneway": "yes", "ref": "A 19;IC 2", "smoothness": "excellent", "surface": "asphalt", "toll": "no"}}, {"type": "Feature", "geometry": {"type": "LineString", "coordinates": [[-8.8154403, 39.7550571], [-8.8155077, 39.7549863], [-8.8155751, 39.7549099], [-8.8156498, 39.7548206], [-8.8157369, 39.75471]]}, "properties": {"bridge": "viaduct", "destination:arrow:lanes": "through|slight_right", "destination:colour:lanes": "blue;blue|;orange", "destination:lanes": "Leiria Sul;Lisboa|Leiria;Est\u00e1dio", "destination:ref:lanes": "A 19|", "destination:symbol:lanes": "|centre;stadium", "highway": "motorway", "lanes": "2", "layer": "1", "lit": "yes", "maxspeed": "70", "name": "Variante da Batalha", "oneway": "yes", "ref": "A 19;IC 2", "smoothness": "excellent", "surface": "asphalt", "toll": "no", "turn:lanes": "through|slight_right"}}, {"type": "Feature", "geometry": {"type": "LineString", "coordinates": [[-8.8596413, 39.6217855], [-8.8593224, 39.6212287], [-8.8592607, 39.6211495], [-8.8591758, 39.6210425], [-8.8590564, 39.6208971], [-8.8589581, 39.6207874], [-8.8588532, 39.6206843], [-8.8587536, 39.6205872], [-8.8586533, 39.6204979], [-8.8585086, 39.6203798], [-8.8583465, 39.6202587], [-8.8581894, 39.6201468], [-8.8580135, 39.6200317], [-8.8577962, 39.6199113], [-8.8576679, 39.6198459], [-8.8575141, 39.6197726], [-8.857368, 39.6197072], [-8.8571834, 39.6196301], [-8.8569971, 39.6195608], [-8.8568355, 39.6195064], [-8.85665, 39.6194513], [-8.8564638, 39.6194041], [-8.8562821, 39.6193626], [-8.855364, 39.6191736], [-8.8549186, 39.6190785], [-8.854685, 39.6190298], [-8.8544644, 39.618976], [-8.8542647, 39.6189231], [-8.8540812, 39.6188722], [-8.8538121, 39.6187899], [-8.8535091, 39.6186849], [-8.8532707, 39.6185945], [-8.8530191, 39.6184834]]}, "properties": {"highway": "motorway", "lanes": "2", "maxspeed": "120", "name": "Variante da Batalha", "oneway": "yes", "ref": "A 19;IC 2", "surface": "asphalt", "toll": "no"}}, {"type": "Feature", "geometry": {"type": "LineString", "coordinates": [[-8.8534201, 39.6187559], [-8.8536826, 39.6188397], [-8.8538358, 39.6188857], [-8.8541384, 39.6189749], [-8.8545162, 39.6190734], [-8.8550094, 39.6191885], [-8.855499, 39.619289], [-8.8562555, 39.6194452], [-8.8564321, 39.6194858], [-8.8565981, 39.6195327], [-8.8567816, 39.6195844], [-8.8569325, 39.6196323], [-8.8570765, 39.6196881], [-8.85722, 39.6197457], [-8.8573696, 39.6198105], [-8.8575083, 39.619871], [-8.8576688, 39.6199473], [-8.85792, 39.6200909], [-8.858055, 39.6201737], [-8.8582137, 39.6202804], [-8.8583595, 39.6203865], [-8.8585102, 39.620505], [-8.8586873, 39.6206588], [-8.8588152, 39.6207864], [-8.858925, 39.6209045], [-8.8590274, 39.6210155], [-8.8591248, 39.6211414], [-8.85921, 39.6212546], [-8.8592971, 39.6213805], [-8.8593699, 39.6215071], [-8.8594389, 39.6216218], [-8.8595046, 39.6217427], [-8.8595586, 39.6218683], [-8.8596007, 39.6220082]]}, "properties": {"highway": "motorway", "lanes": "2", "maxspeed": "120", "name": "Variante da Batalha", "oneway": "yes", "ref": "A 19;IC 2", "surface": "asphalt", "toll": "yes"}}, {"type": "Feature", "geometry": {"type": "LineString", "coordinates": [[-8.8596007, 39.6220082], [-8.8596878, 39.6222795], [-8.8597402, 39.6224655], [-8.8597641, 39.6226278], [-8.8597872, 39.6228089], [-8.859793, 39.6229212], [-8.8597975, 39.6230517], [-8.8597895, 39.6232334], [-8.8597798, 39.6233117], [-8.8597636, 39.6234645], [-8.8597179, 39.6237252], [-8.8596693, 39.6240355]]}, "properties": {"highway": "motorway", "lanes": "3", "maxspeed": "120", "name": "Variante da Batalha", "oneway": "yes", "ref": "A 19;IC 2", "surface": "asphalt", "toll": "yes", "turn:lanes": "none|none|merge_to_left"}}, {"type": "Feature", "geometry": {"type": "LineString", "coordinates": [[-8.8477629, 39.684608], [-8.8477711, 39.6852946], [-8.8477409, 39.6860426], [-8.8476047, 39.6887527], [-8.8474917, 39.6906605], [-8.8474632, 39.6913383], [-8.8473721, 39.6928351], [-8.8473494, 39.6931907], [-8.847322, 39.6934735], [-8.8472631, 39.6939761], [-8.8471759, 39.6944388], [-8.8470877, 39.6947917], [-8.8469743, 39.6951772], [-8.8467357, 39.6957784], [-8.8466088, 39.6960565], [-8.8464776, 39.6963041], [-8.8461952, 39.6967688]]}, "properties": {"highway": "motorway", "lanes": "2", "lit": "yes", "maxspeed": "120", "name": "Variante da Batalha", "oneway": "yes", "ref": "A 19;IC 2", "surface": "asphalt", "toll": "yes"}}, {"type": "Feature", "geometry": {"type": "LineString", "coordinates": [[-8.8466164, 39.6799574], [-8.8464595, 39.6796605], [-8.8462038, 39.6791788], [-8.8459054, 39.678606]]}, "properties": {"highway": "motorway", "lanes": "2", "maxspeed": "120", "name": "Variante da Batalha", "oneway": "yes", "ref": "A 19;IC 2", "surface": "asphalt", "toll": "yes"}}, {"type": "Feature", "geometry": {"type": "LineString", "coordinates": [[-8.8465, 39.6799953], [-8.8469794, 39.6810145], [-8.8471166, 39.6813815], [-8.8472042, 39.6816415], [-8.8473157, 39.6819776], [-8.8474403, 39.6824583], [-8.8475087, 39.6826989], [-8.8475889, 39.6830933], [-8.8476491, 39.6834415], [-8.8477145, 39.6839236], [-8.8477495, 39.6842703], [-8.8477629, 39.684608]]}, "properties": {"bridge": "viaduct", "highway": "motorway", "lanes": "2", "layer": "1", "lit": "yes", "maxspeed": "120", "name": "Variante da Batalha", "oneway": "yes", "ref": "A 19;IC 2", "surface": "asphalt"}}, {"type": "Feature", "geometry": {"type": "LineString", "coordinates": [[-8.8478801, 39.6846065], [-8.8478726, 39.6843301], [-8.8478469, 39.6839976], [-8.8478, 39.6836337], [-8.8477319, 39.6832092], [-8.8476155, 39.6826173], [-8.8475446, 39.6823424], [-8.8474414, 39.6819935], [-8.847317, 39.6815932], [-8.8471013, 39.6810116], [-8.8469493, 39.6806586], [-8.8466164, 39.6799574]]}, "properties": {"bridge": "viaduct", "highway": "motorway", "lanes": "2", "layer": "1", "lit": "yes", "maxspeed": "120", "name": "Variante da Batalha", "oneway": "yes", "ref": "A 19;IC 2", "surface": "asphalt"}}, {"type": "Feature", "geometry": {"type": "LineString", "coordinates": [[-8.8130483, 39.7567316], [-8.8135, 39.756495], [-8.8136312, 39.7564224], [-8.8137646, 39.7563429]]}, "properties": {"destination": "Leiria;Est\u00e1dio;Leiria Sul;Lisboa", "destination:colour": ";orange;blue;blue", "destination:ref": ";;A 19;", "destination:symbol": ";stadium;;", "highway": "motorway", "lanes": "1", "lit": "no", "maxspeed": "70", "name": "Variante da Batalha", "oneway": "yes", "ref": "A 19;IC 2", "smoothness": "good", "surface": "asphalt", "toll": "no"}}, {"type": "Feature", "geometry": {"type": "LineString", "coordinates": [[-8.8176048, 39.7510167], [-8.8182424, 39.7494039]]}, "properties": {"highway": "motorway", "lanes": "3", "lit": "yes", "maxspeed": "100", "minspeed": "50", "name": "Variante da Batalha", "oneway": "yes", "ref": "A 19;IC 2", "smoothness": "excellent", "surface": "asphalt", "toll": "no", "turn:lanes": "through|through|through;slight_right"}}, {"type": "Feature", "geometry": {"type": "LineString", "coordinates": [[-8.8174195, 39.751497], [-8.8176048, 39.7510167]]}, "properties": {"highway": "motorway", "lanes": "3", "lit": "yes", "maxspeed": "100", "minspeed": "50", "name": "Variante da Batalha", "oneway": "yes", "ref": "A 19;IC 2", "smoothness": "excellent", "surface": "asphalt", "toll": "no"}}, {"type": "Feature", "geometry": {"type": "LineString", "coordinates": [[-8.8180897, 39.7494025], [-8.8174915, 39.7509197]]}, "properties": {"highway": "motorway", "lanes": "3", "lit": "yes", "maxspeed": "90", "minspeed": "50", "name": "Variante da Batalha", "oneway": "yes", "ref": "A 19;IC 2", "smoothness": "excellent", "surface": "asphalt", "toll": "no", "turn:lanes": "through|through|slight_right"}}, {"type": "Feature", "geometry": {"type": "LineString", "coordinates": [[-8.8186104, 39.748473], [-8.8188174, 39.7478658], [-8.8188843, 39.7476314], [-8.8189477, 39.7473687], [-8.8190628, 39.7466811]]}, "properties": {"highway": "motorway", "lanes": "3", "lit": "yes", "maxspeed": "100", "minspeed": "50", "name": "Variante da Batalha", "oneway": "yes", "ref": "A 19;IC 2", "smoothness": "excellent", "surface": "asphalt", "toll": "no"}}, {"type": "Feature", "geometry": {"type": "LineString", "coordinates": [[-8.8200411, 39.7389933], [-8.8198776, 39.7392378], [-8.8197113, 39.7395288], [-8.8195965, 39.7398015], [-8.8195082, 39.7400479], [-8.8194492, 39.7402345], [-8.8194107, 39.740352]]}, "properties": {"highway": "motorway", "lanes": "3", "lit": "yes", "maxspeed": "100", "minspeed": "50", "name": "Variante da Batalha", "oneway": "yes", "ref": "A 19;IC 2", "surface": "asphalt", "toll": "no"}}, {"type": "Feature", "geometry": {"type": "LineString", "coordinates": [[-8.8275003, 39.7285812], [-8.8276172, 39.7284477], [-8.8279667, 39.7280446], [-8.8282285, 39.7277055], [-8.8283661, 39.7275074], [-8.8284536, 39.727378], [-8.8285798, 39.7271711], [-8.8286855, 39.7269784], [-8.829009, 39.7263073], [-8.8291835, 39.7259443], [-8.8293501, 39.7256001], [-8.8295408, 39.7251793], [-8.8297486, 39.7247524], [-8.8301601, 39.7239074], [-8.83046, 39.7232798], [-8.8308012, 39.722582], [-8.8309711, 39.722232], [-8.8311453, 39.7218762], [-8.8313404, 39.7214736], [-8.8314462, 39.7212557], [-8.8315608, 39.7210164], [-8.8316941, 39.7207268], [-8.8318782, 39.720349], [-8.8320674, 39.7199872], [-8.8322547, 39.7196411], [-8.8323722, 39.7194345], [-8.8325122, 39.7192175], [-8.8327546, 39.7188703], [-8.8329592, 39.7186045], [-8.8330951, 39.7184398], [-8.8332458, 39.7182832], [-8.8333839, 39.7181328], [-8.8336354, 39.7178782], [-8.8340105, 39.7175533], [-8.8344514, 39.7171974], [-8.8349563, 39.7168026]]}, "properties": {"highway": "motorway", "lanes": "2", "lit": "yes", "maxspeed": "120", "name": "Variante da Batalha", "oneway": "yes", "ref": "A 19;IC 2", "surface": "asphalt", "toll": "yes"}}, {"type": "Feature", "geometry": {"type": "LineString", "coordinates": [[-8.8273773, 39.7285416], [-8.8269275, 39.7290672]]}, "properties": {"bridge": "yes", "highway": "motorway", "lanes": "3", "layer": "1", "lit": "yes", "maxspeed": "120", "name": "Variante da Batalha", "oneway": "yes", "ref": "A 19;IC 2", "surface": "asphalt", "toll": "no", "turn:lanes": "through|through|slight_right"}}, {"type": "Feature", "geometry": {"type": "LineString", "coordinates": [[-8.8270417, 39.7291025], [-8.8275003, 39.7285812]]}, "properties": {"bridge": "yes", "highway": "motorway", "lanes": "2", "layer": "1", "lit": "yes", "maxspeed": "120", "name": "Variante da Batalha", "oneway": "yes", "ref": "A 19;IC 2", "surface": "asphalt", "toll": "yes"}}, {"type": "Feature", "geometry": {"type": "LineString", "coordinates": [[-8.8269275, 39.7290672], [-8.8268268, 39.7291906]]}, "properties": {"highway": "motorway", "lanes": "3", "lit": "yes", "maxspeed": "120", "name": "Variante da Batalha", "oneway": "yes", "ref": "A 19;IC 2", "surface": "asphalt", "toll": "no", "turn:lanes": "through|through|slight_right"}}, {"type": "Feature", "geometry": {"type": "LineString", "coordinates": [[-8.8447583, 39.698668], [-8.8453697, 39.6980499], [-8.8456634, 39.6976972], [-8.8460471, 39.697194], [-8.8463104, 39.6967992]]}, "properties": {"bridge": "yes", "highway": "motorway", "lanes": "2", "layer": "1", "lit": "yes", "maxspeed": "120", "name": "Variante da Batalha", "oneway": "yes", "ref": "A 19;IC 2", "surface": "asphalt", "toll": "yes"}}, {"type": "Feature", "geometry": {"type": "LineString", "coordinates": [[-8.8463104, 39.6967992], [-8.8464756, 39.6965273], [-8.8466313, 39.6962444], [-8.8467266, 39.6960571], [-8.8469836, 39.6954536], [-8.8471413, 39.6950048], [-8.8472877, 39.6944389], [-8.8473287, 39.6942477], [-8.8473859, 39.6939496], [-8.8474432, 39.6934861], [-8.8475793, 39.6913433], [-8.8476244, 39.6904691], [-8.8477198, 39.6886147], [-8.8477728, 39.6877342], [-8.8478088, 39.6870773], [-8.8478524, 39.6861796], [-8.8478842, 39.6852564], [-8.8478801, 39.6846065]]}, "properties": {"highway": "motorway", "lanes": "2", "lit": "yes", "maxspeed": "120", "name": "Variante da Batalha", "oneway": "yes", "ref": "A 19;IC 2", "surface": "asphalt", "toll": "yes"}}, {"type": "Feature", "geometry": {"type": "LineString", "coordinates": [[-8.8461952, 39.6967688], [-8.845975, 39.6971083], [-8.8457607, 39.6973995], [-8.8455177, 39.6977129], [-8.8453698, 39.6978868], [-8.8450354, 39.6982511], [-8.8446346, 39.6986378]]}, "properties": {"bridge": "yes", "highway": "motorway", "lanes": "2", "layer": "1", "lit": "yes", "maxspeed": "120", "name": "Variante da Batalha", "oneway": "yes", "ref": "A 19;IC 2", "surface": "asphalt", "toll": "yes"}}, {"type": "Feature", "geometry": {"type": "LineString", "coordinates": [[-8.8446346, 39.6986378], [-8.844201, 39.6990285], [-8.843107, 39.6999451], [-8.8428191, 39.7001765], [-8.8419875, 39.7008771], [-8.8409531, 39.7017327], [-8.8402658, 39.7022962], [-8.8383214, 39.7038947], [-8.8375546, 39.7045743], [-8.8371295, 39.7050302], [-8.836921, 39.7052911], [-8.8367432, 39.7055247], [-8.8365745, 39.7057765], [-8.8363866, 39.706103], [-8.8361988, 39.7064622], [-8.836073, 39.7067848], [-8.8359707, 39.7070783], [-8.8358311, 39.7076049], [-8.8357857, 39.7079275], [-8.8357497, 39.7082355], [-8.8357409, 39.7087144], [-8.8357526, 39.7089157], [-8.835767, 39.7091027], [-8.8357924, 39.7092959], [-8.8358528, 39.7095954], [-8.8359195, 39.7098814], [-8.8360507, 39.7102743], [-8.8361868, 39.7106384], [-8.8364942, 39.7113686], [-8.836699, 39.7118749], [-8.8368858, 39.7124762], [-8.8369408, 39.7128253], [-8.8369667, 39.7130974], [-8.836961, 39.7135475], [-8.836946, 39.7137389], [-8.8368894, 39.7140244], [-8.8367999, 39.7143359], [-8.8366488, 39.7147187], [-8.8365784, 39.7148747]]}, "properties": {"highway": "motorway", "lanes": "2", "lit": "yes", "maxspeed": "120", "name": "Variante da Batalha", "oneway": "yes", "ref": "A 19;IC 2", "surface": "asphalt", "toll": "yes"}}, {"type": "Feature", "geometry": {"type": "LineString", "coordinates": [[-8.8201203, 39.7391092], [-8.8203821, 39.738754], [-8.8206118, 39.7384993]]}, "properties": {"bridge": "yes", "highway": "motorway", "lanes": "4", "layer": "1", "lit": "yes", "maxspeed": "100", "maxspeed:lanes": "100|100|100|80", "minspeed": "50", "name": "Variante da Batalha", "oneway": "yes", "ref": "A 19;IC 2", "smoothness": "excellent", "surface": "asphalt", "toll": "no", "turn:lanes": "none|none|none|slight_right"}}, {"type": "Feature", "geometry": {"type": "LineString", "coordinates": [[-8.8255979, 39.7308548], [-8.8254797, 39.7311695], [-8.8254392, 39.7313248], [-8.8254134, 39.7314552], [-8.8253888, 39.7316264], [-8.8253788, 39.7318099], [-8.8253707, 39.7319965], [-8.8253659, 39.7321817]]}, "properties": {"highway": "motorway", "lanes": "3", "lit": "yes", "maxspeed": "100", "minspeed": "50", "name": "Variante da Batalha", "oneway": "yes", "ref": "A 19;IC 2", "surface": "asphalt", "toll": "no", "turn:lanes": "through|through|through;slight_right"}}, {"type": "Feature", "geometry": {"type": "LineString", "coordinates": [[-8.8345938, 39.7169586], [-8.8338973, 39.7175251], [-8.8337462, 39.717654], [-8.8335768, 39.717801], [-8.833382, 39.7179909], [-8.833102, 39.7182811], [-8.8328394, 39.7185935], [-8.8326485, 39.7188486], [-8.832441, 39.7191337], [-8.8322204, 39.7194814], [-8.8320609, 39.7197616], [-8.8319279, 39.7200209], [-8.831718, 39.7204458], [-8.8315155, 39.7208743], [-8.8313113, 39.721293], [-8.8311053, 39.7217116], [-8.8308561, 39.7222177], [-8.8306254, 39.7226929], [-8.8299399, 39.7241083], [-8.8296265, 39.7247569], [-8.8293238, 39.7253919], [-8.8291165, 39.7258401], [-8.8289024, 39.7263068], [-8.828634, 39.7268039]]}, "properties": {"highway": "motorway", "lanes": "2", "lit": "yes", "maxspeed": "120", "name": "Variante da Batalha", "oneway": "yes", "ref": "A 19;IC 2", "surface": "asphalt", "toll": "yes"}}, {"type": "Feature", "geometry": {"type": "LineString", "coordinates": [[-8.8470428, 39.6524917], [-8.8469333, 39.6531995], [-8.8468444, 39.6539983], [-8.8467978, 39.65492]]}, "properties": {"bridge": "yes", "highway": "motorway", "lanes": "2", "layer": "1", "maxspeed": "120", "name": "Variante da Batalha", "oneway": "yes", "ref": "A 19;IC 2", "surface": "asphalt", "toll": "yes"}}, {"type": "Feature", "geometry": {"type": "LineString", "coordinates": [[-8.8471591, 39.6524964], [-8.8472827, 39.6519018], [-8.8474397, 39.6512991], [-8.8475498, 39.6509249], [-8.8476893, 39.6504895], [-8.8478351, 39.6500799], [-8.847985, 39.6496622], [-8.8483079, 39.6487989], [-8.8485953, 39.6480469], [-8.849025, 39.6469013], [-8.8494297, 39.6458185], [-8.8497965, 39.6448462], [-8.8500567, 39.6441654], [-8.8505538, 39.6428426], [-8.8510022, 39.6416533], [-8.8512245, 39.6410992], [-8.8513418, 39.6408187], [-8.8514967, 39.6404866], [-8.8518285, 39.6398579], [-8.8521708, 39.6393195], [-8.8525382, 39.6388105], [-8.8529099, 39.63835], [-8.8532553, 39.6379675], [-8.8536156, 39.6376032], [-8.8539529, 39.6372872], [-8.8545138, 39.6368071], [-8.8552484, 39.6362658], [-8.855983, 39.6357893], [-8.8567447, 39.6353209], [-8.8574195, 39.6348965], [-8.857737, 39.6346762], [-8.8580587, 39.6344398], [-8.8583469, 39.6341983], [-8.85865, 39.6339187], [-8.8589455, 39.6336082], [-8.8591656, 39.6333509], [-8.8594084, 39.6330283], [-8.8594859, 39.6329151], [-8.8597749, 39.6324412], [-8.8598777, 39.6322316], [-8.8600566, 39.6318299], [-8.8601691, 39.6314856], [-8.8602484, 39.6312313], [-8.8603005, 39.6310141], [-8.8603647, 39.6305937], [-8.8603968, 39.6303207], [-8.8604045, 39.630102], [-8.8604038, 39.6299059], [-8.8603889, 39.6296419], [-8.8603656, 39.6293617], [-8.8603339, 39.629164], [-8.8602908, 39.628941], [-8.8602352, 39.6287132], [-8.8601254, 39.628332], [-8.8600182, 39.6279948], [-8.8598976, 39.6276264], [-8.8597854, 39.6272628], [-8.8596933, 39.6269271], [-8.8596305, 39.6266562], [-8.8595844, 39.6263546], [-8.8595479, 39.6259571], [-8.8595512, 39.6254807], [-8.8595957, 39.6250397], [-8.8596112, 39.624933]]}, "properties": {"highway": "motorway", "lanes": "2", "maxspeed": "120", "name": "Variante da Batalha", "oneway": "yes", "ref": "A 19;IC 2", "surface": "asphalt", "toll": "yes"}}, {"type": "Feature", "geometry": {"type": "LineString", "coordinates": [[-8.8469176, 39.654924], [-8.846953, 39.6540194], [-8.8470489, 39.6531895], [-8.8471591, 39.6524964]]}, "properties": {"bridge": "yes", "highway": "motorway", "lanes": "2", "layer": "1", "maxspeed": "120", "name": "Variante da Batalha", "oneway": "yes", "ref": "A 19;IC 2", "surface": "asphalt", "toll": "yes"}}, {"type": "Feature", "geometry": {"type": "LineString", "coordinates": [[-8.8467978, 39.65492], [-8.8468163, 39.6556259], [-8.8468607, 39.6563158], [-8.8469184, 39.6570057], [-8.8469502, 39.6574078], [-8.8469901, 39.6578263], [-8.8471041, 39.6587642], [-8.8472522, 39.6601897], [-8.8472883, 39.6605564], [-8.8473831, 39.6613989], [-8.8474208, 39.6618053], [-8.847501, 39.6624775], [-8.8476263, 39.6637383], [-8.8476489, 39.6641114], [-8.8476714, 39.6646183], [-8.847669, 39.6651007], [-8.8476163, 39.6658589], [-8.8475187, 39.666524], [-8.8474212, 39.6670444], [-8.8473373, 39.6674004], [-8.8472451, 39.6677435], [-8.8469935, 39.668488], [-8.8468816, 39.6687832], [-8.8468032, 39.6689664]]}, "properties": {"highway": "motorway", "lanes": "2", "maxspeed": "120", "name": "Variante da Batalha", "oneway": "yes", "ref": "A 19;IC 2", "surface": "asphalt", "toll": "yes"}}, {"type": "Feature", "geometry": {"type": "LineString", "coordinates": [[-8.8174915, 39.7509197], [-8.817289, 39.7514555]]}, "properties": {"highway": "motorway", "lanes": "2", "lit": "yes", "maxspeed": "90", "minspeed": "50", "name": "Variante da Batalha", "oneway": "yes", "ref": "A 19;IC 2", "smoothness": "excellent", "surface": "asphalt", "toll": "no", "turn:lanes": "through|through"}}, {"type": "Feature", "geometry": {"type": "LineString", "coordinates": [[-8.828634, 39.7268039], [-8.828491, 39.7270756], [-8.8284117, 39.7272109], [-8.8283454, 39.7273136], [-8.8282374, 39.7274809], [-8.8280816, 39.7277016], [-8.8278926, 39.7279462], [-8.8277188, 39.7281511], [-8.8275139, 39.7283937]]}, "properties": {"highway": "motorway", "lanes": "3", "lit": "yes", "maxspeed": "120", "name": "Variante da Batalha", "oneway": "yes", "ref": "A 19;IC 2", "surface": "asphalt", "toll": "no"}}, {"type": "Feature", "geometry": {"type": "LineString", "coordinates": [[-8.8264084, 39.7296369], [-8.8261826, 39.7299256], [-8.8260576, 39.7300831], [-8.8259363, 39.7302418], [-8.8258736, 39.7303321], [-8.8258136, 39.7304288], [-8.8257131, 39.7306279], [-8.8255979, 39.7308548]]}, "properties": {"highway": "motorway", "lanes": "2", "lit": "yes", "maxspeed": "100", "name": "Variante da Batalha", "oneway": "yes", "ref": "A 19;IC 2", "surface": "asphalt", "toll": "no"}}, {"type": "Feature", "geometry": {"type": "LineString", "coordinates": [[-8.8205795, 39.7383356], [-8.8204466, 39.738479], [-8.8203338, 39.7386103], [-8.8202171, 39.7387538]]}, "properties": {"bridge": "yes", "highway": "motorway", "lanes": "4", "layer": "1", "lit": "yes", "maxspeed": "100", "minspeed": "50", "name": "Variante da Batalha", "oneway": "yes", "ref": "A 19;IC 2", "surface": "asphalt", "toll": "no", "turn:lanes": "none|none|none|slight_right"}}, {"type": "Feature", "geometry": {"type": "LineString", "coordinates": [[-8.8255262, 39.7317409], [-8.8255539, 39.7314513], [-8.8256017, 39.7312027], [-8.8256372, 39.7310822], [-8.825683, 39.7309521], [-8.8257717, 39.7307368], [-8.8258825, 39.730532], [-8.8259823, 39.730357], [-8.8260942, 39.730193], [-8.826273, 39.7299693], [-8.8264381, 39.7297736], [-8.8266536, 39.7295392]]}, "properties": {"destination": "Batalha;Lisboa", "destination:ref": "A 19", "highway": "motorway", "lanes": "2", "lit": "yes", "maxspeed": "100", "minspeed": "50", "name": "Variante da Batalha", "oneway": "yes", "ref": "A 19;IC 2", "surface": "asphalt", "toll": "yes"}}, {"type": "Feature", "geometry": {"type": "LineString", "coordinates": [[-8.8157369, 39.75471], [-8.8158395, 39.7545712]]}, "properties": {"bridge": "viaduct", "highway": "motorway", "lanes": "1", "layer": "1", "lit": "yes", "maxspeed": "70", "name": "Variante da Batalha", "oneway": "yes", "ref": "A 19;IC 2", "smoothness": "excellent", "surface": "asphalt", "toll": "no"}}, {"type": "Feature", "geometry": {"type": "LineString", "coordinates": [[-8.8163228, 39.7538989], [-8.8166411, 39.7533926]]}, "properties": {"highway": "motorway", "lanes": "2", "lit": "yes", "maxspeed": "70", "name": "Variante da Batalha", "oneway": "yes", "ref": "A 19;IC 2", "smoothness": "excellent", "surface": "asphalt", "toll": "no"}}, {"type": "Feature", "geometry": {"type": "LineString", "coordinates": [[-8.8275139, 39.7283937], [-8.8273773, 39.7285416]]}, "properties": {"highway": "motorway", "lanes": "3", "lit": "yes", "maxspeed": "120", "name": "Variante da Batalha", "oneway": "yes", "ref": "A 19;IC 2", "surface": "asphalt", "toll": "no", "turn:lanes": "through|through|slight_right"}}, {"type": "Feature", "geometry": {"type": "LineString", "coordinates": [[-8.8253659, 39.7321817], [-8.8253706, 39.7330539], [-8.8253676, 39.7332129], [-8.8253567, 39.7333581], [-8.8253424, 39.7334811], [-8.8253232, 39.7335896], [-8.8252981, 39.7336932], [-8.8252551, 39.7338216], [-8.8252176, 39.7339151], [-8.8251761, 39.7340042], [-8.8251376, 39.7340807], [-8.8250864, 39.7341782], [-8.8250432, 39.7342461], [-8.8250045, 39.7343061], [-8.8249172, 39.7344219], [-8.8248313, 39.7345154], [-8.8247391, 39.7346075], [-8.8243219, 39.7349904], [-8.823895, 39.7353735], [-8.8224413, 39.7366568], [-8.8218443, 39.7371819], [-8.8212936, 39.7376598]]}, "properties": {"highway": "motorway", "lanes": "3", "lit": "yes", "maxheight": "default", "maxheight:signed": "no", "maxspeed": "100", "minspeed": "50", "name": "Variante da Batalha", "oneway": "yes", "ref": "A 19;IC 2", "surface": "asphalt", "toll": "no"}}, {"type": "Feature", "geometry": {"type": "LineString", "coordinates": [[-8.8212936, 39.7376598], [-8.8210794, 39.7378522]]}, "properties": {"highway": "motorway", "lanes": "3", "lit": "yes", "maxspeed": "100", "minspeed": "50", "name": "Variante da Batalha", "oneway": "yes", "ref": "A 19;IC 2", "surface": "asphalt", "toll": "no", "turn:lanes": "through|through|through;slight_right"}}, {"type": "Feature", "geometry": {"type": "LineString", "coordinates": [[-8.8210794, 39.7378522], [-8.8205795, 39.7383356]]}, "properties": {"highway": "motorway", "lanes": "4", "lit": "yes", "maxspeed": "100", "minspeed": "50", "name": "Variante da Batalha", "oneway": "yes", "ref": "A 19;IC 2", "surface": "asphalt", "toll": "no", "turn:lanes": "none|none|none|slight_right"}}, {"type": "Feature", "geometry": {"type": "LineString", "coordinates": [[-8.8194107, 39.740352], [-8.819348, 39.7407929], [-8.8193012, 39.7411518], [-8.8192705, 39.7415902]]}, "properties": {"highway": "motorway", "lanes": "4", "lit": "yes", "maxspeed": "100", "minspeed": "50", "name": "Variante da Batalha", "oneway": "yes", "ref": "A 19;IC 2", "smoothness": "excellent", "surface": "asphalt", "toll": "no", "turn:lanes": "none|none|none|merge_to_left"}}, {"type": "Feature", "geometry": {"type": "LineString", "coordinates": [[-8.8192705, 39.7415902], [-8.8192204, 39.7423549], [-8.8191601, 39.7431848]]}, "properties": {"highway": "motorway", "lanes": "3", "lit": "yes", "maxspeed": "100", "minspeed": "50", "name": "Variante da Batalha", "oneway": "yes", "ref": "A 19;IC 2", "smoothness": "excellent", "surface": "asphalt", "toll": "no", "turn:lanes": "through|through|through;slight_right"}}, {"type": "Feature", "geometry": {"type": "LineString", "coordinates": [[-8.8190937, 39.7441301], [-8.8190809, 39.7443371], [-8.819016, 39.7452567], [-8.8189578, 39.7459539], [-8.8189445, 39.7460752]]}, "properties": {"highway": "motorway", "lanes": "3", "lit": "yes", "maxspeed": "100", "minspeed": "50", "name": "Variante da Batalha", "oneway": "yes", "ref": "A 19;IC 2", "smoothness": "excellent", "surface": "asphalt", "toll": "no"}}, {"type": "Feature", "geometry": {"type": "LineString", "coordinates": [[-8.8189445, 39.7460752], [-8.8188854, 39.7466527], [-8.8188399, 39.7470129], [-8.8187981, 39.7473382]]}, "properties": {"highway": "motorway", "lanes": "4", "lit": "yes", "maxheight": "default", "maxheight:signed": "no", "maxspeed": "100", "minspeed": "50", "name": "Variante da Batalha", "oneway": "yes", "ref": "A 19;IC 2", "smoothness": "excellent", "surface": "asphalt", "toll": "no", "turn:lanes": "none|none|none|merge_to_left"}}, {"type": "Feature", "geometry": {"type": "LineString", "coordinates": [[-8.8187981, 39.7473382], [-8.8187235, 39.7476476], [-8.8186761, 39.7478178], [-8.8185767, 39.7481315], [-8.8184907, 39.7483769], [-8.8180897, 39.7494025]]}, "properties": {"highway": "motorway", "lanes": "3", "lit": "yes", "maxspeed": "100", "minspeed": "50", "name": "Variante da Batalha", "oneway": "yes", "ref": "A 19;IC 2", "smoothness": "excellent", "surface": "asphalt", "toll": "no"}}, {"type": "Feature", "geometry": {"type": "LineString", "coordinates": [[-8.8148817, 39.7555718], [-8.815046, 39.75543], [-8.8151894, 39.7553006], [-8.8153306, 39.7551691], [-8.8154403, 39.7550571]]}, "properties": {"destination:arrow:lanes": "through|slight_right", "destination:colour:lanes": "blue;blue|;orange", "destination:lanes": "Leiria Sul;Lisboa|Leiria;Est\u00e1dio", "destination:ref:lanes": "A 19|", "destination:symbol:lanes": "|centre;stadium", "highway": "motorway", "lanes": "2", "lit": "no", "maxspeed": "70", "name": "Variante da Batalha", "oneway": "yes", "ref": "A 19;IC 2", "smoothness": "excellent", "surface": "asphalt", "toll": "no", "turn:lanes": "through|slight_right"}}, {"type": "Feature", "geometry": {"type": "LineString", "coordinates": [[-8.8137646, 39.7563429], [-8.8140808, 39.7561537], [-8.8141384, 39.7561161], [-8.8144307, 39.7559255], [-8.8146616, 39.7557533], [-8.8148817, 39.7555718]]}, "properties": {"destination": "Leiria;Est\u00e1dio;Leiria Sul;Lisboa", "destination:colour": ";orange;blue;blue", "destination:ref": ";;A 19;", "destination:symbol": ";stadium;;", "highway": "motorway", "lanes": "1", "lit": "no", "maxspeed": "70", "name": "Variante da Batalha", "oneway": "yes", "ref": "A 19;IC 2", "smoothness": "good", "surface": "asphalt", "toll": "no", "turn:lanes": "through;slight_right"}}, {"type": "Feature", "geometry": {"type": "LineString", "coordinates": [[-8.8253266, 39.7340507], [-8.8254222, 39.7338235], [-8.8254721, 39.7336812], [-8.825497, 39.7335781], [-8.825517, 39.7334451], [-8.8255279, 39.7332877], [-8.8255262, 39.7325869], [-8.8255174, 39.7321932], [-8.8255199, 39.7318546], [-8.8255262, 39.7317409]]}, "properties": {"highway": "motorway", "lanes": "3", "lit": "yes", "maxspeed": "100", "minspeed": "50", "name": "Variante da Batalha", "oneway": "yes", "ref": "A 19;IC 2", "smoothness": "excellent", "surface": "asphalt", "toll": "no", "turn:lanes": "through|through|slight_right"}}, {"type": "Feature", "geometry": {"type": "LineString", "coordinates": [[-8.824282, 39.7352283], [-8.8245717, 39.7349706], [-8.8248668, 39.7346857], [-8.8250383, 39.7344867], [-8.8251062, 39.734401], [-8.8251807, 39.7343027], [-8.8252537, 39.7341855], [-8.8253266, 39.7340507]]}, "properties": {"highway": "motorway", "lanes": "4", "lit": "yes", "maxspeed": "100", "minspeed": "50", "name": "Variante da Batalha", "oneway": "yes", "ref": "A 19;IC 2", "smoothness": "excellent", "surface": "asphalt", "toll": "no", "turn:lanes": "none|none|none|merge_to_left"}}, {"type": "Feature", "geometry": {"type": "LineString", "coordinates": [[-8.819487, 39.7409507], [-8.8195094, 39.7407675], [-8.8195623, 39.7404452], [-8.8196493, 39.7400816], [-8.8199208, 39.7394332]]}, "properties": {"highway": "motorway", "lanes": "3", "lit": "yes", "maxspeed": "100", "minspeed": "50", "name": "Variante da Batalha", "oneway": "yes", "ref": "A 19;IC 2", "smoothness": "excellent", "surface": "asphalt", "toll": "no", "turn:lanes": "through|through|through;slight_right"}}, {"type": "Feature", "geometry": {"type": "LineString", "coordinates": [[-8.8199208, 39.7394332], [-8.8199978, 39.7393041], [-8.8201203, 39.7391092]]}, "properties": {"highway": "motorway", "lanes": "4", "lit": "yes", "maxspeed": "100", "maxspeed:lanes": "100|100|100|80", "minspeed": "50", "name": "Variante da Batalha", "oneway": "yes", "ref": "A 19;IC 2", "smoothness": "excellent", "surface": "asphalt", "toll": "no", "turn:lanes": "none|none|none|slight_right"}}, {"type": "Feature", "geometry": {"type": "LineString", "coordinates": [[-8.8190628, 39.7466811], [-8.8191275, 39.7459577], [-8.819163, 39.7454667]]}, "properties": {"highway": "motorway", "lanes": "4", "lit": "yes", "maxheight": "default", "maxheight:signed": "no", "maxspeed": "100", "minspeed": "50", "name": "Variante da Batalha", "oneway": "yes", "ref": "A 19;IC 2", "smoothness": "excellent", "surface": "asphalt", "toll": "no", "turn:lanes": "none|none|none|merge_to_left"}}, {"type": "Feature", "geometry": {"type": "LineString", "coordinates": [[-8.819163, 39.7454667], [-8.8191977, 39.7448354], [-8.819236, 39.7443074], [-8.8193001, 39.7434114], [-8.8193731, 39.7424322], [-8.8194419, 39.7414962], [-8.819487, 39.7409507]]}, "properties": {"highway": "motorway", "lanes": "3", "lit": "yes", "maxspeed": "100", "minspeed": "50", "name": "Variante da Batalha", "oneway": "yes", "ref": "A 19;IC 2", "smoothness": "excellent", "surface": "asphalt", "toll": "no"}}, {"type": "Feature", "geometry": {"type": "LineString", "coordinates": [[-8.8365784, 39.7148747], [-8.8364593, 39.7150919], [-8.8363533, 39.7152626], [-8.8362484, 39.7154195], [-8.8361058, 39.7156084], [-8.8359562, 39.7157818], [-8.8357906, 39.7159612]]}, "properties": {"highway": "motorway", "lanes": "2", "lit": "yes", "maxspeed": "120", "name": "Variante da Batalha", "oneway": "yes", "ref": "A 19;IC 2", "surface": "asphalt", "toll": "yes", "turn:lanes": "through|through;slight_right"}}, {"type": "Feature", "geometry": {"type": "LineString", "coordinates": [[-8.8349563, 39.7168026], [-8.8352837, 39.716557], [-8.8356137, 39.7162796], [-8.8357726, 39.7161322], [-8.8359642, 39.7159323], [-8.8362308, 39.7156098], [-8.8363303, 39.7154797]]}, "properties": {"highway": "motorway", "lanes": "3", "lit": "yes", "maxspeed": "120", "name": "Variante da Batalha", "oneway": "yes", "ref": "A 19;IC 2", "surface": "asphalt", "toll": "yes", "turn:lanes": "none|none|merge_to_left"}}, {"type": "Feature", "geometry": {"type": "LineString", "coordinates": [[-8.8363303, 39.7154797], [-8.8364538, 39.7153083], [-8.8365644, 39.7151185], [-8.8366992, 39.7148636], [-8.8368306, 39.7145675], [-8.83693, 39.7142677], [-8.8369856, 39.714087], [-8.8370288, 39.7138915], [-8.8370648, 39.7136812], [-8.8370876, 39.71338], [-8.8370814, 39.713101], [-8.8370703, 39.7129434], [-8.8370508, 39.7127698], [-8.8370271, 39.7126234], [-8.836995, 39.7124642], [-8.8369384, 39.7122435], [-8.8368168, 39.7118596], [-8.8365328, 39.7111635], [-8.836192, 39.7103381], [-8.836128, 39.7101484], [-8.8360639, 39.7099394], [-8.8359916, 39.7096855], [-8.8359526, 39.709515], [-8.8359221, 39.7093325], [-8.8358957, 39.7091339], [-8.8358699, 39.7089241], [-8.8358635, 39.7086209], [-8.8358613, 39.7083048], [-8.8358903, 39.7080096], [-8.8359277, 39.7077368], [-8.8359962, 39.7074187], [-8.8360814, 39.7070878], [-8.836204, 39.7067472], [-8.8363683, 39.7063712], [-8.8365498, 39.7060239], [-8.8367292, 39.7057296], [-8.8369435, 39.7054209], [-8.8372376, 39.7050612], [-8.8375213, 39.7047481], [-8.8377672, 39.7045234], [-8.8381187, 39.7042045], [-8.8387686, 39.7036569], [-8.8393074, 39.7032012], [-8.8400777, 39.7025826], [-8.8408339, 39.7019538], [-8.843317, 39.6998973], [-8.8447583, 39.698668]]}, "properties": {"highway": "motorway", "lanes": "2", "lit": "yes", "maxspeed": "120", "name": "Variante da Batalha", "oneway": "yes", "ref": "A 19;IC 2", "surface": "asphalt", "toll": "yes"}}, {"type": "Feature", "geometry": {"type": "LineString", "coordinates": [[-8.8450779, 39.6734016], [-8.8452643, 39.6726433], [-8.8453335, 39.6724088], [-8.8454828, 39.671994], [-8.8456573, 39.6715583]]}, "properties": {"highway": "motorway", "lanes": "3", "maxspeed": "120", "name": "Variante da Batalha", "oneway": "yes", "ref": "A 19;IC 2", "surface": "asphalt", "toll": "yes", "turn:lanes": "none|none|merge_to_left"}}, {"type": "Feature", "geometry": {"type": "LineString", "coordinates": [[-8.8456573, 39.6715583], [-8.8459689, 39.6709157], [-8.8462821, 39.6703007], [-8.8465253, 39.669832], [-8.8467424, 39.6693721], [-8.8469799, 39.6688286], [-8.8470738, 39.6685916], [-8.8471963, 39.6682553], [-8.8473156, 39.6678889], [-8.8474093, 39.6675564], [-8.8474987, 39.6672013], [-8.8475598, 39.6669337], [-8.8476166, 39.6666499], [-8.847688, 39.666199], [-8.8477301, 39.6658157], [-8.8477659, 39.6653512], [-8.8477723, 39.6651541], [-8.8477897, 39.6647052], [-8.8477673, 39.6642837], [-8.8477299, 39.6636718], [-8.8476543, 39.6628938], [-8.8475705, 39.6620965], [-8.8474765, 39.6612091], [-8.8473784, 39.6603169], [-8.847232, 39.6588918], [-8.8471592, 39.65823], [-8.8471165, 39.6578161], [-8.8470142, 39.6568326], [-8.8469415, 39.6559316], [-8.8469176, 39.654924]]}, "properties": {"highway": "motorway", "lanes": "2", "maxspeed": "120", "name": "Variante da Batalha", "oneway": "yes", "ref": "A 19;IC 2", "surface": "asphalt", "toll": "yes"}}, {"type": "Feature", "geometry": {"type": "LineString", "coordinates": [[-8.8451596, 39.6770575], [-8.8453894, 39.6777305], [-8.845591, 39.6782001], [-8.8458323, 39.6786938], [-8.8462999, 39.6795885], [-8.8465, 39.6799953]]}, "properties": {"highway": "motorway", "lanes": "2", "maxspeed": "120", "name": "Variante da Batalha", "oneway": "yes", "ref": "A 19;IC 2", "surface": "asphalt", "toll": "yes"}}, {"type": "Feature", "geometry": {"type": "LineString", "coordinates": [[-8.8448246, 39.6752279], [-8.8448887, 39.6757885], [-8.8449249, 39.6760575], [-8.8449492, 39.6762386], [-8.844982, 39.6763876], [-8.8450666, 39.6767322], [-8.8451596, 39.6770575]]}, "properties": {"highway": "motorway", "lanes": "3", "maxspeed": "120", "name": "Variante da Batalha", "oneway": "yes", "ref": "A 19;IC 2", "surface": "asphalt", "toll": "yes", "turn:lanes": "none|none|merge_to_left"}}, {"type": "Feature", "geometry": {"type": "LineString", "coordinates": [[-8.8452818, 39.6770787], [-8.84516, 39.676636], [-8.8450947, 39.6763566], [-8.8450646, 39.6761879]]}, "properties": {"highway": "motorway", "lanes": "3", "maxspeed": "120", "name": "Variante da Batalha", "oneway": "yes", "ref": "A 19;IC 2", "surface": "asphalt", "toll": "yes", "turn:lanes": "none|none|slight_right"}}, {"type": "Feature", "geometry": {"type": "LineString", "coordinates": [[-8.8459054, 39.678606], [-8.8457087, 39.6782018], [-8.845568, 39.6778815], [-8.8454565, 39.6775933], [-8.8453753, 39.677394], [-8.8452818, 39.6770787]]}, "properties": {"highway": "motorway", "lanes": "2", "maxspeed": "120", "name": "Variante da Batalha", "oneway": "yes", "ref": "A 19;IC 2", "surface": "asphalt", "toll": "yes", "turn:lanes": "through|through;slight_right"}}, {"type": "Feature", "geometry": {"type": "LineString", "coordinates": [[-8.8468032, 39.6689664], [-8.846692, 39.6692258], [-8.846406, 39.6698356], [-8.8459609, 39.6707028]]}, "properties": {"highway": "motorway", "lanes": "2", "maxspeed": "120", "name": "Variante da Batalha", "oneway": "yes", "ref": "A 19;IC 2", "surface": "asphalt", "toll": "yes", "turn:lanes": "through|through;slight_right"}}, {"type": "Feature", "geometry": {"type": "LineString", "coordinates": [[-8.8455018, 39.6715971], [-8.8454395, 39.6717839], [-8.8453571, 39.6719941], [-8.8452801, 39.6722108], [-8.8452114, 39.6724034], [-8.8451174, 39.6727118], [-8.8450443, 39.6729848], [-8.8449637, 39.6733552], [-8.8449016, 39.6737625], [-8.8448415, 39.6743144], [-8.8448272, 39.6747299], [-8.8448246, 39.6752279]]}, "properties": {"highway": "motorway", "lanes": "2", "maxspeed": "120", "name": "Variante da Batalha", "oneway": "yes", "ref": "A 19;IC 2", "surface": "asphalt", "toll": "yes"}}, {"type": "Feature", "geometry": {"type": "LineString", "coordinates": [[-8.8596693, 39.6240355], [-8.8595694, 39.6245289], [-8.8595072, 39.6248557], [-8.8594574, 39.6251664], [-8.8594303, 39.6256404], [-8.8594386, 39.6259793], [-8.8594595, 39.6262809], [-8.8595075, 39.6265915], [-8.8595805, 39.6269342], [-8.8596764, 39.6272851], [-8.859872, 39.6278898], [-8.8600676, 39.6285218], [-8.8602192, 39.6291262], [-8.8602595, 39.6294187], [-8.8602873, 39.6296984], [-8.8602913, 39.6300312], [-8.8602828, 39.6303287], [-8.8602345, 39.63075], [-8.8601516, 39.6311736], [-8.8600269, 39.6315972], [-8.8599535, 39.6317902], [-8.8598801, 39.6319735], [-8.8597145, 39.6323257], [-8.8595288, 39.6326542], [-8.8592931, 39.6330132], [-8.859068, 39.6333004], [-8.8588471, 39.6335587], [-8.8586043, 39.6338169], [-8.8583469, 39.6340656], [-8.8580028, 39.6343463], [-8.8577673, 39.6345305], [-8.8573989, 39.6347855], [-8.8570471, 39.6350147], [-8.8562956, 39.6354683], [-8.8555582, 39.6359465], [-8.8548374, 39.6364375], [-8.8543591, 39.6368057], [-8.8538807, 39.637206], [-8.8536306, 39.6374441], [-8.853372, 39.6377015], [-8.8528696, 39.6382371], [-8.8524076, 39.6388119], [-8.8519812, 39.6394076], [-8.8516909, 39.6398815], [-8.8514257, 39.6403795], [-8.8512718, 39.6407042], [-8.8511178, 39.6410652], [-8.8505426, 39.6425637], [-8.8499849, 39.6440464], [-8.8496845, 39.6448423], [-8.849278, 39.6459135], [-8.8485195, 39.6479368], [-8.8481396, 39.6489134], [-8.8477945, 39.6498673], [-8.8475613, 39.6505412], [-8.8473334, 39.6512481], [-8.8472543, 39.6515294], [-8.8470428, 39.6524917]]}, "properties": {"highway": "motorway", "lanes": "2", "maxspeed": "120", "name": "Variante da Batalha", "oneway": "yes", "ref": "A 19;IC 2", "surface": "asphalt", "toll": "yes"}}, {"type": "Feature", "geometry": {"type": "LineString", "coordinates": [[-8.8596112, 39.624933], [-8.8596574, 39.6246602], [-8.8597113, 39.6243795], [-8.859811, 39.6239242], [-8.8598634, 39.6236613], [-8.8598861, 39.6235211], [-8.8599004, 39.6233554]]}, "properties": {"highway": "motorway", "lanes": "2", "maxspeed": "120", "name": "Variante da Batalha", "oneway": "yes", "ref": "A 19;IC 2", "surface": "asphalt", "toll": "yes", "turn:lanes": "through|through;slight_right"}}, {"type": "Feature", "geometry": {"type": "LineString", "coordinates": [[-8.8182424, 39.7494039], [-8.8186104, 39.748473]]}, "properties": {"highway": "motorway", "lanes": "4", "lit": "yes", "maxspeed": "100", "minspeed": "50", "name": "Variante da Batalha", "oneway": "yes", "ref": "A 19;IC 2", "smoothness": "excellent", "surface": "asphalt", "toll": "no", "turn:lanes": "none|none|none|slight_right"}}, {"type": "Feature", "geometry": {"type": "LineString", "coordinates": [[-8.8191601, 39.7431848], [-8.8190937, 39.7441301]]}, "properties": {"highway": "motorway", "lanes": "4", "lit": "yes", "maxspeed": "100", "maxspeed:lanes": "100|100|100|80", "minspeed": "50", "name": "Variante da Batalha", "oneway": "yes", "ref": "A 19;IC 2", "smoothness": "excellent", "surface": "asphalt", "toll": "no", "turn:lanes": "through|through|through|slight_right"}}, {"type": "Feature", "geometry": {"type": "LineString", "coordinates": [[-8.8599004, 39.6233554], [-8.8599141, 39.6231943], [-8.8599193, 39.6229971], [-8.8599041, 39.6227472], [-8.859878, 39.6225629], [-8.8598416, 39.6223773], [-8.85976, 39.6221062], [-8.8596903, 39.6219185], [-8.8596413, 39.6217855]]}, "properties": {"highway": "motorway", "lanes": "3", "maxspeed": "120", "name": "Variante da Batalha", "oneway": "yes", "ref": "A 19;IC 2", "surface": "asphalt", "toll": "yes", "turn:lanes": "through|through|slight_right"}}, {"type": "Feature", "geometry": {"type": "LineString", "coordinates": [[-8.8459609, 39.6707028], [-8.8455018, 39.6715971]]}, "properties": {"highway": "motorway", "lanes": "3", "maxspeed": "120", "name": "Variante da Batalha", "oneway": "yes", "ref": "A 19;IC 2", "surface": "asphalt", "toll": "yes", "turn:lanes": "through|through|slight_right"}}, {"type": "Feature", "geometry": {"type": "LineString", "coordinates": [[-8.8450646, 39.6761879], [-8.8450375, 39.6760358], [-8.8449716, 39.6755308], [-8.8449439, 39.6751396], [-8.8449399, 39.6748343], [-8.8449423, 39.6744714], [-8.8449633, 39.6741396], [-8.8449986, 39.6738576], [-8.8450779, 39.6734016]]}, "properties": {"highway": "motorway", "lanes": "2", "maxspeed": "120", "name": "Variante da Batalha", "oneway": "yes", "ref": "A 19;IC 2", "surface": "asphalt", "toll": "yes"}}, {"type": "Feature", "geometry": {"type": "LineString", "coordinates": [[-8.8357906, 39.7159612], [-8.8356183, 39.7161135], [-8.8354581, 39.716264], [-8.8353046, 39.7163993], [-8.8351455, 39.7165318], [-8.8349461, 39.716694], [-8.8345938, 39.7169586]]}, "properties": {"highway": "motorway", "lanes": "3", "lit": "yes", "maxspeed": "120", "name": "Variante da Batalha", "oneway": "yes", "ref": "A 19;IC 2", "surface": "asphalt", "toll": "yes", "turn:lanes": "none|none|slight_right"}}, {"type": "Feature", "geometry": {"type": "LineString", "coordinates": [[-8.8202171, 39.7387538], [-8.8201172, 39.7388896], [-8.8200411, 39.7389933]]}, "properties": {"bridge": "yes", "highway": "motorway", "lanes": "3", "layer": "1", "lit": "yes", "maxspeed": "100", "minspeed": "50", "name": "Variante da Batalha", "oneway": "yes", "ref": "A 19;IC 2", "surface": "asphalt", "toll": "no"}}]}