{"type": "FeatureCollection", "features": [{"type": "Feature", "geometry": {"type": "LineString", "coordinates": [[-9.4024455, 38.9612361], [-9.4020163, 38.9607255], [-9.4017042, 38.9603802], [-9.4014522, 38.9601502], [-9.401195, 38.9599574], [-9.4009512, 38.959798], [-9.4006224, 38.9596335], [-9.4003779, 38.9595175], [-9.4001435, 38.9594285], [-9.3999179, 38.9593583], [-9.3997409, 38.959307], [-9.3995378, 38.9592553], [-9.399074, 38.959149]]}, "properties": {"bicycle": "no", "highway": "motorway", "lanes": "2", "maxspeed": "80", "name": "Autoestrada de Mafra", "oneway": "yes", "ref": "A 21", "surface": "asphalt", "toll": "yes"}}, {"type": "Feature", "geometry": {"type": "LineString", "coordinates": [[-9.2216344, 38.9284675], [-9.2220014, 38.9289664]]}, "properties": {"highway": "motorway", "lanes": "3", "name": "Autoestrada de Mafra", "oneway": "yes", "ref": "A 21", "toll": "yes"}}, {"type": "Feature", "geometry": {"type": "LineString", "coordinates": [[-9.2506061, 38.9430028], [-9.250183, 38.9428535]]}, "properties": {"bridge": "yes", "highway": "motorway", "lanes": "2", "layer": "1", "maxspeed": "120", "name": "Autoestrada de Mafra", "oneway": "yes", "ref": "A 21", "toll": "yes"}}, {"type": "Feature", "geometry": {"type": "LineString", "coordinates": [[-9.2501401, 38.9429411], [-9.2505697, 38.9430933]]}, "properties": {"bridge": "yes", "highway": "motorway", "lanes": "2", "layer": "1", "maxspeed": "120", "name": "Autoestrada de Mafra", "oneway": "yes", "ref": "A 21", "toll": "yes"}}, {"type": "Feature", "geometry": {"type": "LineString", "coordinates": [[-9.2505697, 38.9430933], [-9.2514317, 38.943388], [-9.2535112, 38.944129], [-9.2548585, 38.9444957], [-9.256194, 38.9447076], [-9.2571679, 38.9447905], [-9.2582636, 38.9447932], [-9.2595921, 38.9446659], [-9.2606188, 38.9444942], [-9.2616705, 38.9442329], [-9.2628968, 38.9437923], [-9.2641802, 38.9431812], [-9.2656538, 38.9422731], [-9.2712834, 38.9384814], [-9.2729369, 38.9373617], [-9.2737859, 38.9368738], [-9.2749709, 38.9363593], [-9.2756112, 38.9361869]]}, "properties": {"highway": "motorway", "lanes": "2", "maxspeed": "120", "name": "Autoestrada de Mafra", "oneway": "yes", "ref": "A 21", "toll": "yes"}}, {"type": "Feature", "geometry": {"type": "LineString", "coordinates": [[-9.3928794, 38.9560361], [-9.3940243, 38.9570537], [-9.3945044, 38.9574324], [-9.3951315, 38.9578355], [-9.3955279, 38.9580603], [-9.3959456, 38.9582656], [-9.3965516, 38.9585271], [-9.3971922, 38.9587571], [-9.3979294, 38.9589697], [-9.3987153, 38.9591651], [-9.3992065, 38.9592746], [-9.3996845, 38.9593959], [-9.3998867, 38.95945], [-9.4001088, 38.9595256], [-9.4003322, 38.9596087], [-9.4005773, 38.9597307], [-9.4008601, 38.9598788], [-9.4011013, 38.9600275], [-9.4013621, 38.9602192], [-9.4016145, 38.9604552], [-9.4019326, 38.9608044], [-9.4022954, 38.9612882]]}, "properties": {"bicycle": "no", "highway": "motorway", "lanes": "2", "maxspeed": "120", "name": "Autoestrada de Mafra", "oneway": "yes", "ref": "A 21", "surface": "asphalt", "toll": "yes"}}, {"type": "Feature", "geometry": {"type": "LineString", "coordinates": [[-9.3929735, 38.9559688], [-9.3898615, 38.9530324], [-9.3891483, 38.952407]]}, "properties": {"bicycle": "no", "bridge": "viaduct", "highway": "motorway", "lanes": "2", "layer": "1", "maxspeed": "100", "name": "Autoestrada de Mafra", "oneway": "yes", "ref": "A 21", "toll": "yes"}}, {"type": "Feature", "geometry": {"type": "LineString", "coordinates": [[-9.3890847, 38.9524733], [-9.3897652, 38.9530739], [-9.3928794, 38.9560361]]}, "properties": {"bicycle": "no", "bridge": "viaduct", "highway": "motorway", "lanes": "2", "layer": "2", "maxspeed": "120", "name": "Autoestrada de Mafra", "oneway": "yes", "ref": "A 21", "toll": "yes"}}, {"type": "Feature", "geometry": {"type": "LineString", "coordinates": [[-9.3881801, 38.9517676], [-9.3881285, 38.9517389], [-9.3878335, 38.9515882], [-9.3874251, 38.9514036], [-9.3871623, 38.9512993], [-9.3868451, 38.9511887], [-9.3865829, 38.9511084], [-9.3862684, 38.9510234], [-9.3858091, 38.9509233], [-9.3854644, 38.9508649], [-9.3850279, 38.950806], [-9.3846752, 38.9507658], [-9.3841957, 38.9507163], [-9.3837257, 38.9506688], [-9.3832637, 38.9506172], [-9.3829177, 38.9505723], [-9.3826421, 38.9505296], [-9.3823021, 38.9504659], [-9.3818756, 38.9503731], [-9.3813928, 38.9502469], [-9.3811085, 38.9501635], [-9.3806418, 38.9500143], [-9.3803226, 38.949909], [-9.3800544, 38.9498], [-9.3797826, 38.9496852], [-9.3787465, 38.9492862], [-9.3782171, 38.9491007], [-9.3776344, 38.9489197], [-9.3768773, 38.948721], [-9.3759546, 38.948525], [-9.3750313, 38.9483539], [-9.3743856, 38.9482314], [-9.3739121, 38.9481276], [-9.3734716, 38.9480186], [-9.3731524, 38.9479263], [-9.3727005, 38.9477766], [-9.3722693, 38.9476087], [-9.3718495, 38.947423], [-9.3715934, 38.9472989], [-9.371191, 38.9470799], [-9.3708115, 38.9468463], [-9.3704675, 38.9466131], [-9.3700974, 38.9463357], [-9.3695784, 38.9459065], [-9.3690164, 38.9454298], [-9.3687107, 38.9451748], [-9.3683606, 38.9449046], [-9.3679764, 38.9446382], [-9.3676212, 38.9444192], [-9.3672073, 38.9441949], [-9.366789, 38.9439954], [-9.3663698, 38.9438225], [-9.3659524, 38.9436722], [-9.3654793, 38.9435263], [-9.3650589, 38.9434118], [-9.3637716, 38.9430698], [-9.3616222, 38.9425163], [-9.3611581, 38.9424013]]}, "properties": {"bicycle": "no", "highway": "motorway", "lanes": "2", "maxspeed": "120", "name": "Autoestrada de Mafra", "oneway": "yes", "ref": "A 21", "toll": "yes"}}, {"type": "Feature", "geometry": {"type": "LineString", "coordinates": [[-9.3485484, 38.9263637], [-9.3489908, 38.926944], [-9.3493202, 38.9276517], [-9.3494611, 38.9282131], [-9.3495248, 38.9288705], [-9.3494768, 38.9294575]]}, "properties": {"bicycle": "no", "bridge": "viaduct", "highway": "motorway", "lanes": "2", "layer": "1", "maxspeed": "100", "name": "Autoestrada de Mafra", "oneway": "yes", "ref": "A 21", "toll": "yes"}}, {"type": "Feature", "geometry": {"type": "LineString", "coordinates": [[-9.3494768, 38.9294575], [-9.3493368, 38.9301784], [-9.3492204, 38.9307245], [-9.3492036, 38.9312355], [-9.3492551, 38.9317373], [-9.3494619, 38.9323348], [-9.3497744, 38.9329049], [-9.350252, 38.9335464]]}, "properties": {"bicycle": "no", "highway": "motorway", "lanes": "2", "maxspeed": "100", "name": "Autoestrada de Mafra", "oneway": "yes", "ref": "A 21", "toll": "yes"}}, {"type": "Feature", "geometry": {"type": "LineString", "coordinates": [[-9.3480502, 38.9257267], [-9.3475051, 38.9252572], [-9.346901, 38.9248056], [-9.3455911, 38.9238822], [-9.3447875, 38.9232555], [-9.343095, 38.9219173], [-9.34097, 38.9202424], [-9.3400962, 38.9196968], [-9.3393239, 38.9193042], [-9.338423, 38.9189954], [-9.3375561, 38.9188028], [-9.3368069, 38.9186951], [-9.3359862, 38.9186362], [-9.335186, 38.9186737], [-9.3343176, 38.9187555], [-9.333409, 38.9189539], [-9.332579, 38.9192102], [-9.3317458, 38.9195653], [-9.3309414, 38.9200439], [-9.330268, 38.9205439], [-9.3296832, 38.9210904], [-9.3291784, 38.9216556], [-9.3286505, 38.9223431], [-9.3278302, 38.9233637], [-9.3271848, 38.9241699], [-9.3266135, 38.9248546], [-9.3260962, 38.9254195], [-9.3255107, 38.9259389], [-9.3248604, 38.9264217], [-9.3242171, 38.9268316], [-9.3235876, 38.9271646], [-9.3228752, 38.9274621], [-9.3222326, 38.9276848], [-9.3216118, 38.9278546], [-9.3208756, 38.9280065], [-9.3202281, 38.9281014], [-9.3195448, 38.9281592], [-9.3189137, 38.9281764], [-9.3181923, 38.928159], [-9.3176808, 38.9281223], [-9.3169761, 38.9280329], [-9.3164221, 38.9279355], [-9.3159315, 38.9278435], [-9.3150996, 38.9276931]]}, "properties": {"bicycle": "no", "highway": "motorway", "lanes": "2", "maxspeed": "120", "name": "Autoestrada de Mafra", "oneway": "yes", "ref": "A 21", "toll": "yes"}}, {"type": "Feature", "geometry": {"type": "LineString", "coordinates": [[-9.3495976, 38.9294614], [-9.3496402, 38.9288535], [-9.349574, 38.9281611], [-9.3494251, 38.9275945], [-9.3490793, 38.9268842], [-9.3486296, 38.9262973]]}, "properties": {"bicycle": "no", "bridge": "viaduct", "highway": "motorway", "lanes": "2", "layer": "1", "maxspeed": "100", "name": "Autoestrada de Mafra", "oneway": "yes", "ref": "A 21", "toll": "yes"}}, {"type": "Feature", "geometry": {"type": "LineString", "coordinates": [[-9.3503536, 38.933519], [-9.3503025, 38.9334554], [-9.3498392, 38.9328377], [-9.3495601, 38.9322808], [-9.3493802, 38.9317033], [-9.3493232, 38.9312181], [-9.3493447, 38.9307421], [-9.3494511, 38.9302065], [-9.3495976, 38.9294614]]}, "properties": {"bicycle": "no", "highway": "motorway", "lanes": "2", "maxspeed": "100", "name": "Autoestrada de Mafra", "oneway": "yes", "ref": "A 21", "toll": "yes"}}, {"type": "Feature", "geometry": {"type": "LineString", "coordinates": [[-9.3594707, 38.9420877], [-9.3602451, 38.9422914], [-9.3613142, 38.9425658], [-9.362551, 38.9428629], [-9.3637341, 38.9431604], [-9.3650093, 38.9434934], [-9.3654424, 38.9436128], [-9.3658936, 38.9437514], [-9.3663362, 38.9439085], [-9.3667665, 38.9440892], [-9.3671831, 38.9442908], [-9.3675765, 38.9445069], [-9.3677256, 38.944597], [-9.3679824, 38.9447623], [-9.3682044, 38.944914], [-9.3684485, 38.945096], [-9.3687999, 38.9453808], [-9.3691123, 38.9456452], [-9.3695468, 38.946016], [-9.3699928, 38.9463821], [-9.3704662, 38.9467357], [-9.3710791, 38.9471263], [-9.3714646, 38.9473406], [-9.3717214, 38.9474679], [-9.3721607, 38.9476676], [-9.3725885, 38.9478345], [-9.3730284, 38.9479852], [-9.3734615, 38.9481119], [-9.3739463, 38.9482298], [-9.3742783, 38.9483012], [-9.3750266, 38.9484457], [-9.3759902, 38.9486261], [-9.3764562, 38.9487195], [-9.3768726, 38.9488144], [-9.3773735, 38.9489442], [-9.3776894, 38.9490329], [-9.3782479, 38.9492175], [-9.3786985, 38.9493755], [-9.3792833, 38.9495987], [-9.3797024, 38.949763], [-9.3801396, 38.9499471], [-9.3804359, 38.9500566], [-9.3808852, 38.9502], [-9.3812198, 38.950297], [-9.3816724, 38.9504195], [-9.3819802, 38.9504936], [-9.3824027, 38.9505854], [-9.3827353, 38.9506453], [-9.3830223, 38.9506855], [-9.3833321, 38.9507199], [-9.384141, 38.9508034], [-9.3847678, 38.9508542], [-9.3855188, 38.9509671], [-9.3863376, 38.9511083], [-9.3870942, 38.9513567], [-9.3877775, 38.9516616], [-9.3886019, 38.952136], [-9.3890847, 38.9524733]]}, "properties": {"bicycle": "no", "highway": "motorway", "lanes": "2", "maxspeed": "120", "name": "Autoestrada de Mafra", "oneway": "yes", "ref": "A 21", "toll": "yes"}}, {"type": "Feature", "geometry": {"type": "LineString", "coordinates": [[-9.350252, 38.9335464], [-9.3507636, 38.9342812], [-9.3514112, 38.9350402], [-9.351712, 38.935403]]}, "properties": {"bicycle": "no", "bridge": "viaduct", "highway": "motorway", "lanes": "2", "layer": "1", "maxspeed": "100", "name": "Autoestrada de Mafra", "oneway": "yes", "ref": "A 21", "toll": "yes"}}, {"type": "Feature", "geometry": {"type": "LineString", "coordinates": [[-9.3518204, 38.9353474], [-9.3515059, 38.9349613], [-9.3508817, 38.9341762], [-9.3503536, 38.933519]]}, "properties": {"bicycle": "no", "bridge": "viaduct", "highway": "motorway", "lanes": "2", "layer": "1", "maxspeed": "100", "name": "Autoestrada de Mafra", "oneway": "yes", "ref": "A 21", "toll": "yes"}}, {"type": "Feature", "geometry": {"type": "LineString", "coordinates": [[-9.2201027, 38.926958], [-9.2205509, 38.9272897]]}, "properties": {"highway": "motorway", "lanes": "2", "maxspeed": "40", "name": "Autoestrada de Mafra", "oneway": "yes", "ref": "A 21", "surface": "asphalt", "toll": "yes"}}, {"type": "Feature", "geometry": {"type": "LineString", "coordinates": [[-9.250183, 38.9428535], [-9.2484445, 38.9421787]]}, "properties": {"highway": "motorway", "lanes": "3", "maxspeed": "120", "name": "Autoestrada de Mafra", "oneway": "yes", "ref": "A 21", "toll": "yes"}}, {"type": "Feature", "geometry": {"type": "LineString", "coordinates": [[-9.2755798, 38.9360985], [-9.2749675, 38.9362623], [-9.2737591, 38.9367649], [-9.2728863, 38.9372712], [-9.2712464, 38.9383711], [-9.2655977, 38.9421731], [-9.2641277, 38.9430911], [-9.2628016, 38.9437366], [-9.2616638, 38.944131], [-9.2605775, 38.9444133], [-9.2595907, 38.9445794], [-9.2582721, 38.9446841], [-9.2572127, 38.9446839], [-9.2562058, 38.9446186], [-9.2548934, 38.944412], [-9.2535678, 38.9440297], [-9.2515031, 38.9432858], [-9.2506061, 38.9430028]]}, "properties": {"highway": "motorway", "lanes": "2", "maxspeed": "120", "name": "Autoestrada de Mafra", "oneway": "yes", "ref": "A 21", "toll": "yes"}}, {"type": "Feature", "geometry": {"type": "LineString", "coordinates": [[-9.2787544, 38.9357607], [-9.2778495, 38.9357764], [-9.2770342, 38.9358196], [-9.2764775, 38.9358974], [-9.2759312, 38.9360186], [-9.2755798, 38.9360985]]}, "properties": {"bicycle": "no", "bridge": "yes", "highway": "motorway", "lanes": "2", "layer": "1", "maxspeed": "120", "name": "Autoestrada de Mafra", "oneway": "yes", "ref": "A 21", "toll": "yes"}}, {"type": "Feature", "geometry": {"type": "LineString", "coordinates": [[-9.2756112, 38.9361869], [-9.2759764, 38.9361149], [-9.2764789, 38.9359934], [-9.2769962, 38.9359233], [-9.278756, 38.9358393]]}, "properties": {"bicycle": "no", "bridge": "yes", "highway": "motorway", "lanes": "2", "layer": "1", "maxspeed": "120", "name": "Autoestrada de Mafra", "oneway": "yes", "ref": "A 21", "toll": "yes"}}, {"type": "Feature", "geometry": {"type": "LineString", "coordinates": [[-9.3131769, 38.9275475], [-9.3132862, 38.9275449], [-9.3137951, 38.9275679], [-9.3144877, 38.927655], [-9.3158221, 38.9279168], [-9.3163336, 38.9280129], [-9.3168727, 38.928107], [-9.3175524, 38.9281952], [-9.3181262, 38.928253], [-9.3188618, 38.9282705], [-9.3194586, 38.9282543], [-9.3201876, 38.9281923], [-9.3208716, 38.9281056], [-9.3216065, 38.9279477], [-9.3222119, 38.9277894], [-9.3229193, 38.9275486], [-9.3235548, 38.9272829], [-9.3242436, 38.92693], [-9.3246115, 38.9267187], [-9.3249093, 38.9265065], [-9.3255339, 38.9260362], [-9.3261144, 38.9255184], [-9.3266543, 38.9249468], [-9.327205, 38.9242801], [-9.3279236, 38.9234408], [-9.3287254, 38.9224357], [-9.3292901, 38.9217411], [-9.3297418, 38.9211878], [-9.3303009, 38.9206288], [-9.3309728, 38.9201375], [-9.3317464, 38.9196688], [-9.3325194, 38.9193333], [-9.3330078, 38.9191712], [-9.3334517, 38.919042], [-9.3343096, 38.9188625], [-9.3351984, 38.9187523], [-9.3359688, 38.9187414], [-9.3367859, 38.9187863], [-9.3375058, 38.9188934], [-9.3383909, 38.919104], [-9.3392564, 38.919406], [-9.3400401, 38.919781], [-9.3409177, 38.9203275], [-9.3430398, 38.9220027], [-9.3447049, 38.9233413], [-9.3455258, 38.9239619], [-9.3468661, 38.9249002], [-9.3473348, 38.925252]]}, "properties": {"bicycle": "no", "highway": "motorway", "lanes": "2", "maxspeed": "120", "name": "Autoestrada de Mafra", "oneway": "yes", "ref": "A 21", "toll": "yes"}}, {"type": "Feature", "geometry": {"type": "LineString", "coordinates": [[-9.2316114, 38.9388583], [-9.231758, 38.9390042]]}, "properties": {"bridge": "yes", "highway": "motorway", "lanes": "2", "layer": "1", "maxspeed": "100", "name": "Autoestrada de Mafra", "oneway": "yes", "ref": "A 21", "toll": "yes"}}, {"type": "Feature", "geometry": {"type": "LineString", "coordinates": [[-9.2318024, 38.9387952], [-9.2316781, 38.9386703]]}, "properties": {"bridge": "yes", "highway": "motorway", "lanes": "2", "layer": "1", "maxspeed": "100", "name": "Autoestrada de Mafra", "oneway": "yes", "ref": "A 21", "toll": "yes"}}, {"type": "Feature", "geometry": {"type": "LineString", "coordinates": [[-9.2212284, 38.9277542], [-9.2206435, 38.9272278]]}, "properties": {"highway": "motorway", "lanes": "2", "maxspeed": "60", "name": "Autoestrada de Mafra", "oneway": "yes", "ref": "A 21", "surface": "asphalt", "toll": "yes"}}, {"type": "Feature", "geometry": {"type": "LineString", "coordinates": [[-9.2210824, 38.927847], [-9.2216344, 38.9284675]]}, "properties": {"highway": "motorway", "lanes": "2", "name": "Autoestrada de Mafra", "oneway": "yes", "ref": "A 21", "toll": "yes"}}, {"type": "Feature", "geometry": {"type": "LineString", "coordinates": [[-9.2205509, 38.9272897], [-9.2210824, 38.927847]]}, "properties": {"highway": "motorway", "lanes": "2", "maxspeed": "40", "name": "Autoestrada de Mafra", "oneway": "yes", "ref": "A 21", "surface": "asphalt", "toll": "yes"}}, {"type": "Feature", "geometry": {"type": "LineString", "coordinates": [[-9.2478911, 38.9421297], [-9.2492427, 38.9426174]]}, "properties": {"highway": "motorway", "lanes": "3", "maxspeed": "120", "name": "Autoestrada de Mafra", "oneway": "yes", "ref": "A 21", "toll": "yes"}}, {"type": "Feature", "geometry": {"type": "LineString", "coordinates": [[-9.2484445, 38.9421787], [-9.2465876, 38.941432]]}, "properties": {"highway": "motorway", "lanes": "2", "maxspeed": "120", "name": "Autoestrada de Mafra", "oneway": "yes", "ref": "A 21", "toll": "yes"}}, {"type": "Feature", "geometry": {"type": "LineString", "coordinates": [[-9.2321573, 38.9393352], [-9.2323901, 38.9395098], [-9.2326798, 38.9396903], [-9.2330875, 38.9399052], [-9.2334335, 38.9400491], [-9.2338908, 38.9402004], [-9.2342636, 38.9402942], [-9.2346673, 38.9403662], [-9.2350924, 38.9404205], [-9.2355135, 38.9404424], [-9.2359802, 38.940433], [-9.2363168, 38.9404173], [-9.2367943, 38.9403819]]}, "properties": {"highway": "motorway", "lanes": "3", "maxspeed": "100", "name": "Autoestrada de Mafra", "oneway": "yes", "ref": "A 21", "toll": "yes"}}, {"type": "Feature", "geometry": {"type": "LineString", "coordinates": [[-9.2248077, 38.9331025], [-9.2252012, 38.9336693], [-9.2255451, 38.9341021], [-9.2259314, 38.934529], [-9.2263564, 38.9349533], [-9.2267793, 38.9353274], [-9.2272389, 38.9356898], [-9.2277993, 38.9360862], [-9.2282434, 38.936372], [-9.2287959, 38.9366839], [-9.2293149, 38.9369614]]}, "properties": {"highway": "motorway", "lanes": "2", "maxspeed": "120", "name": "Autoestrada de Mafra", "oneway": "yes", "ref": "A 21", "toll": "yes"}}, {"type": "Feature", "geometry": {"type": "LineString", "coordinates": [[-9.2219525, 38.9286832], [-9.2217693, 38.9284205], [-9.2212284, 38.9277542]]}, "properties": {"highway": "motorway", "lanes": "2", "maxspeed": "60", "name": "Autoestrada de Mafra", "oneway": "yes", "ref": "A 21", "toll": "yes"}}, {"type": "Feature", "geometry": {"type": "LineString", "coordinates": [[-9.237681, 38.9401601], [-9.2374809, 38.9401837], [-9.2368573, 38.9402536], [-9.2363758, 38.9402932], [-9.2359641, 38.9403068], [-9.2354545, 38.9402901], [-9.2349798, 38.9402369], [-9.2344393, 38.9401409], [-9.2339981, 38.940022], [-9.2335166, 38.9398572], [-9.233239, 38.9397403], [-9.2329815, 38.9396162], [-9.2326704, 38.9394451], [-9.2323297, 38.939223], [-9.2320119, 38.938983], [-9.2318024, 38.9387952]]}, "properties": {"highway": "motorway", "lanes": "2", "maxspeed": "100", "name": "Autoestrada de Mafra", "oneway": "yes", "ref": "A 21", "toll": "yes"}}, {"type": "Feature", "geometry": {"type": "LineString", "coordinates": [[-9.2296297, 38.9370233], [-9.2290159, 38.9366912], [-9.2283627, 38.9363261], [-9.2278753, 38.9360176], [-9.2273086, 38.9356199], [-9.2268542, 38.9352604], [-9.2264275, 38.9348771], [-9.2260237, 38.9344749], [-9.2256497, 38.9340614], [-9.2253039, 38.9336313], [-9.2249048, 38.9330351]]}, "properties": {"highway": "motorway", "lanes": "2", "maxspeed": "120", "name": "Autoestrada de Mafra", "oneway": "yes", "ref": "A 21", "toll": "yes"}}, {"type": "Feature", "geometry": {"type": "LineString", "coordinates": [[-9.2220014, 38.9289664], [-9.222483, 38.9296908]]}, "properties": {"highway": "motorway", "lanes": "2", "name": "Autoestrada de Mafra", "oneway": "yes", "ref": "A 21", "toll": "yes"}}, {"type": "Feature", "geometry": {"type": "LineString", "coordinates": [[-9.3611581, 38.9424013], [-9.3593892, 38.9419629], [-9.3582959, 38.9416205], [-9.3575623, 38.9412644]]}, "properties": {"bicycle": "no", "highway": "motorway", "lanes": "2", "maxspeed": "120", "name": "Autoestrada de Mafra", "oneway": "yes", "ref": "A 21", "toll": "yes"}}, {"type": "Feature", "geometry": {"type": "LineString", "coordinates": [[-9.3563067, 38.9405285], [-9.3558116, 38.9401672], [-9.3551655, 38.939538], [-9.3540068, 38.938105], [-9.3533923, 38.9373279], [-9.352827, 38.9366223], [-9.3521651, 38.9357779], [-9.3518204, 38.9353474]]}, "properties": {"bicycle": "no", "highway": "motorway", "lanes": "2", "maxspeed": "100", "name": "Autoestrada de Mafra", "oneway": "yes", "ref": "A 21", "toll": "yes"}}, {"type": "Feature", "geometry": {"type": "LineString", "coordinates": [[-9.278756, 38.9358393], [-9.2794399, 38.9358333], [-9.2803567, 38.9358105], [-9.2808734, 38.9357856], [-9.281599, 38.935767], [-9.2836869, 38.9357497], [-9.2843775, 38.9357564], [-9.2852915, 38.9357844], [-9.2874794, 38.9358502], [-9.2899611, 38.9359693], [-9.2926337, 38.9360813], [-9.2952745, 38.936192], [-9.2961755, 38.9362131], [-9.2974595, 38.9361833], [-9.2984547, 38.9361103], [-9.299428, 38.9359603], [-9.3007064, 38.9356724], [-9.3012417, 38.9355127], [-9.3017479, 38.9353294]]}, "properties": {"bicycle": "no", "highway": "motorway", "lanes": "2", "maxspeed": "120", "name": "Autoestrada de Mafra", "oneway": "yes", "ref": "A 21", "toll": "yes"}}, {"type": "Feature", "geometry": {"type": "LineString", "coordinates": [[-9.3552845, 38.9398202], [-9.355763, 38.9402624], [-9.3561164, 38.9405446], [-9.3564756, 38.9407966], [-9.3567051, 38.9409425], [-9.3569613, 38.9410912], [-9.357363, 38.9413108], [-9.3576492, 38.9414479], [-9.3579389, 38.9415741], [-9.3583713, 38.9417406], [-9.3587805, 38.9418771], [-9.3594707, 38.9420877]]}, "properties": {"bicycle": "no", "highway": "motorway", "lanes": "2", "maxspeed": "120", "name": "Autoestrada de Mafra", "oneway": "yes", "ref": "A 21", "toll": "yes"}}, {"type": "Feature", "geometry": {"type": "LineString", "coordinates": [[-9.3518456, 38.9355711], [-9.3520791, 38.9358648], [-9.3527429, 38.9366791], [-9.3532979, 38.937392], [-9.3539127, 38.9381604], [-9.3550874, 38.939634], [-9.3552845, 38.9398202]]}, "properties": {"bicycle": "no", "highway": "motorway", "lanes": "2", "maxspeed": "120", "name": "Autoestrada de Mafra", "oneway": "yes", "ref": "A 21", "toll": "yes"}}, {"type": "Feature", "geometry": {"type": "LineString", "coordinates": [[-9.2982179, 38.9360204], [-9.2974556, 38.9360863], [-9.2961892, 38.9361198], [-9.2952762, 38.9360895], [-9.2926398, 38.9359774], [-9.2900091, 38.9358842], [-9.287481, 38.9357698], [-9.2851993, 38.9356753], [-9.2812733, 38.9356727], [-9.2795054, 38.9357415], [-9.2787544, 38.9357607]]}, "properties": {"bicycle": "no", "highway": "motorway", "lanes": "2", "maxspeed": "120", "name": "Autoestrada de Mafra", "oneway": "yes", "ref": "A 21", "toll": "yes"}}, {"type": "Feature", "geometry": {"type": "LineString", "coordinates": [[-9.2240672, 38.9317838], [-9.2236412, 38.9311508]]}, "properties": {"highway": "motorway", "lanes": "2", "maxspeed": "100", "name": "Autoestrada de Mafra", "oneway": "yes", "ref": "A 21", "toll": "yes"}}, {"type": "Feature", "geometry": {"type": "LineString", "coordinates": [[-9.2227542, 38.9298327], [-9.2219525, 38.9286832]]}, "properties": {"highway": "motorway", "lanes": "3", "maxspeed": "80", "name": "Autoestrada de Mafra", "oneway": "yes", "ref": "A 21", "toll": "yes"}}, {"type": "Feature", "geometry": {"type": "LineString", "coordinates": [[-9.2236412, 38.9311508], [-9.2227542, 38.9298327]]}, "properties": {"highway": "motorway", "lanes": "2", "maxspeed": "80", "name": "Autoestrada de Mafra", "oneway": "yes", "ref": "A 21", "toll": "yes"}}, {"type": "Feature", "geometry": {"type": "LineString", "coordinates": [[-9.2249048, 38.9330351], [-9.2240672, 38.9317838]]}, "properties": {"highway": "motorway", "lanes": "2", "maxspeed": "100", "name": "Autoestrada de Mafra", "oneway": "yes", "ref": "A 21", "toll": "yes"}}, {"type": "Feature", "geometry": {"type": "LineString", "coordinates": [[-9.2316781, 38.9386703], [-9.2309913, 38.9379879], [-9.2306373, 38.937676], [-9.2302416, 38.937387], [-9.229791, 38.9371106], [-9.2296297, 38.9370233]]}, "properties": {"highway": "motorway", "lanes": "2", "maxspeed": "100", "name": "Autoestrada de Mafra", "oneway": "yes", "ref": "A 21", "toll": "yes"}}, {"type": "Feature", "geometry": {"type": "LineString", "coordinates": [[-9.2465876, 38.941432], [-9.2454651, 38.9409935], [-9.2447363, 38.9407376], [-9.2440349, 38.9405373]]}, "properties": {"highway": "motorway", "lanes": "3", "maxheight": "5.6", "maxspeed": "120", "name": "Autoestrada de Mafra", "oneway": "yes", "ref": "A 21", "toll": "yes"}}, {"type": "Feature", "geometry": {"type": "LineString", "coordinates": [[-9.2440349, 38.9405373], [-9.2433147, 38.9403589], [-9.2426991, 38.940239], [-9.2420769, 38.9401399], [-9.2415753, 38.9400783], [-9.241, 38.9400314], [-9.2403817, 38.9400022], [-9.2397071, 38.9400022], [-9.2390004, 38.9400314], [-9.23824, 38.940094], [-9.237681, 38.9401601]]}, "properties": {"highway": "motorway", "lanes": "2", "maxheight": "5.6", "maxspeed": "120", "name": "Autoestrada de Mafra", "oneway": "yes", "ref": "A 21", "toll": "yes"}}, {"type": "Feature", "geometry": {"type": "LineString", "coordinates": [[-9.3009332, 38.9354754], [-9.3002663, 38.9356424], [-9.2994483, 38.9358421], [-9.298465, 38.935999], [-9.2982179, 38.9360204]]}, "properties": {"bicycle": "no", "highway": "motorway", "lanes": "2", "maxspeed": "100", "name": "Autoestrada de Mafra", "oneway": "yes", "ref": "A 21", "toll": "yes"}}, {"type": "Feature", "geometry": {"type": "LineString", "coordinates": [[-9.3150996, 38.9276931], [-9.3145095, 38.9275865], [-9.3138724, 38.9274964], [-9.3133447, 38.9274513], [-9.312796, 38.9274615], [-9.31218, 38.9275175], [-9.311495, 38.9276345]]}, "properties": {"bicycle": "no", "highway": "motorway", "lanes": "2", "maxheight": "5.6", "maxspeed": "100", "name": "Autoestrada de Mafra", "oneway": "yes", "ref": "A 21", "toll": "yes"}}, {"type": "Feature", "geometry": {"type": "LineString", "coordinates": [[-9.311495, 38.9276345], [-9.310867, 38.9277865], [-9.3102118, 38.9280404], [-9.3096014, 38.9283101], [-9.309233, 38.9285458], [-9.3088455, 38.9288151], [-9.308477, 38.9291335], [-9.3080749, 38.9295641], [-9.3077483, 38.9299997], [-9.3075363, 38.9303288], [-9.3071117, 38.9309821], [-9.3065756, 38.9317085], [-9.3061518, 38.9322676], [-9.3055276, 38.9329051], [-9.3049054, 38.9334155], [-9.3045339, 38.9336785], [-9.3039951, 38.9340707], [-9.3033573, 38.9344579], [-9.3028437, 38.9347369], [-9.3018881, 38.935149], [-9.3009332, 38.9354754]]}, "properties": {"bicycle": "no", "highway": "motorway", "lanes": "2", "maxspeed": "100", "name": "Autoestrada de Mafra", "oneway": "yes", "ref": "A 21", "toll": "yes"}}, {"type": "Feature", "geometry": {"type": "LineString", "coordinates": [[-9.3486296, 38.9262973], [-9.3480502, 38.9257267]]}, "properties": {"bicycle": "no", "highway": "motorway", "lanes": "2", "maxspeed": "100", "name": "Autoestrada de Mafra", "oneway": "yes", "ref": "A 21", "toll": "yes"}}, {"type": "Feature", "geometry": {"type": "LineString", "coordinates": [[-9.3575623, 38.9412644], [-9.3566066, 38.9407474], [-9.3563067, 38.9405285]]}, "properties": {"bicycle": "no", "highway": "motorway", "lanes": "2", "maxspeed": "120", "name": "Autoestrada de Mafra", "oneway": "yes", "ref": "A 21", "toll": "yes"}}, {"type": "Feature", "geometry": {"type": "LineString", "coordinates": [[-9.3891483, 38.952407], [-9.3888815, 38.952204], [-9.3886482, 38.9520439], [-9.3883686, 38.9518724], [-9.3881801, 38.9517676]]}, "properties": {"bicycle": "no", "highway": "motorway", "lanes": "2", "maxspeed": "100", "name": "Autoestrada de Mafra", "oneway": "yes", "ref": "A 21", "toll": "yes"}}, {"type": "Feature", "geometry": {"type": "LineString", "coordinates": [[-9.399074, 38.959149], [-9.3986688, 38.9590561], [-9.3979814, 38.9588833], [-9.3972172, 38.9586633], [-9.3965863, 38.95843], [-9.3960332, 38.9581931], [-9.3955869, 38.9579712], [-9.3951987, 38.9577557], [-9.3946141, 38.957376], [-9.394064, 38.9569556], [-9.3929735, 38.9559688]]}, "properties": {"bicycle": "no", "highway": "motorway", "lanes": "2", "maxspeed": "100", "name": "Autoestrada de Mafra", "oneway": "yes", "ref": "A 21", "surface": "asphalt", "toll": "yes"}}, {"type": "Feature", "geometry": {"type": "LineString", "coordinates": [[-9.4053424, 38.9647179], [-9.4052689, 38.9646962], [-9.405232, 38.9646849], [-9.4051767, 38.9646687], [-9.4051301, 38.9646494], [-9.4050936, 38.9646312], [-9.4050587, 38.9646062], [-9.4050255, 38.9645764], [-9.4049917, 38.9645436], [-9.404953, 38.9644951], [-9.4047814, 38.9642719], [-9.4043979, 38.9637038], [-9.4041978, 38.9633935], [-9.4039817, 38.9630874], [-9.4038255, 38.9628903]]}, "properties": {"bicycle": "no", "highway": "motorway", "lanes": "2", "maxspeed": "60", "name": "Autoestrada de Mafra", "oneway": "yes", "ref": "A 21", "surface": "asphalt"}}, {"type": "Feature", "geometry": {"type": "LineString", "coordinates": [[-9.4044143, 38.963995], [-9.4045292, 38.9641301], [-9.4048288, 38.9645122]]}, "properties": {"bicycle": "no", "highway": "motorway", "lanes": "2", "maxspeed": "60", "name": "Autoestrada de Mafra", "oneway": "yes", "ref": "A 21", "surface": "asphalt", "toll": "yes"}}, {"type": "Feature", "geometry": {"type": "LineString", "coordinates": [[-9.4026637, 38.9617793], [-9.4034592, 38.9628401], [-9.4035894, 38.9630095]]}, "properties": {"bicycle": "no", "highway": "motorway", "lanes": "2", "maxspeed": "40", "name": "Autoestrada de Mafra", "oneway": "yes", "ref": "A 21", "surface": "asphalt", "toll": "yes"}}, {"type": "Feature", "geometry": {"type": "LineString", "coordinates": [[-9.4022954, 38.9612882], [-9.4026637, 38.9617793]]}, "properties": {"bicycle": "no", "highway": "motorway", "lanes": "2", "maxspeed": "60", "name": "Autoestrada de Mafra", "oneway": "yes", "ref": "A 21", "surface": "asphalt", "toll": "yes"}}, {"type": "Feature", "geometry": {"type": "LineString", "coordinates": [[-9.4048288, 38.9645122], [-9.4048726, 38.9645681], [-9.4049048, 38.9646119], [-9.4049214, 38.9646368], [-9.4049369, 38.9646661], [-9.4049477, 38.9646953], [-9.4049595, 38.9647257], [-9.4049673, 38.964769], [-9.4049719, 38.9648515]]}, "properties": {"bicycle": "no", "highway": "motorway", "lanes": "2", "maxspeed": "40", "name": "Autoestrada de Mafra", "oneway": "yes", "ref": "A 21", "surface": "asphalt", "toll": "yes"}}, {"type": "Feature", "geometry": {"type": "LineString", "coordinates": [[-9.351712, 38.935403], [-9.3518456, 38.9355711]]}, "properties": {"bicycle": "no", "highway": "motorway", "lanes": "2", "maxspeed": "100", "name": "Autoestrada de Mafra", "oneway": "yes", "ref": "A 21", "toll": "yes"}}, {"type": "Feature", "geometry": {"type": "LineString", "coordinates": [[-9.3473348, 38.925252], [-9.3474515, 38.9253396], [-9.3479971, 38.9258006], [-9.3485484, 38.9263637]]}, "properties": {"bicycle": "no", "highway": "motorway", "lanes": "2", "maxspeed": "100", "name": "Autoestrada de Mafra", "oneway": "yes", "ref": "A 21", "toll": "yes"}}, {"type": "Feature", "geometry": {"type": "LineString", "coordinates": [[-9.3058932, 38.9326941], [-9.3062096, 38.9323731], [-9.306647, 38.9318092], [-9.3071862, 38.9310668], [-9.3075955, 38.930442], [-9.3077876, 38.9301312], [-9.3080864, 38.9297079], [-9.3084654, 38.9292816], [-9.3088604, 38.9289294], [-9.3092422, 38.92865], [-9.3096255, 38.9284296], [-9.3101795, 38.9281432], [-9.3108678, 38.9278977], [-9.3115229, 38.9277157], [-9.3121385, 38.9276138], [-9.3127466, 38.9275578], [-9.3131769, 38.9275475]]}, "properties": {"bicycle": "no", "highway": "motorway", "lanes": "2", "maxspeed": "100", "name": "Autoestrada de Mafra", "oneway": "yes", "ref": "A 21", "toll": "yes"}}, {"type": "Feature", "geometry": {"type": "LineString", "coordinates": [[-9.3017479, 38.9353294], [-9.3024489, 38.9350375], [-9.3034012, 38.9345856], [-9.3040489, 38.9341863], [-9.304675, 38.93374], [-9.3050771, 38.9334585], [-9.3055967, 38.932995], [-9.3058932, 38.9326941]]}, "properties": {"bicycle": "no", "highway": "motorway", "lanes": "2", "maxspeed": "120", "name": "Autoestrada de Mafra", "oneway": "yes", "ref": "A 21", "toll": "yes"}}, {"type": "Feature", "geometry": {"type": "LineString", "coordinates": [[-9.2367943, 38.9403819], [-9.238067, 38.9402671], [-9.238885, 38.9402024], [-9.2395717, 38.940168], [-9.2402288, 38.940167], [-9.2408109, 38.9401868]]}, "properties": {"highway": "motorway", "lanes": "3", "maxspeed": "120", "name": "Autoestrada de Mafra", "oneway": "yes", "ref": "A 21", "toll": "yes"}}, {"type": "Feature", "geometry": {"type": "LineString", "coordinates": [[-9.2293149, 38.9369614], [-9.2297347, 38.9371888], [-9.230188, 38.9374694], [-9.2307325, 38.9379096], [-9.2311978, 38.9384051], [-9.2316114, 38.9388583]]}, "properties": {"highway": "motorway", "lanes": "2", "maxspeed": "100", "name": "Autoestrada de Mafra", "oneway": "yes", "ref": "A 21", "toll": "yes"}}, {"type": "Feature", "geometry": {"type": "LineString", "coordinates": [[-9.2225946, 38.9298588], [-9.2234723, 38.9311789]]}, "properties": {"highway": "motorway", "lanes": "2", "name": "Autoestrada de Mafra", "oneway": "yes", "ref": "A 21", "toll": "yes"}}, {"type": "Feature", "geometry": {"type": "LineString", "coordinates": [[-9.222483, 38.9296908], [-9.2225946, 38.9298588]]}, "properties": {"highway": "motorway", "lanes": "2", "maxheight": "5.8", "name": "Autoestrada de Mafra", "oneway": "yes", "ref": "A 21", "toll": "yes"}}, {"type": "Feature", "geometry": {"type": "LineString", "coordinates": [[-9.2492427, 38.9426174], [-9.2501401, 38.9429411]]}, "properties": {"highway": "motorway", "lanes": "2", "maxspeed": "120", "name": "Autoestrada de Mafra", "oneway": "yes", "ref": "A 21", "toll": "yes"}}, {"type": "Feature", "geometry": {"type": "LineString", "coordinates": [[-9.2447192, 38.9410181], [-9.2478911, 38.9421297]]}, "properties": {"highway": "motorway", "lanes": "2", "maxspeed": "120", "name": "Autoestrada de Mafra", "oneway": "yes", "ref": "A 21", "toll": "yes"}}, {"type": "Feature", "geometry": {"type": "LineString", "coordinates": [[-9.2408109, 38.9401868], [-9.2412306, 38.9402181], [-9.2417094, 38.9402713], [-9.2422915, 38.9403589], [-9.2430478, 38.9405154], [-9.2435011, 38.9406322], [-9.2438766, 38.9407407], [-9.2442521, 38.9408606], [-9.2447192, 38.9410181]]}, "properties": {"highway": "motorway", "lanes": "3", "maxspeed": "120", "name": "Autoestrada de Mafra", "oneway": "yes", "ref": "A 21", "toll": "yes", "turn:lanes": "through|through|slight_right"}}, {"type": "Feature", "geometry": {"type": "LineString", "coordinates": [[-9.231758, 38.9390042], [-9.2320119, 38.9392261], [-9.2321573, 38.9393352]]}, "properties": {"highway": "motorway", "lanes": "2", "maxspeed": "100", "name": "Autoestrada de Mafra", "oneway": "yes", "ref": "A 21", "toll": "yes"}}, {"type": "Feature", "geometry": {"type": "LineString", "coordinates": [[-9.2234723, 38.9311789], [-9.2248077, 38.9331025]]}, "properties": {"highway": "motorway", "lanes": "3", "name": "Autoestrada de Mafra", "oneway": "yes", "ref": "A 21", "toll": "yes"}}, {"type": "Feature", "geometry": {"type": "LineString", "coordinates": [[-9.4038255, 38.9628903], [-9.4037056, 38.9627352], [-9.4024455, 38.9612361]]}, "properties": {"bicycle": "no", "highway": "motorway", "lanes": "2", "maxspeed": "60", "name": "Autoestrada de Mafra", "oneway": "yes", "ref": "A 21", "surface": "asphalt", "toll": "yes"}}, {"type": "Feature", "geometry": {"type": "LineString", "coordinates": [[-9.4035894, 38.9630095], [-9.4041677, 38.9637051], [-9.4044143, 38.963995]]}, "properties": {"bicycle": "no", "highway": "motorway", "lanes": "2", "maxspeed": "40", "name": "Autoestrada de Mafra", "oneway": "yes", "ref": "A 21", "surface": "asphalt", "toll": "yes"}}]}