{"type": "FeatureCollection", "features": [{"type": "Feature", "geometry": {"type": "LineString", "coordinates": [[-9.1980206, 38.6580091], [-9.1954939, 38.658823], [-9.1919698, 38.6599889]]}, "properties": {"highway": "trunk", "lanes": "3", "maxspeed": "90", "name": "Via R\u00e1pida da Caparica", "name:etymology": "Costa da Caparica", "name:etymology:wikidata": "Q598662", "oneway": "yes", "ref": "IC 20;A 38", "toll": "no"}}, {"type": "Feature", "geometry": {"type": "LineString", "coordinates": [[-9.1690854, 38.6662772], [-9.1692522, 38.6662536], [-9.1693375, 38.6662427], [-9.1694319, 38.6662314], [-9.1695628, 38.6662175], [-9.1699039, 38.6661845]]}, "properties": {"destination": "Caparica;Set\u00fabal;Montijo", "highway": "trunk", "lanes": "2", "maxspeed": "90", "name": "Via R\u00e1pida da Caparica", "name:etymology": "Costa da Caparica", "name:etymology:wikidata": "Q598662", "oneway": "yes", "ref": "IC 20;A 38", "toll": "no"}}, {"type": "Feature", "geometry": {"type": "LineString", "coordinates": [[-9.1753799, 38.6654393], [-9.1759524, 38.665309], [-9.1764087, 38.6651896], [-9.1765535, 38.6651489], [-9.1767931, 38.6650762], [-9.1770608, 38.6649886], [-9.1774379, 38.6648678], [-9.1780541, 38.664669], [-9.1786795, 38.6644673], [-9.1794633, 38.664211]]}, "properties": {"highway": "trunk", "lanes": "4", "maxspeed": "90", "name": "Via R\u00e1pida da Caparica", "name:etymology": "Costa da Caparica", "name:etymology:wikidata": "Q598662", "oneway": "yes", "ref": "IC 20;A 38", "surface": "asphalt", "toll": "no"}}, {"type": "Feature", "geometry": {"type": "LineString", "coordinates": [[-9.1659766, 38.6664695], [-9.1657397, 38.6665908], [-9.1656294, 38.6666303], [-9.1654868, 38.6666561], [-9.1649257, 38.6667342], [-9.1644569, 38.6668331]]}, "properties": {"destination": "Cova da Piedade;Cacilhas;Corroios;Lisboa", "highway": "trunk", "lanes": "2", "maxspeed": "50", "oneway": "yes", "ref": "IC 20;A 38", "surface": "asphalt"}}, {"type": "Feature", "geometry": {"type": "LineString", "coordinates": [[-9.1699039, 38.6661845], [-9.1711531, 38.6660457]]}, "properties": {"highway": "trunk", "lanes": "2", "maxspeed": "90", "name": "Via R\u00e1pida da Caparica", "name:etymology": "Costa da Caparica", "name:etymology:wikidata": "Q598662", "oneway": "yes", "ref": "IC 20;A 38", "toll": "no"}}, {"type": "Feature", "geometry": {"type": "LineString", "coordinates": [[-9.1685403, 38.6661801], [-9.1673822, 38.6663301], [-9.1673071, 38.6663318], [-9.1672695, 38.6663345], [-9.167105, 38.6663326]]}, "properties": {"highway": "trunk", "lanes": "4", "lit": "yes", "maxspeed": "50", "name": "Via R\u00e1pida da Caparica", "name:etymology": "Costa da Caparica", "name:etymology:wikidata": "Q598662", "oneway": "yes", "ref": "IC 20;A 38", "surface": "asphalt", "toll": "no"}}, {"type": "Feature", "geometry": {"type": "LineString", "coordinates": [[-9.1698702, 38.6660828], [-9.1695559, 38.6660769], [-9.168866, 38.6661497]]}, "properties": {"bicycle": "no", "destination": "Almada", "destination:symbol": "centre", "foot": "no", "highway": "trunk", "horse": "no", "lanes": "2", "lit": "yes", "maxspeed": "70", "name": "Via R\u00e1pida da Caparica", "name:etymology": "Costa da Caparica", "name:etymology:wikidata": "Q598662", "oneway": "yes", "ref": "IC 20;A 38", "surface": "asphalt", "toll": "no"}}, {"type": "Feature", "geometry": {"type": "LineString", "coordinates": [[-9.1794633, 38.664211], [-9.1803474, 38.6639184], [-9.1807201, 38.6637956], [-9.1811144, 38.6636657], [-9.1827597, 38.6631263]]}, "properties": {"highway": "trunk", "lanes": "3", "maxspeed": "90", "name": "Via R\u00e1pida da Caparica", "name:etymology": "Costa da Caparica", "name:etymology:wikidata": "Q598662", "oneway": "yes", "ref": "IC 20;A 38", "surface": "asphalt", "toll": "no"}}, {"type": "Feature", "geometry": {"type": "LineString", "coordinates": [[-9.1907084, 38.6603961], [-9.189352, 38.6608297]]}, "properties": {"destination": "Almada;Lisboa;Set\u00fabal", "destination:ref:to": "A 2", "highway": "trunk", "lanes": "3", "maxspeed": "90", "name": "Via R\u00e1pida da Caparica", "name:etymology": "Costa da Caparica", "name:etymology:wikidata": "Q598662", "oneway": "yes", "ref": "IC 20;A 38", "toll": "no"}}, {"type": "Feature", "geometry": {"type": "LineString", "coordinates": [[-9.1924957, 38.6599403], [-9.1955414, 38.6589334]]}, "properties": {"highway": "trunk", "lanes": "3", "maxspeed": "90", "name": "Via R\u00e1pida da Caparica", "name:etymology": "Costa da Caparica", "name:etymology:wikidata": "Q598662", "oneway": "yes", "ref": "IC 20;A 38", "toll": "no", "width": "16"}}, {"type": "Feature", "geometry": {"type": "LineString", "coordinates": [[-9.1794042, 38.6640992], [-9.1786213, 38.6643523], [-9.1781098, 38.6645201], [-9.1776368, 38.6646749], [-9.1773837, 38.6647576], [-9.1772109, 38.6648155], [-9.1770367, 38.6648722], [-9.1767239, 38.6649691]]}, "properties": {"highway": "trunk", "lanes": "4", "maxspeed": "70", "name": "Via R\u00e1pida da Caparica", "name:etymology": "Costa da Caparica", "name:etymology:wikidata": "Q598662", "oneway": "yes", "ref": "IC 20;A 38", "surface": "asphalt", "toll": "no", "turn:lanes": "through|through|right|right"}}, {"type": "Feature", "geometry": {"type": "LineString", "coordinates": [[-9.1751598, 38.6653838], [-9.1748248, 38.6654311], [-9.1744689, 38.6654807], [-9.1732808, 38.6656438]]}, "properties": {"destination": "Almada", "destination:ref": "IC 20", "highway": "trunk", "lanes": "2", "maxspeed": "70", "name": "Via R\u00e1pida da Caparica", "name:etymology": "Costa da Caparica", "name:etymology:wikidata": "Q598662", "oneway": "yes", "ref": "IC 20;A 38", "surface": "asphalt", "toll": "no"}}, {"type": "Feature", "geometry": {"type": "LineString", "coordinates": [[-9.189352, 38.6608297], [-9.1889942, 38.6609463]]}, "properties": {"change:lanes": "yes|not_right|not_left|yes", "highway": "trunk", "lanes": "4", "maxspeed": "90", "name": "Via R\u00e1pida da Caparica", "name:etymology": "Costa da Caparica", "name:etymology:wikidata": "Q598662", "oneway": "yes", "placement": "middle_of:2", "ref": "IC 20;A 38", "toll": "no", "turn:lanes": "through|through|through|right"}}, {"type": "Feature", "geometry": {"type": "LineString", "coordinates": [[-9.1864364, 38.6621421], [-9.1875234, 38.661692], [-9.1887733, 38.661181], [-9.18894, 38.661093]]}, "properties": {"destination": "Caparica;Montijo;Sobreda", "destination:ref:to": "A 33", "highway": "trunk", "lanes": "4", "maxspeed": "90", "name": "Via R\u00e1pida da Caparica", "name:etymology": "Costa da Caparica", "name:etymology:wikidata": "Q598662", "oneway": "yes", "opening_date": "2025-06-28", "ref": "IC 20;A 38", "toll": "no", "turn:lanes": "through|through|through|through;slight_right"}}, {"type": "Feature", "geometry": {"type": "LineString", "coordinates": [[-9.1894357, 38.6609429], [-9.1920649, 38.6600815]]}, "properties": {"highway": "trunk", "lanes": "3", "maxspeed": "90", "name": "Via R\u00e1pida da Caparica", "name:etymology": "Costa da Caparica", "name:etymology:wikidata": "Q598662", "oneway": "yes", "ref": "IC 20;A 38", "toll": "no"}}, {"type": "Feature", "geometry": {"type": "LineString", "coordinates": [[-9.1861619, 38.661894], [-9.1853594, 38.6621402], [-9.1843518, 38.6624834], [-9.1839936, 38.6625989], [-9.1825434, 38.663069], [-9.1812814, 38.6634825], [-9.1796047, 38.6640317], [-9.1794042, 38.6640992]]}, "properties": {"highway": "trunk", "lanes": "3", "maxspeed": "70", "name": "Via R\u00e1pida da Caparica", "name:etymology": "Costa da Caparica", "name:etymology:wikidata": "Q598662", "oneway": "yes", "ref": "IC 20;A 38", "surface": "asphalt", "toll": "no"}}, {"type": "Feature", "geometry": {"type": "LineString", "coordinates": [[-9.1615815, 38.6664849], [-9.161897, 38.6665861], [-9.1621924, 38.6666915], [-9.162422, 38.6667593], [-9.1626004, 38.6668064], [-9.1627038, 38.6668301], [-9.1628427, 38.6668569]]}, "properties": {"bicycle": "yes", "destination": "Lisboa;Set\u00fabal;Costa da Caparica;Almada", "destination:ref": "IC 20", "destination:symbol": "motorway;motorway;beach;centre", "highway": "trunk", "lanes": "3", "maxspeed": "50", "oneway": "yes", "ref": "IC 20;A 38", "surface": "asphalt", "toll": "no"}}, {"type": "Feature", "geometry": {"type": "LineString", "coordinates": [[-9.1723612, 38.6658886], [-9.1726306, 38.6658445], [-9.1733037, 38.6657487], [-9.1738474, 38.6656744], [-9.1744968, 38.6655852], [-9.1747989, 38.6655414], [-9.175133, 38.6654809], [-9.1753799, 38.6654393]]}, "properties": {"destination": "Caparica;Monte da Caparica;Montijo", "highway": "trunk", "lanes": "2", "maxspeed": "90", "name": "Via R\u00e1pida da Caparica", "name:etymology": "Costa da Caparica", "name:etymology:wikidata": "Q598662", "oneway": "yes", "ref": "IC 20;A 38", "surface": "asphalt", "toll": "no"}}, {"type": "Feature", "geometry": {"type": "LineString", "coordinates": [[-9.1978834, 38.6581697], [-9.1991129, 38.6577621]]}, "properties": {"highway": "trunk", "lanes": "4", "maxspeed": "90", "name": "Via R\u00e1pida da Caparica", "name:etymology": "Costa da Caparica", "name:etymology:wikidata": "Q598662", "oneway": "yes", "placement": "middle_of:2", "ref": "IC 20;A 38", "toll": "no", "width": "16"}}, {"type": "Feature", "geometry": {"type": "LineString", "coordinates": [[-9.1711531, 38.6660457], [-9.1723612, 38.6658886]]}, "properties": {"highway": "trunk", "lanes": "3", "maxspeed": "90", "name": "Via R\u00e1pida da Caparica", "name:etymology": "Costa da Caparica", "name:etymology:wikidata": "Q598662", "oneway": "yes", "ref": "IC 20;A 38", "surface": "asphalt", "toll": "no", "turn:lanes": "through|through|right"}}, {"type": "Feature", "geometry": {"type": "LineString", "coordinates": [[-9.1843108, 38.6627149], [-9.1864364, 38.6621421]]}, "properties": {"change:lanes": "yes|not_right|not_left|yes", "highway": "trunk", "lanes": "4", "maxspeed": "90", "name": "Via R\u00e1pida da Caparica", "name:etymology": "Costa da Caparica", "name:etymology:wikidata": "Q598662", "oneway": "yes", "placement": "middle_of:2", "ref": "IC 20;A 38", "surface": "asphalt", "toll": "no", "turn:lanes": "through|through|through|through;slight_right"}}, {"type": "Feature", "geometry": {"type": "LineString", "coordinates": [[-9.1725166, 38.6657468], [-9.1721989, 38.6657909], [-9.1714799, 38.6658924]]}, "properties": {"highway": "trunk", "lanes": "3", "maxspeed": "70", "name": "Via R\u00e1pida da Caparica", "name:etymology": "Costa da Caparica", "name:etymology:wikidata": "Q598662", "oneway": "yes", "placement": "right_of:1", "ref": "IC 20;A 38", "surface": "asphalt", "toll": "no"}}, {"type": "Feature", "geometry": {"type": "LineString", "coordinates": [[-9.1714799, 38.6658924], [-9.1707508, 38.6659877], [-9.1703284, 38.6660354]]}, "properties": {"destination:lanes": "Cacilhas;Corroios|Almada", "highway": "trunk", "lanes": "2", "maxspeed": "70", "name": "Via R\u00e1pida da Caparica", "name:etymology": "Costa da Caparica", "name:etymology:wikidata": "Q598662", "oneway": "yes", "ref": "IC 20;A 38", "surface": "asphalt", "toll": "no"}}, {"type": "Feature", "geometry": {"type": "LineString", "coordinates": [[-9.1640334, 38.6669943], [-9.1642808, 38.666996], [-9.1645534, 38.6669855], [-9.1647134, 38.6669665], [-9.1648947, 38.6669421], [-9.165325, 38.6668865], [-9.1656373, 38.6668462], [-9.1657467, 38.6668483], [-9.1659015, 38.6668717], [-9.166049, 38.6668929]]}, "properties": {"bicycle": "yes", "highway": "trunk", "lanes": "2", "lit": "yes", "maxspeed": "50", "oneway": "yes", "ref": "IC 20;A 38", "surface": "asphalt"}}, {"type": "Feature", "geometry": {"type": "LineString", "coordinates": [[-9.1636306, 38.666833], [-9.1633825, 38.6668108], [-9.163133, 38.6667816], [-9.1630054, 38.666757], [-9.1628793, 38.6667294], [-9.1626861, 38.6666862], [-9.162469, 38.6666305], [-9.1622839, 38.6665698], [-9.1619741, 38.6664607], [-9.1618893, 38.6664308], [-9.161785, 38.6663707], [-9.1616689, 38.6662976]]}, "properties": {"bicycle": "yes", "highway": "trunk", "lanes": "3", "lit": "yes", "maxspeed": "50", "oneway": "yes", "ref": "IC 20;A 38", "toll": "no"}}, {"type": "Feature", "geometry": {"type": "LineString", "coordinates": [[-9.1634022, 38.6669397], [-9.1638142, 38.6669551]]}, "properties": {"bicycle": "yes", "change:lanes": "no|no", "destination:lanes": "Set\u00fabal;Lisboa;Costa de Caparica|", "destination:ref:lanes": "IC 20|", "highway": "trunk", "lanes": "2", "maxspeed": "50", "oneway": "yes", "ref": "IC 20;A 38", "surface": "asphalt", "toll": "no"}}, {"type": "Feature", "geometry": {"type": "LineString", "coordinates": [[-9.1638142, 38.6669551], [-9.1640334, 38.6669943]]}, "properties": {"bicycle": "yes", "highway": "trunk", "lanes": "1", "maxspeed": "50", "oneway": "yes", "ref": "IC 20;A 38", "surface": "asphalt"}}, {"type": "Feature", "geometry": {"type": "LineString", "coordinates": [[-9.1628427, 38.6668569], [-9.1629758, 38.6668791], [-9.1631309, 38.6669035], [-9.1634022, 38.6669397]]}, "properties": {"bicycle": "yes", "destination:lanes": "Set\u00fabal;Lisboa;Costa de Caparica||", "destination:ref:lanes": "IC 20||", "highway": "trunk", "lanes": "3", "lit": "yes", "maxspeed": "50", "oneway": "yes", "ref": "IC 20;A 38", "surface": "asphalt", "toll": "no", "turn:lanes": "through|through|right"}}, {"type": "Feature", "geometry": {"type": "LineString", "coordinates": [[-9.1672319, 38.666657], [-9.1675041, 38.6665087], [-9.1675999, 38.6664797], [-9.1677073, 38.666463], [-9.1690854, 38.6662772]]}, "properties": {"destination": "Caparica;Set\u00fabal;Montijo", "highway": "trunk", "lanes": "2", "maxspeed": "90", "name": "Via R\u00e1pida da Caparica", "name:etymology": "Costa da Caparica", "name:etymology:wikidata": "Q598662", "oneway": "yes", "ref": "IC 20;A 38", "toll": "no"}}, {"type": "Feature", "geometry": {"type": "LineString", "coordinates": [[-9.1644569, 38.6668331], [-9.1642509, 38.6668469], [-9.163979, 38.6668461], [-9.1636306, 38.666833]]}, "properties": {"bicycle": "yes", "change:lanes": "no|not_left|yes", "highway": "trunk", "lanes": "3", "lit": "yes", "maxspeed": "50", "oneway": "yes", "ref": "IC 20;A 38", "toll": "no"}}, {"type": "Feature", "geometry": {"type": "LineString", "coordinates": [[-9.1703284, 38.6660354], [-9.1698702, 38.6660828]]}, "properties": {"destination:lanes": "Cacilhas;Corroios|Almada", "highway": "trunk", "lanes": "2", "maxspeed": "70", "name": "Via R\u00e1pida da Caparica", "name:etymology": "Costa da Caparica", "name:etymology:wikidata": "Q598662", "oneway": "yes", "ref": "IC 20;A 38", "surface": "asphalt", "toll": "no"}}, {"type": "Feature", "geometry": {"type": "LineString", "coordinates": [[-9.1916787, 38.6600835], [-9.191378, 38.6601811]]}, "properties": {"change:lanes": "yes|not_right|not_left|yes", "highway": "trunk", "lanes": "4", "maxspeed": "90", "name": "Via R\u00e1pida da Caparica", "name:etymology": "Costa da Caparica", "name:etymology:wikidata": "Q598662", "oneway": "yes", "placement": "middle_of:2", "ref": "IC 20;A 38", "toll": "no", "turn:lanes": "through|through|through|right"}}, {"type": "Feature", "geometry": {"type": "LineString", "coordinates": [[-9.1919698, 38.6599889], [-9.1916787, 38.6600835]]}, "properties": {"change:lanes": "yes|not_right|not_left", "highway": "trunk", "lanes": "3", "maxspeed": "90", "name": "Via R\u00e1pida da Caparica", "name:etymology": "Costa da Caparica", "name:etymology:wikidata": "Q598662", "oneway": "yes", "ref": "IC 20;A 38", "toll": "no"}}, {"type": "Feature", "geometry": {"type": "LineString", "coordinates": [[-9.1889942, 38.6609463], [-9.186747, 38.6617064]]}, "properties": {"destination": "Almada;Lisboa;Set\u00fabal", "destination:ref:to": "A 2", "highway": "trunk", "lanes": "3", "maxspeed": "90", "name": "Via R\u00e1pida da Caparica", "name:etymology": "Costa da Caparica", "name:etymology:wikidata": "Q598662", "oneway": "yes", "ref": "IC 20;A 38", "surface": "asphalt", "toll": "no"}}, {"type": "Feature", "geometry": {"type": "LineString", "coordinates": [[-9.1920649, 38.6600815], [-9.1924957, 38.6599403]]}, "properties": {"highway": "trunk", "lanes": "4", "maxspeed": "90", "name": "Via R\u00e1pida da Caparica", "name:etymology": "Costa da Caparica", "name:etymology:wikidata": "Q598662", "oneway": "yes", "placement": "middle_of:2", "ref": "IC 20;A 38", "toll": "no", "width": "16"}}, {"type": "Feature", "geometry": {"type": "LineString", "coordinates": [[-9.18894, 38.661093], [-9.1894357, 38.6609429]]}, "properties": {"change:lanes": "yes|not_right|not_left", "destination": "Caparica;Montijo;Sobreda", "destination:ref:to": "A 33", "highway": "trunk", "lanes": "3", "maxspeed": "90", "name": "Via R\u00e1pida da Caparica", "name:etymology": "Costa da Caparica", "name:etymology:wikidata": "Q598662", "oneway": "yes", "ref": "IC 20;A 38", "toll": "no", "turn:lanes": "through|through|through;right"}}, {"type": "Feature", "geometry": {"type": "LineString", "coordinates": [[-9.191378, 38.6601811], [-9.1907084, 38.6603961]]}, "properties": {"change:lanes": "yes|not_right|not_left", "destination": "Almada;Lisboa;Set\u00fabal", "destination:ref:to": "A 2", "highway": "trunk", "lanes": "3", "maxspeed": "90", "name": "Via R\u00e1pida da Caparica", "name:etymology": "Costa da Caparica", "name:etymology:wikidata": "Q598662", "oneway": "yes", "ref": "IC 20;A 38", "toll": "no"}}, {"type": "Feature", "geometry": {"type": "LineString", "coordinates": [[-9.1732808, 38.6656438], [-9.1728144, 38.6657094], [-9.1725166, 38.6657468]]}, "properties": {"destination": "Almada", "destination:ref": "IC 20", "highway": "trunk", "lanes": "2", "maxspeed": "70", "name": "Via R\u00e1pida da Caparica", "name:etymology": "Costa da Caparica", "name:etymology:wikidata": "Q598662", "oneway": "yes", "ref": "IC 20;A 38", "toll": "no"}}, {"type": "Feature", "geometry": {"type": "LineString", "coordinates": [[-9.1767239, 38.6649691], [-9.1763732, 38.6651064], [-9.1758508, 38.665235], [-9.175454, 38.6653263], [-9.1751598, 38.6653838]]}, "properties": {"destination": "Almada", "destination:ref": "IC 20", "highway": "trunk", "lanes": "2", "maxspeed": "70", "name": "Via R\u00e1pida da Caparica", "name:etymology": "Costa da Caparica", "name:etymology:wikidata": "Q598662", "oneway": "yes", "ref": "IC 20;A 38", "toll": "no"}}, {"type": "Feature", "geometry": {"type": "LineString", "coordinates": [[-9.1991129, 38.6577621], [-9.199942, 38.6574901]]}, "properties": {"change:lanes": "yes|not_right|not_left|yes", "highway": "trunk", "lanes": "4", "maxspeed": "90", "name": "Via R\u00e1pida da Caparica", "name:etymology": "Costa da Caparica", "name:etymology:wikidata": "Q598662", "oneway": "yes", "placement": "middle_of:2", "ref": "IC 20;A 38", "toll": "no", "turn:lanes": "through|through|through|right", "width": "16"}}, {"type": "Feature", "geometry": {"type": "LineString", "coordinates": [[-9.168866, 38.6661497], [-9.1685403, 38.6661801]]}, "properties": {"destination": "Almada", "destination:symbol": "centre", "highway": "trunk", "lanes": "3", "lit": "yes", "maxspeed": "70", "name": "Via R\u00e1pida da Caparica", "name:etymology": "Costa da Caparica", "name:etymology:wikidata": "Q598662", "oneway": "yes", "ref": "IC 20;A 38", "surface": "asphalt", "toll": "no"}}, {"type": "Feature", "geometry": {"type": "LineString", "coordinates": [[-9.1955414, 38.6589334], [-9.1978834, 38.6581697]]}, "properties": {"highway": "trunk", "lanes": "3", "maxspeed": "90", "name": "Via R\u00e1pida da Caparica", "name:etymology": "Costa da Caparica", "name:etymology:wikidata": "Q598662", "oneway": "yes", "ref": "IC 20;A 38", "toll": "no", "width": "16"}}, {"type": "Feature", "geometry": {"type": "LineString", "coordinates": [[-9.186747, 38.6617064], [-9.1861619, 38.661894]]}, "properties": {"highway": "trunk", "lanes": "3", "maxspeed": "90", "name": "Via R\u00e1pida da Caparica", "name:etymology": "Costa da Caparica", "name:etymology:wikidata": "Q598662", "oneway": "yes", "ref": "IC 20;A 38", "surface": "asphalt", "toll": "no"}}, {"type": "Feature", "geometry": {"type": "LineString", "coordinates": [[-9.1827597, 38.6631263], [-9.1843108, 38.6627149]]}, "properties": {"highway": "trunk", "lanes": "3", "maxspeed": "90", "name": "Via R\u00e1pida da Caparica", "name:etymology": "Costa da Caparica", "name:etymology:wikidata": "Q598662", "oneway": "yes", "ref": "IC 20;A 38", "surface": "asphalt", "toll": "no"}}]}