{"type": "FeatureCollection", "features": [{"type": "Feature", "geometry": {"type": "LineString", "coordinates": [[-6.8196472, 40.6132233], [-6.8193284, 40.6130406], [-6.8187212, 40.6126644]]}, "properties": {"hazmat": "designated", "highway": "motorway", "int_ref": "E 80", "lanes": "2", "maxspeed": "100", "oneway": "yes", "ref": "A-62", "surface": "asphalt"}}, {"type": "Feature", "geometry": {"type": "LineString", "coordinates": [[-6.8147755, 40.6085241], [-6.814547, 40.6080629], [-6.8143223, 40.6075662], [-6.8141102, 40.6070346], [-6.8138901, 40.6062435], [-6.8137147, 40.6054674], [-6.8134717, 40.604212], [-6.8132655, 40.6033372], [-6.813148, 40.6028755], [-6.8130104, 40.602432], [-6.8126285, 40.6015278], [-6.8122382, 40.6007865], [-6.811646, 40.5999222], [-6.8111264, 40.5992888], [-6.8104186, 40.5985146], [-6.810216, 40.5983302]]}, "properties": {"hazmat": "designated", "highway": "motorway", "int_ref": "E 80", "lanes": "2", "maxspeed": "100", "oneway": "yes", "ref": "A-62", "surface": "asphalt"}}, {"type": "Feature", "geometry": {"type": "LineString", "coordinates": [[-6.8187212, 40.6126644], [-6.8183795, 40.6124434]]}, "properties": {"bridge": "yes", "hazmat": "designated", "highway": "motorway", "int_ref": "E 80", "lanes": "2", "layer": "1", "maxspeed": "100", "oneway": "yes", "ref": "A-62", "surface": "asphalt"}}, {"type": "Feature", "geometry": {"type": "LineString", "coordinates": [[-6.818583, 40.6128245], [-6.8191868, 40.6131934], [-6.8195491, 40.6133986]]}, "properties": {"hazmat": "designated", "highway": "motorway", "int_ref": "E 80", "lanes": "2", "maxspeed": "100", "oneway": "yes", "ref": "A-62", "surface": "asphalt"}}, {"type": "Feature", "geometry": {"type": "LineString", "coordinates": [[-6.8182121, 40.6125858], [-6.818583, 40.6128245]]}, "properties": {"bridge": "yes", "hazmat": "designated", "highway": "motorway", "int_ref": "E 80", "lanes": "2", "layer": "1", "maxspeed": "100", "oneway": "yes", "ref": "A-62", "surface": "asphalt"}}, {"type": "Feature", "geometry": {"type": "LineString", "coordinates": [[-6.8097038, 40.5981516], [-6.8102158, 40.59863], [-6.8109776, 40.5994241], [-6.8114378, 40.6000218], [-6.8120319, 40.6008922], [-6.8123921, 40.6016001], [-6.8127607, 40.6024807], [-6.8129173, 40.6029097], [-6.8130573, 40.6034327], [-6.8132604, 40.6043472], [-6.8134717, 40.6055], [-6.8136564, 40.606262], [-6.8138478, 40.6069986], [-6.8140485, 40.607607], [-6.8143262, 40.6082468], [-6.8145845, 40.6087741], [-6.8149628, 40.609379]]}, "properties": {"hazmat": "designated", "highway": "motorway", "int_ref": "E 80", "lanes": "2", "maxspeed": "100", "oneway": "yes", "ref": "A-62", "surface": "asphalt"}}, {"type": "Feature", "geometry": {"type": "LineString", "coordinates": [[-6.8149628, 40.609379], [-6.815367, 40.609942], [-6.81577, 40.6104263], [-6.8162481, 40.6109513]]}, "properties": {"hazmat": "designated", "highway": "motorway", "int_ref": "E 80", "lanes": "3", "maxspeed": "100", "oneway": "yes", "ref": "A-62", "surface": "asphalt"}}, {"type": "Feature", "geometry": {"type": "LineString", "coordinates": [[-6.8163636, 40.6107217], [-6.8156241, 40.6098575], [-6.8152397, 40.6093348], [-6.8147755, 40.6085241]]}, "properties": {"hazmat": "designated", "highway": "motorway", "int_ref": "E 80", "lanes": "3", "maxspeed": "100", "oneway": "yes", "ref": "A-62", "surface": "asphalt"}}, {"type": "Feature", "geometry": {"type": "LineString", "coordinates": [[-6.8183795, 40.6124434], [-6.8175568, 40.6118319], [-6.8168858, 40.6112526], [-6.8163636, 40.6107217]]}, "properties": {"hazmat": "designated", "highway": "motorway", "int_ref": "E 80", "lanes": "2", "maxspeed": "100", "oneway": "yes", "ref": "A-62", "surface": "asphalt"}}, {"type": "Feature", "geometry": {"type": "LineString", "coordinates": [[-6.8162481, 40.6109513], [-6.8167565, 40.6114292], [-6.8173816, 40.6119622], [-6.8182121, 40.6125858]]}, "properties": {"hazmat": "designated", "highway": "motorway", "int_ref": "E 80", "lanes": "2", "maxspeed": "100", "oneway": "yes", "ref": "A-62", "surface": "asphalt"}}]}