{"type": "FeatureCollection", "features": [{"type": "Feature", "geometry": {"type": "Point", "coordinates": [-25.5036443, 37.8127316]}, "properties": {"distance": "4", "highway": "milestone", "ref": "E-N"}}, {"type": "Feature", "geometry": {"type": "Point", "coordinates": [-25.3492355, 37.8213087]}, "properties": {"distance": "20", "highway": "milestone", "ref": "E-N"}}, {"type": "Feature", "geometry": {"type": "LineString", "coordinates": [[-25.5448296, 37.8064185], [-25.5447506, 37.8065035], [-25.5446329, 37.8065832], [-25.5443455, 37.8067055], [-25.5441377, 37.8067776], [-25.5438266, 37.8068666], [-25.5435584, 37.8069344], [-25.5433465, 37.8069747], [-25.5431462, 37.8070104], [-25.5429897, 37.8070382], [-25.5427027, 37.8070764], [-25.5424158, 37.8071188], [-25.5422173, 37.8071378], [-25.5420563, 37.8071506], [-25.5419078, 37.807187]]}, "properties": {"destination": "Nordeste;Povoa\u00e7\u00e3o;Furnas", "foot": "no", "highway": "trunk", "lanes": "1", "lit": "yes", "oneway": "yes", "ref": "E-N", "sidewalk": "no", "surface": "asphalt"}}, {"type": "Feature", "geometry": {"type": "LineString", "coordinates": [[-25.5444045, 37.806733], [-25.5445371, 37.8066957], [-25.5446224, 37.8066749], [-25.5447077, 37.8066668], [-25.5448283, 37.8066794], [-25.5449346, 37.8067221]]}, "properties": {"foot": "no", "highway": "trunk", "lanes": "1", "lit": "yes", "oneway": "yes", "ref": "E-N", "sidewalk": "no", "surface": "asphalt"}}, {"type": "Feature", "geometry": {"type": "LineString", "coordinates": [[-25.5376346, 37.8064346], [-25.5392464, 37.8068647], [-25.5397432, 37.8069797], [-25.5403277, 37.8070919], [-25.5408496, 37.8071517], [-25.5412848, 37.8071789], [-25.5419078, 37.807187]]}, "properties": {"destination:forward": "Ponta Delgada;Ribeira Grande", "highway": "trunk", "lanes": "2", "maxspeed:type": "PT:rural", "ref": "E-N", "shoulder": "no", "surface": "asphalt"}}, {"type": "Feature", "geometry": {"type": "LineString", "coordinates": [[-25.5336935, 37.8055283], [-25.5337328, 37.8054996], [-25.533763, 37.8054647], [-25.5337826, 37.8054254], [-25.5337908, 37.8053837], [-25.533787, 37.8053415], [-25.5337585, 37.8052806], [-25.5337056, 37.8052309], [-25.5336346, 37.8051982], [-25.5335538, 37.8051864], [-25.5334727, 37.8051968], [-25.5334389, 37.8052116], [-25.5334008, 37.8052283], [-25.5333465, 37.805277], [-25.5333163, 37.8053374], [-25.5333137, 37.8054023], [-25.5333389, 37.8054641], [-25.5333891, 37.8055155], [-25.5334583, 37.8055506], [-25.5335384, 37.8055651], [-25.53362, 37.8055574], [-25.5336935, 37.8055283]]}, "properties": {"highway": "trunk", "junction": "roundabout", "lane_markings": "no", "maxspeed:type": "PT:rural", "ref": "E-N", "surface": "asphalt"}}, {"type": "Feature", "geometry": {"type": "LineString", "coordinates": [[-25.5007965, 37.8147269], [-25.5014621, 37.814073]]}, "properties": {"bridge": "yes", "highway": "trunk", "lanes": "2", "layer": "1", "maxspeed": "80", "maxweight:signed": "no", "ref": "E-N", "shoulder:left": "yes", "shoulder:right": "yes", "sidewalk": "no", "smoothness": "good", "source:maxspeed": "sign", "surface": "asphalt", "width": "7.5"}}, {"type": "Feature", "geometry": {"type": "LineString", "coordinates": [[-25.5014621, 37.814073], [-25.5017154, 37.8138641], [-25.5021242, 37.8135578], [-25.5025848, 37.8132644], [-25.503051, 37.813016]]}, "properties": {"highway": "trunk", "lanes": "2", "maxspeed": "80", "ref": "E-N", "shoulder:left": "yes", "shoulder:right": "yes", "sidewalk": "no", "smoothness": "good", "source:maxspeed": "sign", "surface": "asphalt", "width": "7.5"}}, {"type": "Feature", "geometry": {"type": "LineString", "coordinates": [[-25.494488, 37.8193255], [-25.4938253, 37.8194584], [-25.4935793, 37.8195039], [-25.4930429, 37.8196001]]}, "properties": {"foot": "no", "highway": "trunk", "lanes": "1", "lit": "yes", "maxspeed": "60", "oneway": "yes", "ref": "E-N", "sidewalk": "no", "source:maxspeed": "sign", "surface": "asphalt"}}, {"type": "Feature", "geometry": {"type": "LineString", "coordinates": [[-25.4925205, 37.8197327], [-25.4927519, 37.8197231]]}, "properties": {"foot": "no", "highway": "trunk", "lanes": "1", "lit": "yes", "maxspeed": "60", "oneway": "yes", "placement": "transition", "ref": "E-N", "sidewalk": "no", "surface": "asphalt"}}, {"type": "Feature", "geometry": {"type": "LineString", "coordinates": [[-25.4949856, 37.8192519], [-25.4954907, 37.8190948], [-25.4959684, 37.8188916], [-25.4965447, 37.8185934]]}, "properties": {"highway": "trunk", "lanes": "2", "maxspeed": "80", "overtaking": "no", "ref": "E-N", "shoulder:left": "yes", "shoulder:right": "yes", "sidewalk": "no", "smoothness": "good", "source:maxspeed": "sign", "surface": "asphalt", "width": "7.5"}}, {"type": "Feature", "geometry": {"type": "LineString", "coordinates": [[-25.5078655, 37.8112189], [-25.5080977, 37.8111297], [-25.5085882, 37.8109494], [-25.5102754, 37.8103498]]}, "properties": {"highway": "trunk", "lanes": "2", "maxspeed": "80", "ref": "E-N", "shoulder:left": "yes", "shoulder:right": "yes", "sidewalk": "no", "smoothness": "good", "source:maxspeed": "sign", "surface": "asphalt", "width": "7.5"}}, {"type": "Feature", "geometry": {"type": "LineString", "coordinates": [[-25.506462, 37.8116913], [-25.5078655, 37.8112189]]}, "properties": {"bridge": "yes", "highway": "trunk", "lanes": "2", "layer": "1", "maxspeed": "80", "ref": "E-N", "shoulder:left": "yes", "shoulder:right": "yes", "sidewalk": "no", "smoothness": "good", "source:maxspeed": "sign", "surface": "asphalt", "width": "7.5"}}, {"type": "Feature", "geometry": {"type": "LineString", "coordinates": [[-25.4925205, 37.8197327], [-25.4921316, 37.8198101]]}, "properties": {"change:lanes:backward": "no", "change:lanes:forward": "not_left|not_right", "highway": "trunk", "lanes": "3", "lanes:forward": "2", "lit": "no", "maxspeed": "60", "placement:forward": "left_of:1", "ref": "E-N", "shoulder": "no", "sidewalk": "no", "source:maxspeed": "sign", "surface": "asphalt"}}, {"type": "Feature", "geometry": {"type": "LineString", "coordinates": [[-25.5216521, 37.8076394], [-25.521699, 37.8076877], [-25.5217628, 37.807722], [-25.5218369, 37.8077387], [-25.521877, 37.8077398], [-25.5219336, 37.8077322], [-25.5219863, 37.8077144], [-25.5220322, 37.8076873], [-25.5220687, 37.8076524], [-25.5220939, 37.8076118], [-25.5221009, 37.807593], [-25.5221069, 37.8075348], [-25.5220903, 37.8074779], [-25.5220528, 37.8074275], [-25.5219978, 37.8073885], [-25.5219305, 37.8073643], [-25.5218962, 37.8073588], [-25.5218612, 37.8073573], [-25.5218024, 37.8073639], [-25.5217474, 37.8073815], [-25.5216994, 37.8074092], [-25.5216615, 37.8074453], [-25.5216358, 37.8074876], [-25.5216257, 37.807521], [-25.5216268, 37.8075819], [-25.5216521, 37.8076394]]}, "properties": {"highway": "trunk", "junction": "roundabout", "lanes": "2", "maxspeed": "80", "ref": "E-N", "surface": "asphalt"}}, {"type": "Feature", "geometry": {"type": "LineString", "coordinates": [[-25.3798667, 37.8196993], [-25.3805405, 37.8197339], [-25.381418, 37.8197684], [-25.3841104, 37.8198232], [-25.3845609, 37.8198319]]}, "properties": {"bicycle": "no", "change:lanes:backward": "not_left|not_right", "change:lanes:forward": "no", "highway": "trunk", "lanes": "3", "lanes:backward": "2", "maxspeed": "90", "oneway": "no", "placement:forward": "left_of:1", "ref": "E-N", "shoulder:left": "no", "shoulder:right": "yes", "source:maxspeed": "sign", "surface": "asphalt"}}, {"type": "Feature", "geometry": {"type": "LineString", "coordinates": [[-25.2861907, 37.8464761], [-25.2860374, 37.8466509]]}, "properties": {"bridge": "yes", "change:lanes:backward": "not_left|not_right", "change:lanes:forward": "no", "hgv:lanes:backward": "no|yes", "highway": "trunk", "lanes": "3", "lanes:forward": "1", "layer": "1", "maxspeed": "90", "oneway": "no", "placement:forward": "left_of:1", "ref": "E-N", "surface": "asphalt"}}, {"type": "Feature", "geometry": {"type": "LineString", "coordinates": [[-25.3781889, 37.8195552], [-25.3784555, 37.8195828]]}, "properties": {"bridge": "yes", "change:lanes:backward": "not_left|not_right", "change:lanes:forward": "no", "highway": "trunk", "lanes": "3", "lanes:backward": "2", "layer": "1", "maxspeed": "90", "oneway": "no", "placement:forward": "left_of:1", "ref": "E-N", "shoulder:left": "no", "shoulder:right": "yes", "source:maxspeed": "sign", "surface": "asphalt", "turn:lanes:backward": "|merge_to_left"}}, {"type": "Feature", "geometry": {"type": "LineString", "coordinates": [[-25.2927857, 37.8391305], [-25.2924827, 37.8394472], [-25.2920373, 37.8399147], [-25.2901483, 37.8420384], [-25.2873203, 37.8451654], [-25.2867293, 37.8458546]]}, "properties": {"bicycle": "no", "change:lanes:backward": "not_left|not_right", "hgv:lanes:backward": "no|yes", "highway": "trunk", "lanes": "3", "lanes:forward": "1", "maxspeed": "90", "name": "SCUT Nordeste", "oneway": "no", "placement:forward": "left_of:1", "ref": "E-N", "shoulder": "both", "source:maxspeed": "sign", "surface": "asphalt"}}, {"type": "Feature", "geometry": {"type": "LineString", "coordinates": [[-25.2706226, 37.849201], [-25.2702203, 37.8491198], [-25.2698047, 37.8490261], [-25.2693918, 37.8489127], [-25.2688102, 37.8487333], [-25.268434, 37.8485889], [-25.268042, 37.8484098], [-25.2674067, 37.8480827], [-25.2664948, 37.8476189]]}, "properties": {"change:lanes:backward": "no", "change:lanes:forward": "not_left|not_right", "highway": "trunk", "lanes": "3", "lanes:forward": "2", "maxspeed": "90", "name": "SCUT Nordeste", "oneway": "no", "placement:forward": "left_of:1", "ref": "E-N", "shoulder:left": "yes", "surface": "asphalt"}}, {"type": "Feature", "geometry": {"type": "LineString", "coordinates": [[-25.2481028, 37.8454204], [-25.2471299, 37.8456204], [-25.2463865, 37.8457258], [-25.2459228, 37.8458068], [-25.2454555, 37.845863], [-25.2449602, 37.8459044], [-25.24453, 37.8459099], [-25.243983, 37.8458715], [-25.2433667, 37.8457755], [-25.2428314, 37.8456703], [-25.2422544, 37.8455186], [-25.241959, 37.8454176], [-25.2415864, 37.8452657], [-25.2408716, 37.8448951], [-25.2404237, 37.8447003], [-25.2394608, 37.8442851], [-25.2392098, 37.8441744], [-25.2385531, 37.8437022]]}, "properties": {"bicycle": "no", "change:lanes:backward": "no", "change:lanes:forward": "no", "highway": "trunk", "lanes": "2", "maxspeed": "90", "maxspeed:type": "sign", "name": "SCUT Nordeste", "oneway": "no", "ref": "E-N", "shoulder:left": "yes", "shoulder:right": "yes", "surface": "asphalt"}}, {"type": "Feature", "geometry": {"type": "LineString", "coordinates": [[-25.2260634, 37.8444549], [-25.2239976, 37.8446447], [-25.2221605, 37.8448134]]}, "properties": {"addr:city": "Algarvia", "addr:street": "SCUT - Via R\u00e1pida", "bicycle": "no", "bridge": "viaduct", "bridge:name": "Viaduto sobre a Ribeira Despe-te Que Suas", "highway": "trunk", "lanes": "2", "layer": "1", "maxspeed": "90", "maxspeed:type": "sign", "name": "SCUT Nordeste", "oneway": "no", "ref": "E-N", "shoulder:left": "yes", "shoulder:right": "yes", "source": "Munic\u00edpio_do_Nordeste", "surface": "asphalt"}}, {"type": "Feature", "geometry": {"type": "LineString", "coordinates": [[-25.2518883, 37.8449249], [-25.2514692, 37.844919], [-25.2510384, 37.8449214], [-25.2506579, 37.8449369], [-25.2502139, 37.844969]]}, "properties": {"addr:city": "Feteira Grande - Santana", "addr:street": "SCUT - Via R\u00e1pida", "bicycle": "no", "bridge": "viaduct", "bridge:name": "Viaduto sobre a Ribeira do Folhado", "highway": "trunk", "lanes": "2", "layer": "1", "name": "SCUT Nordeste", "oneway": "no", "ref": "E-N", "shoulder:left": "yes", "shoulder:right": "yes", "source": "Munic\u00edpio_do_Nordeste", "surface": "asphalt"}}, {"type": "Feature", "geometry": {"type": "LineString", "coordinates": [[-25.2590106, 37.8454001], [-25.2583678, 37.8453423], [-25.2578695, 37.8453083], [-25.2574064, 37.8452767], [-25.2566199, 37.8452231]]}, "properties": {"addr:city": "Achada - Santana", "addr:street": "SCUT - Via R\u00e1pida", "bicycle": "no", "bridge": "viaduct", "bridge:name": "Viaduto sobre a Ribeira da Achada", "highway": "trunk", "lanes": "2", "layer": "1", "maxspeed": "90", "maxspeed:type": "sign", "name": "SCUT Nordeste", "oneway": "no", "ref": "E-N", "shoulder:left": "yes", "shoulder:right": "yes", "source": "Munic\u00edpio_do_Nordeste", "surface": "asphalt"}}, {"type": "Feature", "geometry": {"type": "LineString", "coordinates": [[-25.2221605, 37.8448134], [-25.2219778, 37.8448319], [-25.2201236, 37.8450236], [-25.2163546, 37.8454112], [-25.2136608, 37.8456719], [-25.212703, 37.8457613], [-25.2117707, 37.8458377], [-25.2109604, 37.8458576], [-25.2085345, 37.8458602]]}, "properties": {"bicycle": "no", "bridge": "yes", "highway": "trunk", "lanes": "2", "layer": "1", "maxspeed": "90", "maxspeed:type": "sign", "name": "SCUT Nordeste", "oneway": "no", "ref": "E-N", "shoulder:left": "yes", "shoulder:right": "yes", "surface": "asphalt"}}, {"type": "Feature", "geometry": {"type": "LineString", "coordinates": [[-25.275025, 37.8496404], [-25.2742648, 37.8495627], [-25.2735386, 37.8494983], [-25.2729777, 37.8494528], [-25.272355, 37.8493942], [-25.2717559, 37.84934], [-25.2711354, 37.8492689]]}, "properties": {"bridge": "yes", "bridge:name": "Viaduto sobre as Ribeiras do Lenho e dos Caldeir\u00f5es", "change:lanes:backward": "no", "change:lanes:forward": "no", "highway": "trunk", "lanes": "2", "layer": "1", "maxspeed": "90", "name": "SCUT Nordeste", "oneway": "no", "ref": "E-N", "shoulder": "no", "surface": "asphalt"}}, {"type": "Feature", "geometry": {"type": "LineString", "coordinates": [[-25.2566199, 37.8452231], [-25.255864, 37.8451765], [-25.2551903, 37.8451356], [-25.2540963, 37.8450575], [-25.2534436, 37.8450147], [-25.2529492, 37.8449918], [-25.2525174, 37.8449733], [-25.2522482, 37.8449521], [-25.2518883, 37.8449249]]}, "properties": {"bicycle": "no", "highway": "trunk", "lanes": "2", "maxspeed": "90", "maxspeed:type": "sign", "name": "SCUT Nordeste", "oneway": "no", "ref": "E-N", "shoulder:left": "yes", "shoulder:right": "yes", "surface": "asphalt"}}, {"type": "Feature", "geometry": {"type": "LineString", "coordinates": [[-25.2839345, 37.8487063], [-25.2837115, 37.8488592], [-25.28349, 37.848996]]}, "properties": {"change:lanes:backward": "not_left|not_right", "change:lanes:forward": "not_left|not_right", "highway": "trunk", "lanes": "4", "lanes:forward": "2", "maxspeed": "90", "name": "SCUT Nordeste", "oneway": "no", "placement:forward": "left_of:1", "ref": "E-N", "surface": "asphalt", "turn:lanes:forward": "|slight_right"}}, {"type": "Feature", "geometry": {"type": "LineString", "coordinates": [[-25.2813378, 37.8498169], [-25.2808204, 37.8499063], [-25.2802538, 37.8499595], [-25.2796731, 37.8499751], [-25.2791709, 37.8499656], [-25.2784322, 37.8499303], [-25.2777662, 37.849894], [-25.2771458, 37.849845], [-25.2764934, 37.8497924], [-25.2758115, 37.8497165], [-25.275025, 37.8496404]]}, "properties": {"change:lanes:backward": "not_left|not_right", "change:lanes:forward": "no", "highway": "trunk", "lanes": "3", "lanes:backward": "2", "maxspeed": "90", "name": "SCUT Nordeste", "oneway": "no", "placement:forward": "left_of:1", "ref": "E-N", "shoulder:right": "yes", "surface": "asphalt"}}, {"type": "Feature", "geometry": {"type": "LineString", "coordinates": [[-25.4965447, 37.8185934], [-25.4966674, 37.8185249], [-25.4968283, 37.8184092]]}, "properties": {"bridge": "yes", "highway": "trunk", "lanes": "2", "layer": "1", "maxspeed": "80", "overtaking": "no", "ref": "E-N", "shoulder:left": "yes", "shoulder:right": "yes", "sidewalk": "no", "smoothness": "good", "source:maxspeed": "sign", "surface": "asphalt", "width": "7.5"}}, {"type": "Feature", "geometry": {"type": "LineString", "coordinates": [[-25.4968283, 37.8184092], [-25.4973907, 37.8179832], [-25.4985194, 37.8168809], [-25.5005954, 37.8149171], [-25.5007965, 37.8147269]]}, "properties": {"highway": "trunk", "lanes": "2", "maxspeed": "80", "ref": "E-N", "shoulder:left": "yes", "shoulder:right": "yes", "sidewalk": "no", "smoothness": "good", "source:maxspeed": "sign", "surface": "asphalt", "width": "7.5"}}, {"type": "Feature", "geometry": {"type": "LineString", "coordinates": [[-25.4708963, 37.8231127], [-25.4704879, 37.8230705], [-25.4700655, 37.8229888], [-25.469704, 37.8228801], [-25.469338, 37.822749], [-25.4689877, 37.8225993], [-25.4685566, 37.8224195], [-25.4680776, 37.822238]]}, "properties": {"agricultural": "no", "bicycle": "no", "cattle": "no", "change:lanes:backward": "no", "change:lanes:forward": "not_left|not_right", "foot": "no", "hgv:lanes:forward": "no|yes", "highway": "trunk", "horse": "no", "lanes": "3", "lanes:forward": "2", "maxspeed": "90", "mofa": "no", "motor_vehicle": "yes", "placement:forward": "left_of:1", "ref": "E-N", "shoulder": "no", "sidewalk": "no", "smoothness": "good", "source:maxspeed": "sign", "surface": "asphalt"}}, {"type": "Feature", "geometry": {"type": "LineString", "coordinates": [[-25.4775424, 37.8225331], [-25.4768729, 37.82257], [-25.4762345, 37.8226282]]}, "properties": {"agricultural": "no", "bicycle": "no", "bridge": "yes", "cattle": "no", "change:lanes:forward": "not_left|not_right", "foot": "no", "hgv:lanes:forward": "no|yes", "highway": "trunk", "horse": "no", "lanes": "3", "lanes:forward": "2", "layer": "1", "maxspeed": "90", "mofa": "no", "motor_vehicle": "yes", "placement:forward": "left_of:1", "ref": "E-N", "shoulder": "no", "sidewalk": "no", "smoothness": "good", "source:maxspeed": "sign", "surface": "asphalt"}}, {"type": "Feature", "geometry": {"type": "LineString", "coordinates": [[-25.4643727, 37.8226098], [-25.4642566, 37.8226447]]}, "properties": {"agricultural": "no", "bicycle": "no", "cattle": "no", "change:lanes:backward": "no", "change:lanes:forward": "no", "foot": "no", "highway": "trunk", "horse": "no", "lanes": "2", "lit": "no", "maxspeed": "60", "mofa": "no", "motor_vehicle": "yes", "ref": "E-N", "shoulder:right": "yes", "sidewalk": "no", "source:maxspeed": "sign", "surface": "asphalt"}}, {"type": "Feature", "geometry": {"type": "LineString", "coordinates": [[-25.3625242, 37.8175532], [-25.3629158, 37.8175981]]}, "properties": {"bridge": "yes", "destination:lanes": "Ribeira Grande;Maia|Vila Franca do Campo;Burguete;Furnas", "highway": "trunk", "lanes": "2", "layer": "1", "lit": "yes", "maxspeed": "90", "maxspeed:lanes": "90|60", "oneway": "yes", "placement": "middle_of:1", "ref": "E-N", "source:maxspeed": "sign", "surface": "asphalt", "turn:lanes": "|slight_right"}}, {"type": "Feature", "geometry": {"type": "LineString", "coordinates": [[-25.3629158, 37.8175981], [-25.3630929, 37.8176203]]}, "properties": {"bicycle": "no", "destination:lanes": "Ribeira Grande;Maia|Vila Franca do Campo;Burguete;Furnas", "highway": "trunk", "lanes": "2", "lit": "yes", "maxspeed": "90", "maxspeed:lanes": "90|60", "oneway": "yes", "placement": "middle_of:1", "ref": "E-N", "shoulder:right": "yes", "sidewalk": "no", "source:maxspeed": "sign", "surface": "asphalt", "turn:lanes": "|slight_right"}}, {"type": "Feature", "geometry": {"type": "LineString", "coordinates": [[-25.3439116, 37.8260135], [-25.3452274, 37.8248049], [-25.3464594, 37.8237383], [-25.3481036, 37.8223109], [-25.3492355, 37.8213087], [-25.3496915, 37.8209048], [-25.3502253, 37.8204612], [-25.3507429, 37.8200587], [-25.3513606, 37.8195919], [-25.3515432, 37.8194635], [-25.3517419, 37.8193335], [-25.3518964, 37.81924], [-25.3523551, 37.8189677], [-25.3528363, 37.8186935], [-25.3535764, 37.8183693], [-25.3540099, 37.8181962], [-25.3545256, 37.8179987], [-25.3552706, 37.8177706], [-25.3558686, 37.8176093], [-25.3563959, 37.8174977], [-25.3568188, 37.8174098], [-25.3572041, 37.8173557], [-25.3577714, 37.8172933], [-25.358398, 37.8172555], [-25.3588768, 37.8172446], [-25.3596547, 37.8172426], [-25.3600429, 37.8172554], [-25.3603399, 37.8172597]]}, "properties": {"bicycle": "no", "highway": "trunk", "lanes": "2", "maxspeed": "90", "oneway": "no", "ref": "E-N", "shoulder:left": "yes", "shoulder:right": "yes", "source:maxspeed": "sign", "surface": "asphalt"}}, {"type": "Feature", "geometry": {"type": "LineString", "coordinates": [[-25.3193596, 37.8355503], [-25.3197727, 37.8355473]]}, "properties": {"bicycle": "no", "bridge": "yes", "highway": "trunk", "lanes": "2", "layer": "1", "maxspeed": "90", "oneway": "no", "ref": "E-N", "shoulder:left": "yes", "shoulder:right": "yes", "source:maxspeed": "sign", "surface": "asphalt"}}, {"type": "Feature", "geometry": {"type": "LineString", "coordinates": [[-25.328005, 37.8354656], [-25.3286276, 37.8354564], [-25.3292696, 37.8354525], [-25.3298891, 37.8354324], [-25.3302297, 37.8354105], [-25.3305831, 37.8353702], [-25.3309514, 37.8353214], [-25.331324, 37.8352541], [-25.3316383, 37.8351954], [-25.3318862, 37.8351457], [-25.3322119, 37.8350643], [-25.3326475, 37.8349363], [-25.3332281, 37.8347233], [-25.3335707, 37.8345737], [-25.3338944, 37.8344082], [-25.3342986, 37.8341802], [-25.3345369, 37.8340345], [-25.3346894, 37.8339247]]}, "properties": {"bicycle": "no", "change:lanes:backward": "no", "change:lanes:forward": "no", "highway": "trunk", "lanes": "2", "maxspeed": "90", "oneway": "no", "overtaking": "no", "ref": "E-N", "shoulder:left": "yes", "shoulder:right": "yes", "source:maxspeed": "sign", "surface": "asphalt"}}, {"type": "Feature", "geometry": {"type": "LineString", "coordinates": [[-25.2957093, 37.8368912], [-25.29616, 37.8366956], [-25.2969301, 37.8364034], [-25.2974689, 37.8362403], [-25.2981056, 37.836085], [-25.2987083, 37.8359704], [-25.2993619, 37.8358761], [-25.3000885, 37.8358288]]}, "properties": {"bicycle": "no", "change:lanes:backward": "no", "change:lanes:forward": "no", "highway": "trunk", "lanes": "2", "maxspeed": "90", "name": "SCUT Nordeste", "oneway": "no", "overtaking": "no", "ref": "E-N", "shoulder": "both", "source": "survey", "source:maxspeed": "sign", "surface": "asphalt"}}, {"type": "Feature", "geometry": {"type": "LineString", "coordinates": [[-25.2943589, 37.8377194], [-25.2950787, 37.8372481], [-25.2957093, 37.8368912]]}, "properties": {"bicycle": "no", "bridge": "yes", "bridge:name": "Viaduto sobre a Ribeira das Coelhas", "change:lanes:backward": "no", "change:lanes:forward": "no", "highway": "trunk", "lanes": "2", "layer": "1", "maxspeed": "90", "name": "SCUT Nordeste", "oneway": "no", "overtaking": "no", "ref": "E-N", "shoulder": "both", "source:maxspeed": "sign", "surface": "asphalt"}}, {"type": "Feature", "geometry": {"type": "LineString", "coordinates": [[-25.2830871, 37.849215], [-25.2829225, 37.8492859]]}, "properties": {"change:lanes:backward": "not_left|not_right", "change:lanes:forward": "no", "highway": "trunk", "lanes": "3", "lanes:forward": "1", "maxspeed": "90", "name": "SCUT Nordeste", "oneway": "no", "placement:forward": "left_of:1", "ref": "E-N", "surface": "asphalt"}}, {"type": "Feature", "geometry": {"type": "LineString", "coordinates": [[-25.28349, 37.848996], [-25.2832199, 37.8491471]]}, "properties": {"bridge": "yes", "change:lanes:backward": "not_left|not_right", "change:lanes:forward": "not_left|not_right", "highway": "trunk", "lanes": "4", "lanes:forward": "2", "layer": "1", "maxspeed": "90", "name": "SCUT Nordeste", "oneway": "no", "placement:forward": "left_of:1", "ref": "E-N", "surface": "asphalt", "turn:lanes:forward": "|slight_right"}}, {"type": "Feature", "geometry": {"type": "LineString", "coordinates": [[-25.2849483, 37.8478335], [-25.2845751, 37.8481915], [-25.2842939, 37.8484322], [-25.2839494, 37.8486949], [-25.2839345, 37.8487063]]}, "properties": {"change:lanes:backward": "not_left|not_right", "change:lanes:forward": "no", "highway": "trunk", "lanes": "3", "lanes:forward": "1", "maxspeed": "90", "name": "SCUT Nordeste", "oneway": "no", "placement:forward": "left_of:1", "ref": "E-N", "surface": "asphalt"}}, {"type": "Feature", "geometry": {"type": "LineString", "coordinates": [[-25.1863772, 37.846274], [-25.1850361, 37.8465112], [-25.1826993, 37.8469405], [-25.1810449, 37.8472546], [-25.1796499, 37.8475163], [-25.1783037, 37.8477418], [-25.1777802, 37.8478248], [-25.1773112, 37.8478752], [-25.1767505, 37.8478829], [-25.1761898, 37.8478594], [-25.1756816, 37.8478036], [-25.1751071, 37.847708], [-25.1745671, 37.8475667], [-25.1739856, 37.8473621], [-25.1734095, 37.8470964], [-25.1731432, 37.8469475], [-25.1728429, 37.8467625], [-25.1725504, 37.8465408], [-25.1722239, 37.8462734], [-25.1706772, 37.8447829], [-25.1700291, 37.8441834], [-25.1694279, 37.8436733], [-25.1689962, 37.8433764], [-25.1685041, 37.8430905], [-25.1679769, 37.8428721], [-25.1674451, 37.8426687], [-25.1660621, 37.8422051]]}, "properties": {"bicycle": "no", "bridge": "yes", "highway": "trunk", "lanes": "2", "layer": "1", "maxspeed": "90", "maxspeed:type": "sign", "name": "SCUT Nordeste", "oneway": "no", "ref": "E-N", "shoulder:left": "yes", "shoulder:right": "yes", "surface": "asphalt"}}, {"type": "Feature", "geometry": {"type": "LineString", "coordinates": [[-25.2038904, 37.8457789], [-25.2018319, 37.845747]]}, "properties": {"addr:city": "Santo Ant\u00f3nio de Nordestinho - S\u00e3o Pedro de Nordestinho", "addr:street": "SCUT - Via R\u00e1pida", "bicycle": "no", "bridge": "viaduct", "bridge:name": "Viaduto sobre a Ribeira do Espig\u00e3o", "highway": "trunk", "lanes": "2", "layer": "1", "maxspeed": "90", "maxspeed:type": "sign", "name": "SCUT Nordeste", "oneway": "no", "ref": "E-N", "shoulder:left": "yes", "shoulder:right": "yes", "source": "Munic\u00edpio_do_Nordeste", "surface": "asphalt"}}, {"type": "Feature", "geometry": {"type": "LineString", "coordinates": [[-25.2632885, 37.8462871], [-25.2628488, 37.8461444], [-25.2622187, 37.8459726], [-25.2612825, 37.8457657], [-25.260404, 37.8456007], [-25.2595143, 37.8454511]]}, "properties": {"bicycle": "no", "change:lanes:backward": "no", "change:lanes:forward": "not_left|not_right", "highway": "trunk", "lanes": "3", "lanes:forward": "2", "maxspeed": "90", "maxspeed:type": "sign", "name": "SCUT Nordeste", "oneway": "no", "placement:forward": "left_of:1", "ref": "E-N", "shoulder:left": "yes", "shoulder:right": "yes", "surface": "asphalt", "turn:lanes:forward": "|merge_to_left"}}, {"type": "Feature", "geometry": {"type": "LineString", "coordinates": [[-25.264897, 37.8468917], [-25.2645714, 37.8467452]]}, "properties": {"change:lanes:backward": "no", "change:lanes:forward": "not_left|not_right", "highway": "trunk", "lanes": "3", "lanes:forward": "2", "name": "SCUT Nordeste", "oneway": "no", "placement:forward": "left_of:1", "ref": "E-N", "surface": "asphalt"}}, {"type": "Feature", "geometry": {"type": "LineString", "coordinates": [[-25.2824051, 37.8494987], [-25.2821562, 37.8495929], [-25.2819148, 37.8496733]]}, "properties": {"change:lanes:backward": "no|not_left|not_right", "change:lanes:forward": "not_left|not_right", "highway": "trunk", "lanes": "5", "lanes:forward": "2", "maxspeed": "90", "name": "SCUT Nordeste", "placement:forward": "left_of:1", "ref": "E-N", "surface": "asphalt", "turn:lanes:backward": "||slight_right", "turn:lanes:forward": "|merge_to_left"}}, {"type": "Feature", "geometry": {"type": "LineString", "coordinates": [[-25.3658362, 37.8179533], [-25.3665736, 37.8180488]]}, "properties": {"bicycle": "no", "change:lanes:backward": "no", "change:lanes:forward": "no", "highway": "trunk", "lanes": "2", "maxspeed": "90", "oneway": "no", "overtaking": "no", "ref": "E-N", "shoulder:left": "yes", "shoulder:right": "yes", "source:maxspeed": "sign", "surface": "asphalt"}}, {"type": "Feature", "geometry": {"type": "LineString", "coordinates": [[-25.390839, 37.8197943], [-25.3906569, 37.8198385], [-25.3903485, 37.8198748], [-25.3899792, 37.8198978], [-25.3896323, 37.8199007], [-25.3886478, 37.8198747], [-25.387703, 37.8198551], [-25.3866471, 37.8198266]]}, "properties": {"bicycle": "no", "highway": "trunk", "lanes": "2", "maxspeed": "90", "oneway": "yes", "ref": "E-N", "source:maxspeed": "sign", "surface": "asphalt"}}, {"type": "Feature", "geometry": {"type": "LineString", "coordinates": [[-25.5127972, 37.8094205], [-25.5125976, 37.809476], [-25.5123491, 37.809569]]}, "properties": {"highway": "trunk", "lanes": "2", "lit": "yes", "maxspeed": "80", "oneway": "yes", "placement": "middle_of:2", "ref": "E-N", "shoulder:right": "yes", "sidewalk": "no", "smoothness": "excellent", "source:maxspeed": "sign", "surface": "asphalt", "turn:lanes": "left|through"}}, {"type": "Feature", "geometry": {"type": "LineString", "coordinates": [[-25.5144546, 37.8089228], [-25.5149133, 37.8088578], [-25.5153666, 37.8088278], [-25.5166752, 37.8088598], [-25.5176447, 37.8088849], [-25.5181437, 37.8088787], [-25.5187024, 37.8088344], [-25.5191615, 37.808751], [-25.5197175, 37.8085967], [-25.520243, 37.8083971], [-25.5209089, 37.808039]]}, "properties": {"highway": "trunk", "lanes": "2", "lit": "yes", "maxspeed": "80", "ref": "E-N", "shoulder:left": "yes", "shoulder:right": "yes", "sidewalk": "no", "smoothness": "good", "surface": "asphalt"}}, {"type": "Feature", "geometry": {"type": "LineString", "coordinates": [[-25.5138186, 37.8091037], [-25.5134882, 37.8091713], [-25.5131624, 37.8092857], [-25.5129904, 37.8093506]]}, "properties": {"highway": "trunk", "lanes": "1", "lit": "yes", "maxspeed": "80", "oneway": "yes", "overtaking": "no", "ref": "E-N", "shoulder:right": "yes", "sidewalk": "no", "smoothness": "excellent", "source:maxspeed": "sign", "surface": "asphalt"}}, {"type": "Feature", "geometry": {"type": "LineString", "coordinates": [[-25.4902655, 37.8202308], [-25.4895682, 37.820404], [-25.489077, 37.820514], [-25.488529, 37.8206438], [-25.4880094, 37.8207637], [-25.4874782, 37.8208867], [-25.4870367, 37.8209868], [-25.4847671, 37.8215211], [-25.4829725, 37.8219292]]}, "properties": {"agricultural": "no", "bicycle": "no", "cattle": "no", "change:lanes:forward": "not_left|not_right", "embankment": "yes", "foot": "no", "highway": "trunk", "horse": "no", "lanes": "3", "lanes:forward": "2", "maxspeed": "90", "mofa": "no", "motor_vehicle": "yes", "placement:forward": "left_of:1", "ref": "E-N", "shoulder": "no", "sidewalk": "no", "smoothness": "excellent", "source:maxspeed": "sign", "surface": "asphalt"}}, {"type": "Feature", "geometry": {"type": "LineString", "coordinates": [[-25.4930439, 37.8196751], [-25.4935672, 37.8195751], [-25.4939747, 37.8195047]]}, "properties": {"destination": "Ponta Delgada;Ribeira Grande;Lagoa do Fogo", "foot": "no", "highway": "trunk", "lanes": "1", "lit": "yes", "maxspeed": "60", "oneway": "yes", "ref": "E-N", "shoulder": "no", "sidewalk": "no", "surface": "asphalt"}}, {"type": "Feature", "geometry": {"type": "LineString", "coordinates": [[-25.4939747, 37.8195047], [-25.4944219, 37.8194206], [-25.4946794, 37.8193666]]}, "properties": {"foot": "no", "highway": "trunk", "lanes": "2", "lit": "yes", "maxspeed": "80", "oneway": "yes", "placement": "middle_of:1", "ref": "E-N", "sidewalk": "no", "surface": "asphalt", "turn:lanes": "|merge_to_left"}}, {"type": "Feature", "geometry": {"type": "LineString", "coordinates": [[-25.1565811, 37.8423595], [-25.1567267, 37.8423206], [-25.1568996, 37.8422778]]}, "properties": {"highway": "trunk", "lanes": "1", "oneway": "yes", "ref": "E-N", "surface": "asphalt"}}, {"type": "Feature", "geometry": {"type": "LineString", "coordinates": [[-25.1568996, 37.8422778], [-25.1566932, 37.8422337], [-25.1565868, 37.8421889]]}, "properties": {"highway": "trunk", "lanes": "1", "oneway": "yes", "ref": "E-N", "surface": "asphalt"}}, {"type": "Feature", "geometry": {"type": "LineString", "coordinates": [[-25.2337435, 37.8427926], [-25.2331671, 37.8427997], [-25.2327634, 37.8428118], [-25.2324957, 37.8428343], [-25.2321705, 37.8428829]]}, "properties": {"bicycle": "no", "change:lanes:backward": "no", "change:lanes:forward": "no", "highway": "trunk", "lanes": "2", "name": "SCUT Nordeste", "oneway": "no", "ref": "E-N", "shoulder:left": "yes", "shoulder:right": "yes", "surface": "asphalt"}}, {"type": "Feature", "geometry": {"type": "LineString", "coordinates": [[-25.2385531, 37.8437022], [-25.2383542, 37.8436037], [-25.2375559, 37.8433857], [-25.2366572, 37.843161]]}, "properties": {"addr:city": "Algarvia", "addr:street": "SCUT - Via R\u00e1pida", "bicycle": "no", "bridge": "viaduct", "bridge:name": "Viaduto sobre a Ribeira da Mulher", "change:lanes:backward": "no", "change:lanes:forward": "no", "highway": "trunk", "lanes": "2", "layer": "1", "name": "SCUT Nordeste", "oneway": "no", "ref": "E-N", "shoulder:left": "yes", "shoulder:right": "yes", "source": "Munic\u00edpio_do_Nordeste", "surface": "asphalt"}}, {"type": "Feature", "geometry": {"type": "LineString", "coordinates": [[-25.3031691, 37.8357548], [-25.3040821, 37.8357668], [-25.3050603, 37.8357684], [-25.3058776, 37.8357106], [-25.3067198, 37.8356873], [-25.3076307, 37.8357162], [-25.3090963, 37.8356851], [-25.3101856, 37.8356702], [-25.3108599, 37.8356714], [-25.3121564, 37.8356601], [-25.3125302, 37.8356604], [-25.31422, 37.8356117], [-25.3150078, 37.8355932]]}, "properties": {"bicycle": "no", "highway": "trunk", "lanes": "2", "maxspeed": "90", "name": "SCUT Nordeste", "oneway": "no", "ref": "E-N", "shoulder:left": "yes", "shoulder:right": "yes", "source:maxspeed": "sign", "surface": "asphalt"}}, {"type": "Feature", "geometry": {"type": "LineString", "coordinates": [[-25.3000885, 37.8358288], [-25.3011416, 37.8358035], [-25.3021509, 37.8357792], [-25.3031691, 37.8357548]]}, "properties": {"bicycle": "no", "bridge": "yes", "bridge:name": "Viaduto sobre a Ribeira da Salga", "change:lanes:backward": "no", "change:lanes:forward": "no", "highway": "trunk", "lanes": "2", "layer": "1", "maxspeed": "90", "name": "SCUT Nordeste", "oneway": "no", "overtaking": "no", "ref": "E-N", "shoulder": "both", "source:maxspeed": "sign", "surface": "asphalt"}}, {"type": "Feature", "geometry": {"type": "LineString", "coordinates": [[-25.3172623, 37.8355657], [-25.3189042, 37.8355537], [-25.3193596, 37.8355503]]}, "properties": {"bicycle": "no", "highway": "trunk", "lanes": "2", "maxspeed": "90", "oneway": "no", "ref": "E-N", "shoulder:left": "yes", "shoulder:right": "yes", "source:maxspeed": "sign", "surface": "asphalt"}}, {"type": "Feature", "geometry": {"type": "LineString", "coordinates": [[-25.3150078, 37.8355932], [-25.3172623, 37.8355657]]}, "properties": {"bicycle": "no", "bridge": "yes", "highway": "trunk", "lanes": "2", "layer": "1", "maxspeed": "90", "oneway": "no", "ref": "E-N", "shoulder:left": "yes", "shoulder:right": "yes", "source:maxspeed": "sign", "surface": "asphalt"}}, {"type": "Feature", "geometry": {"type": "LineString", "coordinates": [[-25.3419635, 37.8277113], [-25.3439116, 37.8260135]]}, "properties": {"bicycle": "no", "bridge": "yes", "highway": "trunk", "lanes": "2", "layer": "1", "maxspeed": "90", "oneway": "no", "ref": "E-N", "shoulder:left": "yes", "shoulder:right": "yes", "source:maxspeed": "sign", "surface": "asphalt"}}, {"type": "Feature", "geometry": {"type": "LineString", "coordinates": [[-25.338845, 37.8304433], [-25.3404753, 37.8289933], [-25.3419635, 37.8277113]]}, "properties": {"bicycle": "no", "highway": "trunk", "lanes": "2", "maxheight": "default", "maxspeed": "90", "oneway": "no", "ref": "E-N", "shoulder:left": "yes", "shoulder:right": "yes", "source:maxspeed": "sign", "surface": "asphalt"}}, {"type": "Feature", "geometry": {"type": "LineString", "coordinates": [[-25.3363156, 37.8326057], [-25.3357712, 37.8330665], [-25.335572, 37.8332308]]}, "properties": {"highway": "trunk", "lanes": "1", "maxspeed": "90", "oneway": "yes", "ref": "E-N", "shoulder:right": "yes", "source:maxspeed": "sign", "surface": "asphalt"}}, {"type": "Feature", "geometry": {"type": "LineString", "coordinates": [[-25.3346894, 37.8339247], [-25.3349525, 37.8337821], [-25.3358111, 37.8331007]]}, "properties": {"highway": "trunk", "lanes": "1", "maxspeed": "90", "oneway": "yes", "ref": "E-N", "shoulder:right": "yes", "source:maxspeed": "sign", "surface": "asphalt"}}, {"type": "Feature", "geometry": {"type": "LineString", "coordinates": [[-25.5221009, 37.807593], [-25.5221537, 37.8075181], [-25.522209, 37.8074616], [-25.5222652, 37.8074184], [-25.5223115, 37.8073841], [-25.5223722, 37.8073474], [-25.5230487, 37.8070026], [-25.5234414, 37.8068202], [-25.5234913, 37.8067971], [-25.5236442, 37.8067325]]}, "properties": {"foot": "no", "highway": "trunk", "lanes": "1", "lit": "yes", "maxspeed": "80", "oneway": "yes", "ref": "E-N", "sidewalk": "no", "surface": "asphalt"}}, {"type": "Feature", "geometry": {"type": "LineString", "coordinates": [[-25.5233692, 37.806776], [-25.5230302, 37.8069329], [-25.5227086, 37.8070962], [-25.5224674, 37.8072256], [-25.5223367, 37.8072876], [-25.5222463, 37.8073232], [-25.522123, 37.8073529], [-25.5220574, 37.8073612], [-25.5219941, 37.8073641], [-25.5219305, 37.8073643]]}, "properties": {"destination:forward": "Nordeste;Furnas", "foot": "no", "highway": "trunk", "lanes": "2", "lit": "yes", "maxspeed": "40", "oneway": "yes", "ref": "E-N", "shoulder": "no", "sidewalk": "no", "source:maxspeed": "sign", "surface": "asphalt"}}, {"type": "Feature", "geometry": {"type": "LineString", "coordinates": [[-25.5209089, 37.808039], [-25.5209775, 37.8080284], [-25.521121, 37.8079542], [-25.5212766, 37.8078811], [-25.521381, 37.8078345], [-25.5214342, 37.8078159], [-25.5215355, 37.8077839], [-25.5216191, 37.8077627], [-25.521687, 37.8077476], [-25.5217567, 37.8077413], [-25.5218369, 37.8077387]]}, "properties": {"highway": "trunk", "lanes": "2", "maxspeed:type": "PT:rural", "oneway": "yes", "ref": "E-N", "shoulder": "no", "surface": "asphalt"}}, {"type": "Feature", "geometry": {"type": "LineString", "coordinates": [[-25.5252045, 37.8061804], [-25.5266313, 37.8057672], [-25.5287963, 37.8051626], [-25.5294448, 37.8049858], [-25.5299444, 37.8048872], [-25.5302329, 37.8048548], [-25.5305955, 37.8048386], [-25.5310615, 37.8048449], [-25.5313329, 37.8048634], [-25.5315668, 37.8048946], [-25.5318352, 37.8049448], [-25.5327704, 37.8051763]]}, "properties": {"destination:backward": "Nordeste;Furnas", "highway": "trunk", "lanes": "2", "lit": "yes", "maxspeed": "80", "ref": "E-N", "shoulder": "both", "sidewalk": "no", "smoothness": "good", "surface": "asphalt", "width": "7.5"}}, {"type": "Feature", "geometry": {"type": "LineString", "coordinates": [[-25.5216257, 37.807521], [-25.5215944, 37.8075675], [-25.5215603, 37.8076045], [-25.5214874, 37.8076696], [-25.5214188, 37.8077296], [-25.5213434, 37.8077826], [-25.5212256, 37.8078546], [-25.5210942, 37.8079235], [-25.5209386, 37.8080062], [-25.5209089, 37.808039]]}, "properties": {"destination": "Nordeste;Povoa\u00e7ao;Furnas;Ribeira Grande Nascente", "highway": "trunk", "lanes": "1", "maxspeed": "80", "maxspeed:type": "sign", "oneway": "yes", "ref": "E-N", "surface": "asphalt", "width": "4"}}, {"type": "Feature", "geometry": {"type": "LineString", "coordinates": [[-25.4652837, 37.8222773], [-25.4643727, 37.8226098]]}, "properties": {"agricultural": "no", "bicycle": "no", "bridge": "yes", "cattle": "no", "change:lanes:backward": "no", "change:lanes:forward": "no", "foot": "no", "highway": "trunk", "horse": "no", "lanes": "2", "layer": "1", "maxspeed": "90", "mofa": "no", "motor_vehicle": "yes", "ref": "E-N", "shoulder:right": "yes", "sidewalk": "no", "source:maxspeed": "sign", "surface": "asphalt"}}, {"type": "Feature", "geometry": {"type": "LineString", "coordinates": [[-25.4680776, 37.822238], [-25.4677298, 37.8221399], [-25.4673593, 37.8220702], [-25.4670038, 37.8220462], [-25.4666306, 37.8220459]]}, "properties": {"agricultural": "no", "bicycle": "no", "bridge": "yes", "cattle": "no", "change:lanes:backward": "no", "change:lanes:forward": "not_left|not_right", "foot": "no", "hgv:lanes:forward": "no|yes", "highway": "trunk", "horse": "no", "lanes": "3", "lanes:forward": "2", "layer": "1", "maxspeed": "90", "mofa": "no", "motor_vehicle": "yes", "placement:forward": "left_of:1", "ref": "E-N", "shoulder": "no", "sidewalk": "no", "smoothness": "good", "source:maxspeed": "sign", "surface": "asphalt", "turn:lanes:forward": "|merge_to_left"}}, {"type": "Feature", "geometry": {"type": "LineString", "coordinates": [[-25.4666306, 37.8220459], [-25.4663583, 37.8220603], [-25.4661172, 37.8220868], [-25.4658415, 37.8221367]]}, "properties": {"agricultural": "no", "bicycle": "no", "cattle": "no", "change:lanes:backward": "no", "change:lanes:forward": "not_left|not_right", "foot": "no", "hgv:lanes:forward": "no|yes", "highway": "trunk", "horse": "no", "lanes": "3", "lanes:forward": "2", "maxspeed": "90", "mofa": "no", "motor_vehicle": "yes", "placement:forward": "left_of:1", "ref": "E-N", "shoulder": "right", "sidewalk": "no", "smoothness": "good", "source:maxspeed": "sign", "surface": "asphalt", "turn:lanes:forward": "|merge_to_left"}}, {"type": "Feature", "geometry": {"type": "LineString", "coordinates": [[-25.535954, 37.8059529], [-25.5356284, 37.8058688], [-25.5346218, 37.8056272], [-25.5339774, 37.8054524], [-25.5339063, 37.8054217], [-25.5338527, 37.805392], [-25.533787, 37.8053415]]}, "properties": {"destination": "Nordeste;Furnas", "highway": "trunk", "lanes": "1", "lit": "yes", "maxspeed": "40", "oneway": "yes", "ref": "E-N", "sidewalk": "no", "surface": "asphalt"}}, {"type": "Feature", "geometry": {"type": "LineString", "coordinates": [[-25.5364149, 37.8060765], [-25.535954, 37.8059529]]}, "properties": {"highway": "trunk", "lanes": "2", "lit": "yes", "oneway": "yes", "placement": "middle_of:2", "ref": "E-N", "surface": "asphalt", "turn:lanes": "left|through"}}, {"type": "Feature", "geometry": {"type": "LineString", "coordinates": [[-25.5354218, 37.8058985], [-25.5359104, 37.8060211]]}, "properties": {"highway": "trunk", "lanes": "2", "lit": "yes", "oneway": "yes", "placement": "middle_of:2", "ref": "E-N", "sidewalk": "no", "surface": "asphalt", "turn:lanes": "left|through"}}, {"type": "Feature", "geometry": {"type": "LineString", "coordinates": [[-25.5376346, 37.8064346], [-25.5372953, 37.8063117], [-25.53673, 37.8061581], [-25.5364149, 37.8060765]]}, "properties": {"foot": "no", "highway": "trunk", "lanes": "1", "lit": "yes", "maxspeed:type": "PT:rural", "oneway": "yes", "ref": "E-N", "sidewalk": "no", "surface": "asphalt", "width": "4"}}, {"type": "Feature", "geometry": {"type": "LineString", "coordinates": [[-25.5336935, 37.8055283], [-25.5337897, 37.8055223], [-25.533853, 37.8055229], [-25.5339238, 37.8055298], [-25.5340673, 37.8055584], [-25.5346051, 37.8056855], [-25.5354218, 37.8058985]]}, "properties": {"highway": "trunk", "lanes": "1", "lit": "yes", "maxspeed:type": "PT:rural", "oneway": "yes", "ref": "E-N", "sidewalk": "no", "surface": "asphalt"}}, {"type": "Feature", "geometry": {"type": "LineString", "coordinates": [[-25.5359104, 37.8060211], [-25.5362961, 37.8061214], [-25.5372484, 37.8063626], [-25.5376346, 37.8064346]]}, "properties": {"destination": "Ponta Delgada;Ribeira Grande", "foot": "no", "highway": "trunk", "lanes": "1", "lit": "yes", "maxspeed": "80", "oneway": "yes", "ref": "E-N", "sidewalk": "no", "surface": "asphalt"}}, {"type": "Feature", "geometry": {"type": "LineString", "coordinates": [[-25.5129904, 37.8093506], [-25.5127972, 37.8094205]]}, "properties": {"foot": "no", "highway": "trunk", "lanes": "2", "lit": "yes", "maxspeed": "80", "oneway": "yes", "placement": "middle_of:2", "ref": "E-N", "sidewalk": "no", "smoothness": "excellent", "source:maxspeed": "sign", "surface": "asphalt", "turn:lanes": "left|through;slight_right"}}, {"type": "Feature", "geometry": {"type": "LineString", "coordinates": [[-25.5117522, 37.8098581], [-25.5120337, 37.8097647]]}, "properties": {"highway": "trunk", "lanes": "2", "lit": "yes", "maxspeed": "60", "oneway": "yes", "placement": "middle_of:2", "ref": "E-N", "shoulder:right": "yes", "sidewalk": "no", "smoothness": "excellent", "source:maxspeed": "sign", "surface": "asphalt", "turn:lanes": "left|through;slight_right"}}, {"type": "Feature", "geometry": {"type": "LineString", "coordinates": [[-25.5126964, 37.8095307], [-25.5132315, 37.8093447], [-25.5134903, 37.8092505], [-25.5138186, 37.8091037]]}, "properties": {"highway": "trunk", "lanes": "1", "lit": "yes", "maxspeed": "80", "oneway": "yes", "ref": "E-N", "shoulder:right": "yes", "sidewalk": "no", "smoothness": "excellent", "source:maxspeed": "sign", "surface": "asphalt", "width": "5"}}, {"type": "Feature", "geometry": {"type": "LineString", "coordinates": [[-25.5119363, 37.8097214], [-25.5114398, 37.8098905], [-25.5110924, 37.8100155], [-25.5102754, 37.8103498]]}, "properties": {"highway": "trunk", "lanes": "1", "lit": "yes", "maxspeed": "80", "oneway": "yes", "ref": "E-N", "shoulder:right": "yes", "sidewalk": "no", "smoothness": "excellent", "source:maxspeed": "sign", "surface": "asphalt", "width": "4"}}, {"type": "Feature", "geometry": {"type": "LineString", "coordinates": [[-25.5102754, 37.8103498], [-25.5111438, 37.8100693], [-25.5115169, 37.8099434], [-25.5117522, 37.8098581]]}, "properties": {"highway": "trunk", "lanes": "1", "lit": "yes", "maxspeed": "60", "oneway": "yes", "ref": "E-N", "shoulder:right": "yes", "sidewalk": "no", "smoothness": "excellent", "source:maxspeed": "sign", "surface": "asphalt", "width": "5"}}, {"type": "Feature", "geometry": {"type": "LineString", "coordinates": [[-25.5138186, 37.8091037], [-25.5141259, 37.8090083], [-25.5144546, 37.8089228]]}, "properties": {"highway": "trunk", "lanes": "2", "lit": "yes", "maxspeed": "80", "overtaking": "no", "ref": "E-N", "shoulder:left": "yes", "shoulder:right": "yes", "sidewalk": "no", "smoothness": "good", "surface": "asphalt"}}, {"type": "Feature", "geometry": {"type": "LineString", "coordinates": [[-25.5241544, 37.8065525], [-25.5241715, 37.8065476], [-25.5242385, 37.8065294]]}, "properties": {"highway": "trunk", "lanes": "2", "maxspeed": "80", "oneway": "yes", "placement": "middle_of:2", "ref": "E-N", "sidewalk": "no", "surface": "asphalt", "turn:lanes": "left|through"}}, {"type": "Feature", "geometry": {"type": "LineString", "coordinates": [[-25.5236442, 37.8067325], [-25.5238833, 37.8066399]]}, "properties": {"foot": "no", "highway": "trunk", "lanes": "2", "lit": "yes", "maxspeed": "80", "oneway": "yes", "placement": "middle_of:2", "ref": "E-N", "shoulder": "no", "sidewalk": "no", "surface": "asphalt", "turn:lanes": "left|through;right"}}, {"type": "Feature", "geometry": {"type": "LineString", "coordinates": [[-25.5242385, 37.8065294], [-25.5245395, 37.8064356], [-25.5248317, 37.8063351], [-25.5250557, 37.8062619], [-25.5252045, 37.8061804]]}, "properties": {"foot": "no", "highway": "trunk", "lanes": "1", "lit": "yes", "maxspeed": "80", "oneway": "yes", "ref": "E-N", "shoulder": "no", "sidewalk": "no", "surface": "asphalt"}}, {"type": "Feature", "geometry": {"type": "LineString", "coordinates": [[-25.5238833, 37.8066399], [-25.5241544, 37.8065525]]}, "properties": {"foot": "no", "highway": "trunk", "lanes": "2", "maxspeed": "80", "oneway": "yes", "placement": "middle_of:2", "ref": "E-N", "sidewalk": "no", "surface": "asphalt", "turn:lanes": "left|through"}}, {"type": "Feature", "geometry": {"type": "LineString", "coordinates": [[-25.5241887, 37.8064654], [-25.5241294, 37.8064838], [-25.5240956, 37.806495]]}, "properties": {"highway": "trunk", "lanes": "2", "maxspeed": "80", "oneway": "yes", "placement": "middle_of:2", "ref": "E-N", "sidewalk": "no", "surface": "asphalt", "turn:lanes": "left|through"}}, {"type": "Feature", "geometry": {"type": "LineString", "coordinates": [[-25.5240956, 37.806495], [-25.5238672, 37.8065721], [-25.5237676, 37.8066138], [-25.523557, 37.8066985]]}, "properties": {"highway": "trunk", "lanes": "1", "lit": "yes", "maxspeed": "80", "oneway": "yes", "ref": "E-N", "sidewalk": "no", "surface": "asphalt"}}, {"type": "Feature", "geometry": {"type": "LineString", "coordinates": [[-25.5246299, 37.8063256], [-25.5245899, 37.8063383], [-25.5244053, 37.8063968], [-25.5241887, 37.8064654]]}, "properties": {"highway": "trunk", "lanes": "2", "lit": "yes", "maxspeed": "80", "oneway": "yes", "placement": "middle_of:2", "ref": "E-N", "sidewalk": "no", "surface": "asphalt", "turn:lanes": "left|through;right"}}, {"type": "Feature", "geometry": {"type": "LineString", "coordinates": [[-25.523557, 37.8066985], [-25.5233692, 37.806776]]}, "properties": {"foot": "no", "highway": "trunk", "lanes": "2", "lit": "yes", "maxspeed": "40", "oneway": "yes", "placement": "transition", "ref": "E-N", "sidewalk": "no", "source:maxspeed": "sign", "surface": "asphalt"}}, {"type": "Feature", "geometry": {"type": "LineString", "coordinates": [[-25.5252045, 37.8061804], [-25.5250416, 37.8062069], [-25.5248096, 37.8062758], [-25.5246299, 37.8063256]]}, "properties": {"foot": "no", "highway": "trunk", "lanes": "1", "lit": "yes", "maxspeed": "80", "oneway": "yes", "ref": "E-N", "sidewalk": "no", "surface": "asphalt", "width": "4"}}, {"type": "Feature", "geometry": {"type": "LineString", "coordinates": [[-25.503051, 37.813016], [-25.5033568, 37.8128573], [-25.5036443, 37.8127316], [-25.5041443, 37.8125305], [-25.5044079, 37.8124202]]}, "properties": {"destination:backward": "Nordeste", "highway": "trunk", "lanes": "2", "lit": "no", "maxspeed": "60", "overtaking": "no", "ref": "E-N", "shoulder:left": "yes", "shoulder:right": "yes", "sidewalk": "no", "smoothness": "good", "source:maxspeed": "sign", "surface": "asphalt", "width": "7.5"}}, {"type": "Feature", "geometry": {"type": "LineString", "coordinates": [[-25.5055061, 37.8120133], [-25.506462, 37.8116913]]}, "properties": {"highway": "trunk", "lanes": "2", "maxheight:signed": "no", "maxspeed": "80", "ref": "E-N", "shoulder:left": "yes", "shoulder:right": "yes", "sidewalk": "no", "smoothness": "good", "source:maxspeed": "sign", "surface": "asphalt", "width": "7.5"}}, {"type": "Feature", "geometry": {"type": "LineString", "coordinates": [[-25.4927371, 37.8196563], [-25.4925205, 37.8197327]]}, "properties": {"foot": "no", "highway": "trunk", "lanes": "2", "lit": "yes", "maxspeed": "60", "oneway": "yes", "placement": "transition", "ref": "E-N", "sidewalk": "no", "source:maxspeed": "sign", "surface": "asphalt"}}, {"type": "Feature", "geometry": {"type": "LineString", "coordinates": [[-25.4930429, 37.8196001], [-25.4927371, 37.8196563]]}, "properties": {"foot": "no", "highway": "trunk", "lanes": "2", "lit": "yes", "maxspeed": "60", "oneway": "yes", "placement": "middle_of:1", "ref": "E-N", "sidewalk": "no", "source:maxspeed": "sign", "surface": "asphalt"}}, {"type": "Feature", "geometry": {"type": "LineString", "coordinates": [[-25.4946794, 37.8193666], [-25.4948323, 37.8193157], [-25.4949856, 37.8192519]]}, "properties": {"highway": "trunk", "lanes": "1", "maxspeed": "80", "oneway": "yes", "ref": "E-N", "shoulder:right": "yes", "sidewalk": "no", "surface": "asphalt"}}, {"type": "Feature", "geometry": {"type": "LineString", "coordinates": [[-25.4947102, 37.819285], [-25.494488, 37.8193255]]}, "properties": {"foot": "no", "highway": "trunk", "lanes": "2", "lit": "yes", "maxspeed": "60", "maxspeed:lanes": "60|40", "oneway": "yes", "placement": "middle_of:1", "ref": "E-N", "sidewalk": "no", "source:maxspeed": "sign", "surface": "asphalt", "turn:lanes": "|slight_right"}}, {"type": "Feature", "geometry": {"type": "LineString", "coordinates": [[-25.4949856, 37.8192519], [-25.4947102, 37.819285]]}, "properties": {"foot": "no", "highway": "trunk", "lanes": "1", "maxspeed": "60", "oneway": "yes", "ref": "E-N", "sidewalk": "no", "source:maxspeed": "sign", "surface": "asphalt"}}, {"type": "Feature", "geometry": {"type": "LineString", "coordinates": [[-25.4762345, 37.8226282], [-25.4747609, 37.8227892], [-25.4725258, 37.8229933], [-25.4718301, 37.8230688], [-25.471318, 37.8231117], [-25.4708963, 37.8231127]]}, "properties": {"agricultural": "no", "bicycle": "no", "cattle": "no", "change:lanes:forward": "not_left|not_right", "foot": "no", "hgv:lanes:forward": "no|yes", "highway": "trunk", "horse": "no", "lanes": "3", "lanes:forward": "2", "maxspeed": "90", "mofa": "no", "motor_vehicle": "yes", "placement:forward": "left_of:1", "ref": "E-N", "sidewalk": "no", "source:maxspeed": "sign", "surface": "asphalt"}}, {"type": "Feature", "geometry": {"type": "LineString", "coordinates": [[-25.4820718, 37.8221179], [-25.481626, 37.8222039], [-25.4812459, 37.8222501], [-25.4806056, 37.8223122]]}, "properties": {"agricultural": "no", "bicycle": "no", "cattle": "no", "change:lanes:backward": "no", "change:lanes:forward": "not_left|not_right", "cutting": "yes", "foot": "no", "highway": "trunk", "horse": "no", "lanes": "3", "lanes:forward": "2", "maxspeed": "90", "mofa": "no", "motor_vehicle": "yes", "overtaking:backward": "no", "placement:forward": "left_of:1", "ref": "E-N", "shoulder": "no", "sidewalk": "no", "smoothness": "good", "source:maxspeed": "sign", "surface": "asphalt"}}, {"type": "Feature", "geometry": {"type": "LineString", "coordinates": [[-25.4921316, 37.8198101], [-25.4910728, 37.8200484]]}, "properties": {"agricultural": "no", "bicycle": "no", "cattle": "no", "change:lanes:backward": "no", "change:lanes:forward": "not_left|not_right", "embankment": "yes", "foot": "no", "highway": "trunk", "horse": "no", "lanes": "3", "lanes:forward": "2", "maxspeed:backward": "60", "maxspeed:forward": "90", "mofa": "no", "motor_vehicle": "yes", "overtaking:backward": "no", "placement:forward": "left_of:1", "ref": "E-N", "sidewalk": "no", "source:maxspeed": "sign", "surface": "asphalt"}}, {"type": "Feature", "geometry": {"type": "LineString", "coordinates": [[-25.4806056, 37.8223122], [-25.4798055, 37.8223765], [-25.4791293, 37.8224332], [-25.4775424, 37.8225331]]}, "properties": {"agricultural": "no", "bicycle": "no", "cattle": "no", "change:lanes:backward": "no", "change:lanes:forward": "not_left|not_right", "cutting": "yes", "foot": "no", "hgv:lanes:forward": "no|yes", "highway": "trunk", "horse": "no", "lanes": "3", "lanes:forward": "2", "maxspeed": "90", "mofa": "no", "motor_vehicle": "yes", "overtaking:backward": "no", "placement:forward": "left_of:1", "ref": "E-N", "shoulder": "no", "sidewalk": "no", "smoothness": "good", "source:maxspeed": "sign", "surface": "asphalt"}}, {"type": "Feature", "geometry": {"type": "LineString", "coordinates": [[-25.4635247, 37.8228639], [-25.4636265, 37.8228501], [-25.4638048, 37.8228065], [-25.4640656, 37.8227263], [-25.4642566, 37.8226447]]}, "properties": {"agricultural": "no", "bicycle": "no", "cattle": "no", "destination": "Ribeira Grande", "foot": "no", "highway": "trunk", "horse": "no", "lanes": "1", "maxspeed": "60", "mofa": "no", "motor_vehicle": "yes", "oneway": "yes", "ref": "E-N", "shoulder": "left", "sidewalk": "no", "source:maxspeed": "sign", "surface": "asphalt", "width": "6"}}, {"type": "Feature", "geometry": {"type": "LineString", "coordinates": [[-25.4642566, 37.8226447], [-25.4640254, 37.8226713], [-25.4638917, 37.8226867], [-25.4637692, 37.8226945]]}, "properties": {"bicycle": "no", "foot": "no", "highway": "trunk", "horse": "no", "lanes": "1", "maxspeed": "60", "motor_vehicle": "yes", "oneway": "yes", "ref": "E-N", "sidewalk": "no", "source:maxspeed": "sign", "surface": "asphalt"}}, {"type": "Feature", "geometry": {"type": "LineString", "coordinates": [[-25.4658415, 37.8221367], [-25.4655894, 37.8221915], [-25.4652837, 37.8222773]]}, "properties": {"agricultural": "no", "bicycle": "no", "cattle": "no", "change:lanes:backward": "no", "change:lanes:forward": "no", "foot": "no", "hgv:lanes:forward": "no|yes", "highway": "trunk", "horse": "no", "lanes": "2", "maxspeed": "90", "maxspeed:forward": "70", "mofa": "no", "motor_vehicle": "yes", "placement:forward": "left_of:1", "ref": "E-N", "shoulder:right": "yes", "sidewalk": "no", "source:maxspeed": "sign", "surface": "asphalt"}}, {"type": "Feature", "geometry": {"type": "LineString", "coordinates": [[-25.3916124, 37.8195888], [-25.3913354, 37.8196508], [-25.3911477, 37.8197143], [-25.390839, 37.8197943]]}, "properties": {"highway": "trunk", "lanes": "3", "maxspeed": "90", "oneway": "yes", "placement": "right_of:1", "ref": "E-N", "smoothness": "excellent", "source:maxspeed": "sign", "surface": "asphalt", "turn:lanes": "||slight_right"}}, {"type": "Feature", "geometry": {"type": "LineString", "coordinates": [[-25.3885004, 37.8199474], [-25.3892406, 37.8199643], [-25.3896349, 37.8199771], [-25.3900855, 37.8199665]]}, "properties": {"highway": "trunk", "lanes": "2", "lit": "yes", "maxspeed": "90", "maxspeed:lanes": "90|60", "oneway": "yes", "placement": "middle_of:1", "ref": "E-N", "source:maxspeed": "sign", "surface": "concrete:plates", "turn:lanes": "|slight_right"}}, {"type": "Feature", "geometry": {"type": "LineString", "coordinates": [[-25.3850302, 37.8197959], [-25.3845609, 37.8198319]]}, "properties": {"bicycle": "no", "highway": "trunk", "lanes": "2", "maxspeed": "90", "oneway": "yes", "placement": "transition", "ref": "E-N", "shoulder": "both", "source:maxspeed": "sign", "surface": "asphalt"}}, {"type": "Feature", "geometry": {"type": "LineString", "coordinates": [[-25.3845609, 37.8198319], [-25.3849035, 37.8198626], [-25.386655, 37.8198965], [-25.3876876, 37.8199198], [-25.3885004, 37.8199474]]}, "properties": {"highway": "trunk", "lanes": "1", "maxspeed": "90", "oneway": "yes", "ref": "E-N", "shoulder": "right", "source:maxspeed": "sign", "surface": "asphalt"}}, {"type": "Feature", "geometry": {"type": "LineString", "coordinates": [[-25.3900855, 37.8199665], [-25.3903699, 37.8199432], [-25.3906649, 37.8198987], [-25.390976, 37.819833], [-25.3913435, 37.8197164], [-25.3916124, 37.8195888]]}, "properties": {"highway": "trunk", "lanes": "1", "maxspeed": "90", "oneway": "yes", "ref": "E-N", "shoulder": "right", "smoothness": "excellent", "source:maxspeed": "sign", "surface": "asphalt"}}, {"type": "Feature", "geometry": {"type": "LineString", "coordinates": [[-25.3866471, 37.8198266], [-25.3850302, 37.8197959]]}, "properties": {"bicycle": "no", "highway": "trunk", "lanes": "3", "maxspeed": "90", "oneway": "yes", "placement": "right_of:1", "ref": "E-N", "source:maxspeed": "sign", "surface": "asphalt", "turn:lanes": "||merge_to_left"}}, {"type": "Feature", "geometry": {"type": "LineString", "coordinates": [[-25.3771701, 37.8194317], [-25.3781889, 37.8195552]]}, "properties": {"bicycle": "no", "change:lanes:backward": "not_left|not_right", "change:lanes:forward": "no", "highway": "trunk", "lanes": "3", "lanes:backward": "2", "maxspeed": "90", "oneway": "no", "placement:forward": "left_of:1", "ref": "E-N", "shoulder:left": "no", "shoulder:right": "yes", "source:maxspeed": "sign", "surface": "asphalt", "turn:lanes:backward": "|merge_to_left"}}, {"type": "Feature", "geometry": {"type": "LineString", "coordinates": [[-25.4927519, 37.8197231], [-25.4930439, 37.8196751]]}, "properties": {"foot": "no", "highway": "trunk", "lanes": "1", "lit": "yes", "maxspeed": "60", "oneway": "yes", "ref": "E-N", "sidewalk": "no", "surface": "asphalt"}}, {"type": "Feature", "geometry": {"type": "LineString", "coordinates": [[-25.4829725, 37.8219292], [-25.4824495, 37.8220429], [-25.4820718, 37.8221179]]}, "properties": {"agricultural": "no", "bicycle": "no", "cattle": "no", "change:lanes:backward": "no", "change:lanes:forward": "not_left|not_right", "foot": "no", "highway": "trunk", "horse": "no", "lanes": "3", "lanes:forward": "2", "maxspeed": "90", "mofa": "no", "motor_vehicle": "yes", "overtaking:backward": "no", "placement:forward": "left_of:1", "ref": "E-N", "shoulder": "no", "sidewalk": "no", "source:maxspeed": "sign", "surface": "asphalt"}}, {"type": "Feature", "geometry": {"type": "LineString", "coordinates": [[-25.5437111, 37.8069309], [-25.544138, 37.8068178], [-25.5443084, 37.8067636]]}, "properties": {"destination:forward": "Ponta Delgada;Ribeira Grande", "foot": "no", "highway": "trunk", "lanes": "1", "lit": "yes", "maxspeed": "40", "maxspeed:type": "sign", "oneway": "yes", "ref": "E-N", "sidewalk": "no", "surface": "asphalt"}}, {"type": "Feature", "geometry": {"type": "LineString", "coordinates": [[-25.5419078, 37.807187], [-25.5423701, 37.8071622], [-25.5428355, 37.8071074], [-25.5432244, 37.807046], [-25.5435653, 37.8069696]]}, "properties": {"destination:forward": "Ponta Delgada;Ribeira Grande", "highway": "trunk", "lanes": "3", "lanes:backward": "2", "lit": "yes", "maxspeed": "60", "maxspeed:type": "sign", "oneway": "yes", "placement:backward": "left_of:1", "ref": "E-N", "surface": "asphalt", "turn:lanes:backward": "|merge_to_left"}}, {"type": "Feature", "geometry": {"type": "LineString", "coordinates": [[-25.2061196, 37.8458192], [-25.2049745, 37.8457998], [-25.2038904, 37.8457789]]}, "properties": {"bicycle": "no", "highway": "trunk", "lanes": "2", "name": "SCUT Nordeste", "oneway": "no", "ref": "E-N", "shoulder:left": "yes", "shoulder:right": "yes", "surface": "asphalt"}}, {"type": "Feature", "geometry": {"type": "LineString", "coordinates": [[-25.2085345, 37.8458602], [-25.2061196, 37.8458192]]}, "properties": {"addr:city": "Santo Ant\u00f3nio de Nordestinho", "addr:street": "SCUT - Via R\u00e1pida", "bicycle": "no", "bridge": "viaduct", "bridge:name": "Viaduto sobre a Ribeira de Santo Ant\u00f3nio", "highway": "trunk", "lanes": "2", "layer": "1", "maxspeed": "90", "maxspeed:type": "sign", "name": "SCUT Nordeste", "oneway": "no", "ref": "E-N", "shoulder:left": "yes", "shoulder:right": "yes", "source": "Munic\u00edpio_do_Nordeste", "surface": "asphalt"}}, {"type": "Feature", "geometry": {"type": "LineString", "coordinates": [[-25.1872636, 37.8461087], [-25.1863772, 37.846274]]}, "properties": {"bicycle": "no", "change:lanes:backward": "no", "change:lanes:forward": "not_left|not_right", "highway": "trunk", "lanes": "3", "lanes:forward": "2", "maxspeed": "90", "maxspeed:type": "sign", "name": "SCUT Nordeste", "oneway": "no", "placement:forward": "left_of:1", "ref": "E-N", "shoulder:left": "yes", "shoulder:right": "yes", "surface": "asphalt", "turn:lanes:forward": "|merge_to_left"}}, {"type": "Feature", "geometry": {"type": "LineString", "coordinates": [[-25.1881922, 37.8459559], [-25.1872636, 37.8461087]]}, "properties": {"bicycle": "no", "change:lanes:backward": "no", "change:lanes:forward": "no", "highway": "trunk", "lanes": "2", "maxspeed": "60", "maxspeed:type": "sign", "name": "SCUT Nordeste", "oneway": "no", "ref": "E-N", "shoulder:left": "yes", "shoulder:right": "yes", "surface": "asphalt"}}, {"type": "Feature", "geometry": {"type": "LineString", "coordinates": [[-25.1883741, 37.8459215], [-25.1881922, 37.8459559]]}, "properties": {"bicycle": "no", "change:lanes:backward": "not_left|not_right", "change:lanes:forward": "not_left|not_right", "highway": "trunk", "lanes": "4", "lanes:backward": "2", "name": "SCUT Nordeste", "oneway": "no", "ref": "E-N", "shoulder:left": "yes", "shoulder:right": "yes", "surface": "asphalt", "turn:lanes:backward": "|slight_right", "turn:lanes:forward": "|slight_right"}}, {"type": "Feature", "geometry": {"type": "LineString", "coordinates": [[-25.1894592, 37.8457327], [-25.1883741, 37.8459215]]}, "properties": {"bicycle": "no", "change:lanes:backward": "no", "change:lanes:forward": "no", "highway": "trunk", "lanes": "2", "maxspeed": "60", "maxspeed:type": "sign", "name": "SCUT Nordeste", "oneway": "no", "ref": "E-N", "shoulder:left": "yes", "shoulder:right": "yes", "surface": "asphalt"}}, {"type": "Feature", "geometry": {"type": "LineString", "coordinates": [[-25.1907869, 37.8455697], [-25.1904219, 37.8456026], [-25.1898614, 37.8456597], [-25.1894592, 37.8457327]]}, "properties": {"bicycle": "no", "change:lanes:backward": "not_left|not_right", "change:lanes:forward": "no", "highway": "trunk", "lanes": "3", "lanes:backward": "2", "maxspeed": "90", "maxspeed:type": "sign", "name": "SCUT Nordeste", "oneway": "no", "placement:forward": "left_of:1", "ref": "E-N", "shoulder:left": "yes", "shoulder:right": "yes", "surface": "asphalt", "turn:lanes:backward": "|merge_to_left"}}, {"type": "Feature", "geometry": {"type": "LineString", "coordinates": [[-25.2018319, 37.845747], [-25.1966903, 37.8456157], [-25.1947209, 37.8455535], [-25.193477, 37.8455369], [-25.1922807, 37.8455348], [-25.1907869, 37.8455697]]}, "properties": {"bicycle": "no", "highway": "trunk", "lanes": "2", "maxspeed": "90", "maxspeed:type": "sign", "name": "SCUT Nordeste", "oneway": "no", "ref": "E-N", "shoulder:left": "yes", "shoulder:right": "yes", "surface": "asphalt"}}, {"type": "Feature", "geometry": {"type": "LineString", "coordinates": [[-25.1660621, 37.8422051], [-25.1654905, 37.8420104], [-25.1641873, 37.8415845]]}, "properties": {"bicycle": "no", "change:lanes:backward": "no", "change:lanes:forward": "no", "highway": "trunk", "lanes": "2", "maxspeed": "90", "maxspeed:type": "sign", "name": "SCUT Nordeste", "oneway": "no", "ref": "E-N", "shoulder:left": "yes", "shoulder:right": "yes", "surface": "asphalt"}}, {"type": "Feature", "geometry": {"type": "LineString", "coordinates": [[-25.157538, 37.8422919], [-25.1568996, 37.8422778]]}, "properties": {"bicycle": "no", "change:lanes:backward": "no", "change:lanes:forward": "no", "highway": "trunk", "lanes": "2", "name": "SCUT Nordeste", "oneway": "no", "ref": "E-N", "shoulder:right": "yes", "surface": "asphalt"}}, {"type": "Feature", "geometry": {"type": "LineString", "coordinates": [[-25.1614094, 37.8413757], [-25.1611269, 37.8414532], [-25.1608339, 37.8415509], [-25.1601586, 37.841826], [-25.1595957, 37.8420446], [-25.1592761, 37.8421522], [-25.1588861, 37.842234], [-25.1585707, 37.842275], [-25.1581926, 37.8422993], [-25.157538, 37.8422919]]}, "properties": {"bicycle": "no", "change:lanes:backward": "not_left|not_right", "change:lanes:forward": "no", "highway": "trunk", "lanes": "3", "lanes:backward": "2", "name": "SCUT Nordeste", "oneway": "no", "placement:forward": "left_of:1", "ref": "E-N", "shoulder:right": "yes", "surface": "asphalt"}}, {"type": "Feature", "geometry": {"type": "LineString", "coordinates": [[-25.1641873, 37.8415845], [-25.1638578, 37.8414838], [-25.1635485, 37.8414003], [-25.1632121, 37.8413307], [-25.1628247, 37.8412795], [-25.1624897, 37.8412682], [-25.1621495, 37.8412685], [-25.1617599, 37.8413091], [-25.1614094, 37.8413757]]}, "properties": {"bicycle": "no", "change:lanes:backward": "not_left|not_right", "change:lanes:forward": "no", "highway": "trunk", "lanes": "3", "lanes:backward": "2", "name": "SCUT Nordeste", "oneway": "no", "placement:forward": "left_of:1", "ref": "E-N", "shoulder:right": "yes", "surface": "asphalt", "turn:lanes:backward": "|merge_to_left"}}, {"type": "Feature", "geometry": {"type": "LineString", "coordinates": [[-25.2351075, 37.8428512], [-25.2346512, 37.8428138], [-25.2337435, 37.8427926]]}, "properties": {"bicycle": "no", "change:lanes:backward": "not_left|not_right", "change:lanes:forward": "no", "highway": "trunk", "lanes": "3", "lanes:forward": "1", "name": "SCUT Nordeste", "oneway": "no", "placement:forward": "left_of:1", "ref": "E-N", "shoulder:left": "yes", "shoulder:right": "yes", "surface": "asphalt", "turn:lanes:backward": "|merge_to_left"}}, {"type": "Feature", "geometry": {"type": "LineString", "coordinates": [[-25.2366572, 37.843161], [-25.2360571, 37.84301], [-25.2357835, 37.8429539], [-25.2355261, 37.8429106], [-25.2351075, 37.8428512]]}, "properties": {"bicycle": "no", "change:lanes:backward": "no", "change:lanes:forward": "no", "highway": "trunk", "lanes": "2", "name": "SCUT Nordeste", "oneway": "no", "ref": "E-N", "shoulder:left": "yes", "shoulder:right": "yes", "surface": "asphalt"}}, {"type": "Feature", "geometry": {"type": "LineString", "coordinates": [[-25.2271043, 37.8443335], [-25.2260634, 37.8444549]]}, "properties": {"bicycle": "no", "highway": "trunk", "lanes": "2", "maxspeed": "80", "maxspeed:type": "sign", "name": "SCUT Nordeste", "oneway": "no", "ref": "E-N", "shoulder:left": "yes", "shoulder:right": "yes", "surface": "asphalt"}}, {"type": "Feature", "geometry": {"type": "LineString", "coordinates": [[-25.2293654, 37.8437462], [-25.2286113, 37.8440098]]}, "properties": {"bicycle": "no", "change:lanes:backward": "no", "change:lanes:forward": "not_left|not_right", "highway": "trunk", "lanes": "3", "lanes:forward": "2", "name": "SCUT Nordeste", "oneway": "no", "placement:forward": "left_of:1", "ref": "E-N", "shoulder:left": "yes", "shoulder:right": "yes", "surface": "asphalt", "turn:lanes:forward": "|merge_to_left"}}, {"type": "Feature", "geometry": {"type": "LineString", "coordinates": [[-25.2286113, 37.8440098], [-25.2281531, 37.844128], [-25.2278361, 37.844211], [-25.22753, 37.8442718], [-25.2271043, 37.8443335]]}, "properties": {"bicycle": "no", "change:lanes:backward": "no", "change:lanes:forward": "no", "highway": "trunk", "lanes": "2", "maxspeed": "80", "maxspeed:type": "sign", "name": "SCUT Nordeste", "oneway": "no", "ref": "E-N", "shoulder:left": "yes", "shoulder:right": "yes", "surface": "asphalt"}}, {"type": "Feature", "geometry": {"type": "LineString", "coordinates": [[-25.2299792, 37.8435362], [-25.2293654, 37.8437462]]}, "properties": {"bicycle": "no", "change:lanes:backward": "not_left|not_right", "change:lanes:forward": "not_left|not_right", "highway": "trunk", "lanes": "4", "name": "SCUT Nordeste", "oneway": "no", "ref": "E-N", "shoulder:left": "yes", "shoulder:right": "yes", "surface": "asphalt", "turn:lanes:backward": "|slight_right", "turn:lanes:forward": "|merge_to_left"}}, {"type": "Feature", "geometry": {"type": "LineString", "coordinates": [[-25.2502139, 37.844969], [-25.2497888, 37.8450362], [-25.2491552, 37.8451725], [-25.2481028, 37.8454204]]}, "properties": {"bicycle": "no", "highway": "trunk", "lanes": "2", "maxspeed": "90", "maxspeed:type": "sign", "name": "SCUT Nordeste", "oneway": "no", "ref": "E-N", "shoulder:left": "yes", "shoulder:right": "yes", "surface": "asphalt"}}, {"type": "Feature", "geometry": {"type": "LineString", "coordinates": [[-25.2321705, 37.8428829], [-25.2318889, 37.842938], [-25.2316357, 37.8430001], [-25.2314017, 37.8430616]]}, "properties": {"bicycle": "no", "change:lanes:backward": "no", "change:lanes:forward": "not_left|not_right", "highway": "trunk", "lanes": "3", "lanes:forward": "2", "name": "SCUT Nordeste", "oneway": "no", "placement:forward": "left_of:1", "ref": "E-N", "shoulder:left": "yes", "shoulder:right": "yes", "surface": "asphalt", "turn:lanes:forward": "|slight_right"}}, {"type": "Feature", "geometry": {"type": "LineString", "coordinates": [[-25.2314017, 37.8430616], [-25.2307464, 37.8432786], [-25.2299792, 37.8435362]]}, "properties": {"bicycle": "no", "change:lanes:backward": "no", "change:lanes:forward": "no", "highway": "trunk", "lanes": "2", "name": "SCUT Nordeste", "oneway": "no", "ref": "E-N", "shoulder:left": "yes", "shoulder:right": "yes", "surface": "asphalt"}}, {"type": "Feature", "geometry": {"type": "LineString", "coordinates": [[-25.2664948, 37.8476189], [-25.265961, 37.8473965]]}, "properties": {"change:lanes:backward": "not_left|not_right", "change:lanes:forward": "not_left|not_right", "highway": "trunk", "lanes": "4", "lanes:forward": "2", "name": "SCUT Nordeste", "oneway": "no", "placement:forward": "left_of:1", "ref": "E-N", "shoulder:left": "yes", "surface": "asphalt", "turn:lanes:backward": "|merge_to_left"}}, {"type": "Feature", "geometry": {"type": "LineString", "coordinates": [[-25.265961, 37.8473965], [-25.2655634, 37.8471965], [-25.264897, 37.8468917]]}, "properties": {"change:lanes:backward": "not_left|not_right", "change:lanes:forward": "no|not_left|not_right", "highway": "trunk", "lanes": "5", "lanes:forward": "3", "name": "SCUT Nordeste", "oneway": "no", "placement:forward": "left_of:1", "ref": "E-N", "shoulder:left": "yes", "surface": "asphalt", "turn:lanes:backward": "|merge_to_left", "turn:lanes:forward": "||slight_right"}}, {"type": "Feature", "geometry": {"type": "LineString", "coordinates": [[-25.2645714, 37.8467452], [-25.2643409, 37.8466582]]}, "properties": {"change:lanes:backward": "no", "change:lanes:forward": "not_left|yes|not_right", "highway": "trunk", "lanes": "4", "lanes:forward": "3", "name": "SCUT Nordeste", "oneway": "no", "placement:forward": "left_of:1", "ref": "E-N", "surface": "asphalt", "turn:lanes:forward": "||merge_to_left"}}, {"type": "Feature", "geometry": {"type": "LineString", "coordinates": [[-25.2643409, 37.8466582], [-25.2638381, 37.8464679], [-25.2632885, 37.8462871]]}, "properties": {"change:lanes:backward": "not_left|not_right", "change:lanes:forward": "not_left|yes|not_right", "highway": "trunk", "lanes": "5", "lanes:forward": "3", "maxspeed": "90", "maxspeed:type": "sign", "name": "SCUT Nordeste", "oneway": "no", "placement:forward": "left_of:1", "ref": "E-N", "shoulder:left": "yes", "surface": "asphalt", "turn:lanes:backward": "|slight_right", "turn:lanes:forward": "||merge_to_left"}}, {"type": "Feature", "geometry": {"type": "LineString", "coordinates": [[-25.2595143, 37.8454511], [-25.2590106, 37.8454001]]}, "properties": {"bicycle": "no", "change:lanes:backward": "no", "change:lanes:forward": "no", "highway": "trunk", "lanes": "2", "name": "SCUT Nordeste", "oneway": "no", "ref": "E-N", "shoulder:left": "yes", "shoulder:right": "yes", "surface": "asphalt"}}, {"type": "Feature", "geometry": {"type": "LineString", "coordinates": [[-25.2711354, 37.8492689], [-25.2706226, 37.849201]]}, "properties": {"change:lanes:backward": "no", "change:lanes:forward": "no", "highway": "trunk", "lanes": "2", "maxspeed": "90", "name": "SCUT Nordeste", "oneway": "no", "ref": "E-N", "shoulder": "no", "surface": "asphalt"}}, {"type": "Feature", "geometry": {"type": "LineString", "coordinates": [[-25.2832199, 37.8491471], [-25.2830871, 37.849215]]}, "properties": {"bridge": "yes", "change:lanes:backward": "not_left|not_right", "change:lanes:forward": "no", "highway": "trunk", "lanes": "3", "lanes:forward": "1", "layer": "1", "maxspeed": "90", "name": "SCUT Nordeste", "oneway": "no", "placement:forward": "left_of:1", "ref": "E-N", "surface": "asphalt"}}, {"type": "Feature", "geometry": {"type": "LineString", "coordinates": [[-25.2829225, 37.8492859], [-25.2825479, 37.8494408]]}, "properties": {"change:lanes:backward": "no|no", "change:lanes:forward": "no", "highway": "trunk", "lanes": "3", "lanes:forward": "1", "maxspeed": "90", "name": "SCUT Nordeste", "oneway": "no", "placement:forward": "left_of:1", "ref": "E-N", "shoulder": "right", "surface": "asphalt"}}, {"type": "Feature", "geometry": {"type": "LineString", "coordinates": [[-25.2825479, 37.8494408], [-25.2824051, 37.8494987]]}, "properties": {"change:lanes:backward": "no|not_left|not_right", "change:lanes:forward": "no", "highway": "trunk", "lanes": "4", "lanes:forward": "1", "maxspeed": "90", "name": "SCUT Nordeste", "oneway": "no", "placement:forward": "left_of:1", "ref": "E-N", "surface": "asphalt", "turn:lanes:backward": "||slight_right"}}, {"type": "Feature", "geometry": {"type": "LineString", "coordinates": [[-25.2819148, 37.8496733], [-25.2816519, 37.8497453], [-25.2813378, 37.8498169]]}, "properties": {"change:lanes:backward": "not_left|not_right", "change:lanes:forward": "not_left|not_right", "highway": "trunk", "lanes": "4", "lanes:forward": "2", "maxspeed": "90", "name": "SCUT Nordeste", "placement:forward": "left_of:1", "ref": "E-N", "shoulder": "both", "surface": "asphalt", "turn:lanes:forward": "|merge_to_left"}}, {"type": "Feature", "geometry": {"type": "LineString", "coordinates": [[-25.2867293, 37.8458546], [-25.2861907, 37.8464761]]}, "properties": {"bicycle": "no", "change:lanes:backward": "not_left|not_right", "change:lanes:forward": "no", "hgv:lanes:backward": "no|yes", "highway": "trunk", "lanes": "3", "lanes:forward": "1", "maxspeed": "90", "name": "SCUT Nordeste", "oneway": "no", "placement:forward": "left_of:1", "ref": "E-N", "shoulder": "both", "surface": "asphalt"}}, {"type": "Feature", "geometry": {"type": "LineString", "coordinates": [[-25.2860374, 37.8466509], [-25.2856886, 37.847047]]}, "properties": {"change:lanes:backward": "not_left|not_right", "change:lanes:forward": "no", "highway": "trunk", "lanes": "3", "lanes:forward": "1", "maxspeed": "90", "oneway": "no", "placement:forward": "left_of:1", "ref": "E-N", "surface": "asphalt"}}, {"type": "Feature", "geometry": {"type": "LineString", "coordinates": [[-25.2856886, 37.847047], [-25.2851, 37.8476719], [-25.2849483, 37.8478335]]}, "properties": {"change:lanes:backward": "not_left|yes|not_right", "change:lanes:forward": "no", "highway": "trunk", "lanes": "4", "lanes:forward": "1", "lit": "yes", "maxspeed": "90", "name": "SCUT Nordeste", "oneway": "no", "placement:forward": "left_of:1", "ref": "E-N", "shoulder": "right", "sidewalk": "no", "surface": "asphalt", "turn:lanes:backward": "||merge_to_left"}}, {"type": "Feature", "geometry": {"type": "LineString", "coordinates": [[-25.3358111, 37.8331007], [-25.3362652, 37.8327229]]}, "properties": {"destination:lanes": "Ribeira Grande;Vila Franca do Campo;Furnas|Lomba da Maia;Fenais da Ajuda", "highway": "trunk", "lanes": "2", "lit": "yes", "maxspeed": "90", "maxspeed:lanes": "90|60", "oneway": "yes", "placement:forward": "middle_of:1", "ref": "E-N", "shoulder:right": "yes", "source:maxspeed": "sign", "surface": "asphalt", "turn:lanes": "|slight_right"}}, {"type": "Feature", "geometry": {"type": "LineString", "coordinates": [[-25.3366667, 37.8322979], [-25.3363156, 37.8326057]]}, "properties": {"highway": "trunk", "lanes": "2", "lit": "yes", "maxspeed": "90", "oneway": "yes", "placement:forward": "middle_of:1", "ref": "E-N", "shoulder:right": "yes", "source:maxspeed": "sign", "surface": "asphalt", "turn:lanes": "|slight_right"}}, {"type": "Feature", "geometry": {"type": "LineString", "coordinates": [[-25.3362652, 37.8327229], [-25.336719, 37.8323243], [-25.3379644, 37.8312215]]}, "properties": {"destination": "Ribeira Grande;Vila Franca do Campo;Furnas", "highway": "trunk", "lanes": "1", "maxspeed": "90", "oneway": "yes", "ref": "E-N", "shoulder:right": "yes", "source:maxspeed": "sign", "surface": "asphalt"}}, {"type": "Feature", "geometry": {"type": "LineString", "coordinates": [[-25.335572, 37.8332308], [-25.3351301, 37.833566], [-25.334899, 37.8337361], [-25.3346894, 37.8339247]]}, "properties": {"highway": "trunk", "lanes": "2", "lit": "yes", "maxspeed": "90", "oneway": "yes", "placement:forward": "middle_of:1", "ref": "E-N", "shoulder:right": "yes", "sidewalk": "no", "source:maxspeed": "sign", "surface": "asphalt", "turn:lanes": "|merge_to_left"}}, {"type": "Feature", "geometry": {"type": "LineString", "coordinates": [[-25.338845, 37.8304433], [-25.3385577, 37.8306437], [-25.338209, 37.8309452], [-25.3379112, 37.8311952], [-25.3366667, 37.8322979]]}, "properties": {"highway": "trunk", "lanes": "1", "maxspeed": "90", "oneway": "yes", "ref": "E-N", "shoulder:right": "yes", "source:maxspeed": "sign", "surface": "asphalt"}}, {"type": "Feature", "geometry": {"type": "LineString", "coordinates": [[-25.3379644, 37.8312215], [-25.3382465, 37.8309794], [-25.3386178, 37.8306756], [-25.338845, 37.8304433]]}, "properties": {"highway": "trunk", "lanes": "2", "lit": "yes", "maxspeed": "90", "oneway": "yes", "placement:forward": "middle_of:1", "ref": "E-N", "shoulder:right": "yes", "sidewalk": "no", "source:maxspeed": "sign", "surface": "asphalt", "turn:lanes": "|merge_to_left"}}, {"type": "Feature", "geometry": {"type": "LineString", "coordinates": [[-25.3197727, 37.8355473], [-25.3202932, 37.8355393], [-25.3208372, 37.8355367], [-25.3214421, 37.8355233], [-25.3218747, 37.83551], [-25.3225202, 37.8354993], [-25.3231183, 37.8354886], [-25.3237435, 37.8354833], [-25.3242301, 37.8354779], [-25.3248992, 37.8354779], [-25.3255751, 37.8354806], [-25.3262734, 37.8354801], [-25.3270331, 37.8354743], [-25.328005, 37.8354656]]}, "properties": {"bicycle": "no", "highway": "trunk", "lanes": "2", "maxspeed": "90", "oneway": "no", "ref": "E-N", "shoulder:left": "yes", "shoulder:right": "yes", "source:maxspeed": "sign", "surface": "asphalt"}}, {"type": "Feature", "geometry": {"type": "LineString", "coordinates": [[-25.2943589, 37.8377194], [-25.2940448, 37.8379524], [-25.2935548, 37.8383603], [-25.2932391, 37.8386635], [-25.2927857, 37.8391305]]}, "properties": {"bicycle": "no", "change:lanes:backward": "not_left|not_right", "hgv:lanes:backward": "no|yes", "highway": "trunk", "lanes": "3", "lanes:forward": "1", "maxspeed": "90", "name": "SCUT Nordeste", "oneway": "no", "placement:forward": "left_of:1", "ref": "E-N", "shoulder:right": "yes", "source:maxspeed": "sign", "surface": "asphalt", "turn:lanes:backward": "|merge_to_left"}}, {"type": "Feature", "geometry": {"type": "LineString", "coordinates": [[-25.3630929, 37.8176203], [-25.3643417, 37.8177979]]}, "properties": {"destination": "Ribeira Grande;Maia", "highway": "trunk", "lanes": "1", "maxspeed": "90", "oneway": "yes", "ref": "E-N", "shoulder": "right", "source:maxspeed": "sign", "surface": "asphalt"}}, {"type": "Feature", "geometry": {"type": "LineString", "coordinates": [[-25.3643417, 37.8177979], [-25.3654361, 37.8179271]]}, "properties": {"highway": "trunk", "lanes": "2", "lit": "yes", "maxspeed": "90", "oneway": "yes", "placement": "middle_of:1", "ref": "E-N", "shoulder:right": "yes", "sidewalk": "no", "source:maxspeed": "sign", "surface": "asphalt", "turn:lanes": "|merge_to_left"}}, {"type": "Feature", "geometry": {"type": "LineString", "coordinates": [[-25.3622657, 37.8175235], [-25.3625242, 37.8175532]]}, "properties": {"bicycle": "no", "destination:lanes": "Ribeira Grande;Maia|Vila Franca do Campo;Burguete;Furnas", "highway": "trunk", "lanes": "2", "lit": "yes", "maxspeed": "90", "maxspeed:lanes": "90|60", "oneway": "yes", "placement": "middle_of:1", "ref": "E-N", "shoulder:right": "yes", "source:maxspeed": "sign", "surface": "asphalt", "turn:lanes": "|slight_right"}}, {"type": "Feature", "geometry": {"type": "LineString", "coordinates": [[-25.3642667, 37.8177131], [-25.3629416, 37.8175246]]}, "properties": {"highway": "trunk", "lanes": "1", "maxspeed": "90", "oneway": "yes", "ref": "E-N", "source:maxspeed": "sign", "surface": "asphalt"}}, {"type": "Feature", "geometry": {"type": "LineString", "coordinates": [[-25.3646234, 37.8177619], [-25.3642667, 37.8177131]]}, "properties": {"foot": "no", "highway": "trunk", "lanes": "2", "lit": "yes", "maxspeed": "90", "oneway": "yes", "placement": "middle_of:1", "ref": "E-N", "sidewalk": "no", "source:maxspeed": "sign", "surface": "asphalt", "turn:lanes": "|slight_right"}}, {"type": "Feature", "geometry": {"type": "LineString", "coordinates": [[-25.3625353, 37.8174748], [-25.361867, 37.817384], [-25.3614638, 37.8173476]]}, "properties": {"highway": "trunk", "lanes": "2", "lit": "yes", "maxspeed": "90", "oneway": "yes", "placement": "middle_of:1", "ref": "E-N", "source:maxspeed": "sign", "surface": "asphalt", "turn:lanes": "|merge_to_left"}}, {"type": "Feature", "geometry": {"type": "LineString", "coordinates": [[-25.3629416, 37.8175246], [-25.3625353, 37.8174748]]}, "properties": {"bridge": "yes", "highway": "trunk", "lanes": "2", "layer": "1", "lit": "yes", "maxspeed": "90", "oneway": "yes", "placement": "middle_of:1", "ref": "E-N", "source:maxspeed": "sign", "surface": "asphalt", "turn:lanes": "|merge_to_left"}}, {"type": "Feature", "geometry": {"type": "LineString", "coordinates": [[-25.3614638, 37.8173476], [-25.3611172, 37.8173196]]}, "properties": {"foot": "no", "highway": "trunk", "lanes": "1", "lit": "yes", "maxspeed": "90", "oneway": "yes", "ref": "E-N", "sidewalk": "no", "source:maxspeed": "sign", "surface": "asphalt"}}, {"type": "Feature", "geometry": {"type": "LineString", "coordinates": [[-25.3658362, 37.8179533], [-25.3654575, 37.8178636], [-25.3646234, 37.8177619]]}, "properties": {"foot": "no", "highway": "trunk", "lanes": "1", "lit": "yes", "maxspeed": "90", "oneway": "yes", "ref": "E-N", "sidewalk": "no", "source:maxspeed": "sign", "surface": "asphalt"}}, {"type": "Feature", "geometry": {"type": "LineString", "coordinates": [[-25.3654361, 37.8179271], [-25.3658362, 37.8179533]]}, "properties": {"highway": "trunk", "lanes": "1", "maxspeed": "90", "oneway": "yes", "ref": "E-N", "shoulder": "both", "source:maxspeed": "sign", "surface": "asphalt"}}, {"type": "Feature", "geometry": {"type": "LineString", "coordinates": [[-25.3611172, 37.8173196], [-25.3613873, 37.8174006], [-25.3622657, 37.8175235]]}, "properties": {"bicycle": "no", "highway": "trunk", "lanes": "1", "lit": "yes", "maxspeed": "90", "oneway": "yes", "ref": "E-N", "shoulder:right": "yes", "source:maxspeed": "sign", "surface": "asphalt"}}, {"type": "Feature", "geometry": {"type": "LineString", "coordinates": [[-25.3603399, 37.8172597], [-25.3611172, 37.8173196]]}, "properties": {"bicycle": "no", "change:lanes:backward": "no", "change:lanes:forward": "no", "highway": "trunk", "lanes": "2", "maxspeed": "90", "oneway": "no", "overtaking": "no", "ref": "E-N", "shoulder:left": "yes", "shoulder:right": "yes", "source:maxspeed": "sign", "surface": "asphalt"}}, {"type": "Feature", "geometry": {"type": "LineString", "coordinates": [[-25.3665736, 37.8180488], [-25.3687303, 37.8183212], [-25.3700523, 37.8184943], [-25.3726488, 37.818842], [-25.3753978, 37.8192027]]}, "properties": {"bicycle": "no", "highway": "trunk", "lanes": "2", "maxspeed": "90", "oneway": "no", "ref": "E-N", "shoulder:left": "yes", "shoulder:right": "yes", "source:maxspeed": "sign", "surface": "asphalt"}}, {"type": "Feature", "geometry": {"type": "LineString", "coordinates": [[-25.3784555, 37.8195828], [-25.3790955, 37.8196376], [-25.3798667, 37.8196993]]}, "properties": {"bicycle": "no", "change:lanes:backward": "not_left|not_right", "change:lanes:forward": "no", "highway": "trunk", "lanes": "3", "lanes:backward": "2", "maxspeed": "90", "oneway": "no", "placement:forward": "left_of:1", "ref": "E-N", "shoulder:left": "no", "shoulder:right": "yes", "source:maxspeed": "sign", "surface": "asphalt", "turn:lanes:backward": "|merge_to_left"}}, {"type": "Feature", "geometry": {"type": "LineString", "coordinates": [[-25.3753978, 37.8192027], [-25.3771701, 37.8194317]]}, "properties": {"bicycle": "no", "change:lanes:backward": "no", "change:lanes:forward": "no", "highway": "trunk", "lanes": "2", "maxspeed": "90", "oneway": "no", "overtaking": "no", "ref": "E-N", "shoulder:left": "yes", "shoulder:right": "yes", "source:maxspeed": "sign", "surface": "asphalt"}}, {"type": "Feature", "geometry": {"type": "LineString", "coordinates": [[-25.5044079, 37.8124202], [-25.5051354, 37.8121551], [-25.5055061, 37.8120133]]}, "properties": {"destination:forward": "Ponta Delgada", "highway": "trunk", "lanes": "2", "maxspeed:backward": "60", "maxspeed:forward": "80", "overtaking": "no", "ref": "E-N", "shoulder:left": "yes", "shoulder:right": "yes", "sidewalk": "no", "smoothness": "good", "source:maxspeed": "sign", "surface": "asphalt", "width": "7.5"}}, {"type": "Feature", "geometry": {"type": "LineString", "coordinates": [[-25.4910728, 37.8200484], [-25.4902655, 37.8202308]]}, "properties": {"agricultural": "no", "bicycle": "no", "cattle": "no", "change:lanes:backward": "no", "change:lanes:forward": "not_left|not_right", "embankment": "yes", "foot": "no", "highway": "trunk", "horse": "no", "lanes": "3", "lanes:forward": "2", "maxspeed:backward": "70", "maxspeed:forward": "90", "mofa": "no", "motor_vehicle": "yes", "overtaking:backward": "no", "placement:forward": "left_of:1", "ref": "E-N", "shoulder": "no", "sidewalk": "no", "source:maxspeed": "sign", "surface": "asphalt"}}, {"type": "Feature", "geometry": {"type": "LineString", "coordinates": [[-25.5124181, 37.8096254], [-25.5124718, 37.8096059], [-25.5126964, 37.8095307]]}, "properties": {"highway": "trunk", "lanes": "1", "lit": "yes", "maxspeed": "60", "oneway": "yes", "ref": "E-N", "shoulder:right": "yes", "sidewalk": "no", "smoothness": "excellent", "source:maxspeed": "sign", "surface": "asphalt"}}, {"type": "Feature", "geometry": {"type": "LineString", "coordinates": [[-25.5120337, 37.8097647], [-25.5123314, 37.8096568]]}, "properties": {"highway": "trunk", "lanes": "2", "oneway": "yes", "ref": "E-N", "smoothness": "excellent", "surface": "asphalt", "turn:lanes": "left|through"}}, {"type": "Feature", "geometry": {"type": "LineString", "coordinates": [[-25.5327704, 37.8051763], [-25.5327826, 37.8051951], [-25.532851, 37.8052152], [-25.5329851, 37.8052512], [-25.5331112, 37.8052936], [-25.5332118, 37.8053328], [-25.5332587, 37.805354], [-25.5332855, 37.8053731], [-25.5333137, 37.8054023]]}, "properties": {"highway": "trunk", "lanes": "1", "oneway": "yes", "ref": "E-N", "surface": "asphalt"}}, {"type": "Feature", "geometry": {"type": "LineString", "coordinates": [[-25.5334008, 37.8052283], [-25.5333526, 37.8052459], [-25.5333177, 37.8052534], [-25.5332775, 37.8052555], [-25.5332225, 37.8052523], [-25.5331514, 37.8052428], [-25.5330562, 37.8052269], [-25.5329838, 37.805211], [-25.532906, 37.8051919], [-25.5328108, 37.8051686], [-25.5327704, 37.8051763]]}, "properties": {"highway": "trunk", "lanes": "1", "oneway": "yes", "ref": "E-N", "surface": "asphalt"}}, {"type": "Feature", "geometry": {"type": "LineString", "coordinates": [[-25.5122632, 37.8096007], [-25.5119363, 37.8097214]]}, "properties": {"highway": "trunk", "lanes": "1", "lit": "yes", "maxspeed": "80", "oneway": "yes", "ref": "E-N", "shoulder:right": "yes", "sidewalk": "no", "smoothness": "excellent", "source:maxspeed": "sign", "surface": "asphalt"}}, {"type": "Feature", "geometry": {"type": "LineString", "coordinates": [[-25.5123491, 37.809569], [-25.5122632, 37.8096007]]}, "properties": {"highway": "trunk", "lanes": "2", "lit": "yes", "maxspeed": "80", "oneway": "yes", "placement": "middle_of:2", "ref": "E-N", "shoulder:right": "yes", "sidewalk": "no", "smoothness": "excellent", "source:maxspeed": "sign", "surface": "asphalt", "turn:lanes": "left|through"}}, {"type": "Feature", "geometry": {"type": "LineString", "coordinates": [[-25.5435653, 37.8069696], [-25.5437111, 37.8069309]]}, "properties": {"destination:forward": "Ponta Delgada;Ribeira Grande", "foot": "no", "highway": "trunk", "lanes": "1", "lit": "yes", "maxspeed": "40", "maxspeed:type": "sign", "oneway": "yes", "ref": "E-N", "sidewalk": "no", "surface": "asphalt"}}, {"type": "Feature", "geometry": {"type": "LineString", "coordinates": [[-25.5443084, 37.8067636], [-25.5444045, 37.806733]]}, "properties": {"destination:forward": "Ponta Delgada;Ribeira Grande", "highway": "trunk", "lanes": "2", "lit": "yes", "maxspeed": "40", "maxspeed:type": "sign", "oneway": "yes", "ref": "E-N", "surface": "asphalt"}}, {"type": "Feature", "geometry": {"type": "LineString", "coordinates": [[-25.5123314, 37.8096568], [-25.5124181, 37.8096254]]}, "properties": {"highway": "trunk", "lanes": "2", "oneway": "yes", "ref": "E-N", "smoothness": "excellent", "surface": "asphalt", "turn:lanes": "left|through"}}, {"type": "Feature", "geometry": {"type": "MultiPolygon", "coordinates": [[[[-25.5337908, 37.8053837], [-25.533787, 37.8053415], [-25.5337585, 37.8052806], [-25.5337056, 37.8052309], [-25.5336346, 37.8051982], [-25.5335538, 37.8051864], [-25.5334727, 37.8051968], [-25.5334389, 37.8052116], [-25.5334008, 37.8052283], [-25.5333465, 37.805277], [-25.5333163, 37.8053374], [-25.5333137, 37.8054023], [-25.5333389, 37.8054641], [-25.5333891, 37.8055155], [-25.5334583, 37.8055506], [-25.5335384, 37.8055651], [-25.53362, 37.8055574], [-25.5336935, 37.8055283], [-25.5337328, 37.8054996], [-25.533763, 37.8054647], [-25.5337826, 37.8054254], [-25.5337908, 37.8053837]]]]}, "properties": {"highway": "trunk", "junction": "roundabout", "lane_markings": "no", "maxspeed:type": "PT:rural", "ref": "E-N", "surface": "asphalt"}}, {"type": "Feature", "geometry": {"type": "MultiPolygon", "coordinates": [[[[-25.5221069, 37.8075348], [-25.5220903, 37.8074779], [-25.5220528, 37.8074275], [-25.5219978, 37.8073885], [-25.5219305, 37.8073643], [-25.5218962, 37.8073588], [-25.5218612, 37.8073573], [-25.5218024, 37.8073639], [-25.5217474, 37.8073815], [-25.5216994, 37.8074092], [-25.5216615, 37.8074453], [-25.5216358, 37.8074876], [-25.5216257, 37.807521], [-25.5216268, 37.8075819], [-25.5216521, 37.8076394], [-25.521699, 37.8076877], [-25.5217628, 37.807722], [-25.5218369, 37.8077387], [-25.521877, 37.8077398], [-25.5219336, 37.8077322], [-25.5219863, 37.8077144], [-25.5220322, 37.8076873], [-25.5220687, 37.8076524], [-25.5220939, 37.8076118], [-25.5221009, 37.807593], [-25.5221069, 37.8075348]]]]}, "properties": {"highway": "trunk", "junction": "roundabout", "lanes": "2", "maxspeed": "80", "ref": "E-N", "surface": "asphalt"}}]}