{"type": "FeatureCollection", "features": [{"type": "Feature", "geometry": {"type": "LineString", "coordinates": [[-6.7545856, 41.8195181], [-6.7544841, 41.8195979], [-6.7542804, 41.8197885], [-6.7541541, 41.8199839], [-6.754094, 41.8204124], [-6.7540642, 41.8211059], [-6.7540441, 41.8212583]]}, "properties": {"destination": "IP4 Vila Real; Porto", "highway": "primary", "oneway": "yes", "ref": "EM 103-7", "surface": "asphalt"}}, {"type": "Feature", "geometry": {"type": "LineString", "coordinates": [[-6.7522749, 41.8228398], [-6.7527431, 41.8226264], [-6.7533043, 41.8223058]]}, "properties": {"highway": "primary", "oneway": "yes", "ref": "EM 103-7", "surface": "asphalt"}}, {"type": "Feature", "geometry": {"type": "LineString", "coordinates": [[-6.7538103, 41.8218952], [-6.7539044, 41.8217872]]}, "properties": {"highway": "primary", "oneway": "yes", "ref": "EM 103-7", "surface": "asphalt"}}, {"type": "Feature", "geometry": {"type": "LineString", "coordinates": [[-6.7533043, 41.8223058], [-6.7535584, 41.8221409], [-6.7537209, 41.8220013], [-6.7538103, 41.8218952]]}, "properties": {"highway": "primary", "oneway": "yes", "ref": "EM 103-7", "surface": "asphalt", "turn:lanes": "left|through"}}, {"type": "Feature", "geometry": {"type": "LineString", "coordinates": [[-6.7540441, 41.8212583], [-6.7540111, 41.8214088], [-6.7539566, 41.8215545], [-6.753914, 41.8216413], [-6.7538304, 41.8217647]]}, "properties": {"highway": "primary", "oneway": "yes", "ref": "EM 103-7", "surface": "asphalt", "turn:lanes": "left|through"}}, {"type": "Feature", "geometry": {"type": "LineString", "coordinates": [[-6.7538304, 41.8217647], [-6.7536432, 41.8219714], [-6.7534962, 41.8220932], [-6.7532665, 41.8222668], [-6.7527158, 41.8225978], [-6.7522749, 41.8228398]]}, "properties": {"highway": "primary", "oneway": "yes", "ref": "EM 103-7", "surface": "asphalt"}}, {"type": "Feature", "geometry": {"type": "LineString", "coordinates": [[-6.7539044, 41.8217872], [-6.7539463, 41.821724], [-6.7539892, 41.8216594], [-6.7540443, 41.821565], [-6.7541261, 41.8213354], [-6.7541701, 41.8211085], [-6.7542141, 41.8204188], [-6.7542828, 41.8200223], [-6.754403, 41.819856], [-6.7546015, 41.8197034], [-6.7546912, 41.8196701], [-6.7547334, 41.8196544]]}, "properties": {"highway": "primary", "oneway": "yes", "ref": "EM 103-7", "surface": "asphalt"}}]}