{"type": "FeatureCollection", "features": [{"type": "Feature", "geometry": {"type": "LineString", "coordinates": [[-9.1500486, 38.6401631], [-9.1501126, 38.6401961], [-9.1501509, 38.6402265], [-9.1501877, 38.6402684], [-9.1502312, 38.6403301], [-9.150416, 38.6406237]]}, "properties": {"highway": "primary", "lanes": "1", "name": "Avenida 25 de Abril", "old_ref": "EN 10", "oneway": "yes", "ref": "EM 10"}}, {"type": "Feature", "geometry": {"type": "LineString", "coordinates": [[-9.1529715, 38.6500529], [-9.1529602, 38.649918], [-9.1529544, 38.6498002], [-9.1529928, 38.6489967], [-9.1530102, 38.6488318], [-9.1530665, 38.6482981], [-9.1530758, 38.6482362], [-9.1531469, 38.6478037], [-9.1531475, 38.6476193]]}, "properties": {"highway": "primary", "lanes": "1", "maxspeed": "50", "name": "Avenida 23 de Julho", "name:etymology": "Batalha da Cova da Piedade", "name:etymology:wikidata": "Q9650983", "old_ref": "EN 10", "oneway": "yes", "ref": "EM 10"}}, {"type": "Feature", "geometry": {"type": "LineString", "coordinates": [[-9.152915, 38.6489339], [-9.1529017, 38.6490391], [-9.1528482, 38.6497892], [-9.1528486, 38.6499189], [-9.1528632, 38.6500728]]}, "properties": {"highway": "primary", "lanes": "3", "maxspeed": "50", "name": "Avenida 23 de Julho", "name:etymology": "Batalha da Cova da Piedade", "name:etymology:wikidata": "Q9650983", "old_ref": "EN 10", "oneway": "yes", "ref": "EM 10", "turn:lanes": "left|through|right"}}, {"type": "Feature", "geometry": {"type": "LineString", "coordinates": [[-9.153058, 38.6508495], [-9.1530155, 38.6504851], [-9.1529807, 38.6501897], [-9.1529715, 38.6500529]]}, "properties": {"highway": "primary", "lanes": "3", "name": "Avenida 23 de Julho", "name:etymology": "Batalha da Cova da Piedade", "name:etymology:wikidata": "Q9650983", "old_ref": "EN 10", "oneway": "yes", "ref": "EM 10", "surface": "asphalt", "turn:lanes": "left|through|right"}}, {"type": "Feature", "geometry": {"type": "LineString", "coordinates": [[-9.1600677, 38.6655405], [-9.1600354, 38.6657426], [-9.1600386, 38.665888]]}, "properties": {"highway": "primary", "name": "Avenida 23 de Julho", "name:etymology": "Batalha da Cova da Piedade", "name:etymology:wikidata": "Q9650983", "old_ref": "EN 10", "oneway": "yes", "ref": "EM 10", "sidewalk": "right", "surface": "asphalt"}}, {"type": "Feature", "geometry": {"type": "LineString", "coordinates": [[-9.1600677, 38.6655405], [-9.1600519, 38.6652451], [-9.160031, 38.6650576], [-9.1600132, 38.6649577], [-9.1599991, 38.6648791], [-9.1599376, 38.6646329], [-9.1598632, 38.6644181]]}, "properties": {"highway": "primary", "lanes": "2", "name": "Avenida 23 de Julho", "name:etymology": "Batalha da Cova da Piedade", "name:etymology:wikidata": "Q9650983", "old_ref": "EN 10", "ref": "EM 10"}}, {"type": "Feature", "geometry": {"type": "LineString", "coordinates": [[-9.1555036, 38.6582324], [-9.1554309, 38.6581281], [-9.1549675, 38.6574632], [-9.1547786, 38.6572096], [-9.1546066, 38.6569479], [-9.1544902, 38.6566629]]}, "properties": {"highway": "primary", "name": "Avenida 23 de Julho", "name:etymology": "Batalha da Cova da Piedade", "name:etymology:wikidata": "Q9650983", "old_ref": "EN 10", "ref": "EM 10", "surface": "asphalt"}}, {"type": "Feature", "geometry": {"type": "LineString", "coordinates": [[-9.1574588, 38.6609235], [-9.1573666, 38.660798], [-9.1570235, 38.6603229], [-9.1569487, 38.6602087], [-9.1569328, 38.6601865], [-9.1568138, 38.6599716], [-9.1566421, 38.6597437]]}, "properties": {"highway": "primary", "name": "Avenida 23 de Julho", "name:etymology": "Batalha da Cova da Piedade", "name:etymology:wikidata": "Q9650983", "old_ref": "EN 10", "ref": "EM 10", "surface": "asphalt"}}, {"type": "Feature", "geometry": {"type": "LineString", "coordinates": [[-9.1531475, 38.6476193], [-9.1531563, 38.6475356], [-9.1531573, 38.6474036], [-9.1531504, 38.6472575], [-9.1531315, 38.6470847], [-9.153106, 38.6469302], [-9.1530431, 38.6466354], [-9.152958, 38.6462709], [-9.1527582, 38.6454092], [-9.1526789, 38.6450655], [-9.1525182, 38.6443693], [-9.1524126, 38.6439257], [-9.1523804, 38.6438036], [-9.1523547, 38.6437182], [-9.152298, 38.6435774], [-9.1522283, 38.6434164], [-9.1522013, 38.6433614], [-9.1521475, 38.643252], [-9.1521103, 38.6431853], [-9.1520181, 38.6430217], [-9.151933, 38.6428827], [-9.1519042, 38.6428395], [-9.1518488, 38.6427563], [-9.1515754, 38.6423461], [-9.1515257, 38.6422746], [-9.1514848, 38.6422158], [-9.151446, 38.6421599]]}, "properties": {"highway": "primary", "maxspeed": "60", "name": "Avenida 25 de Abril", "old_ref": "EN 10", "oneway": "no", "ref": "EM 10"}}, {"type": "Feature", "geometry": {"type": "LineString", "coordinates": [[-9.1540817, 38.6549583], [-9.153996, 38.6545707], [-9.1539511, 38.6543813], [-9.1538784, 38.6542406]]}, "properties": {"highway": "primary", "lanes": "2", "name": "Avenida 23 de Julho", "name:etymology": "Batalha da Cova da Piedade", "name:etymology:wikidata": "Q9650983", "old_ref": "EN 10", "oneway": "yes", "ref": "EM 10", "surface": "asphalt", "turn:lanes": "left|through"}}, {"type": "Feature", "geometry": {"type": "LineString", "coordinates": [[-9.153058, 38.6508495], [-9.1530948, 38.6509963], [-9.1531024, 38.6510265], [-9.1532267, 38.6514507], [-9.1534409, 38.6523357], [-9.1535799, 38.65291], [-9.1537229, 38.6535006], [-9.1537436, 38.6536359], [-9.1537511, 38.6536845]]}, "properties": {"highway": "primary", "lanes": "2", "name": "Avenida 23 de Julho", "name:etymology": "Batalha da Cova da Piedade", "name:etymology:wikidata": "Q9650983", "old_ref": "EN 10", "oneway": "no", "ref": "EM 10", "surface": "asphalt"}}, {"type": "Feature", "geometry": {"type": "LineString", "coordinates": [[-9.1511932, 38.6773184], [-9.1512943, 38.6771341], [-9.151462, 38.6768409], [-9.1514707, 38.6768251], [-9.1516169, 38.6765747], [-9.1516511, 38.6765165], [-9.1519904, 38.6759395], [-9.1522321, 38.6755636], [-9.1524987, 38.675199], [-9.1528356, 38.6748072], [-9.1532117, 38.6744242], [-9.1535365, 38.6741439], [-9.1535777, 38.6741082], [-9.1541767, 38.6735946]]}, "properties": {"highway": "primary", "lit": "yes", "maxspeed": "50", "name": "Avenida Alian\u00e7a Povo MFA", "name:etymology:wikidata": "Q586948", "old_ref": "EN 10", "oneway": "no", "ref": "EM 10", "surface": "asphalt"}}, {"type": "Feature", "geometry": {"type": "LineString", "coordinates": [[-9.1511932, 38.6773184], [-9.1509388, 38.6776528], [-9.1505006, 38.6784009], [-9.1501679, 38.6789699], [-9.1499444, 38.6793551]]}, "properties": {"highway": "primary", "name": "Avenida Alian\u00e7a Povo MFA", "name:etymology:wikidata": "Q586948", "old_ref": "EN 10", "oneway": "yes", "ref": "EM 10", "surface": "asphalt"}}, {"type": "Feature", "geometry": {"type": "LineString", "coordinates": [[-9.1538784, 38.6542406], [-9.1538717, 38.6543937], [-9.1540616, 38.6551886], [-9.1541278, 38.6553157]]}, "properties": {"highway": "primary", "lanes": "2", "name": "Avenida 23 de Julho", "name:etymology": "Batalha da Cova da Piedade", "name:etymology:wikidata": "Q9650983", "old_ref": "EN 10", "oneway": "yes", "ref": "EM 10", "surface": "asphalt", "turn:lanes": "left|through"}}, {"type": "Feature", "geometry": {"type": "LineString", "coordinates": [[-9.1538784, 38.6542406], [-9.1538451, 38.6540995], [-9.1537511, 38.6536845]]}, "properties": {"highway": "primary", "lanes": "3", "lanes:backward": "2", "name": "Avenida 23 de Julho", "name:etymology": "Batalha da Cova da Piedade", "name:etymology:wikidata": "Q9650983", "old_ref": "EN 10", "oneway": "no", "ref": "EM 10", "surface": "asphalt", "turn:lanes:backward": "through|right"}}, {"type": "Feature", "geometry": {"type": "LineString", "coordinates": [[-9.1529081, 38.6504112], [-9.1529234, 38.6504926], [-9.153058, 38.6508495]]}, "properties": {"highway": "primary", "lanes": "1", "name": "Avenida 23 de Julho", "name:etymology": "Batalha da Cova da Piedade", "name:etymology:wikidata": "Q9650983", "old_ref": "EN 10", "oneway": "yes", "ref": "EM 10", "surface": "asphalt"}}, {"type": "Feature", "geometry": {"type": "LineString", "coordinates": [[-9.1599223, 38.6665394], [-9.1598566, 38.6667826], [-9.1597668, 38.6670162], [-9.1596929, 38.6672189], [-9.159638, 38.6673571]]}, "properties": {"highway": "primary", "lanes": "2", "name": "Avenida 23 de Julho", "name:etymology": "Batalha da Cova da Piedade", "name:etymology:wikidata": "Q9650983", "old_ref": "EN 10", "oneway": "yes", "ref": "EM 10", "sidewalk": "right", "surface": "asphalt"}}, {"type": "Feature", "geometry": {"type": "LineString", "coordinates": [[-9.1598799, 38.6669563], [-9.1599083, 38.6668416], [-9.1599562, 38.6667099], [-9.1599902, 38.6665515], [-9.1600153, 38.6664523], [-9.1600487, 38.6663072], [-9.1600924, 38.6660713]]}, "properties": {"highway": "primary", "lanes": "1", "name": "Avenida 23 de Julho", "name:etymology": "Batalha da Cova da Piedade", "name:etymology:wikidata": "Q9650983", "old_ref": "EN 10", "oneway": "yes", "ref": "EM 10", "surface": "asphalt"}}, {"type": "Feature", "geometry": {"type": "LineString", "coordinates": [[-9.1600924, 38.6660713], [-9.1601058, 38.6659098], [-9.1601018, 38.6657401], [-9.1600677, 38.6655405]]}, "properties": {"highway": "primary", "name": "Avenida 23 de Julho", "name:etymology": "Batalha da Cova da Piedade", "name:etymology:wikidata": "Q9650983", "old_ref": "EN 10", "oneway": "yes", "ref": "EM 10", "sidewalk": "right", "surface": "asphalt"}}, {"type": "Feature", "geometry": {"type": "LineString", "coordinates": [[-9.151446, 38.6421599], [-9.1510456, 38.6415531], [-9.1509177, 38.6413624], [-9.1508888, 38.6413194], [-9.1507617, 38.6411299], [-9.1507059, 38.6410365]]}, "properties": {"highway": "primary", "maxspeed": "60", "name": "Avenida 25 de Abril", "old_ref": "EN 10", "oneway": "no", "ref": "EM 10"}}, {"type": "Feature", "geometry": {"type": "LineString", "coordinates": [[-9.1600386, 38.665888], [-9.1599897, 38.66629], [-9.159949, 38.6664405]]}, "properties": {"highway": "primary", "lanes": "2", "name": "Avenida 23 de Julho", "name:etymology": "Batalha da Cova da Piedade", "name:etymology:wikidata": "Q9650983", "old_ref": "EN 10", "oneway": "yes", "ref": "EM 10", "sidewalk": "right", "surface": "asphalt", "turn:lanes": "left|through"}}, {"type": "Feature", "geometry": {"type": "LineString", "coordinates": [[-9.1468342, 38.6847383], [-9.1468116, 38.6847846], [-9.1467492, 38.6848942]]}, "properties": {"highway": "primary", "name": "Avenida Alian\u00e7a Povo MFA", "name:etymology:wikidata": "Q586948", "old_ref": "EN 10", "oneway": "yes", "ref": "EM 10", "surface": "asphalt"}}, {"type": "Feature", "geometry": {"type": "LineString", "coordinates": [[-9.1550694, 38.6728428], [-9.1552098, 38.6727248]]}, "properties": {"highway": "primary", "lit": "yes", "name": "Avenida Ant\u00f3nio Jos\u00e9 Gomes", "name:etymology:wikidata": "Q131830009", "old_ref": "EN 10", "ref": "EM 10", "surface": "asphalt"}}, {"type": "Feature", "geometry": {"type": "LineString", "coordinates": [[-9.1573563, 38.6708238], [-9.1572763, 38.6708939], [-9.1571495, 38.6710523]]}, "properties": {"highway": "primary", "lit": "yes", "name": "Avenida Ant\u00f3nio Jos\u00e9 Gomes", "name:etymology:wikidata": "Q131830009", "old_ref": "EN 10", "oneway": "yes", "ref": "EM 10", "surface": "asphalt"}}, {"type": "Feature", "geometry": {"type": "LineString", "coordinates": [[-9.1587428, 38.6695194], [-9.1585134, 38.6697525], [-9.1584519, 38.669812]]}, "properties": {"highway": "primary", "lit": "yes", "name": "Avenida 23 de Julho", "name:etymology": "Batalha da Cova da Piedade", "name:etymology:wikidata": "Q9650983", "old_ref": "EN 10", "oneway": "yes", "ref": "EM 10", "sidewalk": "right", "surface": "asphalt"}}, {"type": "Feature", "geometry": {"type": "LineString", "coordinates": [[-9.1581892, 38.6701133], [-9.1584257, 38.6699575], [-9.1585713, 38.6698388]]}, "properties": {"highway": "primary", "lit": "yes", "name": "Largo 5 de Outubro", "name:etymology": "Implanta\u00e7\u00e3o da Rep\u00fablica Portuguesa", "name:etymology:wikidata": "Q638903", "old_ref": "EN 10", "oneway": "yes", "ref": "EM 10", "sidewalk": "right", "surface": "asphalt"}}, {"type": "Feature", "geometry": {"type": "LineString", "coordinates": [[-9.1542898, 38.6560187], [-9.1541579, 38.6554063], [-9.1541278, 38.6553157]]}, "properties": {"highway": "primary", "lanes": "3", "lanes:backward": "1", "lanes:forward": "2", "name": "Avenida 23 de Julho", "name:etymology": "Batalha da Cova da Piedade", "name:etymology:wikidata": "Q9650983", "old_ref": "EN 10", "ref": "EM 10", "surface": "asphalt", "turn:lanes:forward": "through|right"}}, {"type": "Feature", "geometry": {"type": "LineString", "coordinates": [[-9.1576895, 38.6705705], [-9.1578447, 38.6704935], [-9.1579485, 38.6703271]]}, "properties": {"highway": "primary", "lit": "yes", "name": "Largo 5 de Outubro", "name:etymology": "Implanta\u00e7\u00e3o da Rep\u00fablica Portuguesa", "name:etymology:wikidata": "Q638903", "old_ref": "EN 10", "oneway": "yes", "ref": "EM 10", "surface": "asphalt"}}, {"type": "Feature", "geometry": {"type": "LineString", "coordinates": [[-9.1579485, 38.6703271], [-9.1577742, 38.670441], [-9.1576895, 38.6705705]]}, "properties": {"highway": "primary", "lit": "yes", "name": "Largo 5 de Outubro", "name:etymology": "Implanta\u00e7\u00e3o da Rep\u00fablica Portuguesa", "name:etymology:wikidata": "Q638903", "old_ref": "EN 10", "oneway": "yes", "ref": "EM 10", "surface": "asphalt"}}, {"type": "Feature", "geometry": {"type": "LineString", "coordinates": [[-9.1579485, 38.6703271], [-9.158112, 38.6701819]]}, "properties": {"highway": "primary", "lit": "yes", "name": "Largo 5 de Outubro", "name:etymology": "Implanta\u00e7\u00e3o da Rep\u00fablica Portuguesa", "name:etymology:wikidata": "Q638903", "old_ref": "EN 10", "ref": "EM 10", "surface": "asphalt"}}, {"type": "Feature", "geometry": {"type": "LineString", "coordinates": [[-9.1596145, 38.6675468], [-9.1594984, 38.6678907]]}, "properties": {"highway": "primary", "name": "Avenida 23 de Julho", "name:etymology": "Batalha da Cova da Piedade", "name:etymology:wikidata": "Q9650983", "old_ref": "EN 10", "ref": "EM 10", "sidewalk": "right", "surface": "asphalt"}}, {"type": "Feature", "geometry": {"type": "LineString", "coordinates": [[-9.1589219, 38.6694932], [-9.1589703, 38.6694364], [-9.1590082, 38.6693547]]}, "properties": {"highway": "primary", "lit": "yes", "name": "Avenida 23 de Julho", "name:etymology": "Batalha da Cova da Piedade", "name:etymology:wikidata": "Q9650983", "old_ref": "EN 10", "oneway": "yes", "ref": "EM 10", "sidewalk": "right", "surface": "asphalt"}}, {"type": "Feature", "geometry": {"type": "LineString", "coordinates": [[-9.1590188, 38.6692213], [-9.158875, 38.6693855], [-9.158822, 38.66944]]}, "properties": {"highway": "primary", "lit": "yes", "name": "Avenida 23 de Julho", "name:etymology": "Batalha da Cova da Piedade", "name:etymology:wikidata": "Q9650983", "old_ref": "EN 10", "oneway": "yes", "ref": "EM 10", "sidewalk": "right", "surface": "asphalt"}}, {"type": "Feature", "geometry": {"type": "LineString", "coordinates": [[-9.1590188, 38.6692213], [-9.1590638, 38.6691073], [-9.1591154, 38.6689565]]}, "properties": {"highway": "primary", "lit": "yes", "name": "Avenida 23 de Julho", "name:etymology": "Batalha da Cova da Piedade", "name:etymology:wikidata": "Q9650983", "old_ref": "EN 10", "ref": "EM 10", "sidewalk": "right"}}, {"type": "Feature", "geometry": {"type": "LineString", "coordinates": [[-9.1571495, 38.6710523], [-9.1573222, 38.6709291], [-9.1574138, 38.6708536]]}, "properties": {"highway": "primary", "lit": "yes", "name": "Avenida Ant\u00f3nio Jos\u00e9 Gomes", "name:etymology:wikidata": "Q131830009", "old_ref": "EN 10", "oneway": "yes", "ref": "EM 10", "surface": "asphalt"}}, {"type": "Feature", "geometry": {"type": "LineString", "coordinates": [[-9.154728, 38.6730109], [-9.1546854, 38.6730185], [-9.1546469, 38.6730348], [-9.1546154, 38.6730585], [-9.1545958, 38.6730833]]}, "properties": {"highway": "primary", "junction": "roundabout", "lanes": "2", "lit": "yes", "old_ref": "EN 10", "ref": "EM 10", "surface": "asphalt"}}, {"type": "Feature", "geometry": {"type": "LineString", "coordinates": [[-9.1548992, 38.6731686], [-9.1549466, 38.6730864], [-9.1549674, 38.6730428], [-9.1550128, 38.6729764], [-9.1550694, 38.6728428]]}, "properties": {"highway": "primary", "lit": "yes", "name": "Avenida Ant\u00f3nio Jos\u00e9 Gomes", "name:etymology:wikidata": "Q131830009", "old_ref": "EN 10", "oneway": "yes", "ref": "EM 10", "surface": "asphalt"}}, {"type": "Feature", "geometry": {"type": "LineString", "coordinates": [[-9.1547762, 38.6732605], [-9.1548182, 38.6732486], [-9.1548544, 38.6732282], [-9.1548821, 38.6732008], [-9.1548992, 38.6731686]]}, "properties": {"highway": "primary", "junction": "roundabout", "lanes": "2", "lit": "yes", "old_ref": "EN 10", "ref": "EM 10", "surface": "asphalt"}}, {"type": "Feature", "geometry": {"type": "LineString", "coordinates": [[-9.1491959, 38.6809416], [-9.1495091, 38.6804431], [-9.1496893, 38.6801335], [-9.1498217, 38.6798821], [-9.1499854, 38.6795712], [-9.1500893, 38.6793974], [-9.1501745, 38.6792433], [-9.1506246, 38.6784291], [-9.1510366, 38.6776888], [-9.1511932, 38.6773184]]}, "properties": {"highway": "primary", "name": "Avenida Alian\u00e7a Povo MFA", "name:etymology:wikidata": "Q586948", "old_ref": "EN 10", "oneway": "yes", "ref": "EM 10", "surface": "asphalt"}}, {"type": "Feature", "geometry": {"type": "LineString", "coordinates": [[-9.154584, 38.673111], [-9.1545642, 38.6731527], [-9.1545327, 38.6732188], [-9.1545099, 38.6732518], [-9.1544333, 38.6733739]]}, "properties": {"highway": "primary", "lit": "yes", "name": "Avenida Alian\u00e7a Povo MFA", "old_ref": "EN 10", "oneway": "yes", "ref": "EM 10", "surface": "asphalt"}}, {"type": "Feature", "geometry": {"type": "LineString", "coordinates": [[-9.1469295, 38.6845832], [-9.14709, 38.684315], [-9.1471166, 38.6842692], [-9.1471884, 38.6841651], [-9.1473497, 38.683923], [-9.1481291, 38.6827091], [-9.148355, 38.682356], [-9.148469, 38.6821773], [-9.1486742, 38.6818547], [-9.1489047, 38.6814657], [-9.1491959, 38.6809416]]}, "properties": {"highway": "primary", "name": "Avenida Alian\u00e7a Povo MFA", "name:etymology:wikidata": "Q586948", "old_ref": "EN 10", "ref": "EM 10", "surface": "asphalt"}}, {"type": "Feature", "geometry": {"type": "LineString", "coordinates": [[-9.1469881, 38.6848524], [-9.1469623, 38.6847963], [-9.1469399, 38.6847434], [-9.1469314, 38.6847247], [-9.1469237, 38.6846503], [-9.1469295, 38.6845832]]}, "properties": {"highway": "primary", "name": "Avenida Alian\u00e7a Povo MFA", "name:etymology:wikidata": "Q586948", "old_ref": "EN 10", "oneway": "yes", "ref": "EM 10"}}, {"type": "Feature", "geometry": {"type": "LineString", "coordinates": [[-9.1469295, 38.6845832], [-9.1468342, 38.6847383]]}, "properties": {"highway": "primary", "name": "Avenida Alian\u00e7a Povo MFA", "name:etymology:wikidata": "Q586948", "old_ref": "EN 10", "oneway": "yes", "ref": "EM 10", "surface": "asphalt"}}, {"type": "Feature", "geometry": {"type": "LineString", "coordinates": [[-9.1499444, 38.6793551], [-9.149857, 38.6795307], [-9.1495807, 38.6800811], [-9.1494105, 38.6804203], [-9.1491959, 38.6809416]]}, "properties": {"highway": "primary", "name": "Avenida Alian\u00e7a Povo MFA", "name:etymology:wikidata": "Q586948", "old_ref": "EN 10", "oneway": "yes", "ref": "EM 10"}}, {"type": "Feature", "geometry": {"type": "LineString", "coordinates": [[-9.155288, 38.672649], [-9.1557991, 38.6722104], [-9.1559398, 38.6720916], [-9.1560783, 38.6719746]]}, "properties": {"highway": "primary", "lit": "yes", "name": "Avenida Ant\u00f3nio Jos\u00e9 Gomes", "name:etymology:wikidata": "Q131830009", "old_ref": "EN 10", "ref": "EM 10", "surface": "asphalt"}}, {"type": "Feature", "geometry": {"type": "LineString", "coordinates": [[-9.1560783, 38.6719746], [-9.1566446, 38.6714834]]}, "properties": {"highway": "primary", "lit": "yes", "name": "Avenida Ant\u00f3nio Jos\u00e9 Gomes", "name:etymology:wikidata": "Q131830009", "old_ref": "EN 10", "ref": "EM 10", "surface": "asphalt"}}, {"type": "Feature", "geometry": {"type": "LineString", "coordinates": [[-9.1566446, 38.6714834], [-9.1567497, 38.6713931], [-9.1569349, 38.6712338]]}, "properties": {"highway": "primary", "lit": "yes", "name": "Avenida Ant\u00f3nio Jos\u00e9 Gomes", "name:etymology:wikidata": "Q131830009", "old_ref": "EN 10", "ref": "EM 10", "surface": "asphalt"}}, {"type": "Feature", "geometry": {"type": "LineString", "coordinates": [[-9.1569349, 38.6712338], [-9.1571495, 38.6710523]]}, "properties": {"highway": "primary", "lit": "yes", "name": "Avenida Ant\u00f3nio Jos\u00e9 Gomes", "name:etymology:wikidata": "Q131830009", "old_ref": "EN 10", "ref": "EM 10", "surface": "asphalt"}}, {"type": "Feature", "geometry": {"type": "LineString", "coordinates": [[-9.1574138, 38.6708536], [-9.1574464, 38.6707882]]}, "properties": {"highway": "primary", "lit": "yes", "name": "Largo 5 de Outubro", "name:etymology": "Implanta\u00e7\u00e3o da Rep\u00fablica Portuguesa", "name:etymology:wikidata": "Q638903", "old_ref": "EN 10", "oneway": "yes", "ref": "EM 10", "surface": "asphalt"}}, {"type": "Feature", "geometry": {"type": "LineString", "coordinates": [[-9.158112, 38.6701819], [-9.1581892, 38.6701133]]}, "properties": {"highway": "primary", "lit": "yes", "name": "Largo 5 de Outubro", "name:etymology": "Implanta\u00e7\u00e3o da Rep\u00fablica Portuguesa", "name:etymology:wikidata": "Q638903", "old_ref": "EN 10", "ref": "EM 10", "surface": "asphalt"}}, {"type": "Feature", "geometry": {"type": "LineString", "coordinates": [[-9.1585713, 38.6698388], [-9.1586375, 38.6697794], [-9.1587788, 38.6696388], [-9.1588482, 38.6695698]]}, "properties": {"highway": "primary", "lit": "yes", "name": "Avenida 23 de Julho", "name:etymology": "Batalha da Cova da Piedade", "name:etymology:wikidata": "Q9650983", "old_ref": "EN 10", "oneway": "yes", "ref": "EM 10", "sidewalk": "right", "surface": "asphalt"}}, {"type": "Feature", "geometry": {"type": "LineString", "coordinates": [[-9.1584519, 38.669812], [-9.1583535, 38.6699069], [-9.1581892, 38.6701133]]}, "properties": {"highway": "primary", "lit": "yes", "name": "Largo 5 de Outubro", "name:etymology": "Implanta\u00e7\u00e3o da Rep\u00fablica Portuguesa", "name:etymology:wikidata": "Q638903", "old_ref": "EN 10", "oneway": "yes", "ref": "EM 10", "sidewalk": "right", "surface": "asphalt"}}, {"type": "Feature", "geometry": {"type": "LineString", "coordinates": [[-9.1590082, 38.6693547], [-9.1590188, 38.6692213]]}, "properties": {"highway": "primary", "lit": "yes", "name": "Avenida 23 de Julho", "name:etymology": "Batalha da Cova da Piedade", "name:etymology:wikidata": "Q9650983", "old_ref": "EN 10", "oneway": "yes", "ref": "EM 10", "sidewalk": "right", "surface": "asphalt"}}, {"type": "Feature", "geometry": {"type": "LineString", "coordinates": [[-9.1591986, 38.6687404], [-9.1593575, 38.6682566]]}, "properties": {"highway": "primary", "lit": "yes", "name": "Avenida 23 de Julho", "name:etymology": "Batalha da Cova da Piedade", "name:etymology:wikidata": "Q9650983", "old_ref": "EN 10", "ref": "EM 10", "sidewalk": "right"}}, {"type": "Feature", "geometry": {"type": "LineString", "coordinates": [[-9.1591154, 38.6689565], [-9.1591986, 38.6687404]]}, "properties": {"highway": "primary", "lit": "yes", "name": "Avenida 23 de Julho", "name:etymology": "Batalha da Cova da Piedade", "name:etymology:wikidata": "Q9650983", "old_ref": "EN 10", "ref": "EM 10", "sidewalk": "right"}}, {"type": "Feature", "geometry": {"type": "LineString", "coordinates": [[-9.159384, 38.6681814], [-9.1593575, 38.6682566]]}, "properties": {"highway": "primary", "lit": "yes", "name": "Avenida 23 de Julho", "name:etymology": "Batalha da Cova da Piedade", "name:etymology:wikidata": "Q9650983", "old_ref": "EN 10", "ref": "EM 10", "sidewalk": "right", "surface": "asphalt"}}, {"type": "Feature", "geometry": {"type": "LineString", "coordinates": [[-9.1594678, 38.6679725], [-9.1594056, 38.6681279], [-9.159384, 38.6681814]]}, "properties": {"highway": "primary", "name": "Avenida 23 de Julho", "name:etymology": "Batalha da Cova da Piedade", "name:etymology:wikidata": "Q9650983", "old_ref": "EN 10", "ref": "EM 10", "sidewalk": "right", "surface": "asphalt"}}, {"type": "Feature", "geometry": {"type": "LineString", "coordinates": [[-9.1594984, 38.6678907], [-9.1594678, 38.6679725]]}, "properties": {"highway": "primary", "name": "Avenida 23 de Julho", "name:etymology": "Batalha da Cova da Piedade", "name:etymology:wikidata": "Q9650983", "old_ref": "EN 10", "ref": "EM 10", "sidewalk": "right", "surface": "asphalt"}}, {"type": "Feature", "geometry": {"type": "LineString", "coordinates": [[-9.1598632, 38.6644181], [-9.1598179, 38.6642626], [-9.1597562, 38.6641239], [-9.1596864, 38.6639669], [-9.1595717, 38.6637088], [-9.1594712, 38.6635669]]}, "properties": {"highway": "primary", "lanes": "2", "name": "Avenida 23 de Julho", "name:etymology": "Batalha da Cova da Piedade", "name:etymology:wikidata": "Q9650983", "old_ref": "EN 10", "ref": "EM 10"}}, {"type": "Feature", "geometry": {"type": "LineString", "coordinates": [[-9.1594712, 38.6635669], [-9.1593007, 38.6633263], [-9.1591364, 38.6631217]]}, "properties": {"highway": "primary", "lanes": "2", "name": "Avenida 23 de Julho", "name:etymology": "Batalha da Cova da Piedade", "name:etymology:wikidata": "Q9650983", "old_ref": "EN 10", "ref": "EM 10"}}, {"type": "Feature", "geometry": {"type": "LineString", "coordinates": [[-9.1591364, 38.6631217], [-9.1590166, 38.6629725], [-9.1589393, 38.6628731]]}, "properties": {"highway": "primary", "lanes": "2", "name": "Avenida 23 de Julho", "name:etymology": "Batalha da Cova da Piedade", "name:etymology:wikidata": "Q9650983", "old_ref": "EN 10", "ref": "EM 10", "surface": "asphalt"}}, {"type": "Feature", "geometry": {"type": "LineString", "coordinates": [[-9.1582415, 38.6619768], [-9.1577375, 38.6612966], [-9.1575826, 38.6610892], [-9.1574588, 38.6609235]]}, "properties": {"highway": "primary", "lanes": "3", "lanes:backward": "1", "lanes:forward": "2", "name": "Avenida 23 de Julho", "name:etymology": "Batalha da Cova da Piedade", "name:etymology:wikidata": "Q9650983", "old_ref": "EN 10", "ref": "EM 10", "surface": "asphalt", "turn:lanes:forward": "through|right"}}, {"type": "Feature", "geometry": {"type": "LineString", "coordinates": [[-9.1566421, 38.6597437], [-9.1558807, 38.6587023], [-9.1558075, 38.658617]]}, "properties": {"highway": "primary", "lanes": "2", "name": "Avenida 23 de Julho", "name:etymology": "Batalha da Cova da Piedade", "name:etymology:wikidata": "Q9650983", "old_ref": "EN 10", "ref": "EM 10", "surface": "asphalt"}}, {"type": "Feature", "geometry": {"type": "LineString", "coordinates": [[-9.159638, 38.6673571], [-9.1596145, 38.6675468]]}, "properties": {"highway": "primary", "name": "Avenida 23 de Julho", "name:etymology": "Batalha da Cova da Piedade", "name:etymology:wikidata": "Q9650983", "old_ref": "EN 10", "oneway": "yes", "ref": "EM 10", "sidewalk": "right", "surface": "asphalt"}}, {"type": "Feature", "geometry": {"type": "LineString", "coordinates": [[-9.158822, 38.66944], [-9.1587428, 38.6695194]]}, "properties": {"highway": "primary", "lit": "yes", "name": "Avenida 23 de Julho", "name:etymology": "Batalha da Cova da Piedade", "name:etymology:wikidata": "Q9650983", "old_ref": "EN 10", "oneway": "yes", "ref": "EM 10", "sidewalk": "right", "surface": "asphalt"}}, {"type": "Feature", "geometry": {"type": "LineString", "coordinates": [[-9.1588482, 38.6695698], [-9.1589219, 38.6694932]]}, "properties": {"highway": "primary", "lit": "yes", "name": "Avenida 23 de Julho", "name:etymology": "Batalha da Cova da Piedade", "name:etymology:wikidata": "Q9650983", "old_ref": "EN 10", "oneway": "yes", "ref": "EM 10", "sidewalk": "right", "surface": "asphalt"}}, {"type": "Feature", "geometry": {"type": "LineString", "coordinates": [[-9.1596145, 38.6675468], [-9.1597279, 38.6673613], [-9.1597835, 38.6672021], [-9.1598799, 38.6669563]]}, "properties": {"highway": "primary", "lanes": "1", "name": "Avenida 23 de Julho", "name:etymology": "Batalha da Cova da Piedade", "name:etymology:wikidata": "Q9650983", "old_ref": "EN 10", "oneway": "yes", "ref": "EM 10", "surface": "asphalt"}}, {"type": "Feature", "geometry": {"type": "LineString", "coordinates": [[-9.1505418, 38.6407492], [-9.1505176, 38.6405764], [-9.1503688, 38.6402196], [-9.1503534, 38.6401589], [-9.1503614, 38.640066]]}, "properties": {"highway": "primary", "lanes": "1", "name": "Avenida 25 de Abril", "old_ref": "EN 10", "oneway": "yes", "ref": "EM 10"}}, {"type": "Feature", "geometry": {"type": "LineString", "coordinates": [[-9.1507059, 38.6410365], [-9.1505712, 38.6408078]]}, "properties": {"highway": "primary", "maxspeed": "60", "name": "Avenida 25 de Abril", "old_ref": "EN 10", "oneway": "no", "ref": "EM 10"}}, {"type": "Feature", "geometry": {"type": "LineString", "coordinates": [[-9.1544333, 38.6733739], [-9.1545735, 38.6732997], [-9.1546308, 38.6732784], [-9.1547316, 38.6732629]]}, "properties": {"highway": "primary", "lit": "yes", "name": "Avenida Alian\u00e7a Povo MFA", "old_ref": "EN 10", "oneway": "yes", "ref": "EM 10", "surface": "asphalt"}}, {"type": "Feature", "geometry": {"type": "LineString", "coordinates": [[-9.1548992, 38.6731686], [-9.1549044, 38.6731339], [-9.1548972, 38.6730995], [-9.1548783, 38.6730679], [-9.1548497, 38.673042], [-9.1548133, 38.6730231], [-9.1547717, 38.6730125], [-9.154728, 38.6730109]]}, "properties": {"highway": "primary", "junction": "roundabout", "lanes": "2", "lit": "yes", "old_ref": "EN 10", "ref": "EM 10", "surface": "asphalt"}}, {"type": "Feature", "geometry": {"type": "LineString", "coordinates": [[-9.1550694, 38.6728428], [-9.1549265, 38.672925], [-9.1548923, 38.6729475], [-9.1548253, 38.6729763], [-9.154728, 38.6730109]]}, "properties": {"highway": "primary", "lit": "yes", "name": "Avenida Ant\u00f3nio Jos\u00e9 Gomes", "name:etymology:wikidata": "Q131830009", "old_ref": "EN 10", "oneway": "yes", "ref": "EM 10", "surface": "asphalt"}}, {"type": "Feature", "geometry": {"type": "LineString", "coordinates": [[-9.154584, 38.673111], [-9.1545806, 38.67314], [-9.1545859, 38.6731689], [-9.1545994, 38.673196], [-9.1546206, 38.67322], [-9.1546483, 38.6732396], [-9.1546878, 38.6732558], [-9.1547316, 38.6732629]]}, "properties": {"highway": "primary", "junction": "roundabout", "lanes": "2", "lit": "yes", "old_ref": "EN 10", "ref": "EM 10", "surface": "asphalt"}}, {"type": "Feature", "geometry": {"type": "LineString", "coordinates": [[-9.1552098, 38.6727248], [-9.155288, 38.672649]]}, "properties": {"highway": "primary", "lit": "yes", "name": "Avenida Ant\u00f3nio Jos\u00e9 Gomes", "old_ref": "EN 10", "ref": "EM 10", "surface": "asphalt"}}, {"type": "Feature", "geometry": {"type": "LineString", "coordinates": [[-9.1574464, 38.6707882], [-9.1573563, 38.6708238]]}, "properties": {"highway": "primary", "lit": "yes", "name": "Largo 5 de Outubro", "name:etymology": "Implanta\u00e7\u00e3o da Rep\u00fablica Portuguesa", "name:etymology:wikidata": "Q638903", "old_ref": "EN 10", "oneway": "yes", "ref": "EM 10", "surface": "asphalt"}}, {"type": "Feature", "geometry": {"type": "LineString", "coordinates": [[-9.1528632, 38.6500728], [-9.1529081, 38.6504112]]}, "properties": {"highway": "primary", "lanes": "1", "name": "Avenida 23 de Julho", "name:etymology": "Batalha da Cova da Piedade", "name:etymology:wikidata": "Q9650983", "old_ref": "EN 10", "oneway": "yes", "ref": "EM 10", "surface": "asphalt"}}, {"type": "Feature", "geometry": {"type": "LineString", "coordinates": [[-9.1547316, 38.6732629], [-9.1547762, 38.6732605]]}, "properties": {"highway": "primary", "junction": "roundabout", "lanes": "2", "lit": "yes", "old_ref": "EN 10", "ref": "EM 10", "surface": "asphalt"}}, {"type": "Feature", "geometry": {"type": "LineString", "coordinates": [[-9.1541767, 38.6735946], [-9.15431, 38.67348], [-9.1544333, 38.6733739]]}, "properties": {"highway": "primary", "lit": "yes", "maxspeed": "50", "name": "Avenida Alian\u00e7a Povo MFA", "old_ref": "EN 10", "oneway": "no", "ref": "EM 10", "surface": "asphalt"}}, {"type": "Feature", "geometry": {"type": "LineString", "coordinates": [[-9.1545958, 38.6730833], [-9.154584, 38.673111]]}, "properties": {"highway": "primary", "junction": "roundabout", "lanes": "2", "lit": "yes", "old_ref": "EN 10", "ref": "EM 10", "surface": "asphalt"}}, {"type": "Feature", "geometry": {"type": "LineString", "coordinates": [[-9.157478, 38.6707599], [-9.1576895, 38.6705705]]}, "properties": {"highway": "primary", "lit": "yes", "name": "Largo 5 de Outubro", "name:etymology": "Implanta\u00e7\u00e3o da Rep\u00fablica Portuguesa", "name:etymology:wikidata": "Q638903", "old_ref": "EN 10", "ref": "EM 10", "sidewalk": "both", "surface": "asphalt"}}, {"type": "Feature", "geometry": {"type": "LineString", "coordinates": [[-9.1531475, 38.6476193], [-9.1530687, 38.647799], [-9.1530624, 38.647876], [-9.153002, 38.6482318], [-9.1529955, 38.648297], [-9.1529354, 38.6487729], [-9.1529292, 38.6488218], [-9.1529267, 38.6488415], [-9.152915, 38.6489339]]}, "properties": {"highway": "primary", "lanes": "1", "maxspeed": "50", "name": "Avenida 23 de Julho", "name:etymology": "Batalha da Cova da Piedade", "name:etymology:wikidata": "Q9650983", "old_ref": "EN 10", "oneway": "yes", "ref": "EM 10"}}, {"type": "Feature", "geometry": {"type": "LineString", "coordinates": [[-9.1589393, 38.6628731], [-9.1584022, 38.6621833], [-9.1582415, 38.6619768]]}, "properties": {"highway": "primary", "lanes": "2", "name": "Avenida 23 de Julho", "name:etymology": "Batalha da Cova da Piedade", "name:etymology:wikidata": "Q9650983", "old_ref": "EN 10", "ref": "EM 10", "surface": "asphalt"}}, {"type": "Feature", "geometry": {"type": "LineString", "coordinates": [[-9.1558075, 38.658617], [-9.1555321, 38.6582703], [-9.1555036, 38.6582324]]}, "properties": {"highway": "primary", "lanes": "3", "lanes:backward": "1", "lanes:forward": "2", "name": "Avenida 23 de Julho", "name:etymology": "Batalha da Cova da Piedade", "name:etymology:wikidata": "Q9650983", "old_ref": "EN 10", "ref": "EM 10", "surface": "asphalt", "turn:lanes:forward": "left|through"}}, {"type": "Feature", "geometry": {"type": "LineString", "coordinates": [[-9.1544902, 38.6566629], [-9.1544139, 38.6564913], [-9.1543881, 38.6564252], [-9.1543391, 38.6562228], [-9.1543024, 38.6560709], [-9.1542898, 38.6560187]]}, "properties": {"highway": "primary", "name": "Avenida 23 de Julho", "name:etymology": "Batalha da Cova da Piedade", "name:etymology:wikidata": "Q9650983", "old_ref": "EN 10", "ref": "EM 10", "surface": "asphalt"}}, {"type": "Feature", "geometry": {"type": "LineString", "coordinates": [[-9.1541278, 38.6553157], [-9.1541282, 38.6551689], [-9.1540817, 38.6549583]]}, "properties": {"highway": "primary", "lanes": "1", "name": "Avenida 23 de Julho", "name:etymology": "Batalha da Cova da Piedade", "name:etymology:wikidata": "Q9650983", "old_ref": "EN 10", "oneway": "yes", "ref": "EM 10", "surface": "asphalt"}}]}