{"type": "FeatureCollection", "features": [{"type": "Feature", "geometry": {"type": "LineString", "coordinates": [[-8.4069747, 41.3546848], [-8.4068152, 41.3545765], [-8.4065653, 41.3544694], [-8.4064006, 41.3543776], [-8.4061838, 41.3541401], [-8.4060614, 41.3540832], [-8.405939, 41.3540464], [-8.4058402, 41.3540396], [-8.4057667, 41.3540378], [-8.4055389, 41.3540569], [-8.4054179, 41.3541028], [-8.4053183, 41.3541607], [-8.4043482, 41.3548781], [-8.4040728, 41.3549883], [-8.4037443, 41.3550587], [-8.4034695, 41.3551146], [-8.4028332, 41.3553377], [-8.4023099, 41.355521], [-8.4021726, 41.3555557], [-8.4013367, 41.355641], [-8.401209, 41.3556541], [-8.4008862, 41.3556871], [-8.4003021, 41.3557802], [-8.4000396, 41.3558589], [-8.3999832, 41.355886], [-8.399935, 41.3559107], [-8.3998165, 41.3559662], [-8.3994114, 41.3561613], [-8.3989631, 41.3562768], [-8.3986079, 41.3565524], [-8.3984467, 41.3566078], [-8.3976685, 41.3567931], [-8.3973651, 41.3568369], [-8.3970086, 41.3568683], [-8.3966244, 41.3569121], [-8.3964381, 41.3568817], [-8.3962772, 41.3568066], [-8.3961425, 41.3566885], [-8.3960471, 41.3564844], [-8.3960424, 41.3561586], [-8.3959958, 41.3560791], [-8.3959231, 41.3560452], [-8.3955991, 41.3560182], [-8.3952672, 41.3559022], [-8.394885, 41.3557435], [-8.3947099, 41.3556311], [-8.3944465, 41.3554187], [-8.3942941, 41.3553342], [-8.3940386, 41.3553368], [-8.3927142, 41.3559343], [-8.3924322, 41.3560618], [-8.392298, 41.3561757], [-8.3921773, 41.3563783], [-8.3920881, 41.3565888], [-8.3920994, 41.3569002], [-8.3920416, 41.3570319], [-8.3915145, 41.3573749], [-8.3911576, 41.3576071], [-8.3907528, 41.3577067], [-8.3905501, 41.3577285], [-8.3903156, 41.357681], [-8.3898889, 41.3574669], [-8.389783, 41.3573475], [-8.389775, 41.3572047], [-8.3898726, 41.3568055], [-8.3898389, 41.3566332], [-8.3895899, 41.356262], [-8.3895044, 41.3561383], [-8.389487, 41.3561089], [-8.3894718, 41.3560629], [-8.3893679, 41.3555467], [-8.3892786, 41.3554044], [-8.3888625, 41.3550402], [-8.3888007, 41.3549348], [-8.388542, 41.3539906], [-8.388471, 41.3538234], [-8.3883519, 41.353691], [-8.3881922, 41.3535926], [-8.3879551, 41.3535148], [-8.3874904, 41.3534885], [-8.3873975, 41.3534836], [-8.3871985, 41.3534558], [-8.3869957, 41.3533811], [-8.3869638, 41.3533601], [-8.386818, 41.3532638], [-8.386719, 41.3531125], [-8.3865307, 41.3523638], [-8.386505, 41.3523023], [-8.3864664, 41.3522464], [-8.3860971, 41.351936], [-8.3856336, 41.3515464], [-8.3855774, 41.3514689]]}, "properties": {"Observation": "Estrada desclassificada para municipal no PRN2000.", "highway": "primary", "ref": "EM 209-2", "source": "bing"}}, {"type": "Feature", "geometry": {"type": "LineString", "coordinates": [[-8.3747888, 41.3399279], [-8.3748652, 41.3400002], [-8.3750782, 41.3402621], [-8.375232, 41.3403126], [-8.3757499, 41.3402393], [-8.3758257, 41.340241], [-8.375898, 41.3402487], [-8.3759964, 41.3402627], [-8.3762452, 41.3403257], [-8.3766151, 41.3403826], [-8.3767565, 41.3403447], [-8.3771546, 41.3401914], [-8.3774174, 41.3401541], [-8.3776733, 41.3401868], [-8.3778612, 41.3402805], [-8.3779642, 41.3404086], [-8.3780676, 41.3407009], [-8.3781244, 41.3407723], [-8.3782511, 41.3408236], [-8.3783937, 41.340821], [-8.3786938, 41.3407512], [-8.3788234, 41.3407683], [-8.3789184, 41.3408107], [-8.3790603, 41.3409355], [-8.3791415, 41.3409987], [-8.3793325, 41.3411202], [-8.3794178, 41.3411612], [-8.3795655, 41.3412208], [-8.3799409, 41.341272], [-8.3802094, 41.3413249], [-8.3804012, 41.3414046], [-8.3804734, 41.3415114], [-8.3804563, 41.3418195], [-8.3805252, 41.3419447], [-8.3808277, 41.3422214], [-8.3809836, 41.342434], [-8.3810915, 41.342702], [-8.3812341, 41.3428823], [-8.3813833, 41.3429935], [-8.3816742, 41.3431968], [-8.3817379, 41.3432902], [-8.3817544, 41.3433921], [-8.3816809, 41.3436113], [-8.3816449, 41.3438598], [-8.3816105, 41.344097], [-8.3814348, 41.3444557], [-8.3814353, 41.3445275], [-8.381482, 41.3445856], [-8.3818528, 41.3448154], [-8.3819318, 41.3448934], [-8.3819764, 41.3449196], [-8.382219, 41.3450659], [-8.3824629, 41.3451549], [-8.3827241, 41.3452277], [-8.3828448, 41.3453421], [-8.3830782, 41.3457773], [-8.3832092, 41.3459284], [-8.3837486, 41.3462404], [-8.3838654, 41.3463151], [-8.3841442, 41.3464436], [-8.3847643, 41.3465651], [-8.3849368, 41.3466821], [-8.3851423, 41.3470397], [-8.3853909, 41.3473376], [-8.3855025, 41.3474358], [-8.3860912, 41.3478622], [-8.3861707, 41.3480013], [-8.386157, 41.3485132], [-8.3861083, 41.3487203], [-8.3857067, 41.3494721], [-8.385639, 41.3497223], [-8.3856303, 41.3498008], [-8.3856527, 41.3499397], [-8.3857122, 41.3502509], [-8.3857254, 41.3503987], [-8.3856477, 41.3509018], [-8.3856374, 41.3509705], [-8.3855767, 41.3513744], [-8.3855774, 41.3514689]]}, "properties": {"highway": "primary", "lanes": "1", "maxspeed": "50", "name": "Rua do Calv\u00e1rio", "oneway": "no", "ref": "EM 209-2", "source": "bing"}}, {"type": "Feature", "geometry": {"type": "LineString", "coordinates": [[-8.366935, 41.3383215], [-8.366787, 41.3381557], [-8.3666067, 41.3379538], [-8.3663344, 41.3376488], [-8.3661523, 41.3373209], [-8.3660505, 41.337216], [-8.3657034, 41.3369951], [-8.3654609, 41.3368602], [-8.3653071, 41.3367747], [-8.3648206, 41.3364859], [-8.3646619, 41.336371], [-8.3645188, 41.3360816], [-8.3643889, 41.3359865], [-8.3642527, 41.3359704], [-8.3636928, 41.336083], [-8.3636302, 41.3360789], [-8.3633113, 41.3360583], [-8.3628048, 41.3359235], [-8.3625413, 41.3357788], [-8.3617545, 41.3350877], [-8.3612002, 41.3347115], [-8.3609981, 41.3346751], [-8.3608741, 41.3347165], [-8.3604104, 41.3351186], [-8.3602087, 41.3351836], [-8.3596293, 41.3354557], [-8.3593891, 41.3354897], [-8.3591484, 41.3354413], [-8.3585415, 41.3352075], [-8.3583439, 41.3349505], [-8.3581873, 41.334805], [-8.3574777, 41.3344255], [-8.3572889, 41.3344025], [-8.3569239, 41.334484], [-8.3564999, 41.3344882], [-8.355784, 41.3345423], [-8.3551938, 41.3345222], [-8.3539881, 41.3343284], [-8.3537811, 41.334202], [-8.3534974, 41.3338771], [-8.3532585, 41.3335425], [-8.352893, 41.3332504], [-8.3527023, 41.3328859], [-8.3525886, 41.3325032], [-8.3525343, 41.3322132], [-8.3525988, 41.3315392], [-8.3525339, 41.3312707], [-8.3524724, 41.331016], [-8.3523258, 41.3308249], [-8.3517303, 41.3304604], [-8.3514655, 41.3302983], [-8.3512854, 41.3300801], [-8.3511499, 41.3297013], [-8.3510271, 41.329358], [-8.350848, 41.328708], [-8.350652, 41.3279971], [-8.3506316, 41.3275625], [-8.350602, 41.3269327], [-8.3506064, 41.3267353], [-8.3507527, 41.3265128], [-8.3508858, 41.3263103], [-8.3509153, 41.326194], [-8.3509467, 41.3260707], [-8.350943, 41.3259202], [-8.3509388, 41.3257478], [-8.350905, 41.324376], [-8.3509039, 41.3243292], [-8.3508968, 41.3240405], [-8.3508536, 41.3238847], [-8.3508415, 41.3238411], [-8.3506858, 41.3236885], [-8.35033, 41.3235059], [-8.3501949, 41.3234365], [-8.3500045, 41.323347], [-8.3499899, 41.3233401], [-8.3498928, 41.3232475], [-8.3498421, 41.3231144], [-8.3499586, 41.322359], [-8.3499097, 41.3222343], [-8.3498146, 41.3221538], [-8.3496244, 41.3220979], [-8.3493893, 41.3220288], [-8.3493283, 41.3220006], [-8.3491817, 41.3219328], [-8.3487348, 41.3215802], [-8.3486132, 41.3214843], [-8.348363, 41.3213131], [-8.3477746, 41.321018], [-8.3477438, 41.3210026], [-8.3473895, 41.3208411], [-8.3461715, 41.3202859], [-8.3458866, 41.3201546]]}, "properties": {"highway": "primary", "lanes": "2", "oneway": "no", "ref": "EM 209-2", "source": "bing", "surface": "asphalt"}}, {"type": "Feature", "geometry": {"type": "LineString", "coordinates": [[-8.3457335, 41.3200598], [-8.3455118, 41.3198564], [-8.3454138, 41.3197551], [-8.3450497, 41.3193299], [-8.3444384, 41.3183945], [-8.3443825, 41.3182197], [-8.3444331, 41.317762], [-8.3444149, 41.3176913], [-8.3443738, 41.3175323], [-8.3440554, 41.3170211], [-8.3440978, 41.3168924], [-8.3441612, 41.3168255], [-8.3449855, 41.316313], [-8.345, 41.3162743], [-8.3450508, 41.3161389], [-8.3450055, 41.3160254], [-8.3449863, 41.3159772], [-8.3443307, 41.3153798], [-8.3442476, 41.3153041], [-8.3441469, 41.3152422], [-8.3440219, 41.3152113], [-8.3428222, 41.3151063], [-8.3426607, 41.3150233], [-8.3421881, 41.3145988], [-8.3418693, 41.314416], [-8.3416666, 41.3143506], [-8.3407889, 41.3140674], [-8.3404798, 41.3138984], [-8.3401461, 41.3136727], [-8.3398025, 41.3134492]]}, "properties": {"highway": "primary", "lanes": "2", "oneway": "no", "ref": "EM 209-2", "source": "bing", "surface": "asphalt"}}, {"type": "Feature", "geometry": {"type": "LineString", "coordinates": [[-8.3458866, 41.3201546], [-8.3457808, 41.320089], [-8.3457624, 41.3200777], [-8.3457593, 41.3200758], [-8.3457335, 41.3200598]]}, "properties": {"bridge": "yes", "highway": "primary", "lanes": "2", "layer": "1", "oneway": "no", "ref": "EM 209-2", "source": "bing", "surface": "asphalt"}}, {"type": "Feature", "geometry": {"type": "LineString", "coordinates": [[-8.3747888, 41.3399279], [-8.3745897, 41.3398268], [-8.3743572, 41.3398188], [-8.3739177, 41.3399799], [-8.3738183, 41.3400009], [-8.3736498, 41.340019], [-8.3729442, 41.340082], [-8.372669, 41.3400389], [-8.3722322, 41.3397944], [-8.3720324, 41.3397722], [-8.371355, 41.3399127], [-8.3712188, 41.3398942], [-8.3706515, 41.3396899], [-8.3699446, 41.3396587], [-8.369888, 41.3396422], [-8.3697772, 41.3396099], [-8.3696501, 41.339502], [-8.3693053, 41.3387048], [-8.3692079, 41.3384795]]}, "properties": {"highway": "primary", "lanes": "2", "oneway": "no", "ref": "EM 209-2", "source": "bing", "surface": "asphalt"}}, {"type": "Feature", "geometry": {"type": "LineString", "coordinates": [[-8.3692079, 41.3384795], [-8.3690731, 41.3383546], [-8.3688765, 41.3383214], [-8.3683328, 41.3384289], [-8.3681492, 41.3385023], [-8.3677403, 41.3387806], [-8.3675642, 41.338829], [-8.3673807, 41.338802], [-8.3672385, 41.3387089], [-8.3670906, 41.3384958], [-8.366935, 41.3383215]]}, "properties": {"highway": "primary", "lanes": "2", "oneway": "no", "ref": "EM 209-2", "source": "bing", "surface": "asphalt"}}]}