{"type": "FeatureCollection", "features": [{"type": "Feature", "geometry": {"type": "LineString", "coordinates": [[-7.2207754, 41.4760599], [-7.2207593, 41.4760243], [-7.2207343, 41.4759917], [-7.2207012, 41.4759635], [-7.2206614, 41.4759406], [-7.220621, 41.4759254], [-7.2205777, 41.4759157], [-7.2205328, 41.4759119], [-7.2204877, 41.4759141], [-7.2204439, 41.4759222], [-7.2204002, 41.475937], [-7.2203611, 41.4759576], [-7.2203277, 41.4759833], [-7.2203014, 41.4760133], [-7.220283, 41.4760464], [-7.2202743, 41.4760751], [-7.2202715, 41.4761044], [-7.2202762, 41.4761393], [-7.2202892, 41.4761729], [-7.2203102, 41.4762042], [-7.2203385, 41.4762321], [-7.220373, 41.4762557], [-7.2204128, 41.4762741], [-7.2204535, 41.4762862], [-7.2204964, 41.4762929], [-7.2205402, 41.476294], [-7.2205846, 41.4762892], [-7.2206272, 41.4762788], [-7.2206668, 41.4762629], [-7.2207019, 41.4762421], [-7.2207317, 41.4762169], [-7.2207552, 41.4761883], [-7.2207716, 41.476157], [-7.2207799, 41.4761274], [-7.2207818, 41.4760972], [-7.2207754, 41.4760599]]}, "properties": {"highway": "primary", "junction": "roundabout", "lanes": "2", "old_ref": "EN 15;EN 213", "ref": "EM 15;EM 213", "surface": "asphalt"}}, {"type": "Feature", "geometry": {"type": "MultiPolygon", "coordinates": [[[[-7.2207818, 41.4760972], [-7.2207754, 41.4760599], [-7.2207593, 41.4760243], [-7.2207343, 41.4759917], [-7.2207012, 41.4759635], [-7.2206614, 41.4759406], [-7.220621, 41.4759254], [-7.2205777, 41.4759157], [-7.2205328, 41.4759119], [-7.2204877, 41.4759141], [-7.2204439, 41.4759222], [-7.2204002, 41.475937], [-7.2203611, 41.4759576], [-7.2203277, 41.4759833], [-7.2203014, 41.4760133], [-7.220283, 41.4760464], [-7.2202743, 41.4760751], [-7.2202715, 41.4761044], [-7.2202762, 41.4761393], [-7.2202892, 41.4761729], [-7.2203102, 41.4762042], [-7.2203385, 41.4762321], [-7.220373, 41.4762557], [-7.2204128, 41.4762741], [-7.2204535, 41.4762862], [-7.2204964, 41.4762929], [-7.2205402, 41.476294], [-7.2205846, 41.4762892], [-7.2206272, 41.4762788], [-7.2206668, 41.4762629], [-7.2207019, 41.4762421], [-7.2207317, 41.4762169], [-7.2207552, 41.4761883], [-7.2207716, 41.476157], [-7.2207799, 41.4761274], [-7.2207818, 41.4760972]]]]}, "properties": {"highway": "primary", "junction": "roundabout", "lanes": "2", "old_ref": "EN 15;EN 213", "ref": "EM 15;EM 213", "surface": "asphalt"}}]}