{"type": "FeatureCollection", "features": [{"type": "Feature", "geometry": {"type": "LineString", "coordinates": [[-7.7169486, 41.3772547], [-7.7168165, 41.3772516], [-7.7167648, 41.3772456], [-7.7167134, 41.3772346], [-7.7166704, 41.3772218], [-7.7161513, 41.3770439]]}, "properties": {"destination": "A24 Chaves;A24 Vila Real", "highway": "primary", "lanes": "1", "maxspeed": "60", "official_ref": "EM 2-9", "old_ref": "EN 2-9", "oneway": "yes", "ref": "EM 2-9", "surface": "asphalt"}}, {"type": "Feature", "geometry": {"type": "LineString", "coordinates": [[-7.7081801, 41.3643401], [-7.7081114, 41.3641019], [-7.7080902, 41.3640231], [-7.7080737, 41.3639536], [-7.7080613, 41.3638893], [-7.708049, 41.3638243], [-7.7080228, 41.3636288], [-7.7080169, 41.3635663], [-7.708012, 41.3634988], [-7.7080094, 41.3634312], [-7.7080085, 41.3633601], [-7.7080099, 41.3631905], [-7.7080138, 41.3631263], [-7.7080202, 41.3630575], [-7.7080615, 41.3626773], [-7.7080691, 41.3626217], [-7.7080791, 41.3625601], [-7.7080895, 41.3625016], [-7.7082417, 41.3617253], [-7.7082529, 41.3616595], [-7.7082631, 41.3615952], [-7.7082736, 41.3615263], [-7.7082837, 41.3614513], [-7.7082907, 41.36138], [-7.7082933, 41.3613054], [-7.7082938, 41.361222], [-7.7082909, 41.361153], [-7.7082858, 41.361077], [-7.7082796, 41.3610046], [-7.7082699, 41.3609335], [-7.7082586, 41.3608669], [-7.7082428, 41.3608042], [-7.7082215, 41.3607396], [-7.7081461, 41.3605406], [-7.7081245, 41.3604927], [-7.7081029, 41.3604496], [-7.7080704, 41.3603979], [-7.708032, 41.3603424], [-7.7079853, 41.3602853], [-7.7079363, 41.3602309], [-7.7077598, 41.3600506], [-7.7077135, 41.3600078], [-7.7076622, 41.3599679], [-7.7075983, 41.3599235], [-7.7075318, 41.3598799], [-7.7074589, 41.359836], [-7.7073773, 41.3597926], [-7.707291, 41.3597484], [-7.7072032, 41.3597076], [-7.7070989, 41.3596675], [-7.7070084, 41.3596365], [-7.7069276, 41.3596107], [-7.7068438, 41.3595857], [-7.7067615, 41.3595646], [-7.7066841, 41.3595487], [-7.7066015, 41.359535], [-7.7065151, 41.3595246], [-7.7064151, 41.3595155], [-7.7063058, 41.3595076], [-7.7062083, 41.3595043], [-7.7061166, 41.3595048], [-7.7060166, 41.3595095], [-7.705928, 41.3595166], [-7.7058414, 41.3595268], [-7.7057554, 41.359539], [-7.7056558, 41.3595544], [-7.7055686, 41.3595698], [-7.7054812, 41.3595873], [-7.7054011, 41.359605], [-7.7048967, 41.3597183], [-7.7048165, 41.3597343], [-7.7047418, 41.3597479], [-7.7046604, 41.3597605], [-7.7045766, 41.3597717], [-7.7045011, 41.3597809], [-7.7044091, 41.3597908], [-7.7043307, 41.3597978], [-7.7042538, 41.3598032], [-7.7041737, 41.359807]]}, "properties": {"highway": "primary", "lanes": "2", "maxspeed": "90", "maxspeed:advisory": "70", "official_ref": "EM 2-9", "old_ref": "EN 2-9", "oneway": "no", "ref": "EM 2-9", "surface": "asphalt"}}, {"type": "Feature", "geometry": {"type": "LineString", "coordinates": [[-7.7027287, 41.3598659], [-7.7028315, 41.3598223], [-7.7028703, 41.3598081], [-7.7029053, 41.3597991], [-7.7029498, 41.3597915], [-7.7029993, 41.3597862], [-7.7030518, 41.3597843], [-7.7031102, 41.3597833], [-7.7031652, 41.3597833], [-7.7035929, 41.3597878]]}, "properties": {"destination": "Vilarinho de Samard\u00e3", "highway": "primary", "lanes": "1", "maxspeed": "40", "official_ref": "EM 2-9", "old_ref": "EN 2-9", "oneway": "yes", "ref": "EM 2-9", "surface": "asphalt"}}, {"type": "Feature", "geometry": {"type": "LineString", "coordinates": [[-7.70282, 41.3597674], [-7.7028312, 41.3597072], [-7.702817, 41.3596474], [-7.7027791, 41.3595937], [-7.7027301, 41.3595566], [-7.7026698, 41.3595305], [-7.7026014, 41.3595174], [-7.7025308, 41.3595185], [-7.7024632, 41.3595339], [-7.7024037, 41.3595624], [-7.7023588, 41.3595996], [-7.7023247, 41.3596512], [-7.7023123, 41.359708], [-7.7023225, 41.359765], [-7.7023545, 41.3598174], [-7.7023856, 41.3598465], [-7.7024235, 41.3598707], [-7.7024834, 41.359894], [-7.7025493, 41.3599049], [-7.7026166, 41.3599027], [-7.702681, 41.3598875], [-7.7027287, 41.3598659], [-7.7027847, 41.3598221], [-7.70282, 41.3597674]]}, "properties": {"highway": "primary", "junction": "roundabout", "lanes": "2", "maxspeed": "40", "official_ref": "EM 2-9", "old_ref": "EN 2-9", "ref": "EM 2-9", "surface": "asphalt"}}, {"type": "Feature", "geometry": {"type": "LineString", "coordinates": [[-7.7102793, 41.3666236], [-7.7101911, 41.3665753], [-7.7101016, 41.3665242], [-7.7100153, 41.3664722], [-7.7099092, 41.3664062], [-7.7098324, 41.3663575], [-7.7097633, 41.3663106], [-7.7096907, 41.3662594], [-7.7096294, 41.3662154], [-7.7095502, 41.3661548], [-7.7094693, 41.3660918], [-7.7094056, 41.366039], [-7.7093407, 41.3659831], [-7.7092748, 41.3659252], [-7.7092082, 41.3658645], [-7.7091352, 41.3657949], [-7.709078, 41.3657406], [-7.7090207, 41.3656825], [-7.7089666, 41.3656243], [-7.7089164, 41.365567], [-7.7088656, 41.3655056], [-7.7088124, 41.3654432], [-7.7087526, 41.3653704], [-7.7087018, 41.3653057], [-7.7086602, 41.3652504], [-7.7086077, 41.3651772], [-7.7085603, 41.3651045], [-7.7085135, 41.3650309], [-7.7084575, 41.3649376], [-7.7084183, 41.3648682], [-7.708386, 41.3648083], [-7.7083541, 41.3647488], [-7.7083239, 41.3646892], [-7.7082935, 41.3646256], [-7.708263, 41.3645564], [-7.7082375, 41.3644968], [-7.7082158, 41.3644408], [-7.7081801, 41.3643401]]}, "properties": {"bridge": "yes", "highway": "primary", "lanes": "2", "layer": "1", "maxspeed": "90", "maxspeed:advisory": "70", "official_ref": "EM 2-9", "old_ref": "EN 2-9", "oneway": "no", "ref": "EM 2-9", "surface": "asphalt"}}, {"type": "Feature", "geometry": {"type": "LineString", "coordinates": [[-7.7035929, 41.3597878], [-7.7032645, 41.3597372], [-7.7031624, 41.3597192], [-7.7031045, 41.3597082], [-7.7030425, 41.359696], [-7.7029855, 41.3596827], [-7.7029286, 41.3596653], [-7.7028671, 41.359643], [-7.7027791, 41.3595937]]}, "properties": {"highway": "primary", "lanes": "1", "maxspeed": "40", "official_ref": "EM 2-9", "old_ref": "EN 2-9", "oneway": "yes", "ref": "EM 2-9", "surface": "asphalt"}}, {"type": "Feature", "geometry": {"type": "LineString", "coordinates": [[-7.7161513, 41.3770439], [-7.7165436, 41.3772622], [-7.7165935, 41.377291], [-7.7166442, 41.3773245], [-7.7166912, 41.3773595], [-7.7167426, 41.3774046], [-7.7167985, 41.3774663]]}, "properties": {"destination": "EN 2", "highway": "primary", "lanes": "2", "maxspeed": "60", "official_ref": "EM 2-9", "old_ref": "EN 2-9", "oneway": "yes", "ref": "EM 2-9", "surface": "asphalt"}}, {"type": "Feature", "geometry": {"type": "LineString", "coordinates": [[-7.7153412, 41.3763569], [-7.715315, 41.3763072], [-7.7152924, 41.3762594], [-7.7152707, 41.3762103], [-7.7152471, 41.3761518], [-7.7152258, 41.3760892], [-7.7146515, 41.3744662], [-7.7146328, 41.3744157], [-7.7146109, 41.3743582], [-7.7145864, 41.3743031], [-7.7145601, 41.3742474], [-7.7145317, 41.37419], [-7.7144274, 41.3740011], [-7.714392, 41.3739404], [-7.7143588, 41.3738856], [-7.714322, 41.3738341], [-7.714282, 41.3737817], [-7.7142382, 41.3737304], [-7.7141889, 41.3736768], [-7.7141439, 41.3736295], [-7.7138593, 41.3733593], [-7.7138032, 41.3733109], [-7.7137473, 41.3732659], [-7.713686, 41.3732182], [-7.7136183, 41.3731694], [-7.7135427, 41.3731188], [-7.7134681, 41.3730716], [-7.7133893, 41.3730236], [-7.7133022, 41.3729751], [-7.7132136, 41.3729276], [-7.7131193, 41.3728809], [-7.713035, 41.3728408], [-7.7129523, 41.3728028], [-7.7122393, 41.3724913], [-7.7121649, 41.3724573], [-7.7120955, 41.3724254], [-7.7120233, 41.3723909], [-7.7119538, 41.3723521], [-7.7118864, 41.3723101], [-7.7118289, 41.3722723], [-7.7117675, 41.3722305], [-7.7117086, 41.372185], [-7.7116459, 41.3721303], [-7.711589, 41.3720733], [-7.7115298, 41.3720064], [-7.7114834, 41.3719453], [-7.7114392, 41.3718821], [-7.7114012, 41.3718197], [-7.7113609, 41.3717496], [-7.7113293, 41.3716849], [-7.7113023, 41.3716172], [-7.7112782, 41.3715381], [-7.711259, 41.3714599], [-7.7112463, 41.3713851], [-7.7112391, 41.3713243], [-7.7112362, 41.371256], [-7.7112405, 41.3711849], [-7.7112475, 41.3711112], [-7.7112568, 41.3710417], [-7.711269, 41.3709721], [-7.7112847, 41.370909], [-7.711307, 41.370848], [-7.7113331, 41.3707891], [-7.7113651, 41.3707296], [-7.7113998, 41.3706764], [-7.7114423, 41.3706157], [-7.7114965, 41.3705506], [-7.7115485, 41.3704892], [-7.7116058, 41.3704304], [-7.7116756, 41.3703647], [-7.7117413, 41.3703066], [-7.7118159, 41.3702444], [-7.7118916, 41.3701854], [-7.7124988, 41.369736], [-7.7125674, 41.3696811], [-7.7126191, 41.3696348], [-7.7126675, 41.3695876], [-7.7127121, 41.3695411], [-7.7127553, 41.3694922], [-7.7127998, 41.3694408], [-7.712843, 41.3693826], [-7.7128839, 41.3693226], [-7.7129187, 41.3692645], [-7.7129497, 41.3692067], [-7.7129789, 41.3691443], [-7.7130011, 41.3690824], [-7.7130239, 41.36901], [-7.7130445, 41.3689357], [-7.7130625, 41.3688646], [-7.7130764, 41.3687937], [-7.7130834, 41.3687297], [-7.7130871, 41.3686803], [-7.71309, 41.368627]]}, "properties": {"highway": "primary", "lanes": "3", "lanes:backward": "1", "lanes:forward": "2", "maxspeed": "90", "maxspeed:advisory": "70", "official_ref": "EM 2-9", "old_ref": "EN 2-9", "oneway": "no", "ref": "EM 2-9", "surface": "asphalt"}}, {"type": "Feature", "geometry": {"type": "LineString", "coordinates": [[-7.71309, 41.368627], [-7.7130901, 41.3685694], [-7.7130861, 41.3685205], [-7.7130787, 41.3684706], [-7.7130684, 41.3684159], [-7.7130533, 41.3683601], [-7.7130347, 41.3682967], [-7.7130121, 41.3682347], [-7.712982, 41.3681689], [-7.7129502, 41.3681042], [-7.712912, 41.3680379], [-7.7128743, 41.3679769], [-7.7128328, 41.3679204], [-7.7127795, 41.3678548], [-7.7127283, 41.3677977], [-7.7126749, 41.367743], [-7.7126127, 41.3676816], [-7.7125561, 41.3676311], [-7.7125031, 41.3675877], [-7.7124426, 41.3675444], [-7.7123772, 41.3675024], [-7.7123102, 41.3674621], [-7.712233, 41.3674205], [-7.7121604, 41.3673834], [-7.7120897, 41.367351], [-7.7120084, 41.3673165], [-7.7119289, 41.3672841], [-7.7118552, 41.367256], [-7.7109474, 41.3669198], [-7.7108688, 41.3668902], [-7.7107987, 41.3668613], [-7.7107293, 41.366832], [-7.7106408, 41.3667935], [-7.7105668, 41.3667609], [-7.7104871, 41.3667241], [-7.7104059, 41.3666862], [-7.7103492, 41.3666586], [-7.7102793, 41.3666236]]}, "properties": {"highway": "primary", "lanes": "2", "maxspeed": "90", "maxspeed:advisory": "70", "official_ref": "EM 2-9", "old_ref": "EN 2-9", "oneway": "no", "ref": "EM 2-9", "surface": "asphalt"}}, {"type": "Feature", "geometry": {"type": "LineString", "coordinates": [[-7.7161513, 41.3770439], [-7.7159625, 41.3769536], [-7.7158975, 41.3769199], [-7.7158485, 41.3768915], [-7.7157978, 41.3768586], [-7.7157499, 41.3768246], [-7.7157004, 41.3767869], [-7.7156512, 41.3767482], [-7.7155994, 41.3767026], [-7.7155575, 41.3766604], [-7.7155198, 41.3766186], [-7.7154797, 41.3765699], [-7.7154326, 41.3765046], [-7.7153969, 41.3764511], [-7.7153677, 41.3764035], [-7.7153412, 41.3763569]]}, "properties": {"highway": "primary", "lanes": "3", "lanes:backward": "1", "lanes:forward": "2", "maxspeed": "60", "official_ref": "EM 2-9", "old_ref": "EN 2-9", "oneway": "no", "ref": "EM 2-9", "surface": "asphalt"}}, {"type": "Feature", "geometry": {"type": "LineString", "coordinates": [[-7.7041737, 41.359807], [-7.7040807, 41.3598089], [-7.7039947, 41.3598079], [-7.7039271, 41.3598058], [-7.7036614, 41.3597918], [-7.7035929, 41.3597878]]}, "properties": {"highway": "primary", "lanes": "2", "maxspeed": "40", "official_ref": "EM 2-9", "old_ref": "EN 2-9", "oneway": "no", "ref": "EM 2-9", "surface": "asphalt"}}, {"type": "Feature", "geometry": {"type": "MultiPolygon", "coordinates": [[[[-7.7028312, 41.3597072], [-7.702817, 41.3596474], [-7.7027791, 41.3595937], [-7.7027301, 41.3595566], [-7.7026698, 41.3595305], [-7.7026014, 41.3595174], [-7.7025308, 41.3595185], [-7.7024632, 41.3595339], [-7.7024037, 41.3595624], [-7.7023588, 41.3595996], [-7.7023247, 41.3596512], [-7.7023123, 41.359708], [-7.7023225, 41.359765], [-7.7023545, 41.3598174], [-7.7023856, 41.3598465], [-7.7024235, 41.3598707], [-7.7024834, 41.359894], [-7.7025493, 41.3599049], [-7.7026166, 41.3599027], [-7.702681, 41.3598875], [-7.7027287, 41.3598659], [-7.7027847, 41.3598221], [-7.70282, 41.3597674], [-7.7028312, 41.3597072]]]]}, "properties": {"highway": "primary", "junction": "roundabout", "lanes": "2", "maxspeed": "40", "official_ref": "EM 2-9", "old_ref": "EN 2-9", "ref": "EM 2-9", "surface": "asphalt"}}]}