{"type": "FeatureCollection", "features": [{"type": "Feature", "geometry": {"type": "LineString", "coordinates": [[-7.3951603, 40.9908904], [-7.3951755, 40.9908521], [-7.3951742, 40.990812], [-7.3951573, 40.9907754], [-7.3951267, 40.9907443], [-7.3950852, 40.9907216], [-7.3950365, 40.9907092], [-7.3949852, 40.9907085], [-7.394936, 40.9907194], [-7.3948941, 40.9907404], [-7.3948623, 40.9907697], [-7.3948433, 40.9908047], [-7.3948387, 40.9908424], [-7.3948489, 40.9908795], [-7.3948786, 40.9909178], [-7.3949238, 40.9909461], [-7.3949791, 40.9909611], [-7.3950379, 40.9909609], [-7.3950879, 40.9909477], [-7.3951301, 40.9909234], [-7.3951603, 40.9908904]]}, "properties": {"highway": "primary", "junction": "roundabout", "old_ref": "EN 331", "ref": "EM 331"}}, {"type": "Feature", "geometry": {"type": "LineString", "coordinates": [[-7.3948489, 40.9908795], [-7.3944233, 40.9909397], [-7.3943334, 40.9909525], [-7.3917161, 40.9913228], [-7.3913734, 40.9913728], [-7.3910999, 40.9914114], [-7.3879207, 40.9918505]]}, "properties": {"highway": "primary", "old_ref": "EN 331", "ref": "EM 331"}}, {"type": "Feature", "geometry": {"type": "LineString", "coordinates": [[-7.3977106, 40.9901875], [-7.3978815, 40.9901521], [-7.3979422, 40.9901396]]}, "properties": {"highway": "primary", "old_ref": "EN 331", "oneway": "yes", "ref": "EM 331"}}, {"type": "Feature", "geometry": {"type": "LineString", "coordinates": [[-7.3978416, 40.9900116], [-7.3977106, 40.9901875]]}, "properties": {"highway": "primary", "old_ref": "EN 331", "oneway": "yes", "ref": "EM 331"}}, {"type": "Feature", "geometry": {"type": "LineString", "coordinates": [[-7.3951742, 40.990812], [-7.3953505, 40.9907991], [-7.3953965, 40.9908075], [-7.3960031, 40.9909183], [-7.3962486, 40.9909381], [-7.3966798, 40.9909272], [-7.3968289, 40.9908878], [-7.3968556, 40.9908807], [-7.3974496, 40.9904736], [-7.397516, 40.9904214], [-7.3977106, 40.9901875]]}, "properties": {"highway": "primary", "old_ref": "EN 331", "ref": "EM 331"}}, {"type": "Feature", "geometry": {"type": "LineString", "coordinates": [[-7.3868389, 40.9920723], [-7.387186, 40.9920192], [-7.3875573, 40.9919425], [-7.3879207, 40.9918505]]}, "properties": {"highway": "primary", "old_ref": "EN 331", "oneway": "yes", "ref": "EM 331"}}, {"type": "Feature", "geometry": {"type": "LineString", "coordinates": [[-7.3879207, 40.9918505], [-7.387553, 40.9918674], [-7.387187, 40.9918996], [-7.3869291, 40.9919316]]}, "properties": {"highway": "primary", "old_ref": "EN 331", "oneway": "yes", "ref": "EM 331"}}, {"type": "Feature", "geometry": {"type": "MultiPolygon", "coordinates": [[[[-7.3951755, 40.9908521], [-7.3951742, 40.990812], [-7.3951573, 40.9907754], [-7.3951267, 40.9907443], [-7.3950852, 40.9907216], [-7.3950365, 40.9907092], [-7.3949852, 40.9907085], [-7.394936, 40.9907194], [-7.3948941, 40.9907404], [-7.3948623, 40.9907697], [-7.3948433, 40.9908047], [-7.3948387, 40.9908424], [-7.3948489, 40.9908795], [-7.3948786, 40.9909178], [-7.3949238, 40.9909461], [-7.3949791, 40.9909611], [-7.3950379, 40.9909609], [-7.3950879, 40.9909477], [-7.3951301, 40.9909234], [-7.3951603, 40.9908904], [-7.3951755, 40.9908521]]]]}, "properties": {"highway": "primary", "junction": "roundabout", "old_ref": "EN 331", "ref": "EM 331"}}]}