{"type": "FeatureCollection", "features": [{"type": "Feature", "geometry": {"type": "LineString", "coordinates": [[-7.7651304, 41.1671378], [-7.7651041, 41.1671692], [-7.7650911, 41.1671891], [-7.7650794, 41.1672131], [-7.7650696, 41.1672426], [-7.7650666, 41.1672682], [-7.7650662, 41.1672972], [-7.7650713, 41.1673284], [-7.7650837, 41.1673585], [-7.7651007, 41.16739], [-7.765122, 41.167422], [-7.765146, 41.1674559], [-7.7651704, 41.167483], [-7.765194, 41.1675082], [-7.7655387, 41.1677985], [-7.7657105, 41.1680325], [-7.7660437, 41.1685866], [-7.7661028, 41.1687344], [-7.7661191, 41.1688468], [-7.7661516, 41.169023], [-7.766168, 41.1691815], [-7.7661588, 41.1693547], [-7.766133, 41.1695777], [-7.7660472, 41.1698453], [-7.7658809, 41.1702105], [-7.7658715, 41.1705777], [-7.7658442, 41.1707207], [-7.7657029, 41.171014], [-7.765651, 41.1711756], [-7.7656112, 41.171479], [-7.7654295, 41.1717013], [-7.7653754, 41.1718225], [-7.7653783, 41.1719796], [-7.7653906, 41.1722168], [-7.7653611, 41.1723208], [-7.7652955, 41.172482], [-7.7651187, 41.172844], [-7.7651067, 41.17294], [-7.7650456, 41.1731951], [-7.7650339, 41.1732272], [-7.765013, 41.1732587], [-7.7648935, 41.1733786], [-7.7648683, 41.1733977], [-7.7648372, 41.1734146], [-7.7648059, 41.1734279], [-7.7647731, 41.1734385], [-7.7647347, 41.1734489], [-7.7646935, 41.1734565], [-7.764649, 41.1734607], [-7.7646111, 41.1734619], [-7.7645801, 41.17346], [-7.7645478, 41.1734554], [-7.764514, 41.1734472], [-7.7644769, 41.1734346], [-7.764437, 41.1734184], [-7.7644009, 41.1733997], [-7.764066, 41.173196], [-7.7637909, 41.173048], [-7.7631058, 41.1727322], [-7.7628294, 41.1725311], [-7.7625397, 41.1722124], [-7.762394, 41.1720919], [-7.7616126, 41.1716572], [-7.761313, 41.1715298], [-7.7607225, 41.171362], [-7.760509, 41.1713166], [-7.7603157, 41.1713093], [-7.7599931, 41.1713235], [-7.7597193, 41.171322], [-7.7595526, 41.1712531], [-7.7594436, 41.1711547], [-7.7593811, 41.1709923], [-7.7592069, 41.1702735], [-7.7590572, 41.1699135], [-7.7588888, 41.1696842], [-7.7586957, 41.1695378], [-7.7581559, 41.1693388], [-7.7579286, 41.1692304], [-7.7577259, 41.1690867], [-7.7575511, 41.1689979], [-7.7572808, 41.1689484], [-7.7563352, 41.1689931], [-7.7554382, 41.1690487], [-7.7546195, 41.1692464], [-7.7536613, 41.169678], [-7.7532857, 41.1698293], [-7.7532251, 41.1698511], [-7.7531486, 41.1698762], [-7.7530822, 41.1698959], [-7.7527841, 41.1699811], [-7.7510619, 41.1703689], [-7.7510014, 41.170383], [-7.7509328, 41.1704001], [-7.7508578, 41.1704213], [-7.7507785, 41.1704463], [-7.7506921, 41.170475], [-7.7506047, 41.1705075], [-7.7505182, 41.1705422], [-7.7504485, 41.1705735], [-7.7503834, 41.1706065], [-7.7503272, 41.17064], [-7.7502777, 41.1706741], [-7.750226, 41.1707133], [-7.7501954, 41.1707359], [-7.7501721, 41.1707564], [-7.750118, 41.1708021], [-7.7500496, 41.1708654], [-7.7499983, 41.1709193], [-7.7499542, 41.1709722], [-7.7499161, 41.1710313], [-7.7498799, 41.1710951], [-7.7498469, 41.1711597], [-7.7498171, 41.1712302], [-7.7497876, 41.1713087], [-7.7497626, 41.1713874], [-7.7497416, 41.1714633], [-7.7496386, 41.1718742], [-7.7495637, 41.1725707], [-7.7494246, 41.1729183], [-7.7492631, 41.1731302], [-7.7491056, 41.1732471], [-7.7489477, 41.1733407], [-7.748798, 41.1733984], [-7.7484475, 41.1734688], [-7.7479752, 41.1735167], [-7.7475304, 41.1735747], [-7.7473434, 41.1736228]]}, "properties": {"highway": "primary", "lanes": "2", "maxspeed": "90", "old_ref": "EN 313", "oneway": "no", "ref": "EM 313", "surface": "asphalt"}}, {"type": "Feature", "geometry": {"type": "LineString", "coordinates": [[-7.7656196, 41.1668513], [-7.765594, 41.1668771], [-7.7655698, 41.1668961], [-7.7655432, 41.1669124], [-7.7655118, 41.1669281], [-7.7652339, 41.1670683], [-7.765203, 41.1670851], [-7.7651793, 41.1671], [-7.7651561, 41.1671168], [-7.7651304, 41.1671378]]}, "properties": {"bridge": "yes", "highway": "primary", "lanes": "2", "layer": "1", "maxspeed": "90", "old_ref": "EN 313", "oneway": "no", "ref": "EM 313", "surface": "asphalt"}}, {"type": "Feature", "geometry": {"type": "LineString", "coordinates": [[-7.7426353, 41.1914936], [-7.7422835, 41.1921603], [-7.742116, 41.1924864], [-7.7420371, 41.1925944], [-7.7418248, 41.1928146], [-7.7413211, 41.1932733], [-7.7406397, 41.19386], [-7.7404401, 41.1940912], [-7.7403067, 41.1942949], [-7.740228, 41.194516], [-7.7401872, 41.194802], [-7.7402204, 41.1950441], [-7.7403117, 41.1953565], [-7.7405283, 41.1958903], [-7.7406478, 41.1962118], [-7.7407543, 41.1963703], [-7.7409741, 41.1966687], [-7.7410346, 41.1967795], [-7.7410545, 41.1969045], [-7.7410386, 41.1970335], [-7.7409082, 41.1974805], [-7.7406896, 41.1981284], [-7.7405999, 41.1982914], [-7.7404702, 41.1984303], [-7.7402686, 41.1985404], [-7.7394564, 41.1988976], [-7.739251, 41.1990018], [-7.7390834, 41.1991162], [-7.7388334, 41.1993672], [-7.7387461, 41.1995522], [-7.7387255, 41.1997873], [-7.7387947, 41.200048], [-7.7389017, 41.200246], [-7.7394863, 41.2009808], [-7.7395708, 41.2011431], [-7.7396024, 41.2012844], [-7.7395908, 41.2014258], [-7.7395143, 41.2015471], [-7.7393888, 41.2016716], [-7.739254, 41.2017474], [-7.7389944, 41.2018036], [-7.7388005, 41.2018008], [-7.7384919, 41.2017464], [-7.737781, 41.2016029], [-7.7374893, 41.2015609], [-7.7372482, 41.2015651], [-7.7369942, 41.2016142], [-7.7367739, 41.2017119], [-7.7365806, 41.2018491], [-7.7364357, 41.2020139], [-7.7363439, 41.202236], [-7.7363559, 41.2024568], [-7.736449, 41.2027501], [-7.7366997, 41.2032391], [-7.7367534, 41.2034316], [-7.7367513, 41.2036706], [-7.7366313, 41.2039525], [-7.7364729, 41.2041681], [-7.7360766, 41.2046909], [-7.7357948, 41.2050876], [-7.7356779, 41.2052435], [-7.7355324, 41.2053604], [-7.7353739, 41.2054357], [-7.735179, 41.2054722], [-7.7349836, 41.2054722], [-7.7347404, 41.2054264], [-7.7346404, 41.2053903], [-7.7344037, 41.2053049], [-7.7342148, 41.205257], [-7.7340369, 41.2052428], [-7.7338645, 41.2052683], [-7.73374, 41.2053109], [-7.7336179, 41.2053851], [-7.7333984, 41.2055779], [-7.7329963, 41.2059853], [-7.7328799, 41.2061549], [-7.7323419, 41.2070808], [-7.7320842, 41.2075069], [-7.731782, 41.2080502], [-7.7315276, 41.2084102], [-7.7311144, 41.2088929], [-7.7307377, 41.209317], [-7.7306163, 41.2093769], [-7.7304404, 41.2094282], [-7.730245, 41.2094407], [-7.7299021, 41.2094552], [-7.7297199, 41.2094895], [-7.7295522, 41.2095508], [-7.7293912, 41.2096542], [-7.7292875, 41.2097699], [-7.7292152, 41.2099456], [-7.7292219, 41.2101036], [-7.7292991, 41.2102624], [-7.7294065, 41.2103613], [-7.7296319, 41.2104991], [-7.7300056, 41.2106845], [-7.7301407, 41.2107962], [-7.7302302, 41.2109009], [-7.7302628, 41.2109391], [-7.7303039, 41.2110327], [-7.7303459, 41.2111209], [-7.7303501, 41.2113066], [-7.7302722, 41.2115692], [-7.7300943, 41.2117604], [-7.7297788, 41.211955], [-7.7295181, 41.2121027], [-7.7290123, 41.2124112], [-7.7287797, 41.2125359], [-7.7286374, 41.2126247], [-7.7285706, 41.2126725], [-7.7285094, 41.2127215], [-7.7284561, 41.2127735], [-7.7283148, 41.2129347], [-7.7282769, 41.2130731], [-7.7282902, 41.2132181], [-7.7283442, 41.2134039], [-7.7287709, 41.2144612], [-7.7288057, 41.2145994], [-7.7288024, 41.214774], [-7.7287309, 41.2149751], [-7.7285543, 41.2152262], [-7.7284899, 41.2153592], [-7.7284442, 41.21554], [-7.7284449, 41.215829], [-7.7285128, 41.2168492], [-7.7285948, 41.2178803], [-7.7286909, 41.2180752], [-7.7288728, 41.2182181], [-7.7291118, 41.2183064], [-7.729338, 41.218359], [-7.7296227, 41.2184172], [-7.7298534, 41.2185045], [-7.7300696, 41.2186479], [-7.7302718, 41.2188652], [-7.7305238, 41.2191536], [-7.7307602, 41.2193121], [-7.73109, 41.2194467], [-7.7315982, 41.219651], [-7.7318112, 41.2198588], [-7.7319177, 41.2200277], [-7.7319619, 41.2202953], [-7.731902, 41.2215267], [-7.7318412, 41.2218735], [-7.7315087, 41.2229194], [-7.7313279, 41.2234353], [-7.7312929, 41.2235351], [-7.7312046, 41.2236754], [-7.7310721, 41.2238001], [-7.7309162, 41.2238884], [-7.7307772, 41.2239342], [-7.7307032, 41.2239586], [-7.7304824, 41.2239742], [-7.7303135, 41.2239456], [-7.7301212, 41.2238651], [-7.7296781, 41.2236391], [-7.7293729, 41.2234798], [-7.7291461, 41.2233614], [-7.7290172, 41.2233074], [-7.728878, 41.2232575], [-7.7287283, 41.2232263], [-7.72856, 41.2232118], [-7.7282848, 41.2232082], [-7.7278688, 41.2232165], [-7.7268305, 41.22327], [-7.726472, 41.2233168], [-7.7263091, 41.223349], [-7.7261004, 41.2233903], [-7.7249606, 41.2236826], [-7.7247169, 41.2237868], [-7.7245573, 41.2238932], [-7.7244293, 41.2240362], [-7.7243827, 41.2241891], [-7.724404, 41.2243725], [-7.7245021, 41.2245305], [-7.7246309, 41.2246448], [-7.7247972, 41.2247383], [-7.7250029, 41.2248111], [-7.7260518, 41.2251015], [-7.7262918, 41.2251825], [-7.7265412, 41.2252906], [-7.7267283, 41.2254028], [-7.726855, 41.2255171], [-7.726945, 41.2256492], [-7.7270199, 41.2258288], [-7.7270465, 41.2260449], [-7.7270337, 41.2263589], [-7.7269558, 41.2267875], [-7.7269073, 41.2270459], [-7.7268876, 41.2271512], [-7.7268648, 41.2273826], [-7.7268672, 41.2275168], [-7.7268713, 41.227743], [-7.7268734, 41.227884], [-7.7268752, 41.2280016], [-7.7268763, 41.228074], [-7.7268773, 41.2281359], [-7.7268782, 41.2281688], [-7.7268857, 41.2284365], [-7.7269114, 41.2293582], [-7.7269301, 41.229471], [-7.7269452, 41.2295619], [-7.7270179, 41.2297255], [-7.7271172, 41.2298841], [-7.7273015, 41.2301761], [-7.7273472, 41.2303319], [-7.7273576, 41.2305024], [-7.7272856, 41.2307082], [-7.7271525, 41.230968], [-7.7270913, 41.2311853], [-7.7270835, 41.2313775], [-7.7271043, 41.2315724], [-7.7272188, 41.2322691], [-7.727272, 41.2324104], [-7.7273941, 41.2326083], [-7.7276279, 41.2328941], [-7.7277275, 41.2330692], [-7.7277815, 41.2332334], [-7.7277608, 41.233431], [-7.727689, 41.2336079], [-7.727283, 41.2342984], [-7.7270207, 41.2347593], [-7.7269771, 41.2349401], [-7.7269896, 41.2350876], [-7.7270685, 41.2352435], [-7.7271742, 41.2353769], [-7.7273616, 41.235606], [-7.7274479, 41.2357371], [-7.7274916, 41.2359095], [-7.7274871, 41.236286], [-7.7274366, 41.2367785], [-7.7274275, 41.2368675]]}, "properties": {"highway": "primary", "lanes": "2", "maxspeed": "90", "old_ref": "EN 313", "oneway": "no", "ref": "EM 313", "surface": "asphalt"}}, {"type": "Feature", "geometry": {"type": "LineString", "coordinates": [[-7.7042822, 41.2693572], [-7.7042619, 41.2693291], [-7.7042523, 41.2693067], [-7.7042474, 41.2692813], [-7.704247, 41.2692509], [-7.7042502, 41.269227], [-7.7042548, 41.2692028], [-7.7042633, 41.2691794], [-7.704276, 41.2691575], [-7.7042939, 41.2691345], [-7.704316, 41.2691089], [-7.7043563, 41.2690709]]}, "properties": {"highway": "primary", "lanes": "2", "maxspeed": "50", "old_ref": "EN 313", "oneway": "no", "ref": "EM 313", "surface": "asphalt"}}, {"type": "Feature", "geometry": {"type": "LineString", "coordinates": [[-7.7089896, 41.272483], [-7.7086622, 41.2722639], [-7.7079415, 41.2717816], [-7.7070811, 41.271207], [-7.7067796, 41.2710057], [-7.7064259, 41.2707695], [-7.7063669, 41.2707306], [-7.7045699, 41.2695461], [-7.7044816, 41.2694879], [-7.7044215, 41.2694483]]}, "properties": {"highway": "primary", "lane_markings": "yes", "lanes": "2", "lanes:backward": "1", "lanes:forward": "1", "lit": "yes", "maxspeed": "50", "name": "Reta da Portela", "old_ref": "EN 313", "oneway": "no", "ref": "EM 313", "surface": "asphalt"}}, {"type": "Feature", "geometry": {"type": "LineString", "coordinates": [[-7.7175598, 41.277045], [-7.717624, 41.2769454], [-7.7176465, 41.2768896], [-7.7176589, 41.276846], [-7.7176654, 41.2767909], [-7.7176666, 41.2767391], [-7.7176648, 41.2766987], [-7.71766, 41.276646], [-7.7176621, 41.2765985], [-7.7176669, 41.2765527], [-7.7176839, 41.2764585]]}, "properties": {"highway": "primary", "lanes": "1", "lit": "yes", "maxspeed": "40", "old_ref": "EN 313", "oneway": "yes", "ref": "EM 313", "surface": "asphalt"}}, {"type": "Feature", "geometry": {"type": "LineString", "coordinates": [[-7.7175228, 41.2761984], [-7.7170589, 41.2760007]]}, "properties": {"highway": "primary", "lanes": "1", "lit": "yes", "maxspeed": "50", "old_ref": "EN 313", "oneway": "yes", "ref": "EM 313", "surface": "asphalt"}}, {"type": "Feature", "geometry": {"type": "LineString", "coordinates": [[-7.7176839, 41.2764585], [-7.7177092, 41.2764201], [-7.7177207, 41.2763781], [-7.717715, 41.2763259], [-7.7176883, 41.2762775], [-7.7176358, 41.276228], [-7.7175836, 41.2762102]]}, "properties": {"highway": "primary", "junction": "roundabout", "lane_markings": "no", "lanes": "2", "lit": "yes", "maxspeed": "40", "old_ref": "EN 313", "ref": "EM 313", "surface": "asphalt"}}, {"type": "Feature", "geometry": {"type": "LineString", "coordinates": [[-7.717454, 41.2765303], [-7.7174778, 41.2765611], [-7.7174871, 41.2765775], [-7.7175052, 41.2765962], [-7.7175284, 41.2766273], [-7.7175529, 41.276671], [-7.7175686, 41.2767152], [-7.7175771, 41.2767679], [-7.7175788, 41.276812], [-7.7175773, 41.2768765], [-7.7175598, 41.277045]]}, "properties": {"highway": "primary", "lanes": "1", "lit": "no", "maxspeed": "50", "old_ref": "EN 313", "oneway": "yes", "ref": "EM 313", "surface": "asphalt"}}, {"type": "Feature", "geometry": {"type": "LineString", "coordinates": [[-7.7170589, 41.2760007], [-7.7171601, 41.2761216], [-7.7171958, 41.2761738], [-7.7172276, 41.2762308], [-7.7172791, 41.2763295]]}, "properties": {"highway": "primary", "lanes": "1", "lit": "yes", "maxspeed": "40", "old_ref": "EN 313", "oneway": "yes", "ref": "EM 313", "surface": "asphalt"}}, {"type": "Feature", "geometry": {"type": "LineString", "coordinates": [[-7.7769589, 41.1557368], [-7.7769263, 41.1557278], [-7.7762745, 41.1555284], [-7.7761387, 41.155491], [-7.7759975, 41.1554625], [-7.7758201, 41.1554408], [-7.7753538, 41.155431], [-7.7747213, 41.1554176], [-7.7746393, 41.1554195], [-7.7745572, 41.1554214], [-7.7744846, 41.1554224], [-7.7744617, 41.1554227], [-7.7742885, 41.1554275], [-7.7741114, 41.1554595], [-7.7739931, 41.1555064], [-7.7739229, 41.1555343], [-7.7737417, 41.1556665], [-7.773693, 41.1557177], [-7.7736046, 41.155797], [-7.7734654, 41.1559296], [-7.7733177, 41.1561175], [-7.7732212, 41.1563074], [-7.7730463, 41.1567146], [-7.7728325, 41.1570584], [-7.7725851, 41.1573885], [-7.7721045, 41.1580298], [-7.7718614, 41.1583985], [-7.7716571, 41.158677], [-7.7715129, 41.1591386], [-7.7714061, 41.1593497], [-7.7712781, 41.1594698], [-7.7710367, 41.1596717], [-7.7709202, 41.1598934], [-7.7707966, 41.160112], [-7.7703335, 41.160704], [-7.770231, 41.1609285], [-7.7701476, 41.1611758], [-7.7700037, 41.1613278], [-7.7697827, 41.1615861], [-7.7697006, 41.161756], [-7.7696528, 41.1619817], [-7.7695108, 41.162841], [-7.7694082, 41.1631873], [-7.7692797, 41.1634148], [-7.7689697, 41.1638571], [-7.7687514, 41.1641756], [-7.7686502, 41.1643446], [-7.7685913, 41.1645145], [-7.768609, 41.1646911], [-7.7686324, 41.1648809], [-7.7686222, 41.1650228], [-7.7685685, 41.1651214], [-7.7684698, 41.1652164], [-7.7682368, 41.1653216], [-7.7680095, 41.1654327], [-7.7676059, 41.165627], [-7.7671471, 41.1658162], [-7.766469, 41.1660227], [-7.7661768, 41.1661125], [-7.7660039, 41.1662131], [-7.7657546, 41.1664556], [-7.7657088, 41.166549], [-7.765685, 41.166651], [-7.7656659, 41.1667635], [-7.7656196, 41.1668513]]}, "properties": {"addr:postcode": "5050-200", "highway": "primary", "lanes": "2", "maxspeed": "50", "name": "Rua do Corgo", "old_ref": "EN 313", "ref": "EM 313", "surface": "asphalt"}}, {"type": "Feature", "geometry": {"type": "LineString", "coordinates": [[-7.7207094, 41.2794993], [-7.7206325, 41.2794622], [-7.7205191, 41.2794225], [-7.7204151, 41.2793974], [-7.7202969, 41.279387], [-7.7199925, 41.2793841], [-7.7194387, 41.2793902], [-7.7185139, 41.2794005], [-7.7182266, 41.2793989], [-7.7180786, 41.279391], [-7.717923, 41.2793634], [-7.717758, 41.279315], [-7.7176305, 41.2792619], [-7.7175176, 41.2791968], [-7.717419, 41.279127], [-7.717333, 41.2790396], [-7.7172387, 41.2789234], [-7.7171879, 41.2788297], [-7.7171565, 41.2787411], [-7.7171344, 41.278631], [-7.7171338, 41.2785333], [-7.717151, 41.2784051], [-7.717218, 41.2781742], [-7.7175598, 41.277045]]}, "properties": {"highway": "primary", "lane_markings": "yes", "lanes": "2", "lanes:backward": "1", "lanes:forward": "1", "lit": "no", "maxspeed": "50", "old_ref": "EN 313", "oneway": "no", "ref": "EM 313", "surface": "asphalt"}}, {"type": "Feature", "geometry": {"type": "LineString", "coordinates": [[-7.7218262, 41.2807432], [-7.7218071, 41.2808361], [-7.7217809, 41.2809637]]}, "properties": {"highway": "primary", "lanes": "1", "lit": "yes", "maxspeed": "40", "old_ref": "EN 313", "oneway": "yes", "ref": "EM 313", "surface": "asphalt"}}, {"type": "Feature", "geometry": {"type": "LineString", "coordinates": [[-7.7213685, 41.280016], [-7.7211969, 41.2798676]]}, "properties": {"bridge": "viaduct", "highway": "primary", "lane_markings": "yes", "lanes": "2", "lanes:backward": "1", "lanes:forward": "1", "layer": "1", "lit": "yes", "maxspeed": "50", "old_ref": "EN 313", "oneway": "no", "ref": "EM 313", "surface": "asphalt"}}, {"type": "Feature", "geometry": {"type": "LineString", "coordinates": [[-7.7219661, 41.2809225], [-7.721889, 41.2808237], [-7.7218262, 41.2807432]]}, "properties": {"highway": "primary", "lanes": "1", "lit": "yes", "maxspeed": "50", "old_ref": "EN 313", "oneway": "yes", "ref": "EM 313", "surface": "asphalt"}}, {"type": "Feature", "geometry": {"type": "LineString", "coordinates": [[-7.7218262, 41.2807432], [-7.721785, 41.2805518], [-7.7217779, 41.2805186], [-7.7217701, 41.2804818], [-7.7217412, 41.280409], [-7.7216954, 41.2803291], [-7.7215761, 41.2802007]]}, "properties": {"highway": "primary", "lane_markings": "yes", "lanes": "2", "lanes:backward": "1", "lanes:forward": "1", "lit": "yes", "maxspeed:backward": "40", "maxspeed:forward": "50", "old_ref": "EN 313", "oneway": "no", "ref": "EM 313", "surface": "asphalt"}}, {"type": "Feature", "geometry": {"type": "LineString", "coordinates": [[-7.7461594, 41.1770996], [-7.745988, 41.177457], [-7.7459723, 41.1774948], [-7.7459594, 41.1775315], [-7.7459486, 41.177568], [-7.7459402, 41.1776076], [-7.7459216, 41.1777]]}, "properties": {"bridge": "yes", "highway": "primary", "lanes": "2", "layer": "1", "maxspeed": "50", "name": "Rua de Vilarinho dos Freires", "old_ref": "EN 313", "oneway": "no", "ref": "EM 313", "surface": "asphalt"}}, {"type": "Feature", "geometry": {"type": "LineString", "coordinates": [[-7.7172791, 41.2763295], [-7.7172752, 41.2763836], [-7.7172945, 41.2764358], [-7.7173348, 41.2764807]]}, "properties": {"highway": "primary", "junction": "roundabout", "lane_markings": "no", "lanes": "2", "lit": "yes", "maxspeed": "40", "old_ref": "EN 313", "ref": "EM 313", "surface": "asphalt"}}, {"type": "Feature", "geometry": {"type": "LineString", "coordinates": [[-7.7175836, 41.2762102], [-7.7175228, 41.2761984], [-7.7174574, 41.2762001], [-7.7173954, 41.2762159], [-7.7173422, 41.2762445], [-7.7173023, 41.2762835], [-7.7172791, 41.2763295]]}, "properties": {"highway": "primary", "junction": "roundabout", "lane_markings": "no", "lanes": "2", "lit": "yes", "maxspeed": "40", "old_ref": "EN 313", "ref": "EM 313", "surface": "asphalt"}}, {"type": "Feature", "geometry": {"type": "LineString", "coordinates": [[-7.713524, 41.2748783], [-7.7137729, 41.2749499], [-7.7146749, 41.2752093], [-7.7148118, 41.2752474], [-7.7153662, 41.2754063], [-7.715534, 41.2754525], [-7.715645, 41.2754852], [-7.716006, 41.2755882], [-7.7161109, 41.2756181], [-7.7163615, 41.2756904]]}, "properties": {"highway": "primary", "lane_markings": "yes", "lanes": "2", "lanes:backward": "1", "lanes:forward": "1", "lit": "yes", "maxspeed": "50", "old_ref": "EN 313", "oneway": "no", "ref": "EM 313", "surface": "asphalt"}}, {"type": "Feature", "geometry": {"type": "LineString", "coordinates": [[-7.7130922, 41.2747501], [-7.7132397, 41.2747964]]}, "properties": {"highway": "primary", "lane_markings": "yes", "lanes": "2", "lanes:backward": "1", "lanes:forward": "1", "lit": "yes", "maxspeed": "50", "name": "Reta da Portela", "old_ref": "EN 313", "oneway": "no", "ref": "EM 313", "surface": "asphalt"}}, {"type": "Feature", "geometry": {"type": "LineString", "coordinates": [[-7.7042822, 41.2693572], [-7.7044215, 41.2694483]]}, "properties": {"bridge": "yes", "highway": "primary", "lane_markings": "yes", "lanes": "2", "lanes:backward": "1", "lanes:forward": "1", "layer": "1", "lit": "yes", "maxspeed": "50", "name": "Reta da Portela", "old_ref": "EN 313", "oneway": "no", "ref": "EM 313", "surface": "asphalt"}}, {"type": "Feature", "geometry": {"type": "LineString", "coordinates": [[-7.7174, 41.2765217], [-7.717454, 41.2765303], [-7.7175197, 41.2765327], [-7.7175835, 41.2765207], [-7.7176399, 41.2764952], [-7.7176839, 41.2764585]]}, "properties": {"highway": "primary", "junction": "roundabout", "lane_markings": "no", "lanes": "2", "lit": "yes", "maxspeed": "40", "old_ref": "EN 313", "ref": "EM 313", "surface": "asphalt"}}, {"type": "Feature", "geometry": {"type": "LineString", "coordinates": [[-7.7132397, 41.2747964], [-7.713466, 41.2748611], [-7.713524, 41.2748783]]}, "properties": {"highway": "primary", "lane_markings": "yes", "lanes": "2", "lanes:backward": "1", "lanes:forward": "1", "lit": "yes", "maxspeed": "50", "name": "Reta da Portela", "old_ref": "EN 313", "oneway": "no", "ref": "EM 313", "surface": "asphalt"}}, {"type": "Feature", "geometry": {"type": "LineString", "coordinates": [[-7.7043563, 41.2690709], [-7.7054864, 41.2683087], [-7.7056274, 41.2682172], [-7.7057184, 41.2681582], [-7.7057812, 41.2681133], [-7.7058177, 41.2680859], [-7.7058497, 41.2680589], [-7.7058749, 41.2680319], [-7.7058991, 41.2680012], [-7.7059167, 41.2679755], [-7.7059352, 41.2679425], [-7.7060891, 41.2676094], [-7.7061065, 41.2675665], [-7.7061188, 41.2675323], [-7.7061252, 41.2675054], [-7.7061294, 41.2674835], [-7.7061319, 41.2674621], [-7.7061325, 41.2674417], [-7.7061285, 41.2674203], [-7.706121, 41.2673964], [-7.7061093, 41.2673678], [-7.7060907, 41.267334], [-7.7060007, 41.2671708], [-7.7059673, 41.2671265], [-7.7059316, 41.2670853], [-7.7058896, 41.267045], [-7.705851, 41.2670201], [-7.7058072, 41.2670036], [-7.7057645, 41.2669932], [-7.705639, 41.2669671], [-7.7055631, 41.266954], [-7.7054897, 41.2669423], [-7.7054374, 41.2669298], [-7.70539, 41.2669177], [-7.7053385, 41.2669004], [-7.7052999, 41.2668849], [-7.7052586, 41.2668628], [-7.7052266, 41.2668415], [-7.7051943, 41.2668123], [-7.7051666, 41.2667779], [-7.70514, 41.2667324], [-7.7051286, 41.2666957], [-7.7051229, 41.2666665], [-7.7051209, 41.2666564], [-7.7051182, 41.2666235], [-7.7051207, 41.2665727], [-7.7051456, 41.2663215], [-7.7051482, 41.2662795], [-7.7051478, 41.2662461], [-7.7051436, 41.2662067], [-7.7051327, 41.2661675], [-7.7051117, 41.2661219], [-7.705022, 41.265969], [-7.7050047, 41.2659224], [-7.7049931, 41.2658766], [-7.7049842, 41.2658137], [-7.7049843, 41.2657521], [-7.7050115, 41.2654823], [-7.7050113, 41.2654322], [-7.7050051, 41.2653807], [-7.704992, 41.2653242], [-7.7049565, 41.2651992]]}, "properties": {"highway": "primary", "lanes": "2", "maxspeed": "50", "name": "Rua Banda de M\u00fasica da Portela", "old_ref": "EN 313", "oneway": "no", "ref": "EM 313", "surface": "asphalt"}}, {"type": "Feature", "geometry": {"type": "LineString", "coordinates": [[-7.7215761, 41.2802007], [-7.7213685, 41.280016]]}, "properties": {"bridge": "viaduct", "highway": "primary", "lane_markings": "yes", "lanes": "2", "lanes:backward": "1", "lanes:forward": "1", "layer": "1", "lit": "yes", "maxspeed:backward": "40", "maxspeed:forward": "50", "old_ref": "EN 313", "oneway": "no", "ref": "EM 313", "surface": "asphalt"}}, {"type": "Feature", "geometry": {"type": "LineString", "coordinates": [[-7.7163615, 41.2756904], [-7.7164571, 41.2757195], [-7.7165376, 41.2757441], [-7.716598, 41.2757651], [-7.7166587, 41.2757873], [-7.7167118, 41.2758095], [-7.7167627, 41.2758326], [-7.7168127, 41.2758569], [-7.7168595, 41.2758829], [-7.7170589, 41.2760007]]}, "properties": {"highway": "primary", "lane_markings": "yes", "lanes": "2", "lanes:backward": "1", "lanes:forward": "1", "lit": "yes", "maxspeed:backward": "50", "maxspeed:forward": "40", "old_ref": "EN 313", "oneway": "no", "ref": "EM 313", "surface": "asphalt"}}, {"type": "Feature", "geometry": {"type": "LineString", "coordinates": [[-7.7211969, 41.2798676], [-7.7208323, 41.2795734], [-7.7207396, 41.2795138], [-7.7207094, 41.2794993]]}, "properties": {"highway": "primary", "lane_markings": "yes", "lanes": "2", "lanes:backward": "1", "lanes:forward": "1", "lit": "yes", "maxspeed": "50", "old_ref": "EN 313", "oneway": "no", "ref": "EM 313", "surface": "asphalt"}}, {"type": "Feature", "geometry": {"type": "LineString", "coordinates": [[-7.7173348, 41.2764807], [-7.7174, 41.2765217]]}, "properties": {"highway": "primary", "junction": "roundabout", "lane_markings": "no", "lanes": "2", "lit": "yes", "maxspeed": "40", "old_ref": "EN 313", "ref": "EM 313", "surface": "asphalt"}}, {"type": "Feature", "geometry": {"type": "LineString", "coordinates": [[-7.7130922, 41.2747501], [-7.7129093, 41.2746975], [-7.7126033, 41.2746143], [-7.712217, 41.2744941], [-7.7120967, 41.2744517], [-7.7120038, 41.2744185], [-7.7119085, 41.2743786], [-7.7118176, 41.2743359], [-7.7117348, 41.2742943], [-7.7116578, 41.2742537], [-7.7115798, 41.2742115], [-7.7115166, 41.2741741], [-7.7109999, 41.2738285], [-7.7099955, 41.2731563], [-7.7089896, 41.272483]]}, "properties": {"highway": "primary", "lane_markings": "yes", "lanes": "2", "lanes:backward": "1", "lanes:forward": "1", "lit": "no", "maxspeed": "90", "name": "Reta da Portela", "old_ref": "EN 313", "oneway": "no", "ref": "EM 313", "surface": "asphalt"}}, {"type": "Feature", "geometry": {"type": "LineString", "coordinates": [[-7.7049565, 41.2651992], [-7.7049346, 41.2651163], [-7.7049255, 41.2650433], [-7.7049302, 41.2649438], [-7.7049878, 41.264833], [-7.7050648, 41.2647514], [-7.7051015, 41.2647276], [-7.7051591, 41.2646903], [-7.7052976, 41.264637], [-7.7057064, 41.264539], [-7.7063219, 41.2643914], [-7.7064822, 41.2643481], [-7.7065963, 41.2642862], [-7.7067019, 41.2641981], [-7.7068271, 41.2640476], [-7.7069801, 41.2638796], [-7.7071051, 41.2637882], [-7.7074851, 41.2636487], [-7.707862, 41.2635264], [-7.7079163, 41.2635088], [-7.7081011, 41.2634211], [-7.708219, 41.2633338], [-7.7086493, 41.2629297], [-7.7088131, 41.2627862], [-7.7092055, 41.2625485], [-7.7093237, 41.2624675], [-7.709407, 41.2624104], [-7.7095108, 41.2622869], [-7.7095517, 41.2621304], [-7.7096074, 41.2618231], [-7.7096555, 41.2617345], [-7.709745, 41.2616221], [-7.7098677, 41.2615248], [-7.710012, 41.261489], [-7.7105198, 41.2614229], [-7.7107017, 41.2613696], [-7.7108195, 41.2613028], [-7.7110029, 41.2611522], [-7.7111133, 41.2610071], [-7.7111877, 41.2609093], [-7.71133, 41.2606212], [-7.7114986, 41.2603873], [-7.7121466, 41.259906], [-7.7128689, 41.2593527], [-7.7130083, 41.2591936], [-7.7130858, 41.2590876], [-7.7131823, 41.258959], [-7.7133674, 41.2588249], [-7.7136686, 41.2586249], [-7.7137793, 41.2584946], [-7.7138129, 41.2583613], [-7.7138146, 41.2582274], [-7.7137608, 41.2580376], [-7.7136658, 41.2578274], [-7.7136181, 41.2576691], [-7.7136073, 41.2575286], [-7.7136499, 41.257385], [-7.713751, 41.25724], [-7.7139023, 41.2570997], [-7.7140832, 41.2569917], [-7.7143292, 41.2568979], [-7.714639, 41.2567806], [-7.715152, 41.2565241], [-7.7156536, 41.2562595], [-7.7158712, 41.2560876], [-7.7159077, 41.2560451], [-7.7159617, 41.2559823], [-7.7160125, 41.2558527], [-7.7160045, 41.2556891], [-7.7159137, 41.2552547], [-7.7158749, 41.2549704], [-7.7158284, 41.2547925], [-7.7157137, 41.2545345], [-7.7156566, 41.254393], [-7.7156328, 41.2542764], [-7.7156401, 41.2541422], [-7.7156699, 41.2540179], [-7.7157299, 41.2538372], [-7.7158369, 41.2535702], [-7.7158868, 41.2534143], [-7.7158743, 41.2532771], [-7.7158155, 41.253094], [-7.7157174, 41.2528313], [-7.7156677, 41.2526678], [-7.7156324, 41.2522503], [-7.7156596, 41.2519065], [-7.7157274, 41.2517592], [-7.715957, 41.2514717], [-7.716177, 41.2512023], [-7.7165403, 41.2507266], [-7.7165502, 41.2507136], [-7.7167651, 41.2504658], [-7.716938, 41.2503075], [-7.7170879, 41.2502086], [-7.717331, 41.2500694], [-7.7182547, 41.2496594], [-7.719244, 41.2492354], [-7.7194474, 41.2491354], [-7.7195555, 41.2490539], [-7.7196734, 41.2489355], [-7.7198892, 41.2486294], [-7.7201768, 41.2482824], [-7.7203145, 41.2481213], [-7.7204082, 41.2479398], [-7.720456, 41.2477444], [-7.7204584, 41.2474081], [-7.7204687, 41.2471576], [-7.7205332, 41.2469443], [-7.7207333, 41.2465123], [-7.7208725, 41.2462119], [-7.7210057, 41.2459533], [-7.7210933, 41.2457832], [-7.7214034, 41.2451737], [-7.7215744, 41.2448641], [-7.7215905, 41.2448349], [-7.7217944, 41.244591], [-7.7220937, 41.2443133], [-7.7222244, 41.2442239], [-7.7224356, 41.2441074], [-7.722896, 41.2439412], [-7.722973, 41.243912], [-7.7232389, 41.2438113], [-7.7234495, 41.2436998], [-7.7239525, 41.2433215], [-7.7240876, 41.24324], [-7.7242768, 41.2431901], [-7.7244721, 41.2431673], [-7.724653, 41.2431756], [-7.724807, 41.2432097], [-7.7264133, 41.2436386], [-7.7266268, 41.2436774], [-7.7268054, 41.2436807], [-7.7269841, 41.2436287], [-7.7270847, 41.2435508], [-7.7271497, 41.2434047], [-7.7272581, 41.2428665], [-7.7272915, 41.2427644], [-7.7273049, 41.2427236], [-7.7273724, 41.2426145], [-7.7279314, 41.241964], [-7.7280249, 41.2418393], [-7.7280951, 41.2417042], [-7.7281292, 41.2415686], [-7.7281007, 41.241392], [-7.728001, 41.2410893]]}, "properties": {"highway": "primary", "lanes": "2", "maxspeed": "90", "name": "Rua Banda de M\u00fasica da Portela", "old_ref": "EN 313", "oneway": "no", "ref": "EM 313", "surface": "asphalt"}}, {"type": "Feature", "geometry": {"type": "LineString", "coordinates": [[-7.7274275, 41.2368675], [-7.727412, 41.2370884], [-7.7274006, 41.2372516]]}, "properties": {"highway": "primary", "lanes": "2", "maxspeed": "50", "old_ref": "EN 313", "oneway": "no", "ref": "EM 313", "surface": "asphalt"}}, {"type": "Feature", "geometry": {"type": "LineString", "coordinates": [[-7.7274006, 41.2372516], [-7.7273769, 41.2375232], [-7.7273061, 41.2382332], [-7.7272894, 41.2384036], [-7.7272804, 41.2384952], [-7.7272871, 41.2387927], [-7.7273468, 41.2391096], [-7.7274574, 41.2394608], [-7.7275117, 41.2396214], [-7.7275719, 41.2397996], [-7.7276489, 41.2400302], [-7.7279006, 41.2407841], [-7.728001, 41.2410893]]}, "properties": {"highway": "primary", "lanes": "2", "maxspeed": "50", "name": "Rua do Vale do Pa\u00e7o", "old_ref": "EN 313", "oneway": "no", "ref": "EM 313", "surface": "asphalt"}}, {"type": "Feature", "geometry": {"type": "LineString", "coordinates": [[-7.7462398, 41.1769453], [-7.7461594, 41.1770996]]}, "properties": {"highway": "primary", "lanes": "2", "maxspeed": "50", "name": "Rua de Vilarinho dos Freires", "old_ref": "EN 313", "oneway": "no", "ref": "EM 313", "surface": "asphalt"}}, {"type": "Feature", "geometry": {"type": "LineString", "coordinates": [[-7.7463093, 41.176812], [-7.7462398, 41.1769453]]}, "properties": {"highway": "primary", "lanes": "2", "layer": "-1", "maxspeed": "50", "name": "Rua de Vilarinho dos Freires", "old_ref": "EN 313", "oneway": "no", "ref": "EM 313", "surface": "asphalt", "tunnel": "yes"}}, {"type": "Feature", "geometry": {"type": "LineString", "coordinates": [[-7.7459216, 41.1777], [-7.7459168, 41.1777374], [-7.7459146, 41.177772], [-7.7459156, 41.1778084], [-7.745925, 41.1779379], [-7.7459929, 41.1781047], [-7.7460511, 41.1782119], [-7.7460683, 41.1782435], [-7.7465075, 41.1788701], [-7.7476245, 41.1804808], [-7.7477099, 41.1806593], [-7.7477867, 41.1808634], [-7.7478269, 41.1811249], [-7.7478165, 41.1813531], [-7.7477713, 41.1816498], [-7.747654, 41.1821184], [-7.7474443, 41.1828161], [-7.7473689, 41.1829845], [-7.7472949, 41.1831271]]}, "properties": {"highway": "primary", "lanes": "2", "maxspeed": "50", "name": "Rua de Vilarinho dos Freires", "old_ref": "EN 313", "oneway": "no", "ref": "EM 313", "surface": "asphalt"}}, {"type": "Feature", "geometry": {"type": "LineString", "coordinates": [[-7.7473434, 41.1736228], [-7.7472064, 41.1736714], [-7.7469798, 41.1738073], [-7.7469164, 41.1738454], [-7.7467369, 41.1740497], [-7.7466565, 41.1742558], [-7.746625, 41.1745198], [-7.7465993, 41.1752842], [-7.7465135, 41.1758906], [-7.7464832, 41.1760858], [-7.74643, 41.1764556], [-7.746414, 41.1765665], [-7.7464075, 41.1765969], [-7.746397, 41.1766295], [-7.7463841, 41.176664], [-7.7463691, 41.1766974], [-7.7463093, 41.176812]]}, "properties": {"highway": "primary", "lanes": "2", "maxspeed": "50", "name": "Rua de Vilarinho dos Freires", "old_ref": "EN 313", "oneway": "no", "ref": "EM 313", "surface": "asphalt"}}, {"type": "Feature", "geometry": {"type": "LineString", "coordinates": [[-7.7466116, 41.1863596], [-7.7466034, 41.1865952], [-7.7465642, 41.186837], [-7.7464797, 41.1871005], [-7.7463322, 41.187398], [-7.7462382, 41.1875777], [-7.7460988, 41.1877727], [-7.7458344, 41.188099], [-7.7455966, 41.1883632], [-7.7452194, 41.1887052], [-7.7448356, 41.1890421], [-7.744281, 41.1895016], [-7.7442121, 41.189557], [-7.7437059, 41.1899874], [-7.7434058, 41.1902413], [-7.7432416, 41.1904138], [-7.7431793, 41.1905011], [-7.7431231, 41.1905905], [-7.7429979, 41.1908049], [-7.7426353, 41.1914936]]}, "properties": {"highway": "primary", "lanes": "2", "maxspeed": "50", "name": "Rua de Alva\u00e7\u00f5es do Tanha", "old_ref": "EN 313", "oneway": "no", "ref": "EM 313", "surface": "asphalt"}}, {"type": "Feature", "geometry": {"type": "LineString", "coordinates": [[-7.7472949, 41.1831271], [-7.747177, 41.1833142], [-7.7469698, 41.1835878], [-7.7467685, 41.1839223], [-7.7466198, 41.1842036], [-7.7465683, 41.1844933], [-7.7465568, 41.1849713], [-7.7466116, 41.1863596]]}, "properties": {"highway": "primary", "lanes": "2", "maxspeed": "90", "old_ref": "EN 313", "oneway": "no", "ref": "EM 313", "surface": "asphalt"}}]}