{"type": "FeatureCollection", "features": [{"type": "Feature", "geometry": {"type": "LineString", "coordinates": [[-8.6842075, 39.6346644], [-8.6842333, 39.6346225], [-8.6842508, 39.634578], [-8.6842595, 39.6345321]]}, "properties": {"highway": "primary", "junction": "roundabout", "lanes": "3", "lit": "yes", "maxspeed": "40", "name": "Rotunda dos Peregrinos", "ref": "EM 356", "smoothness": "excellent", "surface": "asphalt"}}, {"type": "Feature", "geometry": {"type": "LineString", "coordinates": [[-8.6840354, 39.6342298], [-8.6839599, 39.6342078], [-8.6838802, 39.6341977], [-8.6837995, 39.6341999]]}, "properties": {"highway": "primary", "junction": "roundabout", "lanes": "3", "lit": "yes", "maxspeed": "40", "name": "Rotunda dos Peregrinos", "ref": "EM 356", "smoothness": "excellent", "surface": "asphalt"}}, {"type": "Feature", "geometry": {"type": "LineString", "coordinates": [[-8.6663221, 39.6255519], [-8.6663023, 39.6254517], [-8.6662408, 39.625362]]}, "properties": {"highway": "primary", "junction": "roundabout", "lanes": "3", "name": "Rotunda dos Pastorinhos", "ref": "EM 356", "smoothness": "excellent", "surface": "asphalt"}}, {"type": "Feature", "geometry": {"type": "LineString", "coordinates": [[-8.6656204, 39.6253555], [-8.6655669, 39.6254226], [-8.6655375, 39.625498]]}, "properties": {"highway": "primary", "junction": "roundabout", "lanes": "3", "name": "Rotunda dos Pastorinhos", "ref": "EM 356", "smoothness": "excellent", "surface": "asphalt"}}]}