{"type": "FeatureCollection", "features": [{"type": "Feature", "geometry": {"type": "LineString", "coordinates": [[-7.7848965, 41.8299498], [-7.784965, 41.8299386], [-7.7852787, 41.8297761], [-7.785425, 41.8297003], [-7.7854629, 41.8296561], [-7.7854751, 41.8296051], [-7.7854602, 41.8295543], [-7.7854202, 41.8295114], [-7.7853924, 41.829499], [-7.7853613, 41.8294833], [-7.7852926, 41.8294741], [-7.7852244, 41.8294852], [-7.7850914, 41.8295541], [-7.7847642, 41.8297237], [-7.7847264, 41.8297676], [-7.7847141, 41.8298188], [-7.7847291, 41.8298698], [-7.7847406, 41.8298809], [-7.7847517, 41.8298941], [-7.7847688, 41.8299124], [-7.7848278, 41.8299406], [-7.7848965, 41.8299498]]}, "properties": {"highway": "primary", "junction": "roundabout", "lanes": "2", "name": "Largo Lama do Moinho", "postal_code": "5470-225", "ref": "EN 103-9;EM 308", "source": "bing"}}, {"type": "Feature", "geometry": {"type": "LineString", "coordinates": [[-7.7857764, 41.8293898], [-7.786532, 41.8291141], [-7.7870379, 41.8289595], [-7.7879404, 41.8287233], [-7.7881502, 41.8286684], [-7.7882436, 41.828644], [-7.788515, 41.8285476], [-7.7886474, 41.8284693], [-7.7888194, 41.8283243]]}, "properties": {"highway": "primary", "name": "Avenida Marginal C\u00e1vado", "postal_code": "5470-266", "ref": "EN 103-9;EM 308"}}, {"type": "Feature", "geometry": {"type": "MultiPolygon", "coordinates": [[[[-7.7854751, 41.8296051], [-7.7854602, 41.8295543], [-7.7854202, 41.8295114], [-7.7853924, 41.829499], [-7.7853613, 41.8294833], [-7.7852926, 41.8294741], [-7.7852244, 41.8294852], [-7.7850914, 41.8295541], [-7.7847642, 41.8297237], [-7.7847264, 41.8297676], [-7.7847141, 41.8298188], [-7.7847291, 41.8298698], [-7.7847406, 41.8298809], [-7.7847517, 41.8298941], [-7.7847688, 41.8299124], [-7.7848278, 41.8299406], [-7.7848965, 41.8299498], [-7.784965, 41.8299386], [-7.7852787, 41.8297761], [-7.785425, 41.8297003], [-7.7854629, 41.8296561], [-7.7854751, 41.8296051]]]]}, "properties": {"highway": "primary", "junction": "roundabout", "lanes": "2", "name": "Largo Lama do Moinho", "postal_code": "5470-225", "ref": "EN 103-9;EM 308", "source": "bing"}}]}