{"type": "FeatureCollection", "features": [{"type": "Feature", "geometry": {"type": "LineString", "coordinates": [[-8.4839573, 40.8948576], [-8.4839886, 40.8949286], [-8.484009, 40.8950632]]}, "properties": {"highway": "primary", "lanes": "2", "maxspeed": "40", "name": "Rua Domingos Jos\u00e9 de Oliveira", "oneway": "no", "ref": "EM 327", "surface": "asphalt"}}, {"type": "Feature", "geometry": {"type": "LineString", "coordinates": [[-8.4836322, 40.8960045], [-8.4835932, 40.8960145], [-8.4835611, 40.896034], [-8.4835396, 40.8960605], [-8.4835313, 40.896091], [-8.4835373, 40.8961219], [-8.4835569, 40.8961493], [-8.4835851, 40.8961688], [-8.4836202, 40.8961806], [-8.4836583, 40.8961834], [-8.4836966, 40.8961765], [-8.4837298, 40.8961607], [-8.4837544, 40.8961375], [-8.4837677, 40.8961095], [-8.4837685, 40.8960816], [-8.483758, 40.8960548], [-8.4837372, 40.8960318], [-8.4837081, 40.8960147], [-8.4836734, 40.8960051], [-8.4836322, 40.8960045]]}, "properties": {"highway": "primary", "junction": "roundabout", "lanes": "2", "maxspeed": "40", "name": "Rua Domingos Jos\u00e9 de Oliveira", "ref": "EM 327", "surface": "asphalt"}}, {"type": "Feature", "geometry": {"type": "LineString", "coordinates": [[-8.482167, 40.8978252], [-8.4822382, 40.89776], [-8.482532, 40.8975955], [-8.4830839, 40.8972865], [-8.4832402, 40.8971635], [-8.4833383, 40.8970171], [-8.483546, 40.8964717], [-8.4836206, 40.8962428], [-8.4836583, 40.8961834]]}, "properties": {"highway": "primary", "lanes": "2", "maxspeed": "40", "name": "Rua Domingos Jos\u00e9 de Oliveira", "oneway": "yes", "ref": "EM 327"}}, {"type": "Feature", "geometry": {"type": "LineString", "coordinates": [[-8.4836734, 40.8960051], [-8.4837305, 40.8958449], [-8.484009, 40.8950632]]}, "properties": {"highway": "primary", "lanes": "2", "maxspeed": "40", "name": "Rua Domingos Jos\u00e9 de Oliveira", "oneway": "no", "ref": "EM 327", "surface": "asphalt"}}, {"type": "Feature", "geometry": {"type": "LineString", "coordinates": [[-8.484009, 40.8950632], [-8.4840968, 40.8949994], [-8.4841427, 40.8949797], [-8.4841835, 40.8949622], [-8.484267, 40.8949563]]}, "properties": {"highway": "primary", "lane_markings": "yes", "lanes": "1", "name": "Rua Domingos Jos\u00e9 de Oliveira", "oneway": "yes", "ref": "EM 327", "surface": "asphalt"}}, {"type": "Feature", "geometry": {"type": "LineString", "coordinates": [[-8.479186, 40.8982788], [-8.479089, 40.8983838], [-8.4789322, 40.8984741], [-8.4787459, 40.8985701], [-8.4778298, 40.8990423], [-8.4776272, 40.8991531], [-8.4775425, 40.8991868]]}, "properties": {"highway": "primary", "lanes": "2", "maxspeed": "50", "name": "Rua Macieira de Sarnes", "oneway": "yes", "ref": "EM 327"}}, {"type": "Feature", "geometry": {"type": "LineString", "coordinates": [[-8.4775691, 40.8992091], [-8.4775425, 40.8991868], [-8.4775077, 40.8991722], [-8.4774684, 40.8991669], [-8.477429, 40.8991716], [-8.4773938, 40.8991857], [-8.4773666, 40.8992078], [-8.4773504, 40.8992353], [-8.477347, 40.8992653], [-8.4773566, 40.8992945], [-8.4773783, 40.8993198], [-8.4774095, 40.8993382], [-8.4774469, 40.8993481], [-8.4774865, 40.8993482], [-8.477524, 40.8993387], [-8.4775554, 40.8993205], [-8.4775774, 40.8992955], [-8.4775875, 40.8992666], [-8.4775846, 40.8992368], [-8.4775691, 40.8992091]]}, "properties": {"highway": "primary", "junction": "roundabout", "ref": "EM 327"}}, {"type": "Feature", "geometry": {"type": "LineString", "coordinates": [[-8.4795523, 40.8981472], [-8.4794971, 40.8981135], [-8.4794303, 40.8980956], [-8.4793592, 40.8980954], [-8.4792923, 40.898113], [-8.479241, 40.8981428], [-8.4792042, 40.8981831], [-8.4791853, 40.8982298], [-8.479186, 40.8982788], [-8.4792062, 40.8983252], [-8.4792436, 40.8983645], [-8.479295, 40.8983934], [-8.4793554, 40.8984094], [-8.4794194, 40.898411], [-8.4794811, 40.898398], [-8.479535, 40.8983714], [-8.4795757, 40.8983338], [-8.4795996, 40.8982886], [-8.4796043, 40.8982401], [-8.4795896, 40.8981928], [-8.4795523, 40.8981472]]}, "properties": {"highway": "primary", "junction": "roundabout", "maxspeed": "40", "ref": "EM 327"}}, {"type": "Feature", "geometry": {"type": "LineString", "coordinates": [[-8.4807983, 40.8979977], [-8.4806956, 40.898029], [-8.4802651, 40.8980746], [-8.4796417, 40.8981303], [-8.4794971, 40.8981135]]}, "properties": {"highway": "primary", "lanes": "2", "maxspeed": "40", "name": "Rua Domingos Jos\u00e9 de Oliveira", "oneway": "yes", "ref": "EM 327"}}, {"type": "Feature", "geometry": {"type": "LineString", "coordinates": [[-8.4819472, 40.8978655], [-8.4817321, 40.8979326], [-8.4816305, 40.8979613], [-8.4815352, 40.8979779], [-8.4814121, 40.8979937], [-8.4811829, 40.8980093], [-8.4810457, 40.8980149]]}, "properties": {"highway": "primary", "lanes": "2", "maxheight:signed": "no", "maxspeed": "40", "name": "Rua Domingos Jos\u00e9 de Oliveira", "ref": "EM 327", "surface": "asphalt"}}, {"type": "Feature", "geometry": {"type": "LineString", "coordinates": [[-8.480902, 40.8981266], [-8.4809417, 40.898126], [-8.4809792, 40.8981162], [-8.481011, 40.8980981], [-8.481034, 40.8980736], [-8.4810459, 40.898045], [-8.4810457, 40.8980149], [-8.4810338, 40.8979871], [-8.4810115, 40.8979633], [-8.4809808, 40.8979455], [-8.4809445, 40.8979354], [-8.4809059, 40.897934], [-8.4808711, 40.8979406], [-8.48084, 40.8979541], [-8.4808151, 40.8979737], [-8.4807983, 40.8979977], [-8.4807911, 40.8980242], [-8.4807942, 40.8980529], [-8.4808084, 40.8980796], [-8.4808323, 40.898102], [-8.4808638, 40.898118], [-8.480902, 40.8981266]]}, "properties": {"highway": "primary", "junction": "roundabout", "maxspeed": "40", "name": "Rua Domingos Jos\u00e9 de Oliveira", "ref": "EM 327"}}, {"type": "Feature", "geometry": {"type": "LineString", "coordinates": [[-8.4821246, 40.8978942], [-8.4821477, 40.8978748], [-8.4821623, 40.8978511], [-8.482167, 40.8978252], [-8.4821614, 40.8977994], [-8.4821459, 40.897776], [-8.4821221, 40.8977571], [-8.4820919, 40.8977443], [-8.4820581, 40.8977389], [-8.4820236, 40.8977412], [-8.4819916, 40.8977511], [-8.4819649, 40.8977676], [-8.4819458, 40.8977894], [-8.481936, 40.8978145], [-8.4819365, 40.8978407], [-8.4819472, 40.8978655], [-8.481967, 40.8978869], [-8.4819944, 40.8979029], [-8.4820267, 40.8979121], [-8.4820612, 40.8979137], [-8.4820948, 40.8979076], [-8.4821246, 40.8978942]]}, "properties": {"highway": "primary", "junction": "roundabout", "maxspeed": "40", "name": "Rua Domingos Jos\u00e9 de Oliveira", "ref": "EM 327"}}, {"type": "Feature", "geometry": {"type": "LineString", "coordinates": [[-8.4835569, 40.8961493], [-8.4835428, 40.8962316], [-8.4834946, 40.896367], [-8.4834635, 40.8964546], [-8.4832732, 40.8969899], [-8.4831753, 40.8971258], [-8.4830359, 40.8972444], [-8.4828792, 40.8973424]]}, "properties": {"highway": "primary", "lanes": "2", "maxspeed": "40", "name": "Rua Domingos Jos\u00e9 de Oliveira", "oneway": "yes", "ref": "EM 327", "surface": "asphalt"}}, {"type": "Feature", "geometry": {"type": "LineString", "coordinates": [[-8.4775846, 40.8992368], [-8.4778619, 40.8990863], [-8.4789676, 40.8985161], [-8.479152, 40.8984284], [-8.479295, 40.8983934]]}, "properties": {"highway": "primary", "lanes": "2", "name": "Rua Macieira de Sarnes", "oneway": "yes", "ref": "EM 327"}}, {"type": "Feature", "geometry": {"type": "LineString", "coordinates": [[-8.4795996, 40.8982886], [-8.4797099, 40.8982054], [-8.4798601, 40.8981699], [-8.4802777, 40.8981257], [-8.480693, 40.8980817], [-8.4808323, 40.898102]]}, "properties": {"highway": "primary", "lanes": "2", "maxspeed": "40", "name": "Rua Domingos Jos\u00e9 de Oliveira", "oneway": "yes", "ref": "EM 327"}}, {"type": "Feature", "geometry": {"type": "LineString", "coordinates": [[-8.4828792, 40.8973424], [-8.482649, 40.8974592], [-8.4824982, 40.897546], [-8.4821896, 40.8977157], [-8.4820919, 40.8977443]]}, "properties": {"highway": "primary", "lanes": "2", "maxspeed": "40", "name": "Rua Domingos Jos\u00e9 de Oliveira", "oneway": "yes", "ref": "EM 327", "surface": "asphalt"}}, {"type": "Feature", "geometry": {"type": "MultiPolygon", "coordinates": [[[[-8.4837685, 40.8960816], [-8.483758, 40.8960548], [-8.4837372, 40.8960318], [-8.4837081, 40.8960147], [-8.4836734, 40.8960051], [-8.4836322, 40.8960045], [-8.4835932, 40.8960145], [-8.4835611, 40.896034], [-8.4835396, 40.8960605], [-8.4835313, 40.896091], [-8.4835373, 40.8961219], [-8.4835569, 40.8961493], [-8.4835851, 40.8961688], [-8.4836202, 40.8961806], [-8.4836583, 40.8961834], [-8.4836966, 40.8961765], [-8.4837298, 40.8961607], [-8.4837544, 40.8961375], [-8.4837677, 40.8961095], [-8.4837685, 40.8960816]]]]}, "properties": {"highway": "primary", "junction": "roundabout", "lanes": "2", "maxspeed": "40", "name": "Rua Domingos Jos\u00e9 de Oliveira", "ref": "EM 327", "surface": "asphalt"}}, {"type": "Feature", "geometry": {"type": "MultiPolygon", "coordinates": [[[[-8.4775875, 40.8992666], [-8.4775846, 40.8992368], [-8.4775691, 40.8992091], [-8.4775425, 40.8991868], [-8.4775077, 40.8991722], [-8.4774684, 40.8991669], [-8.477429, 40.8991716], [-8.4773938, 40.8991857], [-8.4773666, 40.8992078], [-8.4773504, 40.8992353], [-8.477347, 40.8992653], [-8.4773566, 40.8992945], [-8.4773783, 40.8993198], [-8.4774095, 40.8993382], [-8.4774469, 40.8993481], [-8.4774865, 40.8993482], [-8.477524, 40.8993387], [-8.4775554, 40.8993205], [-8.4775774, 40.8992955], [-8.4775875, 40.8992666]]]]}, "properties": {"highway": "primary", "junction": "roundabout", "ref": "EM 327"}}, {"type": "Feature", "geometry": {"type": "MultiPolygon", "coordinates": [[[[-8.4796043, 40.8982401], [-8.4795896, 40.8981928], [-8.4795523, 40.8981472], [-8.4794971, 40.8981135], [-8.4794303, 40.8980956], [-8.4793592, 40.8980954], [-8.4792923, 40.898113], [-8.479241, 40.8981428], [-8.4792042, 40.8981831], [-8.4791853, 40.8982298], [-8.479186, 40.8982788], [-8.4792062, 40.8983252], [-8.4792436, 40.8983645], [-8.479295, 40.8983934], [-8.4793554, 40.8984094], [-8.4794194, 40.898411], [-8.4794811, 40.898398], [-8.479535, 40.8983714], [-8.4795757, 40.8983338], [-8.4795996, 40.8982886], [-8.4796043, 40.8982401]]]]}, "properties": {"highway": "primary", "junction": "roundabout", "maxspeed": "40", "ref": "EM 327"}}, {"type": "Feature", "geometry": {"type": "MultiPolygon", "coordinates": [[[[-8.4810459, 40.898045], [-8.4810457, 40.8980149], [-8.4810338, 40.8979871], [-8.4810115, 40.8979633], [-8.4809808, 40.8979455], [-8.4809445, 40.8979354], [-8.4809059, 40.897934], [-8.4808711, 40.8979406], [-8.48084, 40.8979541], [-8.4808151, 40.8979737], [-8.4807983, 40.8979977], [-8.4807911, 40.8980242], [-8.4807942, 40.8980529], [-8.4808084, 40.8980796], [-8.4808323, 40.898102], [-8.4808638, 40.898118], [-8.480902, 40.8981266], [-8.4809417, 40.898126], [-8.4809792, 40.8981162], [-8.481011, 40.8980981], [-8.481034, 40.8980736], [-8.4810459, 40.898045]]]]}, "properties": {"highway": "primary", "junction": "roundabout", "maxspeed": "40", "name": "Rua Domingos Jos\u00e9 de Oliveira", "ref": "EM 327"}}, {"type": "Feature", "geometry": {"type": "MultiPolygon", "coordinates": [[[[-8.482167, 40.8978252], [-8.4821614, 40.8977994], [-8.4821459, 40.897776], [-8.4821221, 40.8977571], [-8.4820919, 40.8977443], [-8.4820581, 40.8977389], [-8.4820236, 40.8977412], [-8.4819916, 40.8977511], [-8.4819649, 40.8977676], [-8.4819458, 40.8977894], [-8.481936, 40.8978145], [-8.4819365, 40.8978407], [-8.4819472, 40.8978655], [-8.481967, 40.8978869], [-8.4819944, 40.8979029], [-8.4820267, 40.8979121], [-8.4820612, 40.8979137], [-8.4820948, 40.8979076], [-8.4821246, 40.8978942], [-8.4821477, 40.8978748], [-8.4821623, 40.8978511], [-8.482167, 40.8978252]]]]}, "properties": {"highway": "primary", "junction": "roundabout", "maxspeed": "40", "name": "Rua Domingos Jos\u00e9 de Oliveira", "ref": "EM 327"}}]}