{"type": "FeatureCollection", "features": [{"type": "Feature", "geometry": {"type": "LineString", "coordinates": [[-7.479925, 40.1320563], [-7.4797076, 40.1320891], [-7.479272, 40.1322698], [-7.4791082, 40.1323391]]}, "properties": {"highway": "primary", "lanes": "1", "maxspeed": "90", "oneway": "yes", "ref": "EM 522", "source": "Bing", "surface": "asphalt"}}, {"type": "Feature", "geometry": {"type": "LineString", "coordinates": [[-7.483619, 40.1305755], [-7.483531, 40.1306606], [-7.4834109, 40.1307456], [-7.4831872, 40.1308378], [-7.4828264, 40.1309283], [-7.4825377, 40.1309948], [-7.4823822, 40.1310378], [-7.4821992, 40.1310969], [-7.4820283, 40.1311837]]}, "properties": {"highway": "primary", "lanes": "1", "maxspeed": "90", "oneway": "yes", "ref": "EM 522", "source": "Bing", "surface": "asphalt"}}, {"type": "Feature", "geometry": {"type": "LineString", "coordinates": [[-7.4820283, 40.1311837], [-7.4822319, 40.1311274], [-7.4823877, 40.1310806], [-7.4826642, 40.1310125], [-7.482882, 40.1309707], [-7.4831881, 40.1309017], [-7.4834383, 40.130832], [-7.4835879, 40.1307908], [-7.4837082, 40.1307817], [-7.4838668, 40.1307879]]}, "properties": {"highway": "primary", "lanes": "1", "lit": "yes", "maxspeed": "40", "oneway": "yes", "ref": "EM 522", "sidewalk": "no", "source": "Bing", "surface": "asphalt", "traffic_calming": "bump"}}, {"type": "Feature", "geometry": {"type": "LineString", "coordinates": [[-7.4820283, 40.1311837], [-7.4811255, 40.1315413], [-7.480781, 40.1316893], [-7.4805379, 40.1317938], [-7.479925, 40.1320563]]}, "properties": {"highway": "primary", "lanes": "1", "maxspeed": "90", "overtaking": "no", "ref": "EM 522", "surface": "asphalt"}}, {"type": "Feature", "geometry": {"type": "LineString", "coordinates": [[-7.4791082, 40.1323391], [-7.4789445, 40.1324084], [-7.4788346, 40.132459], [-7.4786373, 40.1325497]]}, "properties": {"highway": "primary", "lanes": "2", "maxspeed": "90", "oneway": "yes", "ref": "EM 522", "source": "Bing", "surface": "asphalt"}}, {"type": "Feature", "geometry": {"type": "LineString", "coordinates": [[-7.4783723, 40.1328127], [-7.4785635, 40.13269], [-7.4787809, 40.1325717], [-7.4790116, 40.1324575], [-7.4793151, 40.1323293], [-7.4795396, 40.1322345], [-7.4797519, 40.1321459], [-7.4798429, 40.1320988], [-7.479925, 40.1320563]]}, "properties": {"highway": "primary", "lanes": "1", "maxspeed": "90", "oneway": "yes", "ref": "EM 522", "source": "Bing", "surface": "asphalt"}}]}