{"type": "FeatureCollection", "features": [{"type": "Feature", "geometry": {"type": "LineString", "coordinates": [[-9.4308931, 38.7186518], [-9.4309624, 38.7185629], [-9.4309951, 38.7185204], [-9.4310582, 38.7184425], [-9.4311709, 38.7183146]]}, "properties": {"bridge": "yes", "highway": "primary", "lanes": "2", "layer": "1", "name": "Avenida Brigadeiro Victor Novais Gon\u00e7alves", "oneway": "yes", "ref": "EM 593", "surface": "asphalt"}}, {"type": "Feature", "geometry": {"type": "LineString", "coordinates": [[-9.4337016, 38.717026], [-9.4343045, 38.7169805], [-9.4346254, 38.7169497], [-9.4348204, 38.7169237], [-9.435024, 38.7168832], [-9.4353695, 38.716808], [-9.4355991, 38.7167471]]}, "properties": {"highway": "primary", "lanes": "1", "name": "Avenida Brigadeiro Victor Novais Gon\u00e7alves", "oneway": "yes", "ref": "EM 593", "surface": "asphalt"}}, {"type": "Feature", "geometry": {"type": "LineString", "coordinates": [[-9.4317501, 38.7177316], [-9.4316704, 38.717791], [-9.4310848, 38.7182581]]}, "properties": {"highway": "primary", "lanes": "2", "name": "Avenida Brigadeiro Victor Novais Gon\u00e7alves", "oneway": "yes", "ref": "EM 593", "surface": "asphalt"}}, {"type": "Feature", "geometry": {"type": "LineString", "coordinates": [[-9.4307496, 38.7187909], [-9.4308342, 38.7187058]]}, "properties": {"highway": "primary", "lanes": "1", "name": "Avenida Brigadeiro Victor Novais Gon\u00e7alves", "oneway": "yes", "ref": "EM 593", "surface": "asphalt"}}, {"type": "Feature", "geometry": {"type": "LineString", "coordinates": [[-9.4310848, 38.7182581], [-9.431031, 38.7183084], [-9.4309225, 38.718433], [-9.4307982, 38.7186063]]}, "properties": {"bridge": "yes", "highway": "primary", "lanes": "2", "layer": "1", "name": "Avenida Brigadeiro Victor Novais Gon\u00e7alves", "oneway": "yes", "ref": "EM 593", "surface": "asphalt"}}, {"type": "Feature", "geometry": {"type": "LineString", "coordinates": [[-9.4308342, 38.7187058], [-9.4308931, 38.7186518]]}, "properties": {"highway": "primary", "lanes": "1", "layer": "1", "name": "Avenida Brigadeiro Victor Novais Gon\u00e7alves", "oneway": "yes", "ref": "EM 593", "surface": "asphalt"}}, {"type": "Feature", "geometry": {"type": "LineString", "coordinates": [[-9.4311709, 38.7183146], [-9.4312995, 38.7182057], [-9.4315621, 38.7180042], [-9.4318969, 38.7177363], [-9.432193, 38.7175101], [-9.4323411, 38.7174118], [-9.432446, 38.7173502], [-9.432567, 38.7172838], [-9.4327965, 38.7171904], [-9.4329545, 38.7171413], [-9.4330557, 38.7171114], [-9.4332716, 38.717071], [-9.4334617, 38.717046], [-9.4336332, 38.7170315], [-9.4337016, 38.717026]]}, "properties": {"highway": "primary", "lanes": "2", "name": "Avenida Brigadeiro Victor Novais Gon\u00e7alves", "oneway": "yes", "ref": "EM 593", "surface": "asphalt"}}]}