{"type": "FeatureCollection", "features": [{"type": "Feature", "geometry": {"type": "LineString", "coordinates": [[-7.1684521, 38.7937619], [-7.1681683, 38.7943918], [-7.1681486, 38.7947571], [-7.1681367, 38.7949779], [-7.1702705, 38.8035936], [-7.1702404, 38.8039816], [-7.1695354, 38.8062226], [-7.168077, 38.8108585], [-7.1670708, 38.8140566], [-7.1665865, 38.8176538], [-7.1665893, 38.8177684], [-7.1666062, 38.8178722], [-7.167023, 38.8196901], [-7.1670229, 38.8198609], [-7.1669944, 38.8199965], [-7.1662398, 38.8219062], [-7.1654357, 38.823937], [-7.1654105, 38.8240006], [-7.1622011, 38.8321055], [-7.1618964, 38.835413], [-7.1616125, 38.8382974]]}, "properties": {"highway": "primary", "ref": "EM 511", "surface": "asphalt"}}, {"type": "Feature", "geometry": {"type": "LineString", "coordinates": [[-7.1607019, 38.8646654], [-7.1606596, 38.8647586], [-7.1606331, 38.8648876], [-7.1606364, 38.8651082], [-7.1606613, 38.8654127], [-7.1606679, 38.8657069], [-7.1606838, 38.8666594]]}, "properties": {"highway": "primary", "maxspeed": "50", "name": "Avenida Bombeiros Volunt\u00e1rios", "postal_code": "7350-099", "ref": "EM 511", "surface": "asphalt"}}, {"type": "Feature", "geometry": {"type": "LineString", "coordinates": [[-7.1610448, 38.8409458], [-7.161224, 38.8411824], [-7.1612567, 38.8412787], [-7.1612768, 38.8414009], [-7.1612781, 38.8415921], [-7.1612406, 38.8418469], [-7.1611789, 38.8421436]]}, "properties": {"highway": "primary", "ref": "EM 511", "surface": "asphalt"}}, {"type": "Feature", "geometry": {"type": "LineString", "coordinates": [[-7.1740023, 38.7770741], [-7.1740706, 38.7773389], [-7.1741093, 38.7775962], [-7.1741216, 38.7778235], [-7.1741145, 38.7780537], [-7.1740861, 38.7782609], [-7.1740412, 38.7784828], [-7.1733983, 38.780948], [-7.1724227, 38.7846761], [-7.1722457, 38.7852803], [-7.1717736, 38.7863341], [-7.1708617, 38.7883527], [-7.1692664, 38.7918994], [-7.168488, 38.7936822]]}, "properties": {"highway": "primary", "lane_markings": "yes", "lanes": "2", "ref": "EM 511", "surface": "asphalt"}}, {"type": "Feature", "geometry": {"type": "LineString", "coordinates": [[-7.168488, 38.7936822], [-7.1684521, 38.7937619]]}, "properties": {"bridge": "yes", "highway": "primary", "layer": "1", "ref": "EM 511", "surface": "asphalt"}}, {"type": "Feature", "geometry": {"type": "LineString", "coordinates": [[-7.1607732, 38.8450423], [-7.1607491, 38.845096], [-7.1607399, 38.8451881], [-7.1607484, 38.8452742], [-7.1607632, 38.8453624], [-7.1610308, 38.8463828], [-7.1610574, 38.8465348], [-7.1610609, 38.846684], [-7.1610649, 38.8468423], [-7.161063, 38.8470246], [-7.1610658, 38.8470386], [-7.1614396, 38.8489155], [-7.161465, 38.8498591], [-7.1617701, 38.8509587], [-7.1623143, 38.8528148], [-7.162318, 38.8529741], [-7.162288, 38.8531293], [-7.1617884, 38.8542741], [-7.1617776, 38.8543163], [-7.1614926, 38.8554305], [-7.1614301, 38.8557723], [-7.1614197, 38.8560113], [-7.1615016, 38.8579154], [-7.1614991, 38.8582533], [-7.1614444, 38.8586464], [-7.1613891, 38.8588695], [-7.161305, 38.8590682], [-7.1612009, 38.8592191], [-7.1609489, 38.8595624], [-7.1608739, 38.859687], [-7.1608021, 38.8598538], [-7.1607125, 38.8601236], [-7.160683, 38.8602373]]}, "properties": {"highway": "primary", "ref": "EM 511", "surface": "asphalt"}}, {"type": "Feature", "geometry": {"type": "LineString", "coordinates": [[-7.1608077, 38.8449656], [-7.1607732, 38.8450423]]}, "properties": {"bridge": "yes", "highway": "primary", "layer": "1", "ref": "EM 511", "surface": "asphalt"}}, {"type": "Feature", "geometry": {"type": "LineString", "coordinates": [[-7.1611789, 38.8421436], [-7.1608855, 38.8429337], [-7.1608436, 38.8430977], [-7.1608285, 38.8432333], [-7.160838, 38.8433086], [-7.1609654, 38.8441768], [-7.1609835, 38.8444173], [-7.1609814, 38.8445429], [-7.1609553, 38.844637], [-7.1608077, 38.8449656]]}, "properties": {"highway": "primary", "ref": "EM 511", "surface": "asphalt"}}, {"type": "Feature", "geometry": {"type": "LineString", "coordinates": [[-7.1606606, 38.8603235], [-7.1606413, 38.8603981], [-7.1606016, 38.8605866], [-7.1605751, 38.8607776], [-7.1605601, 38.8609617], [-7.1605592, 38.861244]]}, "properties": {"highway": "primary", "ref": "EM 511", "surface": "asphalt"}}, {"type": "Feature", "geometry": {"type": "LineString", "coordinates": [[-7.160683, 38.8602373], [-7.1606606, 38.8603235]]}, "properties": {"bridge": "yes", "highway": "primary", "layer": "1", "ref": "EM 511", "surface": "asphalt"}}, {"type": "Feature", "geometry": {"type": "LineString", "coordinates": [[-7.1611153, 38.8706084], [-7.161311, 38.8713458], [-7.1614342, 38.8718099], [-7.1616035, 38.872391], [-7.16185, 38.8732908], [-7.1618797, 38.8733543], [-7.1619221, 38.8734204], [-7.1619687, 38.8734774], [-7.1620334, 38.8735294], [-7.1620949, 38.8735723], [-7.1621607, 38.8736095], [-7.16224, 38.8736427], [-7.16228, 38.8736589], [-7.1623243, 38.8736725], [-7.1624237, 38.8736953], [-7.1625184, 38.8737195], [-7.1628538, 38.8737857]]}, "properties": {"highway": "primary", "maxspeed": "50", "name": "Avenida Bombeiros Volunt\u00e1rios", "postal_code": "7350-099", "ref": "EM 511", "surface": "asphalt"}}, {"type": "Feature", "geometry": {"type": "LineString", "coordinates": [[-7.1605592, 38.861244], [-7.1605581, 38.8615765], [-7.1605543, 38.8627734], [-7.1605583, 38.8628622], [-7.1605835, 38.8629582], [-7.1606498, 38.8630887], [-7.1608231, 38.8633656], [-7.1608894, 38.8634978], [-7.1609411, 38.8636392], [-7.1609967, 38.86391], [-7.1610052, 38.8640322], [-7.1609935, 38.8641644], [-7.1609463, 38.8642721], [-7.1608682, 38.8643924], [-7.1608142, 38.8644755], [-7.1607275, 38.8646089], [-7.160714, 38.8646388], [-7.1607019, 38.8646654]]}, "properties": {"highway": "primary", "maxspeed": "50", "name": "Avenida Bombeiros Volunt\u00e1rios", "postal_code": "7350-099", "ref": "EM 511", "surface": "asphalt"}}, {"type": "Feature", "geometry": {"type": "LineString", "coordinates": [[-7.1606838, 38.8666594], [-7.160696, 38.867533], [-7.1606899, 38.8684248], [-7.1608171, 38.8693631], [-7.1609239, 38.8698924], [-7.1611153, 38.8706084]]}, "properties": {"highway": "primary", "maxspeed": "50", "name": "Avenida Bombeiros Volunt\u00e1rios", "postal_code": "7350-099", "ref": "EM 511", "surface": "asphalt"}}]}