{"type": "FeatureCollection", "features": [{"type": "Feature", "geometry": {"type": "LineString", "coordinates": [[-7.2458033, 40.0201548], [-7.2457043, 40.020343], [-7.2453878, 40.0209731], [-7.2452933, 40.0211057], [-7.2449717, 40.0213984], [-7.2444481, 40.0217961], [-7.2441928, 40.0221778], [-7.2437964, 40.0225017], [-7.2434044, 40.0227177], [-7.2428894, 40.0229548], [-7.2427607, 40.0231497], [-7.2425718, 40.0234744], [-7.2422299, 40.023829], [-7.2421326, 40.0239051], [-7.2413206, 40.024548], [-7.2412061, 40.0246204], [-7.2409707, 40.0246766]]}, "properties": {"highway": "primary", "lanes": "2", "maxspeed": "50", "oneway": "no", "ref": "EM 557", "surface": "sett"}}, {"type": "Feature", "geometry": {"type": "LineString", "coordinates": [[-7.2510564, 40.0176014], [-7.2507622, 40.0178036]]}, "properties": {"highway": "primary", "lanes": "2", "oneway": "no", "ref": "EM 557", "surface": "asphalt"}}, {"type": "Feature", "geometry": {"type": "LineString", "coordinates": [[-7.2401737, 40.0261114], [-7.2401314, 40.0264517], [-7.2401306, 40.0269497], [-7.2400461, 40.0271083], [-7.2397623, 40.027335], [-7.2394787, 40.0275697], [-7.2392198, 40.0278582], [-7.2390896, 40.0282051]]}, "properties": {"highway": "primary", "lanes": "2", "maxspeed": "50", "oneway": "no", "ref": "EM 557", "surface": "sett"}}, {"type": "Feature", "geometry": {"type": "LineString", "coordinates": [[-7.2409707, 40.0246766], [-7.2408382, 40.0247112], [-7.2404774, 40.0248057], [-7.2404468, 40.0248261], [-7.240193, 40.0249147], [-7.2401905, 40.0249864], [-7.240255, 40.0251339], [-7.2402653, 40.0252081], [-7.2402908, 40.0253915], [-7.240234, 40.0256262], [-7.2401737, 40.0261114]]}, "properties": {"highway": "primary", "lanes": "2", "maxspeed": "50", "oneway": "no", "ref": "EM 557", "surface": "sett"}}, {"type": "Feature", "geometry": {"type": "LineString", "coordinates": [[-7.2507622, 40.0178036], [-7.2499723, 40.0183339], [-7.2497441, 40.0184863], [-7.2495668, 40.01858], [-7.2489121, 40.018784], [-7.2486408, 40.0188675], [-7.248348, 40.018914], [-7.2475755, 40.0190011], [-7.2470064, 40.019012], [-7.2468605, 40.0190185], [-7.2467225, 40.0190415], [-7.2465364, 40.0190974], [-7.2463741, 40.019179], [-7.2461964, 40.0193477], [-7.2458033, 40.0201548]]}, "properties": {"highway": "primary", "lanes": "2", "oneway": "no", "ref": "EM 557", "surface": "asphalt"}}, {"type": "Feature", "geometry": {"type": "LineString", "coordinates": [[-7.2390896, 40.0282051], [-7.2389949, 40.0284725], [-7.2389528, 40.0285174]]}, "properties": {"highway": "primary", "lanes": "2", "maxspeed": "50", "oneway": "no", "ref": "EM 557", "surface": "asphalt"}}]}