{"type": "FeatureCollection", "features": [{"type": "Feature", "geometry": {"type": "LineString", "coordinates": [[-7.916255, 37.0297282], [-7.9162424, 37.0297948], [-7.916258, 37.0298738], [-7.9163048, 37.0299444], [-7.916378, 37.0299991], [-7.9164694, 37.0300317], [-7.9165385, 37.0300395], [-7.9166292, 37.0300303], [-7.9167123, 37.0299999], [-7.9167804, 37.0299512], [-7.9168271, 37.0298885], [-7.9168484, 37.0298176], [-7.9168423, 37.0297448], [-7.9168094, 37.0296768], [-7.9167429, 37.0296128], [-7.9166533, 37.0295705], [-7.916551, 37.0295549]]}, "properties": {"highway": "primary", "junction": "roundabout", "lanes": "2", "ref": "EM 518", "surface": "asphalt"}}, {"type": "Feature", "geometry": {"type": "LineString", "coordinates": [[-7.9158383, 37.0289954], [-7.9159032, 37.0291076], [-7.9160609, 37.02931], [-7.9162111, 37.0294945], [-7.9162479, 37.0295927], [-7.916255, 37.0297282]]}, "properties": {"highway": "primary", "lanes": "2", "maxspeed": "70", "oneway": "yes", "ref": "EM 518"}}, {"type": "Feature", "geometry": {"type": "LineString", "coordinates": [[-7.916551, 37.0295549], [-7.9164539, 37.0295663], [-7.9163665, 37.0296018], [-7.9162977, 37.0296577], [-7.916255, 37.0297282]]}, "properties": {"highway": "primary", "junction": "roundabout", "lanes": "2", "ref": "EM 518", "surface": "asphalt"}}]}