{"type": "FeatureCollection", "features": [{"type": "Feature", "geometry": {"type": "LineString", "coordinates": [[-9.0654554, 38.8784422], [-9.065499, 38.8786206], [-9.0654978, 38.8787079]]}, "properties": {"highway": "primary", "lanes": "1", "name": "Estrada da V\u00e1rzea", "oneway": "yes", "ref": "EM 501-1", "surface": "asphalt"}}, {"type": "Feature", "geometry": {"type": "LineString", "coordinates": [[-9.0656769, 38.8787079], [-9.065649, 38.8786685], [-9.0655499, 38.8785574], [-9.0654554, 38.8784422]]}, "properties": {"highway": "primary", "lanes": "1", "maxspeed": "50", "name": "Estrada da V\u00e1rzea", "oneway": "yes", "ref": "EM 501-1", "surface": "asphalt"}}, {"type": "Feature", "geometry": {"type": "LineString", "coordinates": [[-9.0654554, 38.8784422], [-9.0654121, 38.8782377], [-9.0654271, 38.8780389], [-9.0655038, 38.8778351], [-9.0656465, 38.8776454], [-9.065786, 38.8775201], [-9.0659825, 38.8773594], [-9.0661521, 38.8772622], [-9.0663345, 38.8771766], [-9.0668173, 38.8770096]]}, "properties": {"highway": "primary", "lanes": "2", "name": "Estrada da V\u00e1rzea", "oneway": "no", "ref": "EM 501-1", "surface": "asphalt"}}, {"type": "Feature", "geometry": {"type": "LineString", "coordinates": [[-9.1028124, 38.8628932], [-9.1026381, 38.8629212], [-9.1025102, 38.8629449]]}, "properties": {"highway": "primary", "lanes": "1", "name": "Estrada da V\u00e1rzea", "oneway": "yes", "ref": "EM 501-1", "source": "bing", "surface": "asphalt"}}, {"type": "Feature", "geometry": {"type": "LineString", "coordinates": [[-9.1025102, 38.8629449], [-9.1026367, 38.8629962], [-9.1026821, 38.8630244], [-9.1027612, 38.863073]]}, "properties": {"highway": "primary", "lanes": "1", "name": "Estrada da V\u00e1rzea", "oneway": "yes", "ref": "EM 501-1", "source": "bing", "surface": "asphalt"}}, {"type": "Feature", "geometry": {"type": "LineString", "coordinates": [[-9.0693721, 38.8762287], [-9.0693882, 38.8762039], [-9.0693962, 38.8761769], [-9.0693962, 38.8761524], [-9.0693895, 38.8761284], [-9.0693765, 38.876106], [-9.0693577, 38.8760863], [-9.069334, 38.8760701], [-9.0693065, 38.8760582]]}, "properties": {"highway": "primary", "junction": "roundabout", "lanes": "1", "name": "Estrada da V\u00e1rzea", "ref": "EM 501-1", "surface": "asphalt"}}, {"type": "Feature", "geometry": {"type": "LineString", "coordinates": [[-9.0706523, 38.8756575], [-9.0722181, 38.8749265], [-9.0725774, 38.8747596], [-9.0730133, 38.8745503], [-9.0734035, 38.8743629], [-9.0742919, 38.873921], [-9.0748594, 38.8736111], [-9.0751265, 38.873452]]}, "properties": {"highway": "primary", "lanes": "2", "name": "Estrada da V\u00e1rzea", "oneway": "no", "ref": "EM 501-1", "surface": "asphalt"}}, {"type": "Feature", "geometry": {"type": "LineString", "coordinates": [[-9.0870596, 38.8693274], [-9.0881247, 38.869028], [-9.0887001, 38.8688663], [-9.0939044, 38.8669486]]}, "properties": {"highway": "primary", "lanes": "2", "name": "Estrada da V\u00e1rzea", "oneway": "no", "ref": "EM 501-1", "surface": "asphalt"}}, {"type": "Feature", "geometry": {"type": "LineString", "coordinates": [[-9.0780327, 38.8717932], [-9.0780466, 38.8717713], [-9.0780549, 38.8717476], [-9.0780557, 38.8717082], [-9.0780413, 38.8716705], [-9.0780129, 38.8716379], [-9.0779716, 38.8716129], [-9.0779223, 38.8715991], [-9.07787, 38.871598], [-9.0778266, 38.8716073], [-9.0777881, 38.8716253], [-9.0777572, 38.8716507], [-9.077737, 38.87168], [-9.0777272, 38.8717124], [-9.0777283, 38.8717456], [-9.0777369, 38.8717712], [-9.0777521, 38.8717948], [-9.0777731, 38.8718156], [-9.0777992, 38.8718325], [-9.0778474, 38.8718499], [-9.0779003, 38.8718544], [-9.0779523, 38.8718457], [-9.077998, 38.8718246], [-9.0780327, 38.8717932]]}, "properties": {"highway": "primary", "junction": "roundabout", "lanes": "1", "maxspeed": "50", "name": "Estrada da V\u00e1rzea", "ref": "EM 501-1", "surface": "asphalt"}}, {"type": "Feature", "geometry": {"type": "LineString", "coordinates": [[-9.0780549, 38.8717476], [-9.0783186, 38.8716461], [-9.0786292, 38.8715487], [-9.0795565, 38.871287]]}, "properties": {"highway": "primary", "lanes": "1", "maxspeed": "50", "name": "Estrada da V\u00e1rzea", "oneway": "yes", "ref": "EM 501-1", "surface": "asphalt"}}, {"type": "Feature", "geometry": {"type": "LineString", "coordinates": [[-9.0795565, 38.871287], [-9.0786083, 38.8714864], [-9.0782175, 38.8715925], [-9.0781349, 38.8716064], [-9.0780589, 38.871614], [-9.0779716, 38.8716129]]}, "properties": {"highway": "primary", "lanes": "1", "maxspeed": "50", "name": "Estrada da V\u00e1rzea", "oneway": "yes", "ref": "EM 501-1", "surface": "asphalt"}}, {"type": "Feature", "geometry": {"type": "LineString", "coordinates": [[-9.0764995, 38.8725646], [-9.0768541, 38.8723655], [-9.077684, 38.8718787], [-9.0777992, 38.8718325]]}, "properties": {"highway": "primary", "lanes": "1", "maxspeed": "50", "name": "Estrada da V\u00e1rzea", "oneway": "yes", "ref": "EM 501-1", "surface": "asphalt"}}, {"type": "Feature", "geometry": {"type": "LineString", "coordinates": [[-9.0777272, 38.8717124], [-9.0776139, 38.8718069], [-9.0775019, 38.8718863], [-9.0768193, 38.8723206], [-9.0764995, 38.8725646]]}, "properties": {"highway": "primary", "lanes": "1", "name": "Estrada da V\u00e1rzea", "oneway": "yes", "ref": "EM 501-1", "surface": "asphalt"}}, {"type": "Feature", "geometry": {"type": "LineString", "coordinates": [[-9.0850664, 38.8698554], [-9.085086, 38.8698897], [-9.0851189, 38.8699171], [-9.0851616, 38.8699346], [-9.0851919, 38.8699382], [-9.0852093, 38.8699403], [-9.0852567, 38.8699334], [-9.0852964, 38.8699163], [-9.0853113, 38.8699038], [-9.0853273, 38.8698904], [-9.0853464, 38.8698583], [-9.0853518, 38.8698232], [-9.0853398, 38.8697812], [-9.0853209, 38.8697576], [-9.0852876, 38.8697336], [-9.0852464, 38.8697187], [-9.0852013, 38.8697146], [-9.0851567, 38.8697215], [-9.0851195, 38.8697373], [-9.0850897, 38.8697608], [-9.08507, 38.8697901], [-9.085062, 38.8698225], [-9.0850664, 38.8698554]]}, "properties": {"highway": "primary", "junction": "roundabout", "lanes": "1", "maxspeed": "50", "name": "Estrada da V\u00e1rzea", "ref": "EM 501-1", "surface": "asphalt"}}, {"type": "Feature", "geometry": {"type": "LineString", "coordinates": [[-9.0870596, 38.8693274], [-9.0863894, 38.8694775], [-9.0862064, 38.8695262]]}, "properties": {"highway": "primary", "lanes": "1", "name": "Estrada da V\u00e1rzea", "oneway": "yes", "ref": "EM 501-1", "surface": "asphalt"}}, {"type": "Feature", "geometry": {"type": "LineString", "coordinates": [[-9.0853273, 38.8698904], [-9.0854789, 38.8698069], [-9.0855629, 38.8697765], [-9.0864283, 38.8695307], [-9.0870596, 38.8693274]]}, "properties": {"highway": "primary", "lanes": "1", "name": "Estrada da V\u00e1rzea", "oneway": "yes", "ref": "EM 501-1", "surface": "asphalt"}}, {"type": "Feature", "geometry": {"type": "LineString", "coordinates": [[-9.0795565, 38.871287], [-9.0819544, 38.8707085], [-9.0833437, 38.8703243], [-9.0836835, 38.8702318]]}, "properties": {"highway": "primary", "lanes": "2", "name": "Estrada da V\u00e1rzea", "oneway": "no", "ref": "EM 501-1", "surface": "asphalt"}}, {"type": "Feature", "geometry": {"type": "LineString", "coordinates": [[-9.08507, 38.8697901], [-9.0849844, 38.8698321], [-9.0848912, 38.869875], [-9.0846877, 38.8699402], [-9.0836835, 38.8702318]]}, "properties": {"highway": "primary", "lanes": "1", "name": "Estrada da V\u00e1rzea", "oneway": "yes", "ref": "EM 501-1", "surface": "asphalt"}}, {"type": "Feature", "geometry": {"type": "LineString", "coordinates": [[-9.0836835, 38.8702318], [-9.0843549, 38.8701045], [-9.0848132, 38.8699802], [-9.0850357, 38.8699328], [-9.0851616, 38.8699346]]}, "properties": {"highway": "primary", "lanes": "1", "name": "Estrada da V\u00e1rzea", "oneway": "yes", "ref": "EM 501-1", "surface": "asphalt"}}, {"type": "Feature", "geometry": {"type": "LineString", "coordinates": [[-9.0953369, 38.8661125], [-9.0953323, 38.8661542], [-9.0953447, 38.866195], [-9.0953651, 38.866221], [-9.0953727, 38.8662307], [-9.0954131, 38.8662576], [-9.0954622, 38.8662734], [-9.0955151, 38.8662768]]}, "properties": {"highway": "primary", "junction": "roundabout", "lanes": "1", "name": "Estrada da V\u00e1rzea", "ref": "EM 501-1", "surface": "asphalt"}}, {"type": "Feature", "geometry": {"type": "LineString", "coordinates": [[-9.0939044, 38.8669486], [-9.0942356, 38.8668566], [-9.0946955, 38.8666776], [-9.0949546, 38.8665465], [-9.0952525, 38.8663575], [-9.09534, 38.8663069], [-9.095408, 38.8662842], [-9.0954622, 38.8662734]]}, "properties": {"highway": "primary", "lanes": "1", "name": "Estrada da V\u00e1rzea", "oneway": "yes", "ref": "EM 501-1", "surface": "asphalt"}}, {"type": "Feature", "geometry": {"type": "LineString", "coordinates": [[-9.0953323, 38.8661542], [-9.0952558, 38.8662539], [-9.0951989, 38.8663021], [-9.0948727, 38.866514], [-9.0945401, 38.8666804], [-9.0942067, 38.8668117], [-9.0939044, 38.8669486]]}, "properties": {"highway": "primary", "lanes": "1", "name": "Estrada da V\u00e1rzea", "oneway": "yes", "ref": "EM 501-1", "surface": "asphalt"}}, {"type": "Feature", "geometry": {"type": "LineString", "coordinates": [[-9.0970452, 38.8650837], [-9.098871, 38.8638792], [-9.0994074, 38.8635284], [-9.0997615, 38.8633195], [-9.1001048, 38.8631441], [-9.1005018, 38.8630271], [-9.1009202, 38.8629436], [-9.1015935, 38.8628777], [-9.1020712, 38.8628984], [-9.1025102, 38.8629449]]}, "properties": {"highway": "primary", "lanes": "2", "name": "Estrada da V\u00e1rzea", "oneway": "no", "ref": "EM 501-1", "surface": "asphalt"}}, {"type": "Feature", "geometry": {"type": "LineString", "coordinates": [[-9.0970452, 38.8650837], [-9.0956949, 38.8659479], [-9.0955846, 38.8659894], [-9.0955206, 38.8660111]]}, "properties": {"highway": "primary", "lanes": "1", "maxspeed": "50", "name": "Estrada da V\u00e1rzea", "oneway": "yes", "ref": "EM 501-1", "surface": "asphalt"}}, {"type": "Feature", "geometry": {"type": "LineString", "coordinates": [[-9.09567, 38.8661218], [-9.0957425, 38.8660101], [-9.0970452, 38.8650837]]}, "properties": {"highway": "primary", "lanes": "1", "name": "Estrada da V\u00e1rzea", "oneway": "yes", "ref": "EM 501-1", "surface": "asphalt"}}, {"type": "Feature", "geometry": {"type": "LineString", "coordinates": [[-9.0954796, 38.8660131], [-9.0954339, 38.8660231], [-9.0954129, 38.8660318], [-9.0953989, 38.8660384], [-9.0953814, 38.8660513], [-9.0953718, 38.8660593], [-9.095358, 38.8660739], [-9.0953369, 38.8661125]]}, "properties": {"highway": "primary", "junction": "roundabout", "lanes": "1", "name": "Estrada da V\u00e1rzea", "ref": "EM 501-1", "surface": "asphalt"}}, {"type": "Feature", "geometry": {"type": "LineString", "coordinates": [[-9.0956699, 38.8661676], [-9.09567, 38.8661218], [-9.0956501, 38.8660788], [-9.0956126, 38.8660436], [-9.0956012, 38.8660379], [-9.0955725, 38.8660238], [-9.0955471, 38.8660155], [-9.0955206, 38.8660111]]}, "properties": {"highway": "primary", "junction": "roundabout", "lanes": "1", "name": "Estrada da V\u00e1rzea", "ref": "EM 501-1", "surface": "asphalt"}}, {"type": "Feature", "geometry": {"type": "LineString", "coordinates": [[-9.0955151, 38.8662768], [-9.0955669, 38.8662672], [-9.0956123, 38.8662457], [-9.0956145, 38.8662437], [-9.0956499, 38.8662106], [-9.0956699, 38.8661676]]}, "properties": {"highway": "primary", "junction": "roundabout", "lanes": "1", "name": "Estrada da V\u00e1rzea", "ref": "EM 501-1", "surface": "asphalt"}}, {"type": "Feature", "geometry": {"type": "LineString", "coordinates": [[-9.069103, 38.8761412], [-9.0691002, 38.8761721], [-9.0691081, 38.8762025], [-9.0691261, 38.8762302], [-9.0691528, 38.8762531], [-9.0691826, 38.8762683], [-9.0692162, 38.8762776]]}, "properties": {"highway": "primary", "junction": "roundabout", "lanes": "1", "name": "Estrada da V\u00e1rzea", "ref": "EM 501-1", "surface": "asphalt"}}, {"type": "Feature", "geometry": {"type": "LineString", "coordinates": [[-9.0693065, 38.8760582], [-9.0692763, 38.876051], [-9.0692449, 38.876049], [-9.0692056, 38.8760539], [-9.0691694, 38.8760667], [-9.0691388, 38.8760866], [-9.0691306, 38.8760911], [-9.0691161, 38.876112]]}, "properties": {"highway": "primary", "junction": "roundabout", "lanes": "1", "name": "Estrada da V\u00e1rzea", "ref": "EM 501-1", "surface": "asphalt"}}, {"type": "Feature", "geometry": {"type": "LineString", "coordinates": [[-9.0692162, 38.8762776], [-9.0692517, 38.8762803], [-9.069287, 38.8762764], [-9.0693201, 38.876266], [-9.069349, 38.8762498], [-9.0693721, 38.8762287]]}, "properties": {"highway": "primary", "junction": "roundabout", "lanes": "1", "name": "Estrada da V\u00e1rzea", "ref": "EM 501-1", "surface": "asphalt"}}, {"type": "Feature", "geometry": {"type": "LineString", "coordinates": [[-9.0706523, 38.8756575], [-9.0700735, 38.8758653], [-9.0696014, 38.8760397], [-9.0694714, 38.8760668], [-9.0693741, 38.8760694], [-9.069334, 38.8760701]]}, "properties": {"highway": "primary", "lanes": "1", "name": "Estrada da V\u00e1rzea", "oneway": "yes", "ref": "EM 501-1", "surface": "asphalt"}}, {"type": "Feature", "geometry": {"type": "LineString", "coordinates": [[-9.0693721, 38.8762287], [-9.0694693, 38.876179], [-9.0696135, 38.8761237], [-9.0701707, 38.8759018], [-9.0706523, 38.8756575]]}, "properties": {"highway": "primary", "lanes": "1", "name": "Estrada da V\u00e1rzea", "oneway": "yes", "ref": "EM 501-1", "surface": "asphalt"}}, {"type": "Feature", "geometry": {"type": "LineString", "coordinates": [[-9.0668173, 38.8770096], [-9.0678265, 38.8767074], [-9.0682677, 38.8765593], [-9.0684876, 38.8764855], [-9.0689243, 38.8763331], [-9.069067, 38.8762928], [-9.0692162, 38.8762776]]}, "properties": {"highway": "primary", "lanes": "1", "name": "Estrada da V\u00e1rzea", "oneway": "yes", "ref": "EM 501-1", "surface": "asphalt"}}, {"type": "Feature", "geometry": {"type": "LineString", "coordinates": [[-9.069103, 38.8761412], [-9.0690402, 38.8762036], [-9.0689886, 38.8762401], [-9.0688933, 38.8762787], [-9.0680981, 38.8765418], [-9.0673524, 38.8768081], [-9.0668173, 38.8770096]]}, "properties": {"highway": "primary", "lanes": "1", "name": "Estrada da V\u00e1rzea", "oneway": "yes", "ref": "EM 501-1", "surface": "asphalt"}}, {"type": "Feature", "geometry": {"type": "LineString", "coordinates": [[-9.0753955, 38.8732859], [-9.0764995, 38.8725646]]}, "properties": {"highway": "primary", "lanes": "2", "name": "Estrada da V\u00e1rzea", "oneway": "no", "ref": "EM 501-1", "surface": "asphalt"}}, {"type": "Feature", "geometry": {"type": "LineString", "coordinates": [[-9.0751265, 38.873452], [-9.075273, 38.8733647], [-9.0753955, 38.8732859]]}, "properties": {"highway": "primary", "lanes": "2", "name": "Estrada da V\u00e1rzea", "oneway": "no", "ref": "EM 501-1", "surface": "asphalt"}}, {"type": "Feature", "geometry": {"type": "LineString", "coordinates": [[-9.0955206, 38.8660111], [-9.0954796, 38.8660131]]}, "properties": {"highway": "primary", "lanes": "1", "name": "Estrada da V\u00e1rzea", "oneway": "yes", "ref": "EM 501-1", "surface": "asphalt"}}, {"type": "Feature", "geometry": {"type": "LineString", "coordinates": [[-9.0691161, 38.876112], [-9.069103, 38.8761412]]}, "properties": {"highway": "primary", "junction": "roundabout", "lanes": "1", "name": "Estrada da V\u00e1rzea", "ref": "EM 501-1", "surface": "asphalt"}}, {"type": "Feature", "geometry": {"type": "LineString", "coordinates": [[-9.0862064, 38.8695262], [-9.0855368, 38.8697043], [-9.0852876, 38.8697336]]}, "properties": {"highway": "primary", "lane_markings": "no", "maxspeed": "50", "name": "Estrada da V\u00e1rzea", "oneway": "yes", "ref": "EM 501-1", "surface": "asphalt"}}, {"type": "Feature", "geometry": {"type": "MultiPolygon", "coordinates": [[[[-9.0780557, 38.8717082], [-9.0780413, 38.8716705], [-9.0780129, 38.8716379], [-9.0779716, 38.8716129], [-9.0779223, 38.8715991], [-9.07787, 38.871598], [-9.0778266, 38.8716073], [-9.0777881, 38.8716253], [-9.0777572, 38.8716507], [-9.077737, 38.87168], [-9.0777272, 38.8717124], [-9.0777283, 38.8717456], [-9.0777369, 38.8717712], [-9.0777521, 38.8717948], [-9.0777731, 38.8718156], [-9.0777992, 38.8718325], [-9.0778474, 38.8718499], [-9.0779003, 38.8718544], [-9.0779523, 38.8718457], [-9.077998, 38.8718246], [-9.0780327, 38.8717932], [-9.0780466, 38.8717713], [-9.0780549, 38.8717476], [-9.0780557, 38.8717082]]]]}, "properties": {"highway": "primary", "junction": "roundabout", "lanes": "1", "maxspeed": "50", "name": "Estrada da V\u00e1rzea", "ref": "EM 501-1", "surface": "asphalt"}}, {"type": "Feature", "geometry": {"type": "MultiPolygon", "coordinates": [[[[-9.0853518, 38.8698232], [-9.0853398, 38.8697812], [-9.0853209, 38.8697576], [-9.0852876, 38.8697336], [-9.0852464, 38.8697187], [-9.0852013, 38.8697146], [-9.0851567, 38.8697215], [-9.0851195, 38.8697373], [-9.0850897, 38.8697608], [-9.08507, 38.8697901], [-9.085062, 38.8698225], [-9.0850664, 38.8698554], [-9.085086, 38.8698897], [-9.0851189, 38.8699171], [-9.0851616, 38.8699346], [-9.0851919, 38.8699382], [-9.0852093, 38.8699403], [-9.0852567, 38.8699334], [-9.0852964, 38.8699163], [-9.0853113, 38.8699038], [-9.0853273, 38.8698904], [-9.0853464, 38.8698583], [-9.0853518, 38.8698232]]]]}, "properties": {"highway": "primary", "junction": "roundabout", "lanes": "1", "maxspeed": "50", "name": "Estrada da V\u00e1rzea", "ref": "EM 501-1", "surface": "asphalt"}}]}