{"type": "FeatureCollection", "features": [{"type": "Feature", "geometry": {"type": "LineString", "coordinates": [[-8.2405576, 41.5403997], [-8.2406586, 41.5404641], [-8.2408835, 41.5405904], [-8.2411571, 41.540763], [-8.2413842, 41.5408992], [-8.2415809, 41.5410173], [-8.2418084, 41.5411616], [-8.2418935, 41.5412004], [-8.2419766, 41.5412152], [-8.2421891, 41.5411932], [-8.242896, 41.5411359], [-8.2430875, 41.5411283], [-8.2435, 41.5411261], [-8.2436794, 41.5411503], [-8.2438026, 41.5411742], [-8.2439234, 41.5412103], [-8.244316, 41.5413753], [-8.2444688, 41.5414313], [-8.2445954, 41.5414608], [-8.2446433, 41.5414692], [-8.2447191, 41.5414826], [-8.244826, 41.5414887], [-8.2449175, 41.5414904], [-8.2450377, 41.5414793], [-8.2461548, 41.5412613], [-8.24708, 41.5410808], [-8.247387, 41.5410738]]}, "properties": {"highway": "primary", "lanes": "2", "name": "Rua do Carvalhinho", "oneway": "no", "ref": "EM 602", "surface": "asphalt"}}, {"type": "Feature", "geometry": {"type": "LineString", "coordinates": [[-8.2403018, 41.5402952], [-8.2403773, 41.540346], [-8.2404445, 41.5403574], [-8.2405576, 41.5403997]]}, "properties": {"highway": "primary", "lane_markings": "no", "name": "Rua do Carvalhinho", "oneway": "yes", "ref": "EM 602", "surface": "asphalt"}}, {"type": "Feature", "geometry": {"type": "LineString", "coordinates": [[-8.2405576, 41.5403997], [-8.2405223, 41.5403211], [-8.2405056, 41.5402398], [-8.2404584, 41.5401894]]}, "properties": {"highway": "primary", "lane_markings": "no", "name": "Rua do Carvalhinho", "oneway": "yes", "ref": "EM 602", "surface": "asphalt"}}]}