{"type": "FeatureCollection", "features": [{"type": "Feature", "geometry": {"type": "LineString", "coordinates": [[-7.5230604, 40.2365286], [-7.5231066, 40.2365155], [-7.5231468, 40.2364914], [-7.5231752, 40.236459], [-7.5231891, 40.2364215], [-7.5231876, 40.2363847], [-7.5231721, 40.2363499], [-7.5231451, 40.236321], [-7.5231087, 40.2362992], [-7.5230656, 40.2362861], [-7.5230194, 40.2362828], [-7.5229643, 40.2362924], [-7.5229271, 40.2363091], [-7.5228969, 40.2363327], [-7.522876, 40.2363615], [-7.5228657, 40.2363935], [-7.522865, 40.2364139], [-7.5228687, 40.2364342], [-7.5228815, 40.2364618], [-7.5229023, 40.2364863], [-7.5229301, 40.2365065], [-7.5229682, 40.2365249], [-7.5230082, 40.2365346], [-7.5230604, 40.2365286]]}, "properties": {"alt_name": "Eixo Teixoso-Covilh\u00e3-Tortosendo", "highway": "primary", "junction": "roundabout", "name": "Avenida Jo\u00e3o Carlos Quelhas Calado", "ref": "EM TCT", "source:name": "C\u00e2mara Municipal da Covilh\u00e3", "source:name:date": "2025-05-04", "surface": "asphalt"}}, {"type": "Feature", "geometry": {"type": "MultiPolygon", "coordinates": [[[[-7.5231891, 40.2364215], [-7.5231876, 40.2363847], [-7.5231721, 40.2363499], [-7.5231451, 40.236321], [-7.5231087, 40.2362992], [-7.5230656, 40.2362861], [-7.5230194, 40.2362828], [-7.5229643, 40.2362924], [-7.5229271, 40.2363091], [-7.5228969, 40.2363327], [-7.522876, 40.2363615], [-7.5228657, 40.2363935], [-7.522865, 40.2364139], [-7.5228687, 40.2364342], [-7.5228815, 40.2364618], [-7.5229023, 40.2364863], [-7.5229301, 40.2365065], [-7.5229682, 40.2365249], [-7.5230082, 40.2365346], [-7.5230604, 40.2365286], [-7.5231066, 40.2365155], [-7.5231468, 40.2364914], [-7.5231752, 40.236459], [-7.5231891, 40.2364215]]]]}, "properties": {"alt_name": "Eixo Teixoso-Covilh\u00e3-Tortosendo", "highway": "primary", "junction": "roundabout", "name": "Avenida Jo\u00e3o Carlos Quelhas Calado", "ref": "EM TCT", "source:name": "C\u00e2mara Municipal da Covilh\u00e3", "source:name:date": "2025-05-04", "surface": "asphalt"}}]}