{"type": "FeatureCollection", "features": [{"type": "Feature", "geometry": {"type": "LineString", "coordinates": [[-8.2911244, 41.1989987], [-8.291284, 41.1988565], [-8.2920127, 41.1983626], [-8.2921182, 41.1982909], [-8.2929456, 41.1976939], [-8.2930207, 41.1976408], [-8.2938894, 41.1970273], [-8.2940714, 41.1969012], [-8.2945336, 41.1965811], [-8.2948221, 41.1963807], [-8.2950341, 41.196201], [-8.2951181, 41.1961297], [-8.2955558, 41.1956954], [-8.2956916, 41.1955489], [-8.2958022, 41.1954403], [-8.2968504, 41.1944111], [-8.2971204, 41.1941433], [-8.297274, 41.1939909], [-8.297965, 41.1933053], [-8.2981667, 41.193121], [-8.2982396, 41.1930638], [-8.2983102, 41.1930151]]}, "properties": {"highway": "primary", "ref": "EN 15;EN 106", "surface": "paved"}}, {"type": "Feature", "geometry": {"type": "LineString", "coordinates": [[-8.3070625, 41.3709222], [-8.3070982, 41.3709532], [-8.3071453, 41.370974], [-8.3071988, 41.3709823], [-8.307251, 41.3709778], [-8.3072987, 41.3709613], [-8.3073373, 41.3709346], [-8.307363, 41.3709002], [-8.3073733, 41.3708616], [-8.3073671, 41.3708225], [-8.3073452, 41.3707867], [-8.3073096, 41.3707578], [-8.3072639, 41.3707385], [-8.3072124, 41.3707308], [-8.3071635, 41.3707347], [-8.3071182, 41.3707491], [-8.3070804, 41.3707728], [-8.3070534, 41.3708037], [-8.3070389, 41.3708432], [-8.307042, 41.3708842], [-8.3070625, 41.3709222]]}, "properties": {"highway": "primary", "junction": "roundabout", "ref": "EN 106", "source": "bing", "surface": "asphalt"}}, {"type": "Feature", "geometry": {"type": "LineString", "coordinates": [[-8.3072124, 41.3707308], [-8.3072078, 41.3706238], [-8.3072385, 41.3691754], [-8.307241, 41.3690555], [-8.3072451, 41.368778], [-8.3072481, 41.3686848], [-8.3072604, 41.3683039], [-8.3072968, 41.368176], [-8.3073919, 41.3680436], [-8.3074127, 41.3680146], [-8.3079146, 41.3676825], [-8.3081665, 41.3674999], [-8.3082426, 41.3674311], [-8.3083213, 41.367343], [-8.3083782, 41.3672644], [-8.3087489, 41.3667578], [-8.3088384, 41.3666324], [-8.3089001, 41.3665255], [-8.3089345, 41.3663964], [-8.3089325, 41.3662878], [-8.3089024, 41.3662054], [-8.3088457, 41.3661208], [-8.3087642, 41.3660401], [-8.3081493, 41.3656616], [-8.3076409, 41.3653487], [-8.3073969, 41.3651985], [-8.3071629, 41.365004], [-8.3068898, 41.3647564], [-8.3068409, 41.3647121], [-8.30679, 41.3646689]]}, "properties": {"highway": "primary", "name": "Rua Elisa Torres Soares", "oneway": "no", "ref": "EN 106", "source": "bing", "surface": "asphalt"}}, {"type": "Feature", "geometry": {"type": "LineString", "coordinates": [[-8.3114242, 41.3710096], [-8.3113176, 41.3709996], [-8.3100498, 41.3708808], [-8.3095488, 41.3708561], [-8.3091193, 41.3708578]]}, "properties": {"highway": "primary", "oneway": "no", "ref": "EN 106", "source": "bing", "surface": "asphalt"}}, {"type": "Feature", "geometry": {"type": "LineString", "coordinates": [[-8.2992241, 41.1925176], [-8.2991879, 41.1923945], [-8.2991758, 41.192336], [-8.2991839, 41.1922532], [-8.2992053, 41.1921906], [-8.2992188, 41.192122]]}, "properties": {"highway": "primary", "lanes": "1", "oneway": "yes", "ref": "EN 106", "surface": "asphalt"}}, {"type": "Feature", "geometry": {"type": "LineString", "coordinates": [[-8.2992188, 41.192122], [-8.2993109, 41.1920148], [-8.2994756, 41.1918449], [-8.2996671, 41.1916474], [-8.299774, 41.1915447], [-8.2998413, 41.1914801], [-8.3000397, 41.1912895], [-8.3001658, 41.1912014], [-8.3002919, 41.1911325], [-8.3004837, 41.191085], [-8.3006525, 41.1910489]]}, "properties": {"highway": "primary", "lanes": "2", "name": "Rua de Figuras", "ref": "EN 106", "surface": "asphalt"}}, {"type": "Feature", "geometry": {"type": "LineString", "coordinates": [[-8.2983102, 41.1930151], [-8.298508, 41.1929304], [-8.298693, 41.192891], [-8.2988272, 41.1928789]]}, "properties": {"highway": "primary", "oneway": "yes", "ref": "EN 15;EN 106", "surface": "asphalt"}}, {"type": "Feature", "geometry": {"type": "LineString", "coordinates": [[-8.2992188, 41.192122], [-8.2991517, 41.1921846], [-8.2991142, 41.1922653], [-8.2990605, 41.1923582], [-8.2989814, 41.1924245]]}, "properties": {"highway": "primary", "lanes": "1", "oneway": "yes", "ref": "EN 106", "surface": "asphalt"}}, {"type": "Feature", "geometry": {"type": "LineString", "coordinates": [[-8.2986736, 41.1927065], [-8.298567, 41.1927991], [-8.2983102, 41.1930151]]}, "properties": {"highway": "primary", "oneway": "yes", "ref": "EN 15;EN 106", "surface": "asphalt"}}, {"type": "Feature", "geometry": {"type": "LineString", "coordinates": [[-8.2989425, 41.1928789], [-8.2990337, 41.1928406], [-8.2991142, 41.192782], [-8.2991866, 41.1927154], [-8.2992268, 41.1926508]]}, "properties": {"highway": "primary", "junction": "roundabout", "ref": "EN 15;EN 106", "surface": "asphalt"}}, {"type": "Feature", "geometry": {"type": "LineString", "coordinates": [[-8.3096696, 41.2861526], [-8.3093759, 41.284796], [-8.3093572, 41.2847095], [-8.3093384, 41.2846229], [-8.3092577, 41.2842504], [-8.3091509, 41.2836167], [-8.30915, 41.2834601], [-8.3091524, 41.2833654], [-8.3092267, 41.2831342]]}, "properties": {"highway": "primary", "name": "Rua das Veigas", "oneway": "no", "ref": "EN 106", "surface": "asphalt"}}, {"type": "Feature", "geometry": {"type": "LineString", "coordinates": [[-8.2940505, 41.2601805], [-8.2941869, 41.2598839]]}, "properties": {"highway": "primary", "name": "Variante \u00e0 EN 106", "oneway": "no", "ref": "EN 106"}}, {"type": "Feature", "geometry": {"type": "LineString", "coordinates": [[-8.3196718, 41.397587], [-8.3197074, 41.3976149], [-8.3197522, 41.3976339], [-8.3197853, 41.3976407], [-8.3198195, 41.3976426], [-8.3198702, 41.3976359], [-8.3199161, 41.3976186], [-8.3199533, 41.3975919], [-8.3199786, 41.3975583], [-8.3199901, 41.3975164], [-8.3199831, 41.3974739], [-8.3199582, 41.3974353], [-8.3199181, 41.3974048], [-8.3198671, 41.3973856], [-8.3198105, 41.3973797], [-8.3197653, 41.3973851], [-8.3197235, 41.397399], [-8.319688, 41.3974206], [-8.319661, 41.3974483], [-8.3196446, 41.3974804], [-8.3196398, 41.3975145], [-8.3196487, 41.3975525], [-8.3196718, 41.397587]]}, "properties": {"highway": "primary", "junction": "roundabout", "ref": "EN 106", "source": "bing"}}, {"type": "Feature", "geometry": {"type": "LineString", "coordinates": [[-8.3196361, 41.3972341], [-8.3194045, 41.3969134], [-8.319203, 41.3966343], [-8.3190809, 41.3964652], [-8.3190741, 41.3964557], [-8.3190211, 41.3963824], [-8.3186092, 41.3957965], [-8.3184886, 41.395598], [-8.3184191, 41.395432], [-8.3183668, 41.3952186], [-8.3183308, 41.3949506], [-8.3183454, 41.394704], [-8.3183879, 41.3942966], [-8.3184445, 41.3938845], [-8.3185365, 41.3931023], [-8.3185951, 41.3925555], [-8.3186035, 41.3923048], [-8.3185326, 41.3920083], [-8.3184493, 41.3917447], [-8.3183544, 41.391523], [-8.3182632, 41.3913361], [-8.3180177, 41.3908077], [-8.3178512, 41.3904594], [-8.3173782, 41.38947], [-8.3172549, 41.3891124], [-8.3172248, 41.3887962], [-8.3172189, 41.3887345], [-8.3171775, 41.3881099], [-8.3171119, 41.3869484], [-8.3170413, 41.385937], [-8.3169264, 41.3855818], [-8.3166835, 41.3851388], [-8.3157539, 41.3838507], [-8.3157186, 41.3838023], [-8.3155776, 41.3835226], [-8.3152924, 41.3822483], [-8.3151383, 41.3818664], [-8.3150046, 41.3816354], [-8.3145099, 41.380781], [-8.3144333, 41.3806679], [-8.3143548, 41.3805834]]}, "properties": {"highway": "primary", "oneway": "no", "ref": "EN 106", "surface": "asphalt"}}, {"type": "Feature", "geometry": {"type": "LineString", "coordinates": [[-8.3139405, 41.3805201], [-8.3139864, 41.3805338], [-8.3140356, 41.3805369], [-8.3140838, 41.380529], [-8.3141254, 41.3805119], [-8.3141589, 41.3804867], [-8.3141816, 41.3804554], [-8.3141918, 41.3804207], [-8.3141885, 41.3803852], [-8.3141676, 41.3803459], [-8.3141306, 41.380314], [-8.3140815, 41.3802932], [-8.3140283, 41.3802858], [-8.3139747, 41.3802915], [-8.3139263, 41.3803097], [-8.3138945, 41.3803324], [-8.3138716, 41.3803605], [-8.3138586, 41.3803955], [-8.3138595, 41.3804318], [-8.3138741, 41.3804664], [-8.313902, 41.3804969], [-8.3139405, 41.3805201]]}, "properties": {"highway": "primary", "junction": "roundabout", "ref": "EN 106", "source": "bing", "surface": "asphalt"}}, {"type": "Feature", "geometry": {"type": "LineString", "coordinates": [[-8.3140815, 41.3802932], [-8.3140212, 41.3802505], [-8.313939, 41.3801635]]}, "properties": {"highway": "primary", "oneway": "yes", "ref": "EN 106", "source": "bing", "surface": "asphalt"}}, {"type": "Feature", "geometry": {"type": "LineString", "coordinates": [[-8.2908391, 41.0893935], [-8.2907046, 41.0894438], [-8.2906146, 41.0895061], [-8.2905822, 41.0895417], [-8.290554, 41.0895948], [-8.2905443, 41.0896576], [-8.2905429, 41.0897177], [-8.2905626, 41.0899591], [-8.2905657, 41.0900683], [-8.2905428, 41.0901648], [-8.2904819, 41.0902397], [-8.2904023, 41.0902828], [-8.2902917, 41.0903141], [-8.2901154, 41.09031], [-8.2899855, 41.0902507], [-8.2898821, 41.0901662], [-8.2897416, 41.0900176], [-8.2896466, 41.0899599], [-8.2895548, 41.0899346], [-8.2894193, 41.0899315], [-8.2892121, 41.0899679], [-8.2890937, 41.0899703], [-8.2889842, 41.0899475], [-8.2889081, 41.0899173], [-8.2888396, 41.0898652]]}, "properties": {"highway": "primary", "lanes": "2", "name": "Rua Professor Doutor Marques de Carvalho", "ref": "EN 106", "surface": "asphalt"}}, {"type": "Feature", "geometry": {"type": "LineString", "coordinates": [[-8.3116567, 41.3758547], [-8.3118014, 41.3755468], [-8.3120141, 41.3753119], [-8.3123013, 41.3751207], [-8.3130256, 41.3747885], [-8.3131335, 41.3747167]]}, "properties": {"highway": "primary", "ref": "EN 106", "source": "bing"}}, {"type": "Feature", "geometry": {"type": "LineString", "coordinates": [[-8.3128394, 41.3721592], [-8.312164, 41.3713609]]}, "properties": {"highway": "primary", "oneway": "no", "ref": "EN 106", "source": "bing", "surface": "asphalt"}}, {"type": "Feature", "geometry": {"type": "LineString", "coordinates": [[-8.3133747, 41.3727843], [-8.3128394, 41.3721592]]}, "properties": {"bridge": "yes", "highway": "primary", "layer": "1", "ref": "EN 106", "source": "bing"}}, {"type": "Feature", "geometry": {"type": "LineString", "coordinates": [[-8.3226478, 41.4000995], [-8.322397, 41.4001372], [-8.3220855, 41.400153]]}, "properties": {"highway": "primary", "oneway": "yes", "ref": "EN 106"}}, {"type": "Feature", "geometry": {"type": "LineString", "coordinates": [[-8.3220855, 41.400153], [-8.3223924, 41.4002083], [-8.3226116, 41.4002573]]}, "properties": {"highway": "primary", "oneway": "yes", "ref": "EN 106"}}, {"type": "Feature", "geometry": {"type": "LineString", "coordinates": [[-8.3220855, 41.400153], [-8.3218307, 41.4000755], [-8.3216262, 41.3999766], [-8.3214721, 41.3998648], [-8.3213331, 41.3997054], [-8.3208685, 41.3990403]]}, "properties": {"highway": "primary", "oneway": "no", "ref": "EN 106"}}, {"type": "Feature", "geometry": {"type": "LineString", "coordinates": [[-8.3054388, 41.2756128], [-8.3055301, 41.2757015], [-8.3060913, 41.2760406], [-8.3067347, 41.2764186], [-8.3071357, 41.2767099], [-8.3074709, 41.277021], [-8.3076609, 41.2772975], [-8.3077709, 41.2775061], [-8.3078526, 41.2777413], [-8.3079313, 41.2780926], [-8.3080959, 41.2789772], [-8.3081758, 41.279466], [-8.3083059, 41.2799149], [-8.3084049, 41.2801795], [-8.3084852, 41.280345], [-8.3085597, 41.2804693], [-8.3086651, 41.2806236], [-8.3088293, 41.2808194]]}, "properties": {"highway": "primary", "lanes": "1", "motorroad": "no", "name": "Variante \u00e0 EN 106", "oneway": "yes", "ref": "EN 106"}}, {"type": "Feature", "geometry": {"type": "LineString", "coordinates": [[-8.2963847, 41.2552249], [-8.2963847, 41.2549062]]}, "properties": {"bridge": "yes", "highway": "primary", "layer": "1", "name": "Variante \u00e0 EN 106", "oneway": "no", "ref": "EN 106"}}, {"type": "Feature", "geometry": {"type": "LineString", "coordinates": [[-8.2963847, 41.2549062], [-8.2964282, 41.2535905], [-8.2963974, 41.2532377], [-8.296348, 41.2529715], [-8.2962335, 41.252629], [-8.2960719, 41.2523437], [-8.2958255, 41.2519734], [-8.2953628, 41.2514198], [-8.2948651, 41.2508461], [-8.2945595, 41.2504538], [-8.2943076, 41.2500947], [-8.2941381, 41.2497074], [-8.2940569, 41.2493951], [-8.2938178, 41.2468861], [-8.2938094, 41.2466954]]}, "properties": {"highway": "primary", "name": "Variante \u00e0 EN 106", "oneway": "no", "ref": "EN 106", "surface": "asphalt"}}, {"type": "Feature", "geometry": {"type": "LineString", "coordinates": [[-8.3054388, 41.2756128], [-8.3050942, 41.2754147]]}, "properties": {"bridge": "viaduct", "highway": "primary", "layer": "1", "name": "Variante \u00e0 EN 106", "oneway": "no", "ref": "EN 106"}}, {"type": "Feature", "geometry": {"type": "LineString", "coordinates": [[-8.3122018, 41.28012], [-8.3120784, 41.2805202], [-8.3120097, 41.2806813], [-8.3119402, 41.2808235], [-8.3118377, 41.2809984], [-8.3117379, 41.2811485], [-8.3114772, 41.2814776], [-8.3113048, 41.2816565], [-8.310896, 41.2819706], [-8.3106886, 41.2821106]]}, "properties": {"highway": "primary", "old_ref": "IC 25", "oneway": "yes", "ref": "EN 106"}}, {"type": "Feature", "geometry": {"type": "LineString", "coordinates": [[-8.2947993, 41.2212996], [-8.2920206, 41.2184939]]}, "properties": {"bridge": "yes", "highway": "primary", "layer": "1", "name": "Variante \u00e0 EN 106", "oneway": "no", "ref": "EN 106"}}, {"type": "Feature", "geometry": {"type": "LineString", "coordinates": [[-8.2920206, 41.2184939], [-8.2906867, 41.2171126], [-8.2901657, 41.2166781], [-8.2895985, 41.2162917], [-8.2891931, 41.2160481]]}, "properties": {"highway": "primary", "name": "Variante \u00e0 EN 106", "oneway": "no", "ref": "EN 106"}}, {"type": "Feature", "geometry": {"type": "LineString", "coordinates": [[-8.30679, 41.3646689], [-8.3067517, 41.3645844], [-8.3067129, 41.3644622]]}, "properties": {"highway": "primary", "oneway": "yes", "ref": "EN 106"}}, {"type": "Feature", "geometry": {"type": "LineString", "coordinates": [[-8.3063328, 41.3642256], [-8.3062713, 41.3641652], [-8.3061559, 41.3640432], [-8.3061033, 41.3639443], [-8.3060651, 41.3638372], [-8.3060741, 41.3636978], [-8.3061833, 41.363488], [-8.3062827, 41.36327], [-8.3062786, 41.3631718], [-8.3062454, 41.3630879], [-8.3060854, 41.362887], [-8.3058484, 41.3626271], [-8.3057663, 41.3624704], [-8.3057187, 41.3622061], [-8.3057121, 41.3615102], [-8.305745, 41.361317], [-8.305818, 41.3611317], [-8.3059324, 41.360937], [-8.3062239, 41.3606513], [-8.3064319, 41.360481], [-8.3066812, 41.360374], [-8.3068545, 41.3603569], [-8.3071922, 41.3603876], [-8.3073445, 41.3603486], [-8.307549, 41.3601735], [-8.3076497, 41.3600502], [-8.3077576, 41.3596517], [-8.3078051, 41.3594806], [-8.3079722, 41.3592407], [-8.3080535, 41.3590895], [-8.3080407, 41.3589355], [-8.3080063, 41.3587787], [-8.3080292, 41.3585864], [-8.3081378, 41.3584029], [-8.3085426, 41.3580142], [-8.3087432, 41.3578114], [-8.308943, 41.3575484], [-8.3090653, 41.3573426], [-8.3090976, 41.3572318], [-8.3090965, 41.3571369], [-8.3090568, 41.3570676], [-8.3090003, 41.3570175], [-8.3088854, 41.3569373], [-8.3087207, 41.3568633], [-8.308644, 41.3567915], [-8.3085807, 41.3567116], [-8.3084451, 41.3564271], [-8.3083737, 41.3563288], [-8.3082701, 41.3562628], [-8.3081413, 41.3562181], [-8.3077774, 41.3561208], [-8.3076595, 41.3560563], [-8.3075699, 41.3559787], [-8.3075319, 41.355885], [-8.3075189, 41.3557172], [-8.3075292, 41.3555538], [-8.3075379, 41.3553142], [-8.307512, 41.3552277], [-8.3073897, 41.3550238], [-8.3073569, 41.3548668], [-8.3074139, 41.3546601], [-8.3076438, 41.354095], [-8.3077325, 41.3538823], [-8.3079957, 41.3535501], [-8.3081789, 41.3533836], [-8.3085622, 41.3531468], [-8.3085987, 41.3531095], [-8.3086602, 41.3530125], [-8.3086931, 41.3528526], [-8.3087211, 41.3518587], [-8.308757, 41.3515673], [-8.3088057, 41.351319], [-8.3089359, 41.3510044], [-8.3090001, 41.3505955], [-8.3091111, 41.3504082], [-8.3092923, 41.3502393], [-8.3095109, 41.3500968], [-8.3098065, 41.3499508], [-8.3099153, 41.3498842], [-8.3100653, 41.3497475], [-8.3104055, 41.3493685], [-8.3106097, 41.3492056], [-8.3108159, 41.3491008], [-8.3111955, 41.3489825], [-8.3113025, 41.3488895], [-8.3113305, 41.3487818], [-8.3112985, 41.3485735], [-8.3113177, 41.3484034], [-8.3114234, 41.3482664], [-8.3116154, 41.3481402], [-8.3116977, 41.3480629], [-8.3117143, 41.3479502], [-8.3116881, 41.3476442], [-8.311768, 41.3474923], [-8.3119472, 41.3473751], [-8.3119937, 41.3473621], [-8.312644, 41.3473581], [-8.3128357, 41.3473203], [-8.3129514, 41.3472472], [-8.3130198, 41.3470981], [-8.3130552, 41.3463883], [-8.3130915, 41.345662], [-8.3131206, 41.3454399], [-8.3132394, 41.3445325], [-8.3132023, 41.3443746], [-8.3131064, 41.3442467], [-8.3127931, 41.343966], [-8.3127405, 41.3439053], [-8.3127129, 41.3438494], [-8.3126768, 41.3436853], [-8.3126835, 41.3435282], [-8.3126232, 41.343402], [-8.312476, 41.3432961], [-8.3122691, 41.3432697], [-8.3121224, 41.3433071], [-8.3118626, 41.3433702], [-8.3110125, 41.343567], [-8.3105986, 41.3435724], [-8.3101893, 41.3435364], [-8.3099975, 41.3435159], [-8.3098902, 41.3434998], [-8.3094166, 41.3434365], [-8.3085547, 41.3432014], [-8.3082661, 41.3430581], [-8.308087, 41.3428871], [-8.3080065, 41.3426902], [-8.3079892, 41.3423147], [-8.307893, 41.3421414], [-8.3077742, 41.3420394], [-8.3075991, 41.3419761], [-8.3074264, 41.3419684], [-8.307234, 41.3420205], [-8.3063772, 41.3424145], [-8.3061129, 41.3424354], [-8.3058422, 41.3424049], [-8.3046029, 41.3418768], [-8.3043713, 41.3417634], [-8.303134, 41.3409543], [-8.3029631, 41.3408676], [-8.3027084, 41.3407877], [-8.3014688, 41.3405817], [-8.3012612, 41.3405238], [-8.3011422, 41.3404518], [-8.3010296, 41.3403518], [-8.3009252, 41.3401941], [-8.3008816, 41.3400434], [-8.300882, 41.3399272], [-8.3009156, 41.3398051], [-8.3009846, 41.3396711], [-8.3010658, 41.3395569], [-8.301179, 41.3394529], [-8.3013903, 41.3393456], [-8.3016428, 41.3392716], [-8.3018462, 41.3392299], [-8.3020779, 41.3392072], [-8.302365, 41.3392031], [-8.3056841, 41.3392972], [-8.3059541, 41.3393041], [-8.3060207, 41.3393028], [-8.3062764, 41.3392832], [-8.3064149, 41.3392498], [-8.3065413, 41.3392025], [-8.3067315, 41.3390983], [-8.306908, 41.3389379], [-8.3071642, 41.3385846], [-8.3075373, 41.3381374], [-8.308641, 41.3367952], [-8.308712, 41.3367077], [-8.3092132, 41.3360992], [-8.3093097, 41.3359458], [-8.3093337, 41.335823], [-8.3093236, 41.3357019], [-8.3092722, 41.3354183], [-8.3092392, 41.3352761], [-8.3092479, 41.3351754], [-8.3092907, 41.3350753], [-8.3094122, 41.3349471], [-8.309804, 41.334592], [-8.3099353, 41.3344714], [-8.3099772, 41.3343983], [-8.310003, 41.3343531], [-8.3100341, 41.3341793], [-8.3100583, 41.3338728], [-8.3100591, 41.3338241], [-8.310061, 41.3337156], [-8.3100267, 41.3336356], [-8.3099412, 41.3335465], [-8.3096889, 41.3333764], [-8.3095951, 41.3332817], [-8.3095547, 41.3331535], [-8.3095852, 41.3329639], [-8.3097075, 41.33253], [-8.3097972, 41.3320214], [-8.3098328, 41.3316442], [-8.3098475, 41.3315338], [-8.3098508, 41.3314193], [-8.3098246, 41.3312859], [-8.3097486, 41.3311939], [-8.3096434, 41.3311339], [-8.309484, 41.3310837], [-8.309297, 41.3310642], [-8.3091041, 41.3310319], [-8.3089548, 41.3309974], [-8.3088523, 41.3309447], [-8.3087491, 41.3308708], [-8.3086846, 41.3307683], [-8.308649, 41.3306644], [-8.3086327, 41.330543], [-8.3085999, 41.3304097], [-8.3085557, 41.3303149], [-8.3084488, 41.3302162], [-8.308234, 41.3300501], [-8.3081557, 41.3299838], [-8.3081124, 41.3298875], [-8.3080958, 41.3298043], [-8.3081057, 41.3297035], [-8.308174, 41.3294493], [-8.3082706, 41.3292152], [-8.3083117, 41.3290862], [-8.3085076, 41.3288061], [-8.3085857, 41.3286857], [-8.3086167, 41.3286378], [-8.308788, 41.3283882], [-8.3088816, 41.3282927], [-8.3089267, 41.3282466], [-8.30925, 41.328016], [-8.3102112, 41.3273572], [-8.3103185, 41.3272836], [-8.3109607, 41.3268525], [-8.3113608, 41.3265757], [-8.3118155, 41.3262834], [-8.3119145, 41.3261973], [-8.3120986, 41.3260372], [-8.3124428, 41.325752], [-8.3126296, 41.3255826], [-8.312804, 41.3254158], [-8.3129702, 41.3252083], [-8.3131805, 41.3250019], [-8.3135245, 41.3245919], [-8.3138926, 41.3241183], [-8.3143986, 41.3234672], [-8.314581, 41.3232046], [-8.3149002, 41.3227971]]}, "properties": {"highway": "primary", "ref": "EN 106"}}, {"type": "Feature", "geometry": {"type": "LineString", "coordinates": [[-8.3063328, 41.3642256], [-8.306377, 41.3643079], [-8.3063913, 41.3643451], [-8.3063985, 41.3643904]]}, "properties": {"highway": "primary", "oneway": "yes", "ref": "EN 106"}}, {"type": "Feature", "geometry": {"type": "LineString", "coordinates": [[-8.3065198, 41.3645951], [-8.3066726, 41.3646308], [-8.30679, 41.3646689]]}, "properties": {"highway": "primary", "oneway": "yes", "ref": "EN 106"}}, {"type": "Feature", "geometry": {"type": "LineString", "coordinates": [[-8.3063832, 41.3644099], [-8.3063681, 41.3644472], [-8.3063685, 41.3644862], [-8.3063842, 41.3645234], [-8.3064139, 41.3645554], [-8.3064622, 41.3645822], [-8.3065198, 41.3645951], [-8.3065788, 41.3645926], [-8.3066333, 41.3645753], [-8.3066769, 41.3645454], [-8.3067045, 41.3645061], [-8.3067129, 41.3644622], [-8.3067027, 41.3644217], [-8.3066761, 41.3643856], [-8.3066358, 41.3643576], [-8.3065858, 41.3643405], [-8.3065335, 41.3643359], [-8.3064817, 41.3643433], [-8.3064353, 41.364362], [-8.3063985, 41.3643904], [-8.3063832, 41.3644099]]}, "properties": {"highway": "primary", "junction": "roundabout", "ref": "EN 106", "surface": "asphalt"}}, {"type": "Feature", "geometry": {"type": "LineString", "coordinates": [[-8.3065858, 41.3643405], [-8.306458, 41.3642866], [-8.3064092, 41.3642623], [-8.3063328, 41.3642256]]}, "properties": {"highway": "primary", "oneway": "yes", "ref": "EN 106"}}, {"type": "Feature", "geometry": {"type": "LineString", "coordinates": [[-8.2891041, 41.2159946], [-8.2883035, 41.2155245], [-8.2881604, 41.2154404], [-8.2879993, 41.2153376], [-8.287931, 41.2152777], [-8.2878822, 41.2152153]]}, "properties": {"highway": "primary", "lanes": "2", "lit": "yes", "oneway": "yes", "ref": "EN 106", "source": "bing"}}, {"type": "Feature", "geometry": {"type": "LineString", "coordinates": [[-8.2857456, 41.2142354], [-8.2858166, 41.2142343], [-8.2859532, 41.2142661], [-8.2860704, 41.2143252], [-8.2861581, 41.2143695], [-8.2865915, 41.2146234], [-8.2867564, 41.2147204], [-8.2869704, 41.2148464]]}, "properties": {"highway": "primary", "lanes": "2", "lit": "yes", "oneway": "yes", "ref": "EN 106", "source": "bing", "surface": "asphalt"}}, {"type": "Feature", "geometry": {"type": "LineString", "coordinates": [[-8.300076, 41.2350586], [-8.2996754, 41.2338137]]}, "properties": {"highway": "primary", "name": "Variante \u00e0 EN 106", "oneway": "no", "ref": "EN 106"}}, {"type": "Feature", "geometry": {"type": "LineString", "coordinates": [[-8.30021, 41.2355203], [-8.300076, 41.2350586]]}, "properties": {"bridge": "viaduct", "highway": "primary", "layer": "1", "name": "Variante \u00e0 EN 106", "oneway": "no", "ref": "EN 106"}}, {"type": "Feature", "geometry": {"type": "LineString", "coordinates": [[-8.2848395, 41.2135391], [-8.2845793, 41.213254], [-8.284496, 41.2131132], [-8.2844568, 41.2129477], [-8.2844665, 41.2127721], [-8.2845252, 41.2124944], [-8.2845885, 41.2123227], [-8.2845987, 41.2122517], [-8.2846057, 41.2122026], [-8.2846297, 41.2120535]]}, "properties": {"highway": "primary", "lit": "yes", "oneway": "no", "ref": "EN 106", "surface": "asphalt"}}, {"type": "Feature", "geometry": {"type": "LineString", "coordinates": [[-8.3050942, 41.2754147], [-8.3030583, 41.2742715], [-8.3026415, 41.2739788], [-8.3022751, 41.2736328], [-8.3020081, 41.273324], [-8.3017369, 41.2729211], [-8.3005112, 41.2709934], [-8.3001796, 41.2704792], [-8.2998963, 41.2701229], [-8.2994037, 41.2696409], [-8.2980693, 41.2685065], [-8.295923, 41.2666306], [-8.2954195, 41.2661842], [-8.2951627, 41.2659418], [-8.2949808, 41.265734]]}, "properties": {"highway": "primary", "name": "Variante \u00e0 EN 106", "oneway": "no", "ref": "EN 106"}}, {"type": "Feature", "geometry": {"type": "LineString", "coordinates": [[-8.3088811, 41.2807458], [-8.3087383, 41.2805883], [-8.3086228, 41.2804363], [-8.3085479, 41.2803205], [-8.3084854, 41.2801993], [-8.3082856, 41.2796373], [-8.3081351, 41.2789283], [-8.3079976, 41.2781596], [-8.3079095, 41.2777753], [-8.3078773, 41.2776477], [-8.3077401, 41.2773309], [-8.3076467, 41.2771703], [-8.307546, 41.2770264], [-8.3074257, 41.2768787], [-8.3072488, 41.2766922], [-8.3070671, 41.2765538], [-8.3064999, 41.2762048], [-8.3058785, 41.2758525], [-8.3057184, 41.2757512], [-8.3054388, 41.2756128]]}, "properties": {"highway": "primary", "motorroad": "no", "name": "Variante \u00e0 EN 106", "oneway": "yes", "ref": "EN 106"}}, {"type": "Feature", "geometry": {"type": "LineString", "coordinates": [[-8.2945459, 41.2443393], [-8.2948667, 41.2440036], [-8.2954342, 41.2435789], [-8.2960747, 41.2432367], [-8.2992935, 41.2419121], [-8.2998181, 41.2416261]]}, "properties": {"highway": "primary", "name": "Variante \u00e0 EN 106", "oneway": "no", "ref": "EN 106"}}, {"type": "Feature", "geometry": {"type": "LineString", "coordinates": [[-8.2941565, 41.2447755], [-8.2940711, 41.2449383]]}, "properties": {"bridge": "yes", "highway": "primary", "layer": "1", "oneway": "yes", "ref": "EN 106", "source": "bing"}}, {"type": "Feature", "geometry": {"type": "LineString", "coordinates": [[-8.2941804, 41.2449184], [-8.29427, 41.244762]]}, "properties": {"bridge": "yes", "highway": "primary", "layer": "1", "oneway": "yes", "ref": "EN 106", "source": "bing"}}, {"type": "Feature", "geometry": {"type": "LineString", "coordinates": [[-8.2945459, 41.2443393], [-8.2941565, 41.2447755]]}, "properties": {"highway": "primary", "oneway": "yes", "ref": "EN 106", "source": "bing"}}, {"type": "Feature", "geometry": {"type": "LineString", "coordinates": [[-8.29427, 41.244762], [-8.2945459, 41.2443393]]}, "properties": {"highway": "primary", "oneway": "yes", "ref": "EN 106", "source": "bing"}}, {"type": "Feature", "geometry": {"type": "LineString", "coordinates": [[-8.2940711, 41.2449383], [-8.2939539, 41.2451878], [-8.2938327, 41.2455821], [-8.2937592, 41.2459705], [-8.2937572, 41.246326], [-8.2938094, 41.2466954]]}, "properties": {"highway": "primary", "oneway": "yes", "ref": "EN 106", "source": "bing"}}, {"type": "Feature", "geometry": {"type": "LineString", "coordinates": [[-8.2938094, 41.2466954], [-8.2938582, 41.2460921], [-8.2938969, 41.2457398], [-8.2939399, 41.2455522], [-8.2940625, 41.2451769], [-8.2941804, 41.2449184]]}, "properties": {"highway": "primary", "oneway": "yes", "ref": "EN 106", "source": "bing"}}, {"type": "Feature", "geometry": {"type": "LineString", "coordinates": [[-8.3199893, 41.3977624], [-8.3199786, 41.3975583]]}, "properties": {"highway": "primary", "oneway": "yes", "ref": "EN 106", "source": "bing"}}, {"type": "Feature", "geometry": {"type": "LineString", "coordinates": [[-8.3198195, 41.3976426], [-8.3199893, 41.3977624]]}, "properties": {"highway": "primary", "oneway": "yes", "ref": "EN 106", "source": "bing"}}, {"type": "Feature", "geometry": {"type": "LineString", "coordinates": [[-8.3196361, 41.3972341], [-8.319688, 41.3974206]]}, "properties": {"highway": "primary", "oneway": "yes", "ref": "EN 106", "source": "bing"}}, {"type": "Feature", "geometry": {"type": "LineString", "coordinates": [[-8.3198105, 41.3973797], [-8.3196361, 41.3972341]]}, "properties": {"highway": "primary", "oneway": "yes", "ref": "EN 106", "source": "bing"}}, {"type": "Feature", "geometry": {"type": "LineString", "coordinates": [[-8.3091193, 41.3708578], [-8.3084066, 41.3708544]]}, "properties": {"highway": "primary", "layer": "-1", "ref": "EN 106", "source": "bing", "surface": "asphalt", "tunnel": "yes"}}, {"type": "Feature", "geometry": {"type": "LineString", "coordinates": [[-8.3084066, 41.3708544], [-8.3078169, 41.3708585], [-8.3075248, 41.3708605], [-8.3073733, 41.3708616]]}, "properties": {"highway": "primary", "ref": "EN 106", "source": "bing", "surface": "asphalt"}}, {"type": "Feature", "geometry": {"type": "LineString", "coordinates": [[-8.3131335, 41.3747167], [-8.313302, 41.3745689]]}, "properties": {"bridge": "yes", "highway": "primary", "layer": "1", "ref": "EN 106", "source": "bing"}}, {"type": "Feature", "geometry": {"type": "LineString", "coordinates": [[-8.313302, 41.3745689], [-8.3134208, 41.3744013], [-8.3135069, 41.3741469], [-8.3135373, 41.3732095], [-8.3134957, 41.3730077], [-8.3133747, 41.3727843]]}, "properties": {"highway": "primary", "ref": "EN 106", "source": "bing"}}, {"type": "Feature", "geometry": {"type": "LineString", "coordinates": [[-8.291067, 41.1991354], [-8.2911244, 41.1989987]]}, "properties": {"highway": "primary", "oneway": "yes", "ref": "EN 15;EN 106"}}, {"type": "Feature", "geometry": {"type": "LineString", "coordinates": [[-8.2843679, 41.211379], [-8.2843331, 41.2111561], [-8.2843162, 41.2110106], [-8.2843021, 41.2108412], [-8.2843075, 41.2106535], [-8.2843387, 41.2104931], [-8.2843531, 41.2104195], [-8.2844412, 41.2102869], [-8.2844684, 41.2102459], [-8.2845757, 41.210143], [-8.2847098, 41.2100462], [-8.2848761, 41.2099594], [-8.2851175, 41.2098867], [-8.2854742, 41.2097758], [-8.2857612, 41.2096446], [-8.2859892, 41.2094852], [-8.2862628, 41.2092249], [-8.2864935, 41.2089949], [-8.2865954, 41.2089121], [-8.2868153, 41.2087386], [-8.2869333, 41.2086195], [-8.2871077, 41.2083007], [-8.2874756, 41.2075117], [-8.2876973, 41.2070363], [-8.2878567, 41.2066456], [-8.2880633, 41.2062085], [-8.2884162, 41.2054674], [-8.2884391, 41.2054194], [-8.2888679, 41.2046609], [-8.288949, 41.2045173], [-8.2889967, 41.2044292], [-8.2890306, 41.2043626], [-8.2895069, 41.203428], [-8.2895797, 41.2032851], [-8.2896575, 41.2031519], [-8.2897494, 41.203016], [-8.2899713, 41.2027489]]}, "properties": {"highway": "primary", "oneway": "no", "ref": "EN 106", "surface": "asphalt"}}, {"type": "Feature", "geometry": {"type": "LineString", "coordinates": [[-8.2911244, 41.1989987], [-8.2909877, 41.1991002]]}, "properties": {"highway": "primary", "oneway": "yes", "ref": "EN 15;EN 106"}}, {"type": "Feature", "geometry": {"type": "LineString", "coordinates": [[-8.2908079, 41.1991976], [-8.2908089, 41.1992266], [-8.2908198, 41.1992545], [-8.2908399, 41.1992793]]}, "properties": {"highway": "primary", "junction": "roundabout", "ref": "EN 15;EN 106", "surface": "paved"}}, {"type": "Feature", "geometry": {"type": "LineString", "coordinates": [[-8.3114746, 41.2883368], [-8.3114593, 41.2883641]]}, "properties": {"highway": "primary", "junction": "roundabout", "ref": "EN 106", "surface": "asphalt"}}, {"type": "Feature", "geometry": {"type": "LineString", "coordinates": [[-8.3116594, 41.288276], [-8.3116322, 41.2882099], [-8.3115864, 41.2881748], [-8.3114041, 41.288035]]}, "properties": {"highway": "primary", "name": "Rua de Ribas", "oneway": "yes", "ref": "EN 106", "surface": "asphalt"}}, {"type": "Feature", "geometry": {"type": "LineString", "coordinates": [[-8.3116117, 41.2885443], [-8.3116634, 41.2885774], [-8.3117364, 41.2886144], [-8.3118688, 41.2887033]]}, "properties": {"highway": "primary", "name": "Rua de Ribas", "oneway": "yes", "ref": "EN 106", "surface": "asphalt"}}, {"type": "Feature", "geometry": {"type": "LineString", "coordinates": [[-8.3118688, 41.2887033], [-8.3118705, 41.2886042], [-8.3118492, 41.2885266], [-8.311825, 41.2884387], [-8.3118078, 41.288407]]}, "properties": {"highway": "primary", "name": "Rua de Ribas", "oneway": "yes", "ref": "EN 106", "surface": "asphalt"}}, {"type": "Feature", "geometry": {"type": "LineString", "coordinates": [[-8.3114041, 41.288035], [-8.3114429, 41.2881782], [-8.3114491, 41.2882302], [-8.3114574, 41.2883], [-8.3114593, 41.2883641]]}, "properties": {"highway": "primary", "name": "Rua de Ribas", "oneway": "yes", "ref": "EN 106", "surface": "asphalt"}}, {"type": "Feature", "geometry": {"type": "LineString", "coordinates": [[-8.3095761, 41.282953], [-8.309604, 41.2829103], [-8.3096158, 41.2828636], [-8.309611, 41.2828168], [-8.3095901, 41.2827726], [-8.3095546, 41.2827339], [-8.309508, 41.2827041], [-8.3094527, 41.2826842], [-8.3093925, 41.2826756], [-8.3093314, 41.2826788], [-8.3092704, 41.2826948], [-8.3092174, 41.2827226], [-8.3091763, 41.28276], [-8.3091477, 41.2828113], [-8.3091415, 41.2828667], [-8.3091582, 41.2829208], [-8.3091963, 41.2829684], [-8.3092423, 41.2830001], [-8.3092976, 41.2830217], [-8.3093586, 41.2830318], [-8.3094216, 41.2830295], [-8.3094816, 41.2830147], [-8.3095343, 41.2829887], [-8.3095761, 41.282953]]}, "properties": {"highway": "primary", "junction": "roundabout", "ref": "EN 106"}}, {"type": "Feature", "geometry": {"type": "LineString", "coordinates": [[-8.3096158, 41.2828636], [-8.3097062, 41.2828088], [-8.3099076, 41.2827252], [-8.310028, 41.2826587], [-8.310166, 41.2825722], [-8.3104066, 41.2823961]]}, "properties": {"highway": "primary", "layer": "1", "motorroad": "no", "old_ref": "IC 25", "oneway": "yes", "ref": "EN 106"}}, {"type": "Feature", "geometry": {"type": "LineString", "coordinates": [[-8.3123387, 41.2797493], [-8.3126047, 41.2783249], [-8.3127, 41.2779921], [-8.3128165, 41.2777447], [-8.3130095, 41.2774277], [-8.3132158, 41.2771221], [-8.3133926, 41.2769031], [-8.3136972, 41.2766089], [-8.314234, 41.2761991], [-8.3188297, 41.2726973], [-8.3193281, 41.2723914], [-8.3198652, 41.2721563], [-8.3204521, 41.2719752], [-8.3208923, 41.2719045], [-8.3213131, 41.2718795], [-8.3219641, 41.271873], [-8.3225964, 41.2719077], [-8.3232169, 41.2719544]]}, "properties": {"highway": "primary", "old_ref": "IC 25", "oneway": "no", "ref": "EN 106", "surface": "asphalt"}}, {"type": "Feature", "geometry": {"type": "LineString", "coordinates": [[-8.3123387, 41.2797493], [-8.3122018, 41.28012]]}, "properties": {"highway": "primary", "old_ref": "IC 25", "oneway": "yes", "ref": "EN 106"}}, {"type": "Feature", "geometry": {"type": "LineString", "coordinates": [[-8.3103432, 41.2823479], [-8.3100466, 41.2825481], [-8.3099001, 41.282634], [-8.3097542, 41.2826898], [-8.3096542, 41.2827191], [-8.3095973, 41.2827276], [-8.3095546, 41.2827339]]}, "properties": {"highway": "primary", "layer": "1", "old_ref": "IC 25", "oneway": "yes", "ref": "EN 106"}}, {"type": "Feature", "geometry": {"type": "LineString", "coordinates": [[-8.2986897, 41.2306461], [-8.2987304, 41.2308898], [-8.2987698, 41.2310304], [-8.2989814, 41.2317209], [-8.2992114, 41.23249], [-8.2995528, 41.2335486], [-8.2996754, 41.2338137]]}, "properties": {"highway": "primary", "name": "Variante \u00e0 EN 106", "oneway": "yes", "ref": "EN 106"}}, {"type": "Feature", "geometry": {"type": "LineString", "coordinates": [[-8.2996754, 41.2338137], [-8.2996241, 41.2335519], [-8.2993071, 41.2324703], [-8.2992482, 41.2322697], [-8.299046, 41.2315896], [-8.2988108, 41.23088], [-8.2986897, 41.2306461]]}, "properties": {"highway": "primary", "name": "Variante \u00e0 EN 106", "oneway": "yes", "ref": "EN 106"}}, {"type": "Feature", "geometry": {"type": "LineString", "coordinates": [[-8.2891931, 41.2160481], [-8.2891041, 41.2159946]]}, "properties": {"highway": "primary", "oneway": "no", "ref": "EN 106"}}, {"type": "Feature", "geometry": {"type": "LineString", "coordinates": [[-8.2986897, 41.2306461], [-8.2984485, 41.2298344], [-8.29832, 41.2292326], [-8.2981743, 41.2285252], [-8.2980461, 41.2274641], [-8.2978394, 41.2256596], [-8.2977395, 41.2251274], [-8.2976395, 41.2247819], [-8.2974996, 41.2243837], [-8.2972298, 41.2238955], [-8.2967862, 41.223339], [-8.2947993, 41.2212996]]}, "properties": {"highway": "primary", "name": "Variante \u00e0 EN 106", "oneway": "no", "ref": "EN 106"}}, {"type": "Feature", "geometry": {"type": "LineString", "coordinates": [[-8.2999444, 41.2415516], [-8.3002079, 41.2413367], [-8.3004931, 41.2410186], [-8.30069, 41.2406246], [-8.3007894, 41.240236], [-8.3008235, 41.2397827], [-8.3005691, 41.2376008], [-8.3004747, 41.2368615], [-8.3003473, 41.2360964], [-8.30021, 41.2355203]]}, "properties": {"highway": "primary", "name": "Variante \u00e0 EN 106", "oneway": "no", "ref": "EN 106"}}, {"type": "Feature", "geometry": {"type": "LineString", "coordinates": [[-8.2998181, 41.2416261], [-8.2999444, 41.2415516]]}, "properties": {"bridge": "yes", "highway": "primary", "layer": "1", "name": "Variante \u00e0 EN 106", "oneway": "no", "ref": "EN 106"}}, {"type": "Feature", "geometry": {"type": "LineString", "coordinates": [[-8.2941869, 41.2598839], [-8.294289, 41.2597179]]}, "properties": {"bridge": "yes", "highway": "primary", "layer": "1", "name": "Variante \u00e0 EN 106", "oneway": "no", "ref": "EN 106"}}, {"type": "Feature", "geometry": {"type": "LineString", "coordinates": [[-8.2938575, 41.2611241], [-8.2938248, 41.261495], [-8.2938667, 41.2618249], [-8.2943997, 41.2645652], [-8.2945141, 41.2649851], [-8.2946536, 41.2652996], [-8.2948172, 41.2655718], [-8.2949808, 41.265734]]}, "properties": {"highway": "primary", "name": "Variante \u00e0 EN 106", "oneway": "yes", "ref": "EN 106"}}, {"type": "Feature", "geometry": {"type": "LineString", "coordinates": [[-8.294289, 41.2597179], [-8.2945783, 41.259267], [-8.2955746, 41.2577734], [-8.2958262, 41.2573816], [-8.2960496, 41.2569686], [-8.2962264, 41.2565417], [-8.2963195, 41.2562057], [-8.2963664, 41.2557], [-8.2963847, 41.2552249]]}, "properties": {"highway": "primary", "name": "Variante \u00e0 EN 106", "oneway": "no", "ref": "EN 106", "surface": "asphalt"}}, {"type": "Feature", "geometry": {"type": "LineString", "coordinates": [[-8.2938575, 41.2611241], [-8.2938691, 41.2609836], [-8.2938739, 41.2608608], [-8.2939305, 41.2605507], [-8.2940505, 41.2601805]]}, "properties": {"highway": "primary", "name": "Variante \u00e0 EN 106", "oneway": "no", "ref": "EN 106"}}, {"type": "Feature", "geometry": {"type": "LineString", "coordinates": [[-8.2949808, 41.265734], [-8.2948974, 41.2655387], [-8.2946867, 41.265151], [-8.2945935, 41.2649089], [-8.294464, 41.2644082], [-8.2940008, 41.26198], [-8.2939463, 41.2617009], [-8.2938803, 41.2612722], [-8.2938575, 41.2611241]]}, "properties": {"highway": "primary", "name": "Variante \u00e0 EN 106", "oneway": "yes", "ref": "EN 106"}}, {"type": "Feature", "geometry": {"type": "LineString", "coordinates": [[-8.2900648, 41.2025622], [-8.2900992, 41.2024401], [-8.2904608, 41.2016979], [-8.2904675, 41.2016711], [-8.290608, 41.2011096], [-8.2906378, 41.2009905], [-8.2906807, 41.2008644], [-8.2907203, 41.2007232], [-8.290756, 41.2005368], [-8.2907883, 41.2004058], [-8.2909202, 41.1998713], [-8.2909443, 41.1997709], [-8.2910343, 41.1993949], [-8.2910292, 41.1993516], [-8.2910148, 41.1993117]]}, "properties": {"highway": "primary", "oneway": "no", "ref": "EN 106"}}, {"type": "Feature", "geometry": {"type": "LineString", "coordinates": [[-8.2912471, 41.0883143], [-8.2911943, 41.0881519], [-8.2911699, 41.0879956], [-8.2911598, 41.0878094]]}, "properties": {"highway": "primary", "name": "Rua Professor Doutor Marques de Carvalho", "oneway": "yes", "ref": "EN 106"}}, {"type": "Feature", "geometry": {"type": "LineString", "coordinates": [[-8.2911943, 41.0881519], [-8.2910601, 41.088063], [-8.2909952, 41.0880253]]}, "properties": {"highway": "primary", "name": "Rua Professor Doutor Marques de Carvalho", "oneway": "yes", "ref": "EN 106"}}, {"type": "Feature", "geometry": {"type": "LineString", "coordinates": [[-8.2907271, 41.0882595], [-8.290869, 41.0882193], [-8.2909991, 41.0882101], [-8.2911211, 41.0882408], [-8.2912471, 41.0883143]]}, "properties": {"highway": "primary", "name": "Rua Professor Doutor Marques de Carvalho", "oneway": "yes", "ref": "EN 106"}}, {"type": "Feature", "geometry": {"type": "LineString", "coordinates": [[-8.2909465, 41.0880712], [-8.2910317, 41.0881488], [-8.2911211, 41.0882408]]}, "properties": {"highway": "primary", "name": "Rua Professor Doutor Marques de Carvalho", "oneway": "yes", "ref": "EN 106"}}, {"type": "Feature", "geometry": {"type": "LineString", "coordinates": [[-8.3143548, 41.3805834], [-8.3143202, 41.3805316], [-8.3142403, 41.3804514], [-8.3141885, 41.3803852]]}, "properties": {"highway": "primary", "oneway": "yes", "ref": "EN 106", "surface": "asphalt"}}, {"type": "Feature", "geometry": {"type": "LineString", "coordinates": [[-8.3140838, 41.380529], [-8.3141735, 41.3805334], [-8.3142733, 41.3805514], [-8.3143548, 41.3805834]]}, "properties": {"highway": "primary", "oneway": "yes", "ref": "EN 106", "surface": "asphalt"}}, {"type": "Feature", "geometry": {"type": "LineString", "coordinates": [[-8.313939, 41.3801635], [-8.3138878, 41.380075], [-8.3137572, 41.3799134], [-8.3136016, 41.3797366], [-8.3134795, 41.379598], [-8.3133518, 41.3794654], [-8.3129381, 41.3790115], [-8.3126042, 41.3786743], [-8.3120621, 41.3780768]]}, "properties": {"highway": "primary", "ref": "EN 106", "source": "bing", "surface": "asphalt"}}, {"type": "Feature", "geometry": {"type": "LineString", "coordinates": [[-8.313939, 41.3801635], [-8.3139425, 41.3802671], [-8.3139263, 41.3803097]]}, "properties": {"highway": "primary", "oneway": "yes", "ref": "EN 106", "source": "bing", "surface": "asphalt"}}, {"type": "Feature", "geometry": {"type": "LineString", "coordinates": [[-8.3120621, 41.3780768], [-8.3119729, 41.3779654], [-8.3118976, 41.3778255], [-8.3117209, 41.3772875], [-8.3116777, 41.3771247], [-8.3116328, 41.3768573], [-8.3116181, 41.3763852]]}, "properties": {"highway": "primary", "ref": "EN 106", "source": "bing", "surface": "cobblestone"}}, {"type": "Feature", "geometry": {"type": "LineString", "coordinates": [[-8.310756, 41.2821589], [-8.3108898, 41.2820565], [-8.3109692, 41.28199], [-8.3110562, 41.2819168], [-8.3111401, 41.2818493], [-8.3113364, 41.2816871], [-8.3114338, 41.2815959], [-8.3115222, 41.2815002], [-8.3116435, 41.2813685], [-8.3117664, 41.2812108], [-8.3118735, 41.2810624], [-8.3119732, 41.2809012], [-8.3120151, 41.2808212], [-8.3120815, 41.2806892], [-8.312138, 41.2805487], [-8.3122234, 41.2802762], [-8.3123088, 41.2799778]]}, "properties": {"highway": "primary", "old_ref": "IC 25", "oneway": "yes", "ref": "EN 106"}}, {"type": "Feature", "geometry": {"type": "LineString", "coordinates": [[-8.2876951, 41.2153899], [-8.2877623, 41.2153788], [-8.2878335, 41.2153767], [-8.2878927, 41.2153925], [-8.2883294, 41.2156386], [-8.2891041, 41.2159946]]}, "properties": {"highway": "primary", "lanes": "2", "lit": "yes", "oneway": "yes", "ref": "EN 106", "source": "bing"}}, {"type": "Feature", "geometry": {"type": "LineString", "coordinates": [[-8.2941639, 41.0965839], [-8.294149, 41.0964536], [-8.2940799, 41.0963494], [-8.2939975, 41.0962862], [-8.2935473, 41.0960686], [-8.2934419, 41.0959716], [-8.2931592, 41.0955788], [-8.2930838, 41.0954402], [-8.2930411, 41.0951633], [-8.2930113, 41.0950732], [-8.2928347, 41.0948135], [-8.292792, 41.0945858], [-8.2928707, 41.0933505], [-8.2928209, 41.092737], [-8.2927852, 41.092455], [-8.2927891, 41.0923362], [-8.2929403, 41.0920432], [-8.2929486, 41.0919687], [-8.2928011, 41.0915841], [-8.2928044, 41.0914009], [-8.2930128, 41.0911091], [-8.2930221, 41.0909933], [-8.2929677, 41.0909029], [-8.2928791, 41.0908006], [-8.2925315, 41.0905301], [-8.2923839, 41.0904576], [-8.2921355, 41.0903743], [-8.2920405, 41.0902708], [-8.2920236, 41.0901334], [-8.2920506, 41.0898725], [-8.2920593, 41.0897885], [-8.2920239, 41.0896836], [-8.291914, 41.0895809], [-8.2917127, 41.0894761]]}, "properties": {"highway": "primary", "lanes": "2", "name": "Rua da P\u00f3voa", "ref": "EN 106", "surface": "asphalt"}}, {"type": "Feature", "geometry": {"type": "LineString", "coordinates": [[-8.3149734, 41.316225], [-8.3158444, 41.3153925], [-8.3162724, 41.3143267], [-8.316516, 41.3140164], [-8.3170724, 41.313596], [-8.3171267, 41.3134476], [-8.317056, 41.3132794], [-8.3167992, 41.313141], [-8.3162115, 41.313089], [-8.3157703, 41.3131249], [-8.3155151, 41.3130767], [-8.3153522, 41.3129209], [-8.3153242, 41.3127391], [-8.3154444, 41.3125524], [-8.3163333, 41.3117759], [-8.3163794, 41.3116127], [-8.316302, 41.3114507], [-8.3159514, 41.3111923], [-8.315786, 41.311034], [-8.3155859, 41.3108423], [-8.3152929, 41.3106494], [-8.3152155, 41.3104986], [-8.3152649, 41.3102946], [-8.3154746, 41.30994], [-8.3155365, 41.3097938], [-8.3155441, 41.3097118], [-8.3155283, 41.3096157], [-8.3149637, 41.308969], [-8.314855, 41.3087662], [-8.3146624, 41.3081319], [-8.3147135, 41.3078339], [-8.3146707, 41.3077065], [-8.3145225, 41.3075], [-8.3144945, 41.3073343], [-8.3147744, 41.3066517], [-8.3149291, 41.3064402], [-8.3149571, 41.3062721], [-8.314781, 41.3058751], [-8.3147135, 41.305446], [-8.3146578, 41.3053377], [-8.3142937, 41.3046299], [-8.3143085, 41.3043244], [-8.3146394, 41.3038953], [-8.3146509, 41.3037296], [-8.3146163, 41.3035973], [-8.3145324, 41.303418], [-8.3143711, 41.3031756], [-8.3143546, 41.3030235], [-8.3145307, 41.3023421], [-8.3144962, 41.3022394], [-8.3142577, 41.3020008], [-8.3142186, 41.3019471], [-8.3142037, 41.3018874], [-8.3142168, 41.301821], [-8.3142672, 41.3015979], [-8.3143853, 41.3012683], [-8.3144315, 41.3012019], [-8.3144617, 41.3011658], [-8.3144778, 41.3011499], [-8.3145187, 41.3011095], [-8.3145864, 41.3010572], [-8.3156139, 41.3004141], [-8.3157078, 41.3002706], [-8.3157061, 41.3001012], [-8.3152468, 41.2994556], [-8.3151036, 41.2991205], [-8.3150641, 41.2981967], [-8.3154032, 41.2967435], [-8.3154032, 41.2964912], [-8.3153538, 41.2961758], [-8.3152353, 41.295921], [-8.3149637, 41.2956638], [-8.3148666, 41.295503], [-8.3148238, 41.2950058], [-8.314669, 41.2948264], [-8.3138459, 41.2947151], [-8.3135649, 41.2946475], [-8.3135068, 41.2946335], [-8.3133702, 41.2945683], [-8.3133127, 41.2945409], [-8.3131414, 41.2944591], [-8.3128368, 41.2942167], [-8.3126673, 41.293978], [-8.3126409, 41.2938024], [-8.3128286, 41.2933954], [-8.312794, 41.2932458], [-8.3125191, 41.2928178], [-8.3124829, 41.2926224], [-8.3125175, 41.2924418], [-8.3127932, 41.2918969], [-8.3129405, 41.2916057], [-8.3129405, 41.2914462], [-8.3128171, 41.2912953], [-8.3127933, 41.2912828], [-8.3124483, 41.2911011], [-8.3121751, 41.2908846], [-8.3120611, 41.2907441]]}, "properties": {"highway": "primary", "name": "Estrada Nossa Senhora da Expecta\u00e7\u00e3o", "ref": "EN 106"}}, {"type": "Feature", "geometry": {"type": "LineString", "coordinates": [[-8.320816, 41.398962], [-8.3206022, 41.3986547], [-8.3202119, 41.3981221], [-8.3199893, 41.3977624]]}, "properties": {"highway": "primary", "oneway": "no", "ref": "EN 106"}}, {"type": "Feature", "geometry": {"type": "LineString", "coordinates": [[-8.3208685, 41.3990403], [-8.320816, 41.398962]]}, "properties": {"bridge": "yes", "highway": "primary", "layer": "1", "oneway": "no", "ref": "EN 106"}}, {"type": "Feature", "geometry": {"type": "LineString", "coordinates": [[-8.2928148, 41.1075198], [-8.2928202, 41.1076031], [-8.2929276, 41.1079551], [-8.2929598, 41.1080308], [-8.2929906, 41.1080824], [-8.29304, 41.1081551], [-8.2931067, 41.1082159]]}, "properties": {"highway": "primary", "name": "Avenida Central de Portela", "oneway": "yes", "ref": "EN 106"}}, {"type": "Feature", "geometry": {"type": "LineString", "coordinates": [[-8.293788, 41.1170833], [-8.2937634, 41.1169834], [-8.2935652, 41.1164956], [-8.2932332, 41.1156782], [-8.2932246, 41.1156553], [-8.2932138, 41.1156266], [-8.2929465, 41.1149199], [-8.292895, 41.1145643], [-8.2928083, 41.1130576]]}, "properties": {"highway": "primary", "lanes": "2", "name": "Avenida da An\u00e9gia", "ref": "EN 106", "surface": "asphalt"}}, {"type": "Feature", "geometry": {"type": "LineString", "coordinates": [[-8.2942257, 41.1394496], [-8.2941996, 41.1393713], [-8.2937763, 41.1381383], [-8.2937368, 41.1378499], [-8.2937418, 41.1375465], [-8.2937534, 41.1362155], [-8.2937558, 41.1359401], [-8.2937671, 41.1346418], [-8.293768, 41.1345885], [-8.2937729, 41.1342867], [-8.2937855, 41.1335177], [-8.2937972, 41.1328057], [-8.2938145, 41.1317455], [-8.2938368, 41.1303845], [-8.2938391, 41.1302435], [-8.2938422, 41.1301726], [-8.2938481, 41.1300346], [-8.2938507, 41.129973], [-8.2938565, 41.1299329]]}, "properties": {"highway": "primary", "name": "Avenida de Cabe\u00e7a Santa", "ref": "EN 106", "surface": "asphalt"}}, {"type": "Feature", "geometry": {"type": "LineString", "coordinates": [[-8.306143, 41.17454], [-8.3060614, 41.1738865], [-8.3059379, 41.1734161], [-8.3058091, 41.1730694], [-8.3054864, 41.1722003], [-8.3054739, 41.1721674]]}, "properties": {"highway": "primary", "name": "Avenida da Boa Viagem", "ref": "EN 106"}}, {"type": "Feature", "geometry": {"type": "LineString", "coordinates": [[-8.305325, 41.1665637], [-8.3052628, 41.1666768], [-8.3052236, 41.1667889], [-8.3052005, 41.1668587], [-8.3051382, 41.1669614]]}, "properties": {"highway": "primary", "name": "Avenida 25 de Abril", "oneway": "yes", "ref": "EN 106", "surface": "asphalt"}}, {"type": "Feature", "geometry": {"type": "LineString", "coordinates": [[-8.3054204, 41.1676239], [-8.3054051, 41.1675026]]}, "properties": {"bridge": "yes", "highway": "primary", "layer": "1", "name": "Avenida da Boa Viagem", "ref": "EN 106"}}, {"type": "Feature", "geometry": {"type": "LineString", "coordinates": [[-8.3051827, 41.1672725], [-8.305241, 41.1673093], [-8.3052849, 41.167351], [-8.305344, 41.1674143]]}, "properties": {"highway": "primary", "name": "Avenida da Boa Viagem", "oneway": "yes", "ref": "EN 106"}}, {"type": "Feature", "geometry": {"type": "LineString", "coordinates": [[-8.3054002, 41.1673994], [-8.3053796, 41.1672294]]}, "properties": {"highway": "primary", "name": "Avenida da Boa Viagem", "oneway": "yes", "ref": "EN 106"}}, {"type": "Feature", "geometry": {"type": "LineString", "coordinates": [[-8.3054051, 41.1675026], [-8.3054002, 41.1673994]]}, "properties": {"bridge": "yes", "highway": "primary", "layer": "1", "name": "Avenida da Boa Viagem", "oneway": "yes", "ref": "EN 106"}}, {"type": "Feature", "geometry": {"type": "LineString", "coordinates": [[-8.305325, 41.1665637], [-8.3053909, 41.1662937], [-8.3055103, 41.1656566], [-8.3055212, 41.1655638], [-8.3056065, 41.1650607], [-8.3057474, 41.1646656], [-8.306014, 41.1639587], [-8.3060323, 41.1637418], [-8.3060037, 41.1636084], [-8.3059917, 41.1635527], [-8.3053467, 41.1622535], [-8.3052345, 41.1620275], [-8.3043503, 41.1602174], [-8.3037132, 41.1589652], [-8.3026625, 41.156796], [-8.3023482, 41.156231], [-8.3021937, 41.156009]]}, "properties": {"highway": "primary", "lanes": "2", "name": "Avenida 25 de Abril", "ref": "EN 106", "surface": "asphalt"}}, {"type": "Feature", "geometry": {"type": "LineString", "coordinates": [[-8.3053553, 41.1669783], [-8.3053098, 41.1668597], [-8.3053023, 41.1667567], [-8.305325, 41.1665637]]}, "properties": {"highway": "primary", "name": "Avenida 25 de Abril", "oneway": "yes", "ref": "EN 106", "surface": "asphalt"}}, {"type": "Feature", "geometry": {"type": "LineString", "coordinates": [[-8.2972621, 41.1467665], [-8.2971201, 41.1466621], [-8.2970067, 41.1465701], [-8.2969126, 41.1464681], [-8.2968055, 41.14634], [-8.2963369, 41.1455228], [-8.2963165, 41.1454908], [-8.2961726, 41.1451803], [-8.2959843, 41.1446614], [-8.2956894, 41.1437866], [-8.2954089, 41.1429651], [-8.294987, 41.1417291], [-8.2942257, 41.1394496]]}, "properties": {"highway": "primary", "lanes": "2", "name": "Avenida Central de Oldr\u00f5es", "ref": "EN 106", "surface": "asphalt"}}, {"type": "Feature", "geometry": {"type": "LineString", "coordinates": [[-8.2928148, 41.1075198], [-8.2926259, 41.1068806], [-8.2922904, 41.1058233], [-8.2917264, 41.1039278], [-8.2917075, 41.1038642], [-8.2917045, 41.1037521], [-8.2919136, 41.1027193], [-8.2921841, 41.1014666], [-8.2923371, 41.1004788], [-8.2924229, 41.0998126]]}, "properties": {"highway": "primary", "lanes": "2", "name": "Avenida Central de Portela", "ref": "EN 106", "surface": "asphalt"}}, {"type": "Feature", "geometry": {"type": "LineString", "coordinates": [[-8.2931962, 41.1082975], [-8.2936286, 41.1085762], [-8.2937356, 41.1086586], [-8.2938026, 41.1087308], [-8.2938839, 41.1088035]]}, "properties": {"highway": "primary", "name": "Avenida Central de Portela", "oneway": "yes", "ref": "EN 106"}}, {"type": "Feature", "geometry": {"type": "LineString", "coordinates": [[-8.2931932, 41.1081696], [-8.2930981, 41.1080508]]}, "properties": {"highway": "primary", "name": "Avenida Central de Portela", "oneway": "yes", "ref": "EN 106"}}, {"type": "Feature", "geometry": {"type": "LineString", "coordinates": [[-8.2938839, 41.1088035], [-8.2938474, 41.1087177], [-8.293786, 41.1086512], [-8.2934436, 41.1083765], [-8.2933556, 41.1083105]]}, "properties": {"highway": "primary", "name": "Avenida Central de Portela", "oneway": "yes", "ref": "EN 106"}}, {"type": "Feature", "geometry": {"type": "LineString", "coordinates": [[-8.2933556, 41.1083105], [-8.2931932, 41.1081696]]}, "properties": {"highway": "primary", "name": "Avenida Central de Portela", "oneway": "yes", "ref": "EN 106"}}, {"type": "Feature", "geometry": {"type": "LineString", "coordinates": [[-8.2930981, 41.1080508], [-8.2930318, 41.1079585], [-8.2929803, 41.1078559], [-8.2928647, 41.1076055], [-8.2928148, 41.1075198]]}, "properties": {"highway": "primary", "name": "Avenida Central de Portela", "oneway": "yes", "ref": "EN 106"}}, {"type": "Feature", "geometry": {"type": "LineString", "coordinates": [[-8.3116567, 41.3758547], [-8.3115273, 41.3759956]]}, "properties": {"highway": "primary", "oneway": "yes", "ref": "EN 106"}}, {"type": "Feature", "geometry": {"type": "LineString", "coordinates": [[-8.3031895, 41.1878852], [-8.3034379, 41.1876779], [-8.3043795, 41.1867855], [-8.3046018, 41.1865453], [-8.3047207, 41.1862965], [-8.3047826, 41.1860895], [-8.3047851, 41.1860798], [-8.3050045, 41.185226], [-8.3050432, 41.1850674]]}, "properties": {"highway": "primary", "lanes": "2", "oneway": "no", "ref": "EN 106", "surface": "asphalt"}}, {"type": "Feature", "geometry": {"type": "LineString", "coordinates": [[-8.3067329, 41.18155], [-8.3067541, 41.1816752], [-8.3067312, 41.1817582]]}, "properties": {"highway": "primary", "name": "Avenida de Pieres", "oneway": "yes", "ref": "EN 106", "surface": "asphalt"}}, {"type": "Feature", "geometry": {"type": "LineString", "coordinates": [[-8.3069545, 41.1816905], [-8.3068628, 41.1816508], [-8.3067329, 41.18155]]}, "properties": {"highway": "primary", "name": "Avenida de Pieres", "oneway": "yes", "ref": "EN 106", "surface": "asphalt"}}, {"type": "Feature", "geometry": {"type": "LineString", "coordinates": [[-8.3066525, 41.1820566], [-8.3067961, 41.1820117], [-8.3068604, 41.1820042]]}, "properties": {"highway": "primary", "name": "Avenida de Pieres", "oneway": "yes", "ref": "EN 106", "surface": "asphalt"}}, {"type": "Feature", "geometry": {"type": "LineString", "coordinates": [[-8.3067253, 41.1819299], [-8.3067042, 41.181978], [-8.3066525, 41.1820566]]}, "properties": {"highway": "primary", "name": "Avenida de Pieres", "oneway": "yes", "ref": "EN 106", "surface": "asphalt"}}, {"type": "Feature", "geometry": {"type": "LineString", "coordinates": [[-8.306337, 41.1790336], [-8.3063513, 41.1789236], [-8.3064578, 41.1781037], [-8.3064992, 41.1775754], [-8.3064322, 41.1769633], [-8.306363, 41.1763305], [-8.306337, 41.1760934], [-8.3061616, 41.1746886]]}, "properties": {"highway": "primary", "name": "Avenida da Boa Viagem", "ref": "EN 106"}}, {"type": "Feature", "geometry": {"type": "LineString", "coordinates": [[-8.3061616, 41.1746886], [-8.306143, 41.17454]]}, "properties": {"bridge": "yes", "highway": "primary", "layer": "1", "name": "Avenida da Boa Viagem", "ref": "EN 106"}}, {"type": "Feature", "geometry": {"type": "LineString", "coordinates": [[-8.2938565, 41.1299329], [-8.2940542, 41.1285702], [-8.2940834, 41.1283687], [-8.2942089, 41.1275033], [-8.2943717, 41.1263961], [-8.2944257, 41.1260278], [-8.2945254, 41.1253492], [-8.2945376, 41.1252661], [-8.2945979, 41.1248554], [-8.2946566, 41.1244742]]}, "properties": {"highway": "primary", "lanes": "2", "name": "Avenida S\u00e3o Miguel", "ref": "EN 106", "surface": "asphalt"}}, {"type": "Feature", "geometry": {"type": "LineString", "coordinates": [[-8.2946566, 41.1244742], [-8.2946885, 41.1242542]]}, "properties": {"highway": "primary", "lanes": "2", "name": "Avenida S\u00e3o Miguel", "ref": "EN 106", "surface": "asphalt"}}, {"type": "Feature", "geometry": {"type": "LineString", "coordinates": [[-8.3104066, 41.2823961], [-8.310756, 41.2821589]]}, "properties": {"bridge": "yes", "highway": "primary", "layer": "1", "motorroad": "no", "old_ref": "IC 25", "oneway": "yes", "ref": "EN 106"}}, {"type": "Feature", "geometry": {"type": "LineString", "coordinates": [[-8.3106886, 41.2821106], [-8.3103432, 41.2823479]]}, "properties": {"bridge": "yes", "highway": "primary", "layer": "1", "old_ref": "IC 25", "oneway": "yes", "ref": "EN 106"}}, {"type": "Feature", "geometry": {"type": "LineString", "coordinates": [[-8.3091963, 41.2829684], [-8.3092215, 41.2830504], [-8.3092267, 41.2831342]]}, "properties": {"highway": "primary", "name": "Rua das Veigas", "oneway": "yes", "ref": "EN 106", "surface": "asphalt"}}, {"type": "Feature", "geometry": {"type": "LineString", "coordinates": [[-8.3092267, 41.2831342], [-8.3092892, 41.2830815], [-8.3093239, 41.2830567], [-8.3093586, 41.2830318]]}, "properties": {"highway": "primary", "name": "Rua das Veigas", "oneway": "yes", "ref": "EN 106", "surface": "asphalt"}}, {"type": "Feature", "geometry": {"type": "LineString", "coordinates": [[-8.3123088, 41.2799778], [-8.3123387, 41.2797493]]}, "properties": {"highway": "primary", "lanes": "1", "motorroad": "no", "old_ref": "IC 25", "oneway": "yes", "ref": "EN 106"}}, {"type": "Feature", "geometry": {"type": "LineString", "coordinates": [[-8.294709, 41.124113], [-8.2947374, 41.1239173], [-8.294793, 41.1235345], [-8.2948004, 41.1234486], [-8.2948082, 41.1233291], [-8.2947318, 41.1229895], [-8.2946714, 41.1227866], [-8.2944749, 41.1221211], [-8.2944494, 41.1220171], [-8.2942657, 41.1214234], [-8.2941994, 41.1212005], [-8.2938878, 41.1201533], [-8.2938658, 41.1200794]]}, "properties": {"highway": "primary", "name": "Avenida S\u00e3o Miguel", "ref": "EN 106"}}, {"type": "Feature", "geometry": {"type": "LineString", "coordinates": [[-8.2946885, 41.1242542], [-8.294709, 41.124113]]}, "properties": {"highway": "primary", "lanes": "2", "name": "Avenida S\u00e3o Miguel", "ref": "EN 106", "surface": "asphalt"}}, {"type": "Feature", "geometry": {"type": "LineString", "coordinates": [[-8.3054507, 41.1707482], [-8.3055463, 41.1689447], [-8.3055217, 41.1686884], [-8.3054204, 41.1676239]]}, "properties": {"highway": "primary", "lanes": "2", "name": "Avenida da Boa Viagem", "ref": "EN 106", "surface": "asphalt"}}, {"type": "Feature", "geometry": {"type": "LineString", "coordinates": [[-8.3050432, 41.1850674], [-8.3050714, 41.1849621], [-8.3054906, 41.183202], [-8.305604, 41.1830008], [-8.3063017, 41.1822694], [-8.3064281, 41.1821691], [-8.3065611, 41.1821024], [-8.3066525, 41.1820566]]}, "properties": {"highway": "primary", "name": "Avenida de Pieres", "ref": "EN 106"}}, {"type": "Feature", "geometry": {"type": "LineString", "coordinates": [[-8.2846297, 41.2120535], [-8.284667, 41.2118763]]}, "properties": {"highway": "primary", "oneway": "yes", "ref": "EN 106"}}, {"type": "Feature", "geometry": {"type": "LineString", "coordinates": [[-8.2845388, 41.2118953], [-8.2846297, 41.2120535]]}, "properties": {"highway": "primary", "lit": "yes", "oneway": "yes", "ref": "EN 106", "surface": "asphalt"}}, {"type": "Feature", "geometry": {"type": "LineString", "coordinates": [[-8.2845338, 41.2116265], [-8.2843679, 41.211379]]}, "properties": {"highway": "primary", "oneway": "yes", "ref": "EN 106"}}, {"type": "Feature", "geometry": {"type": "LineString", "coordinates": [[-8.2843679, 41.211379], [-8.2844278, 41.2116561]]}, "properties": {"highway": "primary", "oneway": "yes", "ref": "EN 106", "surface": "asphalt"}}, {"type": "Feature", "geometry": {"type": "LineString", "coordinates": [[-8.3018476, 41.1901794], [-8.3017406, 41.1902797], [-8.3016518, 41.1903696], [-8.3015734, 41.1904547], [-8.3014249, 41.19055], [-8.3012862, 41.1906188]]}, "properties": {"highway": "primary", "name": "Rua da Mouta", "oneway": "yes", "ref": "EN 106"}}, {"type": "Feature", "geometry": {"type": "LineString", "coordinates": [[-8.3014863, 41.1907922], [-8.3015657, 41.1906886], [-8.3016447, 41.1905578], [-8.3017109, 41.1904407], [-8.3017856, 41.1902996], [-8.3018476, 41.1901794]]}, "properties": {"highway": "primary", "name": "Rua da Mouta", "oneway": "yes", "ref": "EN 106"}}, {"type": "Feature", "geometry": {"type": "LineString", "coordinates": [[-8.3006525, 41.1910489], [-8.3007938, 41.1910309], [-8.3009149, 41.1910163], [-8.3010608, 41.1909995], [-8.3012101, 41.1909793]]}, "properties": {"highway": "primary", "name": "Rua de Figuras", "oneway": "yes", "ref": "EN 106"}}, {"type": "Feature", "geometry": {"type": "LineString", "coordinates": [[-8.3010063, 41.190762], [-8.3009246, 41.1908391], [-8.3008721, 41.1908947], [-8.3007943, 41.1909592], [-8.3007234, 41.1910067], [-8.3006525, 41.1910489]]}, "properties": {"highway": "primary", "name": "Rua de Figuras", "oneway": "yes", "ref": "EN 106"}}, {"type": "Feature", "geometry": {"type": "LineString", "coordinates": [[-8.3011057, 41.1909485], [-8.3011555, 41.1909685], [-8.3012101, 41.1909793], [-8.301258, 41.1909807], [-8.3013054, 41.1909751], [-8.3013504, 41.1909625], [-8.3013912, 41.1909436], [-8.3014226, 41.1909219], [-8.3014485, 41.1908965], [-8.3014682, 41.1908681], [-8.3014809, 41.1908375], [-8.3014855, 41.190815], [-8.3014863, 41.1907922], [-8.3014782, 41.1907514], [-8.3014581, 41.1907129], [-8.301427, 41.1906789], [-8.3013866, 41.1906509], [-8.3013388, 41.1906306], [-8.3012862, 41.1906188], [-8.301224, 41.1906167], [-8.3011631, 41.1906265], [-8.3011076, 41.1906476], [-8.301061, 41.1906787], [-8.3010265, 41.1907177], [-8.3010063, 41.190762], [-8.3010015, 41.1908043], [-8.3010098, 41.1908463], [-8.3010308, 41.1908857], [-8.3010634, 41.1909204], [-8.3011057, 41.1909485]]}, "properties": {"highway": "primary", "junction": "roundabout", "name": "Rotunda de Figuras", "ref": "EN 106"}}, {"type": "Feature", "geometry": {"type": "LineString", "coordinates": [[-8.2992268, 41.1926508], [-8.2992402, 41.1925862], [-8.2992241, 41.1925176], [-8.299102, 41.1924328], [-8.2989814, 41.1924245], [-8.2989479, 41.1924268], [-8.2988513, 41.1924793], [-8.2987735, 41.1925499], [-8.298717, 41.1926143], [-8.2986904, 41.1926448]]}, "properties": {"highway": "primary", "junction": "roundabout", "ref": "EN 15;EN 106", "surface": "asphalt"}}, {"type": "Feature", "geometry": {"type": "LineString", "coordinates": [[-8.2986904, 41.1926448], [-8.2986736, 41.1927065]]}, "properties": {"highway": "primary", "junction": "roundabout", "ref": "EN 15;EN 106", "surface": "asphalt"}}, {"type": "Feature", "geometry": {"type": "LineString", "coordinates": [[-8.2986736, 41.1927065], [-8.2986635, 41.1927437], [-8.2987199, 41.1928325], [-8.2988272, 41.1928789]]}, "properties": {"highway": "primary", "junction": "roundabout", "ref": "EN 15;EN 106", "surface": "asphalt"}}, {"type": "Feature", "geometry": {"type": "LineString", "coordinates": [[-8.2988272, 41.1928789], [-8.2989425, 41.1928789]]}, "properties": {"highway": "primary", "junction": "roundabout", "ref": "EN 15;EN 106", "surface": "asphalt"}}, {"type": "Feature", "geometry": {"type": "LineString", "coordinates": [[-8.2909877, 41.1991002], [-8.2909463, 41.1990978], [-8.2909056, 41.1991041], [-8.2908728, 41.199117], [-8.2908689, 41.1991186], [-8.2908389, 41.1991402], [-8.290818, 41.1991673], [-8.2908079, 41.1991976]]}, "properties": {"highway": "primary", "junction": "roundabout", "ref": "EN 15;EN 106", "surface": "paved"}}, {"type": "Feature", "geometry": {"type": "LineString", "coordinates": [[-8.291067, 41.1991354], [-8.2910311, 41.1991131], [-8.2909877, 41.1991002]]}, "properties": {"highway": "primary", "junction": "roundabout", "ref": "EN 15;EN 106", "surface": "paved"}}, {"type": "Feature", "geometry": {"type": "LineString", "coordinates": [[-8.2938658, 41.1200794], [-8.2937447, 41.1196726], [-8.2936125, 41.1192157]]}, "properties": {"highway": "primary", "lanes": "2", "name": "Avenida Central das Termas", "ref": "EN 106", "surface": "asphalt"}}, {"type": "Feature", "geometry": {"type": "LineString", "coordinates": [[-8.2903024, 41.0889186], [-8.2910067, 41.0887128], [-8.2911388, 41.0886585], [-8.2912471, 41.0885834], [-8.2913003, 41.0884977], [-8.2913, 41.0884123], [-8.2912471, 41.0883143]]}, "properties": {"highway": "primary", "name": "Rua Professor Doutor Marques de Carvalho", "ref": "EN 106", "surface": "asphalt"}}, {"type": "Feature", "geometry": {"type": "LineString", "coordinates": [[-8.2888396, 41.0898652], [-8.288789, 41.0897747], [-8.2887788, 41.0896641], [-8.28881, 41.0895689], [-8.2888749, 41.0895059], [-8.2889516, 41.0894575], [-8.2890851, 41.0893865], [-8.2893807, 41.0892395], [-8.2897951, 41.089065], [-8.2900846, 41.0889823], [-8.290102, 41.0889772], [-8.2903024, 41.0889186]]}, "properties": {"highway": "primary", "lanes": "2", "name": "Rua Professor Doutor Marques de Carvalho", "ref": "EN 106", "surface": "asphalt"}}, {"type": "Feature", "geometry": {"type": "LineString", "coordinates": [[-8.2869704, 41.2148464], [-8.2872336, 41.2149935], [-8.2872748, 41.215037], [-8.2873349, 41.215116], [-8.2874021, 41.2152489]]}, "properties": {"highway": "primary", "lit": "yes", "oneway": "yes", "ref": "EN 106", "source": "bing"}}, {"type": "Feature", "geometry": {"type": "LineString", "coordinates": [[-8.2876951, 41.2153899], [-8.287769, 41.2153669], [-8.287799, 41.2153469], [-8.2878288, 41.215327], [-8.2878677, 41.2152736], [-8.2878822, 41.2152153], [-8.2878698, 41.2151559], [-8.2878439, 41.2151191], [-8.2878323, 41.2151027], [-8.2877738, 41.2150617], [-8.2877006, 41.2150374], [-8.2876607, 41.2150318], [-8.2876209, 41.2150324], [-8.287564, 41.2150418], [-8.2875307, 41.2150523], [-8.2874996, 41.2150679], [-8.2874941, 41.2150709], [-8.2874767, 41.2150804], [-8.287428, 41.2151282], [-8.2874028, 41.2151852], [-8.2874011, 41.2152363], [-8.2874021, 41.2152489], [-8.2874297, 41.2153005], [-8.2874776, 41.2153465], [-8.2875425, 41.2153787], [-8.2876176, 41.2153937], [-8.2876951, 41.2153899]]}, "properties": {"highway": "primary", "junction": "roundabout", "lanes": "2", "ref": "EN 106"}}, {"type": "Feature", "geometry": {"type": "LineString", "coordinates": [[-8.287564, 41.2150418], [-8.2874274, 41.2149956], [-8.2873303, 41.2149598], [-8.2871478, 41.2148605], [-8.286934, 41.2147442]]}, "properties": {"highway": "primary", "lit": "yes", "oneway": "yes", "ref": "EN 106", "source": "bing"}}, {"type": "Feature", "geometry": {"type": "LineString", "coordinates": [[-8.2854158, 41.2141002], [-8.2854265, 41.2141301], [-8.2854527, 41.2141689], [-8.2854905, 41.214202], [-8.2855377, 41.2142273], [-8.2855916, 41.2142433], [-8.2856433, 41.2142492], [-8.2856954, 41.2142465], [-8.2857456, 41.2142354], [-8.2857945, 41.2142148], [-8.2858357, 41.2141862], [-8.285867, 41.2141513], [-8.2858868, 41.2141119], [-8.2858939, 41.2140701], [-8.2858816, 41.2140109], [-8.2858442, 41.2139578], [-8.2857859, 41.2139169], [-8.2857234, 41.2138947], [-8.2856551, 41.2138868], [-8.2855867, 41.2138938], [-8.2855437, 41.2139065], [-8.2855048, 41.2139251], [-8.2854713, 41.2139489], [-8.2854445, 41.2139771], [-8.2854253, 41.2140086], [-8.2854152, 41.2140386], [-8.285412, 41.2140694], [-8.2854158, 41.2141002]]}, "properties": {"highway": "primary", "junction": "roundabout", "lanes": "2", "ref": "EN 106"}}, {"type": "Feature", "geometry": {"type": "LineString", "coordinates": [[-8.2848395, 41.2135391], [-8.2851522, 41.2137732], [-8.2853902, 41.2139138], [-8.2854105, 41.2139463], [-8.2854253, 41.2140086]]}, "properties": {"highway": "primary", "lanes": "1", "lit": "yes", "oneway": "yes", "ref": "EN 106", "source": "bing", "surface": "asphalt"}}, {"type": "Feature", "geometry": {"type": "LineString", "coordinates": [[-8.2855867, 41.2138938], [-8.2855078, 41.2138874], [-8.2854393, 41.2138591], [-8.2852229, 41.2137252], [-8.2850333, 41.2136332], [-8.2848395, 41.2135391]]}, "properties": {"highway": "primary", "lanes": "1", "lit": "yes", "oneway": "yes", "ref": "EN 106", "source": "bing", "surface": "asphalt"}}, {"type": "Feature", "geometry": {"type": "LineString", "coordinates": [[-8.286934, 41.2147442], [-8.2869101, 41.2147299], [-8.286368, 41.2144068], [-8.2862147, 41.2143155], [-8.2860827, 41.2142292], [-8.2859615, 41.2141299], [-8.2858939, 41.2140701]]}, "properties": {"highway": "primary", "lanes": "2", "lit": "yes", "oneway": "yes", "ref": "EN 106", "source": "bing", "surface": "asphalt"}}, {"type": "Feature", "geometry": {"type": "LineString", "coordinates": [[-8.2931067, 41.1082159], [-8.2931962, 41.1082975]]}, "properties": {"highway": "primary", "name": "Avenida Central de Portela", "oneway": "yes", "ref": "EN 106"}}, {"type": "Feature", "geometry": {"type": "LineString", "coordinates": [[-8.2928083, 41.1130576], [-8.2927748, 41.1124756], [-8.292792, 41.1122622], [-8.2929018, 41.1118138], [-8.2931868, 41.1108136], [-8.2932812, 41.1106067], [-8.2937018, 41.1101928], [-8.2938306, 41.1099988], [-8.2938963, 41.1098275], [-8.2939701, 41.1095827], [-8.2939906, 41.1092362], [-8.2939931, 41.1090702], [-8.2939499, 41.1088961], [-8.2938839, 41.1088035]]}, "properties": {"highway": "primary", "lanes": "2", "name": "Avenida Central de Portela", "ref": "EN 106", "surface": "asphalt"}}, {"type": "Feature", "geometry": {"type": "LineString", "coordinates": [[-8.2936691, 41.1184157], [-8.29369, 41.1182501], [-8.2937135, 41.1180646], [-8.2937536, 41.1176435], [-8.2937842, 41.1173217], [-8.293788, 41.1170833]]}, "properties": {"highway": "primary", "lanes": "2", "name": "Alameda D. Rosa Branca Archer", "ref": "EN 106", "surface": "asphalt"}}, {"type": "Feature", "geometry": {"type": "LineString", "coordinates": [[-8.2936125, 41.1192157], [-8.2935988, 41.1191682], [-8.2936059, 41.1189157], [-8.2936691, 41.1184157]]}, "properties": {"highway": "primary", "lanes": "2", "name": "Avenida Central das Termas", "ref": "EN 106", "surface": "asphalt"}}, {"type": "Feature", "geometry": {"type": "LineString", "coordinates": [[-8.2924229, 41.0998126], [-8.2925875, 41.098901], [-8.2926047, 41.0986913], [-8.2925379, 41.0985276], [-8.2924283, 41.0984267], [-8.2916135, 41.0978478], [-8.2915288, 41.0977561], [-8.2915131, 41.097647], [-8.2915538, 41.0975424], [-8.291768, 41.0973151]]}, "properties": {"highway": "primary", "lanes": "2", "name": "Rua da Torre", "ref": "EN 106", "surface": "asphalt"}}, {"type": "Feature", "geometry": {"type": "LineString", "coordinates": [[-8.291768, 41.0973151], [-8.2919799, 41.0971664], [-8.2921823, 41.0971054], [-8.2925533, 41.0970564], [-8.2927144, 41.0969897], [-8.2929353, 41.0967597], [-8.2930995, 41.0966942], [-8.2932966, 41.0967001], [-8.2937263, 41.0967754], [-8.2939465, 41.0967653], [-8.2940991, 41.0966875], [-8.2941639, 41.0965839]]}, "properties": {"highway": "primary", "lanes": "2", "ref": "EN 106", "surface": "asphalt"}}, {"type": "Feature", "geometry": {"type": "LineString", "coordinates": [[-8.2914596, 41.0894357], [-8.2917127, 41.0894761]]}, "properties": {"highway": "primary", "lanes": "2", "name": "Rua da P\u00f3voa", "oneway": "yes", "ref": "EN 106", "surface": "asphalt"}}, {"type": "Feature", "geometry": {"type": "LineString", "coordinates": [[-8.2910562, 41.0892781], [-8.2908391, 41.0893935]]}, "properties": {"highway": "primary", "lanes": "2", "name": "Rua Professor Doutor Marques de Carvalho", "oneway": "yes", "ref": "EN 106", "surface": "asphalt"}}, {"type": "Feature", "geometry": {"type": "LineString", "coordinates": [[-8.3021937, 41.156009], [-8.3021011, 41.1558583], [-8.3020255, 41.1557475], [-8.30186, 41.155514], [-8.3012999, 41.1544446], [-8.3011079, 41.1541036], [-8.3005685, 41.1530643], [-8.3001681, 41.1522926], [-8.2991165, 41.1502661], [-8.2986886, 41.1494415], [-8.2983707, 41.1488653], [-8.2982611, 41.148617], [-8.2978646, 41.1474896], [-8.2977116, 41.1472431], [-8.2975572, 41.1470744], [-8.2975203, 41.147034], [-8.2974692, 41.1469896], [-8.2973828, 41.1469104]]}, "properties": {"highway": "primary", "lanes": "2", "name": "Avenida Central de Oldr\u00f5es", "ref": "EN 106", "surface": "asphalt"}}, {"type": "Feature", "geometry": {"type": "LineString", "coordinates": [[-8.3067329, 41.18155], [-8.3065117, 41.1811604], [-8.3062417, 41.1804437], [-8.3062073, 41.1802628], [-8.3062122, 41.1799952], [-8.306337, 41.1790336]]}, "properties": {"highway": "primary", "name": "Avenida de Pieres", "ref": "EN 106"}}, {"type": "Feature", "geometry": {"type": "LineString", "coordinates": [[-8.3018476, 41.1901794], [-8.3026883, 41.1886116], [-8.3029029, 41.1881952], [-8.3031003, 41.1879691], [-8.3031895, 41.1878852]]}, "properties": {"highway": "primary", "lanes": "2", "name": "Rua da Mouta", "oneway": "no", "ref": "EN 106", "surface": "asphalt"}}, {"type": "Feature", "geometry": {"type": "LineString", "coordinates": [[-8.3116594, 41.288276], [-8.3116192, 41.2882733], [-8.3115626, 41.2882823], [-8.3115127, 41.2883042], [-8.3114746, 41.2883368]]}, "properties": {"highway": "primary", "junction": "roundabout", "ref": "EN 106", "surface": "asphalt"}}, {"type": "Feature", "geometry": {"type": "LineString", "coordinates": [[-8.3114593, 41.2883641], [-8.3114521, 41.2883769], [-8.3114477, 41.2884202]]}, "properties": {"highway": "primary", "junction": "roundabout", "ref": "EN 106", "surface": "asphalt"}}, {"type": "Feature", "geometry": {"type": "LineString", "coordinates": [[-8.3114477, 41.2884202], [-8.3114618, 41.2884623], [-8.3114928, 41.288499], [-8.3115377, 41.2885264], [-8.3115613, 41.2885341], [-8.31158, 41.2885411]]}, "properties": {"highway": "primary", "junction": "roundabout", "ref": "EN 106", "surface": "asphalt"}}, {"type": "Feature", "geometry": {"type": "LineString", "coordinates": [[-8.3116117, 41.2885443], [-8.3116452, 41.2885437], [-8.311697, 41.2885338], [-8.3117427, 41.2885131], [-8.3117783, 41.2884832], [-8.3118006, 41.2884467], [-8.3118078, 41.288407]]}, "properties": {"highway": "primary", "junction": "roundabout", "ref": "EN 106", "surface": "asphalt"}}, {"type": "Feature", "geometry": {"type": "LineString", "coordinates": [[-8.3118078, 41.288407], [-8.3117982, 41.288365]]}, "properties": {"highway": "primary", "junction": "roundabout", "ref": "EN 106", "surface": "asphalt"}}, {"type": "Feature", "geometry": {"type": "LineString", "coordinates": [[-8.3117982, 41.288365], [-8.311771, 41.2883267], [-8.3117291, 41.2882968], [-8.3116859, 41.2882817]]}, "properties": {"highway": "primary", "junction": "roundabout", "ref": "EN 106", "surface": "asphalt"}}, {"type": "Feature", "geometry": {"type": "LineString", "coordinates": [[-8.2908399, 41.1992793], [-8.2908678, 41.1992994], [-8.2909016, 41.1993134], [-8.2909391, 41.1993203], [-8.2909777, 41.1993198], [-8.2910148, 41.1993117]]}, "properties": {"highway": "primary", "junction": "roundabout", "ref": "EN 15;EN 106", "surface": "paved"}}, {"type": "Feature", "geometry": {"type": "LineString", "coordinates": [[-8.2910148, 41.1993117], [-8.2910695, 41.1992766], [-8.2910877, 41.1992313], [-8.2910919, 41.1991825], [-8.291067, 41.1991354]]}, "properties": {"highway": "primary", "junction": "roundabout", "ref": "EN 15;EN 106", "surface": "paved"}}, {"type": "Feature", "geometry": {"type": "LineString", "coordinates": [[-8.3156001, 41.3222174], [-8.3158074, 41.3220528], [-8.3159165, 41.321948], [-8.3160685, 41.3217681], [-8.3161649, 41.3215748], [-8.3162395, 41.3213549], [-8.3162666, 41.3211058], [-8.3162297, 41.3208951], [-8.3161537, 41.3207004], [-8.3158631, 41.3199676], [-8.3157986, 41.3197615], [-8.315745, 41.3195829], [-8.3157115, 41.3194146], [-8.3157293, 41.319227], [-8.315803, 41.3190782], [-8.3158665, 41.3189277], [-8.3159024, 41.318746], [-8.3158806, 41.3185997], [-8.3158049, 41.3183277], [-8.3157389, 41.318205], [-8.3156485, 41.3181311], [-8.3154065, 41.3180087], [-8.3145884, 41.3177478], [-8.3144336, 41.3176069], [-8.3143859, 41.3174449], [-8.314562, 41.3167019], [-8.3146789, 41.3165065], [-8.3149734, 41.316225]]}, "properties": {"highway": "primary", "ref": "EN 106"}}, {"type": "Feature", "geometry": {"type": "LineString", "coordinates": [[-8.3120611, 41.2907441], [-8.3119248, 41.2905915], [-8.3118653, 41.2904826], [-8.3118354, 41.2903903], [-8.3118195, 41.2902612], [-8.3118688, 41.2887033]]}, "properties": {"highway": "primary", "name": "Rua de Ribas", "ref": "EN 106"}}, {"type": "Feature", "geometry": {"type": "LineString", "coordinates": [[-8.3114041, 41.288035], [-8.3112499, 41.2878842], [-8.3103877, 41.2872633]]}, "properties": {"highway": "primary", "name": "Rua de Ribas", "oneway": "no", "ref": "EN 106", "surface": "asphalt"}}, {"type": "Feature", "geometry": {"type": "LineString", "coordinates": [[-8.3116859, 41.2882817], [-8.3116594, 41.288276]]}, "properties": {"highway": "primary", "junction": "roundabout", "ref": "EN 106", "surface": "asphalt"}}, {"type": "Feature", "geometry": {"type": "LineString", "coordinates": [[-8.31158, 41.2885411], [-8.3116117, 41.2885443]]}, "properties": {"highway": "primary", "junction": "roundabout", "ref": "EN 106", "surface": "asphalt"}}, {"type": "Feature", "geometry": {"type": "LineString", "coordinates": [[-8.3103877, 41.2872633], [-8.3103019, 41.2872015], [-8.3101864, 41.2871101], [-8.3100808, 41.2870217], [-8.3100095, 41.2869579], [-8.3099446, 41.2868904], [-8.3098869, 41.2868167], [-8.3098124, 41.2866924], [-8.309759, 41.2865488], [-8.3097287, 41.2864255], [-8.3096696, 41.2861526]]}, "properties": {"highway": "primary", "name": "Rua de Vila Verde", "oneway": "no", "ref": "EN 106", "surface": "asphalt"}}, {"type": "Feature", "geometry": {"type": "MultiPolygon", "coordinates": [[[[-8.3073733, 41.3708616], [-8.3073671, 41.3708225], [-8.3073452, 41.3707867], [-8.3073096, 41.3707578], [-8.3072639, 41.3707385], [-8.3072124, 41.3707308], [-8.3071635, 41.3707347], [-8.3071182, 41.3707491], [-8.3070804, 41.3707728], [-8.3070534, 41.3708037], [-8.3070389, 41.3708432], [-8.307042, 41.3708842], [-8.3070625, 41.3709222], [-8.3070982, 41.3709532], [-8.3071453, 41.370974], [-8.3071988, 41.3709823], [-8.307251, 41.3709778], [-8.3072987, 41.3709613], [-8.3073373, 41.3709346], [-8.307363, 41.3709002], [-8.3073733, 41.3708616]]]]}, "properties": {"highway": "primary", "junction": "roundabout", "ref": "EN 106", "source": "bing", "surface": "asphalt"}}, {"type": "Feature", "geometry": {"type": "MultiPolygon", "coordinates": [[[[-8.3199901, 41.3975164], [-8.3199831, 41.3974739], [-8.3199582, 41.3974353], [-8.3199181, 41.3974048], [-8.3198671, 41.3973856], [-8.3198105, 41.3973797], [-8.3197653, 41.3973851], [-8.3197235, 41.397399], [-8.319688, 41.3974206], [-8.319661, 41.3974483], [-8.3196446, 41.3974804], [-8.3196398, 41.3975145], [-8.3196487, 41.3975525], [-8.3196718, 41.397587], [-8.3197074, 41.3976149], [-8.3197522, 41.3976339], [-8.3197853, 41.3976407], [-8.3198195, 41.3976426], [-8.3198702, 41.3976359], [-8.3199161, 41.3976186], [-8.3199533, 41.3975919], [-8.3199786, 41.3975583], [-8.3199901, 41.3975164]]]]}, "properties": {"highway": "primary", "junction": "roundabout", "ref": "EN 106", "source": "bing"}}, {"type": "Feature", "geometry": {"type": "MultiPolygon", "coordinates": [[[[-8.3141918, 41.3804207], [-8.3141885, 41.3803852], [-8.3141676, 41.3803459], [-8.3141306, 41.380314], [-8.3140815, 41.3802932], [-8.3140283, 41.3802858], [-8.3139747, 41.3802915], [-8.3139263, 41.3803097], [-8.3138945, 41.3803324], [-8.3138716, 41.3803605], [-8.3138586, 41.3803955], [-8.3138595, 41.3804318], [-8.3138741, 41.3804664], [-8.313902, 41.3804969], [-8.3139405, 41.3805201], [-8.3139864, 41.3805338], [-8.3140356, 41.3805369], [-8.3140838, 41.380529], [-8.3141254, 41.3805119], [-8.3141589, 41.3804867], [-8.3141816, 41.3804554], [-8.3141918, 41.3804207]]]]}, "properties": {"highway": "primary", "junction": "roundabout", "ref": "EN 106", "source": "bing", "surface": "asphalt"}}, {"type": "Feature", "geometry": {"type": "MultiPolygon", "coordinates": [[[[-8.3067129, 41.3644622], [-8.3067027, 41.3644217], [-8.3066761, 41.3643856], [-8.3066358, 41.3643576], [-8.3065858, 41.3643405], [-8.3065335, 41.3643359], [-8.3064817, 41.3643433], [-8.3064353, 41.364362], [-8.3063985, 41.3643904], [-8.3063832, 41.3644099], [-8.3063681, 41.3644472], [-8.3063685, 41.3644862], [-8.3063842, 41.3645234], [-8.3064139, 41.3645554], [-8.3064622, 41.3645822], [-8.3065198, 41.3645951], [-8.3065788, 41.3645926], [-8.3066333, 41.3645753], [-8.3066769, 41.3645454], [-8.3067045, 41.3645061], [-8.3067129, 41.3644622]]]]}, "properties": {"highway": "primary", "junction": "roundabout", "ref": "EN 106", "surface": "asphalt"}}, {"type": "Feature", "geometry": {"type": "MultiPolygon", "coordinates": [[[[-8.3096158, 41.2828636], [-8.309611, 41.2828168], [-8.3095901, 41.2827726], [-8.3095546, 41.2827339], [-8.309508, 41.2827041], [-8.3094527, 41.2826842], [-8.3093925, 41.2826756], [-8.3093314, 41.2826788], [-8.3092704, 41.2826948], [-8.3092174, 41.2827226], [-8.3091763, 41.28276], [-8.3091477, 41.2828113], [-8.3091415, 41.2828667], [-8.3091582, 41.2829208], [-8.3091963, 41.2829684], [-8.3092423, 41.2830001], [-8.3092976, 41.2830217], [-8.3093586, 41.2830318], [-8.3094216, 41.2830295], [-8.3094816, 41.2830147], [-8.3095343, 41.2829887], [-8.3095761, 41.282953], [-8.309604, 41.2829103], [-8.3096158, 41.2828636]]]]}, "properties": {"highway": "primary", "junction": "roundabout", "ref": "EN 106"}}, {"type": "Feature", "geometry": {"type": "MultiPolygon", "coordinates": [[[[-8.3014863, 41.1907922], [-8.3014782, 41.1907514], [-8.3014581, 41.1907129], [-8.301427, 41.1906789], [-8.3013866, 41.1906509], [-8.3013388, 41.1906306], [-8.3012862, 41.1906188], [-8.301224, 41.1906167], [-8.3011631, 41.1906265], [-8.3011076, 41.1906476], [-8.301061, 41.1906787], [-8.3010265, 41.1907177], [-8.3010063, 41.190762], [-8.3010015, 41.1908043], [-8.3010098, 41.1908463], [-8.3010308, 41.1908857], [-8.3010634, 41.1909204], [-8.3011057, 41.1909485], [-8.3011555, 41.1909685], [-8.3012101, 41.1909793], [-8.301258, 41.1909807], [-8.3013054, 41.1909751], [-8.3013504, 41.1909625], [-8.3013912, 41.1909436], [-8.3014226, 41.1909219], [-8.3014485, 41.1908965], [-8.3014682, 41.1908681], [-8.3014809, 41.1908375], [-8.3014855, 41.190815], [-8.3014863, 41.1907922]]]]}, "properties": {"highway": "primary", "junction": "roundabout", "name": "Rotunda de Figuras", "ref": "EN 106"}}, {"type": "Feature", "geometry": {"type": "MultiPolygon", "coordinates": [[[[-8.2878822, 41.2152153], [-8.2878698, 41.2151559], [-8.2878439, 41.2151191], [-8.2878323, 41.2151027], [-8.2877738, 41.2150617], [-8.2877006, 41.2150374], [-8.2876607, 41.2150318], [-8.2876209, 41.2150324], [-8.287564, 41.2150418], [-8.2875307, 41.2150523], [-8.2874996, 41.2150679], [-8.2874941, 41.2150709], [-8.2874767, 41.2150804], [-8.287428, 41.2151282], [-8.2874028, 41.2151852], [-8.2874011, 41.2152363], [-8.2874021, 41.2152489], [-8.2874297, 41.2153005], [-8.2874776, 41.2153465], [-8.2875425, 41.2153787], [-8.2876176, 41.2153937], [-8.2876951, 41.2153899], [-8.287769, 41.2153669], [-8.287799, 41.2153469], [-8.2878288, 41.215327], [-8.2878677, 41.2152736], [-8.2878822, 41.2152153]]]]}, "properties": {"highway": "primary", "junction": "roundabout", "lanes": "2", "ref": "EN 106"}}, {"type": "Feature", "geometry": {"type": "MultiPolygon", "coordinates": [[[[-8.2858939, 41.2140701], [-8.2858816, 41.2140109], [-8.2858442, 41.2139578], [-8.2857859, 41.2139169], [-8.2857234, 41.2138947], [-8.2856551, 41.2138868], [-8.2855867, 41.2138938], [-8.2855437, 41.2139065], [-8.2855048, 41.2139251], [-8.2854713, 41.2139489], [-8.2854445, 41.2139771], [-8.2854253, 41.2140086], [-8.2854152, 41.2140386], [-8.285412, 41.2140694], [-8.2854158, 41.2141002], [-8.2854265, 41.2141301], [-8.2854527, 41.2141689], [-8.2854905, 41.214202], [-8.2855377, 41.2142273], [-8.2855916, 41.2142433], [-8.2856433, 41.2142492], [-8.2856954, 41.2142465], [-8.2857456, 41.2142354], [-8.2857945, 41.2142148], [-8.2858357, 41.2141862], [-8.285867, 41.2141513], [-8.2858868, 41.2141119], [-8.2858939, 41.2140701]]]]}, "properties": {"highway": "primary", "junction": "roundabout", "lanes": "2", "ref": "EN 106"}}]}