{"type": "FeatureCollection", "features": [{"type": "Feature", "geometry": {"type": "Point", "coordinates": [-8.5098618, 41.0483166]}, "properties": {"distance": "1", "highway": "milestone", "ref": "EN 109-2"}}, {"type": "Feature", "geometry": {"type": "Point", "coordinates": [-8.4836291, 41.0571195]}, "properties": {"distance": "4", "highway": "milestone", "ref": "EN 109-2"}}, {"type": "Feature", "geometry": {"type": "LineString", "coordinates": [[-8.4873482, 41.0745319], [-8.487245, 41.0742849]]}, "properties": {"highway": "primary", "lanes": "2", "name": "Barragem de Crestuma-Lever", "oneway": "no", "ref": "EN 109-2", "surface": "asphalt"}}, {"type": "Feature", "geometry": {"type": "LineString", "coordinates": [[-8.4818004, 41.0622308], [-8.4816824, 41.0621272]]}, "properties": {"bridge": "yes", "highway": "primary", "lanes": "2", "lanes:backward": "1", "lanes:forward": "1", "layer": "1", "maxweight:signed": "no", "name": "Avenida da Barragem Crestuma-Lever", "oneway": "no", "ref": "EN 109-2", "source": "BING", "surface": "asphalt"}}, {"type": "Feature", "geometry": {"type": "LineString", "coordinates": [[-8.4861027, 41.0701669], [-8.4864039, 41.0701217], [-8.4866301, 41.0700577], [-8.4868254, 41.0699332], [-8.4871012, 41.0696388], [-8.4872952, 41.0694079], [-8.4874581, 41.0693012], [-8.4876209, 41.0692391], [-8.4880683, 41.0691465], [-8.4886369, 41.0690316], [-8.488888, 41.0689808], [-8.4890265, 41.0689613], [-8.4892646, 41.0689277], [-8.4893734, 41.0689124], [-8.4895886, 41.0689099], [-8.4898432, 41.0689069], [-8.4905753, 41.0689181], [-8.4912018, 41.0689301]]}, "properties": {"highway": "primary", "lanes": "3", "lanes:backward": "1", "lanes:forward": "2", "name": "Avenida da Barragem Crestuma-Lever", "oneway": "no", "ref": "EN 109-2", "surface": "asphalt"}}, {"type": "Feature", "geometry": {"type": "LineString", "coordinates": [[-8.4902548, 41.0471629], [-8.4906998, 41.0469012], [-8.4911518, 41.0467046], [-8.4916343, 41.0465148], [-8.4921552, 41.0463835], [-8.4927402, 41.0463229], [-8.4932396, 41.0462947], [-8.4937106, 41.046302], [-8.4942553, 41.0463639], [-8.4949063, 41.0465444], [-8.4953545, 41.0466493], [-8.4957469, 41.0467054]]}, "properties": {"highway": "primary", "lanes": "3", "lanes:backward": "1", "lanes:forward": "2", "name": "Avenida 25 de Abril", "oneway": "no", "ref": "EN 109-2", "surface": "asphalt"}}, {"type": "Feature", "geometry": {"type": "LineString", "coordinates": [[-8.4987872, 41.0463695], [-8.4990895, 41.0463298], [-8.4995078, 41.0462876], [-8.4999084, 41.046276], [-8.5002631, 41.0463001]]}, "properties": {"bridge": "viaduct", "highway": "primary", "lanes": "2", "lanes:backward": "1", "lanes:forward": "1", "layer": "1", "maxweight:signed": "no", "name": "Avenida 25 de Abril", "oneway": "no", "ref": "EN 109-2", "source": "BING", "surface": "asphalt"}}, {"type": "Feature", "geometry": {"type": "LineString", "coordinates": [[-8.5197015, 41.0491815], [-8.5195865, 41.0489046], [-8.519123, 41.048146]]}, "properties": {"highway": "primary", "name": "Avenida Engenheiro Amaro da Costa", "oneway": "yes", "ref": "EN 109-2", "surface": "asphalt"}}, {"type": "Feature", "geometry": {"type": "LineString", "coordinates": [[-8.4864471, 41.0544632], [-8.4866253, 41.0537318]]}, "properties": {"bridge": "yes", "highway": "primary", "lanes": "2", "lanes:backward": "1", "lanes:forward": "1", "layer": "1", "maxweight:signed": "no", "name": "Avenida da Barragem Crestuma-Lever", "oneway": "no", "ref": "EN 109-2", "surface": "asphalt"}}, {"type": "Feature", "geometry": {"type": "LineString", "coordinates": [[-8.4816824, 41.0621272], [-8.4811731, 41.0616797], [-8.4809527, 41.0614616]]}, "properties": {"highway": "primary", "lanes": "2", "lanes:backward": "1", "lanes:forward": "1", "name": "Avenida da Barragem Crestuma-Lever", "oneway": "no", "ref": "EN 109-2", "surface": "asphalt"}}, {"type": "Feature", "geometry": {"type": "LineString", "coordinates": [[-8.5101009, 41.0483206], [-8.5098911, 41.0483172]]}, "properties": {"highway": "primary", "lanes": "2", "lanes:backward": "1", "lanes:forward": "1", "name": "Avenida 25 de Abril", "oneway": "no", "ref": "EN 109-2", "surface": "asphalt"}}, {"type": "Feature", "geometry": {"type": "LineString", "coordinates": [[-8.487245, 41.0742849], [-8.4862401, 41.0719609]]}, "properties": {"bridge": "yes", "highway": "primary", "lanes": "2", "layer": "1", "maxweight:signed": "no", "name": "Barragem de Crestuma-Lever", "oneway": "no", "ref": "EN 109-2", "surface": "asphalt", "wikidata": "Q3375955", "wikipedia": "pt:Barragem de Crestuma-Lever"}}, {"type": "Feature", "geometry": {"type": "LineString", "coordinates": [[-8.519036, 41.048071], [-8.5191453, 41.0482551], [-8.5192645, 41.0484694], [-8.5195141, 41.0489111], [-8.5197015, 41.0491815]]}, "properties": {"highway": "primary", "name": "Avenida Engenheiro Amaro da Costa", "oneway": "yes", "ref": "EN 109-2", "surface": "asphalt"}}, {"type": "Feature", "geometry": {"type": "LineString", "coordinates": [[-8.5173748, 41.0466878], [-8.5169932, 41.0464586], [-8.5167054, 41.0463329], [-8.5163728, 41.0462413], [-8.5159187, 41.0461642], [-8.515661, 41.0461562], [-8.5154627, 41.0461617], [-8.5150494, 41.0462322], [-8.5145444, 41.0464058], [-8.5120483, 41.0478505], [-8.5116355, 41.048048], [-8.5112235, 41.0481912], [-8.5108225, 41.0482703], [-8.5106262, 41.0482984], [-8.5106153, 41.0482992], [-8.5104749, 41.0483094]]}, "properties": {"highway": "primary", "lanes": "2", "lanes:backward": "1", "lanes:forward": "1", "name": "Avenida 25 de Abril", "oneway": "no", "ref": "EN 109-2", "surface": "asphalt"}}, {"type": "Feature", "geometry": {"type": "LineString", "coordinates": [[-8.483428, 41.0647492], [-8.4833054, 41.0641812], [-8.4831939, 41.0638512], [-8.4829964, 41.0634305], [-8.4827647, 41.0631393], [-8.4824471, 41.0628028], [-8.4820094, 41.0624145], [-8.4818004, 41.0622308]]}, "properties": {"highway": "primary", "lanes": "2", "lanes:backward": "1", "lanes:forward": "1", "name": "Avenida da Barragem Crestuma-Lever", "oneway": "no", "ref": "EN 109-2", "surface": "asphalt"}}, {"type": "Feature", "geometry": {"type": "LineString", "coordinates": [[-8.4834943, 41.0651196], [-8.4834736, 41.0650039], [-8.483428, 41.0647492]]}, "properties": {"highway": "primary", "lanes": "2", "lanes:backward": "1", "lanes:forward": "1", "name": "Avenida da Barragem Crestuma-Lever", "oneway": "no", "ref": "EN 109-2", "surface": "asphalt"}}, {"type": "Feature", "geometry": {"type": "LineString", "coordinates": [[-8.4808401, 41.0613354], [-8.4807558, 41.0612377], [-8.480713, 41.0611674], [-8.4806152, 41.0609807], [-8.4805294, 41.060793], [-8.4804607, 41.0605277], [-8.4804092, 41.0602041], [-8.480435, 41.0599905], [-8.4804865, 41.0597575], [-8.4805637, 41.0595569], [-8.4806925, 41.0592527], [-8.4808727, 41.0590198], [-8.4810062, 41.0588805], [-8.4810407, 41.0588445], [-8.4811473, 41.0587393], [-8.481182, 41.058711], [-8.4812658, 41.0586426], [-8.4814616, 41.0584887], [-8.4815884, 41.0583978], [-8.4817138, 41.0583078], [-8.4822374, 41.0579778], [-8.4834041, 41.0572582], [-8.4836096, 41.0571315], [-8.4836291, 41.0571195], [-8.484358, 41.0566699]]}, "properties": {"highway": "primary", "lanes": "2", "lanes:backward": "1", "lanes:forward": "1", "name": "Avenida da Barragem Crestuma-Lever", "oneway": "no", "ref": "EN 109-2", "surface": "asphalt"}}, {"type": "Feature", "geometry": {"type": "LineString", "coordinates": [[-8.4809527, 41.0614616], [-8.4808401, 41.0613354]]}, "properties": {"highway": "primary", "lanes": "2", "lanes:backward": "1", "lanes:forward": "1", "name": "Avenida da Barragem Crestuma-Lever", "oneway": "no", "ref": "EN 109-2", "surface": "asphalt"}}, {"type": "Feature", "geometry": {"type": "LineString", "coordinates": [[-8.4867572, 41.0532169], [-8.4871126, 41.0518291], [-8.4871542, 41.0516722]]}, "properties": {"highway": "primary", "lanes": "3", "lanes:backward": "1", "lanes:forward": "2", "name": "Avenida da Barragem Crestuma-Lever", "oneway": "no", "ref": "EN 109-2", "surface": "asphalt"}}, {"type": "Feature", "geometry": {"type": "LineString", "coordinates": [[-8.5187401, 41.047581], [-8.5185873, 41.0474177], [-8.5182883, 41.0472118], [-8.5176228, 41.046813], [-8.5173748, 41.0466878]]}, "properties": {"highway": "primary", "name": "Avenida 25 de Abril", "oneway": "yes", "ref": "EN 109-2", "surface": "asphalt"}}, {"type": "Feature", "geometry": {"type": "LineString", "coordinates": [[-8.5173748, 41.0466878], [-8.5175856, 41.0468438], [-8.518505, 41.0474273], [-8.5186329, 41.0475389]]}, "properties": {"highway": "primary", "name": "Avenida 25 de Abril", "oneway": "yes", "ref": "EN 109-2", "surface": "asphalt"}}, {"type": "Feature", "geometry": {"type": "LineString", "coordinates": [[-8.5098911, 41.0483172], [-8.5098618, 41.0483166], [-8.509844, 41.0483154], [-8.5096979, 41.0483054], [-8.5092942, 41.0482494], [-8.5087811, 41.0481392], [-8.5081865, 41.048002], [-8.5074432, 41.0478503], [-8.50677, 41.0476852], [-8.5057333, 41.0474595], [-8.5043653, 41.0471552], [-8.5037455, 41.0470171], [-8.5021734, 41.0466696], [-8.5006856, 41.0463497], [-8.5002631, 41.0463001]]}, "properties": {"highway": "primary", "lanes": "2", "lanes:backward": "1", "lanes:forward": "1", "name": "Avenida 25 de Abril", "oneway": "no", "ref": "EN 109-2", "surface": "asphalt"}}, {"type": "Feature", "geometry": {"type": "LineString", "coordinates": [[-8.5102094, 41.0483183], [-8.5101009, 41.0483206]]}, "properties": {"highway": "primary", "lanes": "2", "lanes:backward": "1", "lanes:forward": "1", "name": "Avenida 25 de Abril", "oneway": "no", "ref": "EN 109-2", "surface": "asphalt"}}, {"type": "Feature", "geometry": {"type": "LineString", "coordinates": [[-8.5104749, 41.0483094], [-8.5103801, 41.0483126], [-8.5102094, 41.0483183]]}, "properties": {"highway": "primary", "lanes": "2", "lanes:backward": "1", "lanes:forward": "1", "name": "Avenida 25 de Abril", "oneway": "no", "ref": "EN 109-2", "surface": "asphalt"}}, {"type": "Feature", "geometry": {"type": "LineString", "coordinates": [[-8.491734, 41.0674816], [-8.4914047, 41.0673933], [-8.4910903, 41.067378], [-8.4889864, 41.0674111]]}, "properties": {"highway": "primary", "lanes": "3", "lanes:backward": "1", "lanes:forward": "2", "name": "Avenida da Barragem Crestuma-Lever", "oneway": "no", "ref": "EN 109-2", "surface": "asphalt"}}, {"type": "Feature", "geometry": {"type": "LineString", "coordinates": [[-8.4921158, 41.0684553], [-8.4921709, 41.0683361], [-8.4921975, 41.0681546]]}, "properties": {"highway": "primary", "lanes": "2", "lanes:backward": "1", "lanes:forward": "1", "name": "Avenida da Barragem Crestuma-Lever", "oneway": "no", "ref": "EN 109-2", "surface": "asphalt"}}, {"type": "Feature", "geometry": {"type": "LineString", "coordinates": [[-8.4918474, 41.0687447], [-8.4920172, 41.0685946], [-8.4921158, 41.0684553]]}, "properties": {"highway": "primary", "lanes": "2", "lanes:backward": "1", "lanes:forward": "1", "name": "Avenida da Barragem Crestuma-Lever", "oneway": "no", "ref": "EN 109-2", "surface": "asphalt"}}, {"type": "Feature", "geometry": {"type": "LineString", "coordinates": [[-8.4880031, 41.0673567], [-8.4877153, 41.0672467], [-8.4875, 41.0671321]]}, "properties": {"highway": "primary", "lanes": "2", "lanes:backward": "1", "lanes:forward": "1", "name": "Avenida da Barragem Crestuma-Lever", "oneway": "no", "ref": "EN 109-2", "surface": "asphalt"}}, {"type": "Feature", "geometry": {"type": "LineString", "coordinates": [[-8.488152, 41.0673811], [-8.4880031, 41.0673567]]}, "properties": {"highway": "primary", "lanes": "2", "lanes:backward": "1", "lanes:forward": "1", "name": "Avenida da Barragem Crestuma-Lever", "oneway": "no", "ref": "EN 109-2", "surface": "asphalt"}}, {"type": "Feature", "geometry": {"type": "LineString", "coordinates": [[-8.4875, 41.0671321], [-8.4873635, 41.0670581]]}, "properties": {"highway": "primary", "lanes": "2", "lanes:backward": "1", "lanes:forward": "1", "name": "Avenida da Barragem Crestuma-Lever", "oneway": "no", "ref": "EN 109-2", "surface": "asphalt"}}, {"type": "Feature", "geometry": {"type": "LineString", "coordinates": [[-8.4873635, 41.0670581], [-8.487076, 41.0667759], [-8.4866468, 41.0662812], [-8.4863634, 41.0660754], [-8.4860263, 41.0659155], [-8.4856314, 41.0657991], [-8.4854512, 41.0657861], [-8.4846873, 41.0657408], [-8.4842729, 41.0656937], [-8.4840563, 41.0656286], [-8.4838633, 41.0655337], [-8.4837031, 41.0653768], [-8.4836089, 41.0652608], [-8.4834943, 41.0651196]]}, "properties": {"highway": "primary", "lanes": "2", "lanes:backward": "1", "lanes:forward": "1", "name": "Avenida da Barragem Crestuma-Lever", "oneway": "no", "ref": "EN 109-2", "surface": "asphalt"}}, {"type": "Feature", "geometry": {"type": "LineString", "coordinates": [[-8.519123, 41.048146], [-8.5190886, 41.0480821], [-8.5189838, 41.047902], [-8.5189146, 41.0478004], [-8.5187401, 41.047581]]}, "properties": {"highway": "primary", "name": "Avenida Engenheiro Amaro da Costa", "oneway": "yes", "ref": "EN 109-2", "surface": "asphalt"}}, {"type": "Feature", "geometry": {"type": "LineString", "coordinates": [[-8.5186329, 41.0475389], [-8.5187161, 41.0476166], [-8.5188516, 41.0477816], [-8.518942, 41.0479194], [-8.5189757, 41.0479716], [-8.519036, 41.048071]]}, "properties": {"highway": "primary", "name": "Avenida Engenheiro Amaro da Costa", "oneway": "yes", "ref": "EN 109-2", "surface": "asphalt"}}, {"type": "Feature", "geometry": {"type": "LineString", "coordinates": [[-8.4845453, 41.0565544], [-8.4847299, 41.0564406]]}, "properties": {"highway": "primary", "lanes": "2", "lanes:backward": "1", "lanes:forward": "1", "name": "Avenida da Barragem Crestuma-Lever", "oneway": "no", "ref": "EN 109-2", "surface": "asphalt"}}, {"type": "Feature", "geometry": {"type": "LineString", "coordinates": [[-8.4847299, 41.0564406], [-8.4848295, 41.0563792], [-8.4852072, 41.0561203], [-8.4853269, 41.0560406], [-8.485499, 41.0559261], [-8.4857221, 41.0557578], [-8.4859453, 41.0555248], [-8.4860826, 41.0553436], [-8.48622, 41.0550977], [-8.4863058, 41.0549035], [-8.4864471, 41.0544632]]}, "properties": {"highway": "primary", "lanes": "2", "lanes:backward": "1", "lanes:forward": "1", "name": "Avenida da Barragem Crestuma-Lever", "oneway": "no", "ref": "EN 109-2", "surface": "asphalt"}}, {"type": "Feature", "geometry": {"type": "LineString", "coordinates": [[-8.484358, 41.0566699], [-8.4845453, 41.0565544]]}, "properties": {"highway": "primary", "lanes": "2", "lanes:backward": "1", "lanes:forward": "1", "name": "Avenida da Barragem Crestuma-Lever", "oneway": "no", "ref": "EN 109-2", "surface": "asphalt"}}, {"type": "Feature", "geometry": {"type": "LineString", "coordinates": [[-8.4858887, 41.0711526], [-8.4856995, 41.0707162]]}, "properties": {"highway": "primary", "lanes": "2", "maxweight:signed": "no", "name": "Barragem de Crestuma-Lever", "oneway": "no", "ref": "EN 109-2", "surface": "asphalt", "wikidata": "Q3375955", "wikipedia": "pt:Barragem de Crestuma-Lever"}}, {"type": "Feature", "geometry": {"type": "LineString", "coordinates": [[-8.4859318, 41.0712528], [-8.4858887, 41.0711526]]}, "properties": {"bridge": "yes", "highway": "primary", "lanes": "2", "layer": "1", "maxweight:signed": "no", "name": "Barragem de Crestuma-Lever", "oneway": "no", "ref": "EN 109-2", "surface": "asphalt", "wikidata": "Q3375955", "wikipedia": "pt:Barragem de Crestuma-Lever"}}, {"type": "Feature", "geometry": {"type": "LineString", "coordinates": [[-8.4862401, 41.0719609], [-8.4859318, 41.0712528]]}, "properties": {"highway": "primary", "lanes": "2", "maxweight:signed": "no", "name": "Barragem de Crestuma-Lever", "oneway": "no", "ref": "EN 109-2", "surface": "asphalt", "wikidata": "Q3375955", "wikipedia": "pt:Barragem de Crestuma-Lever"}}, {"type": "Feature", "geometry": {"type": "LineString", "coordinates": [[-8.4856995, 41.0707162], [-8.4856831, 41.0706762], [-8.4856614, 41.0706211], [-8.4856511, 41.0705488], [-8.4856603, 41.0704866], [-8.4856787, 41.0704216], [-8.4856999, 41.0703695], [-8.4857344, 41.0703094], [-8.4857951, 41.0702657], [-8.485865, 41.0702305], [-8.4859349, 41.0702003], [-8.4861027, 41.0701669]]}, "properties": {"highway": "primary", "lanes": "2", "lanes:backward": "1", "lanes:forward": "1", "name": "Avenida da Barragem Crestuma-Lever", "oneway": "no", "ref": "EN 109-2", "surface": "asphalt"}}, {"type": "Feature", "geometry": {"type": "LineString", "coordinates": [[-8.4912018, 41.0689301], [-8.4914765, 41.0688923], [-8.4916585, 41.0688361], [-8.4918474, 41.0687447]]}, "properties": {"highway": "primary", "lanes": "2", "lanes:backward": "1", "lanes:forward": "1", "name": "Avenida da Barragem Crestuma-Lever", "oneway": "no", "ref": "EN 109-2", "surface": "asphalt"}}, {"type": "Feature", "geometry": {"type": "LineString", "coordinates": [[-8.4921975, 41.0681546], [-8.4921792, 41.0679966], [-8.4921202, 41.0678569], [-8.49194, 41.0676369], [-8.491734, 41.0674816]]}, "properties": {"highway": "primary", "lanes": "2", "lanes:backward": "1", "lanes:forward": "1", "name": "Avenida da Barragem Crestuma-Lever", "oneway": "no", "ref": "EN 109-2", "surface": "asphalt"}}, {"type": "Feature", "geometry": {"type": "LineString", "coordinates": [[-8.4889864, 41.0674111], [-8.4885525, 41.0674179], [-8.488152, 41.0673811]]}, "properties": {"highway": "primary", "lanes": "2", "lanes:backward": "1", "lanes:forward": "1", "name": "Avenida da Barragem Crestuma-Lever", "oneway": "no", "ref": "EN 109-2", "surface": "asphalt"}}, {"type": "Feature", "geometry": {"type": "LineString", "coordinates": [[-8.4866253, 41.0537318], [-8.4867572, 41.0532169]]}, "properties": {"highway": "primary", "lanes": "2", "lanes:backward": "1", "lanes:forward": "1", "name": "Avenida da Barragem Crestuma-Lever", "oneway": "no", "ref": "EN 109-2", "surface": "asphalt"}}, {"type": "Feature", "geometry": {"type": "LineString", "coordinates": [[-8.4871542, 41.0516722], [-8.4871727, 41.0516025], [-8.4872843, 41.0512854], [-8.4873958, 41.0509941], [-8.4875503, 41.0506575], [-8.4877306, 41.0503403], [-8.4879881, 41.0499649], [-8.4880693, 41.0498495]]}, "properties": {"highway": "primary", "lanes": "3", "lanes:backward": "1", "lanes:forward": "2", "name": "Avenida 25 de Abril", "oneway": "no", "ref": "EN 109-2", "surface": "asphalt"}}, {"type": "Feature", "geometry": {"type": "LineString", "coordinates": [[-8.4880693, 41.0498495], [-8.4885803, 41.0491234], [-8.4892498, 41.0482108], [-8.4895319, 41.0478669], [-8.4895629, 41.0478205], [-8.4896709, 41.0477012], [-8.4896948, 41.0476694], [-8.4897543, 41.0476005], [-8.4897813, 41.0475748], [-8.4898709, 41.0474758], [-8.4899572, 41.0474028], [-8.4902548, 41.0471629]]}, "properties": {"highway": "primary", "lanes": "2", "lanes:backward": "1", "lanes:forward": "1", "name": "Avenida 25 de Abril", "oneway": "no", "ref": "EN 109-2", "surface": "asphalt"}}, {"type": "Feature", "geometry": {"type": "LineString", "coordinates": [[-8.4957469, 41.0467054], [-8.4961294, 41.0467479], [-8.4965366, 41.0467474], [-8.4968807, 41.0467248], [-8.497205, 41.0466981], [-8.4976494, 41.0466283], [-8.4979533, 41.0465593], [-8.4986267, 41.046406], [-8.4987872, 41.0463695]]}, "properties": {"highway": "primary", "lanes": "2", "lanes:backward": "1", "lanes:forward": "1", "name": "Avenida 25 de Abril", "oneway": "no", "ref": "EN 109-2", "surface": "asphalt"}}]}