{"type": "FeatureCollection", "features": [{"type": "Feature", "geometry": {"type": "LineString", "coordinates": [[-8.2094547, 37.664748], [-8.2103876, 37.6648705], [-8.2113475, 37.6649526]]}, "properties": {"highway": "trunk", "lanes": "1", "oneway": "yes", "ref": "EN 123"}}, {"type": "Feature", "geometry": {"type": "LineString", "coordinates": [[-8.6452726, 37.5986079], [-8.6451453, 37.5986186], [-8.6450875, 37.5986267], [-8.6449752, 37.5986406], [-8.64476, 37.5986695], [-8.6445472, 37.5987007], [-8.644489, 37.5987093]]}, "properties": {"highway": "primary", "lanes": "2", "maxspeed": "50", "name": "Estrada da Circunvala\u00e7\u00e3o", "postal_code": "7630-130;7630-131;7630-132", "postal_code:description": "7630-130:Impares de 1 a 9;7630-131:Impares de 9A a 51;7630-132:Pares de 4 a 54", "ref": "EN 123"}}, {"type": "Feature", "geometry": {"type": "LineString", "coordinates": [[-8.1502406, 37.6723164], [-8.1506493, 37.6721461], [-8.1513061, 37.671877], [-8.1522109, 37.6715062], [-8.154176, 37.6706849]]}, "properties": {"highway": "trunk", "lanes": "1", "oneway": "yes", "ref": "EN 123", "surface": "asphalt"}}, {"type": "Feature", "geometry": {"type": "LineString", "coordinates": [[-8.2094547, 37.664748], [-8.2027921, 37.664211], [-8.1930655, 37.663404], [-8.1845612, 37.6627042], [-8.1812507, 37.6624238]]}, "properties": {"highway": "trunk", "lanes": "2", "ref": "EN 123", "surface": "asphalt"}}, {"type": "Feature", "geometry": {"type": "LineString", "coordinates": [[-8.1764125, 37.6621642], [-8.1758656, 37.6621996], [-8.1749584, 37.6623284], [-8.1739638, 37.6625383]]}, "properties": {"highway": "trunk", "lanes": "2", "oneway": "yes", "ref": "EN 123", "surface": "asphalt", "turn:lanes": "none|merge_to_left"}}, {"type": "Feature", "geometry": {"type": "LineString", "coordinates": [[-8.1726565, 37.6629876], [-8.1729975, 37.6629018], [-8.1739627, 37.6626331], [-8.174414, 37.6625267]]}, "properties": {"highway": "trunk", "lanes": "1", "oneway": "yes", "ref": "EN 123", "surface": "asphalt"}}, {"type": "Feature", "geometry": {"type": "LineString", "coordinates": [[-8.1726565, 37.6629876], [-8.1715687, 37.6634164], [-8.1706336, 37.6638095], [-8.1643223, 37.6664422], [-8.1608567, 37.6678812], [-8.1582446, 37.6689552]]}, "properties": {"highway": "trunk", "lanes": "2", "ref": "EN 123", "surface": "asphalt"}}, {"type": "Feature", "geometry": {"type": "LineString", "coordinates": [[-8.1812507, 37.6624238], [-8.180311, 37.6623035], [-8.1794206, 37.6622317]]}, "properties": {"highway": "trunk", "lanes": "1", "oneway": "yes", "ref": "EN 123", "surface": "asphalt"}}, {"type": "Feature", "geometry": {"type": "LineString", "coordinates": [[-8.2168062, 37.6653163], [-8.216075, 37.6652292], [-8.2149422, 37.6651475]]}, "properties": {"highway": "trunk", "lanes": "2", "oneway": "yes", "ref": "EN 123"}}, {"type": "Feature", "geometry": {"type": "LineString", "coordinates": [[-8.1567698, 37.6695646], [-8.1558977, 37.669918], [-8.1552979, 37.6701597], [-8.1537211, 37.670818], [-8.1527997, 37.6711953], [-8.1514915, 37.6717425]]}, "properties": {"highway": "trunk", "lanes": "1", "oneway": "yes", "ref": "EN 123", "surface": "asphalt"}}, {"type": "Feature", "geometry": {"type": "LineString", "coordinates": [[-8.6183104, 37.5978032], [-8.6182003, 37.597863], [-8.6181099, 37.5978942], [-8.6180115, 37.5979202], [-8.6179208, 37.5979269], [-8.6178294, 37.5979206], [-8.6177764, 37.5979102], [-8.6176912, 37.5978891], [-8.6175825, 37.5978487], [-8.616795, 37.5974934], [-8.6163699, 37.5973086], [-8.6162397, 37.5972671], [-8.6161224, 37.5972488], [-8.6160156, 37.5972386], [-8.6159232, 37.597238], [-8.6158328, 37.5972527], [-8.6157114, 37.597288], [-8.6155979, 37.5973402], [-8.6155337, 37.5973853], [-8.6154244, 37.5974754], [-8.615314, 37.5975781], [-8.6145881, 37.5983068], [-8.6141229, 37.59877], [-8.6138032, 37.5990981], [-8.6137345, 37.5991677], [-8.6135272, 37.5993794], [-8.6134046, 37.5995067], [-8.6132897, 37.599616], [-8.6131654, 37.5997185], [-8.61304, 37.5997996], [-8.6129703, 37.5998376], [-8.6129076, 37.5998655], [-8.612831, 37.5998976], [-8.6127503, 37.5999244], [-8.6126106, 37.5999704], [-8.6124653, 37.600006], [-8.6121714, 37.600069], [-8.611778, 37.6001445], [-8.6116617, 37.6001735], [-8.611572, 37.6002068], [-8.6114752, 37.6002545], [-8.6113973, 37.6003198], [-8.6113023, 37.6004208], [-8.6112545, 37.6005075], [-8.6112251, 37.6005927], [-8.6112093, 37.6006797], [-8.6112001, 37.6007831], [-8.6112261, 37.6011275], [-8.6113013, 37.6018697], [-8.6113073, 37.6020039], [-8.6112955, 37.6021229], [-8.6112767, 37.6022337], [-8.6112435, 37.602332], [-8.6112101, 37.6024054], [-8.611125, 37.6026051], [-8.6109901, 37.6028884], [-8.6107375, 37.6034767], [-8.6105836, 37.6038148], [-8.6105279, 37.6039468]]}, "properties": {"highway": "primary", "lanes": "2", "maxspeed": "90", "ref": "EN 123"}}, {"type": "Feature", "geometry": {"type": "LineString", "coordinates": [[-8.6355358, 37.5969903], [-8.6355013, 37.5970038], [-8.6354712, 37.5970277], [-8.635453, 37.5970582], [-8.635449, 37.5970919], [-8.6354596, 37.5971246], [-8.6354835, 37.5971526], [-8.6355163, 37.5971718], [-8.6355552, 37.5971816], [-8.635596, 37.5971809], [-8.6356342, 37.5971697], [-8.6356658, 37.5971494], [-8.6356874, 37.597122], [-8.6356967, 37.5970906], [-8.6356926, 37.5970585], [-8.6356757, 37.5970291], [-8.6356476, 37.5970057], [-8.6356116, 37.5969908], [-8.6355888, 37.5969878], [-8.6355737, 37.5969858], [-8.6355358, 37.5969903]]}, "properties": {"highway": "primary", "junction": "roundabout", "ref": "EN 123", "surface": "asphalt"}}, {"type": "Feature", "geometry": {"type": "LineString", "coordinates": [[-8.6400793, 37.5973484], [-8.6400022, 37.5973438], [-8.6399139, 37.5973456], [-8.6397513, 37.5973654], [-8.6395031, 37.5974004], [-8.6388368, 37.5974633], [-8.6387255, 37.5974717], [-8.6385891, 37.5974779], [-8.6383282, 37.5974789]]}, "properties": {"highway": "primary", "lanes": "2", "maxspeed": "50", "name": "Rua C\u00e2ndido dos Reis", "postal_code": "7630-150", "ref": "EN 123"}}, {"type": "Feature", "geometry": {"type": "LineString", "coordinates": [[-8.6361471, 37.5974702], [-8.6360612, 37.597445], [-8.6359232, 37.5973799], [-8.6358153, 37.597312], [-8.6357552, 37.5972487], [-8.6357098, 37.5971548], [-8.6356967, 37.5970906]]}, "properties": {"highway": "primary", "lanes": "1", "maxspeed": "50", "name": "Rua Serpa Pinto", "oneway": "yes", "postal_code": "7630-174", "ref": "EN 123"}}, {"type": "Feature", "geometry": {"type": "LineString", "coordinates": [[-8.6452726, 37.5986079], [-8.6454815, 37.5986133]]}, "properties": {"highway": "primary", "oneway": "yes", "ref": "EN 123"}}, {"type": "Feature", "geometry": {"type": "LineString", "coordinates": [[-8.6454559, 37.598536], [-8.6452726, 37.5986079]]}, "properties": {"highway": "primary", "oneway": "yes", "ref": "EN 123", "surface": "asphalt"}}, {"type": "Feature", "geometry": {"type": "LineString", "coordinates": [[-8.2133443, 37.6651154], [-8.2133931, 37.6651194], [-8.2134375, 37.6651229]]}, "properties": {"highway": "trunk", "lanes": "1", "oneway": "yes", "ref": "EN 123"}}, {"type": "Feature", "geometry": {"type": "LineString", "coordinates": [[-8.2134492, 37.6650306], [-8.2134058, 37.6650271], [-8.2133587, 37.6650234]]}, "properties": {"highway": "trunk", "lanes": "1", "oneway": "yes", "ref": "EN 123"}}, {"type": "Feature", "geometry": {"type": "LineString", "coordinates": [[-8.2133587, 37.6650234], [-8.2132897, 37.665018], [-8.2127342, 37.664972]]}, "properties": {"bicycle": "no", "foot": "no", "highway": "trunk", "horse": "no", "lanes": "1", "oneway": "yes", "ref": "EN 123"}}, {"type": "Feature", "geometry": {"type": "LineString", "coordinates": [[-8.2134375, 37.6651229], [-8.2135524, 37.665132], [-8.2143575, 37.6651967]]}, "properties": {"bicycle": "no", "foot": "no", "highway": "trunk", "horse": "no", "lanes": "1", "oneway": "yes", "ref": "EN 123"}}, {"type": "Feature", "geometry": {"type": "LineString", "coordinates": [[-8.6105279, 37.6039468], [-8.6104462, 37.6041268]]}, "properties": {"highway": "primary", "lanes": "2", "maxspeed": "50", "oneway": "no", "ref": "EN 123"}}, {"type": "Feature", "geometry": {"type": "LineString", "coordinates": [[-8.6429651, 37.5989668], [-8.6428756, 37.5989365], [-8.6427814, 37.5988915], [-8.6422209, 37.598574], [-8.642162, 37.5985354], [-8.6421202, 37.5984958], [-8.6420687, 37.5984251], [-8.6418051, 37.5979815], [-8.6417633, 37.5979367], [-8.6417122, 37.5978994], [-8.641646, 37.5978639], [-8.641632, 37.5978564], [-8.6411292, 37.5976443], [-8.6408418, 37.5975322], [-8.6406769, 37.5974777], [-8.6404926, 37.5974282], [-8.6402617, 37.5973759], [-8.6401667, 37.5973583], [-8.6400793, 37.5973484]]}, "properties": {"highway": "primary", "lanes": "2", "maxspeed": "50", "name": "Estrada da Circunvala\u00e7\u00e3o", "postal_code": "7630-130;7630-131;7630-132", "postal_code:description": "7630-130:Impares de 1 a 9;7630-131:Impares de 9A a 51;7630-132:Pares de 4 a 54", "ref": "EN 123"}}, {"type": "Feature", "geometry": {"type": "LineString", "coordinates": [[-8.644489, 37.5987093], [-8.6441378, 37.5987615]]}, "properties": {"highway": "primary", "lanes": "2", "maxspeed": "50", "name": "Estrada da Circunvala\u00e7\u00e3o", "postal_code": "7630-130;7630-131;7630-132", "postal_code:description": "7630-130:Impares de 1 a 9;7630-131:Impares de 9A a 51;7630-132:Pares de 4 a 54", "ref": "EN 123"}}, {"type": "Feature", "geometry": {"type": "LineString", "coordinates": [[-8.6441378, 37.5987615], [-8.6440836, 37.5987697], [-8.6439189, 37.5988083], [-8.6437852, 37.5988396], [-8.6436773, 37.5988648], [-8.6433041, 37.5989634], [-8.6431752, 37.5989825], [-8.6430437, 37.5989789], [-8.6429651, 37.5989668]]}, "properties": {"highway": "primary", "lanes": "2", "maxspeed": "50", "name": "Estrada da Circunvala\u00e7\u00e3o", "postal_code": "7630-130;7630-131;7630-132", "postal_code:description": "7630-130:Impares de 1 a 9;7630-131:Impares de 9A a 51;7630-132:Pares de 4 a 54", "ref": "EN 123"}}, {"type": "Feature", "geometry": {"type": "LineString", "coordinates": [[-8.1794206, 37.6622317], [-8.1788704, 37.6621874]]}, "properties": {"highway": "trunk", "lanes": "1", "oneway": "yes", "ref": "EN 123", "surface": "asphalt", "turn:lanes": "left;through;right"}}, {"type": "Feature", "geometry": {"type": "LineString", "coordinates": [[-8.1788704, 37.6621874], [-8.1784352, 37.6621626], [-8.1778871, 37.6621314], [-8.177395, 37.6621304]]}, "properties": {"highway": "trunk", "lanes": "3", "oneway": "yes", "ref": "EN 123", "surface": "asphalt", "turn:lanes": "left|through|slight_right"}}, {"type": "Feature", "geometry": {"type": "LineString", "coordinates": [[-8.1769352, 37.6622252], [-8.1773561, 37.6622246], [-8.1778871, 37.6622238], [-8.1788709, 37.6622805], [-8.179997, 37.662364]]}, "properties": {"highway": "trunk", "lanes": "2", "oneway": "yes", "ref": "EN 123", "surface": "asphalt", "turn:lanes": "none|merge_to_left"}}, {"type": "Feature", "geometry": {"type": "LineString", "coordinates": [[-8.1768509, 37.6622252], [-8.1769352, 37.6622252]]}, "properties": {"highway": "trunk", "lanes": "1", "oneway": "yes", "ref": "EN 123", "surface": "asphalt"}}, {"type": "Feature", "geometry": {"type": "LineString", "coordinates": [[-8.1769317, 37.6621309], [-8.1768462, 37.6621341]]}, "properties": {"highway": "trunk", "lanes": "1", "oneway": "yes", "ref": "EN 123", "surface": "asphalt"}}, {"type": "Feature", "geometry": {"type": "LineString", "coordinates": [[-8.177395, 37.6621304], [-8.1769317, 37.6621309]]}, "properties": {"highway": "trunk", "lanes": "1", "oneway": "yes", "ref": "EN 123", "surface": "asphalt"}}, {"type": "Feature", "geometry": {"type": "LineString", "coordinates": [[-8.1768462, 37.6621341], [-8.1764125, 37.6621642]]}, "properties": {"highway": "trunk", "lanes": "1", "oneway": "yes", "ref": "EN 123", "surface": "asphalt"}}, {"type": "Feature", "geometry": {"type": "LineString", "coordinates": [[-8.1764249, 37.6622489], [-8.1768509, 37.6622252]]}, "properties": {"highway": "trunk", "lanes": "1", "oneway": "yes", "ref": "EN 123", "surface": "asphalt"}}, {"type": "Feature", "geometry": {"type": "LineString", "coordinates": [[-8.1753828, 37.6623559], [-8.1758878, 37.662291], [-8.1764249, 37.6622489]]}, "properties": {"highway": "trunk", "lanes": "3", "oneway": "yes", "ref": "EN 123", "surface": "asphalt", "turn:lanes": "left|through|slight_right"}}, {"type": "Feature", "geometry": {"type": "LineString", "coordinates": [[-8.174414, 37.6625267], [-8.1749809, 37.6624169], [-8.1753828, 37.6623559]]}, "properties": {"highway": "trunk", "lanes": "1", "oneway": "yes", "ref": "EN 123", "surface": "asphalt", "turn:lanes": "left;through;right"}}, {"type": "Feature", "geometry": {"type": "LineString", "coordinates": [[-8.179997, 37.662364], [-8.1803134, 37.6623875], [-8.1812507, 37.6624238]]}, "properties": {"highway": "trunk", "lanes": "1", "oneway": "yes", "ref": "EN 123", "surface": "asphalt"}}, {"type": "Feature", "geometry": {"type": "LineString", "coordinates": [[-8.1739638, 37.6625383], [-8.1729709, 37.6628535], [-8.1726565, 37.6629876]]}, "properties": {"highway": "trunk", "lanes": "1", "oneway": "yes", "ref": "EN 123", "surface": "asphalt", "turn:lanes": "none|merge_to_left"}}, {"type": "Feature", "geometry": {"type": "LineString", "coordinates": [[-8.1580688, 37.6690286], [-8.1578533, 37.6690918], [-8.1573356, 37.6693177]]}, "properties": {"highway": "trunk", "lanes": "1", "oneway": "yes", "ref": "EN 123", "surface": "asphalt", "turn:lanes": "through;slight_right"}}, {"type": "Feature", "geometry": {"type": "LineString", "coordinates": [[-8.1573356, 37.6693177], [-8.1567698, 37.6695646]]}, "properties": {"highway": "trunk", "lanes": "2", "oneway": "yes", "ref": "EN 123", "surface": "asphalt", "turn:lanes": "through|slight_right"}}, {"type": "Feature", "geometry": {"type": "LineString", "coordinates": [[-8.148675, 37.6729288], [-8.1488552, 37.672883]]}, "properties": {"highway": "trunk", "lanes": "1", "oneway": "yes", "ref": "EN 123", "surface": "asphalt", "turn:lanes": "through;slight_right"}}, {"type": "Feature", "geometry": {"type": "LineString", "coordinates": [[-8.1497834, 37.6725078], [-8.1502406, 37.6723164]]}, "properties": {"highway": "trunk", "lanes": "2", "oneway": "yes", "ref": "EN 123", "surface": "asphalt", "turn:lanes": "through|slight_right"}}, {"type": "Feature", "geometry": {"type": "LineString", "coordinates": [[-8.155922, 37.669966], [-8.1562229, 37.669843], [-8.1578832, 37.6691377], [-8.1580688, 37.6690286]]}, "properties": {"highway": "trunk", "lanes": "1", "oneway": "yes", "ref": "EN 123", "surface": "asphalt"}}, {"type": "Feature", "geometry": {"type": "LineString", "coordinates": [[-8.154176, 37.6706849], [-8.1547118, 37.670461], [-8.155922, 37.669966]]}, "properties": {"highway": "trunk", "lanes": "2", "oneway": "yes", "ref": "EN 123", "surface": "asphalt", "turn:lanes": "none|merge_to_left"}}, {"type": "Feature", "geometry": {"type": "LineString", "coordinates": [[-8.1488552, 37.672883], [-8.149338, 37.6726968], [-8.1497834, 37.6725078]]}, "properties": {"highway": "trunk", "lanes": "1", "oneway": "yes", "ref": "EN 123", "surface": "asphalt", "turn:lanes": "through;slight_right"}}, {"type": "Feature", "geometry": {"type": "LineString", "coordinates": [[-8.1582446, 37.6689552], [-8.1580688, 37.6690286]]}, "properties": {"highway": "trunk", "lanes": "2", "ref": "EN 123", "surface": "asphalt"}}, {"type": "Feature", "geometry": {"type": "LineString", "coordinates": [[-8.6239968, 37.593846], [-8.6238381, 37.5940067], [-8.6236811, 37.5941585], [-8.623541, 37.5942775], [-8.6233814, 37.5944065], [-8.6232122, 37.5945316], [-8.6225587, 37.5949749], [-8.6215148, 37.59567], [-8.6212231, 37.5958659], [-8.6204423, 37.5963878], [-8.6197076, 37.5968668], [-8.6183104, 37.5978032]]}, "properties": {"highway": "primary", "lanes": "2", "maxspeed": "50", "name": "Rua da Estrada Nacional", "postal_code": "7630-028", "ref": "EN 123"}}, {"type": "Feature", "geometry": {"type": "LineString", "coordinates": [[-8.6355013, 37.5970038], [-8.6353883, 37.5969246], [-8.6353331, 37.5968749], [-8.6352972, 37.5968205], [-8.6351566, 37.5966047], [-8.6350647, 37.5964948], [-8.6349714, 37.5964173], [-8.6348496, 37.5963352], [-8.6346778, 37.5962365], [-8.6341328, 37.595942], [-8.633688, 37.5957016], [-8.6334987, 37.5956004], [-8.6333563, 37.5955298], [-8.63328, 37.5954933], [-8.6331421, 37.595449], [-8.6329991, 37.5954259], [-8.6325371, 37.5953844], [-8.6323477, 37.5953508], [-8.632159, 37.5952995], [-8.631991, 37.5952402], [-8.6314792, 37.5950479], [-8.6313336, 37.5949998], [-8.6312226, 37.5949736], [-8.6311086, 37.5949531], [-8.6309903, 37.5949422], [-8.6308777, 37.5949364], [-8.630754, 37.5949384], [-8.6306217, 37.5949451], [-8.6304086, 37.5949779], [-8.630248, 37.595018], [-8.6301538, 37.5950522], [-8.6300067, 37.5951154], [-8.6288789, 37.5956825], [-8.628764, 37.5957206], [-8.6286711, 37.5957382], [-8.6285922, 37.5957437], [-8.6285236, 37.5957415], [-8.6284543, 37.5957293], [-8.6283602, 37.5956968], [-8.6282813, 37.5956483], [-8.6282096, 37.5955784], [-8.6271415, 37.5944603], [-8.6269546, 37.5942581], [-8.6268017, 37.5941237], [-8.626635, 37.5940026], [-8.6264726, 37.5939078], [-8.6263457, 37.5938483], [-8.626215, 37.5938084], [-8.6260736, 37.5937804], [-8.6258554, 37.5937454], [-8.625581, 37.5937152], [-8.6248747, 37.5936337], [-8.6244913, 37.5935991], [-8.6244055, 37.5935995], [-8.6243345, 37.5936065], [-8.6242603, 37.5936306], [-8.624201, 37.5936666], [-8.6241319, 37.5937189], [-8.6239968, 37.593846]]}, "properties": {"highway": "primary", "lanes": "2", "maxspeed": "90", "ref": "EN 123"}}, {"type": "Feature", "geometry": {"type": "LineString", "coordinates": [[-8.2143374, 37.6651039], [-8.2134492, 37.6650306]]}, "properties": {"highway": "trunk", "lanes": "1", "oneway": "yes", "ref": "EN 123"}}, {"type": "Feature", "geometry": {"type": "LineString", "coordinates": [[-8.2149422, 37.6651475], [-8.2143374, 37.6651039]]}, "properties": {"highway": "trunk", "lanes": "3", "oneway": "yes", "ref": "EN 123"}}, {"type": "Feature", "geometry": {"type": "LineString", "coordinates": [[-8.2127342, 37.664972], [-8.2104681, 37.6647968]]}, "properties": {"bicycle": "no", "foot": "no", "highway": "trunk", "horse": "no", "lanes": "2", "oneway": "yes", "ref": "EN 123"}}, {"type": "Feature", "geometry": {"type": "LineString", "coordinates": [[-8.2104681, 37.6647968], [-8.2103953, 37.6647911], [-8.2094547, 37.664748]]}, "properties": {"bicycle": "no", "foot": "no", "highway": "trunk", "horse": "no", "lanes": "1", "oneway": "yes", "ref": "EN 123"}}, {"type": "Feature", "geometry": {"type": "LineString", "coordinates": [[-8.2113475, 37.6649526], [-8.2118559, 37.664996]]}, "properties": {"highway": "trunk", "lanes": "2", "oneway": "yes", "ref": "EN 123"}}, {"type": "Feature", "geometry": {"type": "LineString", "coordinates": [[-8.2118559, 37.664996], [-8.2128261, 37.665079]]}, "properties": {"highway": "trunk", "lanes": "3", "oneway": "yes", "ref": "EN 123"}}, {"type": "Feature", "geometry": {"type": "LineString", "coordinates": [[-8.2128261, 37.665079], [-8.2133443, 37.6651154]]}, "properties": {"highway": "trunk", "lanes": "1", "oneway": "yes", "ref": "EN 123"}}, {"type": "Feature", "geometry": {"type": "LineString", "coordinates": [[-8.2143575, 37.6651967], [-8.2160498, 37.6653292], [-8.2168234, 37.6654266]]}, "properties": {"bicycle": "no", "foot": "no", "highway": "trunk", "horse": "no", "lanes": "2", "oneway": "yes", "ref": "EN 123"}}, {"type": "Feature", "geometry": {"type": "LineString", "coordinates": [[-8.6355163, 37.5971718], [-8.6356177, 37.5973], [-8.6356521, 37.5973361], [-8.6356939, 37.597367], [-8.6357584, 37.597407], [-8.6358082, 37.5974312], [-8.6358636, 37.5974461], [-8.6359676, 37.5974641], [-8.6361471, 37.5974702]]}, "properties": {"highway": "primary", "lanes": "1", "maxspeed": "50", "name": "Rua Serpa Pinto", "oneway": "yes", "postal_code": "7630-174", "ref": "EN 123"}}, {"type": "Feature", "geometry": {"type": "LineString", "coordinates": [[-8.6383282, 37.5974789], [-8.6383033, 37.5974796], [-8.6366049, 37.5974771], [-8.6361471, 37.5974702]]}, "properties": {"highway": "primary", "lanes": "2", "maxspeed": "50", "name": "Rua Serpa Pinto", "postal_code": "7630-174", "ref": "EN 123"}}, {"type": "Feature", "geometry": {"type": "MultiPolygon", "coordinates": [[[[-8.6356967, 37.5970906], [-8.6356926, 37.5970585], [-8.6356757, 37.5970291], [-8.6356476, 37.5970057], [-8.6356116, 37.5969908], [-8.6355888, 37.5969878], [-8.6355737, 37.5969858], [-8.6355358, 37.5969903], [-8.6355013, 37.5970038], [-8.6354712, 37.5970277], [-8.635453, 37.5970582], [-8.635449, 37.5970919], [-8.6354596, 37.5971246], [-8.6354835, 37.5971526], [-8.6355163, 37.5971718], [-8.6355552, 37.5971816], [-8.635596, 37.5971809], [-8.6356342, 37.5971697], [-8.6356658, 37.5971494], [-8.6356874, 37.597122], [-8.6356967, 37.5970906]]]]}, "properties": {"highway": "primary", "junction": "roundabout", "ref": "EN 123", "surface": "asphalt"}}]}