{"type": "FeatureCollection", "features": [{"type": "Feature", "geometry": {"type": "Point", "coordinates": [-8.4432001, 41.0667348]}, "properties": {"distance": "18", "highway": "milestone", "ref": "EN 108"}}, {"type": "Feature", "geometry": {"type": "Point", "coordinates": [-8.4313291, 41.0669348]}, "properties": {"distance": "19", "highway": "milestone", "ref": "EN 108"}}, {"type": "Feature", "geometry": {"type": "Point", "coordinates": [-8.3533471, 41.0498613]}, "properties": {"distance": "30", "highway": "milestone", "ref": "EN 108"}}, {"type": "Feature", "geometry": {"type": "Point", "coordinates": [-8.5228823, 41.0967881]}, "properties": {"distance": "8.3", "highway": "milestone", "ref": "EN 108"}}, {"type": "Feature", "geometry": {"type": "LineString", "coordinates": [[-8.3753979, 41.0523514], [-8.3753159, 41.0518918]]}, "properties": {"bridge": "yes", "highway": "primary", "layer": "1", "name": "Avenida Marginal", "ref": "EN 108"}}, {"type": "Feature", "geometry": {"type": "LineString", "coordinates": [[-8.3275919, 41.0605211], [-8.3274513, 41.0605466], [-8.3272641, 41.0605389], [-8.3261826, 41.0603672], [-8.3259809, 41.0603479], [-8.3257969, 41.0603719], [-8.3253838, 41.0604727], [-8.3251904, 41.0605196], [-8.3251231, 41.0605359], [-8.3248763, 41.0605926], [-8.324066, 41.060779], [-8.3238768, 41.0608817], [-8.3232412, 41.0614823], [-8.3229846, 41.0617248], [-8.3228129, 41.0618203], [-8.322615, 41.0618347], [-8.3224045, 41.061785], [-8.3222683, 41.0616596], [-8.322005, 41.0609925], [-8.3218897, 41.0608612], [-8.3216877, 41.0607813], [-8.3214907, 41.060738], [-8.3207458, 41.0606577], [-8.3205856, 41.0606624], [-8.3203619, 41.0607063], [-8.3198942, 41.060939], [-8.3197755, 41.0609646], [-8.3196246, 41.0609619], [-8.3194981, 41.060929], [-8.3193715, 41.0608678], [-8.3191151, 41.0605714], [-8.3188921, 41.0604604], [-8.3186701, 41.0604265], [-8.3180683, 41.060427], [-8.3175898, 41.0604639], [-8.3173622, 41.0604901], [-8.3171292, 41.0605769], [-8.3163995, 41.0609966], [-8.3161607, 41.0611341], [-8.3154461, 41.061289], [-8.3152892, 41.0613834], [-8.315208, 41.0615508], [-8.3152372, 41.0617609], [-8.3155783, 41.0624764], [-8.3156137, 41.0626135], [-8.3155862, 41.0627318], [-8.3155427, 41.0628258], [-8.3154378, 41.0629019], [-8.3153221, 41.0629618], [-8.3151384, 41.0630019], [-8.3136082, 41.0632281], [-8.313419, 41.0632725], [-8.313262, 41.0633655], [-8.3119499, 41.0642978], [-8.3117985, 41.0644652], [-8.311576, 41.0648749], [-8.3104741, 41.0669682], [-8.3103346, 41.0671056], [-8.3101685, 41.0671695], [-8.3098728, 41.0671801], [-8.309711, 41.0671275], [-8.309567, 41.0670415], [-8.3094765, 41.0669251], [-8.3094303, 41.0667954], [-8.3093963, 41.0663355], [-8.3093518, 41.0661908], [-8.3092173, 41.0660681], [-8.3090903, 41.0660108], [-8.3089447, 41.0659814], [-8.3087684, 41.0659596], [-8.3085335, 41.0659762], [-8.3083424, 41.0660214], [-8.3079775, 41.066248], [-8.3073169, 41.0667336], [-8.3071355, 41.066838], [-8.3069788, 41.066903], [-8.3062386, 41.0671821], [-8.3059774, 41.067326], [-8.3049407, 41.0681804], [-8.3046907, 41.0684084], [-8.3045713, 41.0686121], [-8.3043527, 41.0691252], [-8.3041512, 41.0696381], [-8.3039849, 41.0698417], [-8.3034008, 41.070211], [-8.302976, 41.0705323], [-8.3027865, 41.0707502], [-8.3025792, 41.0710148], [-8.3023094, 41.0714626], [-8.3020249, 41.0720895], [-8.3018568, 41.0725478], [-8.3017246, 41.072944], [-8.301605, 41.0733772], [-8.3015071, 41.0738789], [-8.3011555, 41.0757705], [-8.3011015, 41.0759062], [-8.3010136, 41.0760781]]}, "properties": {"highway": "primary", "lanes": "2", "name": "Avenida Marginal do Douro", "oneway": "no", "ref": "EN 108", "surface": "asphalt"}}, {"type": "Feature", "geometry": {"type": "LineString", "coordinates": [[-8.2982114, 41.0806004], [-8.2982661, 41.0806039], [-8.298336, 41.0805936], [-8.2983984, 41.0805676], [-8.2984471, 41.0805284], [-8.2984774, 41.0804798], [-8.2984865, 41.0804312], [-8.2984771, 41.0803825], [-8.2984477, 41.0803356], [-8.2984012, 41.0802973], [-8.2983417, 41.0802712], [-8.298267, 41.0802594], [-8.2981912, 41.0802667], [-8.2981228, 41.0802925], [-8.2980782, 41.0803249], [-8.2980468, 41.0803652], [-8.2980309, 41.0804104], [-8.2980317, 41.0804571], [-8.2980467, 41.0804977], [-8.2980743, 41.0805344], [-8.298113, 41.080565], [-8.2981593, 41.0805872], [-8.2982114, 41.0806004]]}, "properties": {"highway": "primary", "junction": "roundabout", "ref": "EN 108;EN 224"}}, {"type": "Feature", "geometry": {"type": "LineString", "coordinates": [[-8.1822981, 41.1046913], [-8.1821012, 41.1047725], [-8.182019, 41.1048066], [-8.1818574, 41.1048858], [-8.1813733, 41.1052067], [-8.1805576, 41.1059106], [-8.1803382, 41.1060995], [-8.1801573, 41.1062593], [-8.1798128, 41.1065558], [-8.179322, 41.1069805]]}, "properties": {"highway": "primary", "old_ref": "EN 108", "oneway": "no", "ref": "EN 108"}}, {"type": "Feature", "geometry": {"type": "LineString", "coordinates": [[-8.3966562, 41.0556918], [-8.396527, 41.0555195], [-8.3960912, 41.0549375], [-8.3955193, 41.0541891], [-8.3953547, 41.0540333], [-8.3951745, 41.0539232], [-8.3948569, 41.0538262], [-8.3940595, 41.0536501], [-8.3938033, 41.053544], [-8.3936651, 41.0533942], [-8.3935108, 41.0530461], [-8.3934048, 41.0529299], [-8.3932101, 41.0528358], [-8.392226, 41.0525459], [-8.391989, 41.05252], [-8.3916977, 41.0525303], [-8.3909148, 41.0526432], [-8.3907662, 41.0526489], [-8.3906242, 41.0526349], [-8.3904942, 41.0525897], [-8.3903386, 41.0524794], [-8.3899972, 41.0520377], [-8.3898717, 41.0519246], [-8.3897171, 41.051856], [-8.3895091, 41.0518234], [-8.388834, 41.0518364], [-8.388594, 41.0517991], [-8.388454, 41.05174], [-8.3881602, 41.0515525], [-8.3877988, 41.0513848], [-8.3874553, 41.0512806], [-8.3869767, 41.0511892], [-8.3865211, 41.0511225], [-8.3861169, 41.0510989], [-8.3856986, 41.0511121], [-8.3842158, 41.0512754], [-8.3837277, 41.0514226], [-8.3835213, 41.0514231], [-8.3833329, 41.0513761], [-8.3828371, 41.0511611], [-8.3826354, 41.051107], [-8.3824466, 41.0511118], [-8.3819479, 41.0512261], [-8.381826, 41.0512329], [-8.3816976, 41.0512248], [-8.381345, 41.051171], [-8.3811575, 41.0511776]]}, "properties": {"highway": "primary", "lanes": "2", "maxspeed": "70", "name": "Avenida Jos\u00e9 Joaquim Ferreira", "oneway": "no", "ref": "EN 108", "surface": "asphalt"}}, {"type": "Feature", "geometry": {"type": "LineString", "coordinates": [[-8.182153, 41.1044683], [-8.1821755, 41.104616], [-8.182163, 41.104649], [-8.1821285, 41.1047262], [-8.1821012, 41.1047725]]}, "properties": {"highway": "primary", "old_ref": "EN 108", "oneway": "yes", "ref": "EN 108"}}, {"type": "Feature", "geometry": {"type": "LineString", "coordinates": [[-8.1823221, 41.1046826], [-8.1823166, 41.1046491], [-8.182298, 41.1045758]]}, "properties": {"highway": "primary", "old_ref": "EN 108", "oneway": "yes", "ref": "EN 108"}}, {"type": "Feature", "geometry": {"type": "LineString", "coordinates": [[-8.4208326, 41.0763926], [-8.4207929, 41.0763165], [-8.4205675, 41.0757703], [-8.4203952, 41.0755578], [-8.4201787, 41.0753757], [-8.4193058, 41.0748826], [-8.4189857, 41.0747391], [-8.4185462, 41.074567], [-8.4181332, 41.0744674], [-8.4179694, 41.0744872], [-8.4178536, 41.0745207], [-8.4177697, 41.074575], [-8.417713, 41.074636], [-8.417682, 41.0747122], [-8.4176625, 41.0748035], [-8.4176723, 41.0752187], [-8.4176455, 41.0753946], [-8.4175436, 41.0756089], [-8.4170731, 41.076449], [-8.4168701, 41.0765871], [-8.4166315, 41.0766229], [-8.4164639, 41.0766054], [-8.4162805, 41.0765265], [-8.4161557, 41.0763887], [-8.4160973, 41.076265], [-8.4159542, 41.0754817], [-8.4158469, 41.075229], [-8.4154689, 41.074712], [-8.4152269, 41.0743966], [-8.4151324, 41.0742705], [-8.4150222, 41.0741704], [-8.4149305, 41.0741191], [-8.4148427, 41.0740923], [-8.4147157, 41.0740727], [-8.4145975, 41.0740785], [-8.4144775, 41.0741137], [-8.414275, 41.0742064], [-8.4141576, 41.074261], [-8.4140805, 41.0742991], [-8.4133944, 41.0746381], [-8.4131069, 41.0747702], [-8.4130468, 41.0747978], [-8.4129655, 41.0748351], [-8.4128111, 41.0748946], [-8.4127359, 41.0749154], [-8.412649, 41.0749274], [-8.4125761, 41.0749316], [-8.412495, 41.0749331], [-8.4123526, 41.0749156], [-8.4122119, 41.0748825], [-8.4120395, 41.0748226], [-8.4119419, 41.0747932], [-8.4116817, 41.0747091], [-8.411432, 41.0746545], [-8.4112233, 41.0746178], [-8.4110003, 41.0745888], [-8.41053, 41.0745644], [-8.4103063, 41.074562], [-8.4100053, 41.0745659], [-8.4098386, 41.0745771], [-8.4097161, 41.074607], [-8.4095964, 41.0746459], [-8.4094576, 41.0747586], [-8.4087825, 41.0754099], [-8.4086701, 41.0754973], [-8.4085383, 41.075557], [-8.4084391, 41.0755858], [-8.4083323, 41.0755893], [-8.4082036, 41.0755764], [-8.408085, 41.075538], [-8.4079659, 41.0754761], [-8.4078701, 41.0753746], [-8.4078084, 41.0752187], [-8.4077787, 41.0744916], [-8.4077329, 41.0742286], [-8.4076391, 41.0740463], [-8.4075557, 41.073935], [-8.4074702, 41.0738415], [-8.4071185, 41.073528], [-8.4069768, 41.0734108], [-8.4067881, 41.0733248], [-8.406616, 41.0732827], [-8.4063926, 41.0732535], [-8.4061827, 41.0732726], [-8.4059718, 41.0733578], [-8.4055, 41.0736178], [-8.4053436, 41.0736634], [-8.405164, 41.0736727], [-8.4049693, 41.0736298], [-8.4048252, 41.0735518], [-8.4041488, 41.0730592], [-8.4040714, 41.0730039], [-8.4037509, 41.0727783], [-8.4036637, 41.0727134], [-8.4027791, 41.0720553], [-8.4025629, 41.0719447], [-8.4024245, 41.0718859], [-8.4020755, 41.0718077], [-8.4017503, 41.071713], [-8.401657, 41.0716832], [-8.4014741, 41.0715605], [-8.401348, 41.0714168], [-8.4013157, 41.0712579], [-8.4013004, 41.0710756], [-8.4013415, 41.0709106], [-8.4014682, 41.0707633], [-8.4017047, 41.0706046], [-8.4017773, 41.0705575], [-8.4021697, 41.0702964], [-8.4023328, 41.0701476], [-8.402385, 41.0700717], [-8.4024186, 41.0699923], [-8.402442, 41.069912], [-8.4024466, 41.0698105], [-8.4023928, 41.0696429], [-8.4022898, 41.0694876], [-8.4021182, 41.0693387], [-8.4019336, 41.0691196], [-8.4018786, 41.0690359], [-8.4018236, 41.0689522], [-8.4016032, 41.0685687], [-8.4012538, 41.0677629]]}, "properties": {"highway": "primary", "lanes": "2", "maxspeed": "70", "name": "Avenida Jos\u00e9 Joaquim Ferreira", "oneway": "no", "ref": "EN 108", "surface": "asphalt"}}, {"type": "Feature", "geometry": {"type": "LineString", "coordinates": [[-8.4208326, 41.0763926], [-8.4208744, 41.0765766], [-8.4210777, 41.0771311], [-8.4211572, 41.0772551], [-8.421235, 41.0773291], [-8.421298, 41.0773889], [-8.4215204, 41.0774763], [-8.4217487, 41.0775123], [-8.421993, 41.0774999], [-8.422265, 41.0773989], [-8.4224065, 41.077291], [-8.4225158, 41.077123], [-8.4225229, 41.0769785], [-8.4223698, 41.0759869]]}, "properties": {"highway": "primary", "lanes": "2", "name": "Avenida Jos\u00e9 Joaquim Ferreira", "oneway": "yes", "ref": "EN 108", "surface": "asphalt"}}, {"type": "Feature", "geometry": {"type": "LineString", "coordinates": [[-8.3811575, 41.0511776], [-8.3809958, 41.0512183], [-8.3806001, 41.051429], [-8.3804157, 41.051478], [-8.3802361, 41.0514745], [-8.3795087, 41.0513996], [-8.37931, 41.0514175], [-8.3791438, 41.0514788], [-8.3790288, 41.0515778], [-8.378808, 41.0518865], [-8.3786457, 41.052026], [-8.378507, 41.0520878]]}, "properties": {"highway": "primary", "maxspeed": "70", "oneway": "no", "ref": "EN 108", "surface": "asphalt"}}, {"type": "Feature", "geometry": {"type": "LineString", "coordinates": [[-8.3779383, 41.0520883], [-8.3778889, 41.0520843], [-8.3777723, 41.0520797], [-8.3776418, 41.0520746], [-8.3774401, 41.0521068], [-8.377268, 41.0521701], [-8.3768128, 41.0525104], [-8.3766475, 41.0525954], [-8.3763382, 41.0527101], [-8.3760908, 41.0527782], [-8.3758589, 41.0527721], [-8.3756767, 41.0527105], [-8.3755638, 41.0526435], [-8.3754836, 41.0525666]]}, "properties": {"highway": "primary", "lanes": "2", "maxspeed": "70", "name": "Avenida Marginal", "oneway": "no", "ref": "EN 108", "surface": "asphalt"}}, {"type": "Feature", "geometry": {"type": "LineString", "coordinates": [[-8.4221993, 41.0758145], [-8.422204, 41.075839], [-8.4224188, 41.0769789], [-8.4224019, 41.0771053], [-8.422319, 41.0772406], [-8.4221806, 41.0773399], [-8.4219747, 41.0774143], [-8.4217394, 41.0774289], [-8.4214971, 41.0773767], [-8.4213172, 41.0772655], [-8.4211846, 41.0771122], [-8.4209394, 41.0765597], [-8.4208326, 41.0763926]]}, "properties": {"highway": "primary", "lanes": "2", "name": "Avenida Jos\u00e9 Joaquim Ferreira", "oneway": "yes", "ref": "EN 108", "surface": "asphalt"}}, {"type": "Feature", "geometry": {"type": "LineString", "coordinates": [[-8.182298, 41.1045758], [-8.182153, 41.1044683]]}, "properties": {"highway": "primary", "old_ref": "EN 108", "oneway": "yes", "ref": "EN 108"}}, {"type": "Feature", "geometry": {"type": "LineString", "coordinates": [[-8.1823221, 41.1046826], [-8.1822981, 41.1046913]]}, "properties": {"highway": "primary", "old_ref": "EN 108", "ref": "EN 108", "source": "Bing"}}, {"type": "Feature", "geometry": {"type": "LineString", "coordinates": [[-8.2407742, 41.0816376], [-8.2395831, 41.0818797], [-8.239144, 41.0821126], [-8.2384935, 41.0826121], [-8.2381479, 41.0827745], [-8.2373412, 41.082634], [-8.2363792, 41.0828909], [-8.23579, 41.0829414], [-8.2343142, 41.083021], [-8.2338317, 41.0829653], [-8.2330133, 41.0828709], [-8.2321026, 41.0829322], [-8.2309209, 41.0831913], [-8.2306339, 41.083167], [-8.2298047, 41.0829317], [-8.2295204, 41.0828643], [-8.229383, 41.0828466], [-8.229268, 41.0828544], [-8.2291517, 41.0828866], [-8.2285967, 41.0831804], [-8.2284641, 41.0831946], [-8.2283364, 41.0831777], [-8.2281977, 41.083085], [-8.2280332, 41.0828169], [-8.2278454, 41.0826527], [-8.2277358, 41.0826002], [-8.2276061, 41.0825768], [-8.227477, 41.0825951], [-8.2272567, 41.0826911], [-8.2271313, 41.0827153], [-8.2269851, 41.0827022], [-8.2268685, 41.0826567], [-8.2266633, 41.082498], [-8.2265694, 41.0824444], [-8.2264379, 41.0824242], [-8.226283, 41.0824409], [-8.2259967, 41.0825152], [-8.2256949, 41.0825423], [-8.2255333, 41.082581], [-8.225364, 41.0826827], [-8.225241, 41.082734], [-8.2251015, 41.0827532], [-8.2249229, 41.0827156], [-8.2245513, 41.082527], [-8.2244057, 41.0824904], [-8.2242202, 41.0824822], [-8.2238972, 41.0825634], [-8.2235706, 41.0826888], [-8.2232846, 41.0828204], [-8.2230534, 41.0829789], [-8.2228471, 41.0832047], [-8.2226965, 41.0833984], [-8.2224431, 41.0836202], [-8.2221129, 41.0838191], [-8.2216603, 41.0839972], [-8.2211763, 41.084302], [-8.2209236, 41.0846016], [-8.2207336, 41.0850146], [-8.2206004, 41.085207], [-8.2200201, 41.0859424], [-8.2192534, 41.0872141], [-8.2191554, 41.0874068], [-8.2191285, 41.088367], [-8.2191981, 41.0886269], [-8.2192122, 41.0887618], [-8.2191511, 41.0891257], [-8.2190776, 41.0892953], [-8.219011, 41.0893817], [-8.2182062, 41.0899615], [-8.2181174, 41.0901088], [-8.2180446, 41.0902295], [-8.2177301, 41.0907995], [-8.2175814, 41.0913207], [-8.217542, 41.0914459], [-8.217462, 41.0915798], [-8.2172327, 41.0918585], [-8.2171831, 41.0920178], [-8.2171681, 41.0921519], [-8.2171508, 41.0924439], [-8.2170899, 41.0926337], [-8.2167927, 41.0931071], [-8.2166911, 41.093171], [-8.2165655, 41.0932015], [-8.2163266, 41.0932231], [-8.2161493, 41.0932741], [-8.216022, 41.0934066], [-8.2159724, 41.0934829], [-8.2158389, 41.0936881], [-8.2156761, 41.0937871], [-8.2155347, 41.0938007], [-8.2150994, 41.0938426], [-8.2149331, 41.0939282], [-8.2142867, 41.0946924], [-8.2141706, 41.0947695], [-8.2137794, 41.0948215], [-8.2135318, 41.094838], [-8.2133425, 41.0948996], [-8.2129271, 41.0950846], [-8.2126499, 41.0951231], [-8.2124705, 41.0951832], [-8.2123124, 41.095309], [-8.2121782, 41.0955467], [-8.212367, 41.0958119], [-8.2123413, 41.0959801], [-8.2121352, 41.0963037], [-8.2117233, 41.0969503], [-8.2116216, 41.0971269], [-8.211483, 41.0972407], [-8.211275, 41.0972929], [-8.2108144, 41.0973521], [-8.2103723, 41.0973428], [-8.2102044, 41.0973571], [-8.2094851, 41.0975413], [-8.2085621, 41.0978676], [-8.2082818, 41.0980011], [-8.2080892, 41.0981601], [-8.207906, 41.0983827], [-8.207627, 41.0989348], [-8.20751, 41.0990804], [-8.206474, 41.0996093], [-8.2063238, 41.0997196], [-8.206267, 41.0997895], [-8.2060474, 41.1001037], [-8.2059241, 41.1002003], [-8.2056002, 41.1003459], [-8.2054564, 41.1004451], [-8.2047719, 41.1011125], [-8.2046287, 41.1012181], [-8.2044992, 41.1012613], [-8.2043133, 41.101271], [-8.204148, 41.1012486], [-8.2036854, 41.1011865], [-8.2035255, 41.1011893], [-8.2033637, 41.1012289], [-8.2030999, 41.1013575], [-8.2028312, 41.1014732], [-8.2025631, 41.1015887], [-8.2019487, 41.1017638], [-8.2015027, 41.1018923], [-8.2013463, 41.1019151], [-8.2012251, 41.1019187], [-8.2005859, 41.1018031], [-8.2004289, 41.1017677], [-8.2002987, 41.101706], [-8.2001839, 41.1016152], [-8.1999184, 41.1011433], [-8.1997571, 41.1008473], [-8.1994772, 41.1003242], [-8.1993748, 41.1002164], [-8.1991609, 41.1000921], [-8.1988882, 41.0999852], [-8.1985586, 41.0999643], [-8.1982782, 41.0999759], [-8.1979146, 41.1001245], [-8.1973354, 41.1004408], [-8.1971088, 41.1005234], [-8.1968778, 41.1005507], [-8.1963571, 41.1005855], [-8.1962041, 41.1005982], [-8.1959968, 41.1006153], [-8.1958237, 41.1006809], [-8.195545, 41.1009477], [-8.1953234, 41.1010982], [-8.1951609, 41.1011571], [-8.1949298, 41.1011597], [-8.1947311, 41.1011931], [-8.1945818, 41.1012996], [-8.1944674, 41.101414], [-8.1943845, 41.1014562], [-8.1939025, 41.1015668], [-8.1937479, 41.1016024], [-8.1935349, 41.1016452], [-8.1930536, 41.1016533], [-8.1928971, 41.101707], [-8.1925468, 41.1018707], [-8.1924061, 41.1018942], [-8.192287, 41.1018819], [-8.1921865, 41.1018482], [-8.1921301, 41.101808], [-8.1919835, 41.1016206], [-8.1917744, 41.101495], [-8.1915091, 41.1013421], [-8.1912878, 41.1010959], [-8.1912103, 41.1010307], [-8.191099, 41.1009799], [-8.190697, 41.1009395], [-8.1904444, 41.1009301], [-8.1902798, 41.1009554], [-8.1901727, 41.101025], [-8.1897453, 41.1015198], [-8.1895416, 41.1017867], [-8.1893972, 41.1020351], [-8.1892816, 41.1021595], [-8.1891275, 41.1022009], [-8.1889728, 41.1022016], [-8.1888056, 41.1021506], [-8.1884931, 41.1019212], [-8.1883524, 41.1018579], [-8.1881217, 41.101809], [-8.1869622, 41.1016283], [-8.1866772, 41.1016475], [-8.1864628, 41.1017308], [-8.1860508, 41.1019458], [-8.1858386, 41.1020722], [-8.1856996, 41.1022547], [-8.1856278, 41.1025652], [-8.1855044, 41.1026795], [-8.1849892, 41.1029357], [-8.18445, 41.1032039], [-8.1842398, 41.1033531], [-8.1840175, 41.1036243], [-8.1837815, 41.1037307], [-8.1826357, 41.1039913], [-8.1822883, 41.1040816], [-8.1821994, 41.104126], [-8.1821362, 41.1041899], [-8.1820929, 41.1042691], [-8.1821011, 41.1043653], [-8.182153, 41.1044683]]}, "properties": {"highway": "primary", "old_ref": "EN 108", "oneway": "no", "ref": "EN 108"}}, {"type": "Feature", "geometry": {"type": "LineString", "coordinates": [[-8.4006934, 41.0654626], [-8.4006377, 41.0651492], [-8.4005288, 41.0645373], [-8.4005046, 41.0644013], [-8.4004359, 41.0641489], [-8.4003431, 41.0639822], [-8.4001667, 41.063793], [-8.400019, 41.063693]]}, "properties": {"highway": "primary", "lanes": "2", "maxspeed": "70", "name": "Avenida Jos\u00e9 Joaquim Ferreira", "oneway": "no", "ref": "EN 108", "surface": "asphalt"}}, {"type": "Feature", "geometry": {"type": "LineString", "coordinates": [[-8.3988359, 41.0630532], [-8.3987521, 41.0630019]]}, "properties": {"bridge": "yes", "highway": "primary", "layer": "1", "maxspeed": "70", "name": "Avenida Jos\u00e9 Joaquim Ferreira", "oneway": "no", "ref": "EN 108"}}, {"type": "Feature", "geometry": {"type": "LineString", "coordinates": [[-8.3753159, 41.0518918], [-8.3753096, 41.0518695], [-8.3752829, 41.0517929], [-8.3752352, 41.0517146], [-8.3751731, 41.0516446], [-8.375104, 41.0515959], [-8.375006, 41.0515468], [-8.3748842, 41.0515096], [-8.3746785, 41.0514983], [-8.3741288, 41.0515866], [-8.3732921, 41.0517169], [-8.373021, 41.0517795], [-8.3724592, 41.0519035], [-8.3721817, 41.0519683], [-8.3719041, 41.0520527], [-8.3715024, 41.0521819], [-8.3713841, 41.0522054], [-8.3712473, 41.0522235], [-8.3706977, 41.0522506], [-8.3703458, 41.0522704], [-8.3700951, 41.0523077], [-8.369897, 41.0523589], [-8.3696869, 41.0524011], [-8.3695979, 41.052414], [-8.3695229, 41.0524249], [-8.3693501, 41.0524207], [-8.3691679, 41.0524065], [-8.3690268, 41.0523901], [-8.3689921, 41.0523861], [-8.3687089, 41.0523532], [-8.367502, 41.0519802], [-8.3672785, 41.0519111], [-8.3672409, 41.0518995], [-8.3668269, 41.0517773], [-8.365983, 41.0515118], [-8.3658869, 41.0514816], [-8.3657518, 41.051432], [-8.3651882, 41.0511895], [-8.3651031, 41.0511647], [-8.3649707, 41.0511324], [-8.3638893, 41.0509331], [-8.3637945, 41.05091], [-8.3637115, 41.050881], [-8.363612, 41.0508346], [-8.3635312, 41.050789], [-8.3634151, 41.0506988], [-8.3633417, 41.0506027], [-8.3632735, 41.0504326], [-8.3632441, 41.0503439], [-8.3632048, 41.0502641], [-8.3631441, 41.0501907], [-8.3630672, 41.0501183], [-8.3629774, 41.0500605], [-8.3628775, 41.0500202], [-8.3627712, 41.0499961], [-8.3626603, 41.0499808], [-8.3625451, 41.0499816], [-8.3624475, 41.0499961], [-8.3623542, 41.0500203], [-8.3618812, 41.0502293], [-8.361755, 41.050272], [-8.361598, 41.0502915], [-8.361511, 41.0502869], [-8.3614031, 41.0502706], [-8.3612944, 41.0502376], [-8.3612199, 41.0502015], [-8.3609909, 41.0500286], [-8.360323, 41.049473], [-8.3600356, 41.0492376], [-8.3597808, 41.0490478], [-8.3597096, 41.0490111], [-8.3596266, 41.0489804], [-8.3595433, 41.0489595], [-8.3594586, 41.0489481], [-8.3593708, 41.0489471], [-8.3592778, 41.0489555], [-8.3587759, 41.0490477], [-8.3585741, 41.0490595], [-8.3583722, 41.0490594], [-8.3581866, 41.049037], [-8.358001, 41.0490057], [-8.3576672, 41.0489113], [-8.3575398, 41.0488884], [-8.3574355, 41.0488827], [-8.3573482, 41.048891], [-8.3572829, 41.0488989], [-8.3572368, 41.0489109], [-8.3571911, 41.0489283], [-8.3571253, 41.0489563], [-8.3570702, 41.0489956], [-8.3568462, 41.0491532], [-8.3567722, 41.0492113], [-8.3567055, 41.0492694], [-8.3566694, 41.0493158], [-8.3566116, 41.0494301], [-8.3565772, 41.0495467], [-8.3564814, 41.0500292], [-8.3563942, 41.0504753], [-8.3563481, 41.050692], [-8.3563371, 41.0507352], [-8.3563189, 41.050782], [-8.3562729, 41.0508682], [-8.3562378, 41.0509123], [-8.356192, 41.05095], [-8.3561202, 41.0510014], [-8.3560698, 41.0510261], [-8.3560147, 41.0510437], [-8.3559418, 41.0510594], [-8.3558569, 41.0510642], [-8.355768, 41.0510597], [-8.3556657, 41.0510455], [-8.3555537, 41.050995], [-8.3554016, 41.0508891], [-8.3551198, 41.0506763], [-8.3546253, 41.0502835], [-8.3545201, 41.0502227], [-8.3544195, 41.0501824], [-8.3543117, 41.050152], [-8.3540757, 41.0501356], [-8.3538181, 41.0501239], [-8.3537061, 41.0501038], [-8.353606, 41.0500782], [-8.3535054, 41.0500195], [-8.3534216, 41.049949], [-8.3533789, 41.0499029], [-8.3533471, 41.0498613], [-8.3530821, 41.0495147], [-8.3530157, 41.0494456], [-8.3529104, 41.0493775], [-8.3528458, 41.0493416], [-8.3527776, 41.0493167], [-8.3526938, 41.0492946], [-8.3526063, 41.0492861], [-8.3524905, 41.0492849], [-8.3523662, 41.0492954], [-8.3519453, 41.0493871], [-8.3514281, 41.0494998], [-8.3505092, 41.0497131], [-8.3503428, 41.0497762], [-8.3502747, 41.0498127], [-8.3502233, 41.0498438], [-8.3501422, 41.0499128], [-8.3501052, 41.0499545], [-8.3500779, 41.0500007], [-8.3500416, 41.0500837], [-8.3500222, 41.0501865], [-8.3500327, 41.0502832], [-8.3500697, 41.0503745], [-8.350582, 41.0512946], [-8.3506028, 41.0513645], [-8.3505963, 41.0514488], [-8.3505827, 41.0515222], [-8.350543, 41.0516121], [-8.3504888, 41.0516766], [-8.3504293, 41.051733], [-8.3503698, 41.0517732], [-8.3500769, 41.0519036], [-8.3497623, 41.0520286], [-8.3495276, 41.0520976], [-8.3493944, 41.0521147], [-8.3492756, 41.0521264], [-8.3491331, 41.0521172], [-8.3489533, 41.0520935], [-8.3480965, 41.0519193], [-8.3474899, 41.0517897], [-8.3466902, 41.0516188], [-8.3463112, 41.0515378], [-8.3460929, 41.0515267], [-8.3458638, 41.0515636], [-8.345545, 41.0516894], [-8.3452748, 41.051796], [-8.3451018, 41.0518423], [-8.3448898, 41.0518639], [-8.3446556, 41.0518119], [-8.3443563, 41.0516814], [-8.3441952, 41.0516112], [-8.3436192, 41.0513699], [-8.3430706, 41.0512096], [-8.3429352, 41.0511729], [-8.3427919, 41.0511418], [-8.3424839, 41.0510779], [-8.3422824, 41.0510692], [-8.3422059, 41.051077], [-8.342118, 41.0511133], [-8.3420124, 41.0511569], [-8.3419638, 41.0512038], [-8.3418604, 41.0513035], [-8.3418288, 41.0513598], [-8.3416154, 41.0517396], [-8.341565, 41.051781]]}, "properties": {"highway": "primary", "lanes": "2", "name": "Avenida Marginal", "oneway": "no", "ref": "EN 108", "surface": "asphalt"}}, {"type": "Feature", "geometry": {"type": "LineString", "coordinates": [[-8.4223698, 41.0759869], [-8.4223333, 41.0757864], [-8.4223176, 41.0757002]]}, "properties": {"highway": "primary", "name": "Avenida Jos\u00e9 Joaquim Ferreira", "oneway": "yes", "ref": "EN 108", "surface": "asphalt"}}, {"type": "Feature", "geometry": {"type": "LineString", "coordinates": [[-8.3993142, 41.0610992], [-8.3991405, 41.0605354], [-8.3988281, 41.0595213], [-8.3988014, 41.0594347], [-8.3987005, 41.0591073], [-8.3986776, 41.0590331], [-8.3986289, 41.0588749], [-8.3983611, 41.0579949], [-8.3982941, 41.0578526], [-8.3966562, 41.0556918]]}, "properties": {"highway": "primary", "lanes": "2", "maxspeed": "70", "name": "Avenida Jos\u00e9 Joaquim Ferreira", "oneway": "no", "ref": "EN 108", "surface": "asphalt"}}, {"type": "Feature", "geometry": {"type": "LineString", "coordinates": [[-8.4012538, 41.0677629], [-8.4012073, 41.0676045], [-8.4010677, 41.0671811], [-8.4006934, 41.0654626]]}, "properties": {"highway": "primary", "lanes": "2", "maxspeed": "70", "name": "Avenida Jos\u00e9 Joaquim Ferreira", "oneway": "no", "ref": "EN 108", "surface": "asphalt"}}, {"type": "Feature", "geometry": {"type": "LineString", "coordinates": [[-8.3754836, 41.0525666], [-8.3754463, 41.0524846], [-8.3753979, 41.0523514]]}, "properties": {"highway": "primary", "lanes": "2", "maxspeed": "70", "name": "Avenida Marginal", "oneway": "no", "ref": "EN 108", "surface": "asphalt"}}, {"type": "Feature", "geometry": {"type": "LineString", "coordinates": [[-8.378507, 41.0520878], [-8.3783459, 41.0520967], [-8.3779383, 41.0520883]]}, "properties": {"highway": "primary", "lanes": "2", "maxspeed": "70", "oneway": "no", "ref": "EN 108", "surface": "asphalt"}}, {"type": "Feature", "geometry": {"type": "LineString", "coordinates": [[-8.298608, 41.0801366], [-8.2983417, 41.0802712]]}, "properties": {"highway": "primary", "lanes": "1", "name": "Rua da Pesqueira", "oneway": "yes", "ref": "EN 108", "surface": "asphalt"}}, {"type": "Feature", "geometry": {"type": "LineString", "coordinates": [[-8.2984771, 41.0803825], [-8.298608, 41.0801366]]}, "properties": {"highway": "primary", "lanes": "1", "name": "Rua da Pesqueira", "oneway": "yes", "ref": "EN 108", "surface": "asphalt"}}, {"type": "Feature", "geometry": {"type": "LineString", "coordinates": [[-8.400019, 41.063693], [-8.3988359, 41.0630532]]}, "properties": {"highway": "primary", "lanes": "2", "maxspeed": "70", "name": "Avenida Jos\u00e9 Joaquim Ferreira", "oneway": "no", "ref": "EN 108", "surface": "asphalt"}}, {"type": "Feature", "geometry": {"type": "LineString", "coordinates": [[-8.3010136, 41.0760781], [-8.3007836, 41.0765277], [-8.3007436, 41.0766763], [-8.3006546, 41.0772114], [-8.3005282, 41.0774698], [-8.3002071, 41.0778026], [-8.2997258, 41.0781892], [-8.2989106, 41.0787624], [-8.2987685, 41.0789246], [-8.2986625, 41.07913], [-8.2986013, 41.079344], [-8.2986081, 41.0795135], [-8.2986336, 41.0796343], [-8.2986818, 41.0798033], [-8.298696, 41.0798699], [-8.2987003, 41.0799383], [-8.2986879, 41.0800101], [-8.298658, 41.080075], [-8.298608, 41.0801366]]}, "properties": {"highway": "primary", "lanes": "2", "name": "Rua da Pesqueira", "oneway": "no", "ref": "EN 108", "surface": "asphalt"}}, {"type": "Feature", "geometry": {"type": "LineString", "coordinates": [[-8.341565, 41.051781], [-8.341414, 41.0519052], [-8.341187, 41.0519815], [-8.3410407, 41.0520102], [-8.3403536, 41.0521452], [-8.3401893, 41.0522157], [-8.3393073, 41.052802], [-8.3386721, 41.0532242], [-8.3384433, 41.0535233], [-8.3382864, 41.0536634], [-8.337783, 41.0539225], [-8.3372044, 41.0542467], [-8.3369128, 41.0544823], [-8.3365082, 41.0549485], [-8.3363498, 41.0550467], [-8.3361427, 41.0551082], [-8.335105, 41.0553101], [-8.3349416, 41.0553737], [-8.3347987, 41.0554798], [-8.3344814, 41.0558048], [-8.334179, 41.0561259], [-8.334064, 41.056311], [-8.333938, 41.0567222], [-8.3338623, 41.0568266], [-8.3337511, 41.0569109], [-8.3333183, 41.0571015], [-8.3331078, 41.057197], [-8.3329566, 41.0572912], [-8.3324672, 41.0577365]]}, "properties": {"highway": "primary", "lanes": "2", "name": "Avenida Marginal", "oneway": "no", "ref": "EN 108", "surface": "asphalt"}}, {"type": "Feature", "geometry": {"type": "LineString", "coordinates": [[-8.3324268, 41.0577732], [-8.3323093, 41.0578297], [-8.3321794, 41.057877], [-8.3319905, 41.0578996], [-8.3317689, 41.0579277], [-8.3316198, 41.0579819], [-8.3314706, 41.058056], [-8.3310576, 41.0584256], [-8.3308308, 41.0585714], [-8.3286908, 41.0594834], [-8.3283351, 41.0596436], [-8.3282517, 41.059695], [-8.3281806, 41.059754], [-8.3280912, 41.0598559], [-8.3280495, 41.0599479], [-8.3280292, 41.0599923], [-8.328021, 41.0600529], [-8.3279997, 41.0601793], [-8.3279509, 41.0602828], [-8.3278686, 41.0603747], [-8.3277913, 41.060433], [-8.3277161, 41.060482], [-8.3276297, 41.0605142], [-8.3275919, 41.0605211]]}, "properties": {"highway": "primary", "lanes": "2", "name": "Avenida Marginal", "oneway": "no", "ref": "EN 108", "surface": "asphalt"}}, {"type": "Feature", "geometry": {"type": "LineString", "coordinates": [[-8.3324672, 41.0577365], [-8.3324268, 41.0577732]]}, "properties": {"bridge": "yes", "highway": "primary", "lanes": "2", "layer": "1", "name": "Avenida Marginal", "oneway": "no", "ref": "EN 108", "surface": "asphalt"}}, {"type": "Feature", "geometry": {"type": "LineString", "coordinates": [[-8.3987521, 41.0630019], [-8.398632, 41.062895], [-8.3985649, 41.0627352], [-8.3985625, 41.0625755], [-8.3986232, 41.0624352], [-8.3992452, 41.0616883], [-8.399342, 41.0615], [-8.3993544, 41.0612949], [-8.3993162, 41.0611058], [-8.3993142, 41.0610992]]}, "properties": {"highway": "primary", "lanes": "2", "maxspeed": "70", "name": "Avenida Jos\u00e9 Joaquim Ferreira", "oneway": "no", "ref": "EN 108", "surface": "asphalt"}}, {"type": "Feature", "geometry": {"type": "MultiPolygon", "coordinates": [[[[-8.2984865, 41.0804312], [-8.2984771, 41.0803825], [-8.2984477, 41.0803356], [-8.2984012, 41.0802973], [-8.2983417, 41.0802712], [-8.298267, 41.0802594], [-8.2981912, 41.0802667], [-8.2981228, 41.0802925], [-8.2980782, 41.0803249], [-8.2980468, 41.0803652], [-8.2980309, 41.0804104], [-8.2980317, 41.0804571], [-8.2980467, 41.0804977], [-8.2980743, 41.0805344], [-8.298113, 41.080565], [-8.2981593, 41.0805872], [-8.2982114, 41.0806004], [-8.2982661, 41.0806039], [-8.298336, 41.0805936], [-8.2983984, 41.0805676], [-8.2984471, 41.0805284], [-8.2984774, 41.0804798], [-8.2984865, 41.0804312]]]]}, "properties": {"highway": "primary", "junction": "roundabout", "ref": "EN 108;EN 224"}}]}