{"type": "FeatureCollection", "features": [{"type": "Feature", "geometry": {"type": "LineString", "coordinates": [[-8.773918, 41.5251645], [-8.7742605, 41.5252], [-8.7750739, 41.5253066]]}, "properties": {"highway": "primary", "lanes": "2", "maxspeed": "90", "name": "Variante \u00e0 EN 103-1", "oneway": "no", "ref": "EN 103-1", "surface": "asphalt"}}, {"type": "Feature", "geometry": {"type": "LineString", "coordinates": [[-8.7722016, 41.524921], [-8.7721396, 41.5249786], [-8.7720982, 41.5250457], [-8.7720791, 41.525142], [-8.7721021, 41.5252378], [-8.7721647, 41.5253231], [-8.7722578, 41.5253878], [-8.7723732, 41.5254274], [-8.7724993, 41.5254382], [-8.7726236, 41.525419], [-8.7727338, 41.5253718], [-8.7728188, 41.5253012], [-8.7728643, 41.5252293], [-8.7728831, 41.5251511], [-8.7728739, 41.5250719], [-8.7728373, 41.5249972], [-8.772778, 41.5249341], [-8.7726993, 41.5248844], [-8.7725997, 41.5248496], [-8.7724913, 41.5248364], [-8.7723822, 41.5248456], [-8.7722804, 41.5248765], [-8.7722016, 41.524921]]}, "properties": {"highway": "primary", "junction": "roundabout", "lanes": "2", "maxspeed": "50", "name": "Variante \u00e0 EN 103-1", "ref": "EN 103-1", "surface": "asphalt"}}, {"type": "Feature", "geometry": {"type": "LineString", "coordinates": [[-8.7623407, 41.5294919], [-8.7624109, 41.5294152], [-8.7624915, 41.529348], [-8.7625821, 41.5292934], [-8.7628559, 41.5291498], [-8.7631409, 41.5290084], [-8.7667169, 41.5273598], [-8.7698941, 41.5258941], [-8.770195, 41.5257611], [-8.7704907, 41.5256373]]}, "properties": {"highway": "primary", "lanes": "2", "lit": "no", "maxspeed": "90", "name": "Variante \u00e0 EN 103-1", "oneway": "yes", "ref": "EN 103-1", "shoulder": "right", "smoothness": "intermediate", "surface": "asphalt"}}, {"type": "Feature", "geometry": {"type": "LineString", "coordinates": [[-8.7720982, 41.5250457], [-8.7720091, 41.5250953], [-8.7718852, 41.5251565], [-8.7716888, 41.5252075], [-8.771274, 41.5253069], [-8.7709653, 41.5253944], [-8.7706111, 41.5255176], [-8.770157, 41.5257006], [-8.7694594, 41.5260162], [-8.7685958, 41.5264153], [-8.7678399, 41.5267646], [-8.7666893, 41.5272942], [-8.7658493, 41.5276824], [-8.7646475, 41.5282372], [-8.7639391, 41.5285645]]}, "properties": {"highway": "primary", "lanes": "2", "maxspeed": "90", "name": "Variante \u00e0 EN 103-1", "oneway": "yes", "ref": "EN 103-1", "shoulder": "right", "surface": "asphalt"}}, {"type": "Feature", "geometry": {"type": "LineString", "coordinates": [[-8.7728188, 41.5253012], [-8.7730029, 41.5252048], [-8.7730653, 41.525187], [-8.7730994, 41.5251773], [-8.7732611, 41.5251584], [-8.7738381, 41.5251583]]}, "properties": {"highway": "primary", "lanes": "1", "maxspeed": "90", "name": "Variante \u00e0 EN 103-1", "oneway": "yes", "ref": "EN 103-1", "surface": "asphalt"}}, {"type": "Feature", "geometry": {"type": "LineString", "coordinates": [[-8.7738381, 41.5251583], [-8.7731852, 41.5250728], [-8.7730709, 41.5250558], [-8.7729122, 41.5250259], [-8.7728373, 41.5249972]]}, "properties": {"highway": "primary", "lanes": "1", "maxspeed": "50", "name": "Variante \u00e0 EN 103-1", "oneway": "yes", "ref": "EN 103-1", "surface": "asphalt"}}, {"type": "Feature", "geometry": {"type": "LineString", "coordinates": [[-8.7757977, 41.5254035], [-8.7761738, 41.5254949], [-8.7763675, 41.5255912]]}, "properties": {"highway": "primary", "lanes": "1", "maxspeed": "50", "name": "Variante \u00e0 EN 103-1", "oneway": "yes", "ref": "EN 103-1", "surface": "asphalt"}}, {"type": "Feature", "geometry": {"type": "LineString", "coordinates": [[-8.7763592, 41.5253749], [-8.7761891, 41.5253951], [-8.7757977, 41.5254035]]}, "properties": {"highway": "primary", "lanes": "1", "maxspeed": "50", "name": "Variante \u00e0 EN 103-1", "oneway": "yes", "ref": "EN 103-1", "surface": "asphalt"}}, {"type": "Feature", "geometry": {"type": "LineString", "coordinates": [[-8.7617746, 41.5297042], [-8.7618647, 41.5297431], [-8.7619622, 41.5297601], [-8.7620621, 41.5297558], [-8.7621562, 41.5297304], [-8.7622385, 41.5296847], [-8.7622995, 41.5296232], [-8.7623341, 41.529551], [-8.7623407, 41.5294919], [-8.7623261, 41.5294249], [-8.762289, 41.529363], [-8.7622318, 41.5293103], [-8.7621585, 41.5292705], [-8.7620915, 41.5292497], [-8.7620203, 41.5292397], [-8.7619168, 41.529245], [-8.76182, 41.5292728], [-8.7617384, 41.5293207], [-8.7616867, 41.5293737], [-8.7616542, 41.5294347], [-8.7616432, 41.5294998], [-8.7616586, 41.5295769], [-8.7617038, 41.5296471], [-8.7617746, 41.5297042]]}, "properties": {"highway": "primary", "junction": "roundabout", "lanes": "2", "lit": "yes", "name": "Variante \u00e0 EN 103-1", "ref": "EN 103-1", "surface": "asphalt"}}, {"type": "Feature", "geometry": {"type": "LineString", "coordinates": [[-8.7505028, 41.5293717], [-8.7512152, 41.529506]]}, "properties": {"highway": "primary", "lanes": "1", "maxspeed": "60", "name": "Variante \u00e0 EN 103-1", "oneway": "yes", "ref": "EN 103-1", "surface": "asphalt"}}, {"type": "Feature", "geometry": {"type": "LineString", "coordinates": [[-8.6451145, 41.5291372], [-8.6456122, 41.528829], [-8.6461836, 41.5284751], [-8.6465126, 41.5282669], [-8.646536, 41.5282531], [-8.6468229, 41.5280699], [-8.6471573, 41.527815]]}, "properties": {"highway": "primary", "maxspeed": "50", "name": "Rua Doutor Francisco S\u00e1 Carneiro", "ref": "EN 103-1", "surface": "asphalt"}}, {"type": "Feature", "geometry": {"type": "LineString", "coordinates": [[-8.6442809, 41.5297848], [-8.6442671, 41.5297369], [-8.6442329, 41.5296951], [-8.644182, 41.5296641], [-8.6441204, 41.5296476], [-8.6440823, 41.5296454], [-8.6440445, 41.5296488], [-8.6439945, 41.5296626], [-8.6439513, 41.5296861], [-8.6439183, 41.5297175], [-8.6439012, 41.5297462], [-8.6438926, 41.529777], [-8.6438975, 41.5298263], [-8.6439241, 41.5298716], [-8.6439693, 41.5299076], [-8.6440281, 41.5299302], [-8.6440894, 41.5299368], [-8.6441063, 41.5299346], [-8.6441504, 41.5299287], [-8.644205, 41.5299067], [-8.6442475, 41.5298729], [-8.6442628, 41.5298484], [-8.6442737, 41.5298309], [-8.6442809, 41.5297848]]}, "properties": {"highway": "primary", "junction": "roundabout", "lanes": "2", "ref": "EN 103-1", "surface": "asphalt"}}, {"type": "Feature", "geometry": {"type": "LineString", "coordinates": [[-8.6445548, 41.5294303], [-8.6442519, 41.5296029], [-8.6442198, 41.5296145], [-8.6441204, 41.5296476]]}, "properties": {"highway": "primary", "lanes": "2", "name": "Rua Doutor Francisco S\u00e1 Carneiro", "oneway": "yes", "ref": "EN 103-1", "surface": "asphalt"}}, {"type": "Feature", "geometry": {"type": "LineString", "coordinates": [[-8.6442809, 41.5297848], [-8.6443535, 41.5296926], [-8.644901, 41.529293], [-8.6451145, 41.5291372]]}, "properties": {"highway": "primary", "lanes": "1", "name": "Rua Doutor Francisco S\u00e1 Carneiro", "oneway": "yes", "ref": "EN 103-1", "surface": "asphalt"}}, {"type": "Feature", "geometry": {"type": "LineString", "coordinates": [[-8.751808, 41.5295246], [-8.7511015, 41.5293853]]}, "properties": {"bridge": "yes", "highway": "primary", "lanes": "3", "layer": "1", "maxspeed": "90", "name": "Variante \u00e0 EN 103-1", "oneway": "yes", "placement": "right_of:2", "ref": "EN 103-1", "surface": "asphalt", "turn:lanes": "left|through|none"}}, {"type": "Feature", "geometry": {"type": "LineString", "coordinates": [[-8.7512152, 41.529506], [-8.7518583, 41.5296345]]}, "properties": {"bridge": "yes", "highway": "primary", "lanes": "2", "layer": "1", "name": "Variante \u00e0 EN 103-1", "oneway": "yes", "ref": "EN 103-1", "surface": "asphalt"}}, {"type": "Feature", "geometry": {"type": "LineString", "coordinates": [[-8.7486303, 41.528934], [-8.7471395, 41.5286721], [-8.7468482, 41.5286452]]}, "properties": {"highway": "primary", "lanes": "1", "maxspeed": "90", "name": "Variante \u00e0 EN 103-1", "oneway": "yes", "ref": "EN 103-1"}}, {"type": "Feature", "geometry": {"type": "LineString", "coordinates": [[-8.7375671, 41.5294984], [-8.7376248, 41.5294422], [-8.7377087, 41.5294032], [-8.7379267, 41.5293287], [-8.7383523, 41.5292132]]}, "properties": {"highway": "primary", "lanes": "1", "maxspeed": "40", "name": "Variante \u00e0 EN 103-1", "oneway": "yes", "ref": "EN 103-1"}}, {"type": "Feature", "geometry": {"type": "LineString", "coordinates": [[-8.7375235, 41.5295632], [-8.7375671, 41.5294984], [-8.7375815, 41.5294368], [-8.7375732, 41.5293745], [-8.737543, 41.5293162], [-8.7374929, 41.5292661], [-8.7374463, 41.529237], [-8.737393, 41.5292153], [-8.7373193, 41.5291998], [-8.7372428, 41.5291983], [-8.7371681, 41.529211], [-8.7370882, 41.5292432], [-8.7370242, 41.5292915], [-8.7369819, 41.5293516], [-8.7369654, 41.5294103], [-8.7369695, 41.5294701], [-8.7369941, 41.5295272], [-8.7370375, 41.5295775], [-8.7371114, 41.529625], [-8.7371931, 41.5296514], [-8.7372814, 41.5296592], [-8.7373691, 41.5296478], [-8.7374553, 41.5296147], [-8.7375235, 41.5295632]]}, "properties": {"highway": "primary", "junction": "roundabout", "lanes": "2", "maxspeed": "40", "name": "Variante \u00e0 EN 103-1", "ref": "EN 103-1"}}, {"type": "Feature", "geometry": {"type": "LineString", "coordinates": [[-8.7240205, 41.5340025], [-8.72402, 41.5339148], [-8.7240384, 41.5338361], [-8.7242244, 41.5335462]]}, "properties": {"highway": "primary", "lanes": "1", "maxspeed": "90", "name": "Variante \u00e0 EN 103-1", "oneway": "yes", "ref": "EN 103-1"}}, {"type": "Feature", "geometry": {"type": "LineString", "coordinates": [[-8.7234931, 41.5339868], [-8.7234076, 41.5339983], [-8.7232645, 41.5340171], [-8.7230703, 41.5340109], [-8.7228725, 41.5339968], [-8.7225724, 41.5339916]]}, "properties": {"highway": "primary", "maxspeed": "90", "name": "Rua de Rodilh\u00f5es", "oneway": "yes", "ref": "EN 103-1", "surface": "asphalt"}}, {"type": "Feature", "geometry": {"type": "LineString", "coordinates": [[-8.7225724, 41.5339916], [-8.7229186, 41.5340532], [-8.7232535, 41.5340974], [-8.7234058, 41.5341389], [-8.7234639, 41.5341924]]}, "properties": {"highway": "primary", "maxspeed": "60", "name": "Rua de Rodilh\u00f5es", "oneway": "yes", "ref": "EN 103-1", "surface": "asphalt"}}, {"type": "Feature", "geometry": {"type": "LineString", "coordinates": [[-8.7239478, 41.5342869], [-8.7240013, 41.5342433], [-8.7240483, 41.5341657], [-8.7240543, 41.5340806], [-8.7240205, 41.5340025], [-8.723968, 41.5339497], [-8.7238837, 41.5339047], [-8.7237842, 41.5338833], [-8.7236996, 41.5338851], [-8.723619, 41.5339041], [-8.7235484, 41.5339389], [-8.7234931, 41.5339868], [-8.7234545, 41.5340519], [-8.7234445, 41.5341227], [-8.7234639, 41.5341924], [-8.7234964, 41.5342395], [-8.7235584, 41.5342901], [-8.7236376, 41.5343246], [-8.7237269, 41.5343401], [-8.7238059, 41.534337], [-8.7238812, 41.5343188], [-8.7239478, 41.5342869]]}, "properties": {"highway": "primary", "junction": "roundabout", "maxspeed": "40", "ref": "EN 103-1", "surface": "asphalt"}}, {"type": "Feature", "geometry": {"type": "LineString", "coordinates": [[-8.7427025, 41.5284502], [-8.7430236, 41.5284262], [-8.7436901, 41.5283908], [-8.7442823, 41.528389], [-8.7447108, 41.528398]]}, "properties": {"bridge": "yes", "highway": "primary", "lanes": "2", "layer": "1", "maxspeed": "90", "name": "Variante \u00e0 EN 103-1", "oneway": "no", "ref": "EN 103-1"}}, {"type": "Feature", "geometry": {"type": "LineString", "coordinates": [[-8.7115142, 41.5323646], [-8.7120863, 41.5324881], [-8.7123649, 41.5325405], [-8.7126459, 41.5325708], [-8.7128287, 41.5325734], [-8.7141766, 41.5325153], [-8.7142262, 41.5325132]]}, "properties": {"highway": "primary", "lanes": "2", "name": "Rua Frei Pedro de Perelhal", "oneway": "no", "ref": "EN 103-1", "surface": "asphalt"}}, {"type": "Feature", "geometry": {"type": "LineString", "coordinates": [[-8.7115142, 41.5323646], [-8.7112327, 41.5322563]]}, "properties": {"highway": "primary", "maxspeed": "50", "oneway": "yes", "ref": "EN 103-1", "surface": "asphalt"}}, {"type": "Feature", "geometry": {"type": "LineString", "coordinates": [[-8.7111953, 41.5323722], [-8.7115142, 41.5323646]]}, "properties": {"highway": "primary", "maxspeed": "50", "oneway": "yes", "ref": "EN 103-1", "surface": "asphalt"}}, {"type": "Feature", "geometry": {"type": "LineString", "coordinates": [[-8.711074, 41.532407], [-8.7111184, 41.5324044], [-8.71116, 41.5323925], [-8.7111953, 41.5323722], [-8.7112202, 41.5323472], [-8.7112353, 41.5323181], [-8.7112396, 41.5322871], [-8.7112327, 41.5322563], [-8.7112178, 41.5322311], [-8.7111953, 41.5322092], [-8.7111516, 41.5321857], [-8.7110999, 41.5321748], [-8.7110463, 41.5321776], [-8.7110192, 41.5321848], [-8.7109942, 41.5321955], [-8.7109605, 41.5322197], [-8.710938, 41.5322503], [-8.7109285, 41.5322846], [-8.7109331, 41.5323194], [-8.7109531, 41.5323538], [-8.7109867, 41.5323817], [-8.7110305, 41.5324002], [-8.711074, 41.532407]]}, "properties": {"highway": "primary", "junction": "roundabout", "ref": "EN 103-1", "surface": "asphalt"}}, {"type": "Feature", "geometry": {"type": "LineString", "coordinates": [[-8.7105598, 41.5321847], [-8.7107232, 41.5322141], [-8.7108681, 41.5322683], [-8.7109331, 41.5323194]]}, "properties": {"highway": "primary", "oneway": "yes", "ref": "EN 103-1", "surface": "asphalt"}}, {"type": "Feature", "geometry": {"type": "LineString", "coordinates": [[-8.7109942, 41.5321955], [-8.7108551, 41.5321751], [-8.7107198, 41.5321707], [-8.7105598, 41.5321847]]}, "properties": {"highway": "primary", "oneway": "yes", "ref": "EN 103-1", "surface": "asphalt"}}, {"type": "Feature", "geometry": {"type": "LineString", "coordinates": [[-8.7527666, 41.5298122], [-8.7561059, 41.5304203], [-8.7563901, 41.5304678], [-8.7566612, 41.5305095], [-8.7568695, 41.5305382], [-8.7570792, 41.5305639], [-8.7573043, 41.530587], [-8.7575419, 41.5306042], [-8.7577676, 41.5306128], [-8.7579816, 41.5306134], [-8.7582107, 41.5306076], [-8.7584575, 41.5305968], [-8.7587523, 41.5305747], [-8.7590221, 41.5305425], [-8.7593029, 41.5304973]]}, "properties": {"highway": "primary", "lanes": "2", "lit": "no", "maxspeed": "90", "name": "Variante \u00e0 EN 103-1", "oneway": "yes", "ref": "EN 103-1", "surface": "asphalt"}}, {"type": "Feature", "geometry": {"type": "LineString", "coordinates": [[-8.7616432, 41.5294998], [-8.7615954, 41.5295621], [-8.761535, 41.5296208], [-8.7614174, 41.5297077], [-8.7611255, 41.5298501], [-8.7607221, 41.5300205], [-8.7603707, 41.5301511], [-8.7600752, 41.5302458], [-8.7598103, 41.5303156], [-8.7595601, 41.5303744], [-8.7591855, 41.5304445], [-8.7589221, 41.5304834], [-8.7586809, 41.5305108], [-8.7583859, 41.5305344], [-8.7581971, 41.5305425], [-8.757983, 41.5305458], [-8.7577646, 41.5305437], [-8.7575622, 41.5305375], [-8.7573475, 41.5305238], [-8.7570547, 41.5304942], [-8.7567044, 41.5304493], [-8.7564176, 41.5304053], [-8.7561367, 41.5303559], [-8.7558549, 41.5303035], [-8.7546958, 41.5300665]]}, "properties": {"highway": "primary", "lanes": "2", "lit": "no", "maxspeed": "90", "name": "Variante \u00e0 EN 103-1", "oneway": "yes", "ref": "EN 103-1", "surface": "asphalt"}}, {"type": "Feature", "geometry": {"type": "LineString", "coordinates": [[-8.7383523, 41.5292132], [-8.7379149, 41.5292692], [-8.7376637, 41.5293011], [-8.7375851, 41.5293011], [-8.7374929, 41.5292661]]}, "properties": {"highway": "primary", "lanes": "1", "maxspeed": "40", "name": "Variante \u00e0 EN 103-1", "oneway": "yes", "ref": "EN 103-1"}}, {"type": "Feature", "geometry": {"type": "LineString", "coordinates": [[-8.7406616, 41.5287672], [-8.7418662, 41.5285498], [-8.7424237, 41.5284739], [-8.7427025, 41.5284502]]}, "properties": {"highway": "primary", "lanes": "2", "maxspeed": "90", "name": "Variante \u00e0 EN 103-1", "oneway": "no", "overtaking": "no", "ref": "EN 103-1"}}, {"type": "Feature", "geometry": {"type": "LineString", "coordinates": [[-8.7369819, 41.5293516], [-8.7368974, 41.5294247], [-8.7367662, 41.5294886], [-8.7361791, 41.5296334]]}, "properties": {"highway": "primary", "lanes": "1", "maxspeed": "40", "name": "Variante \u00e0 EN 103-1", "oneway": "yes", "ref": "EN 103-1"}}, {"type": "Feature", "geometry": {"type": "LineString", "coordinates": [[-8.7361791, 41.5296334], [-8.7367973, 41.529547], [-8.7369598, 41.529551], [-8.7370375, 41.5295775]]}, "properties": {"highway": "primary", "lanes": "1", "maxspeed": "40", "name": "Variante \u00e0 EN 103-1", "oneway": "yes", "ref": "EN 103-1"}}, {"type": "Feature", "geometry": {"type": "LineString", "coordinates": [[-8.7242244, 41.5335462], [-8.723948, 41.5338055], [-8.7238568, 41.5338574], [-8.7237842, 41.5338833]]}, "properties": {"highway": "primary", "lanes": "1", "maxspeed": "40", "name": "Variante \u00e0 EN 103-1", "oneway": "yes", "ref": "EN 103-1"}}, {"type": "Feature", "geometry": {"type": "LineString", "coordinates": [[-8.7242244, 41.5335462], [-8.7247355, 41.5329272], [-8.7249395, 41.5326925], [-8.7251789, 41.5324577], [-8.7255672, 41.5321577], [-8.7258948, 41.5319455], [-8.7261356, 41.531808], [-8.7263953, 41.5316705], [-8.7268033, 41.5315107], [-8.7271514, 41.5314016], [-8.7275997, 41.5312858], [-8.7280108, 41.5311962], [-8.735226, 41.529815]]}, "properties": {"highway": "primary", "lanes": "2", "maxspeed": "90", "name": "Variante \u00e0 EN 103-1", "oneway": "no", "overtaking": "no", "ref": "EN 103-1"}}, {"type": "Feature", "geometry": {"type": "LineString", "coordinates": [[-8.7527058, 41.5296999], [-8.751808, 41.5295246]]}, "properties": {"highway": "primary", "lanes": "1", "maxspeed": "90", "name": "Variante \u00e0 EN 103-1", "oneway": "yes", "ref": "EN 103-1", "surface": "asphalt"}}, {"type": "Feature", "geometry": {"type": "LineString", "coordinates": [[-8.7468482, 41.5286452], [-8.7471055, 41.5287213]]}, "properties": {"highway": "primary", "lanes": "1", "maxspeed": "90", "oneway": "yes", "ref": "EN 103-1"}}, {"type": "Feature", "geometry": {"type": "LineString", "coordinates": [[-8.6937971, 41.5318735], [-8.6939736, 41.531869], [-8.6947744, 41.5318327], [-8.6949331, 41.5318145], [-8.6950756, 41.5317833], [-8.6953314, 41.5317201], [-8.6955736, 41.5316538], [-8.6959968, 41.531537], [-8.6961703, 41.531489], [-8.6965879, 41.5313835], [-8.6966738, 41.5313663], [-8.6967902, 41.5313541], [-8.6970312, 41.5313432], [-8.6976974, 41.531335], [-8.6978709, 41.5313335], [-8.6981151, 41.531334], [-8.6991414, 41.5313216], [-8.6993942, 41.5313312], [-8.699675, 41.5313663], [-8.7001868, 41.5315072], [-8.7005534, 41.5315967], [-8.7008241, 41.5316503], [-8.7016409, 41.5317243], [-8.7018502, 41.5317433], [-8.7046756, 41.5319768], [-8.7061701, 41.5321028], [-8.7067161, 41.5321762], [-8.7069531, 41.532217], [-8.7074317, 41.532322], [-8.7075537, 41.5323534], [-8.7077736, 41.5324111], [-8.7080327, 41.5324589], [-8.7083447, 41.5324897], [-8.7086311, 41.5324667], [-8.7099591, 41.5322442], [-8.7103068, 41.5321945], [-8.7104162, 41.5321838], [-8.710488, 41.5321843], [-8.7105598, 41.5321847]]}, "properties": {"highway": "primary", "lanes": "2", "name": "Rua Frei Pedro de Perelhal", "oneway": "no", "ref": "EN 103-1", "surface": "asphalt"}}, {"type": "Feature", "geometry": {"type": "LineString", "coordinates": [[-8.6816374, 41.5299309], [-8.6820156, 41.5300904], [-8.6822198, 41.5301747], [-8.6822551, 41.5301913], [-8.6826367, 41.5303504], [-8.6829366, 41.5304695], [-8.6833234, 41.5305997], [-8.6836436, 41.53069], [-8.6839782, 41.5307632], [-8.6841443, 41.5307873], [-8.6845382, 41.5308344], [-8.6880488, 41.5308946]]}, "properties": {"highway": "primary", "name": "Rua Frei Pedro de Perelhal", "oneway": "no", "ref": "EN 103-1", "surface": "asphalt"}}, {"type": "Feature", "geometry": {"type": "LineString", "coordinates": [[-8.7142262, 41.5325132], [-8.7153175, 41.5324803]]}, "properties": {"highway": "primary", "lanes": "2", "name": "Rua Frei Pedro de Perelhal", "oneway": "no", "ref": "EN 103-1", "surface": "asphalt"}}, {"type": "Feature", "geometry": {"type": "LineString", "coordinates": [[-8.6910176, 41.5313966], [-8.6911598, 41.531429], [-8.6913717, 41.5314772], [-8.6917326, 41.5315593], [-8.6929983, 41.5318471], [-8.6932046, 41.531872], [-8.6933143, 41.531882], [-8.6934427, 41.5318825], [-8.6937232, 41.5318754], [-8.6937971, 41.5318735]]}, "properties": {"highway": "primary", "lanes": "2", "name": "Rua Frei Pedro de Perelhal", "oneway": "no", "ref": "EN 103-1", "surface": "asphalt"}}, {"type": "Feature", "geometry": {"type": "LineString", "coordinates": [[-8.6880488, 41.5308946], [-8.6881918, 41.530897], [-8.6885869, 41.5309048], [-8.6888344, 41.5309235], [-8.6891243, 41.5309652], [-8.6894725, 41.5310433], [-8.6896412, 41.531083], [-8.6901383, 41.5311963], [-8.6907697, 41.5313401], [-8.6910176, 41.5313966]]}, "properties": {"highway": "primary", "name": "Rua Frei Pedro de Perelhal", "oneway": "no", "ref": "EN 103-1", "surface": "asphalt"}}, {"type": "Feature", "geometry": {"type": "LineString", "coordinates": [[-8.6489184, 41.5263109], [-8.6491759, 41.5262081], [-8.6494334, 41.5261888], [-8.6504171, 41.5262257], [-8.6506608, 41.5262081], [-8.6509574, 41.5261627], [-8.6512815, 41.5260499], [-8.6517223, 41.5258966], [-8.651899, 41.5258351], [-8.6519389, 41.5258261], [-8.6524909, 41.5256493], [-8.652592, 41.5256169], [-8.6526623, 41.5255988], [-8.6528773, 41.5255663]]}, "properties": {"highway": "primary", "name": "Rua Doutor Francisco S\u00e1 Carneiro", "ref": "EN 103-1", "surface": "asphalt"}}, {"type": "Feature", "geometry": {"type": "LineString", "coordinates": [[-8.749434, 41.5291648], [-8.7505028, 41.5293717]]}, "properties": {"highway": "primary", "lanes": "1", "maxspeed": "60", "name": "Variante \u00e0 EN 103-1", "oneway": "yes", "ref": "EN 103-1", "surface": "asphalt"}}, {"type": "Feature", "geometry": {"type": "LineString", "coordinates": [[-8.7471055, 41.5287213], [-8.748544, 41.5289997], [-8.749434, 41.5291648]]}, "properties": {"highway": "primary", "lanes": "1", "maxspeed": "60", "name": "Variante \u00e0 EN 103-1", "oneway": "yes", "ref": "EN 103-1", "surface": "asphalt", "turn:lanes": "through;right"}}, {"type": "Feature", "geometry": {"type": "LineString", "coordinates": [[-8.7504225, 41.5292665], [-8.7494899, 41.5290805]]}, "properties": {"highway": "primary", "lanes": "2", "maxspeed": "90", "name": "Variante \u00e0 EN 103-1", "oneway": "yes", "ref": "EN 103-1", "surface": "asphalt", "turn:lanes": "none|merge_to_left"}}, {"type": "Feature", "geometry": {"type": "LineString", "coordinates": [[-8.7511015, 41.5293853], [-8.7504225, 41.5292665]]}, "properties": {"highway": "primary", "lanes": "2", "maxspeed": "90", "name": "Variante \u00e0 EN 103-1", "oneway": "yes", "ref": "EN 103-1", "surface": "asphalt", "turn:lanes": "through|merge_to_left"}}, {"type": "Feature", "geometry": {"type": "LineString", "coordinates": [[-8.7537236, 41.5298932], [-8.7527058, 41.5296999]]}, "properties": {"destination": "Viana do Castelo;Caminha;Braga;Barcelos", "destination:ref": "A 28;EN 103-1", "highway": "primary", "lanes": "1", "maxspeed": "90", "name": "Variante \u00e0 EN 103-1", "oneway": "yes", "ref": "EN 103-1", "surface": "asphalt"}}, {"type": "Feature", "geometry": {"type": "LineString", "coordinates": [[-8.7494899, 41.5290805], [-8.7486303, 41.528934]]}, "properties": {"highway": "primary", "lanes": "1", "maxspeed": "90", "name": "Variante \u00e0 EN 103-1", "oneway": "yes", "placement": "transition", "ref": "EN 103-1", "surface": "asphalt"}}, {"type": "Feature", "geometry": {"type": "LineString", "coordinates": [[-8.7383523, 41.5292132], [-8.7398185, 41.5289248]]}, "properties": {"highway": "primary", "lanes": "2", "maxspeed:backward": "60", "maxspeed:forward": "90", "name": "Variante \u00e0 EN 103-1", "oneway": "no", "overtaking": "no", "ref": "EN 103-1"}}, {"type": "Feature", "geometry": {"type": "LineString", "coordinates": [[-8.7602668, 41.5302644], [-8.7604282, 41.5302099], [-8.7607753, 41.5300828], [-8.7611739, 41.5299167], [-8.7614949, 41.5298053], [-8.7616131, 41.5297639], [-8.7617424, 41.5297469], [-8.7618647, 41.5297431]]}, "properties": {"highway": "primary", "lanes": "2", "lit": "no", "maxspeed": "50", "name": "Variante \u00e0 EN 103-1", "oneway": "yes", "ref": "EN 103-1", "surface": "asphalt"}}, {"type": "Feature", "geometry": {"type": "LineString", "coordinates": [[-8.7518583, 41.5296345], [-8.7523092, 41.529725]]}, "properties": {"highway": "primary", "lanes": "3", "maxspeed": "60", "name": "Variante \u00e0 EN 103-1", "oneway": "yes", "placement": "right_of:2", "ref": "EN 103-1", "surface": "asphalt", "turn:lanes": "left|through|none"}}, {"type": "Feature", "geometry": {"type": "LineString", "coordinates": [[-8.7447108, 41.528398], [-8.7451668, 41.5284202], [-8.7455778, 41.5284596], [-8.7459996, 41.5285115], [-8.7464306, 41.5285733], [-8.7468482, 41.5286452]]}, "properties": {"highway": "primary", "lanes": "2", "maxspeed": "90", "name": "Variante \u00e0 EN 103-1", "oneway": "no", "overtaking": "no", "ref": "EN 103-1"}}, {"type": "Feature", "geometry": {"type": "LineString", "coordinates": [[-8.7398185, 41.5289248], [-8.7400797, 41.5288723], [-8.7406616, 41.5287672]]}, "properties": {"highway": "primary", "lanes": "2", "maxspeed": "90", "name": "Variante \u00e0 EN 103-1", "oneway": "no", "overtaking": "no", "ref": "EN 103-1"}}, {"type": "Feature", "geometry": {"type": "LineString", "coordinates": [[-8.735226, 41.529815], [-8.7361791, 41.5296334]]}, "properties": {"highway": "primary", "lanes": "2", "maxspeed:backward": "90", "maxspeed:forward": "40", "name": "Variante \u00e0 EN 103-1", "oneway": "no", "overtaking": "no", "ref": "EN 103-1"}}, {"type": "Feature", "geometry": {"type": "LineString", "coordinates": [[-8.6528773, 41.5255663], [-8.6532809, 41.5255461], [-8.6538358, 41.5255526], [-8.6542469, 41.5255701], [-8.6543349, 41.5255822], [-8.6546745, 41.5256291], [-8.654986, 41.5257278], [-8.6552747, 41.5258675], [-8.6554932, 41.5260082], [-8.6556289, 41.5261426], [-8.6556803, 41.5263045], [-8.6556475, 41.5264908], [-8.6553053, 41.5271639], [-8.6552065, 41.5273823], [-8.6551808, 41.5275462], [-8.6552184, 41.5277181], [-8.6553643, 41.5278466], [-8.655536, 41.5279366], [-8.6557591, 41.5279944], [-8.6559737, 41.5279816], [-8.6564103, 41.5278903], [-8.6572097, 41.5276731], [-8.6587461, 41.5272961], [-8.6599597, 41.5271255], [-8.6603167, 41.5271334], [-8.6615717, 41.5272848], [-8.661649, 41.5272941]]}, "properties": {"highway": "primary", "ref": "EN 103-1", "surface": "asphalt"}}, {"type": "Feature", "geometry": {"type": "LineString", "coordinates": [[-8.661649, 41.5272941], [-8.6620911, 41.5273459], [-8.662478, 41.5273913], [-8.6625746, 41.5274026], [-8.6651871, 41.5275347], [-8.6657686, 41.5275641], [-8.667051, 41.5276421], [-8.6675437, 41.5276698], [-8.6678949, 41.5276688], [-8.6680843, 41.5276634], [-8.668343, 41.5276287], [-8.6689586, 41.5275038], [-8.6696551, 41.5273647], [-8.6698157, 41.5273401], [-8.6699727, 41.5273341], [-8.6702284, 41.527355], [-8.6713081, 41.5275929], [-8.671622, 41.5276644], [-8.6716939, 41.5276808], [-8.6718496, 41.527718], [-8.6721888, 41.5277956], [-8.672569, 41.5278797], [-8.6728316, 41.5279554], [-8.6730727, 41.5280471], [-8.6743885, 41.5285991], [-8.6745569, 41.5286687], [-8.6750338, 41.528872], [-8.6752287, 41.5289378], [-8.6753962, 41.5289716], [-8.6755458, 41.5289973], [-8.676163, 41.5290589], [-8.6764828, 41.5291105], [-8.6768127, 41.5291935], [-8.6771232, 41.5292765], [-8.6774657, 41.5293695], [-8.6777318, 41.5294209], [-8.6781352, 41.5294658], [-8.6786692, 41.5294963], [-8.6791357, 41.5295198], [-8.6793359, 41.5295252]]}, "properties": {"highway": "primary", "name": "Rua Afonso Nunes de Mariz", "ref": "EN 103-1", "surface": "asphalt"}}, {"type": "Feature", "geometry": {"type": "LineString", "coordinates": [[-8.7153175, 41.5324803], [-8.7154641, 41.5324768], [-8.7160567, 41.5324609], [-8.7164532, 41.5324616], [-8.7168404, 41.5324968], [-8.7172697, 41.532561], [-8.7176973, 41.5326563], [-8.7181495, 41.532815], [-8.7184923, 41.5329637], [-8.7190006, 41.533218], [-8.7195719, 41.5334851], [-8.7200708, 41.5336497], [-8.7204857, 41.5337478]]}, "properties": {"highway": "primary", "lanes": "2", "name": "Rua de Rodilh\u00f5es", "oneway": "no", "ref": "EN 103-1", "surface": "asphalt"}}, {"type": "Feature", "geometry": {"type": "LineString", "coordinates": [[-8.7738381, 41.5251583], [-8.773918, 41.5251645]]}, "properties": {"highway": "primary", "lanes": "2", "maxspeed:backward": "50", "maxspeed:forward": "90", "oneway": "no", "ref": "EN 103-1", "surface": "asphalt"}}, {"type": "Feature", "geometry": {"type": "LineString", "coordinates": [[-8.7750739, 41.5253066], [-8.7757977, 41.5254035]]}, "properties": {"highway": "primary", "lanes": "2", "maxspeed:backward": "90", "maxspeed:forward": "50", "name": "Variante \u00e0 EN 103-1", "oneway": "no", "ref": "EN 103-1", "surface": "asphalt"}}, {"type": "Feature", "geometry": {"type": "LineString", "coordinates": [[-8.7704907, 41.5256373], [-8.7707375, 41.5255431], [-8.7710971, 41.5254252]]}, "properties": {"highway": "primary", "lanes": "2", "maxspeed": "70", "name": "Variante \u00e0 EN 103-1", "oneway": "yes", "ref": "EN 103-1", "surface": "asphalt"}}, {"type": "Feature", "geometry": {"type": "LineString", "coordinates": [[-8.7710971, 41.5254252], [-8.771256, 41.5253814], [-8.7714389, 41.5253424], [-8.7717069, 41.5253016], [-8.7719066, 41.525286], [-8.7720511, 41.5252916], [-8.7721647, 41.5253231]]}, "properties": {"highway": "primary", "lanes": "2", "maxspeed": "50", "name": "Variante \u00e0 EN 103-1", "oneway": "yes", "ref": "EN 103-1", "surface": "asphalt"}}, {"type": "Feature", "geometry": {"type": "LineString", "coordinates": [[-8.7639391, 41.5285645], [-8.7634924, 41.5287706], [-8.7633444, 41.5288392]]}, "properties": {"highway": "primary", "lanes": "2", "maxspeed": "70", "name": "Variante \u00e0 EN 103-1", "oneway": "yes", "ref": "EN 103-1", "surface": "asphalt"}}, {"type": "Feature", "geometry": {"type": "LineString", "coordinates": [[-8.7633444, 41.5288392], [-8.7628161, 41.5290813], [-8.7624884, 41.529207], [-8.7622602, 41.5292691], [-8.7621585, 41.5292705]]}, "properties": {"highway": "primary", "lanes": "2", "lit": "no", "maxspeed": "50", "name": "Variante \u00e0 EN 103-1", "oneway": "yes", "ref": "EN 103-1", "surface": "asphalt"}}, {"type": "Feature", "geometry": {"type": "LineString", "coordinates": [[-8.7523092, 41.529725], [-8.7527666, 41.5298122]]}, "properties": {"highway": "primary", "lanes": "2", "maxspeed": "60", "name": "Variante \u00e0 EN 103-1", "oneway": "yes", "ref": "EN 103-1", "surface": "asphalt"}}, {"type": "Feature", "geometry": {"type": "LineString", "coordinates": [[-8.6451145, 41.5291372], [-8.6445548, 41.5294303]]}, "properties": {"highway": "primary", "lanes": "1", "name": "Rua Doutor Francisco S\u00e1 Carneiro", "oneway": "yes", "ref": "EN 103-1", "surface": "asphalt"}}, {"type": "Feature", "geometry": {"type": "LineString", "coordinates": [[-8.6471573, 41.527815], [-8.647259, 41.5277109], [-8.6473368, 41.5276398], [-8.6473493, 41.5276284], [-8.648048, 41.526973], [-8.6483691, 41.5266964], [-8.648509, 41.5265851], [-8.6486438, 41.526478], [-8.6489184, 41.5263109]]}, "properties": {"highway": "primary", "maxspeed": "50", "name": "Rua Doutor Francisco S\u00e1 Carneiro", "ref": "EN 103-1", "surface": "asphalt"}}, {"type": "Feature", "geometry": {"type": "LineString", "coordinates": [[-8.6794432, 41.5295305], [-8.6797281, 41.5295454], [-8.6800553, 41.5295625], [-8.6802349, 41.5295715], [-8.6806847, 41.5296175], [-8.6809351, 41.5296718], [-8.6811834, 41.5297475], [-8.6816374, 41.5299309]]}, "properties": {"highway": "primary", "name": "Rua Afonso Nunes de Mariz", "ref": "EN 103-1", "surface": "asphalt"}}, {"type": "Feature", "geometry": {"type": "LineString", "coordinates": [[-8.6793359, 41.5295252], [-8.6794432, 41.5295305]]}, "properties": {"bridge": "yes", "highway": "primary", "layer": "1", "name": "Rua Afonso Nunes de Mariz", "ref": "EN 103-1", "surface": "asphalt"}}, {"type": "Feature", "geometry": {"type": "LineString", "coordinates": [[-8.7204857, 41.5337478], [-8.7206662, 41.5337782], [-8.721428, 41.5338786], [-8.7225724, 41.5339916]]}, "properties": {"highway": "primary", "lanes": "2", "maxspeed:backward": "90", "maxspeed:forward": "60", "name": "Rua de Rodilh\u00f5es", "oneway": "no", "ref": "EN 103-1", "surface": "asphalt"}}, {"type": "Feature", "geometry": {"type": "MultiPolygon", "coordinates": [[[[-8.7728831, 41.5251511], [-8.7728739, 41.5250719], [-8.7728373, 41.5249972], [-8.772778, 41.5249341], [-8.7726993, 41.5248844], [-8.7725997, 41.5248496], [-8.7724913, 41.5248364], [-8.7723822, 41.5248456], [-8.7722804, 41.5248765], [-8.7722016, 41.524921], [-8.7721396, 41.5249786], [-8.7720982, 41.5250457], [-8.7720791, 41.525142], [-8.7721021, 41.5252378], [-8.7721647, 41.5253231], [-8.7722578, 41.5253878], [-8.7723732, 41.5254274], [-8.7724993, 41.5254382], [-8.7726236, 41.525419], [-8.7727338, 41.5253718], [-8.7728188, 41.5253012], [-8.7728643, 41.5252293], [-8.7728831, 41.5251511]]]]}, "properties": {"highway": "primary", "junction": "roundabout", "lanes": "2", "maxspeed": "50", "name": "Variante \u00e0 EN 103-1", "ref": "EN 103-1", "surface": "asphalt"}}, {"type": "Feature", "geometry": {"type": "MultiPolygon", "coordinates": [[[[-8.7623407, 41.5294919], [-8.7623261, 41.5294249], [-8.762289, 41.529363], [-8.7622318, 41.5293103], [-8.7621585, 41.5292705], [-8.7620915, 41.5292497], [-8.7620203, 41.5292397], [-8.7619168, 41.529245], [-8.76182, 41.5292728], [-8.7617384, 41.5293207], [-8.7616867, 41.5293737], [-8.7616542, 41.5294347], [-8.7616432, 41.5294998], [-8.7616586, 41.5295769], [-8.7617038, 41.5296471], [-8.7617746, 41.5297042], [-8.7618647, 41.5297431], [-8.7619622, 41.5297601], [-8.7620621, 41.5297558], [-8.7621562, 41.5297304], [-8.7622385, 41.5296847], [-8.7622995, 41.5296232], [-8.7623341, 41.529551], [-8.7623407, 41.5294919]]]]}, "properties": {"highway": "primary", "junction": "roundabout", "lanes": "2", "lit": "yes", "name": "Variante \u00e0 EN 103-1", "ref": "EN 103-1", "surface": "asphalt"}}, {"type": "Feature", "geometry": {"type": "MultiPolygon", "coordinates": [[[[-8.6442809, 41.5297848], [-8.6442671, 41.5297369], [-8.6442329, 41.5296951], [-8.644182, 41.5296641], [-8.6441204, 41.5296476], [-8.6440823, 41.5296454], [-8.6440445, 41.5296488], [-8.6439945, 41.5296626], [-8.6439513, 41.5296861], [-8.6439183, 41.5297175], [-8.6439012, 41.5297462], [-8.6438926, 41.529777], [-8.6438975, 41.5298263], [-8.6439241, 41.5298716], [-8.6439693, 41.5299076], [-8.6440281, 41.5299302], [-8.6440894, 41.5299368], [-8.6441063, 41.5299346], [-8.6441504, 41.5299287], [-8.644205, 41.5299067], [-8.6442475, 41.5298729], [-8.6442628, 41.5298484], [-8.6442737, 41.5298309], [-8.6442809, 41.5297848]]]]}, "properties": {"highway": "primary", "junction": "roundabout", "lanes": "2", "ref": "EN 103-1", "surface": "asphalt"}}, {"type": "Feature", "geometry": {"type": "MultiPolygon", "coordinates": [[[[-8.7375815, 41.5294368], [-8.7375732, 41.5293745], [-8.737543, 41.5293162], [-8.7374929, 41.5292661], [-8.7374463, 41.529237], [-8.737393, 41.5292153], [-8.7373193, 41.5291998], [-8.7372428, 41.5291983], [-8.7371681, 41.529211], [-8.7370882, 41.5292432], [-8.7370242, 41.5292915], [-8.7369819, 41.5293516], [-8.7369654, 41.5294103], [-8.7369695, 41.5294701], [-8.7369941, 41.5295272], [-8.7370375, 41.5295775], [-8.7371114, 41.529625], [-8.7371931, 41.5296514], [-8.7372814, 41.5296592], [-8.7373691, 41.5296478], [-8.7374553, 41.5296147], [-8.7375235, 41.5295632], [-8.7375671, 41.5294984], [-8.7375815, 41.5294368]]]]}, "properties": {"highway": "primary", "junction": "roundabout", "lanes": "2", "maxspeed": "40", "name": "Variante \u00e0 EN 103-1", "ref": "EN 103-1"}}, {"type": "Feature", "geometry": {"type": "MultiPolygon", "coordinates": [[[[-8.7240543, 41.5340806], [-8.7240205, 41.5340025], [-8.723968, 41.5339497], [-8.7238837, 41.5339047], [-8.7237842, 41.5338833], [-8.7236996, 41.5338851], [-8.723619, 41.5339041], [-8.7235484, 41.5339389], [-8.7234931, 41.5339868], [-8.7234545, 41.5340519], [-8.7234445, 41.5341227], [-8.7234639, 41.5341924], [-8.7234964, 41.5342395], [-8.7235584, 41.5342901], [-8.7236376, 41.5343246], [-8.7237269, 41.5343401], [-8.7238059, 41.534337], [-8.7238812, 41.5343188], [-8.7239478, 41.5342869], [-8.7240013, 41.5342433], [-8.7240483, 41.5341657], [-8.7240543, 41.5340806]]]]}, "properties": {"highway": "primary", "junction": "roundabout", "maxspeed": "40", "ref": "EN 103-1", "surface": "asphalt"}}, {"type": "Feature", "geometry": {"type": "MultiPolygon", "coordinates": [[[[-8.7112396, 41.5322871], [-8.7112327, 41.5322563], [-8.7112178, 41.5322311], [-8.7111953, 41.5322092], [-8.7111516, 41.5321857], [-8.7110999, 41.5321748], [-8.7110463, 41.5321776], [-8.7110192, 41.5321848], [-8.7109942, 41.5321955], [-8.7109605, 41.5322197], [-8.710938, 41.5322503], [-8.7109285, 41.5322846], [-8.7109331, 41.5323194], [-8.7109531, 41.5323538], [-8.7109867, 41.5323817], [-8.7110305, 41.5324002], [-8.711074, 41.532407], [-8.7111184, 41.5324044], [-8.71116, 41.5323925], [-8.7111953, 41.5323722], [-8.7112202, 41.5323472], [-8.7112353, 41.5323181], [-8.7112396, 41.5322871]]]]}, "properties": {"highway": "primary", "junction": "roundabout", "ref": "EN 103-1", "surface": "asphalt"}}]}