{"type": "FeatureCollection", "features": [{"type": "Feature", "geometry": {"type": "LineString", "coordinates": [[-8.7709147, 41.6112093], [-8.7704865, 41.6111548], [-8.7701255, 41.6111169], [-8.7698252, 41.6111218]]}, "properties": {"highway": "primary", "lanes": "1", "maxspeed": "50", "oneway": "yes", "ref": "EN 13-12", "surface": "asphalt"}}, {"type": "Feature", "geometry": {"type": "LineString", "coordinates": [[-8.7743968, 41.6117726], [-8.7735277, 41.611642]]}, "properties": {"highway": "primary", "lanes": "1", "oneway": "yes", "ref": "EN 13-12", "surface": "asphalt"}}, {"type": "Feature", "geometry": {"type": "LineString", "coordinates": [[-8.7741114, 41.6118105], [-8.7747493, 41.6118961], [-8.7750952, 41.6119306], [-8.7755297, 41.6119679], [-8.7760799, 41.6120045], [-8.7764522, 41.6120238], [-8.7769367, 41.6120504], [-8.7772447, 41.612039], [-8.7774087, 41.6120213], [-8.7774825, 41.6120075], [-8.7776017, 41.6119869], [-8.7777083, 41.611963], [-8.7778351, 41.6119265]]}, "properties": {"highway": "primary", "lanes": "1", "oneway": "yes", "ref": "EN 13-12", "surface": "asphalt"}}, {"type": "Feature", "geometry": {"type": "LineString", "coordinates": [[-8.7722567, 41.6114292], [-8.7715304, 41.611302]]}, "properties": {"highway": "primary", "lanes": "1", "maxspeed": "90", "oneway": "yes", "ref": "EN 13-12", "surface": "asphalt"}}, {"type": "Feature", "geometry": {"type": "LineString", "coordinates": [[-8.7735277, 41.611642], [-8.7722567, 41.6114292]]}, "properties": {"highway": "primary", "lanes": "2", "maxspeed": "90", "oneway": "yes", "ref": "EN 13-12", "surface": "asphalt", "turn:lanes": "through|right"}}, {"type": "Feature", "geometry": {"type": "LineString", "coordinates": [[-8.7724621, 41.6115494], [-8.7741114, 41.6118105]]}, "properties": {"highway": "primary", "oneway": "yes", "ref": "EN 13-12", "surface": "asphalt", "turn:lanes": "left|through"}}, {"type": "Feature", "geometry": {"type": "LineString", "coordinates": [[-8.7698252, 41.6111218], [-8.7701191, 41.6111969], [-8.770507, 41.6112378], [-8.7711092, 41.6113188], [-8.7716175, 41.6114034], [-8.7724621, 41.6115494]]}, "properties": {"highway": "primary", "lanes": "1", "maxspeed": "90", "oneway": "yes", "ref": "EN 13-12", "surface": "asphalt"}}, {"type": "Feature", "geometry": {"type": "LineString", "coordinates": [[-8.7715304, 41.611302], [-8.7709147, 41.6112093]]}, "properties": {"highway": "primary", "lanes": "1", "maxspeed": "90", "oneway": "yes", "ref": "EN 13-12", "surface": "asphalt"}}, {"type": "Feature", "geometry": {"type": "LineString", "coordinates": [[-8.7775242, 41.6119009], [-8.777238, 41.6119518], [-8.7769417, 41.6119697], [-8.7764515, 41.6119529], [-8.7760921, 41.6119349], [-8.7755147, 41.6118928], [-8.7751039, 41.6118587], [-8.7743968, 41.6117726]]}, "properties": {"highway": "primary", "lanes": "1", "maxspeed": "90", "oneway": "yes", "ref": "EN 13-12", "surface": "asphalt"}}, {"type": "Feature", "geometry": {"type": "LineString", "coordinates": [[-8.777787, 41.6118308], [-8.7776731, 41.6118673], [-8.777619, 41.6118795], [-8.7775242, 41.6119009]]}, "properties": {"highway": "primary", "lanes": "1", "oneway": "yes", "ref": "EN 13-12", "surface": "asphalt"}}]}