{"type": "FeatureCollection", "features": [{"type": "Feature", "geometry": {"type": "LineString", "coordinates": [[-27.3190557, 38.6859455], [-27.3190097, 38.6858415], [-27.3189565, 38.6857552], [-27.3189161, 38.6856892], [-27.3188618, 38.6856204], [-27.3187579, 38.6855117], [-27.3186735, 38.6854154], [-27.3185819, 38.6853232], [-27.3184185, 38.6851846], [-27.3182233, 38.685026], [-27.3180254, 38.6848684], [-27.317953, 38.6848066], [-27.3175496, 38.684485], [-27.3174927, 38.6844322], [-27.3173247, 38.6842852], [-27.3171105, 38.6840905], [-27.3169408, 38.6839254], [-27.3167921, 38.6837722], [-27.3166271, 38.6835807], [-27.3165487, 38.6834705], [-27.3164166, 38.6832546], [-27.3163247, 38.6830674], [-27.3162483, 38.6828968], [-27.3161812, 38.6827628], [-27.3160985, 38.6826281], [-27.3156344, 38.6819169], [-27.3155469, 38.6818114], [-27.3154548, 38.6817192], [-27.3153564, 38.6816394], [-27.3152765, 38.681582], [-27.3151234, 38.6814877], [-27.3148563, 38.6813473], [-27.3146403, 38.6812521], [-27.314309, 38.681115], [-27.3141333, 38.6810396], [-27.3139644, 38.6809537], [-27.3136885, 38.6807911], [-27.3133714, 38.6806291], [-27.3132379, 38.6805195], [-27.3126548, 38.6801721], [-27.312492, 38.6800851], [-27.3122323, 38.6799462], [-27.3119885, 38.6798348], [-27.3118775, 38.6797931], [-27.3117031, 38.6797295], [-27.3113418, 38.6795938], [-27.311251, 38.6795637], [-27.3107413, 38.679385], [-27.3103888, 38.6792774], [-27.3103429, 38.6792638], [-27.3100091, 38.6791653], [-27.3098631, 38.6791233], [-27.3096608, 38.6790661], [-27.3094472, 38.6789992], [-27.3092467, 38.6789236], [-27.3090944, 38.6788464], [-27.3090057, 38.6787973], [-27.3088333, 38.6786796], [-27.3086421, 38.6785229], [-27.3085214, 38.6784188], [-27.3084227, 38.6783338], [-27.3083539, 38.678278], [-27.3081402, 38.6781043], [-27.3080859, 38.6780596], [-27.307963, 38.6779586], [-27.3079209, 38.6779239], [-27.3074423, 38.6775401], [-27.3073143, 38.6774353], [-27.307092, 38.6772605], [-27.3069682, 38.6771664], [-27.3067228, 38.6769986], [-27.3064672, 38.6768286], [-27.3063183, 38.6767394], [-27.306113, 38.6765999], [-27.3060204, 38.6765499], [-27.3059156, 38.6765064], [-27.305785, 38.6764707], [-27.3056553, 38.6764571], [-27.305303, 38.6764566], [-27.3051325, 38.6764505], [-27.3049993, 38.6764312], [-27.3048432, 38.6763986], [-27.3045956, 38.6763361], [-27.3044702, 38.6763103], [-27.3043614, 38.676287], [-27.3043038, 38.676274], [-27.3040906, 38.6762214], [-27.3039563, 38.6761711]]}, "properties": {"cycleway:both": "no", "highway": "primary", "lanes": "1", "lit": "yes", "maxspeed": "50", "overtaking": "no", "ref": "EN 1-1A", "surface": "asphalt"}}]}