{"type": "FeatureCollection", "features": [{"type": "Feature", "geometry": {"type": "LineString", "coordinates": [[-8.7180857, 38.9930038], [-8.717841, 38.9930208], [-8.7176854, 38.9930067], [-8.7168019, 38.9927974]]}, "properties": {"highway": "primary", "oneway": "yes", "ref": "EN 114-3"}}, {"type": "Feature", "geometry": {"type": "LineString", "coordinates": [[-8.7901161, 39.0256089], [-8.7899581, 39.0255831], [-8.7898546, 39.0255496], [-8.7897797, 39.0255004], [-8.7896862, 39.025411]]}, "properties": {"highway": "primary", "lanes": "1", "oneway": "yes", "ref": "EN 114-3", "smoothness": "good", "source": "Bing", "surface": "asphalt"}}, {"type": "Feature", "geometry": {"type": "LineString", "coordinates": [[-8.7071038, 38.9900031], [-8.7082026, 38.990317], [-8.7084796, 38.9903962], [-8.7091879, 38.9905986], [-8.710382, 38.9909397], [-8.7104658, 38.9909636], [-8.7119702, 38.9913924], [-8.7125049, 38.9915451], [-8.7133056, 38.9917789], [-8.713559, 38.9918528], [-8.7145911, 38.9921542]]}, "properties": {"highway": "primary", "ref": "EN 114-3"}}, {"type": "Feature", "geometry": {"type": "LineString", "coordinates": [[-8.7153987, 38.99239], [-8.7168019, 38.9927974]]}, "properties": {"highway": "primary", "ref": "EN 114-3"}}, {"type": "Feature", "geometry": {"type": "LineString", "coordinates": [[-8.7203266, 38.9938268], [-8.7200756, 38.9937433], [-8.7195714, 38.9935755], [-8.7190142, 38.9933901], [-8.7188356, 38.993313], [-8.7187202, 38.9932057]]}, "properties": {"highway": "primary", "oneway": "yes", "ref": "EN 114-3"}}, {"type": "Feature", "geometry": {"type": "LineString", "coordinates": [[-8.7168019, 38.9927974], [-8.7176544, 38.9931015], [-8.717796, 38.9931734], [-8.7179383, 38.9932939]]}, "properties": {"highway": "primary", "oneway": "yes", "ref": "EN 114-3"}}, {"type": "Feature", "geometry": {"type": "LineString", "coordinates": [[-8.7182755, 38.9929417], [-8.7182078, 38.9929536], [-8.7181439, 38.9929746], [-8.7180857, 38.9930038], [-8.7180344, 38.993041], [-8.7179925, 38.9930846], [-8.7179611, 38.9931333], [-8.7179412, 38.9931855], [-8.7179336, 38.9932396], [-8.7179383, 38.9932939], [-8.7179461, 38.9933229], [-8.7179568, 38.9933501], [-8.7179708, 38.9933763], [-8.7179885, 38.9934023], [-8.7180092, 38.9934268], [-8.7180329, 38.9934497], [-8.7180593, 38.9934707], [-8.7180882, 38.9934897], [-8.7181193, 38.9935065], [-8.7181523, 38.9935208], [-8.7181869, 38.9935326], [-8.7182228, 38.9935419], [-8.7182596, 38.9935484], [-8.7182971, 38.9935521], [-8.7183349, 38.993553], [-8.7183726, 38.9935512], [-8.7184053, 38.9935472], [-8.7184375, 38.9935412], [-8.718469, 38.993533], [-8.7185096, 38.9935189], [-8.718548, 38.9935013], [-8.7185869, 38.9934783], [-8.7186218, 38.9934518], [-8.7186522, 38.9934221], [-8.7186777, 38.9933897], [-8.7186978, 38.9933551], [-8.7187123, 38.9933189], [-8.718721, 38.9932815], [-8.7187236, 38.9932436], [-8.7187202, 38.9932057], [-8.7187053, 38.9931535], [-8.7186789, 38.9931041], [-8.7186419, 38.993059], [-8.7185954, 38.9930196], [-8.7185408, 38.992987], [-8.7184798, 38.9929623], [-8.7184136, 38.9929462], [-8.7183448, 38.9929392], [-8.7182755, 38.9929417]]}, "properties": {"highway": "primary", "junction": "roundabout", "ref": "EN 114-3"}}, {"type": "Feature", "geometry": {"type": "LineString", "coordinates": [[-8.7145911, 38.9921542], [-8.7153987, 38.99239]]}, "properties": {"bridge": "yes", "highway": "primary", "layer": "1", "ref": "EN 114-3"}}, {"type": "Feature", "geometry": {"type": "LineString", "coordinates": [[-8.718548, 38.9935013], [-8.7187087, 38.9934729], [-8.7188433, 38.9934697], [-8.7190057, 38.9934904], [-8.7203266, 38.9938268]]}, "properties": {"highway": "primary", "oneway": "yes", "ref": "EN 114-3"}}, {"type": "Feature", "geometry": {"type": "LineString", "coordinates": [[-8.5342265, 38.9551097], [-8.5350587, 38.9546153], [-8.5351159, 38.9545846], [-8.5354016, 38.9544088], [-8.5356051, 38.9542622], [-8.5357522, 38.954132], [-8.5358779, 38.9539941], [-8.535972, 38.9538528], [-8.5360093, 38.9537807], [-8.536018, 38.9537641], [-8.5360397, 38.9537042], [-8.5360562, 38.9536009], [-8.5360673, 38.9533563], [-8.5360948, 38.9531908], [-8.5361281, 38.9530562], [-8.5362148, 38.9527876], [-8.5364436, 38.9521755], [-8.5365094, 38.9520396], [-8.5365572, 38.9519742], [-8.536607, 38.9519241]]}, "properties": {"highway": "primary", "ref": "EN 114-3"}}, {"type": "Feature", "geometry": {"type": "LineString", "coordinates": [[-8.7896862, 39.025411], [-8.7892527, 39.0247694], [-8.7886896, 39.0239359], [-8.7886083, 39.0238145], [-8.7884149, 39.0235335], [-8.7883054, 39.0233794], [-8.7881889, 39.0232308], [-8.7880897, 39.0231179], [-8.7879458, 39.022967], [-8.7865103, 39.0215988], [-8.785945, 39.0210572], [-8.7858222, 39.0209428], [-8.785761, 39.0208845], [-8.7853237, 39.0204671], [-8.7836942, 39.0189073], [-8.7804048, 39.0157586], [-8.7802652, 39.01563], [-8.7801228, 39.0155149], [-8.7799689, 39.0154053], [-8.7721802, 39.0105684], [-8.7721082, 39.0105237], [-8.7711594, 39.0099345], [-8.7710121, 39.0098549], [-8.7708717, 39.0097888], [-8.7707071, 39.009719], [-8.7695218, 39.009282], [-8.7693416, 39.0092156]]}, "properties": {"highway": "primary", "ref": "EN 114-3", "source": "Bing", "surface": "asphalt"}}, {"type": "Feature", "geometry": {"type": "LineString", "coordinates": [[-8.7898842, 39.025707], [-8.7898718, 39.0256133], [-8.7898546, 39.0255496]]}, "properties": {"highway": "primary", "lanes": "1", "oneway": "yes", "ref": "EN 114-3", "smoothness": "good", "source": "Bing", "surface": "asphalt"}}, {"type": "Feature", "geometry": {"type": "LineString", "coordinates": [[-8.7897222, 39.0255105], [-8.7897236, 39.0256077], [-8.7897049, 39.0256703], [-8.7896472, 39.0257694]]}, "properties": {"highway": "primary", "lanes": "1", "oneway": "yes", "ref": "EN 114-3", "smoothness": "good", "source": "Bing", "surface": "asphalt"}}, {"type": "Feature", "geometry": {"type": "LineString", "coordinates": [[-8.7896862, 39.025411], [-8.7897222, 39.0255105], [-8.7897682, 39.0255965], [-8.7898143, 39.0256468], [-8.7898842, 39.025707]]}, "properties": {"highway": "primary", "lanes": "1", "oneway": "yes", "ref": "EN 114-3", "smoothness": "good", "source": "Bing", "surface": "asphalt"}}, {"type": "Feature", "geometry": {"type": "LineString", "coordinates": [[-8.6231608, 38.96331], [-8.6232269, 38.9633203], [-8.6279924, 38.9640649], [-8.6338148, 38.964965], [-8.6363575, 38.9653572], [-8.6384222, 38.9656756], [-8.6421213, 38.9662474], [-8.6427532, 38.9663787], [-8.6431182, 38.9665058], [-8.6436466, 38.9668828], [-8.6458258, 38.9686533], [-8.6470243, 38.9696021], [-8.6479286, 38.970339], [-8.648408, 38.9706863], [-8.6488711, 38.9708854], [-8.6496446, 38.9711268], [-8.6519164, 38.9718807], [-8.6540138, 38.9725711], [-8.6556808, 38.9731175], [-8.6579852, 38.9738714], [-8.6599845, 38.9745151], [-8.6622018, 38.9752563], [-8.6630571, 38.975612], [-8.6637544, 38.9760948], [-8.6657052, 38.9776726], [-8.6660115, 38.9778871], [-8.6664317, 38.9780967], [-8.6674861, 38.9784411], [-8.6690932, 38.9789069], [-8.6733534, 38.9801393], [-8.6763388, 38.9810159], [-8.6794767, 38.9819306], [-8.6812529, 38.9824464], [-8.683677, 38.9831503], [-8.6875384, 38.9842763], [-8.6879317, 38.984391], [-8.6888693, 38.984667], [-8.6892261, 38.9847726], [-8.6898212, 38.9849471], [-8.6922191, 38.9856529], [-8.6928389, 38.9858329], [-8.6928654, 38.9858413], [-8.6948728, 38.9864225], [-8.6954169, 38.9865803], [-8.6962899, 38.9868335], [-8.6987019, 38.9875331], [-8.6996603, 38.9878193], [-8.7013822, 38.9883334], [-8.7030481, 38.9888079], [-8.7052791, 38.9894468], [-8.7055171, 38.9895148], [-8.7071038, 38.9900031]]}, "properties": {"highway": "primary", "ref": "EN 114-3"}}, {"type": "Feature", "geometry": {"type": "LineString", "coordinates": [[-8.5366889, 38.9518697], [-8.5368612, 38.9518091], [-8.5371364, 38.9517597], [-8.5375638, 38.9517146], [-8.5380192, 38.9516457], [-8.5382883, 38.9515975], [-8.5384205, 38.951566], [-8.5390882, 38.9513222]]}, "properties": {"highway": "primary", "ref": "EN 114-3"}}, {"type": "Feature", "geometry": {"type": "LineString", "coordinates": [[-8.536607, 38.9519241], [-8.5366889, 38.9518697]]}, "properties": {"highway": "primary", "ref": "EN 114-3"}}, {"type": "Feature", "geometry": {"type": "LineString", "coordinates": [[-8.7693416, 39.0092156], [-8.7691362, 39.0091399], [-8.7689093, 39.0090562], [-8.7677821, 39.0086407], [-8.7668366, 39.0082963], [-8.7666676, 39.0082298], [-8.7653672, 39.0077504], [-8.7634647, 39.007049], [-8.7630813, 39.0069077], [-8.7589004, 39.005375], [-8.7551349, 39.0039823], [-8.7548642, 39.0038822], [-8.754029, 39.0035713], [-8.7537653, 39.0034855], [-8.7521276, 39.003013], [-8.7501181, 39.002434], [-8.7486776, 39.0020189], [-8.7437694, 39.0006012], [-8.743094, 39.0004065], [-8.7417807, 39.0000211], [-8.741496, 38.9999454], [-8.7378709, 38.9988989], [-8.7358593, 38.9983186], [-8.7358389, 38.9983127], [-8.7354701, 38.9982067], [-8.73522, 38.9981344], [-8.7351635, 38.9981189], [-8.7351474, 38.9981142], [-8.7335916, 38.9976634], [-8.7334578, 38.9976247], [-8.7329255, 38.9974708], [-8.7327501, 38.99742], [-8.7319393, 38.9971855], [-8.731479, 38.9970524], [-8.729595, 38.9965075], [-8.7256496, 38.9953664], [-8.7239132, 38.994874], [-8.7234485, 38.9947357], [-8.7221085, 38.9943422], [-8.7216682, 38.9942149], [-8.7203266, 38.9938268]]}, "properties": {"highway": "primary", "ref": "EN 114-3", "source": "Bing", "surface": "asphalt"}}, {"type": "Feature", "geometry": {"type": "LineString", "coordinates": [[-8.5691457, 38.9550221], [-8.5709819, 38.9553118], [-8.5717843, 38.9554354], [-8.5729163, 38.9556102], [-8.5769549, 38.956234], [-8.5782882, 38.9564399], [-8.5821042, 38.9570303], [-8.5837534, 38.9572854], [-8.5847234, 38.9574355], [-8.5851412, 38.9575], [-8.5861556, 38.9576565], [-8.5861965, 38.9576618], [-8.5902204, 38.9582738], [-8.5908116, 38.9583606], [-8.5908676, 38.9583694], [-8.5913158, 38.9584389], [-8.5922551, 38.9585979], [-8.5934014, 38.9587713], [-8.5935306, 38.9587905], [-8.5956202, 38.959101], [-8.5957196, 38.9591172], [-8.5958859, 38.9591429]]}, "properties": {"highway": "primary", "maxspeed": "50", "name": "Rua de Coruche", "postal_code": "2100-502", "ref": "EN 114-3"}}, {"type": "Feature", "geometry": {"type": "LineString", "coordinates": [[-8.5958859, 38.9591429], [-8.5961436, 38.9591815], [-8.5963111, 38.9592062], [-8.5963496, 38.9592108], [-8.5971441, 38.9593339], [-8.6006506, 38.9598725], [-8.6008464, 38.9599018], [-8.6026837, 38.9601695], [-8.6055719, 38.9606162], [-8.6079242, 38.9609886], [-8.6091744, 38.9611584], [-8.609273, 38.961173], [-8.6117648, 38.9615869], [-8.6144956, 38.9619946], [-8.6169334, 38.9623494], [-8.6210329, 38.9629795], [-8.6231608, 38.96331]]}, "properties": {"highway": "primary", "maxspeed": "50", "name": "Rua de Salvaterra de Magos", "postal_code": "2100-501", "ref": "EN 114-3"}}, {"type": "Feature", "geometry": {"type": "LineString", "coordinates": [[-8.5390882, 38.9513222], [-8.5391383, 38.9513039], [-8.5394355, 38.9511954], [-8.5408345, 38.9506384], [-8.5411839, 38.950458], [-8.5415527, 38.9502297], [-8.5419036, 38.9499861], [-8.542144, 38.9498337], [-8.5424726, 38.9496607], [-8.5427475, 38.9495321], [-8.5429297, 38.9494729], [-8.5431954, 38.9494181], [-8.5435648, 38.9493584], [-8.543833, 38.9493305], [-8.5440069, 38.9493245], [-8.5441326, 38.9493294], [-8.54426, 38.9493482], [-8.544474, 38.9493935], [-8.5450502, 38.9495784], [-8.5454059, 38.9496783], [-8.5455582, 38.949709], [-8.5457513, 38.9497369], [-8.5467355, 38.9498566], [-8.5474507, 38.9499586], [-8.5497175, 38.9503903], [-8.5501523, 38.9505074], [-8.5505469, 38.9506634], [-8.5512114, 38.9509717], [-8.5535169, 38.9521885], [-8.5544103, 38.9526257], [-8.5545097, 38.9526688], [-8.555234, 38.9528528], [-8.5573913, 38.9531782], [-8.5617239, 38.9538538], [-8.5625385, 38.9539808], [-8.563277, 38.9541068], [-8.5634593, 38.9541359], [-8.5648047, 38.9543508], [-8.5653278, 38.9544325], [-8.5664675, 38.9546107], [-8.5680382, 38.9548436], [-8.5690867, 38.9550133], [-8.5691457, 38.9550221]]}, "properties": {"highway": "primary", "ref": "EN 114-3"}}, {"type": "Feature", "geometry": {"type": "MultiPolygon", "coordinates": [[[[-8.7187236, 38.9932436], [-8.7187202, 38.9932057], [-8.7187053, 38.9931535], [-8.7186789, 38.9931041], [-8.7186419, 38.993059], [-8.7185954, 38.9930196], [-8.7185408, 38.992987], [-8.7184798, 38.9929623], [-8.7184136, 38.9929462], [-8.7183448, 38.9929392], [-8.7182755, 38.9929417], [-8.7182078, 38.9929536], [-8.7181439, 38.9929746], [-8.7180857, 38.9930038], [-8.7180344, 38.993041], [-8.7179925, 38.9930846], [-8.7179611, 38.9931333], [-8.7179412, 38.9931855], [-8.7179336, 38.9932396], [-8.7179383, 38.9932939], [-8.7179461, 38.9933229], [-8.7179568, 38.9933501], [-8.7179708, 38.9933763], [-8.7179885, 38.9934023], [-8.7180092, 38.9934268], [-8.7180329, 38.9934497], [-8.7180593, 38.9934707], [-8.7180882, 38.9934897], [-8.7181193, 38.9935065], [-8.7181523, 38.9935208], [-8.7181869, 38.9935326], [-8.7182228, 38.9935419], [-8.7182596, 38.9935484], [-8.7182971, 38.9935521], [-8.7183349, 38.993553], [-8.7183726, 38.9935512], [-8.7184053, 38.9935472], [-8.7184375, 38.9935412], [-8.718469, 38.993533], [-8.7185096, 38.9935189], [-8.718548, 38.9935013], [-8.7185869, 38.9934783], [-8.7186218, 38.9934518], [-8.7186522, 38.9934221], [-8.7186777, 38.9933897], [-8.7186978, 38.9933551], [-8.7187123, 38.9933189], [-8.718721, 38.9932815], [-8.7187236, 38.9932436]]]]}, "properties": {"highway": "primary", "junction": "roundabout", "ref": "EN 114-3"}}]}