{"type": "FeatureCollection", "features": [{"type": "Feature", "geometry": {"type": "LineString", "coordinates": [[-9.0352696, 38.623277], [-9.0348875, 38.6234904]]}, "properties": {"highway": "primary", "oneway": "yes", "ref": "EN 11-2"}}, {"type": "Feature", "geometry": {"type": "LineString", "coordinates": [[-9.0390002, 38.622555], [-9.0386541, 38.6225019], [-9.03823, 38.62247], [-9.0381142, 38.6224612], [-9.0375752, 38.622427], [-9.037431, 38.6224234], [-9.0373331, 38.622426], [-9.0372453, 38.6224296], [-9.0371179, 38.6224412], [-9.0370173, 38.622459], [-9.036916, 38.622481], [-9.0367764, 38.6225273]]}, "properties": {"highway": "primary", "oneway": "yes", "ref": "EN 11-2"}}, {"type": "Feature", "geometry": {"type": "LineString", "coordinates": [[-9.0358675, 38.6229793], [-9.0352696, 38.623277]]}, "properties": {"bridge": "yes", "highway": "primary", "layer": "1", "oneway": "yes", "ref": "EN 11-2"}}, {"type": "Feature", "geometry": {"type": "LineString", "coordinates": [[-9.0338174, 38.6245702], [-9.0341039, 38.6243217], [-9.0342736, 38.6241529]]}, "properties": {"highway": "primary", "oneway": "yes", "ref": "EN 11-2"}}, {"type": "Feature", "geometry": {"type": "LineString", "coordinates": [[-9.0352892, 38.6233487], [-9.0358968, 38.6230506]]}, "properties": {"bridge": "yes", "highway": "primary", "layer": "1", "oneway": "yes", "ref": "EN 11-2"}}, {"type": "Feature", "geometry": {"type": "LineString", "coordinates": [[-9.0358968, 38.6230506], [-9.0362807, 38.6228603], [-9.0365399, 38.622733], [-9.0366814, 38.6226685], [-9.0368081, 38.6226182], [-9.0369281, 38.6225774]]}, "properties": {"highway": "primary", "oneway": "yes", "ref": "EN 11-2"}}, {"type": "Feature", "geometry": {"type": "LineString", "coordinates": [[-9.0062011, 38.6406554], [-9.0063048, 38.640615], [-9.0067725, 38.6404407], [-9.0072582, 38.6402641], [-9.0075061, 38.6401724], [-9.0077773, 38.640072], [-9.0079096, 38.640023], [-9.0081982, 38.6399162], [-9.0084421, 38.6398259], [-9.0089114, 38.6396522], [-9.0094207, 38.6394637], [-9.0098998, 38.6392864], [-9.0104291, 38.6390824], [-9.0105523, 38.639035], [-9.0107382, 38.6389635], [-9.0110143, 38.6388573], [-9.0112304, 38.6387715], [-9.0120091, 38.6383804], [-9.0127741, 38.6379876], [-9.0131739, 38.6377824], [-9.01532, 38.636674], [-9.0162517, 38.6361973], [-9.0165201, 38.63606], [-9.0169626, 38.6358335], [-9.017209, 38.6357072], [-9.0173569, 38.6356314]]}, "properties": {"highway": "primary", "lanes": "2", "ref": "EN 11-2"}}, {"type": "Feature", "geometry": {"type": "LineString", "coordinates": [[-8.9985245, 38.6464266], [-8.998315, 38.647284], [-8.998165, 38.6476483], [-8.997932, 38.648022], [-8.997752, 38.648255], [-8.9976669, 38.6483481], [-8.997252, 38.648802]]}, "properties": {"highway": "primary", "lanes": "2", "ref": "EN 11-2", "surface": "asphalt"}}, {"type": "Feature", "geometry": {"type": "LineString", "coordinates": [[-8.9988935, 38.6449865], [-8.9985245, 38.6464266]]}, "properties": {"bridge": "yes", "highway": "primary", "lanes": "2", "layer": "1", "ref": "EN 11-2", "surface": "asphalt"}}, {"type": "Feature", "geometry": {"type": "LineString", "coordinates": [[-9.0032983, 38.6416369], [-9.0032777, 38.6416415], [-9.0029285, 38.6417138], [-9.0027245, 38.6417562], [-9.0024119, 38.6418218], [-9.0016874, 38.6419739], [-9.0014955, 38.6420279], [-9.0013127, 38.6421022], [-9.0011937, 38.6421685], [-9.0010916, 38.6422422]]}, "properties": {"highway": "primary", "lanes": "2", "ref": "EN 11-2"}}, {"type": "Feature", "geometry": {"type": "LineString", "coordinates": [[-8.996709, 38.649107], [-8.9967084, 38.6491419], [-8.996716, 38.6491763], [-8.9967552, 38.64924], [-8.9968214, 38.6492882], [-8.9969055, 38.6493142], [-8.996978, 38.6493166]]}, "properties": {"highway": "primary", "junction": "roundabout", "lanes": "3", "ref": "EN 11-2"}}, {"type": "Feature", "geometry": {"type": "LineString", "coordinates": [[-9.0324509, 38.6254673], [-9.0325706, 38.6253863], [-9.0326089, 38.6253613], [-9.0338174, 38.6245702]]}, "properties": {"highway": "primary", "name": "Rua 1\u00ba de Maio", "ref": "EN 11-2"}}, {"type": "Feature", "geometry": {"type": "LineString", "coordinates": [[-9.02252, 38.6280714], [-9.0227068, 38.6280027], [-9.0228731, 38.6279755], [-9.023005, 38.627965], [-9.0232628, 38.6279537], [-9.02369, 38.627935], [-9.0238355, 38.6279323], [-9.0243923, 38.6279221], [-9.0247876, 38.6279149], [-9.0249977, 38.6279056], [-9.0252287, 38.6278865], [-9.0255354, 38.6278362], [-9.0259371, 38.6277439], [-9.026424, 38.6275925], [-9.026745, 38.6274928], [-9.0272624, 38.627326], [-9.0281077, 38.6270534], [-9.0283801, 38.6269319], [-9.0289759, 38.6266542], [-9.029367, 38.6264728], [-9.0296333, 38.6263775]]}, "properties": {"highway": "primary", "name": "Rua Alberto Pinto", "ref": "EN 11-2"}}, {"type": "Feature", "geometry": {"type": "LineString", "coordinates": [[-9.043013, 38.6224964], [-9.0418765, 38.6225483], [-9.0409964, 38.6225858], [-9.0405759, 38.622602], [-9.040189, 38.6226106], [-9.0401368, 38.6226118], [-9.0399262, 38.6226093], [-9.0397281, 38.6226011], [-9.0395058, 38.6225885]]}, "properties": {"highway": "primary", "lanes": "2", "ref": "EN 11-2", "surface": "asphalt"}}, {"type": "Feature", "geometry": {"type": "LineString", "coordinates": [[-9.0367764, 38.6225273], [-9.0366087, 38.6225875], [-9.0364809, 38.6226455], [-9.0363526, 38.6227168], [-9.0358675, 38.6229793]]}, "properties": {"highway": "primary", "oneway": "yes", "ref": "EN 11-2"}}, {"type": "Feature", "geometry": {"type": "LineString", "coordinates": [[-9.0348438, 38.6236134], [-9.0349478, 38.6235389], [-9.0350601, 38.6234708]]}, "properties": {"highway": "primary", "oneway": "yes", "ref": "EN 11-2"}}, {"type": "Feature", "geometry": {"type": "LineString", "coordinates": [[-9.034774, 38.623566], [-9.0345806, 38.623725]]}, "properties": {"highway": "primary", "oneway": "yes", "ref": "EN 11-2"}}, {"type": "Feature", "geometry": {"type": "LineString", "coordinates": [[-9.0342736, 38.6241529], [-9.034455, 38.6239724], [-9.0345794, 38.62382], [-9.0348438, 38.6236134]]}, "properties": {"highway": "primary", "oneway": "yes", "ref": "EN 11-2"}}, {"type": "Feature", "geometry": {"type": "LineString", "coordinates": [[-9.0008851, 38.6424224], [-9.0007274, 38.6425599]]}, "properties": {"highway": "primary", "lanes": "2", "ref": "EN 11-2", "surface": "asphalt"}}, {"type": "Feature", "geometry": {"type": "LineString", "coordinates": [[-9.0010916, 38.6422422], [-9.0008851, 38.6424224]]}, "properties": {"highway": "primary", "lanes": "2", "ref": "EN 11-2"}}, {"type": "Feature", "geometry": {"type": "LineString", "coordinates": [[-9.0007274, 38.6425599], [-9.0004674, 38.6427868], [-9.0003052, 38.6429282], [-8.9995941, 38.643553], [-8.9993211, 38.6438405], [-8.9992779, 38.6439073], [-8.9991984, 38.6440685], [-8.9990979, 38.644314], [-8.9988935, 38.6449865]]}, "properties": {"highway": "primary", "lanes": "2", "ref": "EN 11-2", "surface": "asphalt"}}, {"type": "Feature", "geometry": {"type": "LineString", "coordinates": [[-8.997185, 38.6490706], [-8.9972013, 38.6489605], [-8.9972219, 38.6488855], [-8.997252, 38.648802]]}, "properties": {"highway": "primary", "lanes": "1", "oneway": "yes", "ref": "EN 11-2", "surface": "asphalt"}}, {"type": "Feature", "geometry": {"type": "LineString", "coordinates": [[-8.997252, 38.648802], [-8.9972073, 38.6488398], [-8.9971041, 38.6488992], [-8.9970504, 38.6489202], [-8.9969562, 38.6489364]]}, "properties": {"highway": "primary", "lanes": "1", "oneway": "yes", "ref": "EN 11-2", "surface": "asphalt"}}, {"type": "Feature", "geometry": {"type": "LineString", "coordinates": [[-8.997185, 38.6490706], [-8.9971514, 38.6490172], [-8.9970984, 38.6489745], [-8.9970311, 38.6489467], [-8.9969562, 38.6489364]]}, "properties": {"highway": "primary", "junction": "roundabout", "lanes": "3", "ref": "EN 11-2", "surface": "asphalt"}}, {"type": "Feature", "geometry": {"type": "LineString", "coordinates": [[-8.996978, 38.6493166], [-8.9970487, 38.649302], [-8.9971108, 38.6492717], [-8.9971586, 38.6492284], [-8.9971878, 38.649176], [-8.9971957, 38.6491192]]}, "properties": {"highway": "primary", "junction": "roundabout", "lanes": "3", "ref": "EN 11-2"}}, {"type": "Feature", "geometry": {"type": "LineString", "coordinates": [[-8.9969562, 38.6489364], [-8.9969039, 38.64894], [-8.9968539, 38.6489524]]}, "properties": {"highway": "primary", "junction": "roundabout", "lanes": "3", "ref": "EN 11-2", "surface": "asphalt"}}, {"type": "Feature", "geometry": {"type": "LineString", "coordinates": [[-8.9968539, 38.6489524], [-8.9967991, 38.6489783], [-8.9967548, 38.6490144], [-8.9967241, 38.6490583], [-8.996709, 38.649107]]}, "properties": {"highway": "primary", "junction": "roundabout", "lanes": "3", "ref": "EN 11-2"}}, {"type": "Feature", "geometry": {"type": "LineString", "coordinates": [[-9.0350601, 38.6234708], [-9.0352892, 38.6233487]]}, "properties": {"highway": "primary", "oneway": "yes", "ref": "EN 11-2"}}, {"type": "Feature", "geometry": {"type": "LineString", "coordinates": [[-9.0345806, 38.623725], [-9.0344693, 38.6238145], [-9.0342048, 38.6241041], [-9.0339918, 38.6243604], [-9.0338174, 38.6245702]]}, "properties": {"highway": "primary", "oneway": "yes", "ref": "EN 11-2"}}, {"type": "Feature", "geometry": {"type": "LineString", "coordinates": [[-9.0348875, 38.6234904], [-9.034774, 38.623566]]}, "properties": {"highway": "primary", "oneway": "yes", "ref": "EN 11-2"}}, {"type": "Feature", "geometry": {"type": "LineString", "coordinates": [[-9.0369281, 38.6225774], [-9.0371125, 38.6225334], [-9.0372185, 38.6225166], [-9.0373439, 38.6225051], [-9.0374619, 38.6224988], [-9.0375893, 38.6224977], [-9.0377455, 38.622504], [-9.0381047, 38.6225273], [-9.0386568, 38.6225658]]}, "properties": {"highway": "primary", "oneway": "yes", "ref": "EN 11-2"}}, {"type": "Feature", "geometry": {"type": "LineString", "coordinates": [[-9.0054661, 38.6409286], [-9.0055483, 38.6409204], [-9.0056019, 38.6409184], [-9.0056569, 38.6409241], [-9.0057083, 38.6409392]]}, "properties": {"highway": "primary", "lanes": "1", "oneway": "yes", "ref": "EN 11-2"}}, {"type": "Feature", "geometry": {"type": "LineString", "coordinates": [[-9.0062011, 38.6406554], [-9.0060955, 38.6406685], [-9.0060525, 38.6406685], [-9.0059715, 38.6406652]]}, "properties": {"highway": "primary", "lanes": "1", "oneway": "yes", "ref": "EN 11-2"}}, {"type": "Feature", "geometry": {"type": "LineString", "coordinates": [[-9.0056107, 38.6407669], [-9.0055798, 38.6408309], [-9.005553, 38.6408665], [-9.0055208, 38.6408937], [-9.0054661, 38.6409286]]}, "properties": {"highway": "primary", "lanes": "1", "oneway": "yes", "ref": "EN 11-2"}}, {"type": "Feature", "geometry": {"type": "LineString", "coordinates": [[-9.0060443, 38.6408239], [-9.0060713, 38.6407644], [-9.0061048, 38.6407246], [-9.0061431, 38.6406952], [-9.0062011, 38.6406554]]}, "properties": {"highway": "primary", "lanes": "1", "oneway": "yes", "ref": "EN 11-2"}}, {"type": "Feature", "geometry": {"type": "LineString", "coordinates": [[-9.0060443, 38.6408239], [-9.0060473, 38.6407901], [-9.0060418, 38.6407565], [-9.006028, 38.6407244], [-9.0060063, 38.640695], [-9.0059715, 38.6406652]]}, "properties": {"highway": "primary", "junction": "roundabout", "lanes": "2", "ref": "EN 11-2"}}, {"type": "Feature", "geometry": {"type": "LineString", "coordinates": [[-9.0219608, 38.6285119], [-9.0220926, 38.6283555], [-9.0222885, 38.6281979], [-9.02252, 38.6280714]]}, "properties": {"highway": "primary", "name": "Largo dos Ca\u00e7adores", "ref": "EN 11-2"}}, {"type": "Feature", "geometry": {"type": "LineString", "coordinates": [[-9.0296333, 38.6263775], [-9.0298216, 38.6263102], [-9.0316907, 38.625775], [-9.0318017, 38.6257434], [-9.031914, 38.6257038], [-9.0319868, 38.6256755], [-9.0322004, 38.6255912], [-9.0323476, 38.6255184], [-9.0324509, 38.6254673]]}, "properties": {"highway": "primary", "name": "Rua Engenheiro Duarte Pacheco", "ref": "EN 11-2"}}, {"type": "Feature", "geometry": {"type": "LineString", "coordinates": [[-9.0391092, 38.6225621], [-9.0390498, 38.6225582]]}, "properties": {"highway": "primary", "ref": "EN 11-2", "surface": "asphalt"}}, {"type": "Feature", "geometry": {"type": "LineString", "coordinates": [[-9.0386568, 38.6225658], [-9.0390002, 38.622555]]}, "properties": {"highway": "primary", "oneway": "yes", "ref": "EN 11-2", "surface": "asphalt"}}, {"type": "Feature", "geometry": {"type": "LineString", "coordinates": [[-9.043013, 38.6224964], [-9.0431492, 38.6224962], [-9.0432404, 38.6224915], [-9.0432974, 38.6224862], [-9.0433943, 38.6224723], [-9.0435941, 38.6224315], [-9.0438496, 38.6223594], [-9.0445304, 38.6221361], [-9.0449823, 38.6219894]]}, "properties": {"highway": "primary", "oneway": "yes", "ref": "EN 11-2", "surface": "asphalt"}}, {"type": "Feature", "geometry": {"type": "LineString", "coordinates": [[-9.0460356, 38.6216248], [-9.0456547, 38.6217072], [-9.0454042, 38.6217701], [-9.0450301, 38.6218796], [-9.044804, 38.6219553]]}, "properties": {"highway": "primary", "oneway": "yes", "ref": "EN 11-2", "surface": "asphalt"}}, {"type": "Feature", "geometry": {"type": "LineString", "coordinates": [[-9.0471548, 38.6212593], [-9.0468009, 38.6213751], [-9.0461779, 38.6215791]]}, "properties": {"highway": "primary", "ref": "EN 11-2", "surface": "asphalt"}}, {"type": "Feature", "geometry": {"type": "LineString", "coordinates": [[-9.0461779, 38.6215791], [-9.0460356, 38.6216248]]}, "properties": {"highway": "primary", "ref": "EN 11-2", "surface": "asphalt"}}, {"type": "Feature", "geometry": {"type": "LineString", "coordinates": [[-9.044804, 38.6219553], [-9.0445392, 38.6220426]]}, "properties": {"highway": "primary", "oneway": "yes", "ref": "EN 11-2", "surface": "asphalt"}}, {"type": "Feature", "geometry": {"type": "LineString", "coordinates": [[-9.0445392, 38.6220426], [-9.0442992, 38.6221224], [-9.0434499, 38.6223901], [-9.0432611, 38.6224524], [-9.0431998, 38.6224684], [-9.0431337, 38.6224815], [-9.043013, 38.6224964]]}, "properties": {"highway": "primary", "oneway": "yes", "ref": "EN 11-2", "surface": "asphalt"}}, {"type": "Feature", "geometry": {"type": "LineString", "coordinates": [[-9.0449823, 38.6219894], [-9.0455729, 38.6217942], [-9.0460356, 38.6216248]]}, "properties": {"highway": "primary", "oneway": "yes", "ref": "EN 11-2", "surface": "asphalt"}}, {"type": "Feature", "geometry": {"type": "LineString", "coordinates": [[-9.0175132, 38.6355484], [-9.017523, 38.635543], [-9.0177379, 38.6354242], [-9.018032, 38.6352701], [-9.0182451, 38.6350975], [-9.0184258, 38.6349214], [-9.0184485, 38.6348993], [-9.0185916, 38.6346535], [-9.0186517, 38.6344126], [-9.0187126, 38.6338183], [-9.0187698, 38.6332598], [-9.018872, 38.6330128], [-9.019058, 38.632782], [-9.019248, 38.632547], [-9.020811, 38.6310382], [-9.0209419, 38.6309169], [-9.0210953, 38.6307715], [-9.0212258, 38.6306348], [-9.0213377, 38.6304936], [-9.0214028, 38.6303802], [-9.0214483, 38.6302592], [-9.0214826, 38.6301607], [-9.0215473, 38.6299141], [-9.0217113, 38.6292461], [-9.0217689, 38.6290227], [-9.0217823, 38.6289707], [-9.0217924, 38.6289313], [-9.0218554, 38.6287143], [-9.0219608, 38.6285119]]}, "properties": {"highway": "primary", "lanes": "2", "ref": "EN 11-2"}}, {"type": "Feature", "geometry": {"type": "LineString", "coordinates": [[-9.0059287, 38.6406425], [-9.0058803, 38.6406283], [-9.0058291, 38.6406233], [-9.0057777, 38.6406278], [-9.0057291, 38.6406415]]}, "properties": {"highway": "primary", "junction": "roundabout", "lanes": "2", "ref": "EN 11-2"}}, {"type": "Feature", "geometry": {"type": "LineString", "coordinates": [[-9.0057083, 38.6409392], [-9.0057536, 38.6409567], [-9.0058028, 38.6409656], [-9.0058533, 38.6409655]]}, "properties": {"highway": "primary", "junction": "roundabout", "lanes": "2", "ref": "EN 11-2"}}, {"type": "Feature", "geometry": {"type": "LineString", "coordinates": [[-9.0058533, 38.6409655], [-9.0059024, 38.6409564], [-9.0059476, 38.6409388], [-9.0059865, 38.6409136], [-9.0059886, 38.6409115], [-9.0060132, 38.6408869], [-9.0060328, 38.6408566]]}, "properties": {"highway": "primary", "junction": "roundabout", "lanes": "2", "ref": "EN 11-2"}}, {"type": "Feature", "geometry": {"type": "LineString", "coordinates": [[-9.0060328, 38.6408566], [-9.0060443, 38.6408239]]}, "properties": {"highway": "primary", "junction": "roundabout", "lanes": "2", "ref": "EN 11-2", "surface": "asphalt"}}, {"type": "Feature", "geometry": {"type": "LineString", "coordinates": [[-9.0173569, 38.6356314], [-9.0174414, 38.6355881], [-9.0175132, 38.6355484]]}, "properties": {"highway": "primary", "lanes": "2", "ref": "EN 11-2"}}, {"type": "Feature", "geometry": {"type": "LineString", "coordinates": [[-9.0056107, 38.6407669], [-9.0056083, 38.6408072], [-9.005618, 38.6408469], [-9.0056387, 38.6408828], [-9.0056693, 38.6409142]]}, "properties": {"highway": "primary", "junction": "roundabout", "lanes": "2", "ref": "EN 11-2"}}, {"type": "Feature", "geometry": {"type": "LineString", "coordinates": [[-9.0054661, 38.6409286], [-9.0053716, 38.6409646], [-9.004558, 38.641267], [-9.0043103, 38.6413519]]}, "properties": {"highway": "primary", "lanes": "2", "ref": "EN 11-2"}}, {"type": "Feature", "geometry": {"type": "LineString", "coordinates": [[-9.0043103, 38.6413519], [-9.003957, 38.641473], [-9.003698, 38.641547], [-9.0034293, 38.64161], [-9.0032983, 38.6416369]]}, "properties": {"highway": "primary", "lanes": "2", "ref": "EN 11-2"}}, {"type": "Feature", "geometry": {"type": "LineString", "coordinates": [[-9.0056693, 38.6409142], [-9.0057083, 38.6409392]]}, "properties": {"highway": "primary", "junction": "roundabout", "lanes": "2", "ref": "EN 11-2"}}, {"type": "Feature", "geometry": {"type": "LineString", "coordinates": [[-8.9971957, 38.6491192], [-8.9971924, 38.6490946], [-8.997185, 38.6490706]]}, "properties": {"highway": "primary", "junction": "roundabout", "lanes": "3", "ref": "EN 11-2", "surface": "asphalt"}}, {"type": "Feature", "geometry": {"type": "LineString", "coordinates": [[-9.0059715, 38.6406652], [-9.0059287, 38.6406425]]}, "properties": {"highway": "primary", "junction": "roundabout", "lanes": "2", "ref": "EN 11-2"}}, {"type": "Feature", "geometry": {"type": "LineString", "coordinates": [[-9.0057291, 38.6406415], [-9.005686, 38.6406637], [-9.0056506, 38.6406931], [-9.0056251, 38.6407282], [-9.0056107, 38.6407669]]}, "properties": {"highway": "primary", "junction": "roundabout", "lanes": "2", "ref": "EN 11-2"}}, {"type": "Feature", "geometry": {"type": "LineString", "coordinates": [[-9.0390498, 38.6225582], [-9.0390002, 38.622555]]}, "properties": {"highway": "primary", "ref": "EN 11-2", "surface": "asphalt"}}, {"type": "Feature", "geometry": {"type": "LineString", "coordinates": [[-9.0395058, 38.6225885], [-9.0391092, 38.6225621]]}, "properties": {"highway": "primary", "lanes": "2", "ref": "EN 11-2", "surface": "asphalt"}}]}