{"type": "FeatureCollection", "features": [{"type": "Feature", "geometry": {"type": "LineString", "coordinates": [[-9.1704595, 38.6441024], [-9.1704327, 38.6440843], [-9.1703996, 38.6440746], [-9.1703642, 38.6440743], [-9.1703309, 38.6440835], [-9.1703037, 38.6441012]]}, "properties": {"highway": "primary", "junction": "roundabout", "lit": "yes", "ref": "EN 10-1", "surface": "asphalt"}}, {"type": "Feature", "geometry": {"type": "LineString", "coordinates": [[-9.1725209, 38.6448313], [-9.1724952, 38.6448029], [-9.1724769, 38.6447911], [-9.1724363, 38.6447768], [-9.1724111, 38.6447738], [-9.1723525, 38.6447824]]}, "properties": {"highway": "primary", "junction": "roundabout", "lit": "yes", "ref": "EN 10-1", "surface": "asphalt"}}, {"type": "Feature", "geometry": {"type": "LineString", "coordinates": [[-9.2004775, 38.647419], [-9.2005362, 38.6474403], [-9.2005932, 38.6474519], [-9.2009667, 38.6474953], [-9.2010364, 38.6474953], [-9.2010969, 38.6474902]]}, "properties": {"bridge": "yes", "highway": "primary", "layer": "1", "oneway": "yes", "ref": "EN 10-1"}}, {"type": "Feature", "geometry": {"type": "LineString", "coordinates": [[-9.2011152, 38.647008], [-9.2010515, 38.6469952], [-9.2006944, 38.6469538], [-9.2006495, 38.6469499], [-9.2006096, 38.6469504], [-9.2005698, 38.6469555]]}, "properties": {"bridge": "yes", "highway": "primary", "layer": "1", "oneway": "yes", "ref": "EN 10-1", "source": "Bing"}}, {"type": "Feature", "geometry": {"type": "LineString", "coordinates": [[-9.16057, 38.6416918], [-9.1607915, 38.6416744]]}, "properties": {"highway": "primary", "name": "Rua Casa do Povo", "oneway": "yes", "ref": "EN 10-1"}}, {"type": "Feature", "geometry": {"type": "LineString", "coordinates": [[-9.1607832, 38.6414695], [-9.1607427, 38.6414805], [-9.1607089, 38.6415011], [-9.1606853, 38.6415289], [-9.1606742, 38.6415613]]}, "properties": {"highway": "primary", "junction": "roundabout", "oneway": "yes", "ref": "EN 10-1"}}, {"type": "Feature", "geometry": {"type": "LineString", "coordinates": [[-9.159853, 38.6417601], [-9.1596631, 38.6417466], [-9.1592934, 38.6417027], [-9.1585988, 38.6416193], [-9.1580817, 38.6415659], [-9.1578157, 38.641537], [-9.1577354, 38.6415283], [-9.1574919, 38.6415029], [-9.1573766, 38.6414932]]}, "properties": {"highway": "primary", "name": "Rua Casa do Povo", "ref": "EN 10-1"}}, {"type": "Feature", "geometry": {"type": "LineString", "coordinates": [[-9.1606778, 38.6415974], [-9.1606486, 38.6416264], [-9.16057, 38.6416918]]}, "properties": {"highway": "primary", "name": "Rua Casa do Povo", "oneway": "yes", "ref": "EN 10-1"}}, {"type": "Feature", "geometry": {"type": "LineString", "coordinates": [[-9.1572188, 38.641522], [-9.1573766, 38.6414932]]}, "properties": {"highway": "primary", "name": "Rua Casa do Povo", "oneway": "yes", "ref": "EN 10-1", "surface": "asphalt"}}, {"type": "Feature", "geometry": {"type": "LineString", "coordinates": [[-9.1573766, 38.6414932], [-9.1571855, 38.6414516]]}, "properties": {"highway": "primary", "name": "Rua Casa do Povo", "oneway": "yes", "ref": "EN 10-1", "surface": "asphalt"}}, {"type": "Feature", "geometry": {"type": "LineString", "coordinates": [[-9.1612385, 38.6415976], [-9.1611045, 38.6415751], [-9.1610464, 38.64156], [-9.1610305, 38.6415538], [-9.1609096, 38.6415068]]}, "properties": {"highway": "primary", "name": "Rua Casa do Povo", "oneway": "yes", "ref": "EN 10-1"}}, {"type": "Feature", "geometry": {"type": "LineString", "coordinates": [[-9.1608873, 38.6416534], [-9.1609998, 38.6416232], [-9.1610816, 38.6416105], [-9.1611526, 38.6416047], [-9.1612385, 38.6415976]]}, "properties": {"highway": "primary", "name": "Rua Casa do Povo", "oneway": "yes", "ref": "EN 10-1"}}, {"type": "Feature", "geometry": {"type": "LineString", "coordinates": [[-9.2333092, 38.6447688], [-9.2333352, 38.644794], [-9.2333478, 38.6448108], [-9.2333599, 38.644831], [-9.2333921, 38.6448925], [-9.2334095, 38.6449241], [-9.2337434, 38.6455458], [-9.2338433, 38.6457124], [-9.2338412, 38.6457529], [-9.2338224, 38.6457948], [-9.2337628, 38.6458882]]}, "properties": {"bicycle": "yes", "cycleway": "no", "highway": "primary", "lanes": "2", "name": "Avenida Afonso de Albuquerque", "name:etymology:wikidata": "Q204397", "oneway": "yes", "ref": "EN 10-1", "surface": "asphalt"}}, {"type": "Feature", "geometry": {"type": "LineString", "coordinates": [[-9.2012254, 38.6474316], [-9.2013026, 38.6474262], [-9.2013767, 38.6474235], [-9.2014549, 38.6474257], [-9.2015407, 38.6474341], [-9.2016091, 38.6474443], [-9.2017573, 38.64747], [-9.2018572, 38.6474931], [-9.2019052, 38.6475177], [-9.2019467, 38.6475476], [-9.2019778, 38.6475747], [-9.2019995, 38.6476213]]}, "properties": {"highway": "primary", "oneway": "yes", "ref": "EN 10-1"}}, {"type": "Feature", "geometry": {"type": "LineString", "coordinates": [[-9.202114, 38.6474528], [-9.2020053, 38.6474448], [-9.2019509, 38.6474395], [-9.201811, 38.6474155], [-9.2015522, 38.6473691], [-9.201483, 38.64735], [-9.2014301, 38.6473243], [-9.2013904, 38.647287], [-9.2013253, 38.6472194]]}, "properties": {"highway": "primary", "oneway": "yes", "ref": "EN 10-1"}}, {"type": "Feature", "geometry": {"type": "LineString", "coordinates": [[-9.200445, 38.647003], [-9.2004098, 38.6470243], [-9.2003726, 38.6470609], [-9.2003344, 38.6471189], [-9.2003216, 38.6471717], [-9.2003164, 38.6472162]]}, "properties": {"highway": "primary", "oneway": "yes", "ref": "EN 10-1"}}, {"type": "Feature", "geometry": {"type": "LineString", "coordinates": [[-9.2012254, 38.6474316], [-9.2012588, 38.6474029], [-9.201293, 38.6473623], [-9.201321, 38.6473057], [-9.2013298, 38.647261], [-9.2013253, 38.6472194]]}, "properties": {"highway": "primary", "oneway": "yes", "ref": "EN 10-1"}}, {"type": "Feature", "geometry": {"type": "LineString", "coordinates": [[-9.226547, 38.651657], [-9.2265953, 38.6515732], [-9.2268399, 38.6511723], [-9.2271084, 38.6507335], [-9.2272809, 38.6504424], [-9.2273355, 38.6503501], [-9.227365, 38.6502956], [-9.2273882, 38.6502455], [-9.2274096, 38.6501953], [-9.2274284, 38.650145], [-9.2274499, 38.6500863], [-9.2274696, 38.6500212], [-9.227483, 38.6499667], [-9.2274954, 38.6499062], [-9.2275044, 38.6498494], [-9.2275125, 38.6497949], [-9.2275178, 38.6497342], [-9.2275205, 38.6496651], [-9.2275232, 38.6495938], [-9.2275205, 38.6495184], [-9.2275125, 38.6494451], [-9.2275, 38.6493679], [-9.2274851, 38.6492955], [-9.2274655, 38.6492164], [-9.2274448, 38.6491588], [-9.2274213, 38.6490932], [-9.2273918, 38.6490241], [-9.2273518, 38.6489424], [-9.2273086, 38.6488586], [-9.2272496, 38.6487601], [-9.2271799, 38.648647], [-9.2271262, 38.6485653], [-9.2270646, 38.6484794], [-9.2269948, 38.6483873], [-9.2269107, 38.6482869], [-9.2268312, 38.6481987], [-9.2267444, 38.6481089], [-9.2266488, 38.6480081], [-9.2265728, 38.6479329], [-9.2262777, 38.6476438], [-9.2261526, 38.6475179], [-9.226107, 38.6474739], [-9.2260631, 38.6474322], [-9.2260131, 38.6473901], [-9.2259702, 38.6473566], [-9.2259219, 38.6473231], [-9.2258781, 38.647294], [-9.2258334, 38.6472686], [-9.2257825, 38.6472435], [-9.2257208, 38.6472163], [-9.2256581, 38.6471913], [-9.2255991, 38.6471725], [-9.2253146, 38.6471098]]}, "properties": {"highway": "primary", "lanes": "2", "ref": "EN 10-1"}}, {"type": "Feature", "geometry": {"type": "LineString", "coordinates": [[-9.1717835, 38.6447612], [-9.1716836, 38.644717], [-9.1715036, 38.6446813], [-9.1713336, 38.6446416], [-9.1712642, 38.644625], [-9.1710698, 38.6446187]]}, "properties": {"highway": "primary", "lit": "yes", "oneway": "yes", "parking:both": "no", "ref": "EN 10-1", "sidewalk": "right", "surface": "asphalt"}}, {"type": "Feature", "geometry": {"type": "LineString", "coordinates": [[-9.1724403, 38.6449703], [-9.1725705, 38.6449607], [-9.1726617, 38.6449683], [-9.1728192, 38.6449922]]}, "properties": {"highway": "primary", "lit": "yes", "oneway": "yes", "parking:both": "no", "ref": "EN 10-1", "surface": "asphalt"}}, {"type": "Feature", "geometry": {"type": "LineString", "coordinates": [[-9.1704595, 38.6441024], [-9.1704306, 38.6440325], [-9.1703769, 38.6439152], [-9.1703211, 38.6438008], [-9.1702686, 38.643692]]}, "properties": {"highway": "primary", "lit": "yes", "oneway": "yes", "parking:both": "no", "ref": "EN 10-1", "surface": "asphalt"}}, {"type": "Feature", "geometry": {"type": "LineString", "coordinates": [[-9.1702686, 38.643692], [-9.1703017, 38.6438538], [-9.170309, 38.6439021], [-9.1703141, 38.643979], [-9.1703037, 38.6441012]]}, "properties": {"highway": "primary", "lit": "yes", "oneway": "yes", "parking:both": "no", "ref": "EN 10-1", "surface": "asphalt"}}, {"type": "Feature", "geometry": {"type": "LineString", "coordinates": [[-9.1702686, 38.643692], [-9.1701924, 38.6433274], [-9.1701697, 38.643249], [-9.1701334, 38.6431735], [-9.170094, 38.6430958], [-9.1700387, 38.6430242], [-9.1699289, 38.6429055], [-9.1698202, 38.642797], [-9.1696981, 38.6426845], [-9.1695648, 38.6425703], [-9.1693771, 38.6424094], [-9.1692884, 38.6423333], [-9.169182, 38.6422304], [-9.1690526, 38.6420912], [-9.1689448, 38.6419725], [-9.1688576, 38.6418827], [-9.1687673, 38.641801], [-9.1686918, 38.6417472], [-9.1685889, 38.6416874], [-9.168432, 38.6416045], [-9.168276, 38.6415286], [-9.1681019, 38.6414435], [-9.1679279, 38.6413606], [-9.1678329, 38.6413225], [-9.1677312, 38.6412907], [-9.1676233, 38.6412709], [-9.1675279, 38.6412631], [-9.1674292, 38.6412611], [-9.1673147, 38.6412647], [-9.1668745, 38.6413076], [-9.1664869, 38.6413447], [-9.1662128, 38.6413687], [-9.1660705, 38.6413818], [-9.1656418, 38.6414159]]}, "properties": {"highway": "primary", "ref": "EN 10-1", "source": "bing", "surface": "asphalt"}}, {"type": "Feature", "geometry": {"type": "LineString", "coordinates": [[-9.1728192, 38.6449922], [-9.1726841, 38.6449366], [-9.1726015, 38.6449035], [-9.1725328, 38.6448674]]}, "properties": {"highway": "primary", "lit": "yes", "oneway": "yes", "parking:both": "no", "ref": "EN 10-1", "surface": "asphalt"}}, {"type": "Feature", "geometry": {"type": "LineString", "coordinates": [[-9.2249712, 38.6469611], [-9.224947, 38.64692], [-9.2249081, 38.6468866], [-9.224874, 38.6468694], [-9.224836, 38.6468583], [-9.2247958, 38.6468537], [-9.2247553, 38.646856], [-9.2247164, 38.6468649], [-9.2246807, 38.6468802], [-9.2246501, 38.646901], [-9.2246258, 38.6469264], [-9.2246125, 38.6469478]]}, "properties": {"highway": "primary", "junction": "roundabout", "ref": "EN 10-1"}}, {"type": "Feature", "geometry": {"type": "LineString", "coordinates": [[-9.200445, 38.647003], [-9.2003477, 38.6470002], [-9.2002829, 38.6469936], [-9.2002193, 38.6469847], [-9.2001429, 38.6469642], [-9.2000024, 38.6469339], [-9.199594, 38.6468779], [-9.1995035, 38.6468616], [-9.1994458, 38.6468438], [-9.1994008, 38.64682], [-9.19936, 38.6467894], [-9.1993102, 38.6467144]]}, "properties": {"highway": "primary", "oneway": "yes", "ref": "EN 10-1", "surface": "asphalt"}}, {"type": "Feature", "geometry": {"type": "LineString", "coordinates": [[-9.1991655, 38.646917], [-9.1992899, 38.6468991], [-9.1993473, 38.6469009], [-9.199414, 38.6469097], [-9.1995885, 38.6469414], [-9.1996035, 38.6469434], [-9.2000119, 38.6469975], [-9.20016, 38.6470371], [-9.2002267, 38.6470697], [-9.2002497, 38.6470884], [-9.2002926, 38.647134], [-9.2003164, 38.6472162]]}, "properties": {"highway": "primary", "oneway": "yes", "ref": "EN 10-1"}}, {"type": "Feature", "geometry": {"type": "LineString", "coordinates": [[-9.1986583, 38.64705], [-9.1983919, 38.6472059], [-9.1982092, 38.647314], [-9.1980927, 38.6473822], [-9.1975446, 38.6477028]]}, "properties": {"highway": "primary", "ref": "EN 10-1"}}, {"type": "Feature", "geometry": {"type": "LineString", "coordinates": [[-9.1986583, 38.64705], [-9.1988477, 38.6469591], [-9.1989074, 38.6469454], [-9.1989718, 38.646935], [-9.1990578, 38.6469318]]}, "properties": {"highway": "primary", "oneway": "yes", "ref": "EN 10-1"}}, {"type": "Feature", "geometry": {"type": "LineString", "coordinates": [[-9.2026762, 38.647279], [-9.202517, 38.6473628], [-9.2024232, 38.6473997], [-9.2022739, 38.6474267]]}, "properties": {"highway": "primary", "oneway": "yes", "ref": "EN 10-1"}}, {"type": "Feature", "geometry": {"type": "LineString", "coordinates": [[-9.2246125, 38.6469478], [-9.2245718, 38.6470112], [-9.2245477, 38.6470447], [-9.2245182, 38.6470803], [-9.2244833, 38.6471138], [-9.2244511, 38.6471441], [-9.2244158, 38.6471721], [-9.2243431, 38.647206]]}, "properties": {"highway": "primary", "oneway": "yes", "ref": "EN 10-1"}}, {"type": "Feature", "geometry": {"type": "LineString", "coordinates": [[-9.2243431, 38.647206], [-9.2245213, 38.6471818], [-9.2246367, 38.6471574], [-9.2247107, 38.6471363]]}, "properties": {"highway": "primary", "oneway": "yes", "ref": "EN 10-1"}}, {"type": "Feature", "geometry": {"type": "LineString", "coordinates": [[-9.2253146, 38.6471098], [-9.2251586, 38.6470578], [-9.2250962, 38.6470269], [-9.225035, 38.6469957], [-9.2249712, 38.6469611]]}, "properties": {"highway": "primary", "oneway": "yes", "ref": "EN 10-1"}}, {"type": "Feature", "geometry": {"type": "LineString", "coordinates": [[-9.2249035, 38.6471195], [-9.2249729, 38.6471142], [-9.2250212, 38.64711], [-9.2250882, 38.64711], [-9.2251509, 38.6471076], [-9.2253146, 38.6471098]]}, "properties": {"highway": "primary", "oneway": "yes", "ref": "EN 10-1"}}, {"type": "Feature", "geometry": {"type": "LineString", "coordinates": [[-9.1781254, 38.648342], [-9.177949, 38.6482059], [-9.1777747, 38.6480682], [-9.1776145, 38.6479555], [-9.1774796, 38.647866], [-9.1772915, 38.6477502], [-9.1765418, 38.6472947], [-9.1763661, 38.6471826], [-9.176245, 38.6470979], [-9.1761054, 38.6469921], [-9.1759614, 38.6468631], [-9.1756216, 38.6465176], [-9.1755075, 38.646416], [-9.1753832, 38.6463195], [-9.1752256, 38.6462223], [-9.1751128, 38.6461609]]}, "properties": {"highway": "primary", "lanes": "2", "lit": "yes", "ref": "EN 10-1", "source": "bing", "surface": "asphalt"}}, {"type": "Feature", "geometry": {"type": "LineString", "coordinates": [[-9.2063217, 38.6475262], [-9.2062031, 38.6475665], [-9.2060528, 38.6476043], [-9.2057913, 38.6476552], [-9.2056857, 38.6476733], [-9.2056162, 38.6476852], [-9.2054587, 38.6476975], [-9.2053185, 38.647698], [-9.2051946, 38.6476844], [-9.2050805, 38.6476545], [-9.2049777, 38.6476073], [-9.204695, 38.6474396], [-9.2045529, 38.6473611], [-9.2043557, 38.6472521], [-9.2043278, 38.6472413], [-9.2040659, 38.6471403], [-9.2037962, 38.6470358], [-9.2036063, 38.6469896], [-9.2035226, 38.646983], [-9.2034028, 38.6469873], [-9.2032709, 38.6469998], [-9.2031426, 38.6470287], [-9.2030168, 38.6470761], [-9.2027882, 38.6472075], [-9.2026762, 38.647279]]}, "properties": {"highway": "primary", "ref": "EN 10-1", "surface": "asphalt"}}, {"type": "Feature", "geometry": {"type": "LineString", "coordinates": [[-9.1889753, 38.6506297], [-9.1886444, 38.65045], [-9.1882302, 38.650225], [-9.1872447, 38.6496931], [-9.1870274, 38.6495816], [-9.186857, 38.649505], [-9.186744, 38.649463], [-9.186693, 38.6494475], [-9.186603, 38.6494202], [-9.1864849, 38.6493864], [-9.1863646, 38.6493537], [-9.1862355, 38.6493197], [-9.1850496, 38.6490076], [-9.1843657, 38.6488506], [-9.1841007, 38.6487928], [-9.1839906, 38.6487678], [-9.183897, 38.6487463], [-9.1837045, 38.6487019], [-9.1835501, 38.6486661], [-9.1834654, 38.6486465], [-9.1832485, 38.6485972]]}, "properties": {"highway": "primary", "lanes": "2", "lit": "yes", "ref": "EN 10-1", "source": "bing", "surface": "asphalt"}}, {"type": "Feature", "geometry": {"type": "LineString", "coordinates": [[-9.1975446, 38.6477028], [-9.1964222, 38.6483609], [-9.1960618, 38.6485722], [-9.1954829, 38.6489059], [-9.1952121, 38.649078], [-9.1949758, 38.6492559], [-9.1946555, 38.6495148], [-9.1944138, 38.649721], [-9.1939261, 38.650129], [-9.1937637, 38.650268], [-9.1934342, 38.6505467], [-9.1923215, 38.6514714], [-9.1921614, 38.6515589], [-9.1920685, 38.651602], [-9.1919701, 38.651637], [-9.191849, 38.6516673], [-9.1917289, 38.6516903], [-9.1916017, 38.6517078], [-9.1914605, 38.6517156], [-9.1913129, 38.6517135], [-9.191166, 38.6516985], [-9.1910351, 38.6516681], [-9.1909199, 38.6516343], [-9.1907616, 38.6515751], [-9.1905519, 38.6514812], [-9.1902301, 38.6513056], [-9.1900192, 38.6511905], [-9.1896852, 38.6510112], [-9.189569, 38.6509488], [-9.1895369, 38.650932], [-9.1894509, 38.6508869]]}, "properties": {"highway": "primary", "lanes": "2", "ref": "EN 10-1", "surface": "asphalt"}}, {"type": "Feature", "geometry": {"type": "LineString", "coordinates": [[-9.2167459, 38.6461166], [-9.2167866, 38.6461449], [-9.2168364, 38.6461795], [-9.216882, 38.6462153], [-9.2169358, 38.6462704], [-9.2169797, 38.6463304]]}, "properties": {"highway": "primary", "ref": "EN 10-1"}}, {"type": "Feature", "geometry": {"type": "LineString", "coordinates": [[-9.21065, 38.6446109], [-9.2105802, 38.6446259], [-9.2104539, 38.6446839], [-9.2103899, 38.6447228], [-9.2103338, 38.6447616], [-9.2096519, 38.645359], [-9.209281, 38.6457001], [-9.2091876, 38.6457571], [-9.2089521, 38.6458503], [-9.2088817, 38.6458707], [-9.2081899, 38.6460717]]}, "properties": {"highway": "primary", "ref": "EN 10-1"}}, {"type": "Feature", "geometry": {"type": "LineString", "coordinates": [[-9.2340631, 38.6458526], [-9.2339923, 38.6456983], [-9.2339602, 38.6456184], [-9.2339155, 38.6455381], [-9.2338533, 38.6454259], [-9.2335496, 38.6448506], [-9.233517, 38.644785], [-9.2335079, 38.644755], [-9.2335052, 38.6447308], [-9.2335018, 38.6447019], [-9.2335037, 38.6446655]]}, "properties": {"bicycle": "yes", "cycleway": "track", "highway": "primary", "lanes": "2", "name": "Rua V\u00edtimas da Guerra Colonial", "oneway": "yes", "ref": "EN 10-1", "surface": "asphalt"}}, {"type": "Feature", "geometry": {"type": "LineString", "coordinates": [[-9.2173809, 38.6463914], [-9.2172216, 38.6463137], [-9.2171453, 38.6463021], [-9.2170657, 38.6463075], [-9.2169797, 38.6463304]]}, "properties": {"highway": "primary", "oneway": "yes", "ref": "EN 10-1"}}, {"type": "Feature", "geometry": {"type": "LineString", "coordinates": [[-9.2243431, 38.647206], [-9.2242263, 38.6472345], [-9.2241697, 38.6472439], [-9.2241111, 38.6472505], [-9.2240398, 38.6472478], [-9.2239659, 38.6472339], [-9.2237968, 38.6471913], [-9.2236247, 38.6471408], [-9.2235218, 38.6471216], [-9.2233895, 38.6471033], [-9.2233064, 38.6471033], [-9.2231217, 38.6471363], [-9.2229222, 38.6471937], [-9.2227718, 38.647237], [-9.2226581, 38.6472608], [-9.2225701, 38.6472725], [-9.2224898, 38.6472752], [-9.2224235, 38.6472698], [-9.2223601, 38.6472584], [-9.2222856, 38.6472384], [-9.222228, 38.6472193], [-9.2221413, 38.6471693], [-9.2220618, 38.6471201], [-9.2219738, 38.6470603], [-9.2212638, 38.6465595], [-9.2211859, 38.6465116], [-9.2211222, 38.6464825], [-9.2210535, 38.6464606], [-9.2209704, 38.6464481], [-9.2209211, 38.6464422]]}, "properties": {"highway": "primary", "ref": "EN 10-1"}}, {"type": "Feature", "geometry": {"type": "LineString", "coordinates": [[-9.1639302, 38.6415661], [-9.163321, 38.6415714], [-9.1627459, 38.6414936], [-9.1623075, 38.6414847], [-9.1619336, 38.641482], [-9.1614165, 38.6415776], [-9.1612385, 38.6415976]]}, "properties": {"highway": "primary", "name": "Rua Casa do Povo", "ref": "EN 10-1", "surface": "asphalt"}}, {"type": "Feature", "geometry": {"type": "LineString", "coordinates": [[-9.1656418, 38.6414159], [-9.1643372, 38.6415331], [-9.1641117, 38.6415514], [-9.1639302, 38.6415661]]}, "properties": {"highway": "primary", "name": "Rua Casa do Povo", "ref": "EN 10-1", "surface": "asphalt"}}, {"type": "Feature", "geometry": {"type": "LineString", "coordinates": [[-9.2170313, 38.6464211], [-9.2171751, 38.646382], [-9.2172186, 38.646372], [-9.2172692, 38.6463694], [-9.2173809, 38.6463914]]}, "properties": {"highway": "primary", "oneway": "yes", "ref": "EN 10-1"}}, {"type": "Feature", "geometry": {"type": "LineString", "coordinates": [[-9.1722823, 38.6449042], [-9.1723029, 38.6449351], [-9.1723205, 38.6449497], [-9.1723667, 38.6449697], [-9.1724109, 38.6449741], [-9.1724403, 38.6449703]]}, "properties": {"highway": "primary", "junction": "roundabout", "lit": "yes", "ref": "EN 10-1", "surface": "asphalt"}}, {"type": "Feature", "geometry": {"type": "LineString", "coordinates": [[-9.2207524, 38.6464423], [-9.220397, 38.6464539], [-9.2196341, 38.6464861], [-9.2191895, 38.646504], [-9.2190073, 38.6465103], [-9.2187667, 38.6465186], [-9.2179268, 38.6465477], [-9.2177321, 38.6465291], [-9.2175827, 38.6464794], [-9.2173809, 38.6463914]]}, "properties": {"highway": "primary", "ref": "EN 10-1"}}, {"type": "Feature", "geometry": {"type": "LineString", "coordinates": [[-9.2209211, 38.6464422], [-9.2207524, 38.6464423]]}, "properties": {"highway": "primary", "ref": "EN 10-1"}}, {"type": "Feature", "geometry": {"type": "LineString", "coordinates": [[-9.1702881, 38.6441206], [-9.1702796, 38.6441545], [-9.1702904, 38.6441879], [-9.1703184, 38.6442147], [-9.1703584, 38.6442295]]}, "properties": {"highway": "primary", "junction": "roundabout", "lit": "yes", "ref": "EN 10-1", "surface": "asphalt"}}, {"type": "Feature", "geometry": {"type": "LineString", "coordinates": [[-9.170396, 38.6442306], [-9.1704312, 38.6442211], [-9.1704596, 38.6442022], [-9.1704774, 38.6441766], [-9.1704821, 38.6441477]]}, "properties": {"highway": "primary", "junction": "roundabout", "lit": "yes", "ref": "EN 10-1", "surface": "asphalt"}}, {"type": "Feature", "geometry": {"type": "LineString", "coordinates": [[-9.1723057, 38.6448101], [-9.1722803, 38.6448492], [-9.1722769, 38.6448839], [-9.1722823, 38.6449042]]}, "properties": {"highway": "primary", "junction": "roundabout", "lit": "yes", "ref": "EN 10-1", "surface": "asphalt"}}, {"type": "Feature", "geometry": {"type": "LineString", "coordinates": [[-9.1723525, 38.6447824], [-9.1723057, 38.6448101]]}, "properties": {"highway": "primary", "junction": "roundabout", "lit": "yes", "ref": "EN 10-1", "surface": "asphalt"}}, {"type": "Feature", "geometry": {"type": "LineString", "coordinates": [[-9.1717835, 38.6447612], [-9.1720935, 38.6448222], [-9.1721377, 38.6448309]]}, "properties": {"highway": "primary", "lit": "yes", "parking:both": "no", "ref": "EN 10-1", "sidewalk": "both", "surface": "asphalt"}}, {"type": "Feature", "geometry": {"type": "LineString", "coordinates": [[-9.1721377, 38.6448309], [-9.1722192, 38.6448631], [-9.1722823, 38.6449042]]}, "properties": {"highway": "primary", "lit": "yes", "oneway": "yes", "parking:both": "no", "ref": "EN 10-1", "surface": "asphalt"}}, {"type": "Feature", "geometry": {"type": "LineString", "coordinates": [[-9.1723057, 38.6448101], [-9.1722248, 38.6448231], [-9.1721377, 38.6448309]]}, "properties": {"highway": "primary", "lit": "yes", "oneway": "yes", "parking:both": "no", "ref": "EN 10-1", "surface": "asphalt"}}, {"type": "Feature", "geometry": {"type": "LineString", "coordinates": [[-9.1706477, 38.644337], [-9.1707632, 38.6444334], [-9.1708681, 38.6445233], [-9.1709341, 38.6445673], [-9.1709643, 38.6445829], [-9.1709984, 38.6446004], [-9.1710698, 38.6446187]]}, "properties": {"highway": "primary", "lit": "yes", "parking:both": "no", "ref": "EN 10-1", "surface": "asphalt"}}, {"type": "Feature", "geometry": {"type": "LineString", "coordinates": [[-9.1706477, 38.644337], [-9.1704821, 38.6441477]]}, "properties": {"highway": "primary", "lit": "yes", "oneway": "yes", "parking:both": "no", "ref": "EN 10-1", "surface": "asphalt"}}, {"type": "Feature", "geometry": {"type": "LineString", "coordinates": [[-9.1710698, 38.6446187], [-9.1712396, 38.6446838], [-9.1714863, 38.6447335], [-9.1716146, 38.6447587], [-9.1717835, 38.6447612]]}, "properties": {"highway": "primary", "lit": "yes", "oneway": "yes", "parking:both": "no", "ref": "EN 10-1", "sidewalk": "right", "surface": "asphalt"}}, {"type": "Feature", "geometry": {"type": "LineString", "coordinates": [[-9.170396, 38.6442306], [-9.1704512, 38.6442456], [-9.1705046, 38.6442619], [-9.1706477, 38.644337]]}, "properties": {"highway": "primary", "lit": "yes", "oneway": "yes", "parking:both": "no", "ref": "EN 10-1", "surface": "asphalt"}}, {"type": "Feature", "geometry": {"type": "LineString", "coordinates": [[-9.1703584, 38.6442295], [-9.170396, 38.6442306]]}, "properties": {"highway": "primary", "junction": "roundabout", "lit": "yes", "ref": "EN 10-1", "surface": "asphalt"}}, {"type": "Feature", "geometry": {"type": "LineString", "coordinates": [[-9.2003258, 38.6472563], [-9.2003425, 38.6472993], [-9.2003732, 38.647344], [-9.2004155, 38.6473838], [-9.2004775, 38.647419]]}, "properties": {"highway": "primary", "oneway": "yes", "ref": "EN 10-1"}}, {"type": "Feature", "geometry": {"type": "LineString", "coordinates": [[-9.2022185, 38.6474257], [-9.2021643, 38.6474346]]}, "properties": {"highway": "primary", "junction": "roundabout", "ref": "EN 10-1", "source": "Bing", "surface": "asphalt"}}, {"type": "Feature", "geometry": {"type": "LineString", "coordinates": [[-9.2020051, 38.6476565], [-9.2020151, 38.6476854], [-9.2020421, 38.6477243], [-9.20208, 38.6477572], [-9.2021213, 38.6477802], [-9.2021679, 38.6477959]]}, "properties": {"highway": "primary", "junction": "roundabout", "ref": "EN 10-1", "source": "Bing"}}, {"type": "Feature", "geometry": {"type": "LineString", "coordinates": [[-9.2024834, 38.6476028], [-9.2024736, 38.6475602], [-9.2024517, 38.6475204], [-9.2024189, 38.6474855], [-9.2023768, 38.6474574], [-9.2023276, 38.6474374], [-9.2022739, 38.6474267], [-9.2022185, 38.6474257]]}, "properties": {"highway": "primary", "junction": "roundabout", "ref": "EN 10-1", "source": "Bing", "surface": "asphalt"}}, {"type": "Feature", "geometry": {"type": "LineString", "coordinates": [[-9.2246125, 38.6469478], [-9.2246027, 38.6469747], [-9.2245995, 38.6470026], [-9.2246032, 38.6470305], [-9.2246135, 38.6470573], [-9.2246301, 38.6470822], [-9.2246524, 38.6471041], [-9.2246795, 38.6471224], [-9.2247107, 38.6471363]]}, "properties": {"highway": "primary", "junction": "roundabout", "ref": "EN 10-1"}}, {"type": "Feature", "geometry": {"type": "LineString", "coordinates": [[-9.2249035, 38.6471195], [-9.2249311, 38.6470994], [-9.2249532, 38.6470754], [-9.2249687, 38.6470484], [-9.224977, 38.6470196], [-9.2249778, 38.6469901], [-9.2249712, 38.6469611]]}, "properties": {"highway": "primary", "junction": "roundabout", "ref": "EN 10-1"}}, {"type": "Feature", "geometry": {"type": "LineString", "coordinates": [[-9.2247107, 38.6471363], [-9.2247503, 38.6471464], [-9.2247938, 38.6471495], [-9.224837, 38.6471447], [-9.2248777, 38.6471323], [-9.2249035, 38.6471195]]}, "properties": {"highway": "primary", "junction": "roundabout", "ref": "EN 10-1"}}, {"type": "Feature", "geometry": {"type": "LineString", "coordinates": [[-9.2164705, 38.6459765], [-9.2166139, 38.6460694], [-9.2167459, 38.6461166]]}, "properties": {"highway": "primary", "oneway": "yes", "ref": "EN 10-1"}}, {"type": "Feature", "geometry": {"type": "LineString", "coordinates": [[-9.2167459, 38.6461166], [-9.216644, 38.64603], [-9.2164705, 38.6459765]]}, "properties": {"highway": "primary", "oneway": "yes", "ref": "EN 10-1"}}, {"type": "Feature", "geometry": {"type": "LineString", "coordinates": [[-9.2022176, 38.6478038], [-9.2022683, 38.6478035], [-9.2023178, 38.6477949], [-9.2023639, 38.6477785], [-9.2024047, 38.647755], [-9.2024384, 38.6477254], [-9.2024653, 38.6476876], [-9.2024806, 38.647646]]}, "properties": {"highway": "primary", "junction": "roundabout", "lanes": "2", "ref": "EN 10-1", "source": "Bing", "surface": "asphalt"}}, {"type": "Feature", "geometry": {"type": "LineString", "coordinates": [[-9.2024834, 38.6476028], [-9.2025174, 38.6474681], [-9.2025518, 38.6474072], [-9.2026762, 38.647279]]}, "properties": {"highway": "primary", "oneway": "yes", "ref": "EN 10-1"}}, {"type": "Feature", "geometry": {"type": "LineString", "coordinates": [[-9.202114, 38.6474528], [-9.2020694, 38.6474801], [-9.2020341, 38.6475148], [-9.2020101, 38.6475549], [-9.2019986, 38.6475983], [-9.2019995, 38.6476213]]}, "properties": {"highway": "primary", "junction": "roundabout", "lanes": "2", "ref": "EN 10-1", "source": "Bing", "surface": "asphalt"}}, {"type": "Feature", "geometry": {"type": "LineString", "coordinates": [[-9.2003164, 38.6472162], [-9.2003258, 38.6472563]]}, "properties": {"highway": "primary", "oneway": "yes", "ref": "EN 10-1", "surface": "asphalt"}}, {"type": "Feature", "geometry": {"type": "LineString", "coordinates": [[-9.198831, 38.64677], [-9.1987759, 38.6469098], [-9.1986583, 38.64705]]}, "properties": {"highway": "primary", "oneway": "yes", "ref": "EN 10-1", "surface": "asphalt"}}, {"type": "Feature", "geometry": {"type": "LineString", "coordinates": [[-9.2005698, 38.6469555], [-9.2005473, 38.6469607], [-9.2004817, 38.6469822]]}, "properties": {"highway": "primary", "oneway": "yes", "ref": "EN 10-1"}}, {"type": "Feature", "geometry": {"type": "LineString", "coordinates": [[-9.2013253, 38.6472194], [-9.2013232, 38.6471971], [-9.201312, 38.6471586], [-9.2013046, 38.647147], [-9.2012868, 38.6471188], [-9.2012537, 38.6470821]]}, "properties": {"highway": "primary", "oneway": "yes", "ref": "EN 10-1"}}, {"type": "Feature", "geometry": {"type": "LineString", "coordinates": [[-9.2063217, 38.6475262], [-9.206416, 38.6475161], [-9.2064329, 38.6475124], [-9.2065582, 38.6474851], [-9.2066098, 38.647473], [-9.2067151, 38.6474347]]}, "properties": {"highway": "primary", "oneway": "yes", "ref": "EN 10-1"}}, {"type": "Feature", "geometry": {"type": "LineString", "coordinates": [[-9.2081899, 38.6460717], [-9.2081459, 38.6461038], [-9.2080531, 38.6461865], [-9.2079585, 38.646304], [-9.2079139, 38.6463656], [-9.2077701, 38.646615], [-9.2076277, 38.6468768], [-9.2075381, 38.6470109], [-9.2074185, 38.6471316], [-9.2072853, 38.6472309], [-9.2071466, 38.6473116], [-9.2070358, 38.6473628], [-9.2069131, 38.6473958], [-9.2067151, 38.6474347]]}, "properties": {"highway": "primary", "ref": "EN 10-1"}}, {"type": "Feature", "geometry": {"type": "LineString", "coordinates": [[-9.2067151, 38.6474347], [-9.2065961, 38.6474305], [-9.206542, 38.6474418], [-9.2064297, 38.6474669], [-9.2063217, 38.6475262]]}, "properties": {"highway": "primary", "oneway": "yes", "ref": "EN 10-1"}}, {"type": "Feature", "geometry": {"type": "LineString", "coordinates": [[-9.2019995, 38.6476213], [-9.2020051, 38.6476565]]}, "properties": {"highway": "primary", "junction": "roundabout", "ref": "EN 10-1", "source": "Bing", "surface": "asphalt"}}, {"type": "Feature", "geometry": {"type": "LineString", "coordinates": [[-9.2010969, 38.6474902], [-9.2011828, 38.6474572]]}, "properties": {"highway": "primary", "oneway": "yes", "ref": "EN 10-1"}}, {"type": "Feature", "geometry": {"type": "LineString", "coordinates": [[-9.1832485, 38.6485972], [-9.1831766, 38.6485812]]}, "properties": {"highway": "primary", "lanes": "2", "lit": "yes", "ref": "EN 10-1", "source": "bing", "surface": "asphalt"}}, {"type": "Feature", "geometry": {"type": "LineString", "coordinates": [[-9.1889753, 38.6506297], [-9.1890053, 38.6506689], [-9.1890295, 38.6507139], [-9.1890372, 38.6507532]]}, "properties": {"highway": "primary", "lanes": "2", "oneway": "yes", "ref": "EN 10-1", "source": "bing", "surface": "asphalt"}}, {"type": "Feature", "geometry": {"type": "LineString", "coordinates": [[-9.1894509, 38.6508869], [-9.1893741, 38.650837], [-9.1893064, 38.6507888], [-9.18925, 38.6507329]]}, "properties": {"highway": "primary", "lanes": "2", "oneway": "yes", "ref": "EN 10-1", "surface": "asphalt"}}, {"type": "Feature", "geometry": {"type": "LineString", "coordinates": [[-9.1891917, 38.650851], [-9.1892568, 38.6508517], [-9.1893359, 38.6508595], [-9.1894509, 38.6508869]]}, "properties": {"highway": "primary", "lanes": "2", "oneway": "yes", "ref": "EN 10-1", "surface": "asphalt"}}, {"type": "Feature", "geometry": {"type": "LineString", "coordinates": [[-9.1891672, 38.6506832], [-9.189112, 38.6506757], [-9.1890409, 38.6506563], [-9.1889753, 38.6506297]]}, "properties": {"highway": "primary", "lanes": "2", "oneway": "yes", "ref": "EN 10-1", "source": "bing", "surface": "asphalt"}}, {"type": "Feature", "geometry": {"type": "LineString", "coordinates": [[-9.1724403, 38.6449703], [-9.1724803, 38.644955], [-9.1725037, 38.6449378], [-9.1725279, 38.6449021], [-9.1725328, 38.6448674]]}, "properties": {"highway": "primary", "junction": "roundabout", "lit": "yes", "ref": "EN 10-1", "surface": "asphalt"}}, {"type": "Feature", "geometry": {"type": "LineString", "coordinates": [[-9.1703037, 38.6441012], [-9.1702881, 38.6441206]]}, "properties": {"highway": "primary", "junction": "roundabout", "ref": "EN 10-1", "surface": "asphalt"}}, {"type": "Feature", "geometry": {"type": "LineString", "coordinates": [[-9.1607915, 38.6416744], [-9.1608254, 38.6416739], [-9.160858, 38.6416668], [-9.1608873, 38.6416534]]}, "properties": {"highway": "primary", "junction": "roundabout", "oneway": "yes", "ref": "EN 10-1"}}, {"type": "Feature", "geometry": {"type": "LineString", "coordinates": [[-9.1606778, 38.6415974], [-9.1606934, 38.641626], [-9.1607193, 38.6416497], [-9.160753, 38.6416663], [-9.1607915, 38.6416744]]}, "properties": {"highway": "primary", "junction": "roundabout", "oneway": "yes", "ref": "EN 10-1"}}, {"type": "Feature", "geometry": {"type": "LineString", "coordinates": [[-9.1608873, 38.6416534], [-9.1609159, 38.6416295], [-9.1609336, 38.6415998], [-9.1609386, 38.6415673], [-9.1609303, 38.6415352], [-9.1609096, 38.6415068]]}, "properties": {"highway": "primary", "junction": "roundabout", "oneway": "yes", "ref": "EN 10-1"}}, {"type": "Feature", "geometry": {"type": "LineString", "coordinates": [[-9.1704821, 38.6441477], [-9.1704754, 38.6441237], [-9.1704595, 38.6441024]]}, "properties": {"highway": "primary", "junction": "roundabout", "lit": "yes", "ref": "EN 10-1", "surface": "asphalt"}}, {"type": "Feature", "geometry": {"type": "LineString", "coordinates": [[-9.1725328, 38.6448674], [-9.1725209, 38.6448313]]}, "properties": {"highway": "primary", "junction": "roundabout", "lit": "yes", "ref": "EN 10-1", "surface": "asphalt"}}, {"type": "Feature", "geometry": {"type": "LineString", "coordinates": [[-9.1831766, 38.6485812], [-9.182989, 38.6485403], [-9.1828009, 38.6485005], [-9.1825245, 38.6484448], [-9.1823253, 38.6484069], [-9.1821152, 38.6483787], [-9.1819276, 38.6483648], [-9.1817409, 38.6483662], [-9.18169, 38.6483712], [-9.1815516, 38.6483849], [-9.1813565, 38.6484136], [-9.1805297, 38.6485761], [-9.1793756, 38.6488109], [-9.1792798, 38.6488304], [-9.1791997, 38.648845], [-9.1791261, 38.6488557], [-9.1790593, 38.6488622], [-9.1789934, 38.6488629], [-9.178937, 38.6488588], [-9.1788846, 38.6488494], [-9.1788304, 38.6488345], [-9.1787809, 38.648816], [-9.1787134, 38.648785], [-9.1786471, 38.6487454], [-9.1785827, 38.6487005], [-9.1783476, 38.6485162], [-9.1781254, 38.648342]]}, "properties": {"highway": "primary", "lanes": "2", "lit": "yes", "parking:both": "no", "ref": "EN 10-1", "source": "bing", "surface": "asphalt"}}, {"type": "Feature", "geometry": {"type": "LineString", "coordinates": [[-9.1609096, 38.6415068], [-9.1608742, 38.6414826], [-9.1608302, 38.6414697], [-9.1607832, 38.6414695]]}, "properties": {"highway": "primary", "junction": "roundabout", "oneway": "yes", "ref": "EN 10-1"}}, {"type": "Feature", "geometry": {"type": "LineString", "coordinates": [[-9.1606742, 38.6415613], [-9.1606778, 38.6415974]]}, "properties": {"highway": "primary", "junction": "roundabout", "oneway": "yes", "ref": "EN 10-1"}}, {"type": "Feature", "geometry": {"type": "LineString", "coordinates": [[-9.2011828, 38.6474572], [-9.2012254, 38.6474316]]}, "properties": {"highway": "primary", "oneway": "yes", "ref": "EN 10-1"}}, {"type": "Feature", "geometry": {"type": "LineString", "coordinates": [[-9.2337844, 38.6461603], [-9.2338281, 38.6461834]]}, "properties": {"bicycle": "yes", "cycleway": "no", "highway": "primary", "junction": "roundabout", "lanes": "3", "ref": "EN 10-1", "surface": "asphalt"}}, {"type": "Feature", "geometry": {"type": "LineString", "coordinates": [[-9.2338281, 38.6461834], [-9.2338772, 38.6461986], [-9.2339293, 38.6462052], [-9.233982, 38.6462028], [-9.2340328, 38.6461915], [-9.2340792, 38.6461719], [-9.2341193, 38.6461448], [-9.2341509, 38.6461114], [-9.2341725, 38.6460735]]}, "properties": {"bicycle": "yes", "cycleway": "no", "highway": "primary", "junction": "roundabout", "lanes": "3", "ref": "EN 10-1", "surface": "asphalt"}}, {"type": "Feature", "geometry": {"type": "LineString", "coordinates": [[-9.2340631, 38.6458526], [-9.2340229, 38.6458374], [-9.2339677, 38.6458279], [-9.233911, 38.6458283], [-9.233856, 38.645839], [-9.2338057, 38.6458593], [-9.2337628, 38.6458882]]}, "properties": {"bicycle": "yes", "cycleway": "no", "highway": "primary", "junction": "roundabout", "lanes": "3", "ref": "EN 10-1", "surface": "asphalt"}}, {"type": "Feature", "geometry": {"type": "LineString", "coordinates": [[-9.2341829, 38.6460329], [-9.2341818, 38.6459914], [-9.2341692, 38.6459511], [-9.2341467, 38.6459128], [-9.234112, 38.6458787]]}, "properties": {"bicycle": "yes", "cycleway": "no", "highway": "primary", "junction": "roundabout", "lanes": "3", "ref": "EN 10-1", "surface": "asphalt"}}, {"type": "Feature", "geometry": {"type": "LineString", "coordinates": [[-9.2337297, 38.6459241], [-9.2337081, 38.645965], [-9.2336993, 38.6460087], [-9.2337037, 38.6460528], [-9.2337211, 38.6460949], [-9.2337482, 38.6461303], [-9.2337844, 38.6461603]]}, "properties": {"bicycle": "yes", "cycleway": "no", "highway": "primary", "junction": "roundabout", "lanes": "3", "ref": "EN 10-1", "surface": "asphalt"}}, {"type": "Feature", "geometry": {"type": "LineString", "coordinates": [[-9.2012537, 38.6470821], [-9.2012191, 38.6470544], [-9.2011836, 38.6470334], [-9.2011497, 38.6470182], [-9.2011152, 38.647008]]}, "properties": {"highway": "primary", "oneway": "yes", "ref": "EN 10-1"}}, {"type": "Feature", "geometry": {"type": "LineString", "coordinates": [[-9.2004817, 38.6469822], [-9.200445, 38.647003]]}, "properties": {"highway": "primary", "oneway": "yes", "ref": "EN 10-1"}}, {"type": "Feature", "geometry": {"type": "LineString", "coordinates": [[-9.2024806, 38.647646], [-9.2024834, 38.6476028]]}, "properties": {"highway": "primary", "junction": "roundabout", "lanes": "2", "ref": "EN 10-1", "source": "Bing", "surface": "asphalt"}}, {"type": "Feature", "geometry": {"type": "LineString", "coordinates": [[-9.2021679, 38.6477959], [-9.2022176, 38.6478038]]}, "properties": {"highway": "primary", "junction": "roundabout", "lanes": "2", "ref": "EN 10-1", "source": "Bing", "surface": "asphalt"}}, {"type": "Feature", "geometry": {"type": "LineString", "coordinates": [[-9.2337628, 38.6458882], [-9.2337297, 38.6459241]]}, "properties": {"bicycle": "yes", "cycleway": "no", "highway": "primary", "junction": "roundabout", "lanes": "3", "ref": "EN 10-1", "surface": "asphalt"}}, {"type": "Feature", "geometry": {"type": "LineString", "coordinates": [[-9.2341725, 38.6460735], [-9.2341829, 38.6460329]]}, "properties": {"bicycle": "yes", "cycleway": "no", "highway": "primary", "junction": "roundabout", "lanes": "3", "ref": "EN 10-1", "surface": "asphalt"}}, {"type": "Feature", "geometry": {"type": "LineString", "coordinates": [[-9.1748473, 38.6459775], [-9.1748193, 38.6459694], [-9.1747895, 38.6459695], [-9.1747616, 38.6459778], [-9.1747393, 38.6459932], [-9.1747254, 38.6460139], [-9.1747217, 38.646037]]}, "properties": {"highway": "primary", "junction": "roundabout", "lanes": "2", "lit": "yes", "ref": "EN 10-1", "source": "bing", "surface": "asphalt"}}, {"type": "Feature", "geometry": {"type": "LineString", "coordinates": [[-9.1748591, 38.6459841], [-9.1748473, 38.6459775]]}, "properties": {"highway": "primary", "junction": "roundabout", "lanes": "2", "lit": "yes", "ref": "EN 10-1", "source": "bing", "surface": "asphalt"}}, {"type": "Feature", "geometry": {"type": "LineString", "coordinates": [[-9.1747243, 38.6460499], [-9.1747363, 38.6460703], [-9.1747564, 38.6460863], [-9.1747823, 38.646096], [-9.1748189, 38.6460982]]}, "properties": {"highway": "primary", "junction": "roundabout", "lanes": "2", "lit": "yes", "ref": "EN 10-1", "source": "bing", "surface": "asphalt"}}, {"type": "Feature", "geometry": {"type": "LineString", "coordinates": [[-9.1751128, 38.6461609], [-9.1749707, 38.6460635], [-9.1749385, 38.6460378], [-9.1748591, 38.6459841]]}, "properties": {"highway": "primary", "lanes": "2", "lit": "yes", "oneway": "yes", "parking:both": "no", "ref": "EN 10-1", "source": "bing", "surface": "asphalt"}}, {"type": "Feature", "geometry": {"type": "LineString", "coordinates": [[-9.1746113, 38.6458498], [-9.1746663, 38.6459362], [-9.1746931, 38.645986], [-9.1747217, 38.646037]]}, "properties": {"highway": "primary", "lanes": "2", "lit": "yes", "oneway": "yes", "parking:both": "no", "ref": "EN 10-1", "source": "bing", "surface": "asphalt"}}, {"type": "Feature", "geometry": {"type": "LineString", "coordinates": [[-9.17483, 38.6460953], [-9.1749385, 38.6461096], [-9.1751128, 38.6461609]]}, "properties": {"highway": "primary", "lanes": "2", "lit": "yes", "oneway": "yes", "parking:both": "no", "ref": "EN 10-1", "source": "bing", "surface": "asphalt"}}, {"type": "Feature", "geometry": {"type": "LineString", "coordinates": [[-9.1748473, 38.6459775], [-9.1747098, 38.6458928], [-9.1746113, 38.6458498]]}, "properties": {"highway": "primary", "lanes": "2", "lit": "yes", "oneway": "yes", "parking:both": "no", "ref": "EN 10-1", "source": "bing", "surface": "asphalt"}}, {"type": "Feature", "geometry": {"type": "LineString", "coordinates": [[-9.1746113, 38.6458498], [-9.1744646, 38.6457678], [-9.1742105, 38.6456154], [-9.174062, 38.6455263], [-9.173836, 38.6453901], [-9.1737914, 38.6453652], [-9.1736428, 38.6452822], [-9.1735035, 38.6452154], [-9.1733495, 38.6451536], [-9.1732325, 38.6451111], [-9.173118, 38.645075], [-9.1729691, 38.645031], [-9.1728192, 38.6449922]]}, "properties": {"highway": "primary", "lanes": "2", "lit": "yes", "ref": "EN 10-1", "source": "bing", "surface": "asphalt"}}, {"type": "Feature", "geometry": {"type": "LineString", "coordinates": [[-9.17483, 38.6460953], [-9.1748559, 38.6460847], [-9.1748755, 38.6460677], [-9.1748864, 38.6460464], [-9.1748871, 38.6460235], [-9.1748776, 38.6460019], [-9.1748591, 38.6459841]]}, "properties": {"highway": "primary", "junction": "roundabout", "lanes": "2", "lit": "yes", "ref": "EN 10-1", "source": "bing", "surface": "asphalt"}}, {"type": "Feature", "geometry": {"type": "LineString", "coordinates": [[-9.234112, 38.6458787], [-9.2340631, 38.6458526]]}, "properties": {"bicycle": "yes", "cycleway": "no", "highway": "primary", "junction": "roundabout", "lanes": "3", "ref": "EN 10-1", "surface": "asphalt"}}, {"type": "Feature", "geometry": {"type": "LineString", "coordinates": [[-9.1747217, 38.646037], [-9.1747243, 38.6460499]]}, "properties": {"highway": "primary", "junction": "roundabout", "lanes": "2", "lit": "yes", "ref": "EN 10-1", "source": "bing", "surface": "asphalt"}}, {"type": "Feature", "geometry": {"type": "LineString", "coordinates": [[-9.2169797, 38.6463304], [-9.2170313, 38.6464211]]}, "properties": {"highway": "primary", "ref": "EN 10-1"}}, {"type": "Feature", "geometry": {"type": "LineString", "coordinates": [[-9.1748189, 38.6460982], [-9.17483, 38.6460953]]}, "properties": {"highway": "primary", "junction": "roundabout", "lanes": "2", "lit": "yes", "ref": "EN 10-1", "source": "bing", "surface": "asphalt"}}, {"type": "Feature", "geometry": {"type": "LineString", "coordinates": [[-9.2120912, 38.6446909], [-9.2117159, 38.64459], [-9.2114128, 38.6445548], [-9.2112871, 38.6445523], [-9.211158, 38.6445602], [-9.2110569, 38.6445685], [-9.2108592, 38.6445872], [-9.21065, 38.6446109]]}, "properties": {"highway": "primary", "ref": "EN 10-1", "surface": "asphalt"}}, {"type": "Feature", "geometry": {"type": "LineString", "coordinates": [[-9.2164705, 38.6459765], [-9.2164462, 38.6459647], [-9.2160113, 38.6457541], [-9.215858, 38.6456913], [-9.2157014, 38.6456351], [-9.2152632, 38.6455396], [-9.2148263, 38.6454508], [-9.2138502, 38.6451927], [-9.2120912, 38.6446909]]}, "properties": {"highway": "primary", "ref": "EN 10-1", "surface": "asphalt"}}, {"type": "Feature", "geometry": {"type": "LineString", "coordinates": [[-9.2021643, 38.6474346], [-9.202114, 38.6474528]]}, "properties": {"highway": "primary", "junction": "roundabout", "ref": "EN 10-1", "source": "Bing", "surface": "asphalt"}}, {"type": "Feature", "geometry": {"type": "LineString", "coordinates": [[-9.16057, 38.6416918], [-9.1604976, 38.6417233], [-9.1604298, 38.6417511]]}, "properties": {"highway": "primary", "name": "Rua Casa do Povo", "ref": "EN 10-1"}}, {"type": "Feature", "geometry": {"type": "LineString", "coordinates": [[-9.1604298, 38.6417511], [-9.1603823, 38.6417631], [-9.1602901, 38.6417769], [-9.1601352, 38.6417667], [-9.159853, 38.6417601]]}, "properties": {"highway": "primary", "layer": "0", "name": "Rua Casa do Povo", "oneway": "no", "ref": "EN 10-1", "tunnel": "yes"}}]}