{"type": "FeatureCollection", "features": [{"type": "Feature", "geometry": {"type": "LineString", "coordinates": [[-8.4998782, 38.947071], [-8.4999736, 38.9468339], [-8.5004721, 38.9461979]]}, "properties": {"highway": "primary", "lanes": "1", "name": "Reta do Infantado", "oneway": "yes", "ref": "EN 119", "source": "GPX", "surface": "asphalt"}}, {"type": "Feature", "geometry": {"type": "LineString", "coordinates": [[-8.622791, 38.9104326], [-8.625552, 38.9086646], [-8.6270145, 38.9077281], [-8.6277669, 38.9072534], [-8.6281141, 38.9070344], [-8.6285055, 38.9067875], [-8.6286538, 38.9066939], [-8.6287092, 38.9066592], [-8.6287942, 38.9066014], [-8.629095, 38.9064032], [-8.6294076, 38.906194], [-8.6294551, 38.9061613], [-8.6296887, 38.9060153], [-8.6313593, 38.9049457], [-8.6334831, 38.9035856], [-8.6342717, 38.9030821], [-8.6349382, 38.9026565], [-8.6356206, 38.9022207], [-8.6357973, 38.9021063], [-8.6368847, 38.9014023], [-8.6369754, 38.9013445], [-8.6395236, 38.8997142], [-8.6408584, 38.8988687], [-8.6418257, 38.8982568]]}, "properties": {"highway": "primary", "lanes": "2", "name": "Reta do Infantado", "old_name": "Recta do Infantado", "oneway": "no", "ref": "EN 119", "surface": "asphalt"}}, {"type": "Feature", "geometry": {"type": "LineString", "coordinates": [[-8.7371022, 38.8371689], [-8.7375023, 38.8369552], [-8.7377975, 38.8368103], [-8.742528, 38.8345728], [-8.7426723, 38.8345059], [-8.7492799, 38.8314269]]}, "properties": {"highway": "primary", "lanes": "2", "maxspeed": "90", "name": "Reta do Infantado", "old_name": "Recta do Infantado", "oneway": "no", "ref": "IC 3;EN 119", "source": "GPX", "surface": "asphalt"}}, {"type": "Feature", "geometry": {"type": "LineString", "coordinates": [[-8.9729961, 38.7141254], [-8.9730668, 38.7146449], [-8.9730731, 38.7147807], [-8.9731065, 38.7150553], [-8.9731071, 38.7151317], [-8.9731086, 38.7153092], [-8.9730985, 38.7156188], [-8.9730797, 38.7162229]]}, "properties": {"highway": "primary", "lanes": "2", "ref": "EN 119", "source": "GPS", "surface": "asphalt"}}, {"type": "Feature", "geometry": {"type": "LineString", "coordinates": [[-8.5145625, 38.9389971], [-8.5147084, 38.9389333], [-8.5148483, 38.9388685], [-8.5149485, 38.9388175], [-8.5150559, 38.9387606], [-8.5151832, 38.9386919]]}, "properties": {"highway": "primary", "lanes": "2", "oneway": "no", "ref": "EN 119", "surface": "asphalt"}}, {"type": "Feature", "geometry": {"type": "LineString", "coordinates": [[-8.5140697, 38.9391867], [-8.5142463, 38.9391253], [-8.5143831, 38.9390739], [-8.5145625, 38.9389971]]}, "properties": {"bridge": "yes", "highway": "primary", "lanes": "2", "layer": "1", "maxweight:signed": "no", "oneway": "no", "ref": "EN 119", "surface": "asphalt"}}, {"type": "Feature", "geometry": {"type": "LineString", "coordinates": [[-8.9728616, 38.7138359], [-8.9729361, 38.7139805], [-8.9729613, 38.7140269], [-8.9729961, 38.7141254]]}, "properties": {"highway": "primary", "oneway": "yes", "ref": "EN 119", "source": "Bing", "surface": "asphalt"}}, {"type": "Feature", "geometry": {"type": "LineString", "coordinates": [[-8.946041, 38.7529611], [-8.9463402, 38.7532126], [-8.9465463, 38.7533545], [-8.9465761, 38.7533735], [-8.9466175, 38.7534], [-8.9474321, 38.7539197], [-8.9477433, 38.7541183], [-8.947891, 38.7542125], [-8.9480064, 38.7542854], [-8.9489968, 38.7549115], [-8.9492438, 38.7550663], [-8.9494888, 38.7551992], [-8.9496476, 38.7552691]]}, "properties": {"highway": "primary", "lanes": "2", "name": "Avenida do Canto do Pinheiro", "oneway": "no", "postal_code": "2890-121", "ref": "EN 119", "smoothness": "excellent", "surface": "asphalt"}}, {"type": "Feature", "geometry": {"type": "LineString", "coordinates": [[-8.9612998, 38.7558125], [-8.9608979, 38.7559077], [-8.9606889, 38.7559629], [-8.9605684, 38.7559905], [-8.9604779, 38.7560087], [-8.9603459, 38.7560114]]}, "properties": {"highway": "primary", "name": "Largo de S\u00e3o Jo\u00e3o", "oneway": "yes", "postal_code": "2894-001;2890-028", "postal_code:description": "2894-001:C\u00e2mara Municipal de Alcochete", "ref": "EN 119", "surface": "sett"}}, {"type": "Feature", "geometry": {"type": "LineString", "coordinates": [[-8.9595009, 38.757338], [-8.959566, 38.7573251], [-8.9596271, 38.7573101], [-8.9604248, 38.7570289]]}, "properties": {"highway": "primary", "name": "Avenida dos Combatentes da Grande Guerra", "oneway": "yes", "postal_code": "2890-015", "ref": "EN 119", "surface": "cobblestone"}}, {"type": "Feature", "geometry": {"type": "LineString", "coordinates": [[-8.9578379, 38.7560302], [-8.9579603, 38.7567286], [-8.9580847, 38.7573633]]}, "properties": {"highway": "primary", "name": "Largo da Feira", "postal_code": "2890-024", "ref": "EN 119"}}, {"type": "Feature", "geometry": {"type": "LineString", "coordinates": [[-8.9661302, 38.7522101], [-8.9656739, 38.7524649], [-8.9654331, 38.7526111]]}, "properties": {"highway": "primary", "name": "P\u00e1tio Engenheiro Jos\u00e9 Gon\u00e7alves Gomes", "oneway": "yes", "ref": "EN 119"}}, {"type": "Feature", "geometry": {"type": "LineString", "coordinates": [[-8.9638355, 38.7553802], [-8.9637289, 38.7553779], [-8.9631825, 38.7553974]]}, "properties": {"highway": "primary", "name": "Rua da Quebrada", "oneway": "yes", "postal_code": "2890-180", "ref": "EN 119"}}, {"type": "Feature", "geometry": {"type": "LineString", "coordinates": [[-8.9638355, 38.7553802], [-8.9640696, 38.7551246], [-8.9643364, 38.7547715], [-8.9643745, 38.7546594]]}, "properties": {"highway": "primary", "lit": "yes", "maxspeed": "20", "name": "Avenida Dom Manuel I", "oneway": "yes", "postal_code": "2890-014", "ref": "EN 119", "surface": "paving_stones"}}, {"type": "Feature", "geometry": {"type": "LineString", "coordinates": [[-8.9631825, 38.7553974], [-8.9628966, 38.7552589], [-8.9628796, 38.7552471], [-8.9626118, 38.7550602], [-8.9625908, 38.7550455], [-8.9624624, 38.7549354], [-8.9623164, 38.7547992], [-8.9622836, 38.7547777], [-8.9622454, 38.754771]]}, "properties": {"highway": "primary", "name": "Rua Jos\u00e9 Andr\u00e9 dos Santos", "oneway": "yes", "postal_code": "2890-082", "ref": "EN 119", "surface": "sett"}}, {"type": "Feature", "geometry": {"type": "LineString", "coordinates": [[-8.9622454, 38.754771], [-8.9621843, 38.7547929], [-8.9621402, 38.7548573], [-8.9619739, 38.7549451], [-8.9618946, 38.7549966], [-8.9617368, 38.7550831]]}, "properties": {"highway": "primary", "name": "Largo Coronel Ramos da Costa", "oneway": "yes", "postal_code": "2890-023", "ref": "EN 119", "surface": "sett"}}, {"type": "Feature", "geometry": {"type": "LineString", "coordinates": [[-8.9664816, 38.7520209], [-8.9665345, 38.7519914], [-8.96659, 38.7519528], [-8.9666368, 38.7519117], [-8.9667033, 38.7518358], [-8.9670366, 38.7514309], [-8.967116, 38.7513323], [-8.9674424, 38.7508949], [-8.9675795, 38.750702], [-8.9676332, 38.7506209], [-8.9677482, 38.7504473]]}, "properties": {"highway": "primary", "lanes": "2", "name": "Avenida Dom Manuel I", "oneway": "no", "postal_code": "2890-014", "ref": "EN 119", "surface": "asphalt"}}, {"type": "Feature", "geometry": {"type": "LineString", "coordinates": [[-8.9654331, 38.7526111], [-8.9653737, 38.7526694], [-8.965113, 38.7529672], [-8.9648805, 38.7532015], [-8.9647023, 38.7534041], [-8.9643327, 38.7538463], [-8.9639738, 38.7542302], [-8.963723, 38.7545266], [-8.9636665, 38.7545934]]}, "properties": {"highway": "primary", "name": "Largo Bar\u00e3o de Samora Correia", "oneway": "yes", "postal_code": "2890-029", "ref": "EN 119", "surface": "cobblestone"}}, {"type": "Feature", "geometry": {"type": "LineString", "coordinates": [[-8.9636665, 38.7545934], [-8.9643186, 38.7546494], [-8.9643745, 38.7546594]]}, "properties": {"highway": "primary", "name": "Largo Bar\u00e3o de Samora Correia", "oneway": "yes", "postal_code": "2890-029", "ref": "EN 119", "surface": "cobblestone"}}, {"type": "Feature", "geometry": {"type": "LineString", "coordinates": [[-8.0065414, 39.2467907], [-8.0066344, 39.2468014]]}, "properties": {"highway": "primary", "lanes": "2", "ref": "EN 119;IC 13", "surface": "asphalt"}}, {"type": "Feature", "geometry": {"type": "LineString", "coordinates": [[-8.0050073, 39.2466682], [-8.0065414, 39.2467907]]}, "properties": {"bridge": "yes", "highway": "primary", "lanes": "2", "layer": "1", "lit": "yes", "maxheight": "5", "maxspeed": "50", "maxweight:signed": "no", "oneway": "no", "ref": "EN 119", "surface": "asphalt"}}, {"type": "Feature", "geometry": {"type": "LineString", "coordinates": [[-8.7595289, 38.8266404], [-8.7598671, 38.8264743]]}, "properties": {"bridge": "yes", "highway": "primary", "lanes": "2", "layer": "1", "maxspeed": "90", "name": "Reta do Infantado", "old_name": "Recta do Infantado", "oneway": "no", "ref": "IC 3;EN 119", "source": "GPX", "surface": "asphalt"}}, {"type": "Feature", "geometry": {"type": "LineString", "coordinates": [[-8.7598671, 38.8264743], [-8.7609281, 38.8259826], [-8.7621222, 38.8254267], [-8.7643379, 38.8243944], [-8.7666043, 38.823328], [-8.770743, 38.8213988], [-8.772811, 38.8204297], [-8.774865, 38.8194698], [-8.7838533, 38.8152753], [-8.7926808, 38.8111427], [-8.7947528, 38.8101751], [-8.796822, 38.8091953], [-8.7969436, 38.8091375], [-8.7983322, 38.8084936], [-8.7997215, 38.8078431], [-8.8074646, 38.8042363], [-8.8133546, 38.8014798], [-8.8214529, 38.7976801], [-8.8227926, 38.7970546], [-8.8240964, 38.7964443], [-8.8394666, 38.7892442], [-8.8396399, 38.7891764], [-8.8398161, 38.7891133], [-8.839995, 38.7890551], [-8.8401639, 38.7890053], [-8.8403349, 38.7889599], [-8.8405077, 38.7889188], [-8.8406914, 38.7888811], [-8.8408769, 38.7888492], [-8.8410638, 38.7888231], [-8.8416258, 38.7887447], [-8.8443199, 38.7883581], [-8.8585143, 38.7862892], [-8.861036, 38.7859148], [-8.8651547, 38.7853299], [-8.8718023, 38.7843668], [-8.8790397, 38.7833126], [-8.8795612, 38.7832376]]}, "properties": {"highway": "primary", "lanes": "2", "maxspeed": "90", "name": "Reta do Infantado", "old_name": "Recta do Infantado", "oneway": "no", "ref": "IC 3;EN 119", "source": "GPX", "surface": "asphalt"}}, {"type": "Feature", "geometry": {"type": "LineString", "coordinates": [[-8.0247014, 39.244744], [-8.0242818, 39.2446895], [-8.024067, 39.2446535], [-8.0239527, 39.2446323], [-8.0238597, 39.2445945]]}, "properties": {"highway": "primary", "lanes": "1", "lit": "yes", "name": "Estrada de Abrantes", "oneway": "yes", "postal_code": "7400-227", "ref": "EN 119;", "surface": "asphalt"}}, {"type": "Feature", "geometry": {"type": "LineString", "coordinates": [[-8.0238889, 39.2446814], [-8.023883, 39.2446362], [-8.0238597, 39.2445945], [-8.0238233, 39.2445617], [-8.0237762, 39.2445386], [-8.0237136, 39.2445263], [-8.0236493, 39.2445309], [-8.0235907, 39.2445519], [-8.0235652, 39.2445681], [-8.0235316, 39.2446026], [-8.0235123, 39.2446431], [-8.0235089, 39.2446862], [-8.0235219, 39.2447283], [-8.0235567, 39.2447716], [-8.0236084, 39.2448033], [-8.023671, 39.2448193], [-8.0237369, 39.2448179], [-8.0237982, 39.2447991], [-8.0238476, 39.2447653], [-8.0238767, 39.2447259], [-8.0238889, 39.2446814]]}, "properties": {"highway": "primary", "junction": "roundabout", "lanes": "1", "lit": "yes", "ref": "EN 119;IC 13", "surface": "asphalt"}}, {"type": "Feature", "geometry": {"type": "LineString", "coordinates": [[-8.7196922, 38.8483383], [-8.7215031, 38.8471754]]}, "properties": {"highway": "primary", "lanes": "2", "name": "Reta do Infantado", "old_name": "Recta do Infantado", "oneway": "no", "ref": "EN 119", "surface": "asphalt"}}, {"type": "Feature", "geometry": {"type": "LineString", "coordinates": [[-8.7186219, 38.8490198], [-8.7196922, 38.8483383]]}, "properties": {"bridge": "yes", "highway": "primary", "lanes": "2", "layer": "1", "name": "Reta do Infantado", "old_name": "Recta do Infantado", "oneway": "no", "ref": "EN 119", "surface": "asphalt"}}, {"type": "Feature", "geometry": {"type": "LineString", "coordinates": [[-8.7215031, 38.8471754], [-8.7217311, 38.8470317], [-8.7222704, 38.8466798]]}, "properties": {"bridge": "yes", "highway": "primary", "lanes": "2", "layer": "1", "name": "Reta do Infantado", "old_name": "Recta do Infantado", "oneway": "no", "ref": "EN 119", "surface": "asphalt"}}, {"type": "Feature", "geometry": {"type": "LineString", "coordinates": [[-8.7222704, 38.8466798], [-8.7227597, 38.846359], [-8.7256595, 38.8444959], [-8.7265062, 38.843957], [-8.7267487, 38.8438032], [-8.7270883, 38.8435867]]}, "properties": {"highway": "primary", "lanes": "2", "name": "Reta do Infantado", "old_name": "Recta do Infantado", "oneway": "no", "ref": "EN 119", "surface": "asphalt"}}, {"type": "Feature", "geometry": {"type": "LineString", "coordinates": [[-8.0114967, 39.2474001], [-8.0120031, 39.2474426], [-8.0126593, 39.2475141], [-8.012825, 39.2475034], [-8.0129744, 39.2474706], [-8.0130654, 39.2474524]]}, "properties": {"highway": "primary", "lanes": "2", "lit": "yes", "maxspeed": "50", "name": "Rua Alexandre Herculano", "postal_code": "7400-234", "ref": "EN 119", "surface": "asphalt"}}, {"type": "Feature", "geometry": {"type": "LineString", "coordinates": [[-8.0066344, 39.2468014], [-8.0069576, 39.2468492], [-8.007155, 39.2468645], [-8.0077949, 39.2468627], [-8.0081096, 39.2469028], [-8.0084891, 39.2469799], [-8.0085606, 39.2469979], [-8.0088996, 39.2470897], [-8.0097753, 39.2472139], [-8.0100837, 39.2472656], [-8.01067, 39.2473805], [-8.0109665, 39.2474131], [-8.0114967, 39.2474001]]}, "properties": {"highway": "primary", "lanes": "2", "lit": "yes", "maxspeed": "50", "name": "Rua Vaz Monteiro", "postal_code": "7400-281", "ref": "EN 119", "sidewalk": "both", "surface": "asphalt"}}, {"type": "Feature", "geometry": {"type": "LineString", "coordinates": [[-8.0130654, 39.2474524], [-8.0137127, 39.2473366], [-8.0138766, 39.2472817], [-8.0140994, 39.2471686], [-8.0144276, 39.2469971], [-8.0145476, 39.2469262], [-8.0151239, 39.2466671], [-8.015669, 39.2464345], [-8.0161781, 39.2461998], [-8.0169825, 39.2457276], [-8.0170273, 39.2457016], [-8.0174041, 39.2454837], [-8.0179059, 39.2451934], [-8.0182336, 39.2450511], [-8.0187602, 39.2448667], [-8.019119, 39.2447782], [-8.0193573, 39.2447353], [-8.0195164, 39.2447067], [-8.0196142, 39.2446923]]}, "properties": {"highway": "primary", "lanes": "2", "lit": "yes", "maxspeed": "50", "name": "Estrada de Abrantes", "postal_code": "7400-227", "ref": "EN 119", "sidewalk": "both", "surface": "asphalt"}}, {"type": "Feature", "geometry": {"type": "LineString", "coordinates": [[-8.5004721, 38.9461979], [-8.5007342, 38.945892], [-8.5012172, 38.9453473], [-8.5022512, 38.9441787], [-8.5037424, 38.9424874], [-8.5044364, 38.9417049], [-8.5050596, 38.9410118], [-8.5053365, 38.9407319], [-8.5056629, 38.9405114], [-8.505961, 38.9403748], [-8.5063684, 38.9402872], [-8.5067973, 38.9402288], [-8.5084695, 38.9400143]]}, "properties": {"bicycle": "yes", "check_date:surface": "2023-01-09", "cycleway": "no", "highway": "primary", "lanes": "2", "maxspeed": "90", "name": "Reta do Infantado", "ref": "EN 119", "source": "GPX", "surface": "asphalt"}}, {"type": "Feature", "geometry": {"type": "LineString", "coordinates": [[-8.5004721, 38.9461979], [-8.4999875, 38.9466434], [-8.4997169, 38.9468697], [-8.4996256, 38.9469279]]}, "properties": {"highway": "primary", "oneway": "yes", "ref": "EN 119", "surface": "asphalt"}}, {"type": "Feature", "geometry": {"type": "LineString", "coordinates": [[-8.0196142, 39.2446923], [-8.0198045, 39.2446661]]}, "properties": {"bridge": "yes", "highway": "primary", "lanes": "2", "lit": "yes", "maxweight:signed": "no", "name": "Estrada de Abrantes", "postal_code": "7400-227", "ref": "EN 119;", "surface": "asphalt"}}, {"type": "Feature", "geometry": {"type": "LineString", "coordinates": [[-8.0198045, 39.2446661], [-8.020649, 39.2445664], [-8.0212322, 39.2445468], [-8.0214109, 39.2445451], [-8.0217764, 39.2445459], [-8.0229593, 39.2446163]]}, "properties": {"highway": "primary", "lanes": "2", "lit": "yes", "name": "Estrada de Abrantes", "postal_code": "7400-227", "ref": "EN 119", "surface": "asphalt"}}, {"type": "Feature", "geometry": {"type": "LineString", "coordinates": [[-7.8851311, 39.2368073], [-7.885579, 39.2369255], [-7.8930082, 39.2388624], [-7.8973857, 39.239926], [-7.8979006, 39.240172], [-7.900482, 39.2415925], [-7.9024668, 39.2426848], [-7.9029646, 39.2428975], [-7.9067841, 39.2438946], [-7.9116332, 39.2445586]]}, "properties": {"highway": "primary", "ref": "EN 119"}}, {"type": "Feature", "geometry": {"type": "LineString", "coordinates": [[-7.9204272, 39.2488652], [-7.920522, 39.24889]]}, "properties": {"bridge": "yes", "highway": "primary", "lanes": "2", "ref": "EN 119;IC 13"}}, {"type": "Feature", "geometry": {"type": "LineString", "coordinates": [[-7.8850162, 39.2367769], [-7.8851311, 39.2368073]]}, "properties": {"bridge": "yes", "highway": "primary", "lanes": "2", "ref": "EN 119;IC 13"}}, {"type": "Feature", "geometry": {"type": "LineString", "coordinates": [[-8.0307124, 39.2450125], [-8.0304378, 39.245066], [-8.0301167, 39.2450879]]}, "properties": {"highway": "primary", "lanes": "1", "lit": "yes", "oneway": "yes", "ref": "EN 119;IC 13", "surface": "asphalt"}}, {"type": "Feature", "geometry": {"type": "LineString", "coordinates": [[-8.0301167, 39.2450879], [-8.0303755, 39.2451353], [-8.030651, 39.2451793]]}, "properties": {"highway": "primary", "lanes": "1", "lit": "yes", "oneway": "yes", "ref": "EN 119;IC 13", "surface": "asphalt"}}, {"type": "Feature", "geometry": {"type": "LineString", "coordinates": [[-7.920522, 39.24889], [-7.9211484, 39.2490503], [-7.9213431, 39.2491177], [-7.9215143, 39.2491935], [-7.9217146, 39.2493044], [-7.921967, 39.2494773], [-7.9228945, 39.250382], [-7.9233494, 39.2507276], [-7.9238894, 39.250952], [-7.9244268, 39.251179], [-7.9245549, 39.2512188], [-7.9247185, 39.2512625], [-7.9249007, 39.2512975], [-7.9250611, 39.2513205], [-7.9252956, 39.251334], [-7.9255423, 39.2513279], [-7.9256649, 39.2513164], [-7.9258718, 39.2512911], [-7.9267231, 39.2511012], [-7.9268665, 39.2510758], [-7.9269742, 39.2510645], [-7.9270615, 39.2510586], [-7.9272227, 39.2510503], [-7.9274993, 39.251058], [-7.9277643, 39.2510923], [-7.928258, 39.2511992], [-7.9296781, 39.2515123]]}, "properties": {"bicycle": "yes", "highway": "primary", "lanes": "2", "maxspeed": "90", "ref": "EN 119;IC 13", "surface": "asphalt"}}, {"type": "Feature", "geometry": {"type": "LineString", "coordinates": [[-8.9697112, 38.744255], [-8.9696955, 38.7441914], [-8.9696905, 38.7441712], [-8.969689, 38.744091], [-8.9696867, 38.7439735], [-8.9696861, 38.7438119]]}, "properties": {"highway": "primary", "lanes": "1", "oneway": "yes", "ref": "EN 119", "surface": "asphalt"}}, {"type": "Feature", "geometry": {"type": "LineString", "coordinates": [[-8.9696861, 38.7438119], [-8.9696336, 38.7439951], [-8.969608, 38.7440746], [-8.9695698, 38.7441559], [-8.9695028, 38.7442384]]}, "properties": {"highway": "primary", "lanes": "1", "oneway": "yes", "ref": "EN 119", "surface": "asphalt"}}, {"type": "Feature", "geometry": {"type": "LineString", "coordinates": [[-8.9687202, 38.7490306], [-8.9688317, 38.7487814], [-8.9688559, 38.7486585], [-8.9689222, 38.748397]]}, "properties": {"highway": "primary", "lanes": "2", "name": "Avenida Dom Manuel I", "oneway": "no", "postal_code": "2890-014", "ref": "EN 119", "surface": "asphalt"}}, {"type": "Feature", "geometry": {"type": "LineString", "coordinates": [[-8.9603459, 38.7560114], [-8.9602726, 38.7560115], [-8.9599749, 38.7560151], [-8.9594865, 38.7560204], [-8.9593825, 38.7560197], [-8.9578914, 38.756029]]}, "properties": {"highway": "primary", "lanes": "1", "name": "Avenida 5 de Outubro", "oneway": "yes", "postal_code": "2890-011", "ref": "EN 119", "surface": "asphalt"}}, {"type": "Feature", "geometry": {"type": "LineString", "coordinates": [[-8.5783839, 38.9230687], [-8.5787872, 38.9230342], [-8.5791018, 38.9230099], [-8.5794465, 38.9230088], [-8.5798147, 38.9230334], [-8.5802086, 38.9230779], [-8.5807487, 38.9231768], [-8.5862383, 38.9244175], [-8.5868331, 38.9245533], [-8.5894215, 38.9251441], [-8.5934752, 38.9260685], [-8.5958613, 38.9266026], [-8.5965003, 38.9267319], [-8.5970077, 38.9268066], [-8.5974603, 38.9268108], [-8.597968, 38.9267512], [-8.5985955, 38.9266177], [-8.5994911, 38.9263784], [-8.602534, 38.9255507], [-8.603466, 38.9253094], [-8.6041295, 38.9250689], [-8.6043707, 38.9249658], [-8.6048636, 38.9247112], [-8.605218, 38.9244571], [-8.6093161, 38.9215796], [-8.6099474, 38.9211273], [-8.6105889, 38.9207613], [-8.6154504, 38.9180992], [-8.6160349, 38.9177553], [-8.6166337, 38.917356], [-8.6186426, 38.9157396], [-8.6188106, 38.9155899], [-8.6189692, 38.9154242], [-8.6191596, 38.9151785], [-8.6206957, 38.9128397], [-8.621414, 38.911749], [-8.6215631, 38.9115336], [-8.6217275, 38.9113249], [-8.6218816, 38.9111441], [-8.6220366, 38.9109895], [-8.6222303, 38.9108228], [-8.6224936, 38.9106294], [-8.622791, 38.9104326]]}, "properties": {"highway": "primary", "lanes": "2", "oneway": "no", "ref": "EN 119", "source": "GPX", "surface": "asphalt"}}, {"type": "Feature", "geometry": {"type": "LineString", "coordinates": [[-8.577915, 38.9231049], [-8.5783463, 38.9230716], [-8.5783839, 38.9230687]]}, "properties": {"highway": "primary", "lanes": "2", "oneway": "no", "ref": "EN 119", "surface": "asphalt"}}, {"type": "Feature", "geometry": {"type": "LineString", "coordinates": [[-8.9663294, 38.7522857], [-8.9663234, 38.7522579], [-8.9663141, 38.7522373], [-8.9662997, 38.7522218], [-8.9662746, 38.7522088], [-8.9662361, 38.7521975], [-8.9661885, 38.7521975], [-8.9661615, 38.7522021], [-8.9661302, 38.7522101]]}, "properties": {"highway": "primary", "oneway": "yes", "ref": "EN 119", "surface": "asphalt"}}, {"type": "Feature", "geometry": {"type": "LineString", "coordinates": [[-8.9721969, 38.7339552], [-8.9721885, 38.7341251], [-8.9721583, 38.7342893], [-8.9721019, 38.7344489], [-8.9720456, 38.7345801], [-8.9719015, 38.7348705], [-8.9718928, 38.7348879], [-8.9711643, 38.7363809]]}, "properties": {"highway": "primary", "lanes": "1", "name": "Avenida Dom Jo\u00e3o II", "postal_code": "2890-303", "ref": "EN 119", "surface": "asphalt"}}, {"type": "Feature", "geometry": {"type": "LineString", "coordinates": [[-8.9730965, 38.7307287], [-8.973115, 38.730647], [-8.973115, 38.7305725], [-8.9731027, 38.7305076], [-8.9730718, 38.7304451], [-8.9730256, 38.7303898], [-8.9729609, 38.7303538], [-8.972934, 38.7303443]]}, "properties": {"highway": "primary", "junction": "roundabout", "lanes": "1", "name": "Avenida de S\u00e3o Francisco de Assis", "postal_code": "2890-341;2890-497", "postal_code:description": "2890-341:105;2890-497:Imp.161 a 471;2890-497:Imp.19 a 91;2890-497:3;2890-341:Imp.5 a 9;2890-341:Pares de 22 a 22;2890-497:Pares de 40 a 56;2890-341:58;2890-497:Pares de 66 a 78;2890-497:8;2890-341:80;2890-497:Pares de 84 a 434", "ref": "EN 119", "smoothness": "good", "surface": "asphalt"}}, {"type": "Feature", "geometry": {"type": "LineString", "coordinates": [[-8.9721977, 38.7327468], [-8.9722061, 38.732839], [-8.9722153, 38.7332043]]}, "properties": {"highway": "primary", "lanes": "1", "name": "Avenida de S\u00e3o Francisco de Assis", "oneway": "yes", "postal_code": "2890-341;2890-497", "postal_code:description": "2890-341:105;2890-497:Imp.161 a 471;2890-497:Imp.19 a 91;2890-497:3;2890-341:Imp.5 a 9;2890-341:Pares de 22 a 22;2890-497:Pares de 40 a 56;2890-341:58;2890-497:Pares de 66 a 78;2890-497:8;2890-341:80;2890-497:Pares de 84 a 434", "ref": "EN 119", "surface": "asphalt"}}, {"type": "Feature", "geometry": {"type": "LineString", "coordinates": [[-8.9722153, 38.7332043], [-8.9722307, 38.7330553], [-8.9722615, 38.7329712], [-8.9722813, 38.7329368], [-8.972317, 38.732875], [-8.9724, 38.7327707]]}, "properties": {"highway": "primary", "lanes": "1", "name": "Avenida de S\u00e3o Francisco de Assis", "oneway": "yes", "postal_code": "2890-341;2890-497", "postal_code:description": "2890-341:105;2890-497:Imp.161 a 471;2890-497:Imp.19 a 91;2890-497:3;2890-341:Imp.5 a 9;2890-341:Pares de 22 a 22;2890-497:Pares de 40 a 56;2890-341:58;2890-497:Pares de 66 a 78;2890-497:8;2890-341:80;2890-497:Pares de 84 a 434", "ref": "EN 119", "surface": "asphalt"}}, {"type": "Feature", "geometry": {"type": "LineString", "coordinates": [[-8.9723183, 38.7322529], [-8.9722568, 38.7324526], [-8.9722409, 38.7325199], [-8.9722149, 38.732586]]}, "properties": {"highway": "primary", "lanes": "1", "name": "Avenida de S\u00e3o Francisco de Assis", "oneway": "yes", "postal_code": "2890-341;2890-497", "postal_code:description": "2890-341:105;2890-497:Imp.161 a 471;2890-497:Imp.19 a 91;2890-497:3;2890-341:Imp.5 a 9;2890-341:Pares de 22 a 22;2890-497:Pares de 40 a 56;2890-341:58;2890-497:Pares de 66 a 78;2890-497:8;2890-341:80;2890-497:Pares de 84 a 434", "ref": "EN 119", "surface": "asphalt"}}, {"type": "Feature", "geometry": {"type": "LineString", "coordinates": [[-8.9724014, 38.732577], [-8.9723621, 38.7325183], [-8.9723451, 38.7324913], [-8.9723322, 38.7324549], [-8.972322, 38.7323986], [-8.9723183, 38.7322529]]}, "properties": {"highway": "primary", "lanes": "1", "name": "Avenida de S\u00e3o Francisco de Assis", "oneway": "yes", "postal_code": "2890-341;2890-497", "postal_code:description": "2890-341:105;2890-497:Imp.161 a 471;2890-497:Imp.19 a 91;2890-497:3;2890-341:Imp.5 a 9;2890-341:Pares de 22 a 22;2890-497:Pares de 40 a 56;2890-341:58;2890-497:Pares de 66 a 78;2890-497:8;2890-341:80;2890-497:Pares de 84 a 434", "ref": "EN 119", "surface": "asphalt"}}, {"type": "Feature", "geometry": {"type": "LineString", "coordinates": [[-8.9726886, 38.7307054], [-8.9726805, 38.7308105], [-8.9726528, 38.730897], [-8.9726048, 38.731003]]}, "properties": {"highway": "primary", "lanes": "1", "name": "Avenida de S\u00e3o Francisco de Assis", "oneway": "yes", "postal_code": "2890-341;2890-497", "postal_code:description": "2890-341:105;2890-497:Imp.161 a 471;2890-497:Imp.19 a 91;2890-497:3;2890-341:Imp.5 a 9;2890-341:Pares de 22 a 22;2890-497:Pares de 40 a 56;2890-341:58;2890-497:Pares de 66 a 78;2890-497:8;2890-341:80;2890-497:Pares de 84 a 434", "ref": "EN 119", "surface": "asphalt"}}, {"type": "Feature", "geometry": {"type": "LineString", "coordinates": [[-8.9726048, 38.731003], [-8.9727206, 38.7309306], [-8.9728007, 38.7308946], [-8.9729178, 38.7308705]]}, "properties": {"highway": "primary", "lanes": "1", "name": "Avenida de S\u00e3o Francisco de Assis", "oneway": "yes", "postal_code": "2890-341;2890-497", "postal_code:description": "2890-341:105;2890-497:Imp.161 a 471;2890-497:Imp.19 a 91;2890-497:3;2890-341:Imp.5 a 9;2890-341:Pares de 22 a 22;2890-497:Pares de 40 a 56;2890-341:58;2890-497:Pares de 66 a 78;2890-497:8;2890-341:80;2890-497:Pares de 84 a 434", "ref": "EN 119", "surface": "asphalt"}}, {"type": "Feature", "geometry": {"type": "LineString", "coordinates": [[-8.9724432, 38.7317321], [-8.9724118, 38.7318833], [-8.9723183, 38.7322529]]}, "properties": {"highway": "primary", "lanes": "2", "name": "Avenida de S\u00e3o Francisco de Assis", "postal_code": "2890-341;2890-497", "postal_code:description": "2890-341:105;2890-497:Imp.161 a 471;2890-497:Imp.19 a 91;2890-497:3;2890-341:Imp.5 a 9;2890-341:Pares de 22 a 22;2890-497:Pares de 40 a 56;2890-341:58;2890-497:Pares de 66 a 78;2890-497:8;2890-341:80;2890-497:Pares de 84 a 434", "ref": "EN 119", "surface": "asphalt"}}, {"type": "Feature", "geometry": {"type": "LineString", "coordinates": [[-8.9729022, 38.7283685], [-8.9729825, 38.7283973], [-8.9730595, 38.7284333], [-8.9731335, 38.7285175]]}, "properties": {"highway": "primary", "oneway": "yes", "ref": "EN 119", "surface": "asphalt"}}, {"type": "Feature", "geometry": {"type": "LineString", "coordinates": [[-8.9731335, 38.7285175], [-8.9730934, 38.7284285], [-8.9730481, 38.7283024], [-8.9730283, 38.7282376]]}, "properties": {"highway": "primary", "oneway": "yes", "ref": "EN 119", "surface": "asphalt"}}, {"type": "Feature", "geometry": {"type": "LineString", "coordinates": [[-8.9727328, 38.7275594], [-8.9727092, 38.7277179], [-8.972696, 38.727782], [-8.972652, 38.7278722]]}, "properties": {"highway": "primary", "oneway": "yes", "ref": "EN 119", "surface": "asphalt"}}, {"type": "Feature", "geometry": {"type": "LineString", "coordinates": [[-8.9728676, 38.7278591], [-8.9728069, 38.7277651], [-8.972773, 38.7277027], [-8.9727328, 38.7275594]]}, "properties": {"highway": "primary", "oneway": "yes", "ref": "EN 119", "surface": "asphalt"}}, {"type": "Feature", "geometry": {"type": "LineString", "coordinates": [[-8.9737215, 38.7296651], [-8.9737556, 38.7298153], [-8.9737858, 38.7299045]]}, "properties": {"highway": "primary", "lanes": "1", "oneway": "yes", "ref": "EN 119"}}, {"type": "Feature", "geometry": {"type": "LineString", "coordinates": [[-8.9740561, 38.7302115], [-8.9739144, 38.729936], [-8.9738575, 38.7298274], [-8.9737537, 38.7296597], [-8.9736998, 38.7295811]]}, "properties": {"highway": "primary", "lanes": "1", "name": "Avenida do Corvo-Marinho", "oneway": "yes", "postal_code": "2890-342", "ref": "EN 119", "surface": "asphalt"}}, {"type": "Feature", "geometry": {"type": "LineString", "coordinates": [[-8.9743068, 38.7311482], [-8.974278, 38.7311939], [-8.9742474, 38.7312207], [-8.97421, 38.7312401], [-8.9741384, 38.7312674]]}, "properties": {"highway": "primary", "name": "Avenida do Corvo-Marinho", "oneway": "yes", "postal_code": "2890-342", "ref": "EN 119"}}, {"type": "Feature", "geometry": {"type": "LineString", "coordinates": [[-8.9741372, 38.7313153], [-8.9741857, 38.7313195], [-8.9742244, 38.7313201], [-8.9742766, 38.7313181]]}, "properties": {"highway": "primary", "name": "Avenida do Corvo-Marinho", "oneway": "yes", "postal_code": "2890-342", "ref": "EN 119", "surface": "asphalt"}}, {"type": "Feature", "geometry": {"type": "LineString", "coordinates": [[-8.9740524, 38.7312751], [-8.9739499, 38.7312564], [-8.9738536, 38.7312342], [-8.9737435, 38.7312022], [-8.9735679, 38.7311373], [-8.9734108, 38.7310652], [-8.9732266, 38.7309569]]}, "properties": {"highway": "primary", "lanes": "2", "name": "Avenida do Corvo-Marinho", "postal_code": "2890-342", "ref": "EN 119", "surface": "asphalt"}}, {"type": "Feature", "geometry": {"type": "LineString", "coordinates": [[-8.9732266, 38.7309569], [-8.9731951, 38.7309162], [-8.9731335, 38.7308297], [-8.9730965, 38.7307287]]}, "properties": {"highway": "primary", "lanes": "1", "oneway": "yes", "ref": "EN 119", "surface": "asphalt"}}, {"type": "Feature", "geometry": {"type": "LineString", "coordinates": [[-8.9729652, 38.7308601], [-8.9730564, 38.7308946], [-8.9731519, 38.7309282], [-8.9732266, 38.7309569]]}, "properties": {"highway": "primary", "lanes": "1", "oneway": "yes", "ref": "EN 119", "surface": "asphalt"}}, {"type": "Feature", "geometry": {"type": "LineString", "coordinates": [[-8.9742452, 38.7305531], [-8.9741825, 38.7304398], [-8.9740561, 38.7302115]]}, "properties": {"highway": "primary", "oneway": "yes", "ref": "EN 119", "surface": "asphalt"}}, {"type": "Feature", "geometry": {"type": "LineString", "coordinates": [[-8.9743979, 38.7312431], [-8.9744086, 38.7312036], [-8.9744192, 38.7311157], [-8.9744244, 38.7310172], [-8.9744059, 38.7308922], [-8.974369, 38.7307864], [-8.9742452, 38.7305531]]}, "properties": {"highway": "primary", "oneway": "yes", "ref": "EN 119", "surface": "asphalt"}}, {"type": "Feature", "geometry": {"type": "LineString", "coordinates": [[-8.9694546, 38.745146], [-8.9693527, 38.7457945]]}, "properties": {"highway": "primary", "lanes": "2", "name": "Avenida Dom Manuel I", "postal_code": "2890-014", "ref": "EN 119", "surface": "asphalt"}}, {"type": "Feature", "geometry": {"type": "LineString", "coordinates": [[-8.9692168, 38.7465769], [-8.9692454, 38.746487], [-8.9693025, 38.746406], [-8.9693532, 38.7463572]]}, "properties": {"highway": "primary", "lanes": "1", "name": "Avenida Dom Manuel I", "oneway": "yes", "postal_code": "2890-014", "ref": "EN 119", "surface": "asphalt"}}, {"type": "Feature", "geometry": {"type": "LineString", "coordinates": [[-8.9691936, 38.7463074], [-8.9692186, 38.7463949], [-8.9692231, 38.7464832], [-8.9692168, 38.7465769]]}, "properties": {"highway": "primary", "lanes": "1", "name": "Avenida Dom Manuel I", "oneway": "yes", "postal_code": "2890-014", "ref": "EN 119", "surface": "asphalt"}}, {"type": "Feature", "geometry": {"type": "LineString", "coordinates": [[-8.969433, 38.7445139], [-8.9694761, 38.7446], [-8.9694781, 38.7447235], [-8.9694787, 38.7447632], [-8.9694699, 38.7449759], [-8.9694546, 38.745146]]}, "properties": {"highway": "primary", "lanes": "1", "name": "Avenida Dom Manuel I", "oneway": "yes", "postal_code": "2890-014", "ref": "EN 119", "surface": "asphalt"}}, {"type": "Feature", "geometry": {"type": "LineString", "coordinates": [[-8.969432, 38.7460658], [-8.9693929, 38.7460121], [-8.9693527, 38.7459221], [-8.9693527, 38.7457945]]}, "properties": {"highway": "primary", "lanes": "1", "name": "Avenida Dom Manuel I", "oneway": "yes", "postal_code": "2890-014", "ref": "EN 119", "surface": "asphalt"}}, {"type": "Feature", "geometry": {"type": "LineString", "coordinates": [[-8.9694546, 38.745146], [-8.9695163, 38.7449034], [-8.9695592, 38.7447778], [-8.9696263, 38.7446209], [-8.9696925, 38.7445432]]}, "properties": {"highway": "primary", "lanes": "1", "name": "Avenida Dom Manuel I", "oneway": "yes", "postal_code": "2890-014", "ref": "EN 119", "surface": "asphalt"}}, {"type": "Feature", "geometry": {"type": "LineString", "coordinates": [[-8.9693527, 38.7457945], [-8.9693071, 38.7459159], [-8.9692604, 38.746002], [-8.9691912, 38.7460716]]}, "properties": {"highway": "primary", "lanes": "1", "name": "Avenida Dom Manuel I", "oneway": "yes", "postal_code": "2890-014", "ref": "EN 119", "surface": "asphalt"}}, {"type": "Feature", "geometry": {"type": "LineString", "coordinates": [[-8.9737858, 38.7299045], [-8.973839, 38.7300149], [-8.9738852, 38.7300942], [-8.9739559, 38.7302402], [-8.9740285, 38.7303597], [-8.9741225, 38.7305341], [-8.9741878, 38.7306557], [-8.974218, 38.7307119], [-8.9742796, 38.7308441], [-8.9743104, 38.7309883], [-8.9743128, 38.7311141], [-8.9743068, 38.7311482]]}, "properties": {"highway": "primary", "lanes": "1", "name": "Avenida do Corvo-Marinho", "oneway": "yes", "postal_code": "2890-342", "ref": "EN 119"}}, {"type": "Feature", "geometry": {"type": "LineString", "coordinates": [[-8.9604248, 38.7570289], [-8.9607226, 38.7569249], [-8.9607743, 38.7569086], [-8.9609373, 38.7568733], [-8.9611023, 38.7568368], [-8.9612122, 38.7568234], [-8.9613314, 38.7568156], [-8.9614214, 38.7568151], [-8.9618334, 38.7568983], [-8.9618667, 38.7569077], [-8.9619786, 38.7570404], [-8.9620534, 38.7570542], [-8.9621555, 38.7570158], [-8.9622206, 38.7569703], [-8.9622513, 38.756919], [-8.9622968, 38.7568317], [-8.9624563, 38.7567536], [-8.9625452, 38.7567115], [-8.9627313, 38.7566213], [-8.9628759, 38.75655], [-8.9630178, 38.7564815], [-8.9631332, 38.7564244], [-8.9634031, 38.7562882]]}, "properties": {"hgv": "no", "highway": "primary", "maxspeed": "20", "name": "Rua do Norte", "oneway": "yes", "postal_code": "2890-061", "ref": "EN 119", "surface": "cobblestone"}}, {"type": "Feature", "geometry": {"type": "LineString", "coordinates": [[-8.9730538, 38.7169223], [-8.9730478, 38.717134], [-8.9730476, 38.7171378], [-8.9729586, 38.7201062], [-8.9729499, 38.7203843], [-8.9729471, 38.7204757], [-8.9729438, 38.7205806], [-8.9729326, 38.7209405], [-8.9729165, 38.721529], [-8.9729126, 38.7218322], [-8.972902, 38.7220246], [-8.9728882, 38.722273], [-8.9728645, 38.7229039], [-8.9728419, 38.7231728], [-8.9728131, 38.7236747], [-8.9728077, 38.723769]]}, "properties": {"highway": "primary", "lanes": "2", "ref": "EN 119", "smoothness": "excellent", "source": "GPS", "surface": "asphalt"}}, {"type": "Feature", "geometry": {"type": "LineString", "coordinates": [[-8.9634031, 38.7562882], [-8.9634216, 38.7562761], [-8.9634345, 38.7562639], [-8.9634462, 38.7562404], [-8.9634505, 38.7562203], [-8.9634487, 38.7561993], [-8.9633885, 38.756034], [-8.9633862, 38.7560151], [-8.9633883, 38.7560033], [-8.9633958, 38.7559926], [-8.963413, 38.7559814], [-8.9634484, 38.7559681], [-8.9637179, 38.7558922], [-8.9637466, 38.7558786], [-8.9637634, 38.7558675], [-8.9637817, 38.7558494], [-8.9637932, 38.7558288]]}, "properties": {"highway": "primary", "name": "Largo da Miseric\u00f3rdia", "oneway": "yes", "postal_code": "2890-025", "ref": "EN 119", "surface": "cobblestone"}}, {"type": "Feature", "geometry": {"type": "LineString", "coordinates": [[-8.9617368, 38.7550831], [-8.9616276, 38.7553712], [-8.9615716, 38.7556019], [-8.9615606, 38.7556851], [-8.9615451, 38.7557063], [-8.9615071, 38.7557362], [-8.9613849, 38.755784], [-8.9613313, 38.7558034], [-8.9612998, 38.7558125]]}, "properties": {"highway": "primary", "name": "Rua Jo\u00e3o de Deus", "oneway": "yes", "postal_code": "2890-079", "ref": "EN 119", "surface": "sett"}}, {"type": "Feature", "geometry": {"type": "LineString", "coordinates": [[-8.9732678, 38.7287772], [-8.9733375, 38.7289068], [-8.9733875, 38.729], [-8.9734563, 38.729128], [-8.973525, 38.7292559], [-8.9736998, 38.7295811]]}, "properties": {"highway": "primary", "lanes": "2", "name": "Avenida do Corvo-Marinho", "oneway": "no", "postal_code": "2890-342", "ref": "EN 119", "surface": "asphalt"}}, {"type": "Feature", "geometry": {"type": "LineString", "coordinates": [[-8.9637932, 38.7558288], [-8.9637996, 38.7558084], [-8.9638005, 38.7557032], [-8.9637934, 38.7555016], [-8.9637998, 38.7554527], [-8.9638149, 38.7554165], [-8.9638355, 38.7553802]]}, "properties": {"highway": "primary", "lane_markings": "no", "name": "Avenida Dom Manuel I", "oneway": "yes", "postal_code": "2890-014", "ref": "EN 119", "surface": "sett"}}, {"type": "Feature", "geometry": {"type": "LineString", "coordinates": [[-8.9711643, 38.7363809], [-8.9709092, 38.7369037], [-8.9708033, 38.7372611], [-8.9704691, 38.7391838], [-8.9704124, 38.7395103], [-8.9703759, 38.73972], [-8.9703291, 38.7399895]]}, "properties": {"highway": "primary", "lanes": "2", "name": "Avenida Dom Jo\u00e3o II", "postal_code": "2890-054", "ref": "EN 119", "surface": "asphalt"}}, {"type": "Feature", "geometry": {"type": "LineString", "coordinates": [[-8.9730797, 38.7162229], [-8.9730737, 38.7164054]]}, "properties": {"highway": "primary", "lanes": "2", "ref": "EN 119", "source": "GPS", "surface": "asphalt"}}, {"type": "Feature", "geometry": {"type": "LineString", "coordinates": [[-8.9730737, 38.7164054], [-8.9730696, 38.7165291], [-8.9730538, 38.7169223]]}, "properties": {"highway": "primary", "lanes": "2", "ref": "EN 119", "smoothness": "excellent", "source": "GPS", "surface": "asphalt"}}, {"type": "Feature", "geometry": {"type": "LineString", "coordinates": [[-8.9727276, 38.7251336], [-8.9727139, 38.7253795]]}, "properties": {"highway": "primary", "lanes": "1", "oneway": "yes", "ref": "EN 119", "smoothness": "excellent", "surface": "asphalt"}}, {"type": "Feature", "geometry": {"type": "LineString", "coordinates": [[-8.9727139, 38.7253795], [-8.9727092, 38.7256065]]}, "properties": {"highway": "primary", "lanes": "1", "oneway": "yes", "ref": "EN 119", "smoothness": "excellent", "surface": "asphalt"}}, {"type": "Feature", "geometry": {"type": "LineString", "coordinates": [[-8.9727092, 38.7256065], [-8.9727027, 38.7259653], [-8.9727027, 38.7260469], [-8.9727054, 38.7261034], [-8.9727108, 38.7261787], [-8.9727349, 38.7264215], [-8.972743, 38.7265805], [-8.9727541, 38.7268392]]}, "properties": {"highway": "primary", "lanes": "1", "oneway": "yes", "ref": "EN 119", "smoothness": "excellent", "surface": "asphalt"}}, {"type": "Feature", "geometry": {"type": "LineString", "coordinates": [[-8.9727541, 38.7268392], [-8.9727328, 38.7275594]]}, "properties": {"highway": "primary", "lane_markings": "no", "lanes": "2", "ref": "EN 119", "smoothness": "good", "source": "GPS", "surface": "asphalt"}}, {"type": "Feature", "geometry": {"type": "LineString", "coordinates": [[-8.9727541, 38.7268392], [-8.9727666, 38.726691], [-8.9727778, 38.7265168], [-8.9727929, 38.7259789], [-8.9728136, 38.7252643], [-8.9728168, 38.7251148], [-8.9728288, 38.7247808], [-8.9728415, 38.7242581], [-8.9728463, 38.7240507], [-8.9728466, 38.7239786]]}, "properties": {"highway": "primary", "lanes": "1", "maxheight": "default", "maxheight:signed": "no", "oneway": "yes", "ref": "EN 119", "smoothness": "excellent", "surface": "asphalt"}}, {"type": "Feature", "geometry": {"type": "LineString", "coordinates": [[-8.9693532, 38.7463572], [-8.9693878, 38.7463307]]}, "properties": {"highway": "primary", "name": "Avenida Dom Manuel I", "oneway": "yes", "postal_code": "2890-014", "ref": "EN 119", "surface": "asphalt"}}, {"type": "Feature", "geometry": {"type": "LineString", "coordinates": [[-8.9689634, 38.7482345], [-8.9690103, 38.7479153], [-8.9691395, 38.747035], [-8.9692168, 38.7465769]]}, "properties": {"highway": "primary", "lanes": "2", "name": "Avenida Dom Manuel I", "oneway": "no", "postal_code": "2890-014", "ref": "EN 119", "surface": "asphalt"}}, {"type": "Feature", "geometry": {"type": "LineString", "coordinates": [[-8.9689222, 38.748397], [-8.9689634, 38.7482345]]}, "properties": {"highway": "primary", "lanes": "1", "name": "Avenida Dom Manuel I", "postal_code": "2890-014", "ref": "EN 119", "surface": "asphalt"}}, {"type": "Feature", "geometry": {"type": "LineString", "coordinates": [[-8.9664816, 38.7520209], [-8.9661302, 38.7522101]]}, "properties": {"highway": "primary", "oneway": "yes", "ref": "EN 119", "surface": "asphalt"}}, {"type": "Feature", "geometry": {"type": "LineString", "coordinates": [[-8.9578914, 38.756029], [-8.9578379, 38.7560302]]}, "properties": {"highway": "primary", "lane_markings": "no", "lanes": "2", "name": "Avenida 5 de Outubro", "oneway": "no", "postal_code": "2890-011", "ref": "EN 119", "surface": "asphalt"}}, {"type": "Feature", "geometry": {"type": "LineString", "coordinates": [[-8.9538394, 38.7560737], [-8.9540776, 38.7560692]]}, "properties": {"highway": "primary", "lanes": "1", "name": "Avenida 5 de Outubro", "oneway": "no", "postal_code": "2890-011", "ref": "EN 119", "smoothness": "excellent", "surface": "asphalt"}}, {"type": "Feature", "geometry": {"type": "LineString", "coordinates": [[-8.9496476, 38.7552691], [-8.9498503, 38.7553403]]}, "properties": {"highway": "primary", "lanes": "2", "name": "Avenida do Canto do Pinheiro", "oneway": "no", "postal_code": "2890-121", "ref": "EN 119"}}, {"type": "Feature", "geometry": {"type": "LineString", "coordinates": [[-8.7317291, 38.8405984], [-8.7315539, 38.8406843], [-8.7312462, 38.840876], [-8.7298672, 38.8417246]]}, "properties": {"highway": "primary", "name": "Reta do Infantado", "old_name": "Recta do Infantado", "oneway": "yes", "ref": "IC 3;EN 119"}}, {"type": "Feature", "geometry": {"type": "LineString", "coordinates": [[-7.8055646, 39.2198769], [-7.8060915, 39.2200329], [-7.808259, 39.2207062], [-7.8117971, 39.2217915], [-7.8143344, 39.2225696], [-7.8327749, 39.2282214], [-7.8416999, 39.2309594], [-7.8424923, 39.2311904], [-7.8431625, 39.2313014], [-7.8437399, 39.2313083], [-7.8600637, 39.2305494], [-7.8607616, 39.2306188], [-7.8615357, 39.2307925], [-7.8620216, 39.2309192], [-7.8620665, 39.2309309], [-7.8626639, 39.2310817], [-7.8747966, 39.2341769], [-7.8789003, 39.2352219], [-7.8850162, 39.2367769]]}, "properties": {"highway": "primary", "ref": "EN 119"}}, {"type": "Feature", "geometry": {"type": "LineString", "coordinates": [[-7.8051146, 39.2197437], [-7.8055646, 39.2198769]]}, "properties": {"highway": "primary", "ref": "EN 119;IC 13"}}, {"type": "Feature", "geometry": {"type": "LineString", "coordinates": [[-7.9296781, 39.2515123], [-7.9299641, 39.2515731]]}, "properties": {"bicycle": "yes", "highway": "primary", "maxspeed": "90", "ref": "EN 119;IC 13", "surface": "asphalt"}}, {"type": "Feature", "geometry": {"type": "LineString", "coordinates": [[-7.9302365, 39.2516229], [-7.9304406, 39.2516488], [-7.9306337, 39.2516634], [-7.9308085, 39.2516711], [-7.9312171, 39.251665], [-7.9316135, 39.251607], [-7.9318222, 39.2515657], [-7.9321551, 39.2514891], [-7.9324328, 39.2513868], [-7.932679, 39.2512844], [-7.9328834, 39.2511795], [-7.9330825, 39.2510584], [-7.9356709, 39.2491707], [-7.9374253, 39.2478419], [-7.9384202, 39.2469082], [-7.9386039, 39.2467607], [-7.9388118, 39.2466212], [-7.9389868, 39.2465166], [-7.9391851, 39.2464079], [-7.9431271, 39.2448762], [-7.9435271, 39.2446805], [-7.9438405, 39.2445112], [-7.9441845, 39.2442924], [-7.9445095, 39.2440525], [-7.9448045, 39.2437843], [-7.9457098, 39.242808], [-7.9459518, 39.2426123], [-7.9462001, 39.2424607], [-7.9464448, 39.2423489], [-7.9467147, 39.2422521], [-7.9469804, 39.2421944], [-7.9472232, 39.2421615], [-7.9474774, 39.2421516], [-7.9477092, 39.2421594], [-7.9482512, 39.2421956], [-7.9484298, 39.2421939], [-7.9485368, 39.2421937], [-7.9486432, 39.2421846], [-7.9487478, 39.2421668], [-7.9516729, 39.2415359], [-7.9520985, 39.2414368], [-7.9522417, 39.2414076], [-7.9523872, 39.2413861], [-7.9525343, 39.2413723], [-7.9527674, 39.2413563], [-7.9531439, 39.2413508], [-7.953832, 39.2414074], [-7.955154, 39.2415352], [-7.9556497, 39.2415953], [-7.955963, 39.2416561], [-7.9561758, 39.2417175], [-7.9563513, 39.2417874], [-7.9572096, 39.2422194], [-7.9628882, 39.2459804], [-7.9634901, 39.246197], [-7.9641768, 39.2463298], [-7.9647343, 39.2463575], [-7.9653855, 39.2463205], [-7.9683556, 39.2460736], [-7.9691809, 39.2460859], [-7.969679, 39.2461667], [-7.97013, 39.2463186], [-7.9746159, 39.2480976], [-7.9754983, 39.2484397], [-7.9757832, 39.2485247], [-7.9760096, 39.2485788], [-7.9762376, 39.2486173], [-7.9765335, 39.2486507], [-7.9768419, 39.2486634], [-7.9771924, 39.2486449], [-7.977535, 39.2485969], [-7.9778706, 39.2485251], [-7.9781943, 39.2484311], [-7.9784903, 39.2483131], [-7.9787876, 39.248167], [-7.9795821, 39.2477234], [-7.9827492, 39.2459551], [-7.9828473, 39.2459039], [-7.9829494, 39.2458578], [-7.983055, 39.2458169], [-7.9831639, 39.2457813], [-7.9832754, 39.2457512], [-7.9870078, 39.2448477]]}, "properties": {"bicycle": "yes", "highway": "primary", "maxspeed": "90", "ref": "EN 119", "surface": "asphalt"}}, {"type": "Feature", "geometry": {"type": "LineString", "coordinates": [[-7.9299641, 39.2515731], [-7.9302365, 39.2516229]]}, "properties": {"bicycle": "yes", "highway": "primary", "maxspeed": "90", "ref": "EN 119;IC 13", "surface": "asphalt"}}, {"type": "Feature", "geometry": {"type": "LineString", "coordinates": [[-8.001464, 39.2460341], [-8.0017009, 39.2460676], [-8.0018102, 39.2460831]]}, "properties": {"highway": "primary", "lanes": "2", "lit": "yes", "maxspeed": "90", "ref": "EN 119;", "surface": "asphalt"}}, {"type": "Feature", "geometry": {"type": "LineString", "coordinates": [[-8.0018102, 39.2460831], [-8.002453, 39.2461841]]}, "properties": {"highway": "primary", "lanes": "2", "lit": "yes", "maxspeed": "90", "ref": "EN 119", "surface": "asphalt"}}, {"type": "Feature", "geometry": {"type": "LineString", "coordinates": [[-8.002453, 39.2461841], [-8.0027242, 39.2462454], [-8.0041999, 39.2465589], [-8.0043755, 39.2465981], [-8.0045686, 39.2466285], [-8.0047283, 39.2466469], [-8.0048924, 39.246661]]}, "properties": {"highway": "primary", "lanes": "2", "lit": "yes", "maxspeed": "90", "ref": "EN 119", "surface": "asphalt"}}, {"type": "Feature", "geometry": {"type": "LineString", "coordinates": [[-8.0229593, 39.2446163], [-8.0231111, 39.2446425], [-8.023254, 39.2446601], [-8.0234483, 39.2447096], [-8.0235219, 39.2447283]]}, "properties": {"highway": "primary", "lanes": "1", "lit": "yes", "name": "Estrada de Abrantes", "oneway": "yes", "postal_code": "7400-227", "ref": "EN 119", "surface": "asphalt"}}, {"type": "Feature", "geometry": {"type": "LineString", "coordinates": [[-8.0235652, 39.2445681], [-8.023482, 39.2445824], [-8.0233658, 39.2446025], [-8.0231847, 39.2446025], [-8.0230675, 39.2446097], [-8.0229593, 39.2446163]]}, "properties": {"highway": "primary", "lanes": "1", "lit": "yes", "name": "Estrada de Abrantes", "oneway": "yes", "postal_code": "7400-227", "ref": "EN 119", "surface": "asphalt"}}, {"type": "Feature", "geometry": {"type": "LineString", "coordinates": [[-8.0247014, 39.244744], [-8.0251625, 39.2447727], [-8.0262898, 39.2448444], [-8.0266172, 39.2448654], [-8.0267812, 39.244876], [-8.0280293, 39.2449476], [-8.0281689, 39.2449575], [-8.0283595, 39.2449711], [-8.029985, 39.2450791], [-8.0301167, 39.2450879]]}, "properties": {"highway": "primary", "lanes": "2", "lit": "yes", "name": "Estrada de Abrantes", "postal_code": "7400-227", "ref": "EN 119", "surface": "asphalt"}}, {"type": "Feature", "geometry": {"type": "LineString", "coordinates": [[-8.0238476, 39.2447653], [-8.023976, 39.2447452], [-8.0241099, 39.2447383], [-8.0243515, 39.2447354], [-8.0247014, 39.244744]]}, "properties": {"highway": "primary", "lanes": "1", "lit": "yes", "name": "Estrada de Abrantes", "oneway": "yes", "postal_code": "7400-227", "ref": "EN 119;", "surface": "asphalt"}}, {"type": "Feature", "geometry": {"type": "LineString", "coordinates": [[-8.5127261, 38.9394891], [-8.5131908, 38.9394127], [-8.51361, 38.9393219], [-8.5140697, 38.9391867]]}, "properties": {"bicycle": "yes", "check_date:surface": "2023-01-09", "cycleway": "no", "highway": "primary", "lanes": "2", "maxspeed": "90", "oneway": "no", "ref": "EN 119", "surface": "asphalt"}}, {"type": "Feature", "geometry": {"type": "LineString", "coordinates": [[-8.5084695, 38.9400143], [-8.5089699, 38.9399697], [-8.5094161, 38.9399252], [-8.509913, 38.9398701], [-8.5099811, 38.9398621], [-8.5100777, 38.9398509], [-8.5102513, 38.9398306], [-8.5107519, 38.9397674], [-8.512221, 38.939573], [-8.5127261, 38.9394891]]}, "properties": {"bicycle": "yes", "cycleway": "no", "highway": "primary", "lanes": "2", "maxspeed": "90", "oneway": "yes", "ref": "EN 119", "surface": "asphalt"}}, {"type": "Feature", "geometry": {"type": "LineString", "coordinates": [[-8.5127261, 38.9394891], [-8.5122953, 38.9395291], [-8.5120839, 38.939553], [-8.5117316, 38.9395939], [-8.5112453, 38.9396483], [-8.5110118, 38.939676], [-8.5108018, 38.9397], [-8.5104732, 38.939738], [-8.5102665, 38.9397621], [-8.5100539, 38.9397871], [-8.5100395, 38.9397888], [-8.5098943, 38.9398058], [-8.5098796, 38.9398075], [-8.5095865, 38.9398458], [-8.5092506, 38.9398951], [-8.5088758, 38.9399471], [-8.5084695, 38.9400143]]}, "properties": {"highway": "primary", "lanes": "1", "oneway": "yes", "ref": "EN 119", "surface": "asphalt"}}, {"type": "Feature", "geometry": {"type": "LineString", "coordinates": [[-8.5182889, 38.9368336], [-8.5184249, 38.9367582], [-8.5185588, 38.9366842], [-8.5186953, 38.9366152], [-8.5188732, 38.9365325], [-8.5190626, 38.9364487], [-8.5193069, 38.9363626], [-8.5195877, 38.9362771], [-8.5198664, 38.9362059], [-8.5201824, 38.9361394], [-8.5207316, 38.9360471], [-8.5216121, 38.9358969], [-8.5224959, 38.9357482], [-8.5230826, 38.9356481], [-8.5234896, 38.9355703], [-8.5248455, 38.9352178], [-8.5254993, 38.9350388], [-8.5261765, 38.9348578], [-8.5276692, 38.934452], [-8.5303755, 38.9337231], [-8.5355917, 38.9323182], [-8.5364561, 38.9320839], [-8.5373653, 38.9318367], [-8.5381103, 38.9316369], [-8.5390786, 38.9313777], [-8.5403701, 38.9310261], [-8.5406557, 38.930928], [-8.5409025, 38.9308315], [-8.5411446, 38.9307267], [-8.5414785, 38.9305566], [-8.5416884, 38.930432], [-8.5420062, 38.9302332], [-8.5424763, 38.9299281], [-8.5428558, 38.929685], [-8.5433869, 38.9293423], [-8.543981, 38.9289547], [-8.5446455, 38.9285243], [-8.545422, 38.9280157], [-8.5459404, 38.9276876], [-8.5468188, 38.9271175], [-8.5476016, 38.9266268], [-8.5478736, 38.9264868], [-8.5481929, 38.9263609], [-8.5487026, 38.926199], [-8.5491181, 38.9260992], [-8.5494997, 38.9260082], [-8.549617, 38.9259802]]}, "properties": {"highway": "primary", "lanes": "2", "oneway": "no", "ref": "EN 119", "surface": "asphalt"}}, {"type": "Feature", "geometry": {"type": "LineString", "coordinates": [[-8.6418257, 38.8982568], [-8.6423798, 38.8979339], [-8.6424886, 38.8978657], [-8.6429312, 38.8975881], [-8.6430077, 38.8975361], [-8.6433698, 38.8972898], [-8.6438514, 38.8969653]]}, "properties": {"highway": "primary", "lanes": "2", "name": "Reta do Infantado", "old_name": "Recta do Infantado", "oneway": "yes", "ref": "EN 119", "surface": "asphalt"}}, {"type": "Feature", "geometry": {"type": "LineString", "coordinates": [[-8.6438514, 38.8969653], [-8.6457275, 38.8957599], [-8.6468847, 38.8950175]]}, "properties": {"highway": "primary", "lanes": "2", "name": "Reta do Infantado", "old_name": "Recta do Infantado", "oneway": "no", "ref": "EN 119", "surface": "asphalt"}}, {"type": "Feature", "geometry": {"type": "LineString", "coordinates": [[-8.6438514, 38.8969653], [-8.6435019, 38.8971441], [-8.6431408, 38.8973715], [-8.6428824, 38.8975268], [-8.6426821, 38.8976603], [-8.6425256, 38.8977589], [-8.6419006, 38.8981847], [-8.6418257, 38.8982568]]}, "properties": {"highway": "primary", "name": "Reta do Infantado", "old_name": "Recta do Infantado", "oneway": "yes", "ref": "EN 119"}}, {"type": "Feature", "geometry": {"type": "LineString", "coordinates": [[-8.6915051, 38.8664192], [-8.6917212, 38.8662818], [-8.6920671, 38.8660604], [-8.6923878, 38.8658431]]}, "properties": {"highway": "primary", "lanes": "2", "name": "Reta do Infantado", "old_name": "Recta do Infantado", "oneway": "no", "ref": "EN 119", "surface": "asphalt"}}, {"type": "Feature", "geometry": {"type": "LineString", "coordinates": [[-8.6910028, 38.8667445], [-8.6912509, 38.8665819]]}, "properties": {"highway": "primary", "lanes": "2", "name": "Reta do Infantado", "old_name": "Recta do Infantado", "oneway": "no", "ref": "EN 119", "surface": "asphalt"}}, {"type": "Feature", "geometry": {"type": "LineString", "coordinates": [[-8.6912509, 38.8665819], [-8.6915051, 38.8664192]]}, "properties": {"highway": "primary", "lanes": "2", "name": "Reta do Infantado", "old_name": "Recta do Infantado", "oneway": "no", "ref": "EN 119", "surface": "asphalt"}}, {"type": "Feature", "geometry": {"type": "LineString", "coordinates": [[-8.6927463, 38.8656207], [-8.6940231, 38.8648016], [-8.6941152, 38.8647432], [-8.6946662, 38.8643938], [-8.6953128, 38.8639776], [-8.6979263, 38.8622982], [-8.6983399, 38.8620313], [-8.705417, 38.8574935], [-8.7059998, 38.8571157], [-8.7070117, 38.8564586], [-8.7101084, 38.8544765], [-8.7127258, 38.8527958], [-8.7163671, 38.8504512], [-8.7168223, 38.8501653]]}, "properties": {"highway": "primary", "lanes": "2", "name": "Reta do Infantado", "old_name": "Recta do Infantado", "oneway": "no", "ref": "EN 119", "surface": "asphalt"}}, {"type": "Feature", "geometry": {"type": "LineString", "coordinates": [[-8.6923878, 38.8658431], [-8.6925752, 38.8657284]]}, "properties": {"highway": "primary", "lanes": "2", "name": "Reta do Infantado", "old_name": "Recta do Infantado", "oneway": "no", "ref": "EN 119", "surface": "asphalt"}}, {"type": "Feature", "geometry": {"type": "LineString", "coordinates": [[-8.6925752, 38.8657284], [-8.6927463, 38.8656207]]}, "properties": {"highway": "primary", "lanes": "2", "name": "Reta do Infantado", "old_name": "Recta do Infantado", "oneway": "no", "ref": "EN 119", "surface": "asphalt"}}, {"type": "Feature", "geometry": {"type": "LineString", "coordinates": [[-8.7168223, 38.8501653], [-8.7171551, 38.8499813], [-8.7176676, 38.8496572], [-8.7179065, 38.8495107]]}, "properties": {"highway": "primary", "lanes": "2", "name": "Reta do Infantado", "old_name": "Recta do Infantado", "oneway": "yes", "ref": "EN 119", "surface": "asphalt"}}, {"type": "Feature", "geometry": {"type": "LineString", "coordinates": [[-8.7186219, 38.8490198], [-8.7183463, 38.849158], [-8.7179196, 38.8494303], [-8.717875, 38.8494549]]}, "properties": {"highway": "primary", "name": "Reta do Infantado", "old_name": "Recta do Infantado", "oneway": "yes", "ref": "EN 119"}}, {"type": "Feature", "geometry": {"type": "LineString", "coordinates": [[-8.7556679, 38.8284454], [-8.7595289, 38.8266404]]}, "properties": {"highway": "primary", "lanes": "2", "maxspeed": "90", "name": "Reta do Infantado", "old_name": "Recta do Infantado", "oneway": "no", "ref": "IC 3;EN 119", "source": "GPX", "surface": "asphalt"}}, {"type": "Feature", "geometry": {"type": "LineString", "coordinates": [[-8.7499341, 38.831122], [-8.7516797, 38.8303089], [-8.7528354, 38.8297705], [-8.7529263, 38.8297281], [-8.7556679, 38.8284454]]}, "properties": {"highway": "primary", "lanes": "2", "maxspeed": "90", "name": "Reta do Infantado", "old_name": "Recta do Infantado", "oneway": "yes", "ref": "IC 3;EN 119", "source": "GPX", "surface": "asphalt"}}, {"type": "Feature", "geometry": {"type": "LineString", "coordinates": [[-8.7556679, 38.8284454], [-8.7551184, 38.828655], [-8.7538054, 38.8292373], [-8.7533345, 38.8294462], [-8.7528341, 38.8296797], [-8.7527868, 38.8297017], [-8.7524835, 38.8298432], [-8.7514947, 38.8303044], [-8.7499341, 38.831122]]}, "properties": {"highway": "primary", "name": "Reta do Infantado", "old_name": "Recta do Infantado", "oneway": "yes", "ref": "IC 3;EN 119"}}, {"type": "Feature", "geometry": {"type": "LineString", "coordinates": [[-8.9643745, 38.7546594], [-8.9646152, 38.7543751], [-8.9651972, 38.7536675], [-8.9654469, 38.7533762], [-8.96576, 38.7529885], [-8.9658784, 38.752856], [-8.9662932, 38.7523446], [-8.9663228, 38.7523044], [-8.9663294, 38.7522857]]}, "properties": {"highway": "primary", "lit": "yes", "maxspeed": "20", "name": "Avenida Dom Manuel I", "oneway": "yes", "paving_stones:length": "0.3", "paving_stones:shape": "square", "postal_code": "2890-014", "ref": "EN 119", "surface": "paving_stones"}}, {"type": "Feature", "geometry": {"type": "LineString", "coordinates": [[-8.9663294, 38.7522857], [-8.9663438, 38.7521991], [-8.966361, 38.7521558], [-8.9663804, 38.7521213], [-8.9664305, 38.75207], [-8.9664816, 38.7520209]]}, "properties": {"highway": "primary", "lit": "yes", "maxspeed": "20", "name": "Avenida Dom Manuel I", "oneway": "yes", "postal_code": "2890-014", "ref": "EN 119", "surface": "asphalt"}}, {"type": "Feature", "geometry": {"type": "LineString", "coordinates": [[-8.9742766, 38.7313181], [-8.9743167, 38.7313044], [-8.9743532, 38.7312855], [-8.9743979, 38.7312431]]}, "properties": {"highway": "primary", "name": "Avenida do Corvo-Marinho", "oneway": "yes", "postal_code": "2890-342", "ref": "EN 119", "surface": "asphalt"}}, {"type": "Feature", "geometry": {"type": "LineString", "coordinates": [[-7.9116332, 39.2445586], [-7.9119976, 39.2446241]]}, "properties": {"highway": "primary", "ref": "EN 119;IC 13"}}, {"type": "Feature", "geometry": {"type": "LineString", "coordinates": [[-7.9119976, 39.2446241], [-7.9123029, 39.2446789], [-7.9126463, 39.2447986], [-7.9155575, 39.2462367], [-7.9156783, 39.246303], [-7.9158978, 39.2464236], [-7.9161457, 39.246589], [-7.9172593, 39.2473424], [-7.9179693, 39.2478286], [-7.9182993, 39.2480496], [-7.918683, 39.2482771], [-7.9189299, 39.2483927], [-7.9189933, 39.2484224], [-7.9192724, 39.2485328], [-7.9196222, 39.2486471], [-7.9199086, 39.2487293], [-7.9200192, 39.2487611], [-7.9204272, 39.2488652]]}, "properties": {"highway": "primary", "ref": "EN 119"}}, {"type": "Feature", "geometry": {"type": "LineString", "coordinates": [[-8.7495065, 38.8313213], [-8.7499341, 38.831122]]}, "properties": {"highway": "primary", "lanes": "2", "maxspeed": "90", "name": "Reta do Infantado", "old_name": "Recta do Infantado", "oneway": "no", "ref": "IC 3;EN 119", "source": "GPX", "surface": "asphalt"}}, {"type": "Feature", "geometry": {"type": "LineString", "coordinates": [[-8.7492799, 38.8314269], [-8.7495065, 38.8313213]]}, "properties": {"bridge": "yes", "highway": "primary", "lanes": "2", "layer": "1", "maxspeed": "90", "name": "Reta do Infantado", "old_name": "Recta do Infantado", "oneway": "no", "ref": "IC 3;EN 119", "source": "GPX", "surface": "asphalt"}}, {"type": "Feature", "geometry": {"type": "LineString", "coordinates": [[-8.7270883, 38.8435867], [-8.7277693, 38.8431918], [-8.7284317, 38.8427829], [-8.7293579, 38.8421886]]}, "properties": {"highway": "primary", "name": "Reta do Infantado", "old_name": "Recta do Infantado", "oneway": "yes", "ref": "EN 119"}}, {"type": "Feature", "geometry": {"type": "LineString", "coordinates": [[-8.7292301, 38.8421662], [-8.7286933, 38.842486]]}, "properties": {"highway": "primary", "name": "Reta do Infantado", "old_name": "Recta do Infantado", "oneway": "yes", "ref": "EN 119"}}, {"type": "Feature", "geometry": {"type": "LineString", "coordinates": [[-8.7293579, 38.8421886], [-8.731402, 38.8408554], [-8.7315955, 38.8407099], [-8.7317291, 38.8405984]]}, "properties": {"highway": "primary", "name": "Reta do Infantado", "old_name": "Recta do Infantado", "oneway": "yes", "ref": "IC 3;EN 119"}}, {"type": "Feature", "geometry": {"type": "LineString", "coordinates": [[-8.7298672, 38.8417246], [-8.7292301, 38.8421662]]}, "properties": {"highway": "primary", "name": "Reta do Infantado", "old_name": "Recta do Infantado", "oneway": "yes", "ref": "EN 119"}}, {"type": "Feature", "geometry": {"type": "LineString", "coordinates": [[-8.7286933, 38.842486], [-8.7281837, 38.8428063], [-8.7277459, 38.8431155], [-8.7270883, 38.8435867]]}, "properties": {"highway": "primary", "name": "Reta do Infantado", "old_name": "Recta do Infantado", "oneway": "yes", "ref": "EN 119"}}, {"type": "Feature", "geometry": {"type": "LineString", "coordinates": [[-8.7317291, 38.8405984], [-8.7339594, 38.8391786], [-8.7341603, 38.839045]]}, "properties": {"highway": "primary", "name": "Reta do Infantado", "old_name": "Recta do Infantado", "ref": "IC 3;EN 119"}}, {"type": "Feature", "geometry": {"type": "LineString", "coordinates": [[-8.7354888, 38.8384437], [-8.7355299, 38.8384413], [-8.7355701, 38.8384342], [-8.7356085, 38.8384226], [-8.7356443, 38.8384068], [-8.7356768, 38.8383871], [-8.7357053, 38.838364], [-8.7357292, 38.8383378], [-8.7357479, 38.8383092], [-8.735761, 38.8382788], [-8.7357683, 38.8382472]]}, "properties": {"highway": "primary", "junction": "roundabout", "ref": "IC 3;EN 119"}}, {"type": "Feature", "geometry": {"type": "LineString", "coordinates": [[-8.7371022, 38.8371689], [-8.7362543, 38.8376261], [-8.7357609, 38.8378918], [-8.7356518, 38.8379472], [-8.7355731, 38.8379842], [-8.7354977, 38.8380046]]}, "properties": {"highway": "primary", "name": "Reta do Infantado", "old_name": "Recta do Infantado", "oneway": "yes", "ref": "IC 3;EN 119"}}, {"type": "Feature", "geometry": {"type": "LineString", "coordinates": [[-8.7357686, 38.8382029], [-8.7357979, 38.8381597], [-8.7358192, 38.8381194], [-8.7358744, 38.8380488], [-8.7359286, 38.8379904], [-8.7360449, 38.8378998], [-8.7363317, 38.8377046], [-8.7371022, 38.8371689]]}, "properties": {"highway": "primary", "name": "Reta do Infantado", "old_name": "Recta do Infantado", "oneway": "yes", "ref": "IC 3;EN 119"}}, {"type": "Feature", "geometry": {"type": "LineString", "coordinates": [[-8.7352076, 38.8382477], [-8.7351713, 38.8382935], [-8.7351298, 38.8383401], [-8.7350548, 38.8384081], [-8.7349039, 38.83853], [-8.7347489, 38.8386356], [-8.7345094, 38.8387888], [-8.7341603, 38.839045]]}, "properties": {"highway": "primary", "name": "Reta do Infantado", "old_name": "Recta do Infantado", "oneway": "yes", "ref": "IC 3;EN 119"}}, {"type": "Feature", "geometry": {"type": "LineString", "coordinates": [[-8.7341603, 38.839045], [-8.7345521, 38.8388321], [-8.7349429, 38.8385968], [-8.7350857, 38.8385209], [-8.7351768, 38.8384815], [-8.7352431, 38.8384587], [-8.735314, 38.8384456], [-8.7354295, 38.838439]]}, "properties": {"highway": "primary", "name": "Reta do Infantado", "old_name": "Recta do Infantado", "oneway": "yes", "ref": "IC 3;EN 119"}}, {"type": "Feature", "geometry": {"type": "LineString", "coordinates": [[-8.6470984, 38.8948856], [-8.6538502, 38.8905619], [-8.653917, 38.8905184], [-8.6547783, 38.8899654], [-8.6643766, 38.8838085], [-8.6646112, 38.8836573], [-8.6690511, 38.8808132], [-8.6721484, 38.8788272], [-8.6744945, 38.877326], [-8.67519, 38.8768811], [-8.675258, 38.8768368], [-8.6754623, 38.8767038], [-8.6758271, 38.8764728], [-8.681191, 38.8730299], [-8.6812793, 38.8729746], [-8.6851636, 38.870484], [-8.6852633, 38.8704201], [-8.6853515, 38.8703629], [-8.6867454, 38.8694584], [-8.6882689, 38.8684818], [-8.6910028, 38.8667445]]}, "properties": {"highway": "primary", "lanes": "2", "name": "Reta do Infantado", "old_name": "Recta do Infantado", "oneway": "no", "ref": "EN 119", "surface": "asphalt"}}, {"type": "Feature", "geometry": {"type": "LineString", "coordinates": [[-8.6468847, 38.8950175], [-8.6470984, 38.8948856]]}, "properties": {"bridge": "yes", "highway": "primary", "lanes": "2", "layer": "1", "name": "Reta do Infantado", "old_name": "Recta do Infantado", "oneway": "no", "ref": "EN 119", "surface": "asphalt"}}, {"type": "Feature", "geometry": {"type": "LineString", "coordinates": [[-8.5100777, 38.9398509], [-8.5100395, 38.9397888]]}, "properties": {"highway": "primary", "ref": "EN 119", "surface": "asphalt"}}, {"type": "Feature", "geometry": {"type": "LineString", "coordinates": [[-8.5182889, 38.9368336], [-8.5180717, 38.936951], [-8.5179115, 38.9370325], [-8.5177682, 38.937108], [-8.5175787, 38.9372146], [-8.5173168, 38.9373692], [-8.5172112, 38.9374327], [-8.5170796, 38.9375118], [-8.5168494, 38.9376477], [-8.5167021, 38.9377347], [-8.5165245, 38.9378425], [-8.5163232, 38.9379647], [-8.5159673, 38.9381804], [-8.5156808, 38.9383601], [-8.5155375, 38.9384536], [-8.5153819, 38.9385567], [-8.5152571, 38.9386429], [-8.5151832, 38.9386919]]}, "properties": {"highway": "primary", "oneway": "yes", "ref": "EN 119", "surface": "asphalt"}}, {"type": "Feature", "geometry": {"type": "LineString", "coordinates": [[-8.5151832, 38.9386919], [-8.5153314, 38.938619], [-8.515454, 38.9385545], [-8.5156245, 38.9384628], [-8.5158229, 38.9383529], [-8.5159187, 38.9382993], [-8.5160354, 38.9382339], [-8.5161358, 38.9381731], [-8.5162969, 38.9380777], [-8.5164931, 38.9379606], [-8.516646, 38.9378707], [-8.5167797, 38.9377903], [-8.5167955, 38.9377808], [-8.5169414, 38.9376954], [-8.5170073, 38.9376547], [-8.5170943, 38.937601], [-8.5172683, 38.9374956], [-8.5174061, 38.9374139], [-8.517538, 38.9373331], [-8.5176594, 38.9372559], [-8.5177762, 38.9371787], [-8.5179443, 38.9370661], [-8.5181276, 38.9369435], [-8.5182889, 38.9368336]]}, "properties": {"highway": "primary", "oneway": "yes", "ref": "EN 119", "surface": "asphalt"}}, {"type": "Feature", "geometry": {"type": "LineString", "coordinates": [[-8.0048924, 39.246661], [-8.0049644, 39.2466669], [-8.0050073, 39.2466682]]}, "properties": {"highway": "primary", "lanes": "2", "lit": "yes", "maxspeed": "90", "ref": "EN 119;", "surface": "asphalt"}}, {"type": "Feature", "geometry": {"type": "LineString", "coordinates": [[-8.549617, 38.9259802], [-8.5501092, 38.9258717], [-8.5505972, 38.9257429], [-8.5511891, 38.9256], [-8.5515623, 38.9255123], [-8.5519706, 38.9254221], [-8.5520769, 38.9253981], [-8.5523455, 38.9253527], [-8.5526298, 38.925318], [-8.5529798, 38.9252851], [-8.5532685, 38.9252577], [-8.5539146, 38.9252051], [-8.5550282, 38.9251056], [-8.5590509, 38.9247461], [-8.559648, 38.9246894], [-8.5598434, 38.924673], [-8.5613805, 38.9245404], [-8.5629295, 38.9243975], [-8.5645458, 38.9242584], [-8.5664016, 38.9241002], [-8.568628, 38.9239138], [-8.5694821, 38.9238406], [-8.5716708, 38.9236442], [-8.5738155, 38.9234546], [-8.5744241, 38.9234035], [-8.5775241, 38.9231369], [-8.577915, 38.9231049]]}, "properties": {"highway": "primary", "lanes": "2", "oneway": "no", "ref": "EN 119", "surface": "asphalt"}}, {"type": "Feature", "geometry": {"type": "LineString", "coordinates": [[-8.7357686, 38.8382029], [-8.7357626, 38.8381746], [-8.735752, 38.8381471], [-8.7357368, 38.8381209], [-8.7357174, 38.8380965], [-8.7356941, 38.8380742], [-8.7356672, 38.8380546], [-8.7356373, 38.8380378], [-8.7356048, 38.8380242], [-8.7355703, 38.838014], [-8.7355344, 38.8380075], [-8.7354977, 38.8380046]]}, "properties": {"highway": "primary", "junction": "roundabout", "ref": "IC 3;EN 119"}}, {"type": "Feature", "geometry": {"type": "LineString", "coordinates": [[-8.7352076, 38.8382477], [-8.7352175, 38.8382863], [-8.735236, 38.8383228], [-8.7352627, 38.8383562], [-8.7352965, 38.8383853], [-8.7353364, 38.8384093], [-8.7353812, 38.8384274], [-8.7354295, 38.838439]]}, "properties": {"highway": "primary", "junction": "roundabout", "ref": "IC 3;EN 119"}}, {"type": "Feature", "geometry": {"type": "LineString", "coordinates": [[-8.7354596, 38.8380056], [-8.7354164, 38.8380116], [-8.7353749, 38.8380229], [-8.7353361, 38.838039], [-8.735301, 38.8380596], [-8.7352705, 38.8380843], [-8.7352452, 38.8381123], [-8.7352259, 38.838143], [-8.7352129, 38.8381757], [-8.7352066, 38.8382096]]}, "properties": {"highway": "primary", "junction": "roundabout", "ref": "IC 3;EN 119"}}, {"type": "Feature", "geometry": {"type": "LineString", "coordinates": [[-7.9871129, 39.2448212], [-7.9874591, 39.2447314], [-7.9899209, 39.2441363], [-7.990128, 39.2440966], [-7.9902771, 39.2440737], [-7.9904445, 39.2440557], [-7.9906322, 39.2440465], [-7.9908764, 39.2440445], [-7.9910873, 39.2440561], [-7.9913077, 39.2440806], [-7.9938809, 39.2444885], [-7.9945805, 39.2445963], [-7.9950991, 39.2447338], [-7.9959192, 39.2450246], [-7.9969763, 39.245416], [-7.9972662, 39.2455129], [-7.9974022, 39.245554], [-7.9975415, 39.2455878], [-7.9976835, 39.2456141], [-7.9980077, 39.2456651], [-7.9990135, 39.2457753], [-7.9992452, 39.2458007], [-8.001464, 39.2460341]]}, "properties": {"bicycle": "yes", "highway": "primary", "maxspeed": "90", "ref": "EN 119", "surface": "asphalt"}}, {"type": "Feature", "geometry": {"type": "LineString", "coordinates": [[-7.9870078, 39.2448477], [-7.9871129, 39.2448212]]}, "properties": {"bicycle": "yes", "bridge": "yes", "highway": "primary", "layer": "1", "maxspeed": "90", "ref": "EN 119", "surface": "asphalt"}}, {"type": "Feature", "geometry": {"type": "LineString", "coordinates": [[-8.9729961, 38.7141254], [-8.9730232, 38.7140273], [-8.9730493, 38.7139371], [-8.97307, 38.7138275]]}, "properties": {"highway": "primary", "lanes": "2", "oneway": "yes", "ref": "EN 119", "source": "Bing", "surface": "asphalt"}}, {"type": "Feature", "geometry": {"type": "LineString", "coordinates": [[-8.972934, 38.7303443], [-8.9728931, 38.7303298], [-8.9728564, 38.7303311], [-8.9728284, 38.7303322], [-8.9727699, 38.7303538], [-8.9727021, 38.7304043], [-8.9726651, 38.7304836], [-8.9726559, 38.7305749], [-8.9726744, 38.7306638], [-8.9726886, 38.7307054]]}, "properties": {"highway": "primary", "junction": "roundabout", "lanes": "1", "name": "Avenida de S\u00e3o Francisco de Assis", "postal_code": "2890-341;2890-497", "postal_code:description": "2890-341:105;2890-497:Imp.161 a 471;2890-497:Imp.19 a 91;2890-497:3;2890-341:Imp.5 a 9;2890-341:Pares de 22 a 22;2890-497:Pares de 40 a 56;2890-341:58;2890-497:Pares de 66 a 78;2890-497:8;2890-341:80;2890-497:Pares de 84 a 434", "ref": "EN 119", "smoothness": "good", "surface": "asphalt"}}, {"type": "Feature", "geometry": {"type": "LineString", "coordinates": [[-8.9736998, 38.7295811], [-8.9737215, 38.7296651]]}, "properties": {"highway": "primary", "lanes": "1", "oneway": "yes", "ref": "EN 119"}}, {"type": "Feature", "geometry": {"type": "LineString", "coordinates": [[-8.9726048, 38.731003], [-8.9725573, 38.7311614], [-8.9724432, 38.7317321]]}, "properties": {"highway": "primary", "lanes": "2", "name": "Avenida de S\u00e3o Francisco de Assis", "postal_code": "2890-341;2890-497", "postal_code:description": "2890-341:105;2890-497:Imp.161 a 471;2890-497:Imp.19 a 91;2890-497:3;2890-341:Imp.5 a 9;2890-341:Pares de 22 a 22;2890-497:Pares de 40 a 56;2890-341:58;2890-497:Pares de 66 a 78;2890-497:8;2890-341:80;2890-497:Pares de 84 a 434", "ref": "EN 119", "smoothness": "good", "surface": "asphalt"}}, {"type": "Feature", "geometry": {"type": "LineString", "coordinates": [[-8.9729178, 38.7308705], [-8.9729652, 38.7308601]]}, "properties": {"highway": "primary", "junction": "roundabout", "lanes": "1", "name": "Avenida de S\u00e3o Francisco de Assis", "postal_code": "2890-341;2890-497", "postal_code:description": "2890-341:105;2890-497:Imp.161 a 471;2890-497:Imp.19 a 91;2890-497:3;2890-341:Imp.5 a 9;2890-341:Pares de 22 a 22;2890-497:Pares de 40 a 56;2890-341:58;2890-497:Pares de 66 a 78;2890-497:8;2890-341:80;2890-497:Pares de 84 a 434", "ref": "EN 119", "smoothness": "good", "surface": "asphalt"}}, {"type": "Feature", "geometry": {"type": "LineString", "coordinates": [[-8.9726886, 38.7307054], [-8.972699, 38.730736], [-8.972736, 38.7307936], [-8.9727882, 38.7308325], [-8.9728408, 38.7308561], [-8.9729178, 38.7308705]]}, "properties": {"highway": "primary", "junction": "roundabout", "lanes": "1", "name": "Avenida de S\u00e3o Francisco de Assis", "postal_code": "2890-341;2890-497", "postal_code:description": "2890-341:105;2890-497:Imp.161 a 471;2890-497:Imp.19 a 91;2890-497:3;2890-341:Imp.5 a 9;2890-341:Pares de 22 a 22;2890-497:Pares de 40 a 56;2890-341:58;2890-497:Pares de 66 a 78;2890-497:8;2890-341:80;2890-497:Pares de 84 a 434", "ref": "EN 119", "smoothness": "good", "surface": "asphalt"}}, {"type": "Feature", "geometry": {"type": "LineString", "coordinates": [[-8.7179065, 38.8495107], [-8.7179471, 38.8494823]]}, "properties": {"highway": "primary", "lanes": "2", "name": "Reta do Infantado", "old_name": "Recta do Infantado", "oneway": "yes", "ref": "EN 119", "surface": "asphalt"}}, {"type": "Feature", "geometry": {"type": "LineString", "coordinates": [[-8.717875, 38.8494549], [-8.7178487, 38.8494701], [-8.7177611, 38.8495173]]}, "properties": {"highway": "primary", "name": "Reta do Infantado", "old_name": "Recta do Infantado", "oneway": "yes", "ref": "EN 119"}}, {"type": "Feature", "geometry": {"type": "LineString", "coordinates": [[-8.7177611, 38.8495173], [-8.7171137, 38.8499322], [-8.7168223, 38.8501653]]}, "properties": {"highway": "primary", "name": "Reta do Infantado", "old_name": "Recta do Infantado", "oneway": "yes", "ref": "EN 119"}}, {"type": "Feature", "geometry": {"type": "LineString", "coordinates": [[-8.7179471, 38.8494823], [-8.7181274, 38.8493743], [-8.7183977, 38.8491908], [-8.7186219, 38.8490198]]}, "properties": {"highway": "primary", "lanes": "2", "name": "Reta do Infantado", "old_name": "Recta do Infantado", "oneway": "yes", "ref": "EN 119", "surface": "asphalt"}}, {"type": "Feature", "geometry": {"type": "LineString", "coordinates": [[-8.9729652, 38.7308601], [-8.9730183, 38.7308325], [-8.9730608, 38.7307925], [-8.9730965, 38.7307287]]}, "properties": {"highway": "primary", "junction": "roundabout", "lanes": "1", "name": "Avenida de S\u00e3o Francisco de Assis", "postal_code": "2890-341;2890-497", "postal_code:description": "2890-341:105;2890-497:Imp.161 a 471;2890-497:Imp.19 a 91;2890-497:3;2890-341:Imp.5 a 9;2890-341:Pares de 22 a 22;2890-497:Pares de 40 a 56;2890-341:58;2890-497:Pares de 66 a 78;2890-497:8;2890-341:80;2890-497:Pares de 84 a 434", "ref": "EN 119", "smoothness": "good", "surface": "asphalt"}}, {"type": "Feature", "geometry": {"type": "LineString", "coordinates": [[-8.9728077, 38.723769], [-8.9727591, 38.7239791]]}, "properties": {"highway": "primary", "lanes": "1", "maxheight": "default", "maxheight:signed": "no", "oneway": "yes", "ref": "EN 119", "smoothness": "excellent", "surface": "asphalt"}}, {"type": "Feature", "geometry": {"type": "LineString", "coordinates": [[-8.9722153, 38.7332043], [-8.9722068, 38.7337052], [-8.9722007, 38.7338591], [-8.9721969, 38.7339552]]}, "properties": {"highway": "primary", "lanes": "1", "name": "Avenida de S\u00e3o Francisco de Assis", "postal_code": "2890-341;2890-497", "postal_code:description": "2890-341:105;2890-497:Imp.161 a 471;2890-497:Imp.19 a 91;2890-497:3;2890-341:Imp.5 a 9;2890-341:Pares de 22 a 22;2890-497:Pares de 40 a 56;2890-341:58;2890-497:Pares de 66 a 78;2890-497:8;2890-341:80;2890-497:Pares de 84 a 434", "ref": "EN 119", "surface": "asphalt"}}, {"type": "Feature", "geometry": {"type": "LineString", "coordinates": [[-8.9740524, 38.7312751], [-8.9741372, 38.7313153]]}, "properties": {"highway": "primary", "name": "Avenida do Corvo-Marinho", "oneway": "yes", "postal_code": "2890-342", "ref": "EN 119"}}, {"type": "Feature", "geometry": {"type": "LineString", "coordinates": [[-8.9741384, 38.7312674], [-8.9740524, 38.7312751]]}, "properties": {"highway": "primary", "name": "Avenida do Corvo-Marinho", "oneway": "yes", "postal_code": "2890-342", "ref": "EN 119"}}, {"type": "Feature", "geometry": {"type": "LineString", "coordinates": [[-8.9677482, 38.7504473], [-8.9680171, 38.7500579], [-8.9680823, 38.7499619], [-8.9684703, 38.7493981], [-8.9685012, 38.7493552]]}, "properties": {"highway": "primary", "lanes": "2", "name": "Avenida Dom Manuel I", "oneway": "no", "postal_code": "2890-014", "ref": "EN 119", "surface": "asphalt"}}, {"type": "Feature", "geometry": {"type": "LineString", "coordinates": [[-8.9580847, 38.7573633], [-8.9582864, 38.7573664], [-8.9595009, 38.757338]]}, "properties": {"highway": "primary", "name": "Avenida dos Combatentes da Grande Guerra", "oneway": "yes", "postal_code": "2890-015", "ref": "EN 119", "surface": "cobblestone"}}, {"type": "Feature", "geometry": {"type": "LineString", "coordinates": [[-8.9703291, 38.7399895], [-8.970287, 38.7402492]]}, "properties": {"highway": "primary", "lanes": "2", "name": "Avenida Dom Jo\u00e3o II", "postal_code": "2890-054", "ref": "EN 119", "surface": "asphalt"}}, {"type": "Feature", "geometry": {"type": "LineString", "coordinates": [[-8.970287, 38.7402492], [-8.9702327, 38.7405843], [-8.9701035, 38.7413185], [-8.9700074, 38.7418646], [-8.9696861, 38.7438119]]}, "properties": {"highway": "primary", "lanes": "2", "name": "Avenida Dom Jo\u00e3o II", "postal_code": "2890-054", "ref": "EN 119", "surface": "asphalt"}}, {"type": "Feature", "geometry": {"type": "LineString", "coordinates": [[-8.7357683, 38.8382472], [-8.7357686, 38.8382029]]}, "properties": {"highway": "primary", "junction": "roundabout", "ref": "IC 3;EN 119"}}, {"type": "Feature", "geometry": {"type": "LineString", "coordinates": [[-8.7354295, 38.838439], [-8.7354888, 38.8384437]]}, "properties": {"highway": "primary", "junction": "roundabout", "ref": "IC 3;EN 119"}}, {"type": "Feature", "geometry": {"type": "LineString", "coordinates": [[-8.7354977, 38.8380046], [-8.7354596, 38.8380056]]}, "properties": {"highway": "primary", "junction": "roundabout", "ref": "IC 3;EN 119"}}, {"type": "Feature", "geometry": {"type": "LineString", "coordinates": [[-8.9541669, 38.7560671], [-8.9554528, 38.7560497], [-8.9562294, 38.7560433], [-8.9578379, 38.7560302]]}, "properties": {"highway": "primary", "lanes": "2", "name": "Avenida 5 de Outubro", "oneway": "no", "postal_code": "2890-011", "ref": "EN 119", "surface": "sett"}}, {"type": "Feature", "geometry": {"type": "LineString", "coordinates": [[-8.9731335, 38.7285175], [-8.9731991, 38.7286444], [-8.9732678, 38.7287772]]}, "properties": {"highway": "primary", "lanes": "2", "name": "Avenida do Corvo-Marinho", "oneway": "no", "postal_code": "2890-342", "ref": "EN 119"}}, {"type": "Feature", "geometry": {"type": "LineString", "coordinates": [[-8.9540776, 38.7560692], [-8.9541669, 38.7560671]]}, "properties": {"highway": "primary", "lanes": "2", "name": "Avenida 5 de Outubro", "oneway": "no", "postal_code": "2890-011", "ref": "EN 119", "surface": "asphalt"}}, {"type": "Feature", "geometry": {"type": "LineString", "coordinates": [[-8.9685012, 38.7493552], [-8.9686947, 38.7490684], [-8.9687202, 38.7490306]]}, "properties": {"highway": "primary", "lanes": "2", "name": "Avenida Dom Manuel I", "oneway": "no", "postal_code": "2890-014", "ref": "EN 119", "surface": "asphalt"}}, {"type": "Feature", "geometry": {"type": "LineString", "coordinates": [[-8.7352066, 38.8382096], [-8.7352076, 38.8382477]]}, "properties": {"highway": "primary", "junction": "roundabout", "ref": "IC 3;EN 119"}}, {"type": "Feature", "geometry": {"type": "LineString", "coordinates": [[-8.9728466, 38.7239786], [-8.9728077, 38.723769]]}, "properties": {"highway": "primary", "lanes": "1", "maxheight": "default", "maxheight:signed": "no", "oneway": "yes", "ref": "EN 119", "smoothness": "excellent", "surface": "asphalt"}}, {"type": "Feature", "geometry": {"type": "LineString", "coordinates": [[-8.9727591, 38.7239791], [-8.9727573, 38.7240017], [-8.9727526, 38.7242278], [-8.9727441, 38.7245616], [-8.9727395, 38.7247441], [-8.9727276, 38.7251336]]}, "properties": {"highway": "primary", "lanes": "1", "maxheight": "default", "maxheight:signed": "no", "oneway": "yes", "ref": "EN 119", "smoothness": "excellent", "surface": "asphalt"}}, {"type": "Feature", "geometry": {"type": "MultiPolygon", "coordinates": [[[[-8.0238889, 39.2446814], [-8.023883, 39.2446362], [-8.0238597, 39.2445945], [-8.0238233, 39.2445617], [-8.0237762, 39.2445386], [-8.0237136, 39.2445263], [-8.0236493, 39.2445309], [-8.0235907, 39.2445519], [-8.0235652, 39.2445681], [-8.0235316, 39.2446026], [-8.0235123, 39.2446431], [-8.0235089, 39.2446862], [-8.0235219, 39.2447283], [-8.0235567, 39.2447716], [-8.0236084, 39.2448033], [-8.023671, 39.2448193], [-8.0237369, 39.2448179], [-8.0237982, 39.2447991], [-8.0238476, 39.2447653], [-8.0238767, 39.2447259], [-8.0238889, 39.2446814]]]]}, "properties": {"highway": "primary", "junction": "roundabout", "lanes": "1", "lit": "yes", "ref": "EN 119;IC 13", "surface": "asphalt"}}]}