{"type": "FeatureCollection", "features": [{"type": "Feature", "geometry": {"type": "LineString", "coordinates": [[-9.0882368, 38.8493797], [-9.0885633, 38.8494835]]}, "properties": {"highway": "primary", "junction": "roundabout", "lanes": "2", "layer": "-1", "ref": "EN 115-5", "tunnel": "yes"}}, {"type": "Feature", "geometry": {"type": "LineString", "coordinates": [[-9.0908783, 38.8487003], [-9.091103, 38.8487062], [-9.091767, 38.8487353], [-9.0923168, 38.8487583], [-9.0926218, 38.848768], [-9.0928419, 38.8487713], [-9.0930761, 38.8487607], [-9.0933303, 38.8487253], [-9.0935595, 38.8486651], [-9.0937837, 38.84857], [-9.0939369, 38.8484852], [-9.0940689, 38.8483976], [-9.0941943, 38.8482997], [-9.0942695, 38.8482218], [-9.0943536, 38.8481348], [-9.094449, 38.8480085], [-9.0945866, 38.8477399], [-9.094667, 38.8475491], [-9.0949035, 38.8467668], [-9.0949992, 38.8464731], [-9.095064, 38.8463175], [-9.0951668, 38.8461359], [-9.0952766, 38.8459874], [-9.0954288, 38.8458309], [-9.0956024, 38.8457048], [-9.0958037, 38.8455979], [-9.0960299, 38.8455103], [-9.0962642, 38.8454475], [-9.0964665, 38.8454124]]}, "properties": {"highway": "primary", "lanes": "3", "lanes:backward": "1", "lanes:forward": "2", "name": "Avenida de Santa Iria", "oneway": "no", "ref": "EN 115-5;ER 19", "source": "bing", "surface": "asphalt"}}, {"type": "Feature", "geometry": {"type": "LineString", "coordinates": [[-9.0973011, 38.8454866], [-9.0974659, 38.8454736], [-9.0976057, 38.8454809], [-9.1001713, 38.8456193], [-9.1004271, 38.8456544]]}, "properties": {"highway": "primary", "lanes": "2", "lit": "yes", "name": "Avenida de Santa Iria", "oneway": "yes", "ref": "EN 115-5;ER 19", "surface": "asphalt"}}, {"type": "Feature", "geometry": {"type": "LineString", "coordinates": [[-9.1007982, 38.8456824], [-9.1010118, 38.8456775], [-9.1012183, 38.845678], [-9.102346, 38.8457108], [-9.1027296, 38.8457234], [-9.1030244, 38.8457415], [-9.1032715, 38.8457672], [-9.1034974, 38.8458122], [-9.103729, 38.8458801], [-9.1039862, 38.8460188], [-9.104393, 38.8462938], [-9.10465, 38.8465402], [-9.1048485, 38.8470048], [-9.1048723, 38.8474796], [-9.1047432, 38.8478347], [-9.1042516, 38.8484505], [-9.1037725, 38.8490157], [-9.1035772, 38.8494975], [-9.103619, 38.8498532], [-9.1037744, 38.8502997], [-9.1040551, 38.8509125], [-9.1042867, 38.8515874], [-9.1042608, 38.8519486], [-9.1042219, 38.8522192], [-9.1040117, 38.8525908], [-9.1036649, 38.852934], [-9.1033804, 38.8531138], [-9.1026341, 38.8534735], [-9.1022814, 38.8536717], [-9.1020711, 38.8538311], [-9.1018931, 38.8540094], [-9.1017921, 38.8541384], [-9.1016911, 38.8542813], [-9.1016018, 38.8544409], [-9.101473, 38.8546724], [-9.1013612, 38.8548403], [-9.1012493, 38.8549896], [-9.1011163, 38.8551233], [-9.1009802, 38.8552314], [-9.1007923, 38.8553632], [-9.1004735, 38.8555602], [-9.1001169, 38.8557908], [-9.0999105, 38.8559535], [-9.0997823, 38.8560764], [-9.0996662, 38.8562088], [-9.0995532, 38.8563807], [-9.0994644, 38.8565648], [-9.0994146, 38.8567255], [-9.0993821, 38.8569122], [-9.0993717, 38.857126]]}, "properties": {"highway": "primary", "lanes": "1", "oneway": "yes", "ref": "EN 115-5;ER 19", "surface": "asphalt"}}, {"type": "Feature", "geometry": {"type": "LineString", "coordinates": [[-9.1004098, 38.8455213], [-9.1003005, 38.8455523], [-9.1001764, 38.8455583], [-9.0995148, 38.8455163], [-9.0980736, 38.8454248], [-9.097614, 38.8453956], [-9.0974541, 38.8453857], [-9.0973196, 38.8453536]]}, "properties": {"highway": "primary", "lit": "yes", "name": "Avenida de Santa Iria", "oneway": "yes", "ref": "EN 115-5;ER 19", "surface": "asphalt"}}, {"type": "Feature", "geometry": {"type": "LineString", "coordinates": [[-9.1046542, 38.8633494], [-9.10509, 38.8633599], [-9.1055902, 38.863346], [-9.1060312, 38.8632832], [-9.1074932, 38.8629863], [-9.1090535, 38.8626623], [-9.1097603, 38.8624822], [-9.11035, 38.8623116], [-9.1109077, 38.8621637], [-9.1113232, 38.8621137], [-9.1117495, 38.862062], [-9.1123987, 38.8619961]]}, "properties": {"foot": "no", "highway": "trunk", "lanes": "2", "maxheight:signed": "no", "note": "Esta estrada por ter um perfil semelhante ao de uma via r\u00e1pida e ter \"Via de Cintura\" no nome, usou-se highway=trunk. Para mais informa\u00e7\u00f5es, ver p\u00e1gina da Padroniza\u00e7\u00e3o das Estradas em Portugal. (ver note:ref=*)", "note:ref": "https://wiki.openstreetmap.org/wiki/Portugal/Padroniza%C3%A7%C3%A3o#Estradas", "oneway": "yes", "ref": "EN 115-5;ER 19", "source": "bing"}}, {"type": "Feature", "geometry": {"type": "LineString", "coordinates": [[-9.1031337, 38.8627962], [-9.103007, 38.8627025], [-9.1029035, 38.8625918]]}, "properties": {"highway": "primary", "lanes": "2", "maxspeed": "50", "oneway": "yes", "ref": "EN 115-5", "surface": "asphalt"}}, {"type": "Feature", "geometry": {"type": "LineString", "coordinates": [[-9.1216639, 38.8610531], [-9.1165266, 38.860797]]}, "properties": {"foot": "no", "highway": "trunk", "lanes": "2", "name": "Via de Cintura da \u00c1rea Metropolitana de Lisboa - Norte", "note": "Esta estrada por ter um perfil semelhante ao de uma via r\u00e1pida e ter \"Via de Cintura\" no nome, usou-se highway=trunk. Para mais informa\u00e7\u00f5es, ver p\u00e1gina da Padroniza\u00e7\u00e3o das Estradas em Portugal. (ver note:ref=*)", "note:ref": "https://wiki.openstreetmap.org/wiki/Portugal/Padroniza%C3%A7%C3%A3o#Estradas", "oneway": "yes", "ref": "EN 115-5;ER 19"}}, {"type": "Feature", "geometry": {"type": "LineString", "coordinates": [[-9.1092224, 38.8625179], [-9.1077079, 38.8628765], [-9.105814, 38.863247], [-9.1053506, 38.8632958], [-9.1046649, 38.863274]]}, "properties": {"foot": "no", "highway": "trunk", "lanes": "2", "note": "Esta estrada por ter um perfil semelhante ao de uma via r\u00e1pida e ter \"Via de Cintura\" no nome, usou-se highway=trunk. Para mais informa\u00e7\u00f5es, ver p\u00e1gina da Padroniza\u00e7\u00e3o das Estradas em Portugal. (ver note:ref=*)", "note:ref": "https://wiki.openstreetmap.org/wiki/Portugal/Padroniza%C3%A7%C3%A3o#Estradas", "oneway": "yes", "ref": "EN 115-5;ER 19"}}, {"type": "Feature", "geometry": {"type": "LineString", "coordinates": [[-9.1028294, 38.8625151], [-9.1027402, 38.862336], [-9.102699, 38.8621964], [-9.1026485, 38.8616695], [-9.1026195, 38.8614078], [-9.1025136, 38.8611576], [-9.102159, 38.8607224], [-9.1017965, 38.8603106], [-9.1014555, 38.8599093], [-9.1011531, 38.8595571], [-9.100875, 38.8592364], [-9.1005904, 38.8589076], [-9.1001191, 38.8584011]]}, "properties": {"highway": "primary", "lanes": "2", "ref": "EN 115-5;ER 19", "surface": "asphalt"}}, {"type": "Feature", "geometry": {"type": "LineString", "coordinates": [[-9.099537, 38.8579194], [-9.0996343, 38.8579669], [-9.0997157, 38.8580206], [-9.0999132, 38.8582403]]}, "properties": {"highway": "primary", "lanes": "2", "oneway": "yes", "ref": "EN 115-5", "surface": "asphalt"}}, {"type": "Feature", "geometry": {"type": "LineString", "coordinates": [[-9.0905503, 38.8489101], [-9.0905992, 38.8488255], [-9.0907364, 38.8487446], [-9.0908783, 38.8487003]]}, "properties": {"destination": "CREL;Loures;Vialonga;MARL", "destination:ref:to": "A 9", "highway": "primary", "lanes": "1", "name": "Avenida de Santa Iria", "oneway": "yes", "ref": "EN 115-5", "source": "bing"}}, {"type": "Feature", "geometry": {"type": "LineString", "coordinates": [[-9.0908783, 38.8487003], [-9.0907202, 38.8486993], [-9.0905469, 38.8486907], [-9.0904675, 38.8486771]]}, "properties": {"highway": "primary", "lanes": "1", "name": "Avenida de Santa Iria", "oneway": "yes", "ref": "EN 115-5", "source": "bing"}}, {"type": "Feature", "geometry": {"type": "LineString", "coordinates": [[-9.1001191, 38.8584011], [-9.1000138, 38.8582189]]}, "properties": {"highway": "primary", "lanes": "2", "oneway": "yes", "ref": "EN 115-5", "surface": "asphalt"}}, {"type": "Feature", "geometry": {"type": "LineString", "coordinates": [[-9.0999132, 38.8582403], [-9.0999863, 38.8582945], [-9.1001191, 38.8584011]]}, "properties": {"highway": "primary", "lanes": "2", "oneway": "yes", "ref": "EN 115-5", "surface": "asphalt"}}, {"type": "Feature", "geometry": {"type": "LineString", "coordinates": [[-9.1029035, 38.8625918], [-9.1028294, 38.8625151]]}, "properties": {"highway": "primary", "lanes": "1", "oneway": "yes", "ref": "EN 115-5", "surface": "asphalt"}}, {"type": "Feature", "geometry": {"type": "LineString", "coordinates": [[-9.1000138, 38.8582189], [-9.0998195, 38.8580028], [-9.0997716, 38.85794], [-9.0997336, 38.857878]]}, "properties": {"highway": "primary", "lanes": "2", "oneway": "yes", "ref": "EN 115-5", "surface": "asphalt"}}, {"type": "Feature", "geometry": {"type": "LineString", "coordinates": [[-9.0994358, 38.8571206], [-9.0994371, 38.8569308], [-9.099475, 38.8567483], [-9.0995316, 38.8565741], [-9.0996152, 38.8564], [-9.0997183, 38.8562438], [-9.0998287, 38.8561084], [-9.0999571, 38.855987], [-9.1001643, 38.8558273], [-9.1005127, 38.8555974], [-9.1008159, 38.8554137], [-9.101023, 38.8552777], [-9.1011654, 38.8551531], [-9.1013078, 38.8550099], [-9.1014183, 38.8548708], [-9.1015384, 38.8546771], [-9.1016585, 38.8544549], [-9.1017515, 38.8543053], [-9.1018494, 38.8541645], [-9.1019473, 38.8540378], [-9.1021159, 38.8538747], [-9.1023176, 38.8537187], [-9.1026762, 38.8535247], [-9.103482, 38.8531254], [-9.1038266, 38.8528548], [-9.1041062, 38.8525447], [-9.1043011, 38.8521509], [-9.1043632, 38.8518276], [-9.1043406, 38.8515042], [-9.104109, 38.8508465], [-9.1037842, 38.8502371], [-9.1036288, 38.8497906], [-9.1036973, 38.8493421], [-9.1038661, 38.8490184], [-9.1043717, 38.8484223], [-9.1047389, 38.8479603], [-9.1048943, 38.8476105], [-9.1049395, 38.8474169], [-9.1049112, 38.8469593], [-9.1046598, 38.8464776], [-9.1044028, 38.8462312], [-9.103996, 38.8459562], [-9.1037495, 38.8458314], [-9.1035272, 38.8457697], [-9.1033084, 38.8457247], [-9.1030733, 38.8456955], [-9.1027447, 38.8456718], [-9.1023735, 38.8456593], [-9.1013659, 38.8456378], [-9.1011248, 38.845616], [-9.1010256, 38.8456025], [-9.1009257, 38.8455666], [-9.1008229, 38.8454897]]}, "properties": {"highway": "primary", "lanes": "2", "oneway": "yes", "ref": "EN 115-5;ER 19", "surface": "asphalt"}}, {"type": "Feature", "geometry": {"type": "LineString", "coordinates": [[-9.0877166, 38.8484714], [-9.0874913, 38.8487534], [-9.0874685, 38.8487931], [-9.0874603, 38.8488584], [-9.0874647, 38.8489321], [-9.0874839, 38.8489885], [-9.0875238, 38.8490618], [-9.0875836, 38.8491331], [-9.0876652, 38.8491969], [-9.0877183, 38.849222], [-9.0882368, 38.8493797]]}, "properties": {"highway": "primary", "junction": "roundabout", "lanes": "2", "ref": "EN 115-5"}}, {"type": "Feature", "geometry": {"type": "LineString", "coordinates": [[-9.0885633, 38.8494835], [-9.0890233, 38.8496478]]}, "properties": {"highway": "primary", "junction": "roundabout", "lanes": "1", "ref": "EN 115-5"}}, {"type": "Feature", "geometry": {"type": "LineString", "coordinates": [[-9.0890233, 38.8496478], [-9.0895552, 38.8498104], [-9.0896619, 38.8498292], [-9.0898074, 38.8498145], [-9.0899555, 38.8497679], [-9.0900267, 38.8497247], [-9.0901292, 38.8496098], [-9.0905155, 38.8490249], [-9.0905503, 38.8489101]]}, "properties": {"highway": "primary", "junction": "roundabout", "lanes": "2", "ref": "EN 115-5"}}, {"type": "Feature", "geometry": {"type": "LineString", "coordinates": [[-9.0894058, 38.8483467], [-9.0890514, 38.8482756]]}, "properties": {"highway": "primary", "junction": "roundabout", "lanes": "2", "layer": "-1", "ref": "EN 115-5", "tunnel": "yes"}}, {"type": "Feature", "geometry": {"type": "LineString", "coordinates": [[-9.0890514, 38.8482756], [-9.0885408, 38.8481768]]}, "properties": {"highway": "primary", "junction": "roundabout", "lanes": "2", "ref": "EN 115-5"}}, {"type": "Feature", "geometry": {"type": "LineString", "coordinates": [[-9.1116126, 38.8619743], [-9.1109049, 38.8620888], [-9.1092224, 38.8625179]]}, "properties": {"foot": "no", "highway": "trunk", "lanes": "2", "note": "Esta estrada por ter um perfil semelhante ao de uma via r\u00e1pida e ter \"Via de Cintura\" no nome, usou-se highway=trunk. Para mais informa\u00e7\u00f5es, ver p\u00e1gina da Padroniza\u00e7\u00e3o das Estradas em Portugal. (ver note:ref=*)", "note:ref": "https://wiki.openstreetmap.org/wiki/Portugal/Padroniza%C3%A7%C3%A3o#Estradas", "oneway": "yes", "ref": "EN 115-5;ER 19", "source": "bing"}}, {"type": "Feature", "geometry": {"type": "LineString", "coordinates": [[-9.1144195, 38.8607637], [-9.1143648, 38.8608598], [-9.1142695, 38.8609407], [-9.1129575, 38.8617005], [-9.1125937, 38.8618406], [-9.1121419, 38.8619407], [-9.1116126, 38.8619743]]}, "properties": {"foot": "no", "highway": "trunk", "lanes": "2", "note": "Esta estrada por ter um perfil semelhante ao de uma via r\u00e1pida e ter \"Via de Cintura\" no nome, usou-se highway=trunk. Para mais informa\u00e7\u00f5es, ver p\u00e1gina da Padroniza\u00e7\u00e3o das Estradas em Portugal. (ver note:ref=*)", "note:ref": "https://wiki.openstreetmap.org/wiki/Portugal/Padroniza%C3%A7%C3%A3o#Estradas", "oneway": "yes", "ref": "EN 115-5;ER 19", "source": "bing"}}, {"type": "Feature", "geometry": {"type": "LineString", "coordinates": [[-9.1156189, 38.8607517], [-9.1152309, 38.8607281], [-9.1151213, 38.8607004], [-9.1150028, 38.8606335]]}, "properties": {"foot": "no", "highway": "trunk", "lanes": "2", "maxspeed": "50", "name": "Via de Cintura da \u00c1rea Metropolitana de Lisboa - Norte", "note": "Esta estrada por ter um perfil semelhante ao de uma via r\u00e1pida e ter \"Via de Cintura\" no nome, usou-se highway=trunk. Para mais informa\u00e7\u00f5es, ver p\u00e1gina da Padroniza\u00e7\u00e3o das Estradas em Portugal. (ver note:ref=*)", "note:ref": "https://wiki.openstreetmap.org/wiki/Portugal/Padroniza%C3%A7%C3%A3o#Estradas", "oneway": "yes", "ref": "EN 115-5;ER 19"}}, {"type": "Feature", "geometry": {"type": "LineString", "coordinates": [[-9.1227684, 38.8610051], [-9.122652, 38.8610714], [-9.1225048, 38.8610993], [-9.1216639, 38.8610531]]}, "properties": {"foot": "no", "highway": "trunk", "lanes": "2", "name": "Via de Cintura da \u00c1rea Metropolitana de Lisboa - Norte", "note": "Esta estrada por ter um perfil semelhante ao de uma via r\u00e1pida e ter \"Via de Cintura\" no nome, usou-se highway=trunk. Para mais informa\u00e7\u00f5es, ver p\u00e1gina da Padroniza\u00e7\u00e3o das Estradas em Portugal. (ver note:ref=*)", "note:ref": "https://wiki.openstreetmap.org/wiki/Portugal/Padroniza%C3%A7%C3%A3o#Estradas", "oneway": "yes", "ref": "EN 115-5;ER 19"}}, {"type": "Feature", "geometry": {"type": "LineString", "coordinates": [[-9.1033178, 38.8631716], [-9.1034785, 38.8631511], [-9.1038671, 38.8632067], [-9.1040817, 38.8632556], [-9.1046542, 38.8633494]]}, "properties": {"foot": "no", "highway": "trunk", "lanes": "2", "note": "Esta estrada por ter um perfil semelhante ao de uma via r\u00e1pida e ter \"Via de Cintura\" no nome, usou-se highway=trunk. Para mais informa\u00e7\u00f5es, ver p\u00e1gina da Padroniza\u00e7\u00e3o das Estradas em Portugal. (ver note:ref=*)", "note:ref": "https://wiki.openstreetmap.org/wiki/Portugal/Padroniza%C3%A7%C3%A3o#Estradas", "oneway": "yes", "ref": "EN 115-5;ER 19", "source": "bing"}}, {"type": "Feature", "geometry": {"type": "LineString", "coordinates": [[-9.1123987, 38.8619961], [-9.1126387, 38.8619315], [-9.1130102, 38.8617819], [-9.114329, 38.861022], [-9.1144886, 38.8609855], [-9.1146336, 38.860973]]}, "properties": {"foot": "no", "highway": "trunk", "lanes": "2", "note": "Esta estrada por ter um perfil semelhante ao de uma via r\u00e1pida e ter \"Via de Cintura\" no nome, usou-se highway=trunk. Para mais informa\u00e7\u00f5es, ver p\u00e1gina da Padroniza\u00e7\u00e3o das Estradas em Portugal. (ver note:ref=*)", "note:ref": "https://wiki.openstreetmap.org/wiki/Portugal/Padroniza%C3%A7%C3%A3o#Estradas", "oneway": "yes", "ref": "EN 115-5;ER 19", "source": "bing"}}, {"type": "Feature", "geometry": {"type": "LineString", "coordinates": [[-9.1046649, 38.863274], [-9.1035748, 38.8630613], [-9.1034634, 38.8630263], [-9.1033712, 38.8629912]]}, "properties": {"foot": "no", "highway": "trunk", "lanes": "2", "maxspeed": "50", "note": "Esta estrada por ter um perfil semelhante ao de uma via r\u00e1pida e ter \"Via de Cintura\" no nome, usou-se highway=trunk. Para mais informa\u00e7\u00f5es, ver p\u00e1gina da Padroniza\u00e7\u00e3o das Estradas em Portugal. (ver note:ref=*)", "note:ref": "https://wiki.openstreetmap.org/wiki/Portugal/Padroniza%C3%A7%C3%A3o#Estradas", "oneway": "yes", "ref": "EN 115-5;ER 19"}}, {"type": "Feature", "geometry": {"type": "LineString", "coordinates": [[-9.1165266, 38.860797], [-9.1156189, 38.8607517]]}, "properties": {"foot": "no", "highway": "trunk", "lanes": "2", "maxspeed": "50", "name": "Via de Cintura da \u00c1rea Metropolitana de Lisboa - Norte", "note": "Esta estrada por ter um perfil semelhante ao de uma via r\u00e1pida e ter \"Via de Cintura\" no nome, usou-se highway=trunk. Para mais informa\u00e7\u00f5es, ver p\u00e1gina da Padroniza\u00e7\u00e3o das Estradas em Portugal. (ver note:ref=*)", "note:ref": "https://wiki.openstreetmap.org/wiki/Portugal/Padroniza%C3%A7%C3%A3o#Estradas", "oneway": "yes", "ref": "EN 115-5;ER 19"}}, {"type": "Feature", "geometry": {"type": "LineString", "coordinates": [[-9.0905503, 38.8489101], [-9.0905316, 38.8488265], [-9.0905128, 38.8487659], [-9.0904675, 38.8486771]]}, "properties": {"highway": "primary", "junction": "roundabout", "lanes": "2", "ref": "EN 115-5"}}, {"type": "Feature", "geometry": {"type": "LineString", "coordinates": [[-9.0880552, 38.8481842], [-9.0879533, 38.8482468], [-9.0878587, 38.8483189]]}, "properties": {"highway": "primary", "junction": "roundabout", "lanes": "2", "ref": "EN 115-5"}}, {"type": "Feature", "geometry": {"type": "LineString", "coordinates": [[-9.0904675, 38.8486771], [-9.0903297, 38.8485758], [-9.0901643, 38.8485001], [-9.0894058, 38.8483467]]}, "properties": {"highway": "primary", "junction": "roundabout", "lanes": "2", "ref": "EN 115-5"}}, {"type": "Feature", "geometry": {"type": "LineString", "coordinates": [[-9.0885408, 38.8481768], [-9.0883905, 38.8481497], [-9.0883073, 38.8481424], [-9.0882359, 38.8481424], [-9.0880552, 38.8481842]]}, "properties": {"highway": "primary", "junction": "roundabout", "lanes": "2", "ref": "EN 115-5"}}, {"type": "Feature", "geometry": {"type": "LineString", "coordinates": [[-9.0878587, 38.8483189], [-9.0877166, 38.8484714]]}, "properties": {"highway": "primary", "junction": "roundabout", "lanes": "2", "ref": "EN 115-5"}}]}