{"type": "FeatureCollection", "features": [{"type": "Feature", "geometry": {"type": "LineString", "coordinates": [[-9.0815743, 38.9804999], [-9.0817851, 38.9804851], [-9.0821297, 38.9804043], [-9.0822987, 38.9803393], [-9.0824317, 38.9802664], [-9.0828501, 38.9800454], [-9.0832202, 38.9798953], [-9.0835221, 38.9798115], [-9.0838318, 38.9797451], [-9.0844165, 38.9796617], [-9.0845575, 38.9796459], [-9.0847388, 38.9796257], [-9.0852748, 38.9795658], [-9.0858542, 38.9795241], [-9.0864174, 38.9794115], [-9.0869271, 38.9792823], [-9.0872862, 38.9791912], [-9.0877961, 38.978957], [-9.0883004, 38.9787943], [-9.0886866, 38.9785608], [-9.0890031, 38.9782689], [-9.0891908, 38.9779645], [-9.089443, 38.9773097], [-9.0895234, 38.9771012], [-9.08962, 38.9769428], [-9.0897756, 38.9768176], [-9.0899526, 38.9767426], [-9.0902369, 38.9766884], [-9.0904086, 38.97663], [-9.0905427, 38.9765049], [-9.0906607, 38.9763172], [-9.0907841, 38.9761254], [-9.0908967, 38.9760044], [-9.0911006, 38.9759043], [-9.0913527, 38.9758168], [-9.0914597, 38.975766], [-9.0915213, 38.9757155], [-9.09159, 38.9756648], [-9.0917779, 38.9754574], [-9.0918206, 38.975402], [-9.0918864, 38.975338], [-9.0919879, 38.9752689], [-9.0920931, 38.9752224], [-9.092294, 38.975147], [-9.0923707, 38.9750955], [-9.092408, 38.97504], [-9.0924204, 38.9749777], [-9.092414, 38.9749238], [-9.0923823, 38.9748733], [-9.0922557, 38.9747519], [-9.0921525, 38.9746181], [-9.0920823, 38.9744906], [-9.0919644, 38.9743185], [-9.0917074, 38.974021], [-9.0916204, 38.9739074], [-9.0915995, 38.9738193], [-9.0916156, 38.9737566], [-9.0916618, 38.9737062], [-9.0917282, 38.9736732], [-9.091808, 38.973657], [-9.0918907, 38.9736665], [-9.091972, 38.9737001], [-9.0920418, 38.9737554], [-9.0921252, 38.9738483], [-9.0924149, 38.9741945], [-9.0927369, 38.9746119], [-9.0927972, 38.9746795], [-9.0928951, 38.974733], [-9.0930414, 38.9747826], [-9.093592, 38.9748867], [-9.0937194, 38.9749339], [-9.0937917, 38.9749913], [-9.0938257, 38.9750786], [-9.093874, 38.9754039], [-9.0938768, 38.9755719], [-9.0939198, 38.9759613], [-9.0938847, 38.9761087], [-9.0937506, 38.9763172], [-9.0935612, 38.9765534], [-9.0934251, 38.9767302], [-9.0933992, 38.9767859], [-9.0933968, 38.9768521], [-9.0934045, 38.9768867], [-9.0934282, 38.9769226], [-9.0934908, 38.9769729], [-9.0936009, 38.976998], [-9.0936844, 38.9769866], [-9.093741, 38.9769538], [-9.0938023, 38.976898], [-9.0939017, 38.9767997], [-9.0939652, 38.9767009], [-9.0940564, 38.9764006], [-9.0941744, 38.9761963], [-9.0942549, 38.9760461], [-9.0945445, 38.975921], [-9.0947967, 38.9758334], [-9.0950542, 38.975675], [-9.0951829, 38.9754665], [-9.0952795, 38.975308], [-9.0954243, 38.9751829], [-9.0956571, 38.975054], [-9.0960197, 38.9748534], [-9.0962341, 38.9747173], [-9.0962838, 38.9746551], [-9.0963091, 38.9745592], [-9.0962957, 38.9744839], [-9.0962544, 38.9744158], [-9.0961725, 38.9743344], [-9.0960687, 38.9742693], [-9.0959875, 38.9742341], [-9.0959337, 38.9742138], [-9.0958579, 38.9742003], [-9.0957709, 38.9741901], [-9.0955625, 38.9741872], [-9.09551, 38.9741721], [-9.0954565, 38.9741528], [-9.0953503, 38.9740672], [-9.0950901, 38.9737305], [-9.0950195, 38.9736391], [-9.094941, 38.9734814], [-9.0948766, 38.9733069], [-9.094883, 38.9731717], [-9.0948986, 38.9730351], [-9.095136, 38.9721042], [-9.0951959, 38.9718944], [-9.0953837, 38.9715885], [-9.0954112, 38.971524], [-9.0954217, 38.9714482], [-9.0954136, 38.9713001], [-9.0954126, 38.9710727], [-9.0954421, 38.9710068], [-9.095527, 38.970907], [-9.0958365, 38.9706681], [-9.0958985, 38.9705987], [-9.0959413, 38.9705202], [-9.0959742, 38.9704079], [-9.0960015, 38.9701086], [-9.096021, 38.970012], [-9.0960682, 38.9699335], [-9.0962021, 38.9697862], [-9.0962403, 38.9697227], [-9.0962621, 38.969672], [-9.0962814, 38.9695947], [-9.0962772, 38.9693649], [-9.0962904, 38.9692357], [-9.0963202, 38.9691272], [-9.0964142, 38.968992], [-9.0965179, 38.9688741], [-9.0965986, 38.9688066], [-9.0966816, 38.9687616], [-9.0967843, 38.9687329], [-9.0968937, 38.968718], [-9.0970373, 38.9687074], [-9.0971248, 38.9686934], [-9.0972566, 38.9686453], [-9.0973716, 38.9685767], [-9.0975002, 38.9684938], [-9.0976904, 38.9683875], [-9.0986075, 38.9679586], [-9.0986896, 38.9679167], [-9.0987555, 38.9678718], [-9.0988578, 38.9677546]]}, "properties": {"highway": "primary", "oneway": "no", "ref": "EN 115-4", "surface": "asphalt"}}, {"type": "Feature", "geometry": {"type": "LineString", "coordinates": [[-9.1274508, 38.9511338], [-9.1274758, 38.9510029], [-9.127507, 38.9507453], [-9.1275663, 38.9502548], [-9.1275887, 38.9500692], [-9.1276105, 38.9498891], [-9.1276535, 38.9497138], [-9.1276766, 38.949655], [-9.1277582, 38.9495082], [-9.1278624, 38.9493933], [-9.1280612, 38.9493467], [-9.1283294, 38.9493467], [-9.1290482, 38.9493717], [-9.1291743, 38.9493676], [-9.1292735, 38.9493634], [-9.1293835, 38.9492958], [-9.1294452, 38.9492382], [-9.1297456, 38.9488878], [-9.1305221, 38.9479869], [-9.130643, 38.9477829]]}, "properties": {"highway": "primary", "lanes": "2", "maxspeed": "50", "name": "Rua 8 de Setembro", "oneway": "no", "ref": "EN 115-4", "surface": "asphalt"}}, {"type": "Feature", "geometry": {"type": "LineString", "coordinates": [[-9.0041318, 39.0038801], [-9.0038392, 39.0039146], [-9.0031396, 39.0039969], [-9.0024876, 39.0040737], [-8.9995342, 39.0044215], [-8.999332, 39.0044453], [-8.9992996, 39.0044491], [-8.9986658, 39.0045237], [-8.998484, 39.0045511], [-8.998311, 39.0045897], [-8.998138, 39.0046366], [-8.9972175, 39.0049097], [-8.9955016, 39.0053953], [-8.9950617, 39.0054536], [-8.9942678, 39.0054745], [-8.9926391, 39.0058228], [-8.9925136, 39.0058497], [-8.9920808, 39.0059256]]}, "properties": {"highway": "primary", "ref": "EN 115-4"}}, {"type": "Feature", "geometry": {"type": "LineString", "coordinates": [[-9.0052109, 39.0037091], [-9.0053414, 39.0036884]]}, "properties": {"bicycle": "yes", "bridge": "yes", "foot": "yes", "highway": "primary", "oneway": "no", "ref": "EN 115-4", "source": "bing", "surface": "asphalt"}}, {"type": "Feature", "geometry": {"type": "LineString", "coordinates": [[-9.0053414, 39.0036884], [-9.0073111, 39.0032693], [-9.0076222, 39.0032047], [-9.0078636, 39.0031547], [-9.0081157, 39.0031422], [-9.0084242, 39.0031463], [-9.0089209, 39.0031699], [-9.0092047, 39.0031588], [-9.009422, 39.0031359], [-9.0113183, 39.0026482], [-9.0125801, 39.0023048]]}, "properties": {"bicycle": "yes", "foot": "yes", "highway": "primary", "oneway": "no", "ref": "EN 115-4", "source": "bing", "surface": "asphalt"}}, {"type": "Feature", "geometry": {"type": "LineString", "coordinates": [[-9.0125801, 39.0023048], [-9.013853, 39.0019645], [-9.0140783, 39.0019249], [-9.0143438, 39.0019228], [-9.0149553, 39.0019374]]}, "properties": {"bicycle": "yes", "foot": "yes", "highway": "primary", "oneway": "no", "ref": "EN 115-4", "source": "bing", "surface": "asphalt"}}, {"type": "Feature", "geometry": {"type": "LineString", "coordinates": [[-9.0212049, 39.005658], [-9.0213015, 39.0056518], [-9.0213918, 39.0056284], [-9.0214723, 39.0055878], [-9.0215595, 39.0055294], [-9.0227512, 39.0044397], [-9.0228632, 39.0043383], [-9.0230409, 39.0041927], [-9.0231562, 39.0041156], [-9.023285, 39.0040614], [-9.0234473, 39.0040176], [-9.0236309, 39.0039999], [-9.0237905, 39.0040082], [-9.0246476, 39.0040936], [-9.0254293, 39.004176], [-9.025711, 39.0041864], [-9.0260463, 39.004175], [-9.0280566, 39.0040238], [-9.0282163, 39.0040165], [-9.0283905, 39.0040208], [-9.0286574, 39.0040406], [-9.0290013, 39.004086], [-9.0299789, 39.0042767], [-9.0305342, 39.0043757], [-9.0308555, 39.0044261], [-9.0311049, 39.0045053], [-9.0313731, 39.0046283], [-9.0316392, 39.0047582], [-9.0318291, 39.004818], [-9.0320357, 39.0048409], [-9.0348976, 39.0049451], [-9.0350742, 39.0049603], [-9.0352865, 39.0049785], [-9.0354759, 39.0050244], [-9.0355472, 39.0050416], [-9.035721, 39.0051098], [-9.0373978, 39.0059443], [-9.0375822, 39.0060382], [-9.0380921, 39.0062977], [-9.0382321, 39.0064069], [-9.0382932, 39.0064916], [-9.0383254, 39.0066229], [-9.0383228, 39.006775], [-9.0382691, 39.0071731], [-9.0382798, 39.0073107], [-9.0385346, 39.0079297], [-9.0386446, 39.0080735], [-9.0387707, 39.0081548]]}, "properties": {"bicycle": "yes", "foot": "yes", "highway": "primary", "oneway": "no", "ref": "EN 115-4", "source": "bing", "surface": "asphalt"}}, {"type": "Feature", "geometry": {"type": "LineString", "coordinates": [[-9.0047518, 39.0038071], [-9.0052109, 39.0037091]]}, "properties": {"bicycle": "yes", "foot": "yes", "highway": "primary", "oneway": "no", "ref": "EN 115-4", "source": "bing", "surface": "asphalt"}}, {"type": "Feature", "geometry": {"type": "LineString", "coordinates": [[-9.0709782, 38.9971839], [-9.0710894, 38.9970689], [-9.0711882, 38.996958], [-9.0714883, 38.9966178], [-9.0716894, 38.9964135], [-9.0719228, 38.9962113], [-9.0721186, 38.9960737], [-9.0722688, 38.9959674], [-9.0724571, 38.995868], [-9.0727523, 38.9957075], [-9.0728723, 38.9956234], [-9.0730869, 38.9954462], [-9.0732397, 38.9952982], [-9.0734168, 38.9950981], [-9.0740766, 38.9942392], [-9.0741678, 38.9940912], [-9.0743824, 38.9936576], [-9.0744773, 38.9934597], [-9.0745599, 38.9932872], [-9.0747879, 38.9928869], [-9.0748684, 38.9926931], [-9.0749644, 38.9924131], [-9.075378, 38.9909356], [-9.0755196, 38.9904972], [-9.0755666, 38.9903314]]}, "properties": {"bicycle": "yes", "foot": "yes", "highway": "primary", "name": "Estrada das Corredouras", "oneway": "no", "ref": "EN 115-4", "source": "bing", "surface": "asphalt"}}, {"type": "Feature", "geometry": {"type": "LineString", "coordinates": [[-9.0387707, 39.0081548], [-9.0388887, 39.0082007], [-9.0391011, 39.0082389], [-9.0405651, 39.0083299], [-9.0407448, 39.0083799], [-9.040976, 39.0084723], [-9.0411444, 39.0085821], [-9.0413054, 39.0087238], [-9.0414347, 39.0088996], [-9.0416514, 39.0092511], [-9.0417587, 39.0093616], [-9.0418955, 39.0094074], [-9.0420644, 39.0094158], [-9.0431266, 39.009272], [-9.0432714, 39.009272], [-9.0434458, 39.0092949], [-9.0436469, 39.0093491], [-9.0440707, 39.0094825], [-9.0441887, 39.0095387], [-9.0442773, 39.0096075], [-9.0448593, 39.0101869], [-9.0449719, 39.0102432], [-9.0450905, 39.0102606], [-9.0451999, 39.0102536], [-9.0453555, 39.0102119], [-9.0459295, 39.009966], [-9.0462785, 39.0098387], [-9.0465384, 39.0097742], [-9.0466698, 39.0097555]]}, "properties": {"bicycle": "yes", "foot": "yes", "highway": "primary", "lanes": "2", "name": "Estrada do Carregado", "oneway": "no", "ref": "EN 115-4", "source": "bing", "surface": "asphalt"}}, {"type": "Feature", "geometry": {"type": "LineString", "coordinates": [[-9.0988578, 38.9677546], [-9.0989337, 38.9676584], [-9.0989916, 38.9675757], [-9.0992062, 38.967413], [-9.0996515, 38.9671377], [-9.1000323, 38.9667248]]}, "properties": {"highway": "primary", "oneway": "no", "ref": "EN 115-4", "surface": "asphalt"}}, {"type": "Feature", "geometry": {"type": "LineString", "coordinates": [[-9.1000323, 38.9667248], [-9.1005634, 38.9663286], [-9.100754, 38.9661733], [-9.1009202, 38.9659896], [-9.1014056, 38.9651357], [-9.101588, 38.9647478], [-9.1016348, 38.9646768], [-9.1017168, 38.9646268], [-9.1017829, 38.964617], [-9.1018884, 38.9646268], [-9.1019427, 38.9646526], [-9.1019826, 38.9646715], [-9.1020333, 38.9647561], [-9.1020172, 38.9649772], [-9.1019796, 38.9651482], [-9.1019152, 38.9655486], [-9.1018241, 38.9659198], [-9.1018133, 38.9661617], [-9.1019045, 38.9663411], [-9.1020869, 38.9664579], [-9.1022681, 38.9664851], [-9.1025053, 38.9664787], [-9.1029452, 38.9664787], [-9.1031973, 38.9664871], [-9.1038357, 38.9666914], [-9.104045, 38.9667572], [-9.104281, 38.9667936], [-9.1044822, 38.9667812], [-9.1046726, 38.9667498], [-9.10479, 38.9667406], [-9.1049461, 38.9667582], [-9.105091, 38.9668499], [-9.1051124, 38.9670585], [-9.1051232, 38.9673212], [-9.1051875, 38.9675131], [-9.1053699, 38.9676799], [-9.1055738, 38.9677467], [-9.1061102, 38.96778], [-9.1063731, 38.9677633], [-9.1065233, 38.9676758], [-9.1066574, 38.9675048], [-9.1067969, 38.9672378]]}, "properties": {"highway": "primary", "lanes": "2", "name": "Rua Alto de Vila Nova", "oneway": "no", "ref": "EN 115-4", "surface": "asphalt"}}, {"type": "Feature", "geometry": {"type": "LineString", "coordinates": [[-9.0154847, 39.0019481], [-9.0162884, 39.0019562], [-9.016452, 39.0019791], [-9.016702, 39.0020381], [-9.0168222, 39.0020354], [-9.017085, 39.0019978], [-9.0174766, 39.0019395], [-9.0176912, 39.0019582], [-9.0178253, 39.0020041], [-9.0179278, 39.0020589], [-9.0180372, 39.0021521], [-9.0186353, 39.0028441], [-9.0187292, 39.0030088], [-9.0188016, 39.0032047], [-9.0189813, 39.003878], [-9.0190892, 39.0040537], [-9.0191804, 39.0041621], [-9.019491, 39.0044824], [-9.0195714, 39.0046054], [-9.0196707, 39.0048409], [-9.0197651, 39.0049478], [-9.0199469, 39.0050639], [-9.0209367, 39.0055892], [-9.0210874, 39.005644], [-9.0212049, 39.005658]]}, "properties": {"bicycle": "yes", "foot": "yes", "highway": "primary", "oneway": "no", "ref": "EN 115-4", "source": "bing", "surface": "asphalt"}}, {"type": "Feature", "geometry": {"type": "LineString", "coordinates": [[-9.0149553, 39.0019374], [-9.0154847, 39.0019481]]}, "properties": {"bicycle": "yes", "foot": "yes", "highway": "primary", "layer": "-1", "oneway": "no", "ref": "EN 115-4", "source": "bing", "surface": "asphalt", "tunnel": "yes"}}, {"type": "Feature", "geometry": {"type": "LineString", "coordinates": [[-9.107621, 38.9668296], [-9.1079078, 38.9669461], [-9.1079609, 38.9669709], [-9.1083418, 38.9671419], [-9.1086315, 38.9672462], [-9.1088461, 38.967292], [-9.1091036, 38.9672837], [-9.1093289, 38.9671878], [-9.1095646, 38.9671002], [-9.1100152, 38.9669417], [-9.1103371, 38.9666914], [-9.1105946, 38.9665246], [-9.1108092, 38.9664495], [-9.1110345, 38.9664412], [-9.1113456, 38.9664579], [-9.1115173, 38.9664328], [-9.1115488, 38.9663912], [-9.1116246, 38.966291], [-9.1116782, 38.9660324], [-9.111764, 38.9657655], [-9.1119183, 38.9655454], [-9.1122468, 38.9652733], [-9.1125687, 38.9650147], [-9.1128533, 38.9649107], [-9.1131124, 38.964856], [-9.113241, 38.964848], [-9.1133994, 38.9648639], [-9.1136845, 38.9649313], [-9.1140707, 38.9650231], [-9.1141685, 38.965018], [-9.1143926, 38.9650064], [-9.1150685, 38.964631], [-9.1156908, 38.9642306], [-9.1159433, 38.9640649], [-9.1161871, 38.9638875], [-9.116343, 38.9637291], [-9.1164633, 38.9635496], [-9.1167208, 38.9631211], [-9.1168003, 38.9629689], [-9.1168388, 38.9628124], [-9.1169139, 38.9625121], [-9.1169518, 38.9622963], [-9.1170426, 38.962095], [-9.1171728, 38.9619609], [-9.1172894, 38.9618947], [-9.1177293, 38.9617529], [-9.1181447, 38.9616482], [-9.118491, 38.961561], [-9.1189168, 38.9614754], [-9.1194352, 38.9615277], [-9.1212711, 38.96195], [-9.1222998, 38.96217], [-9.1224691, 38.9622223], [-9.1226109, 38.9622952], [-9.1229006, 38.9625454], [-9.1232546, 38.9628207], [-9.1235872, 38.9629709], [-9.1241559, 38.9629959], [-9.1242534, 38.9629881], [-9.1243886, 38.9629774], [-9.1245743, 38.9629626], [-9.1252609, 38.9627957], [-9.1256351, 38.9626445], [-9.1257267, 38.9625779], [-9.1257839, 38.9624944], [-9.1258098, 38.962409], [-9.1257951, 38.9623297], [-9.1257223, 38.9621951], [-9.1255935, 38.9619114], [-9.1254688, 38.9617199], [-9.1253293, 38.9615391], [-9.1249847, 38.9613462], [-9.1248362, 38.9612608], [-9.1247138, 38.9611606], [-9.1246122, 38.9610596], [-9.124534, 38.9609427], [-9.1244969, 38.9608093], [-9.1244991, 38.9606726], [-9.1246172, 38.9603931], [-9.1247781, 38.9600928], [-9.1248854, 38.9598759], [-9.1248724, 38.9597696], [-9.1248304, 38.9596683], [-9.1246387, 38.9594671], [-9.1242824, 38.959188], [-9.1241559, 38.9590499], [-9.1240945, 38.9589343], [-9.12407, 38.958808], [-9.1241093, 38.9586934], [-9.1241773, 38.9585994], [-9.1244813, 38.9583855], [-9.1246245, 38.958283], [-9.1250356, 38.9579904], [-9.125218, 38.9577735], [-9.1253038, 38.9575232], [-9.1252931, 38.9571978], [-9.1252931, 38.9568307], [-9.1252962, 38.956639], [-9.125336, 38.9564553], [-9.1254479, 38.9561979]]}, "properties": {"highway": "primary", "oneway": "no", "ref": "EN 115-4", "surface": "asphalt"}}, {"type": "Feature", "geometry": {"type": "LineString", "coordinates": [[-9.1067969, 38.9672378], [-9.1069095, 38.9669709], [-9.1070194, 38.9667659]]}, "properties": {"alt_name": "Rua Alto de Vila Nova", "highway": "primary", "oneway": "no", "ref": "EN 115-4", "surface": "asphalt"}}, {"type": "Feature", "geometry": {"type": "LineString", "coordinates": [[-9.1071807, 38.9666812], [-9.1072141, 38.9666801], [-9.1072508, 38.9666836], [-9.1072892, 38.9666952], [-9.1074252, 38.9667496], [-9.107621, 38.9668296]]}, "properties": {"highway": "primary", "oneway": "no", "ref": "EN 115-4", "surface": "asphalt"}}, {"type": "Feature", "geometry": {"type": "LineString", "coordinates": [[-9.130643, 38.9477829], [-9.1306897, 38.9476946], [-9.1311725, 38.9467684], [-9.1312262, 38.9465431], [-9.1312583, 38.9461426], [-9.1312973, 38.9460323], [-9.1313549, 38.9459257], [-9.1315695, 38.9456586], [-9.1317733, 38.9454], [-9.1317974, 38.9453115], [-9.1318055, 38.9451914], [-9.1317841, 38.9442151], [-9.1317865, 38.9441257], [-9.1318357, 38.9440247], [-9.1319389, 38.9439619], [-9.1320643, 38.9439454], [-9.1321754, 38.9439664], [-9.1322816, 38.9440023], [-9.1326531, 38.944165]]}, "properties": {"highway": "primary", "lanes": "2", "name": "Rua das Derregadas", "oneway": "no", "ref": "EN 115-4", "surface": "asphalt"}}, {"type": "Feature", "geometry": {"type": "LineString", "coordinates": [[-9.1326531, 38.944165], [-9.1342638, 38.944881], [-9.1346729, 38.9450572], [-9.1352173, 38.9453249], [-9.1353059, 38.9453817], [-9.1353586, 38.9454154]]}, "properties": {"highway": "primary", "lanes": "2", "maxspeed": "50", "name": "Rua 8 de Setembro", "oneway": "no", "ref": "EN 115-4", "surface": "asphalt"}}, {"type": "Feature", "geometry": {"type": "LineString", "coordinates": [[-9.1260439, 38.9554162], [-9.1261085, 38.955329], [-9.1262725, 38.9548347], [-9.1265386, 38.9539235], [-9.126629, 38.9536717], [-9.1266496, 38.9536134], [-9.1266854, 38.953497], [-9.1267486, 38.9532919], [-9.1267781, 38.9532326], [-9.1270123, 38.9525418], [-9.1273315, 38.9515371], [-9.1273494, 38.9514891], [-9.1273812, 38.9513856], [-9.1273957, 38.9513332], [-9.1274508, 38.9511338]]}, "properties": {"highway": "primary", "lanes": "2", "maxspeed": "50", "name": "Rua 8 de Setembro", "oneway": "no", "ref": "EN 115-4", "surface": "asphalt"}}, {"type": "Feature", "geometry": {"type": "LineString", "coordinates": [[-9.0703755, 38.997259], [-9.0703345, 38.9972701], [-9.0702984, 38.9972888], [-9.0702693, 38.9973138], [-9.0702492, 38.9973436], [-9.0702392, 38.9973764]]}, "properties": {"highway": "primary", "name": "Estrada das Corredouras", "oneway": "yes", "ref": "EN 115-4", "surface": "asphalt"}}, {"type": "Feature", "geometry": {"type": "LineString", "coordinates": [[-9.0670044, 39.0003884], [-9.0670611, 39.0003413], [-9.0671216, 39.0002803], [-9.0674065, 38.999791], [-9.0674676, 38.9997216], [-9.06765, 38.9996049], [-9.068975, 38.9990963], [-9.0691437, 38.9990167], [-9.0692594, 38.9989128], [-9.0695222, 38.9986502], [-9.0699406, 38.9981791], [-9.0700836, 38.9979857], [-9.070227, 38.99779]]}, "properties": {"bicycle": "yes", "foot": "yes", "highway": "primary", "name": "Estrada das Corredouras", "oneway": "no", "ref": "EN 115-4", "source": "bing", "surface": "asphalt"}}, {"type": "Feature", "geometry": {"type": "LineString", "coordinates": [[-9.070227, 38.99779], [-9.0702567, 38.9977598], [-9.0703164, 38.997699], [-9.0703265, 38.9976859], [-9.0703553, 38.9976483], [-9.0704327, 38.9975243]]}, "properties": {"highway": "primary", "name": "Estrada das Corredouras", "oneway": "yes", "ref": "EN 115-4", "surface": "asphalt"}}, {"type": "Feature", "geometry": {"type": "LineString", "coordinates": [[-9.0705727, 38.9974398], [-9.0707652, 38.9973472], [-9.0708432, 38.9973042], [-9.0708983, 38.997265], [-9.0709288, 38.9972353], [-9.0709782, 38.9971839]]}, "properties": {"highway": "primary", "name": "Estrada das Corredouras", "oneway": "yes", "ref": "EN 115-4", "surface": "asphalt"}}, {"type": "Feature", "geometry": {"type": "LineString", "coordinates": [[-9.0702794, 38.9974778], [-9.0702832, 38.9975996], [-9.0702783, 38.9976495], [-9.0702706, 38.9976712], [-9.0702536, 38.9977189], [-9.070227, 38.99779]]}, "properties": {"highway": "primary", "name": "Estrada das Corredouras", "oneway": "yes", "ref": "EN 115-4", "surface": "asphalt"}}, {"type": "Feature", "geometry": {"type": "LineString", "coordinates": [[-9.0709782, 38.9971839], [-9.0708924, 38.9972256], [-9.0708089, 38.9972689], [-9.0707487, 38.9972923], [-9.0706676, 38.9973035], [-9.0705407, 38.9973011]]}, "properties": {"highway": "primary", "name": "Estrada das Corredouras", "oneway": "yes", "ref": "EN 115-4", "surface": "asphalt"}}, {"type": "Feature", "geometry": {"type": "LineString", "coordinates": [[-9.1070194, 38.9667659], [-9.1070491, 38.9667395], [-9.107084, 38.9667166], [-9.1071301, 38.9666951], [-9.1071807, 38.9666812]]}, "properties": {"highway": "primary", "oneway": "no", "ref": "EN 115-4", "surface": "asphalt"}}, {"type": "Feature", "geometry": {"type": "LineString", "coordinates": [[-9.0047518, 39.0038071], [-9.0041318, 39.0038801]]}, "properties": {"highway": "primary", "ref": "EN 115-4"}}, {"type": "Feature", "geometry": {"type": "LineString", "coordinates": [[-8.9920808, 39.0059256], [-8.9911296, 39.0060914], [-8.9909188, 39.0061539], [-8.9907112, 39.006244], [-8.988737, 39.0072503], [-8.9872511, 39.0085909], [-8.9865805, 39.0090369], [-8.9862372, 39.0091845], [-8.9851804, 39.0094804], [-8.9849605, 39.0095913], [-8.9839842, 39.0106375], [-8.983893, 39.0108626], [-8.9837052, 39.0115477], [-8.9828094, 39.0129801], [-8.9827611, 39.0131566], [-8.9827658, 39.0136055], [-8.9827718, 39.0141805], [-8.9826162, 39.0145306], [-8.9825127, 39.0146798], [-8.9778436, 39.0209159], [-8.9775576, 39.0211326], [-8.9772785, 39.0212978], [-8.9769201, 39.021499], [-8.97683, 39.0215519]]}, "properties": {"highway": "primary", "ref": "EN 115-4"}}, {"type": "Feature", "geometry": {"type": "LineString", "coordinates": [[-9.0466698, 39.0097555], [-9.0467589, 39.0097498], [-9.0468978, 39.0097409], [-9.048719, 39.0097305], [-9.0505804, 39.0097221], [-9.0514844, 39.0097138], [-9.0517016, 39.0096909], [-9.051876, 39.0096534], [-9.0520413, 39.0095977]]}, "properties": {"bicycle": "yes", "foot": "yes", "highway": "primary", "lanes": "2", "name": "Estrada do Carregado", "oneway": "no", "ref": "EN 115-4", "source": "bing", "surface": "asphalt"}}, {"type": "Feature", "geometry": {"type": "LineString", "coordinates": [[-9.0702392, 38.9973764], [-9.0702388, 38.9974017], [-9.0702445, 38.9974265], [-9.070256, 38.9974501], [-9.0702794, 38.9974778]]}, "properties": {"highway": "primary", "name": "Estrada das Corredouras", "oneway": "yes", "ref": "EN 115-4", "surface": "asphalt"}}, {"type": "Feature", "geometry": {"type": "LineString", "coordinates": [[-9.0705407, 38.9973011], [-9.0705036, 38.9972767], [-9.0704591, 38.9972613], [-9.0704174, 38.9972562], [-9.0703755, 38.997259]]}, "properties": {"highway": "primary", "name": "Estrada das Corredouras", "oneway": "yes", "ref": "EN 115-4", "surface": "asphalt"}}, {"type": "Feature", "geometry": {"type": "LineString", "coordinates": [[-9.0705727, 38.9974398], [-9.0705837, 38.9974048], [-9.0705823, 38.9973687], [-9.0705677, 38.9973327], [-9.0705407, 38.9973011]]}, "properties": {"highway": "primary", "name": "Estrada das Corredouras", "oneway": "yes", "ref": "EN 115-4", "surface": "asphalt"}}, {"type": "Feature", "geometry": {"type": "LineString", "coordinates": [[-9.0704327, 38.9975243], [-9.0704775, 38.9975151], [-9.0705176, 38.997497], [-9.0705501, 38.9974713], [-9.0705727, 38.9974398]]}, "properties": {"highway": "primary", "name": "Estrada das Corredouras", "oneway": "yes", "ref": "EN 115-4", "surface": "asphalt"}}, {"type": "Feature", "geometry": {"type": "LineString", "coordinates": [[-9.0702794, 38.9974778], [-9.0703109, 38.9975003], [-9.0703485, 38.9975161], [-9.0703899, 38.9975242], [-9.0704327, 38.9975243]]}, "properties": {"highway": "primary", "name": "Estrada das Corredouras", "oneway": "yes", "ref": "EN 115-4", "surface": "asphalt"}}, {"type": "Feature", "geometry": {"type": "LineString", "coordinates": [[-9.0756267, 38.9901777], [-9.0755967, 38.9902546], [-9.0755666, 38.9903314]]}, "properties": {"highway": "primary", "oneway": "yes", "ref": "EN 115-4"}}, {"type": "Feature", "geometry": {"type": "LineString", "coordinates": [[-9.0757631, 38.9902335], [-9.0758494, 38.9902294], [-9.0759274, 38.9902003]]}, "properties": {"highway": "primary", "junction": "roundabout", "name": "Estrada das Corredouras", "ref": "EN 115-4"}}, {"type": "Feature", "geometry": {"type": "LineString", "coordinates": [[-9.0760124, 38.9900967], [-9.0760154, 38.990039], [-9.075994, 38.9899837], [-9.0759506, 38.9899369], [-9.0758899, 38.9899037], [-9.0758267, 38.9898886], [-9.0757607, 38.9898884], [-9.0757161, 38.9898988], [-9.0756974, 38.9899032], [-9.0756424, 38.9899317], [-9.0755985, 38.9899742], [-9.0755918, 38.9899878], [-9.0755736, 38.9900251], [-9.0755701, 38.9900795], [-9.0755884, 38.9901321], [-9.0756267, 38.9901777]]}, "properties": {"highway": "primary", "junction": "roundabout", "name": "Estrada das Corredouras", "ref": "EN 115-4"}}, {"type": "Feature", "geometry": {"type": "LineString", "coordinates": [[-9.0756267, 38.9901777], [-9.0756813, 38.9902119], [-9.0757631, 38.9902335]]}, "properties": {"highway": "primary", "junction": "roundabout", "name": "Estrada das Corredouras", "ref": "EN 115-4"}}, {"type": "Feature", "geometry": {"type": "LineString", "coordinates": [[-9.0759274, 38.9902003], [-9.0759853, 38.9901504], [-9.0760124, 38.9900967]]}, "properties": {"highway": "primary", "junction": "roundabout", "name": "Estrada das Corredouras", "ref": "EN 115-4"}}, {"type": "Feature", "geometry": {"type": "LineString", "coordinates": [[-9.0755666, 38.9903314], [-9.0756648, 38.9902825], [-9.0757631, 38.9902335]]}, "properties": {"bicycle": "yes", "foot": "yes", "highway": "primary", "name": "Estrada das Corredouras", "oneway": "yes", "ref": "EN 115-4", "source": "bing", "surface": "asphalt"}}]}