{"type": "FeatureCollection", "features": [{"type": "Feature", "geometry": {"type": "LineString", "coordinates": [[-8.6843101, 41.2233796], [-8.6843807, 41.2232758], [-8.684411, 41.2232483], [-8.68526, 41.2225006], [-8.6854235, 41.2223566], [-8.6858777, 41.2219541], [-8.6869682, 41.2209979], [-8.687634, 41.2204205], [-8.6880011, 41.2201064], [-8.6886195, 41.2195441], [-8.6890392, 41.2191873], [-8.6892613, 41.2189879], [-8.6893822, 41.2188581], [-8.6895509, 41.218666], [-8.6897627, 41.2184396], [-8.6898084, 41.218401]]}, "properties": {"highway": "primary", "lanes": "1", "name": "Avenida M\u00e1rio Brito", "oneway": "yes", "ref": "EN 107", "surface": "asphalt"}}, {"type": "Feature", "geometry": {"type": "LineString", "coordinates": [[-8.6901456, 41.2179521], [-8.6899965, 41.217936], [-8.6898493, 41.2179517], [-8.6896737, 41.2180097], [-8.6895888, 41.218054], [-8.6895223, 41.2181167]]}, "properties": {"highway": "primary", "junction": "roundabout", "lanes": "2", "ref": "EN 107", "surface": "asphalt"}}, {"type": "Feature", "geometry": {"type": "LineString", "coordinates": [[-8.6895066, 41.2182299], [-8.689252, 41.2188269], [-8.6891976, 41.2189222], [-8.6891199, 41.2190288], [-8.6889914, 41.2191565], [-8.6878698, 41.2201391], [-8.6875886, 41.2203887], [-8.6871392, 41.2207865], [-8.6858275, 41.2219224], [-8.6857142, 41.2220225], [-8.6853108, 41.2223716], [-8.6852042, 41.2224649], [-8.6844619, 41.2231149], [-8.6843974, 41.2231524], [-8.6843421, 41.2231671], [-8.6842696, 41.2231863], [-8.6841703, 41.2231977]]}, "properties": {"highway": "primary", "lanes": "1", "name": "Avenida M\u00e1rio Brito", "oneway": "yes", "ref": "EN 107", "surface": "asphalt"}}, {"type": "Feature", "geometry": {"type": "LineString", "coordinates": [[-8.6911115, 41.2173229], [-8.6903886, 41.2173934], [-8.6902253, 41.2174296], [-8.6900823, 41.2174866], [-8.6898486, 41.2176214]]}, "properties": {"bridge": "yes", "highway": "primary", "lanes": "2", "layer": "1", "oneway": "no", "ref": "EN 107", "surface": "asphalt"}}, {"type": "Feature", "geometry": {"type": "LineString", "coordinates": [[-8.563015, 41.2212515], [-8.5629216, 41.2212461], [-8.5628375, 41.2212266], [-8.561813, 41.2209279]]}, "properties": {"highway": "primary", "name": "Via de Ardeg\u00e3es", "oneway": "yes", "ref": "EN 107", "surface": "asphalt"}}, {"type": "Feature", "geometry": {"type": "LineString", "coordinates": [[-8.5602345, 41.2204777], [-8.5600025, 41.2203865], [-8.5596764, 41.2202832], [-8.5593674, 41.2202122], [-8.5591013, 41.220167], [-8.5589942, 41.2201627], [-8.5589175, 41.2201597], [-8.5588547, 41.2201572]]}, "properties": {"highway": "primary", "lane_markings": "no", "name": "Via de Ardeg\u00e3es", "oneway": "yes", "ref": "EN 107", "source": "bing", "surface": "asphalt"}}, {"type": "Feature", "geometry": {"type": "LineString", "coordinates": [[-8.5631822, 41.2215079], [-8.5632927, 41.2215309], [-8.5633156, 41.2215357], [-8.5634186, 41.2215873], [-8.5635435, 41.2216537]]}, "properties": {"highway": "primary", "name": "Via de Ardeg\u00e3es", "oneway": "yes", "ref": "EN 107"}}, {"type": "Feature", "geometry": {"type": "LineString", "coordinates": [[-8.5635435, 41.2216537], [-8.5633864, 41.2215114], [-8.5632878, 41.2213705]]}, "properties": {"highway": "primary", "name": "Via de Ardeg\u00e3es", "oneway": "yes", "ref": "EN 107"}}, {"type": "Feature", "geometry": {"type": "LineString", "coordinates": [[-8.5637752, 41.2218508], [-8.5635435, 41.2216537]]}, "properties": {"highway": "primary", "lanes": "2", "name": "Via de Ardeg\u00e3es", "oneway": "no", "ref": "EN 107", "surface": "asphalt"}}, {"type": "Feature", "geometry": {"type": "LineString", "coordinates": [[-8.5640483, 41.222213], [-8.5639364, 41.2220531], [-8.5638716, 41.2219606], [-8.5637752, 41.2218508]]}, "properties": {"bridge": "yes", "highway": "primary", "layer": "1", "name": "Via de Ardeg\u00e3es", "oneway": "no", "ref": "EN 107"}}, {"type": "Feature", "geometry": {"type": "LineString", "coordinates": [[-8.5653282, 41.2262408], [-8.5654087, 41.2263864], [-8.5654669, 41.2264785], [-8.5654985, 41.2265296], [-8.565537, 41.2265729]]}, "properties": {"highway": "primary", "name": "Via de Ardeg\u00e3es", "oneway": "yes", "ref": "EN 107", "surface": "asphalt"}}, {"type": "Feature", "geometry": {"type": "LineString", "coordinates": [[-8.6127075, 41.2364927], [-8.6124861, 41.2365083], [-8.6124715, 41.2365093], [-8.6124317, 41.2365122], [-8.6118758, 41.2365516], [-8.6109733, 41.2366158], [-8.6102312, 41.2366685]]}, "properties": {"highway": "primary", "lanes": "2", "lit": "yes", "maxspeed": "50", "name": "Avenida Dom Manuel II", "oneway": "yes", "ref": "EN 107", "sidewalk": "right", "source": "BING", "surface": "asphalt"}}, {"type": "Feature", "geometry": {"type": "LineString", "coordinates": [[-8.5992305, 41.2364392], [-8.599064, 41.2364192], [-8.5988898, 41.2363729]]}, "properties": {"bicycle": "yes", "foot": "yes", "highway": "primary", "lanes": "2", "maxspeed": "50", "name": "Rua de Agostinho da Silva Rocha", "oneway": "yes", "ref": "EN 107", "surface": "asphalt"}}, {"type": "Feature", "geometry": {"type": "LineString", "coordinates": [[-8.5859419, 41.2284237], [-8.5855593, 41.2281831], [-8.5854424, 41.2281255], [-8.5853035, 41.2280752], [-8.5851404, 41.2280354], [-8.5849732, 41.2280017], [-8.584877, 41.2279893], [-8.5847768, 41.2279876], [-8.5845847, 41.2280083], [-8.5839265, 41.2280821], [-8.5837184, 41.2281052], [-8.5823423, 41.228263], [-8.5818475, 41.2283215], [-8.5813244, 41.2283834], [-8.5812152, 41.2283995], [-8.5809803, 41.2284242]]}, "properties": {"bicycle": "yes", "foot": "yes", "highway": "primary", "lanes": "2", "maxspeed": "50", "name": "Rua Doutor Joaquim Nogueira dos Santos", "oneway": "no", "ref": "EN 107", "surface": "asphalt"}}, {"type": "Feature", "geometry": {"type": "LineString", "coordinates": [[-8.5657434, 41.2267137], [-8.5657795, 41.2266917], [-8.5658016, 41.2266611], [-8.5658066, 41.2266271], [-8.5657933, 41.2265929], [-8.5657635, 41.2265607]]}, "properties": {"highway": "primary", "junction": "roundabout", "ref": "EN 107", "source": "bing", "surface": "asphalt"}}, {"type": "Feature", "geometry": {"type": "LineString", "coordinates": [[-8.6699742, 41.2342724], [-8.6700345, 41.2341617], [-8.6700687, 41.234128], [-8.6700884, 41.2341099], [-8.6702578, 41.2339941], [-8.6704319, 41.2338729], [-8.6730486, 41.2320519], [-8.674433, 41.2310885], [-8.6744543, 41.2310736]]}, "properties": {"highway": "primary", "lane_markings": "yes", "lanes": "1", "name": "Avenida M\u00e1rio Brito", "oneway": "yes", "ref": "EN 107", "source": "GPS Survey", "surface": "asphalt", "width": "4"}}, {"type": "Feature", "geometry": {"type": "LineString", "coordinates": [[-8.6651428, 41.238056], [-8.6651963, 41.2380469], [-8.6653444, 41.2380113], [-8.6653895, 41.2380005], [-8.665488, 41.2379667], [-8.6655193, 41.2379533], [-8.6656376, 41.2378843], [-8.6656712, 41.2378611], [-8.66574, 41.2377975], [-8.6657734, 41.2377582], [-8.6658231, 41.2376864], [-8.6658986, 41.237558]]}, "properties": {"highway": "primary", "junction": "circular", "lanes": "2", "lit": "yes", "name": "Avenida Fernando T\u00e1vora", "oneway": "yes", "ref": "EN 107", "smoothness": "good", "source": "GPS Survey", "surface": "asphalt"}}, {"type": "Feature", "geometry": {"type": "LineString", "coordinates": [[-8.6693522, 41.2343441], [-8.6693689, 41.2344014], [-8.6693997, 41.2344448], [-8.6694383, 41.2344713], [-8.6695223, 41.2345039], [-8.6696175, 41.2345099]]}, "properties": {"highway": "primary", "junction": "roundabout", "lanes": "2", "lit": "yes", "ref": "EN 107", "source": "GPS Survey", "surface": "asphalt"}}, {"type": "Feature", "geometry": {"type": "LineString", "coordinates": [[-8.569938, 41.2290956], [-8.5695057, 41.2288245], [-8.5694385, 41.2287816], [-8.5693045, 41.228696], [-8.5684024, 41.2281202], [-8.5682507, 41.2280282], [-8.5678277, 41.2277715], [-8.5675683, 41.2275995], [-8.5669458, 41.2272028], [-8.5664929, 41.2269545], [-8.5663375, 41.2268726]]}, "properties": {"bicycle": "yes", "foot": "yes", "highway": "primary", "lanes": "2", "maxspeed": "50", "name": "Avenida Dom Jo\u00e3o I", "oneway": "no", "ref": "EN 107", "surface": "asphalt"}}, {"type": "Feature", "geometry": {"type": "LineString", "coordinates": [[-8.5705703, 41.2294897], [-8.5701082, 41.2292017], [-8.569938, 41.2290956]]}, "properties": {"bicycle": "yes", "bridge": "yes", "foot": "yes", "highway": "primary", "lanes": "2", "layer": "1", "lit": "yes", "maxspeed": "50", "maxweight:signed": "no", "name": "Avenida Dom Jo\u00e3o I", "oneway": "no", "ref": "EN 107", "surface": "asphalt"}}, {"type": "Feature", "geometry": {"type": "LineString", "coordinates": [[-8.5609539, 41.2207646], [-8.5611105, 41.2208104], [-8.5611629, 41.2208257]]}, "properties": {"bridge": "yes", "highway": "primary", "layer": "1", "name": "Via de Ardeg\u00e3es", "oneway": "yes", "ref": "EN 107"}}, {"type": "Feature", "geometry": {"type": "LineString", "coordinates": [[-8.5657434, 41.2267137], [-8.5659436, 41.2267231], [-8.5659479, 41.2267233], [-8.5661407, 41.2268088], [-8.5661937, 41.2268323], [-8.5662704, 41.2268374]]}, "properties": {"highway": "primary", "maxspeed": "50", "name": "Avenida Dom Jo\u00e3o I", "oneway": "yes", "ref": "EN 107", "surface": "asphalt"}}, {"type": "Feature", "geometry": {"type": "LineString", "coordinates": [[-8.5609995, 41.2206941], [-8.5602345, 41.2204777]]}, "properties": {"highway": "primary", "name": "Via de Ardeg\u00e3es", "oneway": "yes", "ref": "EN 107", "surface": "asphalt"}}, {"type": "Feature", "geometry": {"type": "LineString", "coordinates": [[-8.5611629, 41.2208257], [-8.562793, 41.2213107], [-8.5628541, 41.2213412], [-8.562909, 41.2213889]]}, "properties": {"highway": "primary", "name": "Via de Ardeg\u00e3es", "oneway": "yes", "ref": "EN 107", "surface": "asphalt"}}, {"type": "Feature", "geometry": {"type": "LineString", "coordinates": [[-8.5612023, 41.2207498], [-8.5609995, 41.2206941]]}, "properties": {"bridge": "yes", "highway": "primary", "layer": "1", "name": "Via de Ardeg\u00e3es", "oneway": "yes", "ref": "EN 107"}}, {"type": "Feature", "geometry": {"type": "LineString", "coordinates": [[-8.5656854, 41.2265142], [-8.5655494, 41.2264184], [-8.5653282, 41.2262408]]}, "properties": {"highway": "primary", "name": "Via de Ardeg\u00e3es", "oneway": "yes", "ref": "EN 107", "surface": "asphalt"}}, {"type": "Feature", "geometry": {"type": "LineString", "coordinates": [[-8.5589099, 41.2203656], [-8.5590086, 41.2203336], [-8.5590206, 41.2203297], [-8.5591233, 41.2203272], [-8.559365, 41.2203641], [-8.5602469, 41.2205637]]}, "properties": {"highway": "primary", "name": "Via de Ardeg\u00e3es", "oneway": "yes", "ref": "EN 107", "source": "bing", "surface": "asphalt"}}, {"type": "Feature", "geometry": {"type": "LineString", "coordinates": [[-8.6773883, 41.2290359], [-8.678836, 41.2280016], [-8.6794122, 41.227559], [-8.6794804, 41.2275016], [-8.679572, 41.2274325], [-8.6798904, 41.2271582], [-8.6807147, 41.2264507]]}, "properties": {"highway": "primary", "lanes": "1", "name": "Avenida M\u00e1rio Brito", "oneway": "yes", "ref": "EN 107", "surface": "asphalt"}}, {"type": "Feature", "geometry": {"type": "LineString", "coordinates": [[-8.6768862, 41.2293827], [-8.6773883, 41.2290359]]}, "properties": {"bridge": "viaduct", "highway": "primary", "lanes": "1", "layer": "1", "lit": "yes", "name": "Avenida M\u00e1rio Brito", "oneway": "yes", "ref": "EN 107", "source": "bing", "surface": "asphalt"}}, {"type": "Feature", "geometry": {"type": "LineString", "coordinates": [[-8.6973265, 41.20401], [-8.6973112, 41.2043997], [-8.6972764, 41.2046377], [-8.6972337, 41.2047777], [-8.6970243, 41.2051483], [-8.6967458, 41.2056542], [-8.696544, 41.2061291], [-8.6964915, 41.2063065], [-8.6963875, 41.2066826], [-8.6963298, 41.2068842], [-8.6963101, 41.2070581], [-8.69631, 41.2072427], [-8.6963295, 41.2076365], [-8.6963368, 41.2077846], [-8.6963532, 41.2079643], [-8.6963956, 41.2084306], [-8.6963889, 41.2086359], [-8.6963151, 41.2088659], [-8.6961989, 41.2091305]]}, "properties": {"description": "Compositor Pianista 1870-1957", "highway": "primary", "lanes": "2", "name": "Rua \u00d3scar da Silva", "ref": "EN 107", "surface": "asphalt"}}, {"type": "Feature", "geometry": {"type": "LineString", "coordinates": [[-8.5805583, 41.2285134], [-8.5804502, 41.2285266], [-8.5802284, 41.2285828], [-8.5800696, 41.228623], [-8.5788122, 41.2289415], [-8.5782487, 41.2290885], [-8.5781296, 41.2291196], [-8.5779737, 41.2291701], [-8.57776, 41.229259], [-8.5775557, 41.2293567], [-8.5769778, 41.2296515], [-8.5767815, 41.2297516], [-8.5766436, 41.2298218], [-8.576515, 41.2298873], [-8.5763926, 41.2299513], [-8.5762935, 41.2300207], [-8.5761793, 41.230107], [-8.5760861, 41.230195], [-8.575881, 41.2303979], [-8.5757105, 41.2305784], [-8.5755612, 41.2307452]]}, "properties": {"bicycle": "yes", "foot": "yes", "highway": "primary", "lanes": "2", "maxspeed": "50", "name": "Rua Doutor Joaquim Nogueira dos Santos", "oneway": "no", "ref": "EN 107", "surface": "asphalt"}}, {"type": "Feature", "geometry": {"type": "LineString", "coordinates": [[-8.6693522, 41.2343441], [-8.6692965, 41.2344074], [-8.6692269, 41.2344657], [-8.6686192, 41.2348835], [-8.6683621, 41.2350622], [-8.6674987, 41.2356634]]}, "properties": {"highway": "primary", "lanes": "2", "lit": "yes", "maxheight:signed": "no", "name": "Avenida Fernando T\u00e1vora", "oneway": "yes", "ref": "EN 107", "surface": "asphalt"}}, {"type": "Feature", "geometry": {"type": "LineString", "coordinates": [[-8.5745124, 41.231529], [-8.574348, 41.2315424], [-8.5743414, 41.231542], [-8.5741813, 41.2315313], [-8.5740391, 41.2314995], [-8.5737754, 41.2314037], [-8.5733738, 41.2312488], [-8.573277, 41.2312018], [-8.5730339, 41.2310561], [-8.5723239, 41.2306071], [-8.5722325, 41.2305493], [-8.5720638, 41.2304438], [-8.5706497, 41.2295382], [-8.5705703, 41.2294897]]}, "properties": {"bicycle": "yes", "foot": "yes", "highway": "primary", "lanes": "2", "maxspeed": "50", "name": "Avenida Dom Jo\u00e3o I", "oneway": "no", "postal_code": "4425-138", "ref": "EN 107", "surface": "asphalt"}}, {"type": "Feature", "geometry": {"type": "LineString", "coordinates": [[-8.5662704, 41.2268374], [-8.5662147, 41.2267842], [-8.5662126, 41.2267821], [-8.5661535, 41.2267499]]}, "properties": {"bicycle": "yes", "foot": "yes", "highway": "primary", "lanes": "2", "maxspeed": "50", "name": "Avenida Dom Jo\u00e3o I", "oneway": "yes", "ref": "EN 107", "surface": "asphalt"}}, {"type": "Feature", "geometry": {"type": "LineString", "coordinates": [[-8.5653282, 41.2262408], [-8.5652537, 41.2261143], [-8.565198, 41.2259772], [-8.5647825, 41.2245622], [-8.5644189, 41.223315], [-8.5643584, 41.2231143], [-8.5642676, 41.2227963], [-8.5642044, 41.2225745], [-8.564145, 41.2224079], [-8.5640483, 41.222213]]}, "properties": {"bicycle": "yes", "foot": "yes", "highway": "primary", "lanes": "2", "maxspeed": "50", "name": "Via de Ardeg\u00e3es", "ref": "EN 107", "surface": "asphalt"}}, {"type": "Feature", "geometry": {"type": "LineString", "coordinates": [[-8.6487335, 41.2428689], [-8.648749, 41.2429444], [-8.6487397, 41.2430252], [-8.648707, 41.2430924], [-8.6486408, 41.2431707], [-8.6486231, 41.2431916], [-8.6485802, 41.2432223]]}, "properties": {"highway": "primary", "lanes": "2", "lit": "yes", "maxspeed": "40", "name": "Avenida de Maria Viera Neves da Cruz", "oneway": "yes", "ref": "EN 107", "surface": "asphalt"}}, {"type": "Feature", "geometry": {"type": "LineString", "coordinates": [[-8.6499642, 41.2405107], [-8.650236, 41.240421], [-8.6504646, 41.2403663], [-8.6507024, 41.2403265], [-8.6509179, 41.2402965], [-8.6521551, 41.2401244], [-8.6522676, 41.2401087], [-8.6547968, 41.2397568], [-8.6549786, 41.2397315]]}, "properties": {"highway": "primary", "lanes": "2", "lit": "yes", "maxspeed": "50", "maxspeed:type": "sign", "name": "Avenida de Maria Viera Neves da Cruz", "ref": "EN 107", "surface": "asphalt"}}, {"type": "Feature", "geometry": {"type": "LineString", "coordinates": [[-8.6488082, 41.2428839], [-8.6486006, 41.2425692], [-8.6485669, 41.2424805], [-8.6485508, 41.2423313], [-8.6485979, 41.2420101], [-8.6486351, 41.2418571], [-8.6486572, 41.2417856]]}, "properties": {"highway": "primary", "lane_markings": "no", "lanes": "1", "name": "Avenida de Maria Viera Neves da Cruz", "oneway": "yes", "ref": "EN 107", "surface": "asphalt"}}, {"type": "Feature", "geometry": {"type": "LineString", "coordinates": [[-8.6488368, 41.241236], [-8.648805, 41.2412828], [-8.6485889, 41.2416365], [-8.6485436, 41.2417469], [-8.648526, 41.241835], [-8.6485141, 41.2420009], [-8.6484974, 41.242415], [-8.6485385, 41.2425615], [-8.6487335, 41.2428689]]}, "properties": {"highway": "primary", "lane_markings": "no", "lanes": "1", "name": "Avenida de Maria Viera Neves da Cruz", "oneway": "yes", "ref": "EN 107", "surface": "asphalt"}}, {"type": "Feature", "geometry": {"type": "LineString", "coordinates": [[-8.5657635, 41.2265607], [-8.565728, 41.226532], [-8.5656854, 41.2265142]]}, "properties": {"highway": "primary", "junction": "roundabout", "lanes": "1", "ref": "EN 107", "source": "bing", "surface": "asphalt"}}, {"type": "Feature", "geometry": {"type": "LineString", "coordinates": [[-8.5661535, 41.2267499], [-8.5659954, 41.2266635], [-8.5658908, 41.2266056], [-8.5657635, 41.2265607]]}, "properties": {"bicycle": "yes", "foot": "yes", "highway": "primary", "lanes": "2", "maxspeed": "50", "name": "Avenida Dom Jo\u00e3o I", "oneway": "yes", "ref": "EN 107", "surface": "asphalt"}}, {"type": "Feature", "geometry": {"type": "LineString", "coordinates": [[-8.5656854, 41.2265142], [-8.5656395, 41.2265106], [-8.5655951, 41.2265205], [-8.565559, 41.2265427], [-8.565537, 41.2265729]]}, "properties": {"highway": "primary", "junction": "roundabout", "ref": "EN 107", "source": "bing", "surface": "asphalt"}}, {"type": "Feature", "geometry": {"type": "LineString", "coordinates": [[-8.565537, 41.2265729], [-8.5655321, 41.2266077]]}, "properties": {"highway": "primary", "junction": "roundabout", "ref": "EN 107", "source": "bing", "surface": "asphalt"}}, {"type": "Feature", "geometry": {"type": "LineString", "coordinates": [[-8.562909, 41.2213889], [-8.562928, 41.2214427], [-8.562973, 41.221487], [-8.5630373, 41.221515], [-8.5631106, 41.2215223], [-8.5631822, 41.2215079]]}, "properties": {"highway": "primary", "junction": "roundabout", "lanes": "2", "name": "Via de Ardeg\u00e3es", "ref": "EN 107", "source": "bing"}}, {"type": "Feature", "geometry": {"type": "LineString", "coordinates": [[-8.5656991, 41.2267236], [-8.5657434, 41.2267137]]}, "properties": {"highway": "primary", "junction": "roundabout", "ref": "EN 107", "source": "bing", "surface": "asphalt"}}, {"type": "Feature", "geometry": {"type": "LineString", "coordinates": [[-8.5655321, 41.2266077], [-8.5655452, 41.2266409], [-8.5655763, 41.226673], [-8.5656113, 41.2267026], [-8.5656526, 41.2267197], [-8.5656991, 41.2267236]]}, "properties": {"highway": "primary", "junction": "roundabout", "ref": "EN 107", "source": "bing", "surface": "asphalt"}}, {"type": "Feature", "geometry": {"type": "LineString", "coordinates": [[-8.6093792, 41.2367677], [-8.6092047, 41.2367791], [-8.6091209, 41.2367847], [-8.6089344, 41.2367994]]}, "properties": {"highway": "primary", "lane_markings": "yes", "lanes": "4", "lanes:backward": "2", "lanes:forward": "2", "lit": "yes", "maxspeed": "50", "name": "Avenida Dom Manuel II", "ref": "EN 107", "sidewalk": "both", "source": "BING", "surface": "asphalt", "turn:lanes:backward": "left|through", "turn:lanes:forward": "|merge_to_left", "width": "15"}}, {"type": "Feature", "geometry": {"type": "LineString", "coordinates": [[-8.655964, 41.2394608], [-8.6558838, 41.2395203], [-8.6556879, 41.2396282]]}, "properties": {"highway": "primary", "lanes": "1", "lit": "yes", "name": "Avenida Fernando T\u00e1vora", "oneway": "yes", "ref": "EN 107", "surface": "asphalt"}}, {"type": "Feature", "geometry": {"type": "LineString", "coordinates": [[-8.6556879, 41.2396282], [-8.6558395, 41.2396272], [-8.6559372, 41.2396358], [-8.6560338, 41.2396525]]}, "properties": {"highway": "primary", "lanes": "1", "lit": "yes", "name": "Avenida Fernando T\u00e1vora", "oneway": "yes", "ref": "EN 107", "surface": "asphalt"}}, {"type": "Feature", "geometry": {"type": "LineString", "coordinates": [[-8.6491246, 41.2410229], [-8.6491627, 41.2409767], [-8.6492669, 41.2408885], [-8.6499642, 41.2405107]]}, "properties": {"highway": "primary", "lanes": "1", "name": "Avenida de Maria Viera Neves da Cruz", "oneway": "yes", "ref": "EN 107", "surface": "asphalt"}}, {"type": "Feature", "geometry": {"type": "LineString", "coordinates": [[-8.6632489, 41.2383147], [-8.6626993, 41.2384726], [-8.6624215, 41.2385339], [-8.6621348, 41.2385888], [-8.6617061, 41.2386506], [-8.6614257, 41.238691], [-8.6612244, 41.2387173], [-8.6608606, 41.2387474], [-8.6602783, 41.2388309]]}, "properties": {"highway": "primary", "lanes": "2", "lit": "yes", "name": "Avenida Fernando T\u00e1vora", "oneway": "yes", "ref": "EN 107", "surface": "asphalt"}}, {"type": "Feature", "geometry": {"type": "LineString", "coordinates": [[-8.6816369, 41.2256298], [-8.6816953, 41.2255798], [-8.6817549, 41.2255335]]}, "properties": {"highway": "primary", "name": "Avenida M\u00e1rio Brito", "oneway": "yes", "ref": "EN 107", "surface": "asphalt"}}, {"type": "Feature", "geometry": {"type": "LineString", "coordinates": [[-8.6488697, 41.2432943], [-8.6488334, 41.2432199], [-8.6488196, 41.2431649], [-8.6488286, 41.2430369], [-8.6488301, 41.2430151], [-8.6488262, 41.2429455], [-8.6488082, 41.2428839]]}, "properties": {"highway": "primary", "lane_markings": "no", "lanes": "1", "name": "Avenida de Maria Viera Neves da Cruz", "oneway": "yes", "ref": "EN 107", "surface": "asphalt"}}, {"type": "Feature", "geometry": {"type": "LineString", "coordinates": [[-8.5988898, 41.2363729], [-8.5988433, 41.2363478]]}, "properties": {"bicycle": "yes", "divider": "solid_line", "foot": "yes", "highway": "primary", "lane_markings": "yes", "lanes": "3", "lanes:backward": "2", "lanes:forward": "1", "maxspeed": "50", "name": "Rua de Agostinho da Silva Rocha", "oneway": "no", "placement:forward": "left_of:1", "ref": "EN 107", "surface": "asphalt", "width": "10"}}, {"type": "Feature", "geometry": {"type": "LineString", "coordinates": [[-8.5988898, 41.2363729], [-8.5989492, 41.2364272], [-8.5990022, 41.2364786], [-8.5990444, 41.2365331], [-8.5990864, 41.2366113]]}, "properties": {"bicycle": "yes", "foot": "yes", "highway": "primary", "lane_markings": "yes", "lanes": "2", "maxspeed": "50", "name": "Rua de Agostinho da Silva Rocha", "oneway": "yes", "ref": "EN 107", "surface": "asphalt", "width": "6"}}, {"type": "Feature", "geometry": {"type": "LineString", "coordinates": [[-8.592148, 41.2324931], [-8.5919975, 41.2323948], [-8.5912222, 41.2318883], [-8.5899068, 41.2310329], [-8.5886992, 41.2302447], [-8.5879319, 41.2297478]]}, "properties": {"bicycle": "yes", "foot": "yes", "highway": "primary", "lanes": "2", "maxspeed": "50", "name": "Rua de Agostinho da Silva Rocha", "oneway": "no", "ref": "EN 107", "surface": "asphalt"}}, {"type": "Feature", "geometry": {"type": "LineString", "coordinates": [[-8.5753517, 41.2309029], [-8.5752205, 41.2310342], [-8.5749243, 41.2313293], [-8.5747479, 41.231451], [-8.5746325, 41.231497], [-8.5745124, 41.231529]]}, "properties": {"bicycle": "yes", "foot": "yes", "highway": "primary", "lanes": "2", "maxspeed": "50", "name": "Avenida Dom Jo\u00e3o I", "oneway": "no", "postal_code": "4425-138", "ref": "EN 107", "surface": "asphalt"}}, {"type": "Feature", "geometry": {"type": "LineString", "coordinates": [[-8.6054127, 41.2370828], [-8.6052621, 41.2370867], [-8.6051126, 41.2370975], [-8.6037774, 41.2371936], [-8.6037006, 41.2371989], [-8.6023515, 41.2372973], [-8.6017256, 41.2373432], [-8.6015379, 41.2373573], [-8.6013407, 41.2373699], [-8.6012686, 41.2373747], [-8.6011668, 41.2373771], [-8.6010614, 41.2373758], [-8.6009552, 41.2373644], [-8.6008516, 41.2373435], [-8.6007519, 41.2373131], [-8.6007017, 41.2372961], [-8.6006532, 41.2372745], [-8.6005669, 41.2372358], [-8.6004811, 41.2371904], [-8.6004372, 41.2371664], [-8.6003114, 41.2370976], [-8.5999757, 41.2369106]]}, "properties": {"highway": "primary", "lanes": "2", "maxspeed": "50", "name": "Rua Dom Manuel II", "ref": "EN 107", "source": "local knowledge", "surface": "asphalt"}}, {"type": "Feature", "geometry": {"type": "LineString", "coordinates": [[-8.6490534, 41.2411284], [-8.649092, 41.2410692], [-8.6491246, 41.2410229]]}, "properties": {"highway": "primary", "lanes": "2", "name": "Avenida de Maria Viera Neves da Cruz", "oneway": "yes", "ref": "EN 107", "surface": "asphalt", "turn:lanes": "merge_to_right|"}}, {"type": "Feature", "geometry": {"type": "LineString", "coordinates": [[-8.5999757, 41.2369106], [-8.5999101, 41.2368433], [-8.5998357, 41.2368016], [-8.5998055, 41.2367805], [-8.5997771, 41.2367582], [-8.5997273, 41.2366962]]}, "properties": {"highway": "primary", "lane_markings": "yes", "lanes": "2", "maxspeed": "50", "name": "Rua Dom Manuel II", "oneway": "yes", "ref": "EN 107", "source": "BING", "surface": "asphalt", "width": "5.5"}}, {"type": "Feature", "geometry": {"type": "LineString", "coordinates": [[-8.5996027, 41.2369509], [-8.5997175, 41.2368999], [-8.5997458, 41.2368899], [-8.599774, 41.2368831], [-8.5998135, 41.2368785], [-8.5998582, 41.2368797], [-8.5999757, 41.2369106]]}, "properties": {"highway": "primary", "lane_markings": "yes", "lanes": "1", "maxspeed": "50", "name": "Rua Dom Manuel II", "oneway": "yes", "ref": "EN 107", "source": "BING", "surface": "asphalt", "width": "4"}}, {"type": "Feature", "geometry": {"type": "LineString", "coordinates": [[-8.6499642, 41.2405107], [-8.6495162, 41.2406671], [-8.6492735, 41.240784], [-8.6490865, 41.2409094]]}, "properties": {"highway": "primary", "lanes": "1", "name": "Avenida de Maria Viera Neves da Cruz", "oneway": "yes", "ref": "EN 107", "surface": "asphalt"}}, {"type": "Feature", "geometry": {"type": "LineString", "coordinates": [[-8.6654577, 41.2371813], [-8.6651945, 41.237361], [-8.6647153, 41.2376882]]}, "properties": {"highway": "primary", "junction": "circular", "lane_markings": "yes", "lanes": "3", "lit": "yes", "name": "Avenida Fernando T\u00e1vora", "oneway": "yes", "placement": "left_of:3", "ref": "EN 107", "smoothness": "good", "surface": "asphalt", "turn:lanes": "slight_left|slight_left;through|through", "width": "9.5"}}, {"type": "Feature", "geometry": {"type": "LineString", "coordinates": [[-8.6582234, 41.2391922], [-8.657978, 41.2392212], [-8.6575589, 41.239278], [-8.6567372, 41.2393892], [-8.6566466, 41.2393977], [-8.656556, 41.2394062], [-8.6564963, 41.2393937], [-8.6564272, 41.2393677]]}, "properties": {"highway": "primary", "lanes": "2", "lit": "yes", "name": "Avenida Fernando T\u00e1vora", "oneway": "yes", "ref": "EN 107", "surface": "asphalt"}}, {"type": "Feature", "geometry": {"type": "LineString", "coordinates": [[-8.6597887, 41.2391188], [-8.6609377, 41.2389578], [-8.6615825, 41.2388446], [-8.6621927, 41.238758], [-8.6624896, 41.2387044], [-8.6627682, 41.2386435], [-8.6633401, 41.2384757], [-8.6634488, 41.2384438]]}, "properties": {"highway": "primary", "lanes": "2", "lit": "yes", "name": "Avenida Fernando T\u00e1vora", "oneway": "yes", "ref": "EN 107", "source": "GPS Survey", "surface": "asphalt"}}, {"type": "Feature", "geometry": {"type": "LineString", "coordinates": [[-8.6564838, 41.2395904], [-8.656519, 41.2395516], [-8.6565909, 41.2395105], [-8.6566558, 41.2394954], [-8.6567594, 41.2394819], [-8.6573894, 41.239385]]}, "properties": {"highway": "primary", "lanes": "2", "lit": "yes", "maxspeed": "40", "maxspeed:type": "sign", "name": "Avenida Fernando T\u00e1vora", "oneway": "yes", "ref": "EN 107", "source": "GPS Survey", "surface": "asphalt"}}, {"type": "Feature", "geometry": {"type": "LineString", "coordinates": [[-8.6807147, 41.2264507], [-8.6812933, 41.2259347], [-8.6813755, 41.2258632]]}, "properties": {"highway": "primary", "lanes": "1", "name": "Avenida M\u00e1rio Brito", "oneway": "yes", "ref": "EN 107", "surface": "asphalt"}}, {"type": "Feature", "geometry": {"type": "LineString", "coordinates": [[-8.6813755, 41.2258632], [-8.6815167, 41.2257533]]}, "properties": {"highway": "primary", "name": "Avenida M\u00e1rio Brito", "oneway": "yes", "ref": "EN 107", "surface": "asphalt"}}, {"type": "Feature", "geometry": {"type": "LineString", "coordinates": [[-8.5986344, 41.2362312], [-8.5983682, 41.2360844]]}, "properties": {"bicycle": "yes", "divider": "solid_line", "foot": "yes", "highway": "primary", "lane_markings": "yes", "lanes": "3", "lanes:backward": "2", "lanes:forward": "1", "maxspeed": "50", "name": "Rua de Agostinho da Silva Rocha", "oneway": "no", "placement:forward": "left_of:1", "ref": "EN 107", "surface": "asphalt", "width": "10"}}, {"type": "Feature", "geometry": {"type": "LineString", "coordinates": [[-8.5988433, 41.2363478], [-8.5986344, 41.2362312]]}, "properties": {"bicycle": "yes", "bridge": "yes", "divider": "solid_line", "foot": "yes", "highway": "primary", "lane_markings": "yes", "lanes": "3", "lanes:backward": "2", "lanes:forward": "1", "layer": "1", "maxspeed": "50", "name": "Rua de Agostinho da Silva Rocha", "oneway": "no", "placement:forward": "left_of:1", "ref": "EN 107", "surface": "asphalt", "width": "10"}}, {"type": "Feature", "geometry": {"type": "LineString", "coordinates": [[-8.6744543, 41.2310736], [-8.6745355, 41.2310179], [-8.6745795, 41.2309837], [-8.6746098, 41.230954], [-8.6746389, 41.2309189], [-8.6746484, 41.2309052], [-8.6747138, 41.2308341]]}, "properties": {"highway": "primary", "lane_markings": "yes", "lanes": "1", "name": "Avenida M\u00e1rio Brito", "oneway": "yes", "ref": "EN 107", "source": "bing", "surface": "asphalt", "width": "4"}}, {"type": "Feature", "geometry": {"type": "LineString", "coordinates": [[-8.5602469, 41.2205637], [-8.5603811, 41.2206018], [-8.5609539, 41.2207646]]}, "properties": {"highway": "primary", "name": "Via de Ardeg\u00e3es", "oneway": "yes", "ref": "EN 107", "surface": "asphalt"}}, {"type": "Feature", "geometry": {"type": "LineString", "coordinates": [[-8.6750671, 41.2306182], [-8.6752172, 41.2305429], [-8.6753941, 41.2304204], [-8.6754366, 41.2303848], [-8.6757258, 41.2301819], [-8.6766903, 41.2295193], [-8.676837, 41.2294168], [-8.6768862, 41.2293827]]}, "properties": {"highway": "primary", "lanes": "1", "name": "Avenida M\u00e1rio Brito", "oneway": "yes", "ref": "EN 107", "source": "bing", "surface": "asphalt"}}, {"type": "Feature", "geometry": {"type": "LineString", "coordinates": [[-8.6747138, 41.2308341], [-8.6747763, 41.2307864], [-8.6748916, 41.2307351]]}, "properties": {"highway": "primary", "lane_markings": "yes", "lanes": "1", "name": "Avenida M\u00e1rio Brito", "oneway": "yes", "ref": "EN 107", "smoothness": "good", "source": "bing", "surface": "asphalt", "width": "4"}}, {"type": "Feature", "geometry": {"type": "LineString", "coordinates": [[-8.6817549, 41.2255335], [-8.6818851, 41.2254399], [-8.6825273, 41.2248798], [-8.6829012, 41.2245507], [-8.6830144, 41.2244526], [-8.6831024, 41.2243811], [-8.6835138, 41.2240082], [-8.6839226, 41.2236692], [-8.6839823, 41.2236196], [-8.6840048, 41.2236069], [-8.6840391, 41.2235873], [-8.6840899, 41.2235505]]}, "properties": {"highway": "primary", "lanes": "1", "name": "Avenida M\u00e1rio Brito", "oneway": "yes", "ref": "EN 107", "surface": "asphalt"}}, {"type": "Feature", "geometry": {"type": "LineString", "coordinates": [[-8.6634299, 41.2382608], [-8.6632489, 41.2383147]]}, "properties": {"highway": "primary", "lanes": "2", "lit": "yes", "name": "Avenida Fernando T\u00e1vora", "oneway": "yes", "ref": "EN 107", "surface": "asphalt"}}, {"type": "Feature", "geometry": {"type": "LineString", "coordinates": [[-8.6647153, 41.2376882], [-8.6645698, 41.2377885], [-8.6644786, 41.237848], [-8.6643494, 41.237924], [-8.6642104, 41.2379917], [-8.6640616, 41.238056], [-8.66391, 41.2381112], [-8.6635057, 41.2382373], [-8.6634299, 41.2382608]]}, "properties": {"highway": "primary", "lane_markings": "yes", "lanes": "2", "lit": "yes", "name": "Avenida Fernando T\u00e1vora", "oneway": "yes", "ref": "EN 107", "surface": "asphalt", "width": "6"}}, {"type": "Feature", "geometry": {"type": "LineString", "coordinates": [[-8.6634488, 41.2384438], [-8.6636089, 41.2383961]]}, "properties": {"highway": "primary", "lanes": "2", "lit": "yes", "name": "Avenida Fernando T\u00e1vora", "oneway": "yes", "ref": "EN 107", "source": "GPS Survey", "surface": "asphalt", "turn:lanes": "through|through;right"}}, {"type": "Feature", "geometry": {"type": "LineString", "coordinates": [[-8.5663375, 41.2268726], [-8.5662704, 41.2268374]]}, "properties": {"bicycle": "yes", "foot": "yes", "highway": "primary", "lanes": "2", "maxspeed": "50", "name": "Avenida Dom Jo\u00e3o I", "oneway": "no", "ref": "EN 107", "surface": "asphalt"}}, {"type": "Feature", "geometry": {"type": "LineString", "coordinates": [[-8.6838724, 41.2234883], [-8.6838745, 41.2235333], [-8.6838681, 41.2235737], [-8.6838475, 41.2236158], [-8.6838381, 41.2236345], [-8.68382, 41.2236702], [-8.6837901, 41.2237043], [-8.6830482, 41.2243474], [-8.6828673, 41.2245005], [-8.6818338, 41.2254038], [-8.6817722, 41.2254507], [-8.6817076, 41.22549], [-8.6816375, 41.2255208], [-8.6815581, 41.2255497]]}, "properties": {"highway": "primary", "lanes": "1", "name": "Avenida M\u00e1rio Brito", "oneway": "yes", "ref": "EN 107", "surface": "asphalt"}}, {"type": "Feature", "geometry": {"type": "LineString", "coordinates": [[-8.6813868, 41.2257172], [-8.6813028, 41.2258321], [-8.6812449, 41.2259156], [-8.6807236, 41.2263678], [-8.6795903, 41.2273478], [-8.6793639, 41.2275258], [-8.6792691, 41.2276003], [-8.6785117, 41.2281601], [-8.6773281, 41.229008]]}, "properties": {"highway": "primary", "lanes": "1", "name": "Avenida M\u00e1rio Brito", "oneway": "yes", "ref": "EN 107", "surface": "asphalt"}}, {"type": "Feature", "geometry": {"type": "LineString", "coordinates": [[-8.6696175, 41.2345099], [-8.6697073, 41.2344883]]}, "properties": {"highway": "primary", "junction": "roundabout", "lanes": "2", "lit": "yes", "ref": "EN 107", "source": "GPS Survey", "surface": "asphalt"}}, {"type": "Feature", "geometry": {"type": "LineString", "coordinates": [[-8.6699742, 41.2342724], [-8.6699831, 41.2342178], [-8.6699764, 41.2341735], [-8.6699603, 41.2341321], [-8.6699241, 41.2340968], [-8.6698772, 41.2340706], [-8.6698208, 41.2340494]]}, "properties": {"highway": "primary", "junction": "roundabout", "lanes": "2", "lit": "yes", "ref": "EN 107", "source": "GPS Survey", "surface": "asphalt"}}, {"type": "Feature", "geometry": {"type": "LineString", "coordinates": [[-8.6698208, 41.2340494], [-8.6697243, 41.2340454]]}, "properties": {"highway": "primary", "junction": "roundabout", "lanes": "2", "lit": "yes", "ref": "EN 107", "source": "GPS Survey", "surface": "asphalt"}}, {"type": "Feature", "geometry": {"type": "LineString", "coordinates": [[-8.6697243, 41.2340454], [-8.6696317, 41.2340666], [-8.6695582, 41.2340964], [-8.6695033, 41.2341262], [-8.6694574, 41.2341694]]}, "properties": {"highway": "primary", "junction": "roundabout", "lanes": "2", "lit": "yes", "ref": "EN 107", "source": "GPS Survey", "surface": "asphalt"}}, {"type": "Feature", "geometry": {"type": "LineString", "coordinates": [[-8.6694574, 41.2341694], [-8.6693984, 41.2342309], [-8.6693662, 41.2342834], [-8.6693522, 41.2343441]]}, "properties": {"highway": "primary", "junction": "roundabout", "lanes": "2", "lit": "yes", "ref": "EN 107", "source": "GPS Survey", "surface": "asphalt"}}, {"type": "Feature", "geometry": {"type": "LineString", "coordinates": [[-8.6697073, 41.2344883], [-8.6697954, 41.2344498], [-8.6698718, 41.2343974], [-8.6699303, 41.234336], [-8.6699742, 41.2342724]]}, "properties": {"highway": "primary", "junction": "roundabout", "lanes": "2", "lit": "yes", "ref": "EN 107", "source": "GPS Survey", "surface": "asphalt"}}, {"type": "Feature", "geometry": {"type": "LineString", "coordinates": [[-8.6773281, 41.229008], [-8.6768277, 41.2293561]]}, "properties": {"bridge": "yes", "highway": "primary", "lanes": "1", "layer": "1", "lit": "yes", "name": "Avenida M\u00e1rio Brito", "oneway": "yes", "ref": "EN 107", "surface": "asphalt"}}, {"type": "Feature", "geometry": {"type": "LineString", "coordinates": [[-8.6768277, 41.2293561], [-8.6767917, 41.2293814], [-8.6754062, 41.2303416]]}, "properties": {"highway": "primary", "lanes": "1", "name": "Avenida M\u00e1rio Brito", "oneway": "yes", "ref": "EN 107", "surface": "asphalt"}}, {"type": "Feature", "geometry": {"type": "LineString", "coordinates": [[-8.6659041, 41.2374638], [-8.665943, 41.2373539], [-8.6659541, 41.2373109], [-8.6659693, 41.2372691], [-8.6660004, 41.2372008], [-8.6660824, 41.2370792], [-8.6661658, 41.2369891], [-8.6662817, 41.2368944], [-8.6664165, 41.2367898], [-8.6666012, 41.2366466], [-8.6668342, 41.2364646], [-8.6669831, 41.2363501], [-8.6671001, 41.2362583], [-8.6672119, 41.2361644], [-8.6673405, 41.2360551], [-8.667434, 41.2359757], [-8.6675484, 41.2358849], [-8.6678773, 41.2356446], [-8.6680352, 41.235535], [-8.6684935, 41.2352163], [-8.6693866, 41.2345944], [-8.6694132, 41.2345746], [-8.6694652, 41.2345453], [-8.6696175, 41.2345099]]}, "properties": {"highway": "primary", "lane_markings": "yes", "lanes": "2", "lit": "yes", "name": "Avenida Fernando T\u00e1vora", "oneway": "yes", "ref": "EN 107", "source": "GPS Survey", "surface": "asphalt", "width": "6.5"}}, {"type": "Feature", "geometry": {"type": "LineString", "coordinates": [[-8.6573894, 41.239385], [-8.6579491, 41.2393061], [-8.6579968, 41.2392994], [-8.6582434, 41.239269]]}, "properties": {"highway": "primary", "lanes": "2", "lit": "yes", "maxspeed": "40", "maxspeed:type": "sign", "name": "Avenida Fernando T\u00e1vora", "oneway": "yes", "ref": "EN 107", "sidewalk": "both", "source": "GPS Survey", "surface": "asphalt", "turn:lanes": "through|through;right"}}, {"type": "Feature", "geometry": {"type": "LineString", "coordinates": [[-8.6582434, 41.239269], [-8.6589633, 41.2391701], [-8.659184, 41.239143], [-8.6593546, 41.2391318], [-8.6596617, 41.2391273], [-8.6597887, 41.2391188]]}, "properties": {"highway": "primary", "lanes": "2", "lit": "yes", "maxspeed": "40", "maxspeed:type": "sign", "name": "Avenida Fernando T\u00e1vora", "oneway": "yes", "ref": "EN 107", "source": "GPS Survey", "surface": "asphalt"}}, {"type": "Feature", "geometry": {"type": "LineString", "coordinates": [[-8.6587848, 41.2391052], [-8.6583943, 41.2391709], [-8.6582234, 41.2391922]]}, "properties": {"highway": "primary", "lanes": "3", "lit": "yes", "name": "Avenida Fernando T\u00e1vora", "oneway": "yes", "ref": "EN 107", "surface": "asphalt", "turn:lanes": "left|through|through"}}, {"type": "Feature", "geometry": {"type": "LineString", "coordinates": [[-8.6592789, 41.2390257], [-8.6591097, 41.2390572], [-8.6589377, 41.2390833], [-8.6587848, 41.2391052]]}, "properties": {"highway": "primary", "lanes": "2", "lit": "yes", "name": "Avenida Fernando T\u00e1vora", "oneway": "yes", "ref": "EN 107", "surface": "asphalt", "turn:lanes": "left;through|through"}}, {"type": "Feature", "geometry": {"type": "LineString", "coordinates": [[-8.6598289, 41.2388928], [-8.6596197, 41.2389354], [-8.6592789, 41.2390257]]}, "properties": {"highway": "primary", "lanes": "2", "lit": "yes", "name": "Avenida Fernando T\u00e1vora", "oneway": "yes", "ref": "EN 107", "surface": "asphalt"}}, {"type": "Feature", "geometry": {"type": "LineString", "coordinates": [[-8.6602783, 41.2388309], [-8.6598289, 41.2388928]]}, "properties": {"highway": "primary", "lanes": "2", "lit": "yes", "name": "Avenida Fernando T\u00e1vora", "oneway": "yes", "ref": "EN 107", "surface": "asphalt", "turn:lanes": "left;through|through"}}, {"type": "Feature", "geometry": {"type": "LineString", "coordinates": [[-8.6560338, 41.2396525], [-8.6561075, 41.2396933]]}, "properties": {"highway": "primary", "junction": "roundabout", "lanes": "3", "lit": "yes", "ref": "EN 107", "surface": "asphalt"}}, {"type": "Feature", "geometry": {"type": "LineString", "coordinates": [[-8.6549786, 41.2397315], [-8.655178, 41.2397025], [-8.655474, 41.2396594], [-8.6556257, 41.2396373], [-8.6556879, 41.2396282]]}, "properties": {"highway": "primary", "lanes": "2", "lit": "yes", "name": "Avenida Fernando T\u00e1vora", "ref": "EN 107", "surface": "asphalt"}}, {"type": "Feature", "geometry": {"type": "LineString", "coordinates": [[-8.6895066, 41.2182299], [-8.689566, 41.2182981], [-8.6896464, 41.2183534], [-8.6898084, 41.218401]]}, "properties": {"highway": "primary", "junction": "roundabout", "lanes": "2", "ref": "EN 107", "surface": "asphalt"}}, {"type": "Feature", "geometry": {"type": "LineString", "coordinates": [[-8.6898084, 41.218401], [-8.6899562, 41.2184156], [-8.6900648, 41.2184071], [-8.6901641, 41.2183869]]}, "properties": {"highway": "primary", "junction": "roundabout", "lanes": "2", "ref": "EN 107", "surface": "asphalt"}}, {"type": "Feature", "geometry": {"type": "LineString", "coordinates": [[-8.6901641, 41.2183869], [-8.6902794, 41.2183334], [-8.6903438, 41.2182724], [-8.6903753, 41.2182063], [-8.6903729, 41.218096]]}, "properties": {"highway": "primary", "junction": "roundabout", "lanes": "2", "ref": "EN 107", "surface": "asphalt"}}, {"type": "Feature", "geometry": {"type": "LineString", "coordinates": [[-8.6903729, 41.218096], [-8.690331, 41.2180345], [-8.690276, 41.2179959], [-8.6902117, 41.2179703], [-8.6901456, 41.2179521]]}, "properties": {"highway": "primary", "junction": "roundabout", "lanes": "2", "ref": "EN 107", "surface": "asphalt"}}, {"type": "Feature", "geometry": {"type": "LineString", "coordinates": [[-8.6146909, 41.2363104], [-8.6146076, 41.2363431], [-8.6145199, 41.2363622], [-8.6144671, 41.2363672], [-8.6134372, 41.2364406]]}, "properties": {"highway": "primary", "lanes": "1", "lit": "yes", "maxspeed": "50", "name": "Avenida Dom Manuel II", "oneway": "yes", "ref": "EN 107", "sidewalk": "right", "source": "BING", "surface": "asphalt"}}, {"type": "Feature", "geometry": {"type": "LineString", "coordinates": [[-8.5632878, 41.2213705], [-8.5632687, 41.2213168], [-8.5632236, 41.2212725], [-8.5631596, 41.2212446], [-8.5630861, 41.2212373], [-8.563015, 41.2212515]]}, "properties": {"highway": "primary", "junction": "roundabout", "lanes": "2", "name": "Via de Ardeg\u00e3es", "ref": "EN 107", "source": "bing"}}, {"type": "Feature", "geometry": {"type": "LineString", "coordinates": [[-8.5631822, 41.2215079], [-8.563241, 41.221474], [-8.563278, 41.2214259], [-8.5632878, 41.2213705]]}, "properties": {"highway": "primary", "junction": "roundabout", "lanes": "2", "name": "Via de Ardeg\u00e3es", "ref": "EN 107", "source": "bing"}}, {"type": "Feature", "geometry": {"type": "LineString", "coordinates": [[-8.563015, 41.2212515], [-8.5629558, 41.2212855], [-8.5629186, 41.2213341], [-8.562909, 41.2213889]]}, "properties": {"highway": "primary", "junction": "roundabout", "lanes": "2", "name": "Via de Ardeg\u00e3es", "ref": "EN 107", "source": "bing"}}, {"type": "Feature", "geometry": {"type": "LineString", "coordinates": [[-8.5879319, 41.2297478], [-8.5878486, 41.2296931], [-8.5863432, 41.228705], [-8.5861793, 41.228588], [-8.5859419, 41.2284237]]}, "properties": {"bicycle": "yes", "foot": "yes", "highway": "primary", "lanes": "2", "maxspeed": "50", "name": "Rua Doutor Joaquim Nogueira dos Santos", "oneway": "no", "ref": "EN 107", "surface": "asphalt"}}, {"type": "Feature", "geometry": {"type": "LineString", "coordinates": [[-8.6490865, 41.2409094], [-8.6489432, 41.2410796]]}, "properties": {"highway": "primary", "lanes": "1", "name": "Avenida de Maria Viera Neves da Cruz", "oneway": "yes", "ref": "EN 107", "surface": "asphalt"}}, {"type": "Feature", "geometry": {"type": "LineString", "coordinates": [[-8.5975366, 41.2356306], [-8.5975099, 41.235616], [-8.597415, 41.2355645], [-8.5964256, 41.2350383], [-8.5954472, 41.2344997], [-8.5952584, 41.2344]]}, "properties": {"bicycle": "yes", "divider": "solid_line", "foot": "yes", "highway": "primary", "lane_markings": "yes", "lanes": "2", "lanes:backward": "1", "lanes:forward": "1", "maxspeed": "50", "name": "Rua de Agostinho da Silva Rocha", "oneway": "no", "ref": "EN 107", "surface": "asphalt", "width": "6.5"}}, {"type": "Feature", "geometry": {"type": "LineString", "coordinates": [[-8.5952584, 41.2344], [-8.5950329, 41.2342798], [-8.5947784, 41.2341455], [-8.594538, 41.2340152], [-8.5941161, 41.2337744], [-8.5937742, 41.2335605], [-8.5932293, 41.2331996]]}, "properties": {"bicycle": "yes", "foot": "yes", "highway": "primary", "lanes": "2", "maxspeed": "50", "name": "Rua de Agostinho da Silva Rocha", "oneway": "no", "ref": "EN 107", "surface": "asphalt"}}, {"type": "Feature", "geometry": {"type": "LineString", "coordinates": [[-8.5932293, 41.2331996], [-8.5927208, 41.2328683], [-8.592148, 41.2324931]]}, "properties": {"bicycle": "yes", "foot": "yes", "highway": "primary", "lanes": "2", "maxspeed": "50", "name": "Rua de Agostinho da Silva Rocha", "oneway": "no", "ref": "EN 107", "surface": "asphalt"}}, {"type": "Feature", "geometry": {"type": "LineString", "coordinates": [[-8.6937289, 41.2149929], [-8.6936641, 41.2150895], [-8.6934006, 41.215387], [-8.6932625, 41.2155084], [-8.6929229, 41.2158067], [-8.692094, 41.2165617], [-8.6913798, 41.2172165], [-8.6913089, 41.2172592]]}, "properties": {"description": "Compositor Pianista 1870-1957", "highway": "primary", "lanes": "2", "name": "Rua \u00d3scar da Silva", "ref": "EN 107", "surface": "asphalt"}}, {"type": "Feature", "geometry": {"type": "LineString", "coordinates": [[-8.6944011, 41.2134669], [-8.6940399, 41.2143753], [-8.6939549, 41.2145349], [-8.6938125, 41.2148022]]}, "properties": {"description": "Compositor Pianista 1870-1957", "highway": "primary", "lanes": "2", "maxweight": "3.5", "name": "Rua \u00d3scar da Silva", "ref": "EN 107", "surface": "asphalt"}}, {"type": "Feature", "geometry": {"type": "LineString", "coordinates": [[-8.6961989, 41.2091305], [-8.6958609, 41.2098734], [-8.6955824, 41.2105566], [-8.6950063, 41.2118472], [-8.6944134, 41.2134334], [-8.6944011, 41.2134669]]}, "properties": {"description": "Compositor Pianista 1870-1957", "highway": "primary", "lanes": "2", "maxweight:forward": "3.5", "name": "Rua \u00d3scar da Silva", "ref": "EN 107", "surface": "asphalt"}}, {"type": "Feature", "geometry": {"type": "LineString", "coordinates": [[-8.6659895, 41.2368054], [-8.6654958, 41.2371553], [-8.6654577, 41.2371813]]}, "properties": {"highway": "primary", "lanes": "2", "lit": "yes", "name": "Avenida Fernando T\u00e1vora", "oneway": "yes", "ref": "EN 107", "smoothness": "good", "surface": "asphalt"}}, {"type": "Feature", "geometry": {"type": "LineString", "coordinates": [[-8.6060883, 41.2370582], [-8.6056567, 41.2370755], [-8.6055368, 41.2370844], [-8.6054127, 41.2370828]]}, "properties": {"divider": "solid_line", "highway": "primary", "lane_markings": "yes", "lanes": "3", "lanes:backward": "1", "lanes:forward": "2", "lit": "yes", "maxspeed": "50", "name": "Avenida Dom Manuel II", "ref": "EN 107", "sidewalk": "both", "source": "BING", "surface": "asphalt", "turn:lanes:forward": "left|through", "width": "9"}}, {"type": "Feature", "geometry": {"type": "LineString", "coordinates": [[-8.561813, 41.2209279], [-8.5612023, 41.2207498]]}, "properties": {"highway": "primary", "name": "Via de Ardeg\u00e3es", "oneway": "yes", "ref": "EN 107"}}, {"type": "Feature", "geometry": {"type": "LineString", "coordinates": [[-8.5755612, 41.2307452], [-8.5755358, 41.2307054], [-8.5754939, 41.2306744], [-8.5754405, 41.230656], [-8.5753819, 41.2306523], [-8.5753252, 41.2306639], [-8.5752771, 41.2306893], [-8.5752434, 41.2307255], [-8.575228, 41.2307681], [-8.5752329, 41.2308122], [-8.5752574, 41.2308523], [-8.5752987, 41.2308838], [-8.5753517, 41.2309029]]}, "properties": {"bicycle": "yes", "foot": "yes", "highway": "primary", "junction": "roundabout", "lanes": "2", "maxspeed": "50", "name": "Rua Doutor Joaquim Nogueira dos Santos", "ref": "EN 107", "surface": "asphalt"}}, {"type": "Feature", "geometry": {"type": "LineString", "coordinates": [[-8.5753517, 41.2309029], [-8.5754048, 41.2309075], [-8.5754573, 41.2308994], [-8.5755038, 41.2308795], [-8.5755397, 41.2308497], [-8.5755601, 41.2308169], [-8.5755675, 41.2307811], [-8.5755612, 41.2307452]]}, "properties": {"bicycle": "yes", "foot": "yes", "highway": "primary", "junction": "roundabout", "lanes": "2", "maxspeed": "50", "name": "Rua Doutor Joaquim Nogueira dos Santos", "ref": "EN 107", "surface": "asphalt"}}, {"type": "Feature", "geometry": {"type": "LineString", "coordinates": [[-8.6486572, 41.2417856], [-8.6486797, 41.2417194], [-8.6487105, 41.2416529], [-8.6487938, 41.2415218], [-8.6490534, 41.2411284]]}, "properties": {"highway": "primary", "lane_markings": "yes", "lanes": "2", "name": "Avenida de Maria Viera Neves da Cruz", "oneway": "yes", "placement": "middle_of:2", "ref": "EN 107", "surface": "asphalt", "turn:lanes": "left|", "width": "6.8"}}, {"type": "Feature", "geometry": {"type": "LineString", "coordinates": [[-8.6089344, 41.2367994], [-8.6086131, 41.2368285]]}, "properties": {"highway": "primary", "lane_markings": "yes", "lanes": "4", "lanes:backward": "2", "lanes:forward": "2", "lit": "yes", "maxspeed": "50", "name": "Avenida Dom Manuel II", "ref": "EN 107", "sidewalk": "both", "source": "BING", "surface": "asphalt", "turn:lanes:backward": "left|through;right", "turn:lanes:forward": "|merge_to_left", "width": "15"}}, {"type": "Feature", "geometry": {"type": "LineString", "coordinates": [[-8.6086131, 41.2368285], [-8.6084085, 41.2368625], [-8.6082137, 41.2368948], [-8.607316, 41.2369674], [-8.6060883, 41.2370582]]}, "properties": {"divider": "dashed_line", "highway": "primary", "lane_markings": "yes", "lanes": "2", "lanes:backward": "1", "lanes:forward": "1", "lit": "yes", "maxspeed": "50", "name": "Avenida Dom Manuel II", "ref": "EN 107", "sidewalk": "both", "source": "BING", "surface": "asphalt", "width": "6"}}, {"type": "Feature", "geometry": {"type": "LineString", "coordinates": [[-8.6102312, 41.2366685], [-8.6096938, 41.2367067], [-8.6096463, 41.2367092], [-8.6095655, 41.2367149], [-8.6093792, 41.2367677]]}, "properties": {"highway": "primary", "lane_markings": "yes", "lanes": "2", "lit": "yes", "maxspeed": "50", "name": "Avenida Dom Manuel II", "oneway": "yes", "ref": "EN 107", "sidewalk": "right", "source": "BING", "surface": "asphalt", "turn:lanes": "left|through;right", "width": "6"}}, {"type": "Feature", "geometry": {"type": "LineString", "coordinates": [[-8.6913089, 41.2172592], [-8.6912571, 41.2172903], [-8.6911815, 41.2173145], [-8.6911115, 41.2173229]]}, "properties": {"description": "Compositor Pianista 1870-1957", "highway": "primary", "lanes": "2", "name": "Rua \u00d3scar da Silva", "ref": "EN 107", "surface": "asphalt"}}, {"type": "Feature", "geometry": {"type": "LineString", "coordinates": [[-8.6895223, 41.2181167], [-8.6895069, 41.218168], [-8.6895066, 41.2182299]]}, "properties": {"highway": "primary", "junction": "roundabout", "lanes": "2", "ref": "EN 107", "surface": "asphalt"}}, {"type": "Feature", "geometry": {"type": "LineString", "coordinates": [[-8.6938125, 41.2148022], [-8.6937289, 41.2149929]]}, "properties": {"description": "Compositor Pianista 1870-1957", "highway": "primary", "lanes": "2", "name": "Rua \u00d3scar da Silva", "ref": "EN 107", "surface": "asphalt"}}, {"type": "Feature", "geometry": {"type": "LineString", "coordinates": [[-8.6964945, 41.2016317], [-8.6965308, 41.2017023], [-8.6965472, 41.2017342], [-8.6971342, 41.2028759], [-8.6973059, 41.2032246], [-8.6973512, 41.2033352], [-8.6973525, 41.2035296], [-8.6973265, 41.20401]]}, "properties": {"description": "Compositor Pianista 1870-1957", "highway": "primary", "lanes": "2", "maxweight:forward": "3.5", "name": "Rua \u00d3scar da Silva", "ref": "EN 107", "surface": "asphalt"}}, {"type": "Feature", "geometry": {"type": "LineString", "coordinates": [[-8.6564272, 41.2393677], [-8.6564021, 41.2393469], [-8.6563219, 41.2393137]]}, "properties": {"highway": "primary", "junction": "roundabout", "lanes": "3", "lit": "yes", "ref": "EN 107", "surface": "asphalt"}}, {"type": "Feature", "geometry": {"type": "LineString", "coordinates": [[-8.6563219, 41.2393137], [-8.6562317, 41.2393021], [-8.6561415, 41.2393135], [-8.6560612, 41.2393465], [-8.6560542, 41.2393523]]}, "properties": {"highway": "primary", "junction": "roundabout", "lanes": "3", "lit": "yes", "ref": "EN 107", "surface": "asphalt"}}, {"type": "Feature", "geometry": {"type": "LineString", "coordinates": [[-8.6560542, 41.2393523], [-8.6559998, 41.2393975], [-8.655964, 41.2394608]]}, "properties": {"highway": "primary", "junction": "roundabout", "lanes": "3", "lit": "yes", "ref": "EN 107", "surface": "asphalt"}}, {"type": "Feature", "geometry": {"type": "LineString", "coordinates": [[-8.6561075, 41.2396933], [-8.6561927, 41.2397134], [-8.656282, 41.2397119], [-8.656366, 41.239689], [-8.6564357, 41.239647]]}, "properties": {"highway": "primary", "junction": "roundabout", "lanes": "3", "lit": "yes", "ref": "EN 107", "surface": "asphalt"}}, {"type": "Feature", "geometry": {"type": "LineString", "coordinates": [[-8.6564357, 41.239647], [-8.6564838, 41.2395904]]}, "properties": {"highway": "primary", "junction": "roundabout", "lanes": "3", "lit": "yes", "ref": "EN 107", "surface": "asphalt"}}, {"type": "Feature", "geometry": {"type": "LineString", "coordinates": [[-8.6564838, 41.2395904], [-8.6565053, 41.2395252], [-8.6564978, 41.2394582], [-8.6564621, 41.2393966], [-8.6564272, 41.2393677]]}, "properties": {"highway": "primary", "junction": "roundabout", "lanes": "3", "lit": "yes", "ref": "EN 107", "surface": "asphalt"}}, {"type": "Feature", "geometry": {"type": "LineString", "coordinates": [[-8.655964, 41.2394608], [-8.6559578, 41.2395294], [-8.655982, 41.2395958], [-8.6560338, 41.2396525]]}, "properties": {"highway": "primary", "junction": "roundabout", "lanes": "3", "lit": "yes", "ref": "EN 107", "surface": "asphalt"}}, {"type": "Feature", "geometry": {"type": "LineString", "coordinates": [[-8.5977318, 41.2357373], [-8.5975366, 41.2356306]]}, "properties": {"bicycle": "yes", "bus_bay": "right;left", "divider": "solid_line", "foot": "yes", "highway": "primary", "lane_markings": "yes", "lanes": "2", "lanes:backward": "1", "lanes:forward": "1", "maxspeed": "50", "name": "Rua de Agostinho da Silva Rocha", "oneway": "no", "ref": "EN 107", "surface": "asphalt", "width": "6.5"}}, {"type": "Feature", "geometry": {"type": "LineString", "coordinates": [[-8.5978919, 41.2358248], [-8.5978593, 41.235807], [-8.5977318, 41.2357373]]}, "properties": {"bicycle": "yes", "bus_bay": "left", "divider": "solid_line", "foot": "yes", "highway": "primary", "lane_markings": "yes", "lanes": "2", "lanes:backward": "1", "lanes:forward": "1", "maxspeed": "50", "name": "Rua de Agostinho da Silva Rocha", "oneway": "no", "ref": "EN 107", "surface": "asphalt", "width": "6.5"}}, {"type": "Feature", "geometry": {"type": "LineString", "coordinates": [[-8.5983682, 41.2360844], [-8.5978919, 41.2358248]]}, "properties": {"bicycle": "yes", "divider": "solid_line", "foot": "yes", "highway": "primary", "lane_markings": "yes", "lanes": "2", "lanes:backward": "1", "lanes:forward": "1", "maxspeed": "50", "name": "Rua de Agostinho da Silva Rocha", "oneway": "no", "ref": "EN 107", "surface": "asphalt", "width": "6.5"}}, {"type": "Feature", "geometry": {"type": "LineString", "coordinates": [[-8.6134372, 41.2364406], [-8.6129968, 41.236472], [-8.6127075, 41.2364927]]}, "properties": {"highway": "primary", "lane_markings": "yes", "lanes": "2", "lit": "yes", "maxspeed": "50", "name": "Avenida Dom Manuel II", "oneway": "yes", "ref": "EN 107", "sidewalk": "right", "source": "BING", "surface": "asphalt", "turn:lanes": "left|through;right", "width": "6"}}, {"type": "Feature", "geometry": {"type": "LineString", "coordinates": [[-8.6674987, 41.2356634], [-8.6672637, 41.2358294], [-8.667144, 41.2359167], [-8.6669925, 41.2360306], [-8.6667585, 41.2362122], [-8.6665314, 41.2363891]]}, "properties": {"highway": "primary", "lanes": "2", "lit": "yes", "maxheight:signed": "no", "name": "Avenida Fernando T\u00e1vora", "oneway": "yes", "ref": "EN 107", "surface": "asphalt"}}, {"type": "Feature", "geometry": {"type": "LineString", "coordinates": [[-8.6665314, 41.2363891], [-8.6662918, 41.2365752], [-8.6661835, 41.2366589], [-8.6659895, 41.2368054]]}, "properties": {"highway": "primary", "lanes": "2", "lit": "yes", "maxheight:signed": "no", "name": "Avenida Fernando T\u00e1vora", "oneway": "yes", "ref": "EN 107", "surface": "asphalt"}}, {"type": "Feature", "geometry": {"type": "LineString", "coordinates": [[-8.6489432, 41.2410796], [-8.6488368, 41.241236]]}, "properties": {"highway": "primary", "lane_markings": "no", "lanes": "1", "name": "Avenida de Maria Viera Neves da Cruz", "oneway": "yes", "ref": "EN 107", "surface": "asphalt"}}]}