{"type": "FeatureCollection", "features": [{"type": "Feature", "geometry": {"type": "LineString", "coordinates": [[-9.0984786, 38.6407168], [-9.0984658, 38.6406977]]}, "properties": {"highway": "primary", "junction": "roundabout", "lanes": "1", "ref": "EN 10-2", "surface": "asphalt"}}, {"type": "Feature", "geometry": {"type": "LineString", "coordinates": [[-9.1051122, 38.6185842], [-9.1049342, 38.6185863], [-9.1048896, 38.6185862], [-9.1046899, 38.6185839], [-9.1043143, 38.6185673], [-9.103876, 38.618548], [-9.1037276, 38.6185414], [-9.1034349, 38.6185323], [-9.103291, 38.6185438], [-9.1032289, 38.6185532], [-9.1031867, 38.6185596], [-9.103117, 38.6185769]]}, "properties": {"highway": "primary", "name": "Avenida Doutor Arlindo Vicente", "ref": "EN 10-2"}}, {"type": "Feature", "geometry": {"type": "LineString", "coordinates": [[-9.0745815, 38.6195928], [-9.0745101, 38.6194243], [-9.0744093, 38.6191864], [-9.0743174, 38.618807], [-9.0742913, 38.6186375]]}, "properties": {"highway": "primary", "lanes": "1", "name": "Avenida da Siderugia Nacional", "oneway": "yes", "ref": "EN 10-2"}}, {"type": "Feature", "geometry": {"type": "LineString", "coordinates": [[-9.0741738, 38.6180373], [-9.0741392, 38.6177882], [-9.0741359, 38.6177642], [-9.0740587, 38.6172082], [-9.0737054, 38.6147022], [-9.0736935, 38.6143074], [-9.0736873, 38.6137079], [-9.0736844, 38.6134299], [-9.0736805, 38.6132073], [-9.0736634, 38.6122204], [-9.0736604, 38.6120591], [-9.07366, 38.6120369]]}, "properties": {"highway": "primary", "lanes": "2", "maxspeed": "70", "name": "Avenida da Siderugia Nacional", "oneway": "no", "ref": "EN 10-2"}}, {"type": "Feature", "geometry": {"type": "LineString", "coordinates": [[-9.0741738, 38.6180373], [-9.0741814, 38.618174], [-9.074177, 38.6184532], [-9.0742084, 38.6187094]]}, "properties": {"highway": "primary", "name": "Avenida da Siderugia Nacional", "oneway": "yes", "ref": "EN 10-2"}}, {"type": "Feature", "geometry": {"type": "LineString", "coordinates": [[-9.0820083, 38.6274652], [-9.0819148, 38.6274952], [-9.0818212, 38.6275166], [-9.081698, 38.627535], [-9.0814477, 38.6275312], [-9.0813197, 38.627508], [-9.0811934, 38.6274765], [-9.0811309, 38.6274545], [-9.080985, 38.6273895], [-9.0808391, 38.6273245], [-9.080584, 38.6271958], [-9.0805204, 38.6271637], [-9.0802324, 38.627019], [-9.0798479, 38.6268034], [-9.0795784, 38.6265964], [-9.0793121, 38.6262809], [-9.079258, 38.6262168], [-9.0780363, 38.6243287], [-9.0777893, 38.6239883], [-9.077635, 38.6237993], [-9.0774726, 38.6236091], [-9.0774267, 38.6235673], [-9.0773235, 38.6234617], [-9.0772015, 38.6233454], [-9.0771502, 38.6233009]]}, "properties": {"highway": "primary", "lanes": "2", "maxspeed": "50", "name": "Avenida da Siderugia Nacional", "oneway": "no", "ref": "EN 10-2"}}, {"type": "Feature", "geometry": {"type": "LineString", "coordinates": [[-9.0848856, 38.6250294], [-9.084322, 38.6255173], [-9.0842875, 38.6255472], [-9.0842151, 38.6256112], [-9.0839228, 38.6258696], [-9.0838983, 38.625893], [-9.0838404, 38.6259508], [-9.0836499, 38.6261274]]}, "properties": {"highway": "primary", "lanes": "2", "name": "Avenida General Humberto Delgado", "oneway": "no", "ref": "EN 10-2", "surface": "asphalt"}}, {"type": "Feature", "geometry": {"type": "LineString", "coordinates": [[-9.0880554, 38.6222774], [-9.0879892, 38.6223372], [-9.0878344, 38.6224768], [-9.0876977, 38.6226], [-9.0873041, 38.6229442], [-9.0871839, 38.6230493], [-9.0865442, 38.6236006], [-9.0863253, 38.6237891], [-9.0860679, 38.6240109], [-9.0857283, 38.6243034], [-9.0856159, 38.6244003], [-9.0852949, 38.6246768], [-9.0848856, 38.6250294]]}, "properties": {"highway": "primary", "lanes": "2", "name": "Avenida General Humberto Delgado", "oneway": "no", "ref": "EN 10-2", "surface": "asphalt"}}, {"type": "Feature", "geometry": {"type": "LineString", "coordinates": [[-9.0826576, 38.6269959], [-9.0822974, 38.6273169], [-9.0821493, 38.6274032], [-9.0820083, 38.6274652]]}, "properties": {"highway": "primary", "lanes": "2", "name": "Avenida da Siderugia Nacional", "oneway": "no", "ref": "EN 10-2"}}, {"type": "Feature", "geometry": {"type": "LineString", "coordinates": [[-9.07366, 38.6120369], [-9.0736556, 38.6118054], [-9.0736461, 38.6114862], [-9.073613, 38.6098399], [-9.0736117, 38.6097209], [-9.07361, 38.6095575], [-9.0736088, 38.6094974], [-9.0735896, 38.6085468]]}, "properties": {"highway": "primary", "lanes": "2", "lit": "yes", "maxspeed": "50", "maxspeed:type": "sign", "name": "Avenida da Siderugia Nacional", "oneway": "no", "ref": "EN 10-2", "surface": "asphalt"}}, {"type": "Feature", "geometry": {"type": "LineString", "coordinates": [[-9.0988812, 38.6208962], [-9.0988103, 38.6209075], [-9.0987393, 38.6209187], [-9.0986602, 38.6209276], [-9.0984929, 38.6209464], [-9.0982947, 38.6209686], [-9.0974194, 38.6210639], [-9.0973781, 38.6210684], [-9.0968572, 38.6211251], [-9.096673, 38.6211451], [-9.095589, 38.6212631], [-9.0952983, 38.6212947], [-9.0950571, 38.6213209], [-9.0949831, 38.621329], [-9.0949233, 38.6213356], [-9.0941357, 38.6214229], [-9.0938313, 38.6214566], [-9.0935534, 38.6214868], [-9.0935072, 38.6214918], [-9.0933952, 38.6215039], [-9.0917489, 38.6216813], [-9.0905094, 38.6218149], [-9.0902934, 38.6218382]]}, "properties": {"highway": "primary", "lanes": "2", "name": "Avenida General Humberto Delgado", "oneway": "no", "ref": "EN 10-2"}}, {"type": "Feature", "geometry": {"type": "LineString", "coordinates": [[-9.1026725, 38.6187924], [-9.1020391, 38.6191536], [-9.1018601, 38.6192557], [-9.1014464, 38.6194916], [-9.100886, 38.6198111], [-9.0999323, 38.6203465], [-9.0993712, 38.6206615], [-9.0991666, 38.620775]]}, "properties": {"highway": "primary", "name": "Avenida Doutor Arlindo Vicente", "ref": "EN 10-2"}}, {"type": "Feature", "geometry": {"type": "LineString", "coordinates": [[-9.0738719, 38.6081354], [-9.0739994, 38.6080871], [-9.074139, 38.6080521], [-9.0742595, 38.6080489], [-9.0744013, 38.6080666], [-9.0745407, 38.6081006], [-9.0750755, 38.6083002], [-9.0752958, 38.60835]]}, "properties": {"highway": "primary", "lanes": "1", "lit": "yes", "maxspeed": "50", "name": "Avenida 1 de Dezembro de 1640", "oneway": "yes", "ref": "EN 10-2", "surface": "asphalt"}}, {"type": "Feature", "geometry": {"type": "LineString", "coordinates": [[-9.0735189, 38.6081298], [-9.0735589, 38.6081958], [-9.0735763, 38.6082716], [-9.073573, 38.6083487], [-9.0735896, 38.6085468]]}, "properties": {"highway": "primary", "lanes": "2", "lit": "yes", "maxspeed": "50", "name": "Avenida da Siderugia Nacional", "oneway": "yes", "ref": "EN 10-2", "surface": "asphalt"}}, {"type": "Feature", "geometry": {"type": "LineString", "coordinates": [[-9.0832873, 38.6264523], [-9.0833719, 38.6264336], [-9.0835035, 38.6264274]]}, "properties": {"highway": "primary", "name": "Avenida General Humberto Delgado", "oneway": "yes", "ref": "EN 10-2"}}, {"type": "Feature", "geometry": {"type": "LineString", "coordinates": [[-9.0836499, 38.6261274], [-9.0835747, 38.6261846], [-9.0835431, 38.6262123], [-9.0834963, 38.6262448]]}, "properties": {"highway": "primary", "lanes": "1", "name": "Avenida General Humberto Delgado", "oneway": "yes", "ref": "EN 10-2", "surface": "asphalt"}}, {"type": "Feature", "geometry": {"type": "LineString", "coordinates": [[-9.08362, 38.6262896], [-9.083634, 38.6262033], [-9.0836499, 38.6261274]]}, "properties": {"highway": "primary", "lanes": "1", "name": "Avenida General Humberto Delgado", "oneway": "yes", "ref": "EN 10-2", "surface": "asphalt"}}, {"type": "Feature", "geometry": {"type": "LineString", "coordinates": [[-9.0834006, 38.6263214], [-9.0833697, 38.6263646], [-9.0833399, 38.6263972], [-9.0832873, 38.6264523]]}, "properties": {"highway": "primary", "lanes": "1", "name": "Avenida General Humberto Delgado", "oneway": "yes", "ref": "EN 10-2", "surface": "asphalt"}}, {"type": "Feature", "geometry": {"type": "LineString", "coordinates": [[-9.0902934, 38.6218382], [-9.0901576, 38.6218514], [-9.0900132, 38.6218654], [-9.0889879, 38.6219651]]}, "properties": {"highway": "primary", "lanes": "2", "name": "Avenida General Humberto Delgado", "oneway": "no", "ref": "EN 10-2"}}, {"type": "Feature", "geometry": {"type": "LineString", "coordinates": [[-9.1029216, 38.6186182], [-9.102888, 38.6186131]]}, "properties": {"highway": "primary", "junction": "roundabout", "name": "Pra\u00e7a Gemina\u00e7\u00f5es", "ref": "EN 10-2"}}, {"type": "Feature", "geometry": {"type": "LineString", "coordinates": [[-9.103117, 38.6185769], [-9.1030157, 38.6185947], [-9.1029842, 38.6186026], [-9.1029216, 38.6186182]]}, "properties": {"highway": "primary", "name": "Avenida Doutor Arlindo Vicente", "oneway": "yes", "ref": "EN 10-2"}}, {"type": "Feature", "geometry": {"type": "LineString", "coordinates": [[-9.1029826, 38.6187285], [-9.1030037, 38.6186811], [-9.1030399, 38.6186219], [-9.103117, 38.6185769]]}, "properties": {"highway": "primary", "name": "Avenida Doutor Arlindo Vicente", "oneway": "yes", "ref": "EN 10-2"}}, {"type": "Feature", "geometry": {"type": "LineString", "coordinates": [[-9.1026725, 38.6187924], [-9.1027422, 38.6187833], [-9.1028065, 38.6187765], [-9.1028736, 38.6187789]]}, "properties": {"highway": "primary", "name": "Avenida Doutor Arlindo Vicente", "oneway": "yes", "ref": "EN 10-2"}}, {"type": "Feature", "geometry": {"type": "LineString", "coordinates": [[-9.1027785, 38.6186905], [-9.1027809, 38.6187149], [-9.1027924, 38.6187377], [-9.1028134, 38.618758], [-9.1028414, 38.6187721], [-9.1028736, 38.6187789]]}, "properties": {"highway": "primary", "junction": "roundabout", "name": "Pra\u00e7a Gemina\u00e7\u00f5es", "ref": "EN 10-2"}}, {"type": "Feature", "geometry": {"type": "LineString", "coordinates": [[-9.1029826, 38.6187285], [-9.1029907, 38.6187025], [-9.1029878, 38.6186759], [-9.1029742, 38.6186513], [-9.1029514, 38.6186314], [-9.1029216, 38.6186182]]}, "properties": {"highway": "primary", "junction": "roundabout", "name": "Pra\u00e7a Gemina\u00e7\u00f5es", "ref": "EN 10-2"}}, {"type": "Feature", "geometry": {"type": "LineString", "coordinates": [[-9.102888, 38.6186131], [-9.1028541, 38.6186165], [-9.1028233, 38.6186282], [-9.1028006, 38.6186451], [-9.1027852, 38.6186665]]}, "properties": {"highway": "primary", "junction": "roundabout", "name": "Pra\u00e7a Gemina\u00e7\u00f5es", "ref": "EN 10-2"}}, {"type": "Feature", "geometry": {"type": "LineString", "coordinates": [[-9.1028736, 38.6187789], [-9.1029069, 38.6187775], [-9.102938, 38.6187681], [-9.1029644, 38.6187512], [-9.1029826, 38.6187285]]}, "properties": {"highway": "primary", "junction": "roundabout", "name": "Pra\u00e7a Gemina\u00e7\u00f5es", "ref": "EN 10-2"}}, {"type": "Feature", "geometry": {"type": "LineString", "coordinates": [[-9.1027785, 38.6186905], [-9.1027368, 38.6187456], [-9.1026725, 38.6187924]]}, "properties": {"highway": "primary", "name": "Avenida Doutor Arlindo Vicente", "oneway": "yes", "ref": "EN 10-2"}}, {"type": "Feature", "geometry": {"type": "LineString", "coordinates": [[-9.08362, 38.6262896], [-9.0835975, 38.6262676], [-9.0835676, 38.626252], [-9.0835327, 38.626244], [-9.0834963, 38.6262448]]}, "properties": {"highway": "primary", "junction": "roundabout", "ref": "EN 10-2"}}, {"type": "Feature", "geometry": {"type": "LineString", "coordinates": [[-9.083633, 38.6263158], [-9.08362, 38.6262896]]}, "properties": {"highway": "primary", "junction": "roundabout", "ref": "EN 10-2"}}, {"type": "Feature", "geometry": {"type": "LineString", "coordinates": [[-9.0834006, 38.6263214], [-9.0834006, 38.6263499], [-9.0834117, 38.626377], [-9.0834345, 38.6264015], [-9.0834663, 38.6264189], [-9.0835035, 38.6264274]]}, "properties": {"highway": "primary", "junction": "roundabout", "ref": "EN 10-2"}}, {"type": "Feature", "geometry": {"type": "LineString", "coordinates": [[-9.0835423, 38.626426], [-9.0835784, 38.6264149], [-9.0836079, 38.6263952], [-9.0836267, 38.6263712], [-9.0836353, 38.6263439], [-9.083633, 38.6263158]]}, "properties": {"highway": "primary", "junction": "roundabout", "ref": "EN 10-2"}}, {"type": "Feature", "geometry": {"type": "LineString", "coordinates": [[-9.0990311, 38.6208299], [-9.0990086, 38.6208121], [-9.0989793, 38.620802], [-9.0989473, 38.6208009], [-9.098917, 38.6208089], [-9.0988925, 38.6208251], [-9.0988773, 38.6208471], [-9.0988733, 38.6208719], [-9.0988812, 38.6208962]]}, "properties": {"highway": "primary", "junction": "roundabout", "lanes": "2", "name": "Avenida General Humberto Delgado", "ref": "EN 10-2"}}, {"type": "Feature", "geometry": {"type": "LineString", "coordinates": [[-9.0991666, 38.620775], [-9.0991349, 38.6207878], [-9.0990837, 38.6208086], [-9.0990311, 38.6208299]]}, "properties": {"highway": "primary", "name": "Avenida Doutor Arlindo Vicente", "ref": "EN 10-2"}}, {"type": "Feature", "geometry": {"type": "LineString", "coordinates": [[-9.0989839, 38.6209324], [-9.0990082, 38.6209234], [-9.0990278, 38.620909], [-9.0990408, 38.6208905], [-9.0990459, 38.6208699], [-9.0990425, 38.620849], [-9.0990311, 38.6208299]]}, "properties": {"highway": "primary", "junction": "roundabout", "lanes": "2", "name": "Avenida General Humberto Delgado", "ref": "EN 10-2"}}, {"type": "Feature", "geometry": {"type": "LineString", "coordinates": [[-9.0988812, 38.6208962], [-9.0988946, 38.6209122], [-9.0989131, 38.6209246], [-9.0989354, 38.6209325], [-9.0989597, 38.6209352], [-9.0989839, 38.6209324]]}, "properties": {"highway": "primary", "junction": "roundabout", "lanes": "2", "name": "Avenida General Humberto Delgado", "ref": "EN 10-2"}}, {"type": "Feature", "geometry": {"type": "LineString", "coordinates": [[-9.1027852, 38.6186665], [-9.1027785, 38.6186905]]}, "properties": {"highway": "primary", "junction": "roundabout", "name": "Pra\u00e7a Gemina\u00e7\u00f5es", "ref": "EN 10-2"}}, {"type": "Feature", "geometry": {"type": "LineString", "coordinates": [[-9.0739035, 38.6078968], [-9.0738691, 38.607865]]}, "properties": {"embankment": "yes", "highway": "primary", "junction": "roundabout", "lanes": "2", "maxspeed": "50", "ref": "EN 10-2", "surface": "asphalt"}}, {"type": "Feature", "geometry": {"type": "LineString", "coordinates": [[-9.0735796, 38.6078344], [-9.0735369, 38.6078581], [-9.0735017, 38.6078884], [-9.0734742, 38.6079262], [-9.0734584, 38.607968], [-9.0734551, 38.6080115], [-9.0734645, 38.6080544]]}, "properties": {"embankment": "yes", "highway": "primary", "junction": "roundabout", "lanes": "2", "maxspeed": "50", "ref": "EN 10-2", "surface": "asphalt"}}, {"type": "Feature", "geometry": {"type": "LineString", "coordinates": [[-9.0738719, 38.6081354], [-9.0739069, 38.6081007], [-9.0739307, 38.6080605], [-9.0739421, 38.6080172], [-9.0739403, 38.6079729], [-9.0739272, 38.6079333], [-9.0739035, 38.6078968]]}, "properties": {"embankment": "yes", "highway": "primary", "junction": "roundabout", "lanes": "2", "lit": "yes", "maxspeed": "50", "ref": "EN 10-2", "surface": "asphalt"}}, {"type": "Feature", "geometry": {"type": "LineString", "coordinates": [[-9.0735189, 38.6081298], [-9.073561, 38.6081583], [-9.0736103, 38.6081786], [-9.0736642, 38.6081897], [-9.0737208, 38.6081908], [-9.0737762, 38.6081818], [-9.0738275, 38.608163]]}, "properties": {"embankment": "yes", "highway": "primary", "junction": "roundabout", "lanes": "2", "lit": "yes", "maxspeed": "50", "ref": "EN 10-2", "surface": "asphalt"}}, {"type": "Feature", "geometry": {"type": "LineString", "coordinates": [[-9.0738691, 38.607865], [-9.0738185, 38.6078329], [-9.0737511, 38.6078132], [-9.0736901, 38.6078118], [-9.0736341, 38.6078177], [-9.0735796, 38.6078344]]}, "properties": {"embankment": "yes", "highway": "primary", "junction": "roundabout", "lanes": "2", "maxspeed": "50", "ref": "EN 10-2", "surface": "asphalt"}}, {"type": "Feature", "geometry": {"type": "LineString", "coordinates": [[-9.0738275, 38.608163], [-9.0738719, 38.6081354]]}, "properties": {"embankment": "yes", "highway": "primary", "junction": "roundabout", "lanes": "2", "lit": "yes", "maxspeed": "50", "ref": "EN 10-2", "surface": "asphalt"}}, {"type": "Feature", "geometry": {"type": "LineString", "coordinates": [[-9.0834963, 38.6262448], [-9.0834619, 38.6262541], [-9.0834328, 38.6262712], [-9.0834117, 38.6262944], [-9.0834006, 38.6263214]]}, "properties": {"highway": "primary", "junction": "roundabout", "ref": "EN 10-2"}}, {"type": "Feature", "geometry": {"type": "LineString", "coordinates": [[-9.0734645, 38.6080544], [-9.0734862, 38.6080945], [-9.0735189, 38.6081298]]}, "properties": {"embankment": "yes", "highway": "primary", "junction": "roundabout", "lanes": "2", "maxspeed": "50", "ref": "EN 10-2", "surface": "asphalt"}}, {"type": "Feature", "geometry": {"type": "LineString", "coordinates": [[-9.0832873, 38.6264523], [-9.0832631, 38.6264704], [-9.0831629, 38.6265455]]}, "properties": {"highway": "primary", "lanes": "2", "name": "Avenida da Siderugia Nacional", "oneway": "no", "ref": "EN 10-2"}}, {"type": "Feature", "geometry": {"type": "LineString", "coordinates": [[-9.0742084, 38.6187094], [-9.074219, 38.6188362]]}, "properties": {"highway": "primary", "name": "Avenida da Siderugia Nacional", "oneway": "yes", "ref": "EN 10-2"}}, {"type": "Feature", "geometry": {"type": "LineString", "coordinates": [[-9.074219, 38.6188362], [-9.0743031, 38.6191511], [-9.0744067, 38.6193497], [-9.0745815, 38.6195928]]}, "properties": {"highway": "primary", "name": "Avenida da Siderugia Nacional", "oneway": "yes", "ref": "EN 10-2"}}, {"type": "Feature", "geometry": {"type": "LineString", "coordinates": [[-9.0742913, 38.6186375], [-9.0742466, 38.6183468], [-9.0741738, 38.6180373]]}, "properties": {"highway": "primary", "lanes": "1", "name": "Avenida da Siderugia Nacional", "oneway": "yes", "ref": "EN 10-2"}}, {"type": "Feature", "geometry": {"type": "LineString", "coordinates": [[-9.0885903, 38.6220097], [-9.0885243, 38.6220204], [-9.0883756, 38.622065], [-9.0882392, 38.6221325], [-9.0881107, 38.6222274], [-9.0880554, 38.6222774]]}, "properties": {"highway": "primary", "lanes": "2", "name": "Avenida General Humberto Delgado", "oneway": "no", "ref": "EN 10-2"}}, {"type": "Feature", "geometry": {"type": "LineString", "coordinates": [[-9.0889879, 38.6219651], [-9.0887008, 38.6219932], [-9.0886418, 38.6220011], [-9.0885903, 38.6220097]]}, "properties": {"highway": "primary", "lanes": "2", "name": "Avenida General Humberto Delgado", "oneway": "no", "ref": "EN 10-2"}}, {"type": "Feature", "geometry": {"type": "LineString", "coordinates": [[-9.098319, 38.6408387], [-9.0983499, 38.6408451]]}, "properties": {"highway": "primary", "junction": "roundabout", "lanes": "1", "ref": "EN 10-2", "surface": "asphalt"}}, {"type": "Feature", "geometry": {"type": "LineString", "coordinates": [[-9.0831629, 38.6265455], [-9.0826576, 38.6269959]]}, "properties": {"highway": "primary", "lanes": "2", "name": "Avenida da Siderugia Nacional", "oneway": "no", "ref": "EN 10-2"}}, {"type": "Feature", "geometry": {"type": "LineString", "coordinates": [[-9.073224, 38.6078078], [-9.0734141, 38.6079681], [-9.0734645, 38.6080544]]}, "properties": {"highway": "primary", "lanes": "2", "maxspeed": "50", "name": "Avenida 1 de Dezembro de 1640", "oneway": "yes", "ref": "EN 10-2", "surface": "asphalt"}}, {"type": "Feature", "geometry": {"type": "LineString", "coordinates": [[-9.0769421, 38.6231205], [-9.0766835, 38.6228983], [-9.0764722, 38.6227168], [-9.0761737, 38.6224032], [-9.0758998, 38.622007], [-9.075053, 38.6204594], [-9.075025, 38.6204082], [-9.0747354, 38.619879], [-9.0745815, 38.6195928]]}, "properties": {"highway": "primary", "lanes": "2", "maxspeed": "50", "name": "Avenida da Siderugia Nacional", "oneway": "no", "ref": "EN 10-2"}}, {"type": "Feature", "geometry": {"type": "LineString", "coordinates": [[-9.0771502, 38.6233009], [-9.0769421, 38.6231205]]}, "properties": {"highway": "primary", "lanes": "2", "maxspeed": "50", "name": "Avenida da Siderugia Nacional", "oneway": "no", "ref": "EN 10-2"}}]}