{"type": "FeatureCollection", "features": [{"type": "Feature", "geometry": {"type": "Point", "coordinates": [-8.5625764, 40.9438682]}, "properties": {"distance": "9", "highway": "milestone", "material": "stone", "ref": "EN 109-4"}}, {"type": "Feature", "geometry": {"type": "Point", "coordinates": [-8.5843072, 40.9576776]}, "properties": {"distance": "6", "highway": "milestone", "ref": "EN 109-4"}}, {"type": "Feature", "geometry": {"type": "Point", "coordinates": [-8.6000056, 40.9605312]}, "properties": {"distance": "4.6", "highway": "milestone", "ref": "EN 109-4"}}, {"type": "Feature", "geometry": {"type": "Point", "coordinates": [-8.5921325, 40.9590203]}, "properties": {"distance": "5.3", "highway": "milestone", "ref": "EN 109-4"}}, {"type": "Feature", "geometry": {"type": "Point", "coordinates": [-8.5504497, 40.9301348]}, "properties": {"distance": "11.1", "highway": "milestone", "ref": "EN 109-4"}}, {"type": "Feature", "geometry": {"type": "Point", "coordinates": [-8.5513064, 40.9307018]}, "properties": {"distance": "11", "highway": "milestone", "ref": "EN 109-4"}}, {"type": "Feature", "geometry": {"type": "Point", "coordinates": [-8.5595555, 40.935506]}, "properties": {"distance": "10", "highway": "milestone", "ref": "EN 109-4"}}, {"type": "Feature", "geometry": {"type": "Point", "coordinates": [-8.57267, 40.9582289]}, "properties": {"distance": "7", "highway": "milestone", "ref": "EN 109-4"}}, {"type": "Feature", "geometry": {"type": "Point", "coordinates": [-8.595324, 40.9597729]}, "properties": {"distance": "5", "highway": "milestone", "ref": "EN 109-4"}}, {"type": "Feature", "geometry": {"type": "Point", "coordinates": [-8.604048, 40.9647444]}, "properties": {"distance": "4", "highway": "milestone", "ref": "EN 109-4"}}, {"type": "Feature", "geometry": {"type": "Point", "coordinates": [-8.6097784, 40.9765542]}, "properties": {"distance": "2.6", "highway": "milestone", "ref": "EN 109-4"}}, {"type": "Feature", "geometry": {"type": "Point", "coordinates": [-8.5633455, 40.9455588]}, "properties": {"distance": "8.8", "highway": "milestone", "ref": "EN 109-4"}}, {"type": "Feature", "geometry": {"type": "Point", "coordinates": [-8.5941331, 40.9595024]}, "properties": {"distance": "5.1", "highway": "milestone", "ref": "EN 109-4"}}, {"type": "Feature", "geometry": {"type": "Point", "coordinates": [-8.5905061, 40.9585778]}, "properties": {"distance": "5.4", "highway": "milestone", "ref": "EN 109-4"}}, {"type": "Feature", "geometry": {"type": "LineString", "coordinates": [[-8.6294383, 40.9913168], [-8.6294991, 40.9912754], [-8.6295128, 40.9912666]]}, "properties": {"highway": "primary", "name": "Rua Central", "oneway": "yes", "ref": "EN 109-4", "surface": "asphalt"}}, {"type": "Feature", "geometry": {"type": "LineString", "coordinates": [[-8.601448, 40.9619334], [-8.6015405, 40.9620335]]}, "properties": {"highway": "primary", "lanes": "2", "name": "Avenida de Santiago", "oneway": "no", "ref": "EN 109-4", "smoothness": "intermediate", "source": "Bing", "surface": "asphalt"}}, {"type": "Feature", "geometry": {"type": "LineString", "coordinates": [[-8.5854178, 40.957853], [-8.5853524, 40.9578387]]}, "properties": {"highway": "primary", "lanes": "2", "lit": "yes", "maxspeed": "50", "name": "Avenida de Santiago", "ref": "EN 109-4", "smoothness": "excellent", "source": "BING", "surface": "asphalt"}}, {"type": "Feature", "geometry": {"type": "LineString", "coordinates": [[-8.5689191, 40.9569495], [-8.569017, 40.9569827]]}, "properties": {"bridge": "yes", "highway": "primary", "lanes": "2", "layer": "1", "lit": "yes", "maxspeed": "50", "maxweight:signed": "no", "name": "Rua de Beire", "ref": "EN 109-4", "source": "BING", "surface": "asphalt"}}]}