{"type": "FeatureCollection", "features": [{"type": "Feature", "geometry": {"type": "LineString", "coordinates": [[-9.0395976, 38.9024301], [-9.0395933, 38.9025055], [-9.0395994, 38.9025749], [-9.039616, 38.9026551], [-9.039656, 38.9028269], [-9.0397111, 38.9030486], [-9.0397207, 38.9031423], [-9.0397187, 38.9032088], [-9.039707, 38.903295], [-9.0396914, 38.9033512], [-9.0396756, 38.9033969], [-9.0394377, 38.9040261], [-9.0393389, 38.9042667], [-9.0392764, 38.9044472], [-9.0392367, 38.9045374], [-9.0391973, 38.9046267], [-9.0391094, 38.9047605], [-9.0389838, 38.9048981], [-9.0386619, 38.9052031], [-9.038508, 38.9053451], [-9.0384352, 38.9054122], [-9.0383531, 38.9054941], [-9.0383144, 38.9055442], [-9.0382771, 38.9056012], [-9.0382663, 38.9056316], [-9.0382591, 38.9056549], [-9.0382524, 38.9056929], [-9.0382517, 38.9057313], [-9.0382602, 38.9057849]]}, "properties": {"highway": "primary", "name": "Estrada de Arruda", "oneway": "no", "ref": "EN 10-6", "surface": "asphalt"}}, {"type": "Feature", "geometry": {"type": "LineString", "coordinates": [[-9.036906, 38.9082278], [-9.0362392, 38.9091261], [-9.0358652, 38.909627], [-9.0355823, 38.9100034], [-9.0354048, 38.9102368], [-9.035366, 38.9103023], [-9.0353418, 38.9103554], [-9.0353259, 38.9104062], [-9.0353145, 38.9104603], [-9.0353093, 38.9105131], [-9.0353107, 38.910563], [-9.0353145, 38.9105922], [-9.0353176, 38.9106119], [-9.035327, 38.9106587], [-9.0354475, 38.9111988], [-9.0356237, 38.9119736], [-9.0356523, 38.9121018], [-9.035717, 38.9123822], [-9.0357683, 38.9125913], [-9.0358007, 38.9127094], [-9.0358607, 38.9129123], [-9.0359016, 38.9130102], [-9.0359264, 38.9130709], [-9.0359835, 38.9131836], [-9.0360682, 38.9133187], [-9.0361431, 38.9134237], [-9.0363456, 38.9137222]]}, "properties": {"highway": "primary", "name": "Rua General Carlos de Caula", "oneway": "no", "ref": "EN 10-6", "surface": "asphalt"}}, {"type": "Feature", "geometry": {"type": "LineString", "coordinates": [[-9.0391265, 38.9177349], [-9.0393538, 38.9177371], [-9.0396444, 38.9177368], [-9.040001, 38.9177342], [-9.0403211, 38.9177331], [-9.040466, 38.9177349], [-9.0405954, 38.9177423], [-9.0407221, 38.9177581], [-9.0408411, 38.9177834], [-9.0409444, 38.9178193], [-9.0410021, 38.9178468], [-9.041053, 38.9178758], [-9.0411536, 38.9179458], [-9.0412297, 38.9179986], [-9.0413038, 38.9180427], [-9.0413839, 38.9180808], [-9.0414675, 38.9181125], [-9.0415606, 38.9181374], [-9.0416444, 38.918152], [-9.0417299, 38.9181617], [-9.0418272, 38.9181668], [-9.0419187, 38.9181677], [-9.042078, 38.9181622], [-9.0423496, 38.9181487], [-9.0425735, 38.9181371], [-9.0426996, 38.9181377], [-9.0427955, 38.9181482], [-9.0428612, 38.9181619], [-9.0429275, 38.9181815], [-9.0430201, 38.9182188], [-9.0431076, 38.9182659], [-9.0431928, 38.9183192], [-9.0433252, 38.9184066], [-9.0434027, 38.9184469], [-9.0434865, 38.9184778], [-9.0435642, 38.9184961], [-9.0437135, 38.918521], [-9.0442083, 38.9186026], [-9.0445446, 38.9186576], [-9.0447012, 38.9186797], [-9.0448048, 38.91869], [-9.0448879, 38.9186954], [-9.0450193, 38.918699], [-9.0451725, 38.9187041], [-9.0453513, 38.9187186], [-9.0455176, 38.9187374], [-9.0455933, 38.9187477], [-9.0456792, 38.9187658], [-9.045766, 38.9187922], [-9.0458555, 38.9188284], [-9.0459229, 38.918864], [-9.0462005, 38.9190396], [-9.0477187, 38.919891], [-9.0490919, 38.9205588], [-9.0496177, 38.920805], [-9.0498215, 38.9208509], [-9.0501219, 38.920876], [-9.0505672, 38.920876], [-9.0509373, 38.920876], [-9.051227, 38.9209135], [-9.0515542, 38.9210095], [-9.0522194, 38.9212307], [-9.0523237, 38.9212825], [-9.0526647, 38.9214519], [-9.0530348, 38.9216481], [-9.0538073, 38.9220279], [-9.0540165, 38.9221447], [-9.0541291, 38.9222491], [-9.0542901, 38.9224703], [-9.0544778, 38.9228209], [-9.054789, 38.9233926], [-9.0549992, 38.9237688]]}, "properties": {"highway": "primary", "lanes": "2", "name": "Rua General Carlos de Caula", "oneway": "no", "ref": "EN 10-6", "surface": "asphalt"}}, {"type": "Feature", "geometry": {"type": "LineString", "coordinates": [[-9.0592153, 38.9262735], [-9.0592495, 38.9263433], [-9.0592952, 38.926465], [-9.0593678, 38.9266503], [-9.059442, 38.9267913], [-9.0595061, 38.9268822], [-9.0595755, 38.9269658], [-9.0596322, 38.9270341], [-9.0596944, 38.9271175], [-9.0597313, 38.9271782], [-9.0597738, 38.927264], [-9.0598021, 38.927333], [-9.0598486, 38.9274837], [-9.0598781, 38.927606], [-9.0599215, 38.9278326], [-9.0599758, 38.9281585], [-9.0600624, 38.9289683], [-9.0600803, 38.9291577], [-9.0601276, 38.9296251], [-9.0602239, 38.9305619], [-9.0602482, 38.9308221], [-9.0602546, 38.9309059], [-9.0602539, 38.9309578], [-9.0602494, 38.9309931], [-9.0602392, 38.9310275], [-9.0602204, 38.9310866], [-9.0601802, 38.9311466], [-9.0601347, 38.9311981], [-9.0600333, 38.9312989], [-9.0599094, 38.9313948], [-9.059257, 38.9318976], [-9.0591009, 38.9320257], [-9.0590478, 38.9320692], [-9.0589819, 38.9321319], [-9.0589264, 38.9321908]]}, "properties": {"highway": "primary", "name": "Rua Jos\u00e9 Maria das Neves Costa", "oneway": "no", "ref": "EN 10-6", "surface": "asphalt"}}, {"type": "Feature", "geometry": {"type": "LineString", "coordinates": [[-9.0390253, 38.9177328], [-9.0391265, 38.9177349]]}, "properties": {"bridge": "yes", "highway": "primary", "layer": "1", "maxweight:signed": "no", "name": "Rua General Carlos de Caula", "oneway": "no", "ref": "EN 10-6", "surface": "asphalt"}}, {"type": "Feature", "geometry": {"type": "LineString", "coordinates": [[-9.0364651, 38.9138918], [-9.036625, 38.9141186], [-9.0366572, 38.914273], [-9.0366626, 38.9145235], [-9.0366197, 38.9148783], [-9.0367055, 38.9153291], [-9.0368825, 38.9156463], [-9.0370435, 38.9160094], [-9.0373063, 38.9162348], [-9.0375048, 38.9164393], [-9.0376175, 38.9166981], [-9.0376389, 38.9168859], [-9.037714, 38.9169736], [-9.0379071, 38.9170403], [-9.0382223, 38.917136], [-9.0383644, 38.9171928], [-9.0384576, 38.9172465], [-9.0385307, 38.9172982], [-9.0385837, 38.9173613], [-9.0386125, 38.9174087], [-9.0386568, 38.9175006], [-9.0386964, 38.9175856], [-9.0387413, 38.9176342], [-9.0387929, 38.9176727], [-9.0388573, 38.9177031], [-9.0389176, 38.9177208], [-9.0389693, 38.917729], [-9.0390253, 38.9177328]]}, "properties": {"highway": "primary", "lanes": "2", "name": "Rua General Carlos de Caula", "oneway": "no", "ref": "EN 10-6", "surface": "asphalt"}}, {"type": "Feature", "geometry": {"type": "LineString", "coordinates": [[-9.0369614, 38.9081488], [-9.036906, 38.9082278]]}, "properties": {"bridge": "yes", "highway": "primary", "layer": "1", "name": "Rua General Carlos de Caula", "oneway": "no", "ref": "EN 10-6"}}, {"type": "Feature", "geometry": {"type": "LineString", "coordinates": [[-9.0565667, 38.9365044], [-9.0565974, 38.9366276], [-9.0566236, 38.9367058], [-9.0566558, 38.9367763], [-9.0567055, 38.9368413], [-9.0567745, 38.9369087], [-9.0568579, 38.9369742], [-9.0569577, 38.9370526], [-9.0572936, 38.9372972], [-9.0579595, 38.9378005], [-9.0583035, 38.9380618], [-9.0584066, 38.9381545], [-9.0584602, 38.9382116], [-9.0585043, 38.9382707], [-9.0585367, 38.9383321], [-9.0585601, 38.9383939], [-9.0585806, 38.9384622], [-9.0586662, 38.9387751], [-9.0586884, 38.938841], [-9.0588073, 38.9390703], [-9.0589351, 38.9393167], [-9.0592999, 38.9400677], [-9.0593643, 38.9403014], [-9.059375, 38.9411025], [-9.0594072, 38.9418035], [-9.0594713, 38.9428021], [-9.0595583, 38.9444486], [-9.0596246, 38.9456387], [-9.059637, 38.9458069], [-9.0596468, 38.9458833], [-9.0596651, 38.9459763], [-9.059689, 38.9460601], [-9.0597516, 38.9462355], [-9.0600093, 38.9469598], [-9.0607473, 38.9490455], [-9.0608971, 38.9494645], [-9.0609313, 38.9495857], [-9.060946, 38.9496524], [-9.0609414, 38.9497326], [-9.0609097, 38.9498183], [-9.0608663, 38.9498974]]}, "properties": {"highway": "primary", "lanes": "2", "name": "Rua Jos\u00e9 Maria das Neves Costa", "oneway": "no", "ref": "EN 10-6", "surface": "asphalt"}}, {"type": "Feature", "geometry": {"type": "LineString", "coordinates": [[-9.0565452, 38.9363892], [-9.0565667, 38.9365044]]}, "properties": {"bridge": "yes", "highway": "primary", "layer": "1", "name": "Rua Jos\u00e9 Maria das Neves Costa", "oneway": "no", "ref": "EN 10-6"}}, {"type": "Feature", "geometry": {"type": "LineString", "coordinates": [[-9.0396114, 38.9021997], [-9.0395924, 38.9023001], [-9.0395937, 38.9023328], [-9.0395976, 38.9024301]]}, "properties": {"highway": "primary", "name": "Estrada de Arruda", "oneway": "yes", "ref": "EN 10-6"}}, {"type": "Feature", "geometry": {"type": "LineString", "coordinates": [[-9.0395976, 38.9024301], [-9.0396483, 38.9023773], [-9.0396835, 38.9023548], [-9.0397744, 38.9023151]]}, "properties": {"highway": "primary", "name": "Estrada de Arruda", "oneway": "yes", "ref": "EN 10-6"}}, {"type": "Feature", "geometry": {"type": "LineString", "coordinates": [[-9.0608663, 38.9498974], [-9.060789, 38.9499632], [-9.0607213, 38.9500044], [-9.0606387, 38.9500361], [-9.0601364, 38.950194], [-9.05945, 38.9504028], [-9.058759, 38.9506062], [-9.0584945, 38.9506864], [-9.058314, 38.9507577], [-9.0581979, 38.9508181], [-9.0580297, 38.9509322], [-9.0578235, 38.9510917], [-9.0576643, 38.9512157]]}, "properties": {"highway": "primary", "name": "Rua Jos\u00e9 Maria das Neves Costa", "oneway": "no", "ref": "EN 10-6"}}, {"type": "Feature", "geometry": {"type": "LineString", "coordinates": [[-9.0363456, 38.9137222], [-9.0364651, 38.9138918]]}, "properties": {"highway": "primary", "name": "Rua General Carlos de Caula", "oneway": "no", "ref": "EN 10-6", "surface": "asphalt"}}, {"type": "Feature", "geometry": {"type": "LineString", "coordinates": [[-9.0589264, 38.9321908], [-9.0588821, 38.9322508], [-9.0588284, 38.9323312], [-9.0587901, 38.932411], [-9.0587762, 38.9324479]]}, "properties": {"highway": "primary", "name": "Rua Jos\u00e9 Maria das Neves Costa", "oneway": "no", "ref": "EN 10-6", "surface": "asphalt"}}, {"type": "Feature", "geometry": {"type": "LineString", "coordinates": [[-9.0587762, 38.9324479], [-9.0587534, 38.9325084], [-9.0586105, 38.9329132], [-9.0585367, 38.9330922], [-9.0584817, 38.9332127], [-9.058428, 38.9333019], [-9.0583596, 38.9333822], [-9.058272, 38.9334686], [-9.05783, 38.9338588], [-9.0576985, 38.9339722], [-9.0576401, 38.9340431], [-9.0576073, 38.9340979], [-9.0575833, 38.934152], [-9.057565, 38.9342225], [-9.0575082, 38.9344931], [-9.057449, 38.9347243], [-9.0574007, 38.9348615], [-9.05738, 38.9349559], [-9.0573706, 38.9350357], [-9.057358, 38.9351388], [-9.057337, 38.9352256], [-9.0572921, 38.9353826], [-9.0572641, 38.9354554], [-9.0572177, 38.9355354], [-9.0571366, 38.9356355], [-9.0570401, 38.9357173], [-9.0568797, 38.9358358], [-9.0567223, 38.9359567], [-9.0566464, 38.9360278], [-9.056588, 38.9361091], [-9.0565473, 38.9361972], [-9.0565324, 38.9362761], [-9.056538, 38.9363504], [-9.0565452, 38.9363892]]}, "properties": {"highway": "primary", "lanes": "2", "name": "Rua Jos\u00e9 Maria das Neves Costa", "oneway": "no", "ref": "EN 10-6", "surface": "asphalt"}}, {"type": "Feature", "geometry": {"type": "LineString", "coordinates": [[-9.0387358, 38.906364], [-9.0387442, 38.9063953], [-9.0387474, 38.9064267], [-9.0387467, 38.9064603], [-9.038741, 38.9064978], [-9.038731, 38.9065295], [-9.0387178, 38.90656], [-9.0387039, 38.9065842], [-9.0386785, 38.9066172], [-9.0386168, 38.9066854], [-9.0385424, 38.9067612], [-9.0384402, 38.9068625], [-9.0383391, 38.9069624], [-9.0382631, 38.9070351], [-9.0381909, 38.9070996], [-9.0381537, 38.907131], [-9.0380232, 38.9072333], [-9.0379683, 38.9072715], [-9.0378978, 38.9073196], [-9.0377298, 38.9074305], [-9.0375388, 38.907555], [-9.0374481, 38.9076165], [-9.0373873, 38.9076606], [-9.0373166, 38.9077163], [-9.0372609, 38.9077643], [-9.0372073, 38.9078178], [-9.0371736, 38.9078558], [-9.0371362, 38.9079035], [-9.0370337, 38.9080481], [-9.0369614, 38.9081488]]}, "properties": {"highway": "primary", "name": "Rua General Carlos de Caula", "oneway": "no", "ref": "EN 10-6", "surface": "asphalt"}}, {"type": "Feature", "geometry": {"type": "LineString", "coordinates": [[-9.0382602, 38.9057849], [-9.0382774, 38.9058321], [-9.0382952, 38.9058643], [-9.0383138, 38.9058923], [-9.038394, 38.9059903], [-9.0384251, 38.9060244], [-9.038655, 38.9062434], [-9.0386824, 38.9062713], [-9.0386974, 38.9062899], [-9.0387105, 38.9063112], [-9.0387213, 38.9063319], [-9.0387358, 38.906364]]}, "properties": {"highway": "primary", "name": "Estrada de Arruda", "oneway": "no", "ref": "EN 10-6"}}, {"type": "Feature", "geometry": {"type": "LineString", "coordinates": [[-9.0549992, 38.9237688], [-9.0550692, 38.9238724], [-9.0551504, 38.9239718], [-9.0552409, 38.9240595], [-9.0553107, 38.9241151], [-9.0553867, 38.9241669], [-9.0555978, 38.9242891], [-9.0557743, 38.9243852], [-9.0559307, 38.92446], [-9.0560486, 38.9245042], [-9.0561532, 38.924536], [-9.0562921, 38.9245677], [-9.0564992, 38.9246059], [-9.0567639, 38.9246543], [-9.0569401, 38.9246938], [-9.0570071, 38.9247139], [-9.0570826, 38.9247395], [-9.0571593, 38.9247705], [-9.0572192, 38.9247979], [-9.0572507, 38.9248116], [-9.0573575, 38.9248772], [-9.0574777, 38.9249561], [-9.0579726, 38.9252997], [-9.058165, 38.9254339], [-9.0584311, 38.9256195], [-9.058742, 38.9258348], [-9.0589517, 38.9259839], [-9.0590496, 38.9260642], [-9.0591036, 38.9261198], [-9.059155, 38.9261799], [-9.0591853, 38.9262203], [-9.0592153, 38.9262735]]}, "properties": {"highway": "primary", "name": "Rua General Carlos de Caula", "oneway": "no", "ref": "EN 10-6", "surface": "asphalt"}}]}