{"type": "FeatureCollection", "features": [{"type": "Feature", "geometry": {"type": "LineString", "coordinates": [[-8.5834688, 39.6568839], [-8.5839799, 39.657152], [-8.584103, 39.6572264], [-8.5842418, 39.6573307]]}, "properties": {"highway": "primary", "name": "Avenida Dom Nuno \u00c1lvares Pereira", "oneway": "yes", "ref": "EN 113"}}, {"type": "Feature", "geometry": {"type": "LineString", "coordinates": [[-8.554395, 39.6571872], [-8.5543426, 39.6572243], [-8.5536811, 39.6576921], [-8.5516756, 39.6591454], [-8.5514947, 39.6593052], [-8.5506189, 39.6601914], [-8.5504667, 39.6602897], [-8.5503145, 39.6603733], [-8.5500273, 39.6604665], [-8.5492274, 39.6606854], [-8.549051, 39.6607251], [-8.5489171, 39.660748], [-8.5487775, 39.660768], [-8.5486816, 39.6607783], [-8.5485335, 39.6607842], [-8.5484674, 39.6607823], [-8.5484088, 39.6607736], [-8.5483811, 39.660767], [-8.5483099, 39.6607446], [-8.5481622, 39.6606901], [-8.548101, 39.6606657], [-8.5480136, 39.6606166], [-8.5479065, 39.6605545], [-8.5478312, 39.6605019], [-8.5477536, 39.6604403], [-8.5476517, 39.6603493], [-8.5475453, 39.6602378], [-8.547488, 39.6601778]]}, "properties": {"highway": "primary", "lanes": "2", "ref": "EN 113", "surface": "asphalt"}}, {"type": "Feature", "geometry": {"type": "LineString", "coordinates": [[-8.7616267, 39.733612], [-8.7614775, 39.7335363], [-8.7612566, 39.7334397], [-8.7611738, 39.7333941], [-8.7610986, 39.7333463]]}, "properties": {"highway": "primary", "lanes": "1", "lit": "yes", "name": "Rua de Tomar", "oneway": "yes", "ref": "EN 113", "surface": "asphalt"}}, {"type": "Feature", "geometry": {"type": "LineString", "coordinates": [[-8.7610165, 39.7335865], [-8.7611929, 39.7335685], [-8.761319, 39.7335701], [-8.7614029, 39.7335754], [-8.7615218, 39.7335879], [-8.7616267, 39.733612]]}, "properties": {"highway": "primary", "lanes": "1", "lit": "yes", "name": "Rua de Tomar", "oneway": "yes", "ref": "EN 113", "surface": "asphalt"}}, {"type": "Feature", "geometry": {"type": "LineString", "coordinates": [[-8.760723, 39.733308], [-8.7605229, 39.7333428], [-8.7604659, 39.7333498], [-8.760417, 39.7333515], [-8.7603526, 39.7333516], [-8.7602965, 39.7333493]]}, "properties": {"highway": "primary", "lanes": "1", "lit": "yes", "name": "Rua de Tomar", "oneway": "yes", "ref": "EN 113", "surface": "asphalt"}}, {"type": "Feature", "geometry": {"type": "LineString", "coordinates": [[-8.7510415, 39.734034], [-8.7514037, 39.734128], [-8.7515574, 39.7341635]]}, "properties": {"highway": "primary", "lanes": "1", "lit": "yes", "name": "Rua de Tomar", "oneway": "yes", "ref": "EN 113", "surface": "asphalt", "turn:lanes": "through;right"}}, {"type": "Feature", "geometry": {"type": "LineString", "coordinates": [[-8.6954114, 39.7079555], [-8.6953003, 39.7079103], [-8.6951164, 39.707829], [-8.6949869, 39.7077546], [-8.6948958, 39.7076893], [-8.6947074, 39.7075251], [-8.6945754, 39.7073773], [-8.6944353, 39.7071939], [-8.6942657, 39.7069372], [-8.6937775, 39.7062543], [-8.6937366, 39.706197], [-8.6936607, 39.7060806], [-8.6935713, 39.7059255], [-8.6933061, 39.7053468], [-8.6930069, 39.7047647], [-8.692711, 39.7042277], [-8.6925896, 39.704018], [-8.6924248, 39.7038065], [-8.6921426, 39.7034844], [-8.6920118, 39.703343], [-8.6918762, 39.7032032], [-8.691718, 39.7030738], [-8.6916074, 39.7030045], [-8.6909136, 39.7026922], [-8.6907288, 39.7026054], [-8.6906019, 39.7025301], [-8.6904471, 39.7024135], [-8.6901129, 39.7020667], [-8.6899882, 39.7019491], [-8.6899323, 39.7018964], [-8.6897305, 39.7017401], [-8.6895324, 39.701623], [-8.689398, 39.7015484], [-8.6891841, 39.7014721], [-8.6889202, 39.701411], [-8.6886772, 39.7013762], [-8.6884504, 39.70136], [-8.687763, 39.7013421], [-8.6877303, 39.7013412], [-8.6874874, 39.7013155], [-8.687041, 39.7012335], [-8.6868106, 39.7011841], [-8.6866469, 39.7011386], [-8.6865499, 39.701095], [-8.6864775, 39.7010529], [-8.6864051, 39.701003], [-8.6863013, 39.7009149], [-8.6862066, 39.7008329], [-8.6861381, 39.7007632], [-8.686085, 39.7006974], [-8.6860353, 39.7006131], [-8.686005, 39.7005421], [-8.6858677, 39.7001638], [-8.6857051, 39.6997297], [-8.6856454, 39.6995743], [-8.6855926, 39.6994975], [-8.6855295, 39.6994286], [-8.6854443, 39.6993602], [-8.6853672, 39.6993014], [-8.6852902, 39.699263], [-8.6850388, 39.6991502], [-8.6845883, 39.6989996], [-8.6844424, 39.6989313], [-8.6843272, 39.698871], [-8.6840172, 39.6987082], [-8.683749, 39.6985896], [-8.6836174, 39.698546], [-8.6835115, 39.6985183], [-8.682934, 39.6983638], [-8.6826597, 39.6982754], [-8.6825487, 39.6982428], [-8.6824532, 39.6982181], [-8.6820131, 39.6981504], [-8.6818345, 39.6981205], [-8.6817507, 39.6981012], [-8.6817052, 39.6980816], [-8.681652, 39.6980521], [-8.6815872, 39.6980058], [-8.6815353, 39.6979536], [-8.6813626, 39.6977345], [-8.6811546, 39.697472], [-8.6808799, 39.6971943], [-8.6807608, 39.6970865], [-8.6806777, 39.6969867], [-8.6806347, 39.6969133], [-8.6805931, 39.6968031], [-8.6804103, 39.696079], [-8.6803799, 39.6959947], [-8.6803523, 39.6959346], [-8.6803244, 39.6958769], [-8.6802862, 39.6958271], [-8.6802267, 39.6957676], [-8.6801569, 39.6957042], [-8.679392, 39.6951616], [-8.6791821, 39.6949901], [-8.6791251, 39.6949443], [-8.679005, 39.6948646], [-8.6789538, 39.6948266], [-8.6786933, 39.6946334], [-8.6785611, 39.6945288], [-8.6784802, 39.6944439], [-8.6784354, 39.6943633], [-8.678406, 39.6942945], [-8.6783146, 39.6939965], [-8.6782798, 39.6939079], [-8.6782348, 39.6938312], [-8.6781794, 39.6937377], [-8.6781241, 39.69366], [-8.6777432, 39.6931825], [-8.6776373, 39.6930673], [-8.6775365, 39.6929798], [-8.6772566, 39.6927946], [-8.6766262, 39.6924201], [-8.6753966, 39.6916847]]}, "properties": {"highway": "primary", "lanes": "2", "lit": "no", "name": "Rua de Tomar", "ref": "EN 113", "surface": "asphalt"}}, {"type": "Feature", "geometry": {"type": "LineString", "coordinates": [[-8.7577579, 39.733385], [-8.7570393, 39.7335881], [-8.7566826, 39.7336937], [-8.7564584, 39.7337677]]}, "properties": {"highway": "primary", "lanes": "2", "lit": "yes", "name": "Rua de Tomar", "ref": "EN 113", "surface": "asphalt"}}, {"type": "Feature", "geometry": {"type": "LineString", "coordinates": [[-8.7616267, 39.733612], [-8.7618695, 39.7337141], [-8.7620842, 39.7338108], [-8.7623842, 39.7339379], [-8.7626667, 39.7340748], [-8.7628505, 39.7341814], [-8.7631416, 39.7343729], [-8.7634014, 39.7345419], [-8.7635271, 39.7346105], [-8.7636619, 39.7346721], [-8.7639516, 39.7347732], [-8.7641474, 39.7348289], [-8.7643754, 39.7348846], [-8.7648023, 39.7349906], [-8.7653699, 39.7351342], [-8.7654939, 39.7351672], [-8.7661346, 39.7353325], [-8.766358, 39.735379], [-8.7665607, 39.7354075], [-8.766773, 39.7354328], [-8.7669232, 39.7354479], [-8.7676941, 39.735533]]}, "properties": {"highway": "primary", "lanes": "2", "lit": "yes", "maxspeed": "50", "name": "Rua de Tomar", "ref": "EN 113", "surface": "asphalt"}}, {"type": "Feature", "geometry": {"type": "LineString", "coordinates": [[-8.7564584, 39.7337677], [-8.7562406, 39.7338077], [-8.755627, 39.7339617], [-8.7553389, 39.7340315], [-8.7551136, 39.734084]]}, "properties": {"highway": "primary", "lanes": "1", "lit": "yes", "name": "Rua de Tomar", "oneway": "yes", "ref": "EN 113", "surface": "asphalt"}}, {"type": "Feature", "geometry": {"type": "LineString", "coordinates": [[-8.6095872, 39.653345], [-8.6097716, 39.6533573], [-8.6098364, 39.6533616]]}, "properties": {"highway": "primary", "lanes": "1", "oneway": "yes", "ref": "EN 113", "surface": "asphalt"}}, {"type": "Feature", "geometry": {"type": "LineString", "coordinates": [[-8.4382076, 39.6213861], [-8.4380946, 39.6212911], [-8.4379812, 39.6212006]]}, "properties": {"highway": "primary", "lanes": "1", "name": "Rua de Leiria", "oneway": "yes", "ref": "EN 113", "surface": "asphalt"}}, {"type": "Feature", "geometry": {"type": "LineString", "coordinates": [[-8.437975, 39.6214502], [-8.4379307, 39.6214945], [-8.4379176, 39.6215182]]}, "properties": {"highway": "primary", "junction": "roundabout", "lanes": "2", "ref": "EN 113", "surface": "asphalt"}}, {"type": "Feature", "geometry": {"type": "LineString", "coordinates": [[-8.770625, 39.736702], [-8.7711896, 39.7370138]]}, "properties": {"bridge": "yes", "highway": "primary", "lanes": "1", "layer": "1", "lit": "yes", "maxspeed": "50", "name": "Rua de Tomar", "oneway": "yes", "ref": "EN 113", "surface": "asphalt"}}, {"type": "Feature", "geometry": {"type": "LineString", "coordinates": [[-8.5842578, 39.6571062], [-8.5842194, 39.6571455], [-8.5841974, 39.6571916], [-8.5841939, 39.6572407], [-8.5842092, 39.6572885], [-8.5842418, 39.6573307], [-8.5842902, 39.6573644], [-8.5843493, 39.6573854], [-8.5844139, 39.657392], [-8.5844814, 39.6573826], [-8.5845418, 39.6573574], [-8.5845888, 39.6573189], [-8.5846179, 39.657271], [-8.5846257, 39.6572139], [-8.5846079, 39.657158]]}, "properties": {"highway": "primary", "junction": "roundabout", "name": "Rotunda do Ribeirinho", "ref": "EN 113", "surface": "asphalt"}}, {"type": "Feature", "geometry": {"type": "LineString", "coordinates": [[-8.5915487, 39.6541556], [-8.5915714, 39.6541994], [-8.5916138, 39.6542369], [-8.5916704, 39.6542611], [-8.5916856, 39.654263], [-8.5917342, 39.654269], [-8.5917977, 39.6542597], [-8.5918533, 39.6542342], [-8.59189, 39.6542014], [-8.5919123, 39.6541617], [-8.5919183, 39.6541186], [-8.5919073, 39.6540761], [-8.5918902, 39.6540489], [-8.5918661, 39.6540251], [-8.5918194, 39.653998], [-8.591764, 39.6539833], [-8.5917055, 39.6539825], [-8.5916471, 39.6539966], [-8.5915977, 39.6540245], [-8.5915626, 39.6540631], [-8.5915457, 39.6541085], [-8.5915487, 39.6541556]]}, "properties": {"highway": "primary", "junction": "roundabout", "ref": "EN 113", "surface": "asphalt"}}, {"type": "Feature", "geometry": {"type": "LineString", "coordinates": [[-8.5915714, 39.6541994], [-8.5914113, 39.6542667], [-8.5912975, 39.6543143], [-8.5911944, 39.6543493], [-8.5911064, 39.6543725], [-8.5909374, 39.6543974], [-8.5905764, 39.6544086], [-8.5904171, 39.6544069], [-8.5902752, 39.6544163], [-8.5901454, 39.6544421], [-8.5900273, 39.654477]]}, "properties": {"highway": "primary", "lanes": "1", "name": "Rua Doutor Joaquim Francisco Alves", "oneway": "no", "ref": "EN 113", "surface": "asphalt"}}, {"type": "Feature", "geometry": {"type": "LineString", "coordinates": [[-8.5796297, 39.6567742], [-8.57952, 39.6567851], [-8.579245, 39.6568028], [-8.5792196, 39.6568044], [-8.579185, 39.6568061], [-8.5790334, 39.6568131], [-8.5784823, 39.6568384], [-8.5783052, 39.6568465], [-8.5781821, 39.6568539], [-8.5772597, 39.656909], [-8.5770786, 39.6569186], [-8.5770498, 39.6569211], [-8.5769745, 39.656925], [-8.5764587, 39.6569513], [-8.5762575, 39.6569677], [-8.5758188, 39.6570036], [-8.5754877, 39.6570521], [-8.5752516, 39.6570854], [-8.575114, 39.6571048], [-8.5749037, 39.6571344], [-8.5738205, 39.6573058], [-8.57355, 39.6573438]]}, "properties": {"access": "yes", "bicycle": "yes", "cycleway": "no", "foot": "yes", "highway": "primary", "lanes": "2", "maxspeed": "50", "name": "Avenida Dom Nuno \u00c1lvares Pereira", "oneway": "no", "ref": "EN 113", "surface": "asphalt"}}, {"type": "Feature", "geometry": {"type": "LineString", "coordinates": [[-8.5691297, 39.6561179], [-8.5688955, 39.6560784], [-8.5684102, 39.6560237], [-8.5679092, 39.6559953], [-8.5676193, 39.6559882], [-8.5666097, 39.6559866], [-8.5664606, 39.6559668], [-8.5662889, 39.6559668], [-8.565731, 39.6559024], [-8.564738, 39.6557476], [-8.564415, 39.655727], [-8.5641814, 39.6557507], [-8.5633668, 39.6558089], [-8.5626127, 39.6558801], [-8.5619355, 39.6559551]]}, "properties": {"highway": "primary", "lanes": "2", "name": "Avenida Dom Nuno \u00c1lvares Pereira", "ref": "EN 113", "surface": "asphalt"}}, {"type": "Feature", "geometry": {"type": "LineString", "coordinates": [[-8.5819658, 39.6565973], [-8.5818359, 39.6566666]]}, "properties": {"highway": "primary", "oneway": "yes", "ref": "EN 113"}}, {"type": "Feature", "geometry": {"type": "LineString", "coordinates": [[-8.5818359, 39.6566666], [-8.5819891, 39.6566578]]}, "properties": {"highway": "primary", "oneway": "yes", "ref": "EN 113"}}, {"type": "Feature", "geometry": {"type": "LineString", "coordinates": [[-8.5821527, 39.6566618], [-8.5823408, 39.6566491]]}, "properties": {"highway": "primary", "oneway": "yes", "ref": "EN 113"}}, {"type": "Feature", "geometry": {"type": "LineString", "coordinates": [[-8.57355, 39.6573438], [-8.5733621, 39.6573011], [-8.573214, 39.6572675], [-8.5719241, 39.6568287], [-8.5716757, 39.6567434], [-8.5713438, 39.6566295], [-8.5709971, 39.6565105], [-8.5706072, 39.6563969], [-8.570277, 39.6563196], [-8.570136, 39.6562405]]}, "properties": {"highway": "primary", "lanes": "2", "maxspeed": "50", "name": "Avenida Dom Nuno \u00c1lvares Pereira", "ref": "EN 113", "surface": "asphalt"}}, {"type": "Feature", "geometry": {"type": "LineString", "coordinates": [[-8.5823408, 39.6566491], [-8.58218, 39.6565948]]}, "properties": {"highway": "primary", "oneway": "yes", "ref": "EN 113"}}, {"type": "Feature", "geometry": {"type": "LineString", "coordinates": [[-8.4957893, 39.6595207], [-8.4955358, 39.6595606], [-8.4953268, 39.6595787]]}, "properties": {"bridge": "yes", "highway": "primary", "lanes": "2", "layer": "1", "maxspeed": "50", "maxspeed:type": "sign", "ref": "EN 113", "surface": "asphalt"}}, {"type": "Feature", "geometry": {"type": "LineString", "coordinates": [[-8.4953268, 39.6595787], [-8.495264, 39.6595706], [-8.4952012, 39.659547], [-8.4950735, 39.659478], [-8.4948647, 39.6592971], [-8.4947574, 39.6591098], [-8.4944525, 39.6582943], [-8.494237, 39.6578622], [-8.4938879, 39.6572802], [-8.4938107, 39.6571298], [-8.493723, 39.6568146], [-8.493718, 39.6565209], [-8.4937727, 39.6557277], [-8.4937598, 39.655503], [-8.4937168, 39.6552702], [-8.4936746, 39.6550873], [-8.4935559, 39.6546907], [-8.4935234, 39.6546032], [-8.4934229, 39.6543011], [-8.4932867, 39.6539778], [-8.4932717, 39.6539324]]}, "properties": {"highway": "primary", "lanes": "2", "maxspeed": "50", "maxspeed:type": "sign", "oneway": "no", "ref": "EN 113", "source": "Bing", "surface": "asphalt"}}, {"type": "Feature", "geometry": {"type": "LineString", "coordinates": [[-8.7712513, 39.7369449], [-8.7706772, 39.7366355]]}, "properties": {"bridge": "yes", "highway": "primary", "lanes": "1", "layer": "1", "maxspeed": "50", "name": "Rua de Tomar", "oneway": "yes", "ref": "EN 113", "surface": "asphalt"}}, {"type": "Feature", "geometry": {"type": "LineString", "coordinates": [[-8.7706772, 39.7366355], [-8.76993, 39.7362614], [-8.76975, 39.7361591]]}, "properties": {"highway": "primary", "lanes": "1", "maxspeed": "50", "name": "Rua de Tomar", "oneway": "yes", "ref": "EN 113", "surface": "asphalt"}}, {"type": "Feature", "geometry": {"type": "LineString", "coordinates": [[-8.7681473, 39.7357133], [-8.7681644, 39.7357677], [-8.7682024, 39.7358154], [-8.7682576, 39.7358518], [-8.7683248, 39.7358735], [-8.7683973, 39.7358781], [-8.7684682, 39.7358655], [-8.7685252, 39.7358419], [-8.768568, 39.7358062], [-8.7685952, 39.73577], [-8.7686108, 39.7357299], [-8.768614, 39.7356881], [-8.7686035, 39.7356446], [-8.7685796, 39.7356044], [-8.7685437, 39.7355699], [-8.7684979, 39.7355431], [-8.7684647, 39.7355309], [-8.7684294, 39.7355228], [-8.7683929, 39.7355191], [-8.7683561, 39.7355198], [-8.7682815, 39.7355357], [-8.7682178, 39.7355694], [-8.768176, 39.7356113], [-8.7681518, 39.7356606], [-8.7681473, 39.7357133]]}, "properties": {"highway": "primary", "junction": "roundabout", "lanes": "2", "lit": "yes", "maxspeed": "50", "name": "Rua de Tomar", "ref": "EN 113", "surface": "asphalt"}}, {"type": "Feature", "geometry": {"type": "LineString", "coordinates": [[-8.7716648, 39.7373428], [-8.7717105, 39.737325], [-8.7717484, 39.7372986], [-8.7717759, 39.7372654], [-8.771791, 39.7372278], [-8.7717926, 39.7371885]]}, "properties": {"highway": "primary", "junction": "roundabout", "lanes": "2", "maxspeed": "50", "name": "Rua de Tomar", "ref": "EN 113", "surface": "asphalt"}}, {"type": "Feature", "geometry": {"type": "LineString", "coordinates": [[-8.7711896, 39.7370138], [-8.7713556, 39.7371385], [-8.7714127, 39.7371817]]}, "properties": {"highway": "primary", "lanes": "1", "maxspeed": "50", "name": "Rua de Tomar", "oneway": "yes", "ref": "EN 113", "surface": "asphalt"}}, {"type": "Feature", "geometry": {"type": "LineString", "coordinates": [[-8.7682178, 39.7355694], [-8.7677528, 39.7355412]]}, "properties": {"highway": "primary", "lanes": "1", "lit": "yes", "maxspeed": "50", "name": "Rua de Tomar", "oneway": "yes", "ref": "EN 113", "surface": "asphalt"}}, {"type": "Feature", "geometry": {"type": "LineString", "coordinates": [[-8.7677528, 39.7355412], [-8.7680727, 39.735686], [-8.7681473, 39.7357133]]}, "properties": {"highway": "primary", "lanes": "2", "lit": "yes", "maxspeed": "50", "name": "Rua de Tomar", "oneway": "yes", "ref": "EN 113", "surface": "asphalt"}}, {"type": "Feature", "geometry": {"type": "LineString", "coordinates": [[-8.7684682, 39.7358655], [-8.768595, 39.7358684], [-8.7687886, 39.73589], [-8.7689532, 39.7359314], [-8.76919, 39.7360107], [-8.7695853, 39.7361626], [-8.770625, 39.736702]]}, "properties": {"highway": "primary", "lanes": "1", "lit": "yes", "maxspeed": "50", "name": "Rua de Tomar", "oneway": "yes", "ref": "EN 113", "surface": "asphalt"}}, {"type": "Feature", "geometry": {"type": "LineString", "coordinates": [[-8.7715275, 39.737068], [-8.7712513, 39.7369449]]}, "properties": {"highway": "primary", "lanes": "1", "maxspeed": "50", "name": "Rua de Tomar", "oneway": "yes", "ref": "EN 113", "surface": "asphalt"}}, {"type": "Feature", "geometry": {"type": "LineString", "coordinates": [[-8.4557201, 39.6337005], [-8.4553493, 39.6331651]]}, "properties": {"bridge": "yes", "highway": "primary", "layer": "1", "oneway": "no", "ref": "EN 113"}}, {"type": "Feature", "geometry": {"type": "LineString", "coordinates": [[-8.4383927, 39.6217538], [-8.4384539, 39.621742], [-8.438514, 39.6217441], [-8.4385694, 39.6217522], [-8.4386202, 39.6217639], [-8.4386887, 39.6217832]]}, "properties": {"highway": "primary", "oneway": "yes", "ref": "EN 113"}}, {"type": "Feature", "geometry": {"type": "LineString", "coordinates": [[-8.4386887, 39.6217832], [-8.438645, 39.621732], [-8.4385773, 39.6216657], [-8.4384952, 39.6215939], [-8.4384607, 39.6215643]]}, "properties": {"highway": "primary", "oneway": "yes", "ref": "EN 113"}}, {"type": "Feature", "geometry": {"type": "LineString", "coordinates": [[-8.4553493, 39.6331651], [-8.4552062, 39.6329615], [-8.4550958, 39.6328054], [-8.4549379, 39.6325809], [-8.454831, 39.6324436], [-8.454714, 39.6322992], [-8.4546207, 39.6321905], [-8.4545158, 39.6320803], [-8.4543961, 39.6319581], [-8.4543109, 39.6318659], [-8.4542073, 39.6317496], [-8.4540995, 39.6316247], [-8.4539829, 39.6314751], [-8.4538961, 39.6313631], [-8.4538461, 39.6313013], [-8.4538027, 39.6312556], [-8.4537564, 39.6312137], [-8.4536901, 39.6311592], [-8.4536119, 39.6311023], [-8.4534758, 39.6310042], [-8.4533408, 39.6309134], [-8.4531619, 39.6307931], [-8.4530436, 39.6307146], [-8.4529077, 39.6306288], [-8.4527507, 39.6305315], [-8.4526041, 39.6304452], [-8.4524121, 39.6303369], [-8.4520429, 39.6301394], [-8.451759, 39.6299846], [-8.4516199, 39.6299184], [-8.4514898, 39.6298642], [-8.4513852, 39.6298295], [-8.4512729, 39.6297958], [-8.4511085, 39.629751], [-8.4508661, 39.6296891], [-8.4506923, 39.6296432], [-8.4505322, 39.6295941], [-8.4503787, 39.6295447], [-8.4502197, 39.6294865], [-8.4499315, 39.6293756], [-8.4497281, 39.6292922], [-8.4495448, 39.6292137], [-8.4493841, 39.6291406], [-8.4492513, 39.6290734], [-8.4491191, 39.6290018], [-8.4488636, 39.6288642], [-8.4483561, 39.628585], [-8.4478898, 39.6283391], [-8.4474975, 39.6281323], [-8.4473139, 39.6280319], [-8.4472165, 39.6279748], [-8.4471143, 39.6279087], [-8.4469736, 39.6278162], [-8.4469505, 39.627801], [-8.4462441, 39.6273312], [-8.4459263, 39.6271195], [-8.4456776, 39.626947], [-8.4454854, 39.6268282], [-8.445333, 39.6267506], [-8.4451586, 39.6266693], [-8.4449169, 39.626568], [-8.4446976, 39.6264749], [-8.4444791, 39.6263815], [-8.4443299, 39.6263227], [-8.444213, 39.6262889], [-8.4441104, 39.6262622], [-8.4439994, 39.6262407], [-8.4438566, 39.6262253], [-8.4436506, 39.626212], [-8.4433806, 39.6262006], [-8.4432574, 39.6261932], [-8.4431612, 39.6261852], [-8.4430423, 39.62617], [-8.4428979, 39.6261511], [-8.4427456, 39.6261319], [-8.442647, 39.6261244], [-8.4425424, 39.6261204], [-8.4424176, 39.6261226], [-8.4421327, 39.6261337], [-8.4419936, 39.6261386], [-8.4418892, 39.6261407], [-8.4417883, 39.626139], [-8.4416992, 39.6261318], [-8.4416229, 39.6261184], [-8.4415582, 39.6260974], [-8.441503, 39.6260741], [-8.4414529, 39.6260452], [-8.4414141, 39.6260184], [-8.4413754, 39.6259835], [-8.4413313, 39.6259299], [-8.4412676, 39.6257804], [-8.4412861, 39.6256523], [-8.4413009, 39.6255898], [-8.4413182, 39.6255386], [-8.4413457, 39.6254546], [-8.4413672, 39.6253366], [-8.4413634, 39.6252185], [-8.4413628, 39.6251995], [-8.441352, 39.6251459], [-8.4413178, 39.6251158], [-8.4412817, 39.6250362], [-8.4412295, 39.6249352], [-8.4412044, 39.6248896], [-8.4411097, 39.6247179], [-8.4411054, 39.6247101], [-8.4409662, 39.6244453], [-8.4407741, 39.6240798], [-8.4407064, 39.6239586], [-8.4406565, 39.6238733], [-8.4406105, 39.6238097], [-8.440579, 39.623768], [-8.4405426, 39.6237303], [-8.4404945, 39.6236952], [-8.4404411, 39.6236632], [-8.440347, 39.6236133], [-8.4402086, 39.62355], [-8.4401341, 39.623516], [-8.4400119, 39.6234602]]}, "properties": {"highway": "primary", "oneway": "no", "ref": "EN 113"}}, {"type": "Feature", "geometry": {"type": "LineString", "coordinates": [[-8.484196, 39.6446702], [-8.4837214, 39.6443163], [-8.4833603, 39.644058], [-8.4832102, 39.6439536], [-8.4830853, 39.6438747], [-8.4829672, 39.6438021], [-8.4828498, 39.64374], [-8.4827243, 39.6436776], [-8.4825968, 39.6436198], [-8.482456, 39.6435658], [-8.4823175, 39.6435174], [-8.482188, 39.6434794], [-8.4820472, 39.6434437], [-8.4819352, 39.6434162], [-8.4817965, 39.6433869], [-8.4816473, 39.6433591], [-8.4814893, 39.6433352], [-8.481292, 39.6433072], [-8.4800579, 39.64314], [-8.478545, 39.642935], [-8.4783305, 39.6429098], [-8.4781537, 39.6428869], [-8.4779983, 39.6428712], [-8.4778388, 39.6428583], [-8.4776268, 39.6428492], [-8.4773693, 39.642849], [-8.4768273, 39.6428515], [-8.4755629, 39.64285], [-8.4746, 39.6428483], [-8.4742788, 39.6428488], [-8.4738724, 39.6428474], [-8.4737603, 39.6428448], [-8.4736161, 39.642839], [-8.4735228, 39.6428275], [-8.4734445, 39.6428165], [-8.4733572, 39.6428025], [-8.4732759, 39.6427821], [-8.4732057, 39.6427586], [-8.4731331, 39.6427306], [-8.4730576, 39.6427002], [-8.4729755, 39.6426635], [-8.4728605, 39.6426053], [-8.4725811, 39.6424605], [-8.4723697, 39.6423463], [-8.4722087, 39.6422558], [-8.4720591, 39.6421649], [-8.4719173, 39.642074], [-8.4718534, 39.6420308], [-8.4717769, 39.641979], [-8.4716626, 39.641901], [-8.4715677, 39.6418401], [-8.4714976, 39.6418014], [-8.4714179, 39.6417652], [-8.4713328, 39.6417312], [-8.4712503, 39.6417044], [-8.4711819, 39.641688], [-8.4711158, 39.6416762], [-8.4710551, 39.6416671], [-8.4702133, 39.6415694], [-8.4700808, 39.6415494], [-8.4699899, 39.6415339], [-8.4698953, 39.6415139], [-8.4697831, 39.6414858], [-8.469664, 39.6414521], [-8.4695342, 39.641412], [-8.4694189, 39.6413709], [-8.4692976, 39.6413269], [-8.4691989, 39.6412879], [-8.4689665, 39.6411984], [-8.4687792, 39.6411223], [-8.4687113, 39.6410929], [-8.4686377, 39.6410574], [-8.4685737, 39.6410246], [-8.4685265, 39.640997], [-8.468478, 39.6409625], [-8.4684351, 39.6409268], [-8.4683977, 39.6408898], [-8.4683631, 39.6408493], [-8.4683263, 39.6408046], [-8.4682878, 39.6407508], [-8.4682493, 39.640687], [-8.4682196, 39.6406273], [-8.4682042, 39.6405921], [-8.4681941, 39.640569], [-8.4681659, 39.6405095], [-8.4681449, 39.640464], [-8.4681074, 39.640394], [-8.4680644, 39.6403217], [-8.4680085, 39.6402448], [-8.4679549, 39.6401833], [-8.4678896, 39.6401163], [-8.4676408, 39.6399001], [-8.4674208, 39.6397158], [-8.4672763, 39.6395953], [-8.4671634, 39.6395069], [-8.4670876, 39.6394536], [-8.4670172, 39.6394066], [-8.4669356, 39.639362], [-8.4668527, 39.6393197], [-8.4666727, 39.6392413], [-8.4664389, 39.6391392], [-8.4663602, 39.6391035], [-8.4662934, 39.6390717], [-8.4662134, 39.639029], [-8.4661421, 39.6389885], [-8.4660771, 39.6389476], [-8.4660138, 39.6389021], [-8.4654723, 39.6385066], [-8.4651498, 39.638271], [-8.4650736, 39.6382175], [-8.4649783, 39.6381498], [-8.4648718, 39.6380829], [-8.4647575, 39.6380153], [-8.464656, 39.6379586], [-8.4643961, 39.6378226], [-8.4641019, 39.6376724], [-8.4639372, 39.6375971], [-8.4637933, 39.6375361], [-8.4636548, 39.6374844], [-8.4634402, 39.6374116], [-8.4631173, 39.6373117], [-8.4628293, 39.6372205], [-8.4626487, 39.6371601], [-8.4624486, 39.6370893], [-8.4610663, 39.6365646], [-8.4604071, 39.6363089], [-8.4598248, 39.6360833], [-8.4595449, 39.635966], [-8.4592503, 39.6358412], [-8.4591403, 39.6357914], [-8.4590254, 39.6357393], [-8.4587495, 39.6356119]]}, "properties": {"highway": "primary", "lanes": "2", "maxspeed:type": "PT:rural", "ref": "EN 113", "surface": "asphalt"}}, {"type": "Feature", "geometry": {"type": "LineString", "coordinates": [[-8.4844133, 39.6447911], [-8.4843642, 39.6448327], [-8.4843336, 39.6448839], [-8.4843246, 39.6449431], [-8.4843406, 39.6450015], [-8.4843799, 39.6450529], [-8.4844384, 39.645092], [-8.48451, 39.6451147], [-8.484583, 39.6451189], [-8.4846543, 39.645106], [-8.4847171, 39.6450772], [-8.4847547, 39.6450473], [-8.4847849, 39.6450076], [-8.4848015, 39.6449634], [-8.4848034, 39.6449175], [-8.4847904, 39.6448726], [-8.4847716, 39.6448414], [-8.4847201, 39.644794], [-8.4846511, 39.6447623], [-8.4845724, 39.64475], [-8.4845236, 39.6447526], [-8.4844765, 39.6447627], [-8.4844133, 39.6447911]]}, "properties": {"highway": "primary", "junction": "roundabout", "lanes": "2", "ref": "EN 113", "surface": "asphalt"}}, {"type": "Feature", "geometry": {"type": "LineString", "coordinates": [[-8.4844765, 39.6447627], [-8.4843899, 39.6447446], [-8.4843146, 39.6447229], [-8.484196, 39.6446702]]}, "properties": {"highway": "primary", "oneway": "yes", "ref": "EN 113", "surface": "asphalt"}}, {"type": "Feature", "geometry": {"type": "LineString", "coordinates": [[-8.4850665, 39.6450189], [-8.4849858, 39.6449868], [-8.4849228, 39.6449563], [-8.4848643, 39.6449174], [-8.4847904, 39.6448726]]}, "properties": {"highway": "primary", "oneway": "yes", "ref": "EN 113", "surface": "asphalt"}}, {"type": "Feature", "geometry": {"type": "LineString", "coordinates": [[-8.6406397, 39.671006], [-8.6405691, 39.670993], [-8.6404966, 39.6709961], [-8.6404518, 39.6710035], [-8.6403689, 39.6710489], [-8.6403249, 39.6710946], [-8.6403001, 39.6711483], [-8.6402956, 39.6711938], [-8.6403051, 39.6712389], [-8.640328, 39.671281], [-8.6403632, 39.6713178], [-8.6404086, 39.6713472], [-8.6404537, 39.6713652], [-8.6405026, 39.671376], [-8.6405533, 39.6713789], [-8.6406038, 39.6713738], [-8.6406519, 39.6713611], [-8.6406982, 39.6713397], [-8.6407375, 39.6713112], [-8.640768, 39.6712769], [-8.6407882, 39.6712383], [-8.6407977, 39.6711821], [-8.6407856, 39.6711262], [-8.6407529, 39.6710753], [-8.6407025, 39.671034], [-8.6406397, 39.671006]]}, "properties": {"highway": "primary", "junction": "roundabout", "lanes": "1", "ref": "EN 113", "surface": "asphalt"}}, {"type": "Feature", "geometry": {"type": "LineString", "coordinates": [[-8.6418182, 39.6721229], [-8.6418846, 39.6721058], [-8.6419373, 39.6720795], [-8.6419805, 39.6720444], [-8.6420117, 39.6720024], [-8.6420292, 39.671956], [-8.6420316, 39.6719047], [-8.6420172, 39.6718545], [-8.6419871, 39.6718087], [-8.641943, 39.6717702], [-8.6418716, 39.6717356], [-8.6417897, 39.6717201], [-8.6417057, 39.6717251], [-8.641628, 39.6717503], [-8.6415802, 39.6717797], [-8.6415425, 39.6718167], [-8.6415168, 39.6718594], [-8.641511, 39.6718828], [-8.6415041, 39.6719102], [-8.6415084, 39.6719617], [-8.6415295, 39.6720108], [-8.6415659, 39.6720543], [-8.6415943, 39.6720742], [-8.6416177, 39.6720905], [-8.64168, 39.672115], [-8.6417484, 39.672126], [-8.6418182, 39.6721229]]}, "properties": {"highway": "primary", "junction": "roundabout", "lanes": "1", "ref": "EN 113", "surface": "asphalt"}}, {"type": "Feature", "geometry": {"type": "LineString", "coordinates": [[-8.6400817, 39.6709122], [-8.6401818, 39.6710152], [-8.6402314, 39.6710704], [-8.640266, 39.6711081], [-8.6403001, 39.6711483]]}, "properties": {"highway": "primary", "lanes": "1", "oneway": "yes", "ref": "EN 113", "surface": "asphalt"}}, {"type": "Feature", "geometry": {"type": "LineString", "coordinates": [[-8.6406519, 39.6713611], [-8.6407238, 39.6713613], [-8.640784, 39.6713803], [-8.6414135, 39.6717463], [-8.6414414, 39.6717662], [-8.6414635, 39.6717904], [-8.6414866, 39.6718162], [-8.641511, 39.6718828]]}, "properties": {"highway": "primary", "lanes": "1", "oneway": "yes", "ref": "EN 113", "surface": "asphalt"}}, {"type": "Feature", "geometry": {"type": "LineString", "coordinates": [[-8.5918533, 39.6542342], [-8.5919738, 39.6542226], [-8.5920838, 39.6542032], [-8.592125, 39.6541923]]}, "properties": {"highway": "primary", "lanes": "1", "oneway": "yes", "ref": "EN 113", "surface": "asphalt"}}, {"type": "Feature", "geometry": {"type": "LineString", "coordinates": [[-8.592125, 39.6541923], [-8.5920902, 39.654166], [-8.5919616, 39.6541028], [-8.5919073, 39.6540761]]}, "properties": {"highway": "primary", "lanes": "1", "oneway": "yes", "ref": "EN 113", "surface": "asphalt"}}, {"type": "Feature", "geometry": {"type": "LineString", "coordinates": [[-8.5834688, 39.6568839], [-8.5833057, 39.6568422], [-8.583126, 39.6567963], [-8.582722, 39.6567009], [-8.5823913, 39.656656], [-8.5823408, 39.6566491]]}, "properties": {"highway": "primary", "name": "Avenida Dom Nuno \u00c1lvares Pereira", "ref": "EN 113"}}, {"type": "Feature", "geometry": {"type": "LineString", "coordinates": [[-8.5842578, 39.6571062], [-8.5841597, 39.657101], [-8.5840457, 39.6570814], [-8.5837767, 39.6569893], [-8.5834688, 39.6568839]]}, "properties": {"highway": "primary", "name": "Avenida Dom Nuno \u00c1lvares Pereira", "oneway": "yes", "ref": "EN 113"}}, {"type": "Feature", "geometry": {"type": "LineString", "coordinates": [[-8.4847547, 39.6450473], [-8.4848665, 39.6450252], [-8.4849437, 39.6450209], [-8.4849637, 39.6450206], [-8.4850665, 39.6450189]]}, "properties": {"highway": "primary", "oneway": "yes", "ref": "EN 113", "surface": "asphalt"}}, {"type": "Feature", "geometry": {"type": "LineString", "coordinates": [[-8.5305038, 39.6459647], [-8.5305782, 39.6459661], [-8.5306498, 39.6459502], [-8.530713, 39.6459174], [-8.5307601, 39.6458713], [-8.5307864, 39.6458163], [-8.5307902, 39.6457628], [-8.5307742, 39.6457106], [-8.5307397, 39.6456641], [-8.5306917, 39.6456281], [-8.5306329, 39.6456035], [-8.5305676, 39.6455921], [-8.5304918, 39.6455962], [-8.5304214, 39.6456181], [-8.530363, 39.6456556], [-8.5303225, 39.645705], [-8.530304, 39.6457583], [-8.5303065, 39.6458135], [-8.5303296, 39.6458657], [-8.5303734, 39.6459121], [-8.5304333, 39.6459462], [-8.5305038, 39.6459647]]}, "properties": {"highway": "primary", "junction": "roundabout", "ref": "EN 113"}}, {"type": "Feature", "geometry": {"type": "LineString", "coordinates": [[-8.484196, 39.6446702], [-8.4842831, 39.6447797], [-8.4843101, 39.6448377], [-8.4843336, 39.6448839]]}, "properties": {"highway": "primary", "oneway": "yes", "ref": "EN 113", "surface": "asphalt"}}, {"type": "Feature", "geometry": {"type": "LineString", "coordinates": [[-8.5303225, 39.645705], [-8.5301415, 39.6457888], [-8.529995, 39.6458193]]}, "properties": {"highway": "primary", "lanes": "1", "maxspeed": "50", "oneway": "yes", "ref": "EN 113", "surface": "asphalt"}}, {"type": "Feature", "geometry": {"type": "LineString", "coordinates": [[-8.4918649, 39.6502331], [-8.4918135, 39.6500258], [-8.4917383, 39.6497223], [-8.4917171, 39.6493914], [-8.4917078, 39.6490213], [-8.4916473, 39.6486366], [-8.4915841, 39.6480015], [-8.4914953, 39.6477651], [-8.4913344, 39.647527], [-8.4911848, 39.6474112], [-8.4908758, 39.6472773], [-8.489804, 39.6468704], [-8.4897446, 39.6468479], [-8.4891888, 39.646579], [-8.4876914, 39.6455781], [-8.4874641, 39.6454539], [-8.4873383, 39.6454021], [-8.4872125, 39.6453723], [-8.4869259, 39.6453215], [-8.4863307, 39.6452323], [-8.4861987, 39.6452125], [-8.4850665, 39.6450189]]}, "properties": {"highway": "primary", "lanes": "2", "maxspeed": "90", "name": "Rua da Esta\u00e7\u00e3o de F\u00e1tima", "oneway": "no", "ref": "EN 113", "source": "Bing", "surface": "asphalt"}}, {"type": "Feature", "geometry": {"type": "LineString", "coordinates": [[-8.7577579, 39.733385], [-8.757898, 39.7333662], [-8.758022, 39.7333458], [-8.758097, 39.7333342], [-8.7581859, 39.733324], [-8.758308, 39.7333126], [-8.7583726, 39.7333096], [-8.7584492, 39.7333093], [-8.7587468, 39.7333228], [-8.7591655, 39.7333419]]}, "properties": {"highway": "primary", "lanes": "1", "lit": "yes", "name": "Rua de Tomar", "oneway": "yes", "ref": "EN 113", "surface": "asphalt"}}, {"type": "Feature", "geometry": {"type": "LineString", "coordinates": [[-8.7593042, 39.733279], [-8.7587565, 39.7332431], [-8.7585611, 39.73324], [-8.7584807, 39.7332427], [-8.7584038, 39.7332481], [-8.7583307, 39.7332576], [-8.7581902, 39.7332792], [-8.7580882, 39.7332951], [-8.7579931, 39.7333123]]}, "properties": {"highway": "primary", "lanes": "1", "lit": "yes", "name": "Rua de Tomar", "oneway": "yes", "ref": "EN 113", "surface": "asphalt"}}, {"type": "Feature", "geometry": {"type": "LineString", "coordinates": [[-8.7606818, 39.7333531], [-8.7606603, 39.7334057], [-8.7606604, 39.7334609], [-8.7606755, 39.7335063], [-8.7606931, 39.7335321], [-8.7607234, 39.7335584], [-8.7607803, 39.7335918], [-8.7608476, 39.7336104], [-8.7609192, 39.7336125], [-8.7609697, 39.7336037], [-8.7610165, 39.7335865], [-8.7610704, 39.733551], [-8.7611081, 39.7335048], [-8.7611261, 39.7334521], [-8.7611228, 39.7333976], [-8.7610986, 39.7333463], [-8.761071, 39.7333157], [-8.7610359, 39.73329], [-8.7609896, 39.7332686], [-8.7609381, 39.7332558], [-8.7608843, 39.7332525], [-8.7608308, 39.7332587], [-8.7607726, 39.7332777], [-8.760723, 39.733308], [-8.7606818, 39.7333531]]}, "properties": {"highway": "primary", "junction": "roundabout", "lanes": "1", "lit": "yes", "name": "Rua de Tomar", "ref": "EN 113", "surface": "asphalt"}}, {"type": "Feature", "geometry": {"type": "LineString", "coordinates": [[-8.58218, 39.6565948], [-8.58217, 39.6565694], [-8.5821502, 39.6565478], [-8.5821226, 39.6565321], [-8.58209, 39.6565238], [-8.582053, 39.6565243], [-8.5820184, 39.6565343], [-8.5819903, 39.6565527], [-8.5819737, 39.6565736], [-8.5819658, 39.6565973]]}, "properties": {"highway": "primary", "junction": "roundabout", "ref": "EN 113"}}, {"type": "Feature", "geometry": {"type": "LineString", "coordinates": [[-8.5844964, 39.6570724], [-8.5844177, 39.6570586], [-8.5843375, 39.657068], [-8.584272, 39.6570964], [-8.5842578, 39.6571062]]}, "properties": {"highway": "primary", "junction": "roundabout", "name": "Rotunda do Ribeirinho", "ref": "EN 113", "surface": "asphalt"}}, {"type": "Feature", "geometry": {"type": "LineString", "coordinates": [[-8.76975, 39.7361591], [-8.7691653, 39.7359084], [-8.7688492, 39.7358151], [-8.7688018, 39.7358], [-8.7687574, 39.7357802], [-8.7687047, 39.7357477], [-8.7686682, 39.7357238], [-8.768614, 39.7356881]]}, "properties": {"highway": "primary", "lanes": "2", "maxspeed": "50", "name": "Rua de Tomar", "oneway": "yes", "ref": "EN 113", "surface": "asphalt"}}, {"type": "Feature", "geometry": {"type": "LineString", "coordinates": [[-8.641628, 39.6717503], [-8.6415459, 39.671733], [-8.6414876, 39.6717153], [-8.640892, 39.6713595], [-8.6408434, 39.6713136], [-8.6408137, 39.6712748], [-8.6407882, 39.6712383]]}, "properties": {"highway": "primary", "lanes": "1", "oneway": "yes", "ref": "EN 113", "surface": "asphalt"}}, {"type": "Feature", "geometry": {"type": "LineString", "coordinates": [[-8.6327683, 39.6675129], [-8.6326242, 39.6674553], [-8.6323015, 39.6673209], [-8.632064, 39.6671875], [-8.6318287, 39.6670233], [-8.6316628, 39.6668819], [-8.6315, 39.6667159], [-8.6305871, 39.665768], [-8.6296467, 39.66477], [-8.6294136, 39.6645011], [-8.6290129, 39.6639138], [-8.628845, 39.6637445], [-8.6286859, 39.663624], [-8.628444, 39.6634985], [-8.6274439, 39.663011], [-8.6272727, 39.6629162], [-8.6270869, 39.6627627], [-8.6269704, 39.6625859], [-8.6267389, 39.6621494], [-8.6265022, 39.6617789], [-8.6262559, 39.6611138], [-8.6261244, 39.6609051], [-8.6255371, 39.6601246], [-8.6252997, 39.6598145], [-8.6248236, 39.6591556], [-8.6243314, 39.6585508], [-8.623814, 39.6580025], [-8.6236371, 39.6578441], [-8.6234443, 39.6577004], [-8.6227456, 39.6572712], [-8.6224358, 39.6570809], [-8.6222317, 39.6569093], [-8.6216538, 39.6563658], [-8.6214159, 39.656105], [-8.6212982, 39.6559505], [-8.6211806, 39.6557676], [-8.6209918, 39.6551827], [-8.6208604, 39.6548774], [-8.6204072, 39.6540315], [-8.6202904, 39.6538394], [-8.6201118, 39.6536206], [-8.6196462, 39.6531883], [-8.6193685, 39.6529725], [-8.619185, 39.6528848], [-8.6189683, 39.6528423], [-8.6185004, 39.6527839], [-8.616963, 39.6526175], [-8.6167603, 39.6525956], [-8.6146673, 39.6523555], [-8.6142878, 39.6523552], [-8.6121263, 39.6525657], [-8.6118263, 39.6526256], [-8.6115742, 39.6526903], [-8.6103783, 39.6531234], [-8.6103335, 39.6531409]]}, "properties": {"highway": "primary", "lanes": "2", "ref": "EN 113", "surface": "asphalt"}}, {"type": "Feature", "geometry": {"type": "LineString", "coordinates": [[-8.6404518, 39.6710035], [-8.6403297, 39.6709806], [-8.6402132, 39.6709501], [-8.6400817, 39.6709122]]}, "properties": {"highway": "primary", "lanes": "1", "oneway": "yes", "ref": "EN 113", "surface": "asphalt"}}, {"type": "Feature", "geometry": {"type": "LineString", "coordinates": [[-8.6422387, 39.672203], [-8.6420529, 39.6720005], [-8.6420292, 39.671956]]}, "properties": {"highway": "primary", "lanes": "1", "oneway": "yes", "ref": "EN 113", "surface": "asphalt"}}, {"type": "Feature", "geometry": {"type": "LineString", "coordinates": [[-8.6418846, 39.6721058], [-8.6422387, 39.672203]]}, "properties": {"highway": "primary", "lanes": "1", "oneway": "yes", "ref": "EN 113", "surface": "asphalt"}}, {"type": "Feature", "geometry": {"type": "LineString", "coordinates": [[-8.547488, 39.6601778], [-8.547144, 39.659827]]}, "properties": {"bridge": "yes", "highway": "primary", "lanes": "2", "layer": "1", "name": "Ponte da Olaia", "ref": "EN 113", "surface": "asphalt"}}, {"type": "Feature", "geometry": {"type": "LineString", "coordinates": [[-8.547144, 39.659827], [-8.5470225, 39.6597079], [-8.5468885, 39.659606], [-8.5467606, 39.6595277], [-8.5465538, 39.659451], [-8.5463094, 39.6594102], [-8.5461137, 39.6594114], [-8.5460528, 39.6594118], [-8.5458222, 39.6594424], [-8.5454663, 39.6595389], [-8.5450625, 39.6596765], [-8.5447351, 39.6597599], [-8.5443743, 39.6598128], [-8.543867, 39.6598581], [-8.5435021, 39.6598869], [-8.5428222, 39.6599476], [-8.5424627, 39.6599478], [-8.5421552, 39.659928], [-8.5415142, 39.6598248], [-8.5408666, 39.6596892], [-8.5404361, 39.6595803], [-8.5402645, 39.6595068], [-8.5400916, 39.6594327], [-8.5396928, 39.6591667], [-8.5388164, 39.6584629], [-8.5383189, 39.6580058], [-8.5377607, 39.6573181], [-8.5372663, 39.6566426], [-8.5371333, 39.6563796], [-8.5369482, 39.6557121], [-8.53682, 39.6554865], [-8.5366831, 39.6553078], [-8.5362444, 39.6549034], [-8.5358896, 39.6545988], [-8.5357048, 39.6543601], [-8.5350599, 39.6530418], [-8.5344958, 39.6520296], [-8.5339404, 39.6510976], [-8.533791, 39.6508158], [-8.533494, 39.6500092], [-8.5333278, 39.649804], [-8.5331616, 39.6496322], [-8.5324154, 39.6489906], [-8.532246, 39.6488208], [-8.5321026, 39.6486108], [-8.5317984, 39.6479034], [-8.5316067, 39.64748], [-8.531075, 39.6462468], [-8.5310221, 39.6461508], [-8.5309633, 39.646086], [-8.5309078, 39.6460338]]}, "properties": {"highway": "primary", "lanes": "2", "ref": "EN 113", "surface": "asphalt"}}, {"type": "Feature", "geometry": {"type": "LineString", "coordinates": [[-8.4379812, 39.6212006], [-8.4378909, 39.6210913], [-8.4372587, 39.6205292], [-8.4372131, 39.6204833], [-8.4365481, 39.6199307], [-8.4364684, 39.6198573], [-8.436229, 39.6196612], [-8.435642, 39.6192578], [-8.4351117, 39.6189842], [-8.4338678, 39.6186809], [-8.4333884, 39.6184581], [-8.4331502, 39.6182781], [-8.4328174, 39.6180045], [-8.4325922, 39.6178218], [-8.432498, 39.6177325], [-8.4324088, 39.617572], [-8.4323673, 39.6174278], [-8.4322627, 39.6168567], [-8.4321499, 39.6165199], [-8.4319478, 39.6162114], [-8.4318211, 39.6160109], [-8.4317104, 39.6158395], [-8.431636, 39.6156942], [-8.43151, 39.615448], [-8.431267, 39.6148432], [-8.4311646, 39.6145884], [-8.431007, 39.6141963], [-8.4308086, 39.6137026], [-8.4306469, 39.6133003], [-8.4302956, 39.6124777], [-8.4301859, 39.6123225], [-8.430055, 39.6121864], [-8.4298576, 39.6120662], [-8.429541, 39.6119307], [-8.4291258, 39.6117385], [-8.428849, 39.6116033], [-8.428746, 39.611553], [-8.4284324, 39.6113336], [-8.4279598, 39.6109831], [-8.4276815, 39.6108317], [-8.4274455, 39.6107367], [-8.4271444, 39.6106637], [-8.4265442, 39.6105527], [-8.426236, 39.6104881], [-8.4260244, 39.6104097], [-8.4257624, 39.6102583], [-8.4254709, 39.6101597], [-8.42534, 39.610146], [-8.4251586, 39.6101637], [-8.4247735, 39.610224], [-8.4244021, 39.6102805], [-8.4242698, 39.610298], [-8.42385, 39.6103601], [-8.4236578, 39.6103757], [-8.4234439, 39.6103508], [-8.4232063, 39.610279], [-8.4228474, 39.610139], [-8.4226382, 39.610015], [-8.4222467, 39.6096305], [-8.4218669, 39.6092307], [-8.4217123, 39.6090198], [-8.4216579, 39.6089014], [-8.4214857, 39.6085338], [-8.4214248, 39.6084802], [-8.4213192, 39.6083873], [-8.4211138, 39.6082644], [-8.4207737, 39.6081878], [-8.4202945, 39.6081282], [-8.4198594, 39.6081129], [-8.4197071, 39.6081282], [-8.4192853, 39.6082048], [-8.4188789, 39.6082865], [-8.4182826, 39.6084056], [-8.417859, 39.6084565], [-8.4176351, 39.6084273], [-8.4171685, 39.6081931], [-8.4170589, 39.6081381], [-8.4170367, 39.6081271], [-8.4164738, 39.6078413], [-8.4161785, 39.6076913], [-8.4158317, 39.6075197], [-8.4156656, 39.6074393], [-8.4154373, 39.6073312], [-8.4152815, 39.6071772], [-8.4152263, 39.6069934], [-8.4151939, 39.6068074], [-8.4151717, 39.6066649], [-8.4151175, 39.6063176]]}, "properties": {"highway": "primary", "name": "Rua de Leiria", "oneway": "no", "ref": "EN 113"}}, {"type": "Feature", "geometry": {"type": "LineString", "coordinates": [[-8.4379812, 39.6212006], [-8.437989, 39.6212887], [-8.4379853, 39.6213578], [-8.437979, 39.6214061], [-8.437975, 39.6214502]]}, "properties": {"highway": "primary", "lanes": "1", "name": "Rua de Leiria", "oneway": "yes", "ref": "EN 113", "surface": "asphalt"}}, {"type": "Feature", "geometry": {"type": "LineString", "coordinates": [[-8.7676941, 39.735533], [-8.7677528, 39.7355412]]}, "properties": {"highway": "primary", "lanes": "2", "name": "Rua de Tomar", "ref": "EN 113", "surface": "asphalt"}}, {"type": "Feature", "geometry": {"type": "LineString", "coordinates": [[-8.5900273, 39.654477], [-8.5902846, 39.6545364], [-8.590547, 39.6545677], [-8.5907188, 39.6545748], [-8.590874, 39.6545663], [-8.5909821, 39.6545515], [-8.5910901, 39.6545193], [-8.5912823, 39.6544567], [-8.5915132, 39.6543927], [-8.5916167, 39.6543586], [-8.5916536, 39.6543273], [-8.5916703, 39.654296], [-8.5916856, 39.654263]]}, "properties": {"highway": "primary", "lanes": "1", "oneway": "yes", "ref": "EN 113", "surface": "asphalt"}}, {"type": "Feature", "geometry": {"type": "LineString", "coordinates": [[-8.5900273, 39.654477], [-8.5896633, 39.6545917], [-8.5893436, 39.6547292], [-8.5889294, 39.6548765], [-8.5887114, 39.6549417], [-8.5885224, 39.6549847], [-8.5883038, 39.6550324], [-8.5880622, 39.6550888], [-8.5875874, 39.6551833], [-8.587072, 39.6553627], [-8.586393, 39.6556248], [-8.5863676, 39.6556347], [-8.5860351, 39.655776], [-8.5857909, 39.6559139], [-8.585392, 39.6561833], [-8.5851329, 39.656422], [-8.5849983, 39.6565952], [-8.5848514, 39.65683], [-8.5848237, 39.6568742]]}, "properties": {"highway": "primary", "lanes": "2", "name": "Rua Doutor Joaquim Francisco Alves", "ref": "EN 113", "surface": "asphalt"}}, {"type": "Feature", "geometry": {"type": "LineString", "coordinates": [[-8.5819891, 39.6566578], [-8.5820154, 39.6566759], [-8.5820479, 39.6566865], [-8.582083, 39.6566885], [-8.5821089, 39.6566841], [-8.5821326, 39.6566751], [-8.5821527, 39.6566618]]}, "properties": {"highway": "primary", "junction": "roundabout", "ref": "EN 113"}}, {"type": "Feature", "geometry": {"type": "LineString", "coordinates": [[-8.5309078, 39.6460338], [-8.5308284, 39.6459395], [-8.5307864, 39.6458163]]}, "properties": {"highway": "primary", "lanes": "1", "oneway": "yes", "ref": "EN 113", "surface": "asphalt"}}, {"type": "Feature", "geometry": {"type": "LineString", "coordinates": [[-8.5306498, 39.6459502], [-8.5307895, 39.645992], [-8.5309078, 39.6460338]]}, "properties": {"highway": "primary", "lanes": "1", "oneway": "yes", "ref": "EN 113", "surface": "asphalt"}}, {"type": "Feature", "geometry": {"type": "LineString", "coordinates": [[-8.529995, 39.6458193], [-8.529666, 39.6458473], [-8.5290393, 39.6459212], [-8.5287976, 39.6459308], [-8.528495, 39.6459014], [-8.5274424, 39.6456707], [-8.5274125, 39.6456642], [-8.5272163, 39.6456408], [-8.5270202, 39.6456421], [-8.5267776, 39.6456735], [-8.5266312, 39.6456984], [-8.5256886, 39.6458589], [-8.5254866, 39.6458857], [-8.5246037, 39.6460389], [-8.5241866, 39.6460965], [-8.5237054, 39.64615], [-8.5232373, 39.6462069], [-8.5230739, 39.6462432], [-8.5229055, 39.6463275], [-8.5227424, 39.6464737], [-8.5224982, 39.646706], [-8.5222001, 39.6470022], [-8.5218827, 39.6473124], [-8.5216949, 39.6474358], [-8.5213774, 39.6475819], [-8.5201769, 39.6479882], [-8.5198282, 39.6481195], [-8.5197251, 39.6481566], [-8.5194694, 39.6482799], [-8.5190014, 39.6485299], [-8.51894, 39.6485634], [-8.5179151, 39.6491221], [-8.5177166, 39.6492263], [-8.5174923, 39.649358], [-8.5173054, 39.649502], [-8.5170734, 39.6497756], [-8.516914, 39.6499522], [-8.5166911, 39.6501906], [-8.5162867, 39.6504753], [-8.5156258, 39.6508958], [-8.5153605, 39.6510335], [-8.5149456, 39.6512206], [-8.5144616, 39.6514373], [-8.5141273, 39.6516129], [-8.5135914, 39.6519639], [-8.5123592, 39.6527746], [-8.5111966, 39.6535277], [-8.5110668, 39.653668], [-8.5110059, 39.6537887], [-8.5109637, 39.6539115], [-8.5109595, 39.6540501], [-8.5109879, 39.6541869], [-8.5110537, 39.654336], [-8.5116856, 39.6556347], [-8.5123085, 39.6568781], [-8.5123989, 39.6570585], [-8.5125183, 39.6573544], [-8.5126164, 39.6576749], [-8.5126322, 39.6578426], [-8.5126212, 39.6579773], [-8.512586, 39.6580946], [-8.5125217, 39.6581782], [-8.5124361, 39.6582617], [-8.5123236, 39.6583301], [-8.511742, 39.6586104], [-8.5115533, 39.6586789], [-8.5113875, 39.6587096], [-8.5112216, 39.6587238], [-8.5104179, 39.6587385], [-8.5102799, 39.6587638], [-8.510158, 39.6588055], [-8.5100481, 39.6588767], [-8.5099355, 39.6589891], [-8.5098195, 39.6591149], [-8.5097056, 39.659189], [-8.5095784, 39.659224], [-8.509453, 39.6592242], [-8.5093355, 39.6591977], [-8.5092374, 39.6591406], [-8.5091367, 39.6590567], [-8.5085172, 39.6583056], [-8.5081029, 39.6578033], [-8.5079827, 39.6576762], [-8.5078678, 39.6575862], [-8.5077396, 39.657526], [-8.507582, 39.6574885], [-8.507414, 39.6574898], [-8.507278, 39.6575075], [-8.5070676, 39.6575838], [-8.5065476, 39.6578918], [-8.5057693, 39.6583626], [-8.5055234, 39.6585113], [-8.5053765, 39.6586297], [-8.505251, 39.6587727], [-8.5051657, 39.6589167], [-8.5049926, 39.6592584], [-8.50481, 39.6596188], [-8.5046913, 39.6597916], [-8.5045592, 39.6599253], [-8.5043753, 39.6600899], [-8.5039593, 39.6604213], [-8.5037251, 39.6605787], [-8.5035367, 39.6606661], [-8.5033188, 39.6607329], [-8.5028261, 39.6608175], [-8.5022621, 39.6609868], [-8.5019084, 39.6611405], [-8.5017311, 39.6611873], [-8.5015677, 39.6612072], [-8.5014205, 39.6612017], [-8.5012787, 39.6611756], [-8.5000081, 39.6608478], [-8.4994495, 39.6607071], [-8.4990379, 39.6606001], [-8.4984658, 39.6604568], [-8.4979869, 39.6603454], [-8.4970748, 39.6601998], [-8.4970152, 39.6601897], [-8.4969405, 39.6601676], [-8.4967255, 39.6601041], [-8.4966019, 39.6600193], [-8.4963439, 39.6597602], [-8.4962482, 39.6596684], [-8.4961373, 39.6595881], [-8.4959795, 39.6595295], [-8.4958934, 39.6595255], [-8.4957893, 39.6595207]]}, "properties": {"highway": "primary", "lanes": "2", "maxspeed": "50", "ref": "EN 113", "surface": "asphalt"}}, {"type": "Feature", "geometry": {"type": "LineString", "coordinates": [[-8.529995, 39.6458193], [-8.530185, 39.6458384], [-8.5303296, 39.6458657]]}, "properties": {"highway": "primary", "lanes": "1", "maxspeed": "50", "oneway": "yes", "ref": "EN 113", "surface": "asphalt"}}, {"type": "Feature", "geometry": {"type": "LineString", "coordinates": [[-8.6101879, 39.6532885], [-8.6103335, 39.6531409]]}, "properties": {"highway": "primary", "lanes": "1", "oneway": "yes", "ref": "EN 113", "surface": "asphalt"}}, {"type": "Feature", "geometry": {"type": "LineString", "coordinates": [[-8.6103335, 39.6531409], [-8.6101836, 39.6531479], [-8.6101334, 39.6531496]]}, "properties": {"highway": "primary", "lanes": "1", "oneway": "yes", "ref": "EN 113", "surface": "asphalt"}}, {"type": "Feature", "geometry": {"type": "LineString", "coordinates": [[-8.6095872, 39.653345], [-8.6093868, 39.6533743], [-8.6085477, 39.6534904], [-8.6082671, 39.6535269], [-8.6057348, 39.6538511], [-8.6054516, 39.653873], [-8.6050812, 39.6538913], [-8.6048123, 39.6538758], [-8.604556, 39.6538554], [-8.6042316, 39.6537826], [-8.6037122, 39.6536205], [-8.6026054, 39.6532677], [-8.6023904, 39.6532195], [-8.6021881, 39.6531959], [-8.6019205, 39.6532136], [-8.6017102, 39.6532633], [-8.6007679, 39.6536246], [-8.6001941, 39.653937], [-8.5998934, 39.6540533], [-8.5988243, 39.6543732], [-8.598575, 39.6544288], [-8.5983239, 39.6544515], [-8.5975435, 39.6544508], [-8.5969032, 39.654424], [-8.5965849, 39.6544291], [-8.5962892, 39.6544696], [-8.5959105, 39.654548], [-8.5956493, 39.6545835], [-8.5954532, 39.6545794], [-8.5952957, 39.6545307], [-8.5951803, 39.6544606], [-8.5948513, 39.6541979], [-8.5946981, 39.6541306], [-8.5945034, 39.654093], [-8.5941063, 39.65408], [-8.5938655, 39.6540926], [-8.5934117, 39.6541702], [-8.5931492, 39.6541948], [-8.592351, 39.6541958], [-8.5921553, 39.6541928], [-8.592125, 39.6541923]]}, "properties": {"highway": "primary", "ref": "EN 113", "surface": "asphalt"}}, {"type": "Feature", "geometry": {"type": "LineString", "coordinates": [[-8.6097946, 39.6532149], [-8.6096601, 39.6532992], [-8.6095872, 39.653345]]}, "properties": {"highway": "primary", "lanes": "1", "oneway": "yes", "ref": "EN 113", "surface": "asphalt"}}, {"type": "Feature", "geometry": {"type": "LineString", "coordinates": [[-8.7537076, 39.7342981], [-8.7538019, 39.7342974], [-8.7539752, 39.7342916], [-8.754205, 39.7342788], [-8.7544142, 39.7342627], [-8.7546009, 39.7342424], [-8.7548387, 39.7342078], [-8.7550994, 39.73417], [-8.7553289, 39.7341159], [-8.7555694, 39.7340562], [-8.7559993, 39.733934], [-8.7564584, 39.7337677]]}, "properties": {"highway": "primary", "lanes": "1", "lit": "yes", "name": "Rua de Tomar", "oneway": "yes", "ref": "EN 113", "surface": "asphalt"}}, {"type": "Feature", "geometry": {"type": "LineString", "coordinates": [[-8.7551136, 39.734084], [-8.754885, 39.7341263], [-8.7546296, 39.7341642], [-8.7543957, 39.7341894], [-8.7541875, 39.7342059], [-8.7538904, 39.7342201], [-8.7537553, 39.7342257]]}, "properties": {"highway": "primary", "lanes": "2", "lit": "yes", "name": "Rua de Tomar", "oneway": "yes", "ref": "EN 113", "surface": "asphalt", "turn:lanes": "left|through"}}, {"type": "Feature", "geometry": {"type": "LineString", "coordinates": [[-8.7537553, 39.7342257], [-8.7536061, 39.7342269], [-8.7527515, 39.7342198], [-8.7524576, 39.7342077]]}, "properties": {"highway": "primary", "lanes": "1", "lit": "yes", "name": "Rua de Tomar", "oneway": "yes", "ref": "EN 113", "surface": "asphalt"}}, {"type": "Feature", "geometry": {"type": "LineString", "coordinates": [[-8.7524576, 39.7342077], [-8.7522937, 39.7341998], [-8.7521374, 39.734188]]}, "properties": {"highway": "primary", "lanes": "1", "lit": "yes", "name": "Rua de Tomar", "oneway": "yes", "ref": "EN 113", "surface": "asphalt", "turn:lanes": "left;through"}}, {"type": "Feature", "geometry": {"type": "LineString", "coordinates": [[-8.7521374, 39.734188], [-8.7519468, 39.7341675]]}, "properties": {"highway": "primary", "lanes": "2", "lit": "yes", "name": "Rua de Tomar", "oneway": "yes", "ref": "EN 113", "surface": "asphalt", "turn:lanes": "left|through"}}, {"type": "Feature", "geometry": {"type": "LineString", "coordinates": [[-8.7518358, 39.7341523], [-8.7515439, 39.7341058], [-8.7510415, 39.734034]]}, "properties": {"highway": "primary", "lanes": "1", "lit": "yes", "name": "Rua de Tomar", "oneway": "yes", "ref": "EN 113", "surface": "asphalt"}}, {"type": "Feature", "geometry": {"type": "LineString", "coordinates": [[-8.7519826, 39.7342233], [-8.7522508, 39.7342416]]}, "properties": {"highway": "primary", "lanes": "1", "lit": "yes", "name": "Rua de Tomar", "oneway": "yes", "ref": "EN 113", "surface": "asphalt"}}, {"type": "Feature", "geometry": {"type": "LineString", "coordinates": [[-8.7522508, 39.7342416], [-8.7525364, 39.7342554], [-8.752757, 39.7342677], [-8.7532687, 39.7342901], [-8.7537076, 39.7342981]]}, "properties": {"highway": "primary", "lanes": "1", "lit": "yes", "name": "Rua de Tomar", "oneway": "yes", "ref": "EN 113", "surface": "asphalt"}}, {"type": "Feature", "geometry": {"type": "LineString", "coordinates": [[-8.7519468, 39.7341675], [-8.7518358, 39.7341523]]}, "properties": {"highway": "primary", "lanes": "2", "lit": "yes", "name": "Rua de Tomar", "oneway": "yes", "ref": "EN 113", "surface": "asphalt", "turn:lanes": "left|through"}}, {"type": "Feature", "geometry": {"type": "LineString", "coordinates": [[-8.7517439, 39.734194], [-8.7518099, 39.7342029], [-8.7518686, 39.7342088], [-8.7519826, 39.7342233]]}, "properties": {"highway": "primary", "lanes": "1", "lit": "yes", "name": "Rua de Tomar", "oneway": "yes", "ref": "EN 113", "surface": "asphalt"}}, {"type": "Feature", "geometry": {"type": "LineString", "coordinates": [[-8.7515574, 39.7341635], [-8.7517439, 39.734194]]}, "properties": {"highway": "primary", "lanes": "1", "lit": "yes", "name": "Rua de Tomar", "oneway": "yes", "ref": "EN 113", "surface": "asphalt"}}, {"type": "Feature", "geometry": {"type": "LineString", "coordinates": [[-8.7579931, 39.7333123], [-8.7577579, 39.733385]]}, "properties": {"highway": "primary", "lanes": "1", "name": "Rua de Tomar", "oneway": "yes", "ref": "EN 113", "surface": "asphalt"}}, {"type": "Feature", "geometry": {"type": "LineString", "coordinates": [[-8.7600685, 39.7333358], [-8.7597238, 39.733315], [-8.7594903, 39.733295], [-8.7593042, 39.733279]]}, "properties": {"highway": "primary", "lanes": "2", "lit": "yes", "name": "Rua de Tomar", "oneway": "yes", "ref": "EN 113", "surface": "asphalt", "turn:lanes": "left|through"}}, {"type": "Feature", "geometry": {"type": "LineString", "coordinates": [[-8.7602965, 39.7333493], [-8.7601818, 39.7333441], [-8.7600685, 39.7333358]]}, "properties": {"highway": "primary", "lanes": "1", "name": "Rua de Tomar", "oneway": "yes", "ref": "EN 113", "surface": "asphalt", "turn:lanes": "left;through"}}, {"type": "Feature", "geometry": {"type": "LineString", "coordinates": [[-8.7591655, 39.7333419], [-8.7593981, 39.7333586]]}, "properties": {"highway": "primary", "lanes": "1", "lit": "yes", "name": "Rua de Tomar", "oneway": "yes", "ref": "EN 113", "surface": "asphalt"}}, {"type": "Feature", "geometry": {"type": "LineString", "coordinates": [[-8.7593981, 39.7333586], [-8.760062, 39.7333998], [-8.7601562, 39.7334038], [-8.7603569, 39.7334178], [-8.7604688, 39.7334334], [-8.7605298, 39.7334478], [-8.760574, 39.7334622], [-8.7606192, 39.7334826], [-8.7606755, 39.7335063]]}, "properties": {"highway": "primary", "lanes": "1", "lit": "yes", "name": "Rua de Tomar", "oneway": "yes", "ref": "EN 113", "surface": "asphalt"}}, {"type": "Feature", "geometry": {"type": "LineString", "coordinates": [[-8.7715275, 39.737068], [-8.7714854, 39.7370869], [-8.7714508, 39.7371134], [-8.7714261, 39.7371456], [-8.7714127, 39.7371817]]}, "properties": {"highway": "primary", "junction": "roundabout", "lanes": "2", "maxspeed": "50", "name": "Rua de Tomar", "ref": "EN 113", "surface": "asphalt"}}, {"type": "Feature", "geometry": {"type": "LineString", "coordinates": [[-8.7717926, 39.7371885], [-8.7717776, 39.7371447], [-8.771746, 39.7371065], [-8.7717008, 39.7370775], [-8.7716453, 39.7370602], [-8.7715856, 39.737057], [-8.7715275, 39.737068]]}, "properties": {"highway": "primary", "junction": "roundabout", "lanes": "2", "maxspeed": "50", "name": "Rua de Tomar", "ref": "EN 113", "surface": "asphalt"}}, {"type": "Feature", "geometry": {"type": "LineString", "coordinates": [[-8.7714127, 39.7371817], [-8.7714109, 39.7372118], [-8.7714171, 39.7372416], [-8.771431, 39.7372698], [-8.7714521, 39.7372952], [-8.7714795, 39.7373168], [-8.7715361, 39.7373419], [-8.7716004, 39.7373509], [-8.7716648, 39.7373428]]}, "properties": {"highway": "primary", "junction": "roundabout", "lanes": "2", "maxspeed": "50", "name": "Rua de Tomar", "ref": "EN 113", "surface": "asphalt"}}, {"type": "Feature", "geometry": {"type": "LineString", "coordinates": [[-8.4396511, 39.6230791], [-8.4396125, 39.6229998], [-8.4395839, 39.6229498], [-8.4395492, 39.622897], [-8.4394485, 39.6227649], [-8.4394028, 39.6227053], [-8.4393632, 39.6226548], [-8.4393266, 39.6226049], [-8.4392735, 39.6225359], [-8.4392045, 39.6224455], [-8.4391122, 39.6223247], [-8.4389557, 39.6221211], [-8.4388273, 39.6219563], [-8.4386887, 39.6217832]]}, "properties": {"highway": "primary", "oneway": "no", "ref": "EN 113"}}, {"type": "Feature", "geometry": {"type": "LineString", "coordinates": [[-8.4400119, 39.6234602], [-8.4398709, 39.6233935], [-8.4398122, 39.6233591]]}, "properties": {"bridge": "yes", "highway": "primary", "layer": "1", "ref": "EN 113"}}, {"type": "Feature", "geometry": {"type": "LineString", "coordinates": [[-8.4398122, 39.6233591], [-8.4397811, 39.6233337], [-8.4397558, 39.623307], [-8.4397291, 39.6232725], [-8.4397045, 39.6232388], [-8.4396819, 39.6231855], [-8.4396511, 39.6230791]]}, "properties": {"highway": "primary", "ref": "EN 113"}}, {"type": "Feature", "geometry": {"type": "LineString", "coordinates": [[-8.4383927, 39.6217538], [-8.4384406, 39.6216971], [-8.4384639, 39.6216319], [-8.4384607, 39.6215643], [-8.4384292, 39.6214982], [-8.4383724, 39.621443], [-8.438296, 39.6214043], [-8.4382076, 39.6213861]]}, "properties": {"highway": "primary", "junction": "roundabout", "lanes": "2", "ref": "EN 113", "surface": "asphalt"}}, {"type": "Feature", "geometry": {"type": "LineString", "coordinates": [[-8.4382076, 39.6213861], [-8.4381229, 39.6213892], [-8.438043, 39.6214112], [-8.437975, 39.6214502]]}, "properties": {"highway": "primary", "junction": "roundabout", "lanes": "2", "ref": "EN 113", "surface": "asphalt"}}, {"type": "Feature", "geometry": {"type": "LineString", "coordinates": [[-8.4379176, 39.6215182], [-8.4379022, 39.621546], [-8.4378914, 39.6216014], [-8.4379032, 39.6216693]]}, "properties": {"highway": "primary", "junction": "roundabout", "lanes": "2", "ref": "EN 113", "surface": "asphalt"}}, {"type": "Feature", "geometry": {"type": "LineString", "coordinates": [[-8.4379032, 39.6216693], [-8.4379414, 39.6217311], [-8.4380022, 39.621781], [-8.43808, 39.6218141], [-8.4381772, 39.6218276], [-8.4382746, 39.6218149], [-8.4383606, 39.6217775], [-8.4383927, 39.6217538]]}, "properties": {"highway": "primary", "junction": "roundabout", "lanes": "2", "ref": "EN 113", "surface": "asphalt"}}, {"type": "Feature", "geometry": {"type": "LineString", "coordinates": [[-8.4584642, 39.6354784], [-8.458302, 39.6353995]]}, "properties": {"highway": "primary", "lanes": "2", "maxspeed:type": "PT:rural", "ref": "EN 113", "surface": "asphalt"}}, {"type": "Feature", "geometry": {"type": "LineString", "coordinates": [[-8.458302, 39.6353995], [-8.458131, 39.6353182], [-8.4580856, 39.6352966]]}, "properties": {"highway": "primary", "lanes": "2", "maxspeed:type": "PT:rural", "ref": "EN 113", "surface": "asphalt"}}, {"type": "Feature", "geometry": {"type": "LineString", "coordinates": [[-8.4587495, 39.6356119], [-8.4585152, 39.635501], [-8.4584642, 39.6354784]]}, "properties": {"highway": "primary", "lanes": "2", "maxspeed:type": "PT:rural", "ref": "EN 113", "surface": "asphalt"}}, {"type": "Feature", "geometry": {"type": "LineString", "coordinates": [[-8.4580856, 39.6352966], [-8.4573548, 39.6349601], [-8.4570847, 39.634838], [-8.4569198, 39.6347558], [-8.4567916, 39.6346889], [-8.4566839, 39.6346274], [-8.4565814, 39.6345586], [-8.4564881, 39.6344937], [-8.4564115, 39.6344345], [-8.4563199, 39.6343605], [-8.4562446, 39.6342959], [-8.4561469, 39.6342067], [-8.4560717, 39.6341343], [-8.4559878, 39.634045], [-8.4559063, 39.6339533], [-8.4558252, 39.633847], [-8.4557201, 39.6337005]]}, "properties": {"highway": "primary", "lanes": "2", "maxspeed:type": "PT:rural", "ref": "EN 113", "surface": "asphalt"}}, {"type": "Feature", "geometry": {"type": "LineString", "coordinates": [[-8.6400817, 39.6709122], [-8.6390012, 39.6702707], [-8.6385969, 39.6699962], [-8.6381102, 39.6695953], [-8.6379572, 39.6694585], [-8.6378341, 39.6693641], [-8.6376906, 39.6692616], [-8.6375093, 39.6691688], [-8.6372461, 39.669074], [-8.6353709, 39.6684528], [-8.633432, 39.6677628], [-8.6329477, 39.6675781]]}, "properties": {"highway": "primary", "lanes": "2", "ref": "EN 113", "surface": "asphalt"}}, {"type": "Feature", "geometry": {"type": "LineString", "coordinates": [[-8.6329477, 39.6675781], [-8.6327683, 39.6675129]]}, "properties": {"bridge": "yes", "highway": "primary", "lanes": "2", "layer": "1", "ref": "EN 113", "surface": "asphalt"}}, {"type": "Feature", "geometry": {"type": "LineString", "coordinates": [[-8.5846079, 39.657158], [-8.5845626, 39.6571071], [-8.5844964, 39.6570724]]}, "properties": {"highway": "primary", "junction": "roundabout", "name": "Rotunda do Ribeirinho", "ref": "EN 113", "surface": "asphalt"}}, {"type": "Feature", "geometry": {"type": "LineString", "coordinates": [[-8.5846257, 39.6572139], [-8.5847102, 39.6570966], [-8.5848237, 39.6568742]]}, "properties": {"highway": "primary", "name": "Rua Doutor Joaquim Francisco Alves", "oneway": "yes", "ref": "EN 113", "surface": "asphalt"}}, {"type": "Feature", "geometry": {"type": "LineString", "coordinates": [[-8.5848237, 39.6568742], [-8.5847102, 39.6569719], [-8.5846233, 39.6570246], [-8.5844964, 39.6570724]]}, "properties": {"highway": "primary", "name": "Rua Doutor Joaquim Francisco Alves", "oneway": "yes", "ref": "EN 113", "surface": "asphalt"}}, {"type": "Feature", "geometry": {"type": "LineString", "coordinates": [[-8.4932149, 39.6537961], [-8.4931061, 39.6535282], [-8.4929001, 39.6529152], [-8.4928555, 39.6526658], [-8.4928413, 39.6523559], [-8.492821, 39.6522386], [-8.4927891, 39.6521293], [-8.492752, 39.6520372], [-8.4926884, 39.6519344], [-8.4921192, 39.6511879], [-8.4920073, 39.6509506], [-8.4919581, 39.6505277], [-8.4919177, 39.6503999], [-8.4918649, 39.6502331]]}, "properties": {"highway": "primary", "lanes": "2", "maxspeed": "50", "maxspeed:type": "sign", "oneway": "no", "ref": "EN 113", "source": "Bing", "surface": "asphalt"}}, {"type": "Feature", "geometry": {"type": "LineString", "coordinates": [[-8.4932717, 39.6539324], [-8.4932149, 39.6537961]]}, "properties": {"bridge": "yes", "highway": "primary", "lanes": "2", "layer": "1", "maxspeed": "50", "maxspeed:type": "sign", "oneway": "no", "ref": "EN 113", "source": "Bing", "surface": "asphalt"}}, {"type": "Feature", "geometry": {"type": "LineString", "coordinates": [[-8.5619355, 39.6559551], [-8.559977, 39.6561274], [-8.5576466, 39.6563322], [-8.556397, 39.6564768], [-8.556088, 39.6565312], [-8.5557027, 39.6566108], [-8.5552391, 39.6567651], [-8.5550945, 39.6568232], [-8.5547706, 39.6569555], [-8.5544843, 39.657124]]}, "properties": {"highway": "primary", "lanes": "2", "ref": "EN 113", "surface": "asphalt"}}, {"type": "Feature", "geometry": {"type": "LineString", "coordinates": [[-8.5544843, 39.657124], [-8.554395, 39.6571872]]}, "properties": {"bridge": "yes", "highway": "primary", "lanes": "2", "layer": "1", "ref": "EN 113", "surface": "asphalt"}}, {"type": "Feature", "geometry": {"type": "LineString", "coordinates": [[-8.4151175, 39.6063176], [-8.4151634, 39.6061085]]}, "properties": {"highway": "primary", "name": "Rua de Leiria", "oneway": "yes", "ref": "EN 113"}}, {"type": "Feature", "geometry": {"type": "LineString", "coordinates": [[-8.7489442, 39.7335016], [-8.7488576, 39.7334722], [-8.7484107, 39.7333558], [-8.7479595, 39.7332757], [-8.7477999, 39.7332351], [-8.7476482, 39.7331792], [-8.7473769, 39.7330519], [-8.7469034, 39.7327992], [-8.7465015, 39.7325217], [-8.746453, 39.7324802], [-8.7462695, 39.7323231], [-8.7459323, 39.7320599], [-8.7454395, 39.7316291], [-8.7452466, 39.7314309], [-8.7451117, 39.7312681], [-8.7450651, 39.7311981], [-8.7450225, 39.7311188], [-8.7449815, 39.7309573], [-8.7449667, 39.730732], [-8.744959, 39.7306048], [-8.7449413, 39.7305037], [-8.7449077, 39.7304134], [-8.744856, 39.7303461], [-8.7447147, 39.7301775], [-8.7441103, 39.7295518], [-8.7436417, 39.729065], [-8.7434711, 39.728912], [-8.7432645, 39.7287551], [-8.7427267, 39.7283287], [-8.7424995, 39.72815], [-8.7421853, 39.7279154], [-8.7420292, 39.7278246], [-8.741928, 39.7277753], [-8.7418319, 39.7277339], [-8.7414084, 39.7275943], [-8.7409793, 39.7274652], [-8.7408907, 39.7274393], [-8.7407501, 39.7274117], [-8.7405776, 39.7274004], [-8.7405425, 39.7274022], [-8.7400441, 39.7274278], [-8.7392398, 39.7274936], [-8.7388408, 39.7275341], [-8.7385958, 39.7275507], [-8.7384949, 39.7275528], [-8.7384172, 39.7275494], [-8.738345, 39.7275432], [-8.7382622, 39.727526], [-8.7380081, 39.7274624], [-8.737546, 39.7273249], [-8.7373131, 39.7272511], [-8.7372472, 39.7272303], [-8.7371813, 39.7272094], [-8.7369898, 39.7271362], [-8.7368918, 39.7270944], [-8.7368165, 39.7270526], [-8.7367826, 39.7270278], [-8.7367487, 39.7269961], [-8.736699, 39.7269397]]}, "properties": {"highway": "primary", "lanes": "2", "lit": "yes", "name": "Rua de Tomar", "ref": "EN 113", "surface": "asphalt"}}, {"type": "Feature", "geometry": {"type": "LineString", "coordinates": [[-8.6974856, 39.7133458], [-8.6974055, 39.7132563], [-8.6971067, 39.7127433], [-8.6970885, 39.7127093], [-8.6967673, 39.7121111], [-8.69668, 39.7119486], [-8.6964693, 39.7115429]]}, "properties": {"highway": "primary", "lanes": "2", "lit": "yes", "name": "Rua de Tomar", "ref": "EN 113", "surface": "asphalt"}}, {"type": "Feature", "geometry": {"type": "LineString", "coordinates": [[-8.6668972, 39.6815197], [-8.6668471, 39.6814502], [-8.6668011, 39.6813977], [-8.6666729, 39.6812833]]}, "properties": {"highway": "primary", "lanes": "3", "lanes:backward": "2", "lanes:forward": "1", "name": "Rua de Tomar", "ref": "EN 113", "surface": "asphalt", "turn:lanes:backward": "left|through"}}, {"type": "Feature", "geometry": {"type": "LineString", "coordinates": [[-8.673922, 39.6903244], [-8.6735621, 39.6898583], [-8.6731679, 39.6893965], [-8.672956, 39.6891375], [-8.6728895, 39.6890583], [-8.6728413, 39.6890052], [-8.6727864, 39.688959], [-8.67269, 39.6888772], [-8.671715, 39.688134]]}, "properties": {"highway": "primary", "lanes": "2", "lit": "no", "name": "Rua de Tomar", "ref": "EN 113", "surface": "asphalt"}}, {"type": "Feature", "geometry": {"type": "LineString", "coordinates": [[-8.671715, 39.688134], [-8.6715884, 39.6880375], [-8.6714341, 39.6879168], [-8.6713683, 39.687862], [-8.6713071, 39.6878073], [-8.6712149, 39.6877061], [-8.6711317, 39.687598], [-8.6709974, 39.6874176], [-8.6707288, 39.6870012], [-8.669958, 39.6858174], [-8.669665, 39.6853088], [-8.6695123, 39.6850087], [-8.6694226, 39.6847863], [-8.6693728, 39.684663], [-8.6690816, 39.6839109], [-8.6690517, 39.6838336], [-8.668999, 39.6836974], [-8.6689413, 39.683585], [-8.6688675, 39.6834848], [-8.6687803, 39.6833796], [-8.6686691, 39.6832806], [-8.6684947, 39.6831442], [-8.6680997, 39.6828663], [-8.6677678, 39.6826235], [-8.6676935, 39.6825668], [-8.6676272, 39.6825071], [-8.667471, 39.6823656], [-8.6673449, 39.682214], [-8.6672438, 39.682075], [-8.6671127, 39.6818482]]}, "properties": {"highway": "primary", "lanes": "2", "lit": "yes", "name": "Rua de Tomar", "ref": "EN 113", "surface": "asphalt"}}, {"type": "Feature", "geometry": {"type": "LineString", "coordinates": [[-8.6753966, 39.6916847], [-8.6752889, 39.6916203], [-8.674873, 39.6913416], [-8.6747412, 39.6912433], [-8.6746318, 39.6911565], [-8.6744265, 39.6909402], [-8.6741899, 39.6906551], [-8.673922, 39.6903244]]}, "properties": {"highway": "primary", "lanes": "2", "lit": "yes", "name": "Rua de Tomar", "ref": "EN 113", "surface": "asphalt"}}, {"type": "Feature", "geometry": {"type": "LineString", "coordinates": [[-8.6964693, 39.7115429], [-8.6964319, 39.7114604], [-8.6962886, 39.7111418], [-8.6962599, 39.7110641], [-8.6962312, 39.7109585], [-8.6961716, 39.7106095], [-8.6961323, 39.7103343], [-8.6961067, 39.7101551], [-8.696069, 39.7097879], [-8.6959808, 39.709038], [-8.6959732, 39.7089733], [-8.6959451, 39.7086192], [-8.6959286, 39.7085141], [-8.695903, 39.7084091], [-8.6958188, 39.708216], [-8.6957776, 39.7081554], [-8.695726, 39.7081054], [-8.6956788, 39.7080764], [-8.6955988, 39.7080317], [-8.6954114, 39.7079555]]}, "properties": {"highway": "primary", "lanes": "2", "lit": "yes", "name": "Rua de Tomar", "ref": "EN 113", "surface": "asphalt"}}, {"type": "Feature", "geometry": {"type": "LineString", "coordinates": [[-8.7027041, 39.7171138], [-8.702614, 39.7170889], [-8.7024815, 39.7170328], [-8.7024206, 39.7169986], [-8.7023662, 39.7169611], [-8.7022226, 39.7168026], [-8.7020719, 39.7166052], [-8.702028, 39.7165461], [-8.7019872, 39.7165015], [-8.701927, 39.7164453], [-8.7018606, 39.7164036], [-8.7017737, 39.716366], [-8.7015508, 39.7163125], [-8.7012296, 39.7162465]]}, "properties": {"highway": "primary", "lanes": "2", "lit": "no", "name": "Rua de Tomar", "ref": "EN 113", "surface": "asphalt"}}, {"type": "Feature", "geometry": {"type": "LineString", "coordinates": [[-8.7012296, 39.7162465], [-8.7007901, 39.7161142], [-8.7003939, 39.7159739], [-8.7000273, 39.7158379], [-8.6997269, 39.7157141], [-8.6995672, 39.7156102], [-8.699404, 39.7154522], [-8.6992981, 39.7152938], [-8.699052, 39.7149164], [-8.698833, 39.7145826], [-8.6987709, 39.7144934], [-8.6986911, 39.7143931], [-8.6985986, 39.7143018], [-8.6981038, 39.7138788], [-8.6977824, 39.7136166], [-8.6977598, 39.7135981], [-8.6976623, 39.7135084], [-8.6974856, 39.7133458]]}, "properties": {"highway": "primary", "lanes": "2", "lit": "yes", "name": "Rua de Tomar", "ref": "EN 113", "surface": "asphalt"}}, {"type": "Feature", "geometry": {"type": "LineString", "coordinates": [[-8.7254554, 39.7240885], [-8.7253831, 39.7240179], [-8.7253379, 39.7239404], [-8.7253012, 39.7238624], [-8.7252691, 39.7237671], [-8.7251616, 39.7235116], [-8.7250886, 39.7234059], [-8.7249703, 39.7232724], [-8.7246134, 39.7229188], [-8.7242886, 39.7226073], [-8.7240046, 39.7223973], [-8.7235936, 39.7221105], [-8.7235231, 39.7220586], [-8.7230977, 39.7217457], [-8.7223185, 39.7211937], [-8.7216624, 39.720721], [-8.721048, 39.7202694], [-8.7205623, 39.719925], [-8.7203486, 39.7197839], [-8.7202508, 39.7197185], [-8.720123, 39.7196595], [-8.7200183, 39.7196261], [-8.7198429, 39.7195902], [-8.7197241, 39.7195739], [-8.7195238, 39.7195464], [-8.7192274, 39.7195095], [-8.718993, 39.7194747], [-8.7186204, 39.7194195], [-8.7176797, 39.7192892], [-8.7175376, 39.7192555], [-8.7174204, 39.7192131], [-8.7166797, 39.7189687], [-8.7164819, 39.7189306], [-8.715627, 39.7188088], [-8.7153436, 39.7187832], [-8.7152091, 39.7187683], [-8.7151169, 39.7187535], [-8.7146846, 39.7186917], [-8.7142323, 39.7186355], [-8.7139707, 39.7186048], [-8.7133733, 39.7185309], [-8.7132161, 39.7185078], [-8.7131247, 39.7184943], [-8.7129985, 39.718454], [-8.7123762, 39.7182259], [-8.7119938, 39.7180749], [-8.7118259, 39.7179893], [-8.7117556, 39.7179444], [-8.7116944, 39.7178925], [-8.7116518, 39.71784], [-8.7116183, 39.717784], [-8.7114106, 39.7173129], [-8.7113787, 39.717241], [-8.7113423, 39.717176], [-8.7112282, 39.7170345], [-8.7110979, 39.7169138], [-8.7109714, 39.7168165], [-8.7108908, 39.7167706], [-8.7107935, 39.716736], [-8.710685, 39.7166979], [-8.7106052, 39.7166827], [-8.7105255, 39.7166744], [-8.7103453, 39.716665], [-8.7103127, 39.7166607], [-8.7101651, 39.716656], [-8.7099716, 39.7166211], [-8.7097476, 39.7165393], [-8.7095599, 39.7164463], [-8.7093721, 39.7163708], [-8.7091129, 39.7162881], [-8.7080589, 39.7160114], [-8.707895, 39.7159684], [-8.7078379, 39.7159534], [-8.707667, 39.7159303], [-8.7074874, 39.7159204], [-8.7065264, 39.7159355], [-8.7062808, 39.7159679], [-8.7059956, 39.7160166], [-8.7058025, 39.7160596], [-8.7056503, 39.7160983], [-8.7055064, 39.7161391], [-8.70528, 39.7162124], [-8.7051022, 39.7162788], [-8.705017, 39.7163246], [-8.7049548, 39.716355], [-8.7049113, 39.7163762], [-8.7046877, 39.7164988], [-8.7042407, 39.7167563], [-8.7040413, 39.716864], [-8.7038523, 39.7169609], [-8.7036303, 39.7170483], [-8.7034474, 39.7171125], [-8.7033369, 39.7171371], [-8.7032971, 39.7171428], [-8.7032459, 39.7171501], [-8.703085, 39.7171616], [-8.7029241, 39.7171583], [-8.7027604, 39.7171294], [-8.7027041, 39.7171138]]}, "properties": {"highway": "primary", "lanes": "2", "lit": "yes", "name": "Rua de Tomar", "ref": "EN 113", "surface": "asphalt"}}, {"type": "Feature", "geometry": {"type": "LineString", "coordinates": [[-8.736699, 39.7269397], [-8.736559, 39.7266978], [-8.7365309, 39.7266584], [-8.7364938, 39.7266189], [-8.7364195, 39.7265575], [-8.736332, 39.7264941], [-8.7362792, 39.726471], [-8.7362264, 39.7264585], [-8.7361407, 39.72644], [-8.7359474, 39.7264257], [-8.7356059, 39.7264515], [-8.7352823, 39.7264968], [-8.7349331, 39.7265854], [-8.7343469, 39.7267896], [-8.7338605, 39.7269603], [-8.7336556, 39.7270288], [-8.7335435, 39.7270561], [-8.7334672, 39.727067], [-8.7333872, 39.7270727], [-8.7333095, 39.7270748], [-8.7331432, 39.7270715], [-8.7324498, 39.7270526], [-8.7317417, 39.7270361], [-8.73098, 39.7270113], [-8.7303746, 39.7269908], [-8.7300141, 39.7269379], [-8.7298942, 39.7269101], [-8.7297825, 39.7268759], [-8.7296601, 39.7268431], [-8.7295377, 39.7268039], [-8.7294242, 39.7267447], [-8.729308, 39.7266665], [-8.7291306, 39.7265308], [-8.7289201, 39.726376], [-8.7286518, 39.7262109], [-8.728169, 39.7259304], [-8.7271713, 39.725361], [-8.7270868, 39.7253086], [-8.7267327, 39.7250892], [-8.7265049, 39.7249427], [-8.7262345, 39.7247436], [-8.7258589, 39.7244331], [-8.7254554, 39.7240885]]}, "properties": {"highway": "primary", "lanes": "2", "lit": "no", "name": "Rua de Tomar", "ref": "EN 113", "surface": "asphalt"}}, {"type": "Feature", "geometry": {"type": "LineString", "coordinates": [[-8.7510415, 39.734034], [-8.7503978, 39.7339057], [-8.7500768, 39.7338434], [-8.7497718, 39.7337762], [-8.7494886, 39.7336917], [-8.749242, 39.7336029], [-8.7489442, 39.7335016]]}, "properties": {"highway": "primary", "lanes": "2", "lit": "no", "name": "Rua de Tomar", "ref": "EN 113", "surface": "asphalt"}}, {"type": "Feature", "geometry": {"type": "LineString", "coordinates": [[-8.5818359, 39.6566666], [-8.5817623, 39.6566711], [-8.579992, 39.6567575], [-8.5796297, 39.6567742]]}, "properties": {"access": "yes", "bicycle": "yes", "cycleway": "no", "foot": "yes", "highway": "primary", "lanes": "2", "maxspeed": "50", "name": "Avenida Dom Nuno \u00c1lvares Pereira", "oneway": "no", "ref": "EN 113", "surface": "asphalt"}}, {"type": "Feature", "geometry": {"type": "LineString", "coordinates": [[-8.5821527, 39.6566618], [-8.5821702, 39.6566419], [-8.5821796, 39.6566189], [-8.58218, 39.6565948]]}, "properties": {"highway": "primary", "junction": "roundabout", "ref": "EN 113"}}, {"type": "Feature", "geometry": {"type": "LineString", "coordinates": [[-8.5819658, 39.6565973], [-8.5819675, 39.656617], [-8.5819745, 39.6566394], [-8.5819891, 39.6566578]]}, "properties": {"highway": "primary", "junction": "roundabout", "ref": "EN 113"}}, {"type": "Feature", "geometry": {"type": "LineString", "coordinates": [[-8.6666729, 39.6812833], [-8.6665706, 39.6812245], [-8.6663211, 39.6810714], [-8.6661689, 39.680986], [-8.6660318, 39.6809238], [-8.6659108, 39.6808856], [-8.6657992, 39.6808617], [-8.6657115, 39.680863], [-8.6655549, 39.680895], [-8.6638348, 39.6813761], [-8.6636868, 39.681412], [-8.6636491, 39.6814171], [-8.6635348, 39.6814325], [-8.6634237, 39.6814453], [-8.6633087, 39.6814519], [-8.663098, 39.6814525], [-8.6629378, 39.6814432], [-8.6627815, 39.6814154], [-8.6626301, 39.6813789], [-8.6624826, 39.6813333], [-8.6620038, 39.6811543], [-8.6618716, 39.6811013], [-8.6617998, 39.6810725], [-8.6609506, 39.6807441], [-8.6607671, 39.680682], [-8.6595469, 39.6803451], [-8.6570028, 39.6796813], [-8.6567889, 39.6796329], [-8.656575, 39.6796102], [-8.6563419, 39.6796113], [-8.655014, 39.6797514], [-8.6546738, 39.6797902], [-8.6544813, 39.6798038], [-8.6543112, 39.6798001], [-8.6541479, 39.679774], [-8.6539957, 39.67974], [-8.6538531, 39.6796935], [-8.6535007, 39.6794578], [-8.6532697, 39.6792967], [-8.6531178, 39.6792323], [-8.6529577, 39.6791934], [-8.6528484, 39.6791771], [-8.6527259, 39.6791862], [-8.6525777, 39.6792284], [-8.6523881, 39.6792952], [-8.6521852, 39.6793899], [-8.652068, 39.679439], [-8.6519489, 39.6794644], [-8.6518263, 39.6794666], [-8.6517169, 39.6794587], [-8.651572, 39.6794215], [-8.6514506, 39.6793623], [-8.6513406, 39.6792931], [-8.6508705, 39.6788659], [-8.6507539, 39.6787652], [-8.6502546, 39.6784336], [-8.6493389, 39.6778564], [-8.6489559, 39.6775641], [-8.6478653, 39.6765323], [-8.6463279, 39.6750009], [-8.6459162, 39.674586], [-8.6456878, 39.6743806], [-8.6454645, 39.6742054], [-8.6451859, 39.6739838], [-8.6448805, 39.6737861], [-8.6442606, 39.673412], [-8.6422387, 39.672203]]}, "properties": {"highway": "primary", "lanes": "2", "name": "Rua de Tomar", "ref": "EN 113", "surface": "asphalt"}}, {"type": "Feature", "geometry": {"type": "LineString", "coordinates": [[-8.6671127, 39.6818482], [-8.6668972, 39.6815197]]}, "properties": {"highway": "primary", "lanes": "2", "lit": "yes", "name": "Rua de Tomar", "ref": "EN 113", "surface": "asphalt"}}, {"type": "Feature", "geometry": {"type": "MultiPolygon", "coordinates": [[[[-8.5919183, 39.6541186], [-8.5919073, 39.6540761], [-8.5918902, 39.6540489], [-8.5918661, 39.6540251], [-8.5918194, 39.653998], [-8.591764, 39.6539833], [-8.5917055, 39.6539825], [-8.5916471, 39.6539966], [-8.5915977, 39.6540245], [-8.5915626, 39.6540631], [-8.5915457, 39.6541085], [-8.5915487, 39.6541556], [-8.5915714, 39.6541994], [-8.5916138, 39.6542369], [-8.5916704, 39.6542611], [-8.5916856, 39.654263], [-8.5917342, 39.654269], [-8.5917977, 39.6542597], [-8.5918533, 39.6542342], [-8.59189, 39.6542014], [-8.5919123, 39.6541617], [-8.5919183, 39.6541186]]]]}, "properties": {"highway": "primary", "junction": "roundabout", "ref": "EN 113", "surface": "asphalt"}}, {"type": "Feature", "geometry": {"type": "MultiPolygon", "coordinates": [[[[-8.768614, 39.7356881], [-8.7686035, 39.7356446], [-8.7685796, 39.7356044], [-8.7685437, 39.7355699], [-8.7684979, 39.7355431], [-8.7684647, 39.7355309], [-8.7684294, 39.7355228], [-8.7683929, 39.7355191], [-8.7683561, 39.7355198], [-8.7682815, 39.7355357], [-8.7682178, 39.7355694], [-8.768176, 39.7356113], [-8.7681518, 39.7356606], [-8.7681473, 39.7357133], [-8.7681644, 39.7357677], [-8.7682024, 39.7358154], [-8.7682576, 39.7358518], [-8.7683248, 39.7358735], [-8.7683973, 39.7358781], [-8.7684682, 39.7358655], [-8.7685252, 39.7358419], [-8.768568, 39.7358062], [-8.7685952, 39.73577], [-8.7686108, 39.7357299], [-8.768614, 39.7356881]]]]}, "properties": {"highway": "primary", "junction": "roundabout", "lanes": "2", "lit": "yes", "maxspeed": "50", "name": "Rua de Tomar", "ref": "EN 113", "surface": "asphalt"}}, {"type": "Feature", "geometry": {"type": "MultiPolygon", "coordinates": [[[[-8.4848034, 39.6449175], [-8.4847904, 39.6448726], [-8.4847716, 39.6448414], [-8.4847201, 39.644794], [-8.4846511, 39.6447623], [-8.4845724, 39.64475], [-8.4845236, 39.6447526], [-8.4844765, 39.6447627], [-8.4844133, 39.6447911], [-8.4843642, 39.6448327], [-8.4843336, 39.6448839], [-8.4843246, 39.6449431], [-8.4843406, 39.6450015], [-8.4843799, 39.6450529], [-8.4844384, 39.645092], [-8.48451, 39.6451147], [-8.484583, 39.6451189], [-8.4846543, 39.645106], [-8.4847171, 39.6450772], [-8.4847547, 39.6450473], [-8.4847849, 39.6450076], [-8.4848015, 39.6449634], [-8.4848034, 39.6449175]]]]}, "properties": {"highway": "primary", "junction": "roundabout", "lanes": "2", "ref": "EN 113", "surface": "asphalt"}}, {"type": "Feature", "geometry": {"type": "MultiPolygon", "coordinates": [[[[-8.6407977, 39.6711821], [-8.6407856, 39.6711262], [-8.6407529, 39.6710753], [-8.6407025, 39.671034], [-8.6406397, 39.671006], [-8.6405691, 39.670993], [-8.6404966, 39.6709961], [-8.6404518, 39.6710035], [-8.6403689, 39.6710489], [-8.6403249, 39.6710946], [-8.6403001, 39.6711483], [-8.6402956, 39.6711938], [-8.6403051, 39.6712389], [-8.640328, 39.671281], [-8.6403632, 39.6713178], [-8.6404086, 39.6713472], [-8.6404537, 39.6713652], [-8.6405026, 39.671376], [-8.6405533, 39.6713789], [-8.6406038, 39.6713738], [-8.6406519, 39.6713611], [-8.6406982, 39.6713397], [-8.6407375, 39.6713112], [-8.640768, 39.6712769], [-8.6407882, 39.6712383], [-8.6407977, 39.6711821]]]]}, "properties": {"highway": "primary", "junction": "roundabout", "lanes": "1", "ref": "EN 113", "surface": "asphalt"}}, {"type": "Feature", "geometry": {"type": "MultiPolygon", "coordinates": [[[[-8.6420316, 39.6719047], [-8.6420172, 39.6718545], [-8.6419871, 39.6718087], [-8.641943, 39.6717702], [-8.6418716, 39.6717356], [-8.6417897, 39.6717201], [-8.6417057, 39.6717251], [-8.641628, 39.6717503], [-8.6415802, 39.6717797], [-8.6415425, 39.6718167], [-8.6415168, 39.6718594], [-8.641511, 39.6718828], [-8.6415041, 39.6719102], [-8.6415084, 39.6719617], [-8.6415295, 39.6720108], [-8.6415659, 39.6720543], [-8.6415943, 39.6720742], [-8.6416177, 39.6720905], [-8.64168, 39.672115], [-8.6417484, 39.672126], [-8.6418182, 39.6721229], [-8.6418846, 39.6721058], [-8.6419373, 39.6720795], [-8.6419805, 39.6720444], [-8.6420117, 39.6720024], [-8.6420292, 39.671956], [-8.6420316, 39.6719047]]]]}, "properties": {"highway": "primary", "junction": "roundabout", "lanes": "1", "ref": "EN 113", "surface": "asphalt"}}, {"type": "Feature", "geometry": {"type": "MultiPolygon", "coordinates": [[[[-8.5307902, 39.6457628], [-8.5307742, 39.6457106], [-8.5307397, 39.6456641], [-8.5306917, 39.6456281], [-8.5306329, 39.6456035], [-8.5305676, 39.6455921], [-8.5304918, 39.6455962], [-8.5304214, 39.6456181], [-8.530363, 39.6456556], [-8.5303225, 39.645705], [-8.530304, 39.6457583], [-8.5303065, 39.6458135], [-8.5303296, 39.6458657], [-8.5303734, 39.6459121], [-8.5304333, 39.6459462], [-8.5305038, 39.6459647], [-8.5305782, 39.6459661], [-8.5306498, 39.6459502], [-8.530713, 39.6459174], [-8.5307601, 39.6458713], [-8.5307864, 39.6458163], [-8.5307902, 39.6457628]]]]}, "properties": {"highway": "primary", "junction": "roundabout", "ref": "EN 113"}}, {"type": "Feature", "geometry": {"type": "MultiPolygon", "coordinates": [[[[-8.7611261, 39.7334521], [-8.7611228, 39.7333976], [-8.7610986, 39.7333463], [-8.761071, 39.7333157], [-8.7610359, 39.73329], [-8.7609896, 39.7332686], [-8.7609381, 39.7332558], [-8.7608843, 39.7332525], [-8.7608308, 39.7332587], [-8.7607726, 39.7332777], [-8.760723, 39.733308], [-8.7606818, 39.7333531], [-8.7606603, 39.7334057], [-8.7606604, 39.7334609], [-8.7606755, 39.7335063], [-8.7606931, 39.7335321], [-8.7607234, 39.7335584], [-8.7607803, 39.7335918], [-8.7608476, 39.7336104], [-8.7609192, 39.7336125], [-8.7609697, 39.7336037], [-8.7610165, 39.7335865], [-8.7610704, 39.733551], [-8.7611081, 39.7335048], [-8.7611261, 39.7334521]]]]}, "properties": {"highway": "primary", "junction": "roundabout", "lanes": "1", "lit": "yes", "name": "Rua de Tomar", "ref": "EN 113", "surface": "asphalt"}}]}