{"type": "FeatureCollection", "features": [{"type": "Feature", "geometry": {"type": "LineString", "coordinates": [[-8.4905749, 40.7435434], [-8.4907231, 40.7435426], [-8.492193, 40.7435426], [-8.492497, 40.7435443], [-8.4927365, 40.7435455], [-8.4927837, 40.7435459], [-8.493584, 40.7436056], [-8.4966509, 40.7438421], [-8.4970741, 40.7438612]]}, "properties": {"highway": "primary", "lanes": "2", "name": "Rua das Flores", "oneway": "no", "ref": "EN 1-12", "surface": "asphalt"}}, {"type": "Feature", "geometry": {"type": "LineString", "coordinates": [[-8.5459625, 40.7425887], [-8.5460625, 40.7424302]]}, "properties": {"highway": "primary", "lanes": "1", "name": "Rua de Campinos", "oneway": "yes", "parking:both": "no", "ref": "EN 1-12", "surface": "asphalt"}}, {"type": "Feature", "geometry": {"type": "LineString", "coordinates": [[-8.5410864, 40.7430341], [-8.5418955, 40.7428063]]}, "properties": {"bridge": "yes", "bridge:ref": "A29.010", "height": "10", "highway": "primary", "lanes": "2", "layer": "1", "maxspeed": "50", "maxweight:signed": "no", "name": "Rua Doutor Aires de Pinho", "oneway": "no", "parking:both": "no", "ref": "EN 1-12", "surface": "asphalt"}}, {"type": "Feature", "geometry": {"type": "LineString", "coordinates": [[-8.527271, 40.7437364], [-8.5280115, 40.7436313]]}, "properties": {"bridge": "yes", "highway": "primary", "layer": "1", "maxspeed": "80", "oneway": "no", "ref": "EN 1-12"}}, {"type": "Feature", "geometry": {"type": "LineString", "coordinates": [[-8.5361239, 40.7441607], [-8.5366743, 40.744151], [-8.537048, 40.7441444]]}, "properties": {"highway": "primary", "lanes": "2", "maxspeed": "50", "name": "Rua Alberto Oliveira Canelas", "oneway": "no", "parking:both": "no", "ref": "EN 1-12", "surface": "asphalt"}}, {"type": "Feature", "geometry": {"type": "LineString", "coordinates": [[-8.5280115, 40.7436313], [-8.5280936, 40.7436214], [-8.5282549, 40.743602], [-8.5290885, 40.7435253], [-8.5301087, 40.7435111], [-8.5309668, 40.7435395], [-8.5312618, 40.7435492], [-8.5316599, 40.7436041], [-8.5320891, 40.743721], [-8.5328963, 40.7440152], [-8.5333531, 40.7441513], [-8.5337172, 40.7442131], [-8.5340813, 40.7442383], [-8.5352997, 40.7441754], [-8.5361239, 40.7441607]]}, "properties": {"highway": "primary", "lanes": "2", "maxspeed": "80", "name": "Rua Alberto Oliveira Canelas", "oneway": "no", "ref": "EN 1-12", "surface": "asphalt"}}, {"type": "Feature", "geometry": {"type": "LineString", "coordinates": [[-8.5418955, 40.7428063], [-8.5422268, 40.7427345], [-8.5428535, 40.7426669], [-8.5439797, 40.7425575], [-8.5441419, 40.7425407], [-8.5442821, 40.7425278], [-8.5444, 40.7425154], [-8.5444995, 40.7425068], [-8.5445686, 40.7425006], [-8.5446201, 40.7424974], [-8.5446625, 40.7424948], [-8.5447069, 40.7424921], [-8.5448783, 40.7424816], [-8.5451786, 40.7424898]]}, "properties": {"highway": "primary", "lanes": "2", "lit": "yes", "maxspeed": "50", "name": "Rua Doutor Aires de Pinho", "oneway": "no", "parking:both": "no", "ref": "EN 1-12", "surface": "asphalt"}}, {"type": "Feature", "geometry": {"type": "LineString", "coordinates": [[-8.5121541, 40.7456061], [-8.5125285, 40.7455916], [-8.512919, 40.7455551], [-8.5138705, 40.7454274], [-8.5140862, 40.7453984], [-8.5144022, 40.745356], [-8.5148118, 40.7453014], [-8.5155893, 40.7451977], [-8.5176, 40.7449295], [-8.5177511, 40.7449093]]}, "properties": {"highway": "primary", "lanes": "2", "maxspeed": "50", "oneway": "no", "ref": "EN 1-12", "surface": "asphalt"}}, {"type": "Feature", "geometry": {"type": "LineString", "coordinates": [[-8.5221405, 40.7441436], [-8.5222169, 40.7441357], [-8.5223889, 40.744118], [-8.522575, 40.7441181], [-8.522982, 40.7441383], [-8.5234279, 40.7441146], [-8.5242071, 40.7440185], [-8.5248806, 40.7439656], [-8.5258859, 40.7439026], [-8.5262035, 40.7438705], [-8.5271671, 40.7437522], [-8.527271, 40.7437364]]}, "properties": {"highway": "primary", "maxspeed": "80", "oneway": "no", "ref": "EN 1-12"}}, {"type": "Feature", "geometry": {"type": "LineString", "coordinates": [[-8.5458674, 40.7428241], [-8.5459448, 40.7427704], [-8.5459837, 40.7427018], [-8.5459778, 40.7426107], [-8.5459625, 40.7425887], [-8.545936, 40.7425506]]}, "properties": {"highway": "primary", "junction": "roundabout", "lanes": "2", "maxspeed": "50", "noname": "yes", "ref": "EN 1-12", "surface": "asphalt"}}, {"type": "Feature", "geometry": {"type": "LineString", "coordinates": [[-8.5606499, 40.7359695], [-8.5607762, 40.7359328], [-8.5608501, 40.7359328], [-8.5609266, 40.7359389], [-8.5610112, 40.7359575]]}, "properties": {"highway": "primary", "lanes": "1", "maxspeed": "50", "name": "Rua Professor Miguel Marques Lemos", "oneway": "yes", "ref": "EN 1-12", "sidewalk": "right", "surface": "asphalt"}}, {"type": "Feature", "geometry": {"type": "LineString", "coordinates": [[-8.5573749, 40.7376182], [-8.5575343, 40.7376083], [-8.5576339, 40.7376059], [-8.5579759, 40.7376014], [-8.5583895, 40.7376135], [-8.5585704, 40.7376047], [-8.5587552, 40.7375687], [-8.5588696, 40.737524], [-8.5589975, 40.7374509], [-8.5591155, 40.7373204], [-8.5591928, 40.737224], [-8.5594972, 40.7368297], [-8.5596689, 40.7366458], [-8.5598553, 40.7364791], [-8.5600038, 40.73635], [-8.5601631, 40.7362352], [-8.5606499, 40.7359695]]}, "properties": {"highway": "primary", "lanes": "2", "lit": "yes", "maxspeed": "50", "name": "Rua Professor Miguel Marques Lemos", "oneway": "no", "ref": "EN 1-12", "sidewalk": "both", "surface": "asphalt"}}, {"type": "Feature", "geometry": {"type": "LineString", "coordinates": [[-8.5534452, 40.7392852], [-8.5534817, 40.739266], [-8.5535813, 40.7392065], [-8.5540415, 40.7389984], [-8.5541433, 40.7389513], [-8.5543988, 40.7387976], [-8.5546489, 40.7386216], [-8.5551854, 40.7381544], [-8.5554774, 40.7378695], [-8.5555924, 40.7377899], [-8.5559356, 40.7376463], [-8.5560303, 40.7375973], [-8.5561655, 40.7375427], [-8.5562748, 40.7375258], [-8.5565198, 40.7375342], [-8.5569986, 40.7376091], [-8.5571445, 40.7376189], [-8.5573749, 40.7376182]]}, "properties": {"highway": "primary", "lanes": "2", "name": "Rua Visconde de Salreu", "oneway": "no", "ref": "EN 1-12", "sidewalk": "both", "surface": "asphalt"}}, {"type": "Feature", "geometry": {"type": "LineString", "coordinates": [[-8.4970741, 40.7438612], [-8.4979916, 40.7438358], [-8.4995844, 40.7437599], [-8.5002965, 40.7437359], [-8.5007807, 40.7437324], [-8.5012688, 40.7437665], [-8.5016982, 40.7438247], [-8.5021784, 40.7439218], [-8.5026053, 40.744044], [-8.5030215, 40.7441885], [-8.5066028, 40.7454838], [-8.506836, 40.7455415], [-8.5071359, 40.7456041], [-8.5072877, 40.7456223], [-8.5075709, 40.7456563], [-8.5078463, 40.7456629], [-8.511384, 40.7456174], [-8.5121541, 40.7456061]]}, "properties": {"highway": "primary", "lanes": "2", "oneway": "no", "ref": "EN 1-12", "surface": "asphalt"}}, {"type": "Feature", "geometry": {"type": "LineString", "coordinates": [[-8.5177511, 40.7449093], [-8.5179889, 40.7448786], [-8.5185162, 40.7448086], [-8.5201775, 40.7445862], [-8.5203323, 40.7445652], [-8.5209209, 40.7444855], [-8.521273, 40.7444146], [-8.521684, 40.7442802], [-8.5221405, 40.7441436]]}, "properties": {"highway": "primary", "lanes": "2", "maxspeed": "50", "oneway": "no", "ref": "EN 1-12", "surface": "asphalt"}}, {"type": "Feature", "geometry": {"type": "LineString", "coordinates": [[-8.5451786, 40.7424898], [-8.5453905, 40.7425803], [-8.5454471, 40.7426238], [-8.5455037, 40.7426672]]}, "properties": {"highway": "primary", "lanes": "1", "maxspeed": "50", "name": "Rua Doutor Aires de Pinho", "oneway": "yes", "parking:both": "no", "ref": "EN 1-12", "surface": "asphalt"}}, {"type": "Feature", "geometry": {"type": "LineString", "coordinates": [[-8.5456064, 40.7425159], [-8.5454991, 40.742503], [-8.545306, 40.7424939], [-8.5451786, 40.7424898]]}, "properties": {"highway": "primary", "lanes": "1", "name": "Rua Doutor Aires de Pinho", "oneway": "yes", "parking:both": "no", "ref": "EN 1-12", "surface": "asphalt"}}, {"type": "Feature", "geometry": {"type": "LineString", "coordinates": [[-8.5460625, 40.7424302], [-8.5462502, 40.7423722], [-8.546372, 40.7423414], [-8.5464668, 40.7423191], [-8.5465216, 40.7423063], [-8.5465879, 40.7422907], [-8.5466779, 40.7422696], [-8.5467963, 40.7422418], [-8.5469304, 40.7422103], [-8.5470867, 40.7421736], [-8.5476397, 40.7420414], [-8.5481164, 40.7419129], [-8.5486219, 40.741759], [-8.5500592, 40.7413095], [-8.5502397, 40.7412535], [-8.5504039, 40.7412005], [-8.5506896, 40.7410977], [-8.5509477, 40.7409682], [-8.5520291, 40.7403958], [-8.5521608, 40.7403006], [-8.5522696, 40.7402033], [-8.5525864, 40.73992], [-8.5533562, 40.7393513], [-8.5534452, 40.7392852]]}, "properties": {"highway": "primary", "lanes": "2", "name": "Rua de Campinos", "oneway": "no", "parking:both": "no", "ref": "EN 1-12", "sidewalk": "both", "surface": "asphalt"}}, {"type": "Feature", "geometry": {"type": "LineString", "coordinates": [[-8.5460625, 40.7424302], [-8.5458974, 40.7424826], [-8.545848, 40.7424982]]}, "properties": {"highway": "primary", "lanes": "1", "name": "Rua de Campinos", "oneway": "yes", "parking:both": "no", "ref": "EN 1-12", "surface": "asphalt"}}, {"type": "Feature", "geometry": {"type": "LineString", "coordinates": [[-8.5609746, 40.7357849], [-8.5606893, 40.7359361], [-8.5606499, 40.7359695]]}, "properties": {"highway": "primary", "lanes": "1", "maxspeed": "50", "name": "Rua Professor Miguel Marques Lemos", "oneway": "yes", "ref": "EN 1-12", "sidewalk": "right", "surface": "asphalt"}}, {"type": "Feature", "geometry": {"type": "LineString", "coordinates": [[-8.537048, 40.7441444], [-8.5376933, 40.7441331], [-8.5378726, 40.7441092], [-8.5380577, 40.7440696], [-8.5384028, 40.7439581], [-8.5398881, 40.7434275], [-8.5401495, 40.7433341], [-8.5403198, 40.7432754], [-8.5408999, 40.7430838], [-8.5410864, 40.7430341]]}, "properties": {"highway": "primary", "lanes": "2", "maxspeed": "50", "name": "Rua Doutor Aires de Pinho", "oneway": "no", "parking:both": "no", "ref": "EN 1-12", "surface": "asphalt"}}, {"type": "Feature", "geometry": {"type": "LineString", "coordinates": [[-8.545936, 40.7425506], [-8.545848, 40.7424982], [-8.5457712, 40.7424822], [-8.5456773, 40.7424888], [-8.5456064, 40.7425159], [-8.5455618, 40.7425456], [-8.545524, 40.7425914]]}, "properties": {"highway": "primary", "junction": "roundabout", "lanes": "2", "maxspeed": "50", "noname": "yes", "ref": "EN 1-12", "surface": "asphalt"}}, {"type": "Feature", "geometry": {"type": "LineString", "coordinates": [[-8.545524, 40.7425914], [-8.5455037, 40.7426672], [-8.5455265, 40.7427427]]}, "properties": {"highway": "primary", "junction": "roundabout", "lanes": "2", "maxspeed": "50", "noname": "yes", "ref": "EN 1-12", "surface": "asphalt"}}, {"type": "Feature", "geometry": {"type": "LineString", "coordinates": [[-8.5455265, 40.7427427], [-8.5455992, 40.7428111]]}, "properties": {"highway": "primary", "junction": "roundabout", "lanes": "2", "maxspeed": "50", "noname": "yes", "ref": "EN 1-12", "surface": "asphalt"}}, {"type": "Feature", "geometry": {"type": "LineString", "coordinates": [[-8.5455992, 40.7428111], [-8.5456794, 40.7428416], [-8.5457555, 40.7428486], [-8.5458156, 40.7428392], [-8.5458674, 40.7428241]]}, "properties": {"highway": "primary", "junction": "roundabout", "lanes": "2", "maxspeed": "50", "noname": "yes", "ref": "EN 1-12", "surface": "asphalt"}}]}