{"type": "FeatureCollection", "features": [{"type": "Feature", "geometry": {"type": "LineString", "coordinates": [[-7.2776723, 40.5127411], [-7.2780285, 40.5122374], [-7.2781656, 40.5121164], [-7.2783147, 40.5120368], [-7.2788408, 40.5118878], [-7.2790113, 40.511801], [-7.2791577, 40.5116982], [-7.2792677, 40.511565], [-7.2794925, 40.5112296], [-7.2795855, 40.5110643], [-7.2796133, 40.5109103], [-7.2796291, 40.5105587], [-7.2796485, 40.5104115], [-7.2796853, 40.5102841], [-7.2798309, 40.5099545], [-7.279859, 40.5098217], [-7.2798387, 40.5096888], [-7.2797739, 40.5095541], [-7.2796323, 40.5093307], [-7.2794821, 40.5091504], [-7.2788416, 40.50859], [-7.2787693, 40.5084916], [-7.2787333, 40.5083978], [-7.2787336, 40.5082926], [-7.278758, 40.5081827], [-7.2789464, 40.5077088], [-7.2791956, 40.5070571], [-7.2795271, 40.5064192], [-7.2798662, 40.5058213], [-7.2799928, 40.505667], [-7.28018, 40.5055173], [-7.2818464, 40.5044526], [-7.2820771, 40.5043476], [-7.2839745, 40.5037247], [-7.2858856, 40.5030932], [-7.2862224, 40.5030269], [-7.286736, 40.5029871], [-7.2877633, 40.5029351], [-7.2881458, 40.5029075], [-7.2884339, 40.5028536], [-7.2886619, 40.5027618], [-7.2890791, 40.5025385], [-7.2893136, 40.5024314], [-7.289606, 40.5023763], [-7.2903503, 40.5023345], [-7.2906156, 40.5023212], [-7.2908961, 40.5023304], [-7.291057, 40.5023548], [-7.2931454, 40.5029029], [-7.2933618, 40.5029179], [-7.2935947, 40.5028912], [-7.2940247, 40.5027833], [-7.2945101, 40.5026621], [-7.2956694, 40.5024162], [-7.2966398, 40.5022102], [-7.2968835, 40.5021768], [-7.2971273, 40.5021685], [-7.2973262, 40.5021896], [-7.2976141, 40.5022359], [-7.2993004, 40.502571], [-7.3000178, 40.5026968], [-7.3002828, 40.5027014], [-7.3030955, 40.502548], [-7.3040436, 40.5024936], [-7.3042326, 40.5024711], [-7.3043997, 40.5024236], [-7.304599, 40.5023473], [-7.3047399, 40.5022608], [-7.3048863, 40.5021492], [-7.3049607, 40.5020644], [-7.3050297, 40.5019587], [-7.3056192, 40.5005228], [-7.3058242, 40.5000235], [-7.3059403, 40.4998683], [-7.3060994, 40.4997616], [-7.3062695, 40.4996968], [-7.3066025, 40.4996392], [-7.3075826, 40.4994998], [-7.3083685, 40.4993406], [-7.3086764, 40.4992415], [-7.3095476, 40.4987728], [-7.3099332, 40.4987018], [-7.3110942, 40.4983987], [-7.3113817, 40.498366], [-7.3117115, 40.4983727], [-7.3119676, 40.4984361], [-7.312105, 40.4984916], [-7.312345, 40.4986129], [-7.3127984, 40.4989041], [-7.3130855, 40.4990463], [-7.3137643, 40.4993027], [-7.3139897, 40.4993553], [-7.3142151, 40.4993693], [-7.3144335, 40.4993533], [-7.3146519, 40.499291], [-7.3154733, 40.4989206], [-7.315602, 40.4988184], [-7.3157003, 40.4987084], [-7.3160696, 40.498168], [-7.3162561, 40.4980213], [-7.3167931, 40.4977356], [-7.3169442, 40.4975664], [-7.3174384, 40.4962232], [-7.3174664, 40.4956671], [-7.3175046, 40.4954741], [-7.3175865, 40.4953396], [-7.3176989, 40.4952438], [-7.3178829, 40.4951216], [-7.3181258, 40.4950331], [-7.3189967, 40.494839], [-7.3193657, 40.4947297], [-7.3196393, 40.4945463], [-7.3198319, 40.4943735], [-7.3199537, 40.4942253], [-7.3200348, 40.4940771], [-7.3200696, 40.4937977], [-7.320145, 40.493611], [-7.3203436, 40.4933795], [-7.3219878, 40.4918226], [-7.3223053, 40.4915508], [-7.3232348, 40.4909363], [-7.3233896, 40.4908035], [-7.3237516, 40.490119], [-7.3238234, 40.4899394], [-7.3238695, 40.4896565], [-7.3239156, 40.4895203], [-7.3252974, 40.4877848], [-7.325489, 40.487631], [-7.3260005, 40.4873536], [-7.3261818, 40.4872414], [-7.3263326, 40.4871215], [-7.32801, 40.4849858]]}, "properties": {"highway": "primary", "oneway": "no", "ref": "EN 18-1"}}, {"type": "Feature", "geometry": {"type": "LineString", "coordinates": [[-7.2772559, 40.5129959], [-7.2773762, 40.5130329], [-7.277497, 40.5129941]]}, "properties": {"highway": "primary", "oneway": "yes", "ref": "EN 18-1", "surface": "asphalt"}}, {"type": "Feature", "geometry": {"type": "LineString", "coordinates": [[-7.2772778, 40.5133904], [-7.2773912, 40.513147], [-7.277497, 40.5129941], [-7.2776723, 40.5127411]]}, "properties": {"highway": "primary", "oneway": "yes", "ref": "EN 18-1", "surface": "asphalt"}}, {"type": "Feature", "geometry": {"type": "LineString", "coordinates": [[-7.2776723, 40.5127411], [-7.2775329, 40.512852], [-7.2774014, 40.5129152], [-7.2773122, 40.5129198], [-7.2772472, 40.5129152]]}, "properties": {"highway": "primary", "oneway": "yes", "ref": "EN 18-1", "surface": "asphalt"}}, {"type": "Feature", "geometry": {"type": "LineString", "coordinates": [[-7.32801, 40.4849858], [-7.3282235, 40.4847224], [-7.3287269, 40.4842945], [-7.328881, 40.4841772], [-7.3295511, 40.4836309], [-7.3302327, 40.4831084], [-7.3305473, 40.4829169], [-7.3323517, 40.4819726], [-7.3325428, 40.4818972], [-7.3326312, 40.481869]]}, "properties": {"highway": "primary", "oneway": "no", "ref": "EN 18-1"}}, {"type": "Feature", "geometry": {"type": "LineString", "coordinates": [[-7.3328092, 40.481839], [-7.3328576, 40.4818287]]}, "properties": {"highway": "primary", "oneway": "no", "ref": "EN 18-1"}}, {"type": "Feature", "geometry": {"type": "LineString", "coordinates": [[-7.3771198, 40.4372714], [-7.3771771, 40.4371988], [-7.3772264, 40.437105], [-7.3773761, 40.4366763], [-7.3774717, 40.4365623], [-7.3776151, 40.4364737], [-7.3781439, 40.4362775], [-7.3783427, 40.4361272], [-7.3786432, 40.4357332], [-7.3788229, 40.4355022], [-7.3789331, 40.4353978], [-7.3791275, 40.4352655], [-7.3794487, 40.435056], [-7.3795734, 40.4349363], [-7.3796981, 40.4347807], [-7.3797745, 40.4346353], [-7.3798375, 40.4344695], [-7.3798655, 40.4343351], [-7.3798868, 40.4341853], [-7.3798284, 40.4331179], [-7.3798409, 40.4329555], [-7.379914, 40.4327725], [-7.3801013, 40.4325213], [-7.3801593, 40.4323931], [-7.380197, 40.4322648], [-7.3801659, 40.4320876], [-7.3800609, 40.4319563], [-7.3797616, 40.4317027], [-7.3794757, 40.4314926], [-7.3792782, 40.4313819], [-7.3790353, 40.4312878], [-7.3789333, 40.4312383], [-7.3788583, 40.4311683], [-7.3788323, 40.4310706], [-7.3788265, 40.430973], [-7.3789143, 40.430396], [-7.3789728, 40.4302801], [-7.3790414, 40.4302179], [-7.3791584, 40.4301501], [-7.379351, 40.4301065], [-7.3796998, 40.4300757], [-7.37986, 40.4300808], [-7.3802645, 40.4301304], [-7.3804379, 40.4301472], [-7.3805843, 40.4301383], [-7.3807174, 40.43011], [-7.3808437, 40.430056], [-7.3816213, 40.4294941], [-7.3823497, 40.4289677], [-7.3824104, 40.4288594], [-7.3824239, 40.4287358], [-7.382396, 40.4285997], [-7.381857, 40.4272096], [-7.381828, 40.4270961], [-7.3818192, 40.4270031], [-7.3818387, 40.4268991], [-7.3819046, 40.4267321], [-7.3819775, 40.4266239], [-7.3820808, 40.4265465], [-7.3822333, 40.4264583], [-7.3824241, 40.4264049], [-7.3830408, 40.4263556], [-7.3832468, 40.4263164], [-7.3837281, 40.4261597], [-7.3839167, 40.4261361], [-7.3840433, 40.4261417], [-7.3841767, 40.4261729], [-7.3845432, 40.4262799], [-7.384705, 40.4263038], [-7.3848836, 40.4262944], [-7.3850387, 40.4262488], [-7.3851736, 40.4261801], [-7.3852886, 40.4260633], [-7.385615, 40.4254624], [-7.3857274, 40.4253641], [-7.3858869, 40.4253016], [-7.3863069, 40.4251869], [-7.3864451, 40.4251211], [-7.3865495, 40.4250347], [-7.3867954, 40.4247544], [-7.3869444, 40.4246502], [-7.387063, 40.4246049], [-7.3872195, 40.4245708], [-7.3873943, 40.4245724], [-7.3875389, 40.4246048], [-7.3876461, 40.4246594], [-7.3877891, 40.4247816], [-7.3881341, 40.4251703], [-7.3882418, 40.4252501], [-7.3883832, 40.4252888], [-7.3885213, 40.4252791], [-7.3886399, 40.4252273], [-7.3887214, 40.4251422], [-7.3887564, 40.4250286], [-7.3887576, 40.4247459], [-7.3888039, 40.4246393], [-7.3888905, 40.4245737], [-7.3890267, 40.4245169], [-7.3897228, 40.4243982], [-7.3898922, 40.4243202], [-7.3900415, 40.4242191], [-7.3901447, 40.4241144], [-7.390198, 40.424021], [-7.3902379, 40.4239275], [-7.3902503, 40.4237765], [-7.3902275, 40.4236413], [-7.3900701, 40.4232164], [-7.389985, 40.42303], [-7.3898861, 40.4229169], [-7.3897805, 40.4228396], [-7.3895246, 40.4227459], [-7.3891461, 40.4226244], [-7.3890405, 40.4225549], [-7.3889719, 40.4224598], [-7.388963, 40.4223714], [-7.3889945, 40.4222908], [-7.3890528, 40.4222055], [-7.389138, 40.4221458], [-7.3895274, 40.42197], [-7.3896642, 40.4218691], [-7.389801, 40.4217477], [-7.3901092, 40.4213667], [-7.3902154, 40.4212624], [-7.3910613, 40.4207252], [-7.3918854, 40.4201078], [-7.3919534, 40.4200302], [-7.3919944, 40.4199424], [-7.3919916, 40.4198418], [-7.3919686, 40.4197462], [-7.3918162, 40.419377], [-7.3918131, 40.4192703], [-7.391847, 40.4191712], [-7.3919113, 40.4190962], [-7.3920161, 40.4190264], [-7.3929604, 40.4186337], [-7.3931648, 40.4185266], [-7.3934568, 40.4182964], [-7.3935628, 40.4181769], [-7.3935971, 40.418078], [-7.3936044, 40.4179791], [-7.3935719, 40.4178787], [-7.3935001, 40.4177786], [-7.3931254, 40.4174785], [-7.3930556, 40.4174063], [-7.3930128, 40.4173032], [-7.3930214, 40.4171997], [-7.3931072, 40.4171033], [-7.3932066, 40.4170479], [-7.3933446, 40.4170242], [-7.3937912, 40.4170417], [-7.3939963, 40.4170136], [-7.394134, 40.4169599], [-7.3942479, 40.4168781], [-7.3943168, 40.4167672], [-7.3943898, 40.4164635], [-7.3944363, 40.4163439], [-7.3945231, 40.4162397], [-7.3947987, 40.4160161], [-7.3948946, 40.415907], [-7.3949972, 40.4157312], [-7.3950525, 40.4155138], [-7.3950607, 40.4153579], [-7.3950315, 40.4152327], [-7.3948677, 40.4148948], [-7.394849, 40.4147791], [-7.3948741, 40.414684], [-7.394962, 40.4146018], [-7.3950902, 40.4145401], [-7.3953865, 40.4144411], [-7.3955137, 40.4143731], [-7.395614, 40.4142949], [-7.3957137, 40.4141692], [-7.3957681, 40.4140208], [-7.3957799, 40.413857], [-7.3956974, 40.4134292], [-7.3957039, 40.4132921], [-7.3957574, 40.4132011], [-7.3958508, 40.4131277], [-7.3963145, 40.4128903], [-7.3964445, 40.4127877], [-7.3965441, 40.4126672], [-7.3965938, 40.4125245], [-7.3965964, 40.4123971], [-7.3964336, 40.4120158], [-7.3964404, 40.4118921], [-7.3965146, 40.4117991], [-7.3966225, 40.4117361], [-7.3972596, 40.411553], [-7.3973539, 40.4115023], [-7.3974347, 40.4114311], [-7.397502, 40.4113297], [-7.3977616, 40.4104681], [-7.3978411, 40.4103155], [-7.3982165, 40.4098596], [-7.3983002, 40.4097284], [-7.3983267, 40.40961], [-7.3982955, 40.4095091], [-7.3982306, 40.4094082], [-7.3981264, 40.4093478], [-7.3978403, 40.4092259], [-7.397733, 40.4091387], [-7.3976897, 40.4090362], [-7.3976903, 40.4089373], [-7.3977246, 40.4088281], [-7.3978402, 40.4087269], [-7.3979612, 40.4086812], [-7.3981024, 40.408661], [-7.3987178, 40.4087163], [-7.3988144, 40.4087122], [-7.3988935, 40.4087061], [-7.3990759, 40.4086499], [-7.3991501, 40.4085986], [-7.3992556, 40.4084927], [-7.3992965, 40.408418], [-7.3993307, 40.4083313], [-7.399334, 40.4082695], [-7.3993112, 40.4081744], [-7.3992304, 40.4080171], [-7.3992282, 40.408011], [-7.3979015, 40.4065409], [-7.3978469, 40.4064804], [-7.3976655, 40.4062794], [-7.3975949, 40.4058641], [-7.3976263, 40.40577]]}, "properties": {"highway": "primary", "oneway": "no", "ref": "EN 18-1"}}, {"type": "Feature", "geometry": {"type": "LineString", "coordinates": [[-7.3769405, 40.4374082], [-7.3771198, 40.4372714]]}, "properties": {"highway": "primary", "oneway": "no", "ref": "EN 18-1"}}, {"type": "Feature", "geometry": {"type": "LineString", "coordinates": [[-7.3769193, 40.4374244], [-7.3769405, 40.4374082]]}, "properties": {"highway": "primary", "oneway": "no", "ref": "EN 18-1"}}, {"type": "Feature", "geometry": {"type": "LineString", "coordinates": [[-7.3765417, 40.4376546], [-7.3769193, 40.4374244]]}, "properties": {"highway": "primary", "oneway": "no", "ref": "EN 18-1"}}, {"type": "Feature", "geometry": {"type": "LineString", "coordinates": [[-7.3645248, 40.4577198], [-7.3646401, 40.4576095]]}, "properties": {"highway": "primary", "ref": "EN 18-1", "surface": "asphalt"}}, {"type": "Feature", "geometry": {"type": "LineString", "coordinates": [[-7.3646401, 40.4576095], [-7.3647582, 40.4574972]]}, "properties": {"highway": "primary", "lanes": "2", "ref": "EN 18-1", "surface": "asphalt"}}, {"type": "Feature", "geometry": {"type": "LineString", "coordinates": [[-7.3647582, 40.4574972], [-7.3651384, 40.4571242], [-7.3652299, 40.4569869], [-7.3653267, 40.4567855], [-7.3653741, 40.456623], [-7.3653926, 40.4564284], [-7.3653838, 40.4558737], [-7.365357, 40.4557571], [-7.365304, 40.4556404], [-7.364991, 40.4551656], [-7.3649582, 40.4550869], [-7.3649385, 40.4549717], [-7.3649626, 40.4548796], [-7.3649972, 40.4547876], [-7.3651321, 40.4546219], [-7.3655273, 40.4542323], [-7.365597, 40.4541356], [-7.3656562, 40.4540188], [-7.3656868, 40.453876], [-7.3657016, 40.4537332], [-7.3656728, 40.4535284], [-7.3651625, 40.4525184], [-7.3650915, 40.4522691], [-7.3651062, 40.4521239], [-7.365142, 40.4520068], [-7.3652268, 40.4518609], [-7.3653301, 40.451729], [-7.3656158, 40.4514942], [-7.3657647, 40.4513474], [-7.36586, 40.4512214], [-7.36595, 40.4510633], [-7.3659979, 40.4509241], [-7.3660352, 40.4507568], [-7.366032, 40.450585], [-7.366013, 40.4504212], [-7.3658827, 40.4500277], [-7.3657469, 40.4496809], [-7.3657162, 40.4495342], [-7.3657275, 40.4493902], [-7.3657703, 40.4492782], [-7.3658814, 40.4491725], [-7.3659926, 40.4490868], [-7.3662924, 40.4490084], [-7.3670039, 40.4489749], [-7.3671815, 40.4489413], [-7.3673907, 40.4488716], [-7.3685162, 40.4483266], [-7.3686598, 40.4482145], [-7.3687771, 40.4481024], [-7.3688391, 40.4480033], [-7.3688854, 40.4478921], [-7.3689384, 40.447637], [-7.3689736, 40.44693], [-7.3690204, 40.4468255], [-7.3690934, 40.4467251], [-7.3692323, 40.4466081], [-7.3693475, 40.4465052], [-7.369399, 40.4464338], [-7.3694452, 40.4463344], [-7.3694424, 40.4462196], [-7.3694185, 40.4461169], [-7.3692611, 40.4457895], [-7.3689916, 40.4452646], [-7.3688735, 40.4451051], [-7.3685738, 40.4448498], [-7.3685151, 40.4447649], [-7.3684827, 40.4446859], [-7.3684855, 40.4446116], [-7.3685094, 40.4445493], [-7.3685556, 40.4444823], [-7.3686282, 40.4444233], [-7.3688489, 40.4443446], [-7.3693787, 40.4442018], [-7.3694816, 40.4441513], [-7.3695845, 40.4440847], [-7.3698901, 40.4437572], [-7.3703926, 40.4433821], [-7.3712874, 40.4423985], [-7.371523, 40.4421305], [-7.3716126, 40.4420255], [-7.371697, 40.4419045], [-7.3717818, 40.4416593], [-7.3717938, 40.4414998], [-7.3717952, 40.4413282], [-7.371628, 40.4403905], [-7.3715714, 40.4402785], [-7.3714991, 40.4401705], [-7.3713921, 40.4400719], [-7.371285, 40.4399854], [-7.3705907, 40.4394981], [-7.3705159, 40.4394153], [-7.370478, 40.4393364], [-7.3704724, 40.4392518], [-7.3704852, 40.4391652], [-7.3705463, 40.4390932], [-7.3706285, 40.4390252], [-7.3711914, 40.4388273], [-7.3714035, 40.4386706], [-7.3715697, 40.4385233], [-7.3716582, 40.4384688], [-7.3717677, 40.4384342], [-7.3719565, 40.4384232], [-7.3725535, 40.4384723], [-7.3730209, 40.4384473], [-7.3731429, 40.4384662], [-7.3735593, 40.4385691], [-7.3739028, 40.4385829], [-7.374078, 40.4386101], [-7.3742774, 40.4386674], [-7.3744929, 40.4387846], [-7.3746112, 40.4388397], [-7.3747338, 40.4388695], [-7.3748669, 40.4388792], [-7.3749854, 40.4388611], [-7.3751039, 40.438827], [-7.3751912, 40.4387813], [-7.3752733, 40.4387156], [-7.3756968, 40.4382694], [-7.3759064, 40.4380623], [-7.3761409, 40.437899], [-7.3765417, 40.4376546]]}, "properties": {"highway": "primary", "ref": "EN 18-1", "surface": "asphalt"}}, {"type": "Feature", "geometry": {"type": "LineString", "coordinates": [[-7.333113, 40.4818174], [-7.3338504, 40.4818076], [-7.3340125, 40.4817838], [-7.3341693, 40.4817435], [-7.3343287, 40.4816866], [-7.3344828, 40.481605], [-7.3354033, 40.4809515], [-7.3366301, 40.480083], [-7.3368093, 40.4799411], [-7.3370265, 40.4797186], [-7.3372248, 40.4795002], [-7.337385, 40.4793067], [-7.3374804, 40.4791431], [-7.3376738, 40.4787149], [-7.3377844, 40.4785744], [-7.337944, 40.4784381], [-7.3387123, 40.4779764], [-7.3389034, 40.4778983], [-7.3393978, 40.477787], [-7.3402076, 40.4775123], [-7.3404575, 40.4774045], [-7.3411906, 40.4770563], [-7.3419195, 40.4768237], [-7.3421467, 40.4767003], [-7.3426424, 40.4763636], [-7.3427947, 40.4762404], [-7.3429089, 40.4761006], [-7.3431617, 40.4756989], [-7.3433045, 40.4755494], [-7.3435145, 40.4754287], [-7.3450131, 40.4747221], [-7.3451769, 40.4746054], [-7.3453189, 40.4744596], [-7.3454098, 40.4743129], [-7.3454396, 40.4741367], [-7.3454396, 40.4738033], [-7.3454567, 40.473655], [-7.3455118, 40.4735232], [-7.345642, 40.4733824], [-7.3462953, 40.4728949], [-7.3463964, 40.4727615], [-7.3464179, 40.4726764], [-7.3464068, 40.4725789], [-7.346375, 40.4725014], [-7.3463161, 40.4724446], [-7.3461548, 40.4723728], [-7.3456421, 40.4722669], [-7.3455248, 40.472218], [-7.3454388, 40.4721312], [-7.3453936, 40.4720486], [-7.3453744, 40.4719478], [-7.3453988, 40.4718595], [-7.3454834, 40.4717481], [-7.3458563, 40.4714236], [-7.3461506, 40.4712132], [-7.3471363, 40.4705938], [-7.3473023, 40.4704681], [-7.3473976, 40.470367], [-7.3475472, 40.4700467], [-7.3478735, 40.4696369], [-7.3479111, 40.4695437], [-7.347946, 40.4694215], [-7.3479645, 40.4690387], [-7.3479749, 40.4688585], [-7.348039, 40.4687525], [-7.3481466, 40.4686672], [-7.3483005, 40.4686334], [-7.3484543, 40.468645], [-7.3485908, 40.4686948], [-7.3486838, 40.4687901], [-7.3489078, 40.4691462], [-7.3490242, 40.4692426], [-7.3491454, 40.4692977], [-7.3492938, 40.4693528], [-7.3503409, 40.4696078], [-7.3505549, 40.4696387], [-7.3507227, 40.4696345], [-7.3509141, 40.4696031], [-7.3511083, 40.4695416], [-7.3512835, 40.4694366], [-7.3514326, 40.4693094], [-7.3515111, 40.4691937], [-7.3515951, 40.4690491], [-7.3516978, 40.4687308], [-7.3517684, 40.468611], [-7.3518444, 40.4685325], [-7.3519639, 40.4684417], [-7.3526195, 40.4680671], [-7.3527912, 40.4679531], [-7.3529438, 40.4678141], [-7.3534283, 40.4671407], [-7.3535678, 40.4670237], [-7.3539889, 40.4668276], [-7.354092, 40.4667432], [-7.3541844, 40.466638], [-7.3544342, 40.4661774], [-7.3547926, 40.4655085], [-7.3550757, 40.4651037], [-7.3551452, 40.4649883], [-7.3551766, 40.4648605], [-7.3551933, 40.4645821], [-7.3552127, 40.4644734], [-7.3552484, 40.4643977], [-7.3553352, 40.4643375], [-7.3554493, 40.4642979], [-7.3559872, 40.4641567], [-7.3561549, 40.4640953], [-7.3563687, 40.4639781], [-7.3565744, 40.463838], [-7.3567392, 40.463698], [-7.3568581, 40.4635443], [-7.3570476, 40.4631815], [-7.3571336, 40.4630769], [-7.3572631, 40.4629805], [-7.3582041, 40.4624567], [-7.3583523, 40.4623447], [-7.3584591, 40.4622043], [-7.3586583, 40.4617577], [-7.3587398, 40.4616473], [-7.3588675, 40.461537], [-7.3590781, 40.4614199], [-7.3606345, 40.460765], [-7.3608145, 40.4606644], [-7.3609674, 40.4605307], [-7.3612622, 40.4601206], [-7.3613879, 40.4600156], [-7.3615734, 40.4599685], [-7.3619282, 40.4599157], [-7.3620573, 40.4598816], [-7.3622081, 40.4598226], [-7.3623793, 40.459713], [-7.3638765, 40.4583383], [-7.3645248, 40.4577198]]}, "properties": {"highway": "primary", "ref": "EN 18-1", "surface": "asphalt"}}, {"type": "Feature", "geometry": {"type": "LineString", "coordinates": [[-7.3328576, 40.4818287], [-7.333113, 40.4818174]]}, "properties": {"highway": "primary", "oneway": "no", "ref": "EN 18-1"}}, {"type": "Feature", "geometry": {"type": "LineString", "coordinates": [[-7.3326312, 40.481869], [-7.3328092, 40.481839]]}, "properties": {"highway": "primary", "oneway": "no", "ref": "EN 18-1"}}]}