{"type": "FeatureCollection", "features": [{"type": "Feature", "geometry": {"type": "LineString", "coordinates": [[-7.7848965, 41.8299498], [-7.784965, 41.8299386], [-7.7852787, 41.8297761], [-7.785425, 41.8297003], [-7.7854629, 41.8296561], [-7.7854751, 41.8296051], [-7.7854602, 41.8295543], [-7.7854202, 41.8295114], [-7.7853924, 41.829499], [-7.7853613, 41.8294833], [-7.7852926, 41.8294741], [-7.7852244, 41.8294852], [-7.7850914, 41.8295541], [-7.7847642, 41.8297237], [-7.7847264, 41.8297676], [-7.7847141, 41.8298188], [-7.7847291, 41.8298698], [-7.7847406, 41.8298809], [-7.7847517, 41.8298941], [-7.7847688, 41.8299124], [-7.7848278, 41.8299406], [-7.7848965, 41.8299498]]}, "properties": {"highway": "primary", "junction": "roundabout", "lanes": "2", "name": "Largo Lama do Moinho", "postal_code": "5470-225", "ref": "EN 103-9;EM 308", "source": "bing"}}, {"type": "Feature", "geometry": {"type": "LineString", "coordinates": [[-7.7857764, 41.8293898], [-7.786532, 41.8291141], [-7.7870379, 41.8289595], [-7.7879404, 41.8287233], [-7.7881502, 41.8286684], [-7.7882436, 41.828644], [-7.788515, 41.8285476], [-7.7886474, 41.8284693], [-7.7888194, 41.8283243]]}, "properties": {"highway": "primary", "name": "Avenida Marginal C\u00e1vado", "postal_code": "5470-266", "ref": "EN 103-9;EM 308"}}, {"type": "Feature", "geometry": {"type": "LineString", "coordinates": [[-7.779433, 41.8341874], [-7.7794823, 41.8341764], [-7.7795239, 41.8341537], [-7.7795536, 41.8341211], [-7.7795661, 41.8340867], [-7.7795636, 41.8340511], [-7.7795464, 41.8340179], [-7.7795163, 41.8339902], [-7.7794761, 41.8339709], [-7.7794299, 41.8339618], [-7.7793771, 41.8339647], [-7.7793288, 41.8339809], [-7.7792932, 41.8340061], [-7.7792701, 41.8340385], [-7.7792622, 41.8340747], [-7.7792701, 41.8341108], [-7.7792807, 41.834129], [-7.7792954, 41.8341455], [-7.7793339, 41.834171], [-7.7793816, 41.8341855], [-7.779433, 41.8341874]]}, "properties": {"highway": "primary", "junction": "roundabout", "ref": "EN 103-9"}}, {"type": "Feature", "geometry": {"type": "LineString", "coordinates": [[-7.7807815, 41.8330268], [-7.7818275, 41.8321982], [-7.7821024, 41.8319896], [-7.7827814, 41.8316344], [-7.7832131, 41.8314107], [-7.7833239, 41.8313506], [-7.7834103, 41.8313054], [-7.7837229, 41.8311223], [-7.7838664, 41.8310007], [-7.7839397, 41.8309278], [-7.7840062, 41.8308617], [-7.7842821, 41.830568], [-7.7846387, 41.830176], [-7.7846989, 41.8301098]]}, "properties": {"highway": "primary", "name": "Rua Lama do Moinho", "postal_code": "5470-225", "ref": "EN 103-9"}}, {"type": "Feature", "geometry": {"type": "LineString", "coordinates": [[-7.7793273, 41.8343266], [-7.7792532, 41.8344055], [-7.7789645, 41.8347127], [-7.7788526, 41.8348318], [-7.7787915, 41.8348948], [-7.7787021, 41.834987], [-7.778611, 41.835081], [-7.7784155, 41.835274], [-7.7783632, 41.8353366], [-7.7781227, 41.835659], [-7.7779595, 41.8358778], [-7.7778772, 41.8359888], [-7.7758664, 41.8387007], [-7.7755209, 41.8392161], [-7.775278, 41.8396755], [-7.775166, 41.8401002], [-7.7750854, 41.8405825], [-7.7751446, 41.8416023], [-7.7751994, 41.8426079], [-7.7753806, 41.8451468], [-7.775388, 41.8459193], [-7.7753893, 41.8463218], [-7.7753805, 41.846559], [-7.7752518, 41.8470785], [-7.7750748, 41.8475101], [-7.7748898, 41.8478138], [-7.7748663, 41.8478419], [-7.7747656, 41.8479619], [-7.7746953, 41.8480456], [-7.7746296, 41.8481255], [-7.7728701, 41.8500351], [-7.7725697, 41.8504643], [-7.7724408, 41.8511081], [-7.7724674, 41.8515115], [-7.7725439, 41.8526741], [-7.7724838, 41.8532323], [-7.7722662, 41.8537886], [-7.7719045, 41.8542408], [-7.7714309, 41.8547608], [-7.770118, 41.8562322], [-7.7700377, 41.8563222], [-7.7694427, 41.8569894], [-7.7689983, 41.8575436], [-7.7686653, 41.8580265], [-7.7682996, 41.8586826], [-7.7676096, 41.8600013], [-7.7666033, 41.8619244], [-7.7637607, 41.8673566], [-7.7608329, 41.8729512], [-7.7604066, 41.8737658], [-7.760386, 41.8738052], [-7.7592816, 41.8759153]]}, "properties": {"highway": "primary", "ref": "EN 103-9"}}, {"type": "Feature", "geometry": {"type": "LineString", "coordinates": [[-7.7889233, 41.8277512], [-7.7885525, 41.8271138], [-7.7884769, 41.8269199], [-7.7884455, 41.8267097], [-7.7885052, 41.8257898]]}, "properties": {"highway": "primary", "name": "Avenida Nuno \u00c1lvares Pereira", "postal_code": "5470-203", "ref": "EN 103-9"}}, {"type": "Feature", "geometry": {"type": "LineString", "coordinates": [[-7.7883931, 41.8256428], [-7.7884171, 41.8256668], [-7.7884493, 41.8256847], [-7.7884914, 41.8256956], [-7.788536, 41.8256961], [-7.7885785, 41.8256861], [-7.7886146, 41.8256666], [-7.7886406, 41.8256396], [-7.7886539, 41.8256078], [-7.788653, 41.8255746], [-7.7886382, 41.8255434], [-7.7886109, 41.8255173], [-7.7885741, 41.8254988], [-7.7885313, 41.82549], [-7.7884869, 41.8254916], [-7.7884454, 41.8255035], [-7.788411, 41.8255246], [-7.7883873, 41.8255526], [-7.7883767, 41.8255848], [-7.7883793, 41.8256147], [-7.7883931, 41.8256428]]}, "properties": {"highway": "primary", "junction": "roundabout", "ref": "EN 103-9", "source": "bing"}}, {"type": "Feature", "geometry": {"type": "LineString", "coordinates": [[-7.7899228, 41.8132883], [-7.7898319, 41.8132421], [-7.7897492, 41.8131868], [-7.7894515, 41.8129549], [-7.7892262, 41.812685], [-7.7891275, 41.812508], [-7.7890412, 41.8123532], [-7.7887055, 41.8111237], [-7.788414, 41.8101384], [-7.7885101, 41.8066747], [-7.7884269, 41.8063376], [-7.7883142, 41.8061137], [-7.7881164, 41.8058587], [-7.7877778, 41.8054219], [-7.7875525, 41.805086], [-7.7874238, 41.8046901], [-7.7874023, 41.8042423], [-7.787472, 41.8039904], [-7.788372, 41.8020284], [-7.7886093, 41.8015111], [-7.7886522, 41.8013351], [-7.7886465, 41.8012621], [-7.7886361, 41.8011272], [-7.7884335, 41.8003678], [-7.7880222, 41.7988266], [-7.7880112, 41.7984177], [-7.7880487, 41.7974579], [-7.7880085, 41.7972059], [-7.7878966, 41.7969689], [-7.7873406, 41.7962181], [-7.7872871, 41.7961768], [-7.7870948, 41.7960284], [-7.7870429, 41.7959883], [-7.7867103, 41.7958323], [-7.7862919, 41.7957283], [-7.7858161, 41.7956666], [-7.7855516, 41.7956323], [-7.784071, 41.7955203], [-7.7834755, 41.7954844], [-7.7832502, 41.7954324], [-7.7829659, 41.7952964], [-7.7827138, 41.7951364], [-7.782526, 41.7949524], [-7.7824278, 41.7947055], [-7.7824027, 41.7946424], [-7.7819215, 41.7929709], [-7.781834, 41.7920047], [-7.7818072, 41.7911028], [-7.781834, 41.7901509], [-7.7818179, 41.7899489], [-7.7817294, 41.789719], [-7.7814156, 41.789057], [-7.7812895, 41.788715], [-7.7810455, 41.7876771], [-7.7810453, 41.7875161], [-7.7810554, 41.7874555], [-7.7810703, 41.7873665], [-7.7810747, 41.78734], [-7.7811476, 41.7871805], [-7.7812574, 41.7869921]]}, "properties": {"highway": "primary", "ref": "EN 103-9"}}, {"type": "Feature", "geometry": {"type": "LineString", "coordinates": [[-7.7905876, 41.8140314], [-7.7906285, 41.813863], [-7.7906589, 41.8137715]]}, "properties": {"highway": "primary", "oneway": "yes", "ref": "EN 103-9"}}, {"type": "Feature", "geometry": {"type": "LineString", "coordinates": [[-7.7901382, 41.8135707], [-7.7904895, 41.8137666], [-7.790592, 41.8137848], [-7.7906589, 41.8137715], [-7.7907256, 41.8137583], [-7.7907792, 41.8136706], [-7.7907577, 41.8135627], [-7.7903742, 41.8133528], [-7.7902454, 41.8133508], [-7.7901301, 41.8133967], [-7.7900986, 41.813485], [-7.7901382, 41.8135707]]}, "properties": {"highway": "primary", "junction": "roundabout", "ref": "EN 103-9"}}, {"type": "Feature", "geometry": {"type": "LineString", "coordinates": [[-7.7904895, 41.8137666], [-7.7905876, 41.8140314]]}, "properties": {"highway": "primary", "oneway": "yes", "ref": "EN 103-9"}}, {"type": "Feature", "geometry": {"type": "LineString", "coordinates": [[-7.7918369, 41.8227351], [-7.7917761, 41.8227977], [-7.7915244, 41.8229675], [-7.7910221, 41.8232694], [-7.7905635, 41.8235368], [-7.790547, 41.8235486], [-7.7905063, 41.8235777], [-7.7902761, 41.8237421], [-7.7899554, 41.8239979], [-7.7898587, 41.8240954], [-7.7893439, 41.8246143], [-7.7892768, 41.8246619], [-7.7889877, 41.8249699], [-7.7887942, 41.8251627], [-7.7887562, 41.8252042], [-7.7887245, 41.8252448], [-7.7886963, 41.8252837], [-7.7886471, 41.8253617]]}, "properties": {"foot": "yes", "highway": "primary", "name": "Avenida Dom Nuno \u00c1lvares Pereira", "ref": "EN 103-9", "surface": "asphalt"}}, {"type": "Feature", "geometry": {"type": "LineString", "coordinates": [[-7.7847517, 41.8298941], [-7.7846989, 41.8301098]]}, "properties": {"highway": "primary", "name": "Rua Lama do Moinho", "oneway": "yes", "postal_code": "5470-225", "ref": "EN 103-9", "source": "bing"}}, {"type": "Feature", "geometry": {"type": "LineString", "coordinates": [[-7.7846989, 41.8301098], [-7.784965, 41.8299386]]}, "properties": {"highway": "primary", "name": "Rua Lama do Moinho", "oneway": "yes", "postal_code": "5470-225", "ref": "EN 103-9", "source": "bing"}}, {"type": "Feature", "geometry": {"type": "LineString", "coordinates": [[-7.791779, 41.8226777], [-7.7917898, 41.8227011], [-7.7918097, 41.8227209], [-7.7918369, 41.8227351], [-7.7918632, 41.8227417], [-7.7918908, 41.8227429], [-7.7919179, 41.8227388], [-7.7919472, 41.8227272], [-7.7919702, 41.8227095], [-7.7919848, 41.8226873], [-7.7919894, 41.8226628], [-7.7919837, 41.8226385], [-7.7919682, 41.8226167], [-7.7919444, 41.8225995], [-7.7919146, 41.8225886], [-7.7918818, 41.8225852], [-7.7918491, 41.8225894], [-7.7918243, 41.8225986], [-7.7918036, 41.8226122], [-7.7917883, 41.8226294], [-7.7917785, 41.822653], [-7.791779, 41.8226777]]}, "properties": {"foot": "yes", "highway": "primary", "junction": "roundabout", "ref": "EN 103-9", "source": "bing"}}, {"type": "Feature", "geometry": {"type": "LineString", "coordinates": [[-7.7860895, 41.7808281], [-7.7860236, 41.7808909], [-7.7859853, 41.7809406], [-7.7859629, 41.7809803]]}, "properties": {"highway": "primary", "oneway": "yes", "ref": "EN 103-9"}}, {"type": "Feature", "geometry": {"type": "LineString", "coordinates": [[-7.785739, 41.7807674], [-7.7858198, 41.7808229], [-7.7859083, 41.7809029], [-7.7859629, 41.7809803], [-7.7859706, 41.7810466], [-7.7859779, 41.7811504]]}, "properties": {"highway": "primary", "oneway": "yes", "ref": "EN 103-9"}}, {"type": "Feature", "geometry": {"type": "LineString", "coordinates": [[-7.7859779, 41.7811504], [-7.7859584, 41.7812252]]}, "properties": {"highway": "primary", "ref": "EN 103-9"}}, {"type": "Feature", "geometry": {"type": "LineString", "coordinates": [[-7.7859779, 41.7811504], [-7.7860201, 41.7810786], [-7.7860631, 41.7810126], [-7.7860987, 41.7809669], [-7.7862167, 41.7808969], [-7.7863267, 41.7808669], [-7.7864093, 41.78084]]}, "properties": {"highway": "primary", "oneway": "yes", "ref": "EN 103-9"}}, {"type": "Feature", "geometry": {"type": "LineString", "coordinates": [[-7.7860987, 41.7809669], [-7.7860962, 41.7809189], [-7.786096, 41.7809149], [-7.7860895, 41.7808281]]}, "properties": {"highway": "primary", "oneway": "yes", "ref": "EN 103-9"}}, {"type": "Feature", "geometry": {"type": "LineString", "coordinates": [[-7.7905876, 41.8140314], [-7.790725, 41.8141938], [-7.7908531, 41.8143452], [-7.7918913, 41.8154384], [-7.792343, 41.8159739], [-7.7925403, 41.8162985], [-7.7928225, 41.8171004], [-7.7929089, 41.817377], [-7.7930358, 41.8178138], [-7.7930256, 41.8180452], [-7.7929912, 41.8182181], [-7.7927527, 41.8194155], [-7.7917163, 41.8212443], [-7.7915585, 41.8215133], [-7.7914946, 41.8216266], [-7.7914648, 41.8217033], [-7.7914519, 41.8217792], [-7.7914625, 41.8218526], [-7.7914953, 41.8219441], [-7.7918173, 41.8224977], [-7.7918291, 41.8225317], [-7.7918491, 41.8225894]]}, "properties": {"highway": "primary", "name": "Rua da Corujeira", "ref": "EN 103-9"}}, {"type": "Feature", "geometry": {"type": "LineString", "coordinates": [[-7.7826969, 41.785335], [-7.7850822, 41.7833744], [-7.7852531, 41.7831477], [-7.7853255, 41.7830195], [-7.7859584, 41.7812252]]}, "properties": {"highway": "primary", "maxspeed": "50", "name": "Rua da Estrada Municipal", "ref": "EN 103-9"}}, {"type": "Feature", "geometry": {"type": "LineString", "coordinates": [[-7.7798703, 41.8337614], [-7.7797087, 41.833851], [-7.7795951, 41.8339081], [-7.7794299, 41.8339618]]}, "properties": {"highway": "primary", "name": "Rua da Lama do Moinho", "oneway": "yes", "ref": "EN 103-9"}}, {"type": "Feature", "geometry": {"type": "LineString", "coordinates": [[-7.7795536, 41.8341211], [-7.7797274, 41.8339441], [-7.7798703, 41.8337614]]}, "properties": {"highway": "primary", "name": "Rua da Lama do Moinho", "oneway": "yes", "ref": "EN 103-9"}}, {"type": "Feature", "geometry": {"type": "LineString", "coordinates": [[-7.7793273, 41.8343266], [-7.7794528, 41.8342163], [-7.7795239, 41.8341537]]}, "properties": {"highway": "primary", "name": "Rua da Fronteira", "oneway": "yes", "postal_code": "5470-284", "ref": "EN 103-9"}}, {"type": "Feature", "geometry": {"type": "LineString", "coordinates": [[-7.7792954, 41.8341455], [-7.7793173, 41.8342029], [-7.7793289, 41.834267], [-7.7793273, 41.8343266]]}, "properties": {"highway": "primary", "name": "Rua da Fronteira", "oneway": "yes", "postal_code": "5470-284", "ref": "EN 103-9"}}, {"type": "Feature", "geometry": {"type": "LineString", "coordinates": [[-7.7798703, 41.8337614], [-7.7799191, 41.8337218], [-7.78013, 41.8335504], [-7.7806245, 41.8331511]]}, "properties": {"highway": "primary", "name": "Rua da Lama do Moinho", "postal_code": "5470-225", "ref": "EN 103-9"}}, {"type": "Feature", "geometry": {"type": "LineString", "coordinates": [[-7.7806245, 41.8331511], [-7.7807815, 41.8330268]]}, "properties": {"bridge": "yes", "highway": "primary", "layer": "1", "name": "Rua da Lama do Moinho", "postal_code": "5470-225", "ref": "EN 103-9"}}, {"type": "Feature", "geometry": {"type": "LineString", "coordinates": [[-7.7902454, 41.8133508], [-7.7900824, 41.8133192], [-7.7899228, 41.8132883]]}, "properties": {"highway": "primary", "oneway": "yes", "ref": "EN 103-9"}}, {"type": "Feature", "geometry": {"type": "LineString", "coordinates": [[-7.7899228, 41.8132883], [-7.7900986, 41.813485]]}, "properties": {"highway": "primary", "oneway": "yes", "ref": "EN 103-9"}}, {"type": "Feature", "geometry": {"type": "LineString", "coordinates": [[-7.7590296, 41.8763957], [-7.7562982, 41.8816034], [-7.7549009, 41.8842672], [-7.7541824, 41.8856371], [-7.7540164, 41.8859048], [-7.7538624, 41.8861098], [-7.7537468, 41.8862574], [-7.7534425, 41.8865843], [-7.7529067, 41.8870655], [-7.751915, 41.8879096], [-7.7516064, 41.8881659], [-7.750692, 41.8889253], [-7.7496971, 41.8897606], [-7.747638, 41.8914896], [-7.747517, 41.8916285], [-7.7474064, 41.8918164], [-7.7473566, 41.8919558], [-7.7473338, 41.8920197], [-7.7472958, 41.8922462], [-7.7472865, 41.8923245], [-7.7471969, 41.8931869], [-7.7471793, 41.8933561], [-7.7470641, 41.8935818], [-7.7470268, 41.8936479], [-7.7469397, 41.8938024]]}, "properties": {"highway": "primary", "ref": "EN 103-9"}}, {"type": "Feature", "geometry": {"type": "LineString", "coordinates": [[-7.7592816, 41.8759153], [-7.7590619, 41.8763342], [-7.7590296, 41.8763957]]}, "properties": {"highway": "primary", "ref": "EN 103-9"}}, {"type": "Feature", "geometry": {"type": "LineString", "coordinates": [[-7.7812574, 41.7869921], [-7.7817332, 41.7862184], [-7.7818285, 41.7860864], [-7.7819559, 41.7859464], [-7.7820379, 41.7858731], [-7.7823193, 41.7856434], [-7.7826969, 41.785335]]}, "properties": {"highway": "primary", "maxspeed": "50", "name": "Rua da Estrada Municipal", "ref": "EN 103-9"}}, {"type": "Feature", "geometry": {"type": "LineString", "coordinates": [[-7.7886471, 41.8253617], [-7.7884869, 41.8254916]]}, "properties": {"highway": "primary", "lanes": "1", "oneway": "yes", "ref": "EN 103-9", "surface": "asphalt"}}, {"type": "Feature", "geometry": {"type": "LineString", "coordinates": [[-7.7886382, 41.8255434], [-7.7886471, 41.8253617]]}, "properties": {"highway": "primary", "lanes": "1", "oneway": "yes", "ref": "EN 103-9", "surface": "asphalt"}}, {"type": "Feature", "geometry": {"type": "LineString", "coordinates": [[-7.7884493, 41.8256847], [-7.7885052, 41.8257898]]}, "properties": {"highway": "primary", "lanes": "1", "oneway": "yes", "ref": "EN 103-9", "surface": "asphalt"}}, {"type": "Feature", "geometry": {"type": "LineString", "coordinates": [[-7.7885052, 41.8257898], [-7.7885785, 41.8256861]]}, "properties": {"highway": "primary", "lanes": "1", "oneway": "yes", "ref": "EN 103-9", "surface": "asphalt"}}, {"type": "Feature", "geometry": {"type": "MultiPolygon", "coordinates": [[[[-7.7854751, 41.8296051], [-7.7854602, 41.8295543], [-7.7854202, 41.8295114], [-7.7853924, 41.829499], [-7.7853613, 41.8294833], [-7.7852926, 41.8294741], [-7.7852244, 41.8294852], [-7.7850914, 41.8295541], [-7.7847642, 41.8297237], [-7.7847264, 41.8297676], [-7.7847141, 41.8298188], [-7.7847291, 41.8298698], [-7.7847406, 41.8298809], [-7.7847517, 41.8298941], [-7.7847688, 41.8299124], [-7.7848278, 41.8299406], [-7.7848965, 41.8299498], [-7.784965, 41.8299386], [-7.7852787, 41.8297761], [-7.785425, 41.8297003], [-7.7854629, 41.8296561], [-7.7854751, 41.8296051]]]]}, "properties": {"highway": "primary", "junction": "roundabout", "lanes": "2", "name": "Largo Lama do Moinho", "postal_code": "5470-225", "ref": "EN 103-9;EM 308", "source": "bing"}}, {"type": "Feature", "geometry": {"type": "MultiPolygon", "coordinates": [[[[-7.7795661, 41.8340867], [-7.7795636, 41.8340511], [-7.7795464, 41.8340179], [-7.7795163, 41.8339902], [-7.7794761, 41.8339709], [-7.7794299, 41.8339618], [-7.7793771, 41.8339647], [-7.7793288, 41.8339809], [-7.7792932, 41.8340061], [-7.7792701, 41.8340385], [-7.7792622, 41.8340747], [-7.7792701, 41.8341108], [-7.7792807, 41.834129], [-7.7792954, 41.8341455], [-7.7793339, 41.834171], [-7.7793816, 41.8341855], [-7.779433, 41.8341874], [-7.7794823, 41.8341764], [-7.7795239, 41.8341537], [-7.7795536, 41.8341211], [-7.7795661, 41.8340867]]]]}, "properties": {"highway": "primary", "junction": "roundabout", "ref": "EN 103-9"}}, {"type": "Feature", "geometry": {"type": "MultiPolygon", "coordinates": [[[[-7.7886539, 41.8256078], [-7.788653, 41.8255746], [-7.7886382, 41.8255434], [-7.7886109, 41.8255173], [-7.7885741, 41.8254988], [-7.7885313, 41.82549], [-7.7884869, 41.8254916], [-7.7884454, 41.8255035], [-7.788411, 41.8255246], [-7.7883873, 41.8255526], [-7.7883767, 41.8255848], [-7.7883793, 41.8256147], [-7.7883931, 41.8256428], [-7.7884171, 41.8256668], [-7.7884493, 41.8256847], [-7.7884914, 41.8256956], [-7.788536, 41.8256961], [-7.7885785, 41.8256861], [-7.7886146, 41.8256666], [-7.7886406, 41.8256396], [-7.7886539, 41.8256078]]]]}, "properties": {"highway": "primary", "junction": "roundabout", "ref": "EN 103-9", "source": "bing"}}, {"type": "Feature", "geometry": {"type": "MultiPolygon", "coordinates": [[[[-7.7907792, 41.8136706], [-7.7907577, 41.8135627], [-7.7903742, 41.8133528], [-7.7902454, 41.8133508], [-7.7901301, 41.8133967], [-7.7900986, 41.813485], [-7.7901382, 41.8135707], [-7.7904895, 41.8137666], [-7.790592, 41.8137848], [-7.7906589, 41.8137715], [-7.7907256, 41.8137583], [-7.7907792, 41.8136706]]]]}, "properties": {"highway": "primary", "junction": "roundabout", "ref": "EN 103-9"}}, {"type": "Feature", "geometry": {"type": "MultiPolygon", "coordinates": [[[[-7.7919894, 41.8226628], [-7.7919837, 41.8226385], [-7.7919682, 41.8226167], [-7.7919444, 41.8225995], [-7.7919146, 41.8225886], [-7.7918818, 41.8225852], [-7.7918491, 41.8225894], [-7.7918243, 41.8225986], [-7.7918036, 41.8226122], [-7.7917883, 41.8226294], [-7.7917785, 41.822653], [-7.791779, 41.8226777], [-7.7917898, 41.8227011], [-7.7918097, 41.8227209], [-7.7918369, 41.8227351], [-7.7918632, 41.8227417], [-7.7918908, 41.8227429], [-7.7919179, 41.8227388], [-7.7919472, 41.8227272], [-7.7919702, 41.8227095], [-7.7919848, 41.8226873], [-7.7919894, 41.8226628]]]]}, "properties": {"foot": "yes", "highway": "primary", "junction": "roundabout", "ref": "EN 103-9", "source": "bing"}}]}