{"type": "FeatureCollection", "features": [{"type": "Feature", "geometry": {"type": "LineString", "coordinates": [[-6.9746179, 41.5131566], [-6.9749826, 41.5130162], [-6.9755004, 41.512947], [-6.9759318, 41.5129837], [-6.9773851, 41.5134548], [-6.9777663, 41.5135503], [-6.9784859, 41.5136119], [-6.9786794, 41.5135897], [-6.9788472, 41.5135065], [-6.9789996, 41.5133489], [-6.9790696, 41.5132709]]}, "properties": {"access": "yes", "highway": "primary", "maxspeed": "90", "oneway": "no", "ref": "EN 102-1", "source": "bing"}}, {"type": "Feature", "geometry": {"type": "LineString", "coordinates": [[-7.0244248, 41.5172065], [-7.0256508, 41.5172786], [-7.0268933, 41.5175345], [-7.0272565, 41.5175781], [-7.0273508, 41.5175293], [-7.0277652, 41.5169785], [-7.0282605, 41.5166655], [-7.0286883, 41.5164985], [-7.0290412, 41.5164419], [-7.0294907, 41.5164832], [-7.029898, 41.5166441], [-7.0302338, 41.5168891], [-7.0312244, 41.5180985], [-7.0314209, 41.5184081], [-7.0315396, 41.5186885], [-7.0316089, 41.5190003], [-7.0318118, 41.5222593], [-7.0318671, 41.5240476], [-7.0319653, 41.525839], [-7.0320456, 41.5262698], [-7.0320781, 41.5264441], [-7.0325405, 41.5277422], [-7.032696, 41.528044], [-7.0328967, 41.5283177], [-7.0335197, 41.528925], [-7.034051, 41.529443], [-7.0345311, 41.5298361], [-7.0348186, 41.529987], [-7.035188, 41.5301113], [-7.035682, 41.5301818], [-7.0366145, 41.530315], [-7.0369903, 41.5304283], [-7.0372891, 41.5305785], [-7.037631, 41.5309018], [-7.0378251, 41.5312429], [-7.0378593, 41.531408], [-7.0378774, 41.5314953], [-7.0379052, 41.5320387], [-7.0380628, 41.5336828], [-7.0381447, 41.5355382], [-7.0382143, 41.53622], [-7.0383325, 41.5365558], [-7.0385541, 41.5369049], [-7.038929, 41.5372319], [-7.0400544, 41.5378333], [-7.0406388, 41.5380563], [-7.0436187, 41.5388339], [-7.0447363, 41.5391544], [-7.0473228, 41.5400147], [-7.0480633, 41.540261], [-7.0484369, 41.5403226], [-7.0488575, 41.5403126], [-7.0492137, 41.5402362], [-7.050084, 41.5398938], [-7.0505567, 41.5397911], [-7.0510977, 41.5397639], [-7.0536219, 41.5396368], [-7.0540389, 41.53967], [-7.054443, 41.539782], [-7.0547073, 41.5399158], [-7.0550577, 41.5401766], [-7.0554802, 41.540611], [-7.055939, 41.5410537], [-7.0561076, 41.5411662], [-7.0563351, 41.5412443], [-7.0565447, 41.5412719], [-7.0567868, 41.5412597]]}, "properties": {"access": "yes", "highway": "primary", "maxspeed": "90", "oneway": "no", "ref": "EN 102-1", "source": "bing"}}, {"type": "Feature", "geometry": {"type": "LineString", "coordinates": [[-6.9791331, 41.5131943], [-6.9793164, 41.5129596], [-6.9793732, 41.5127233], [-6.9793053, 41.51248], [-6.9793442, 41.5122804], [-6.9797492, 41.5116567], [-6.9799661, 41.5114735], [-6.9803518, 41.5112743], [-6.9807053, 41.5111764], [-6.981348, 41.5111522], [-6.981608, 41.5110541], [-6.9821179, 41.5106074], [-6.9823916, 41.510494], [-6.9829772, 41.5104625], [-6.9831935, 41.510367], [-6.9837653, 41.5097792], [-6.9841114, 41.5095878], [-6.9844234, 41.5094988], [-6.9858216, 41.5093188], [-6.9860376, 41.5093655], [-6.986426, 41.5095738], [-6.9866487, 41.5096369], [-6.9870835, 41.5096476], [-6.987833, 41.5096469], [-6.9879935, 41.5096912], [-6.9881175, 41.5097537], [-6.9887254, 41.5103131], [-6.9889432, 41.5104332], [-6.98937, 41.5105667], [-6.989577, 41.5107115], [-6.9897939, 41.5111907], [-6.9898858, 41.511292], [-6.9909843, 41.5119585], [-6.9911786, 41.5119974], [-6.9913734, 41.5119847], [-6.9919659, 41.5117296], [-6.9921566, 41.5117098], [-6.9923238, 41.5117545], [-6.9926124, 41.5119537], [-6.992814, 41.5120557], [-6.9933227, 41.512284], [-6.9940268, 41.5123461], [-6.9943231, 41.5123995], [-6.994931, 41.5125984], [-6.9950224, 41.5126417], [-6.9958065, 41.5130128], [-6.9964042, 41.5131715], [-6.9970818, 41.5135177], [-6.9979628, 41.5137378], [-6.9980547, 41.5137518], [-6.9985646, 41.5138297], [-6.9987812, 41.5138383], [-6.9991418, 41.5138527], [-6.9995709, 41.5139201], [-7.0017108, 41.5137928], [-7.0021238, 41.5138273], [-7.0024555, 41.5138955], [-7.0026964, 41.5139056], [-7.003551, 41.5137046], [-7.0037392, 41.5135737], [-7.0038015, 41.5134067], [-7.0036856, 41.5129089], [-7.0037082, 41.5123681], [-7.0037876, 41.512168], [-7.0043938, 41.5113864], [-7.0046085, 41.5112695], [-7.0048691, 41.51127], [-7.0050621, 41.5113562], [-7.0052245, 41.5116252], [-7.0054236, 41.5118259], [-7.0060255, 41.5122139], [-7.0062591, 41.5122776], [-7.0076935, 41.5123255], [-7.0078815, 41.5122775], [-7.0082361, 41.5120065], [-7.0083828, 41.5118577], [-7.0087808, 41.5108729], [-7.009001, 41.5106991], [-7.0097472, 41.5105195], [-7.010067, 41.5104664], [-7.010617, 41.5104783], [-7.0108515, 41.5104187], [-7.0112731, 41.5101551], [-7.0114999, 41.5098844], [-7.0118442, 41.5095231], [-7.0119312, 41.5092558], [-7.0119155, 41.5089893], [-7.0114597, 41.5082052], [-7.0114246, 41.5080083], [-7.0115068, 41.5077968], [-7.0122056, 41.5072444], [-7.012807, 41.5063953], [-7.0130224, 41.5058272], [-7.01319, 41.5056235], [-7.0134118, 41.5055154], [-7.013694, 41.5054807], [-7.0140135, 41.505535], [-7.0148433, 41.5058471], [-7.0152948, 41.505975], [-7.0158115, 41.5060714], [-7.0163109, 41.5062032], [-7.0175569, 41.5066317], [-7.0180838, 41.5069049], [-7.0184297, 41.5071631], [-7.0187578, 41.5075393], [-7.0203508, 41.5101329], [-7.020408, 41.5103299], [-7.0203319, 41.511172], [-7.0205424, 41.5116437], [-7.0205398, 41.5118776], [-7.0204512, 41.5120172], [-7.0204063, 41.5120505], [-7.0200938, 41.5122819], [-7.0200081, 41.5124794], [-7.0200487, 41.5133807], [-7.0199894, 41.5136398], [-7.0198465, 41.5138198], [-7.0195068, 41.5139716], [-7.0193893, 41.5140829], [-7.0193425, 41.5141965], [-7.0193663, 41.514348], [-7.0202084, 41.5156399], [-7.0202791, 41.515892], [-7.0202287, 41.5163341], [-7.0202698, 41.5164522], [-7.020364, 41.516538], [-7.0208758, 41.5166191], [-7.020996, 41.5166568], [-7.0214123, 41.5167872], [-7.0220988, 41.5170022]]}, "properties": {"access": "yes", "highway": "primary", "maxspeed": "90", "oneway": "no", "ref": "EN 102-1"}}, {"type": "Feature", "geometry": {"type": "LineString", "coordinates": [[-6.9740952, 41.5134871], [-6.9744645, 41.5132557]]}, "properties": {"access": "yes", "highway": "primary", "maxspeed": "90", "oneway": "yes", "ref": "EN 102-1", "source": "bing"}}, {"type": "Feature", "geometry": {"type": "LineString", "coordinates": [[-6.9790696, 41.5132709], [-6.9791331, 41.5131943]]}, "properties": {"access": "yes", "bridge": "yes", "highway": "primary", "layer": "1", "maxspeed": "90", "oneway": "no", "ref": "EN 102-1"}}, {"type": "Feature", "geometry": {"type": "LineString", "coordinates": [[-6.9744297, 41.5131603], [-6.9743296, 41.5130748], [-6.9742539, 41.5129983]]}, "properties": {"access": "yes", "highway": "primary", "maxspeed": "90", "oneway": "yes", "ref": "EN 102-1", "source": "bing"}}, {"type": "Feature", "geometry": {"type": "LineString", "coordinates": [[-7.0568914, 41.5412727], [-7.0570101, 41.5413334], [-7.0570668, 41.5414147], [-7.0570878, 41.5414603]]}, "properties": {"access": "yes", "highway": "primary", "oneway": "yes", "ref": "EN 102-1", "source": "bing"}}, {"type": "Feature", "geometry": {"type": "LineString", "coordinates": [[-6.9746179, 41.5131566], [-6.9744297, 41.5131603], [-6.9742025, 41.5131848]]}, "properties": {"access": "yes", "highway": "primary", "maxspeed": "90", "oneway": "yes", "ref": "EN 102-1", "source": "bing"}}, {"type": "Feature", "geometry": {"type": "LineString", "coordinates": [[-7.0572559, 41.5409664], [-7.057107, 41.5411005], [-7.0569797, 41.541185]]}, "properties": {"access": "yes", "highway": "primary", "oneway": "yes", "ref": "EN 102-1", "source": "bing"}}, {"type": "Feature", "geometry": {"type": "LineString", "coordinates": [[-6.9742025, 41.5131848], [-6.9743169, 41.5132384], [-6.9744645, 41.5132557], [-6.9746179, 41.5131566]]}, "properties": {"access": "yes", "highway": "primary", "maxspeed": "90", "oneway": "yes", "ref": "EN 102-1", "source": "bing"}}, {"type": "Feature", "geometry": {"type": "LineString", "coordinates": [[-7.0567868, 41.5412597], [-7.0568914, 41.5412727], [-7.0570865, 41.5412354], [-7.0571843, 41.5412085]]}, "properties": {"access": "yes", "highway": "primary", "oneway": "yes", "ref": "EN 102-1", "source": "bing"}}, {"type": "Feature", "geometry": {"type": "LineString", "coordinates": [[-7.0220988, 41.5170022], [-7.0226322, 41.5171393], [-7.023006, 41.5172353], [-7.0230837, 41.5172232], [-7.0231619, 41.5172111], [-7.0234034, 41.51711], [-7.023548, 41.5170961], [-7.0244248, 41.5172065]]}, "properties": {"access": "yes", "highway": "primary", "maxspeed": "90", "oneway": "no", "ref": "EN 102-1"}}, {"type": "Feature", "geometry": {"type": "LineString", "coordinates": [[-7.0571843, 41.5412085], [-7.0569797, 41.541185]]}, "properties": {"access": "yes", "highway": "primary", "oneway": "yes", "ref": "EN 102-1", "source": "bing"}}, {"type": "Feature", "geometry": {"type": "LineString", "coordinates": [[-7.0569797, 41.541185], [-7.0567868, 41.5412597]]}, "properties": {"access": "yes", "highway": "primary", "oneway": "yes", "ref": "EN 102-1", "source": "bing"}}]}