{"type": "FeatureCollection", "features": [{"type": "Feature", "geometry": {"type": "LineString", "coordinates": [[-8.8022685, 39.1821429], [-8.8023341, 39.1823255], [-8.8025003, 39.1827882], [-8.8028367, 39.1837763], [-8.8028819, 39.1840711], [-8.8028537, 39.1842843], [-8.8027397, 39.1845629], [-8.8024127, 39.1851471], [-8.8016248, 39.1864939], [-8.8014127, 39.1867695], [-8.8011248, 39.1870378], [-8.8007369, 39.1872369], [-8.7991614, 39.1877645], [-8.7987838, 39.1879242], [-8.7983546, 39.1882302], [-8.7979387, 39.1887112], [-8.7979048, 39.1887915], [-8.7978529, 39.1889141], [-8.7978443, 39.1891179], [-8.7980285, 39.1899997], [-8.7980027, 39.1902991], [-8.797714, 39.1913741], [-8.7976597, 39.1915662], [-8.7976078, 39.1917607], [-8.7975495, 39.1919859], [-8.7975263, 39.1921004], [-8.797514, 39.1922096], [-8.7975118, 39.1922815], [-8.7975103, 39.1923688], [-8.797513, 39.1924567], [-8.797571, 39.1930944], [-8.7975972, 39.1933702], [-8.7976206, 39.1936329], [-8.7976429, 39.1938971], [-8.7976453, 39.1944888], [-8.7976512, 39.19473], [-8.7976148, 39.1950117], [-8.7974985, 39.1952586], [-8.7973707, 39.195444], [-8.7969985, 39.1959068], [-8.7955828, 39.1978222], [-8.7954017, 39.1980833], [-8.7952453, 39.1983024]]}, "properties": {"highway": "primary", "lanes": "2", "oneway": "no", "ref": "EN 114-2", "surface": "asphalt"}}, {"type": "Feature", "geometry": {"type": "LineString", "coordinates": [[-8.7942352, 39.2021826], [-8.7943822, 39.202866]]}, "properties": {"bridge": "yes", "highway": "primary", "layer": "1", "ref": "EN 114-2"}}, {"type": "Feature", "geometry": {"type": "LineString", "coordinates": [[-8.8022685, 39.1821429], [-8.8022421, 39.1820638], [-8.8021785, 39.1818729], [-8.8021124, 39.1816759], [-8.8020489, 39.1814575], [-8.8019243, 39.1810286], [-8.8018004, 39.1803721], [-8.8017386, 39.1795859], [-8.8017181, 39.1792902], [-8.8016058, 39.1786179], [-8.8015176, 39.177751], [-8.8013953, 39.1765253], [-8.8013309, 39.1763589], [-8.8006159, 39.1754014], [-8.8004285, 39.1750884], [-8.8003661, 39.1748761], [-8.8003633, 39.1743354], [-8.8003371, 39.1739871], [-8.8001897, 39.1735804], [-8.800022, 39.17324], [-8.7998825, 39.1729572], [-8.7997109, 39.1725413], [-8.7996036, 39.1722252], [-8.7991744, 39.1702623], [-8.7991101, 39.1701126], [-8.7989062, 39.1698297], [-8.7985307, 39.1694638], [-8.7973488, 39.1684792], [-8.7971321, 39.1682987]]}, "properties": {"highway": "primary", "maxspeed": "50", "oneway": "no", "ref": "EN 114-2", "source": "Yahoo", "surface": "asphalt"}}, {"type": "Feature", "geometry": {"type": "LineString", "coordinates": [[-8.7938603, 39.2010042], [-8.7939367, 39.2009964], [-8.7940079, 39.2009735], [-8.794069, 39.200937], [-8.7941158, 39.2008895], [-8.794149, 39.2008209], [-8.7941524, 39.2007477], [-8.7941257, 39.2006774], [-8.7940716, 39.2006173], [-8.7940123, 39.2005808], [-8.793943, 39.2005572], [-8.7938683, 39.2005481], [-8.793793, 39.2005541], [-8.7937156, 39.2005775], [-8.7936497, 39.2006168], [-8.7936112, 39.2006547], [-8.7935839, 39.2006979], [-8.7935688, 39.2007446], [-8.7935668, 39.2007927], [-8.7935791, 39.2008433], [-8.7936057, 39.2008905], [-8.7936453, 39.2009319], [-8.7936958, 39.2009653], [-8.7937589, 39.2009876], [-8.7937838, 39.2009964], [-8.7938143, 39.2009995], [-8.7938603, 39.2010042]]}, "properties": {"highway": "primary", "junction": "roundabout", "ref": "EN 114-2", "surface": "asphalt"}}, {"type": "Feature", "geometry": {"type": "LineString", "coordinates": [[-8.7938143, 39.2009995], [-8.7939371, 39.2011625], [-8.794004, 39.2013], [-8.7940767, 39.2014716]]}, "properties": {"destination": "Almoster", "highway": "primary", "oneway": "yes", "ref": "EN 114-2"}}, {"type": "Feature", "geometry": {"type": "LineString", "coordinates": [[-8.7941286, 39.1999413], [-8.7940507, 39.2000471], [-8.7939925, 39.2001842], [-8.7938959, 39.2003921], [-8.793793, 39.2005541]]}, "properties": {"highway": "primary", "oneway": "yes", "ref": "EN 114-2"}}, {"type": "Feature", "geometry": {"type": "LineString", "coordinates": [[-8.7871864, 39.1601916], [-8.7871957, 39.1601252], [-8.7871795, 39.1600608], [-8.787141, 39.159994], [-8.7868037, 39.1594079], [-8.7863909, 39.1586923], [-8.7862334, 39.1584402], [-8.7861329, 39.1582794]]}, "properties": {"highway": "primary", "lanes": "2", "maxspeed": "50", "name": "Rua 5 de Outubro", "oneway": "no", "ref": "EN 114-2", "surface": "asphalt"}}, {"type": "Feature", "geometry": {"type": "LineString", "coordinates": [[-8.7940767, 39.2014716], [-8.7942352, 39.2021826]]}, "properties": {"highway": "primary", "oneway": "no", "ref": "EN 114-2", "surface": "asphalt"}}, {"type": "Feature", "geometry": {"type": "LineString", "coordinates": [[-8.7940767, 39.2014716], [-8.7941051, 39.2010363], [-8.7941158, 39.2008895]]}, "properties": {"highway": "primary", "oneway": "yes", "ref": "EN 114-2"}}, {"type": "Feature", "geometry": {"type": "LineString", "coordinates": [[-8.7940716, 39.2006173], [-8.7940622, 39.2004918], [-8.7940622, 39.2002964], [-8.7940911, 39.2001419], [-8.7941286, 39.1999413]]}, "properties": {"destination": "Cartaxo", "highway": "primary", "oneway": "yes", "ref": "EN 114-2"}}, {"type": "Feature", "geometry": {"type": "LineString", "coordinates": [[-8.7890106, 39.2179544], [-8.7907327, 39.2223958], [-8.790755, 39.2224533], [-8.7907914, 39.2226812], [-8.7907953, 39.222949], [-8.7907309, 39.2236139], [-8.7906719, 39.2238092], [-8.790275, 39.2247484], [-8.7891323, 39.2274329], [-8.7888033, 39.228167], [-8.7887285, 39.2283459], [-8.7886572, 39.2285509], [-8.7885637, 39.2288001], [-8.7885423, 39.2289892], [-8.7885848, 39.2291244], [-8.7886545, 39.229249], [-8.7895561, 39.2301091], [-8.7896469, 39.2301985], [-8.7896902, 39.2303148], [-8.789701, 39.2304041], [-8.7895937, 39.2306991], [-8.7895691, 39.2308052], [-8.7895642, 39.2308903], [-8.7896017, 39.2309817], [-8.7896607, 39.2310586], [-8.7901539, 39.2315407], [-8.7902455, 39.2316652], [-8.7902964, 39.2318024], [-8.7903071, 39.2319914], [-8.7901918, 39.2327498], [-8.7901945, 39.2329326], [-8.7903125, 39.2337595], [-8.7903179, 39.2338467], [-8.7902937, 39.2339693], [-8.790009, 39.2347464], [-8.7899665, 39.2348585], [-8.7899719, 39.2350039], [-8.7900309, 39.2351078], [-8.7900926, 39.2351722], [-8.7901887, 39.2352471], [-8.7904033, 39.2353759], [-8.7918376, 39.2362692], [-8.7919702, 39.2363931], [-8.7920303, 39.2364896], [-8.7920647, 39.2366317], [-8.7920954, 39.2368974], [-8.792136, 39.2372725], [-8.7921168, 39.2373808], [-8.7920678, 39.2374871], [-8.7920373, 39.2375488], [-8.7919273, 39.2377214], [-8.7919083, 39.2377927], [-8.7919086, 39.2378815], [-8.7919259, 39.2379821], [-8.7920078, 39.2381867], [-8.7921513, 39.2385094], [-8.7923136, 39.2388224], [-8.7925692, 39.2392785], [-8.7927251, 39.2395462], [-8.7928463, 39.2397108], [-8.7930094, 39.2399015], [-8.7932118, 39.2401394], [-8.7932961, 39.2402379], [-8.7934274, 39.2404556], [-8.7934827, 39.240581], [-8.7935053, 39.2406511], [-8.7935129, 39.2407293], [-8.7935034, 39.2408241], [-8.7934757, 39.2409766], [-8.7934566, 39.2410919], [-8.793454, 39.2411448], [-8.7934549, 39.2412207], [-8.7934715, 39.2412937], [-8.7934963, 39.2413879], [-8.7935452, 39.2415211], [-8.7935878, 39.2416534], [-8.7936093, 39.2416933], [-8.7936494, 39.2417479], [-8.7936922, 39.2417964], [-8.7937541, 39.2418394], [-8.7938347, 39.241864], [-8.7940301, 39.241876], [-8.7942069, 39.241885], [-8.7946073, 39.241897], [-8.7947614, 39.2419027], [-8.7948566, 39.2419179], [-8.7949522, 39.2419332], [-8.7950596, 39.2419738], [-8.7951191, 39.2420046], [-8.7951787, 39.2420446], [-8.7952287, 39.2420979], [-8.7952612, 39.2421663], [-8.7952633, 39.2422493], [-8.795242, 39.2423207], [-8.7951535, 39.2424557], [-8.794301, 39.2434548]]}, "properties": {"highway": "primary", "oneway": "no", "ref": "EN 114-2", "surface": "asphalt"}}, {"type": "Feature", "geometry": {"type": "LineString", "coordinates": [[-8.794081, 39.2437103], [-8.7936116, 39.2442483], [-8.7928365, 39.2451394], [-8.7926568, 39.2453721], [-8.7926081, 39.2454885], [-8.7925951, 39.2456317], [-8.7926246, 39.2458041], [-8.7929679, 39.2466973], [-8.7931101, 39.2470795], [-8.7933917, 39.2476258], [-8.7936304, 39.2479603], [-8.7940032, 39.248384], [-8.7942124, 39.2486145], [-8.7949979, 39.2492606], [-8.7954217, 39.249593], [-8.7956014, 39.2497134], [-8.7959528, 39.2498775], [-8.7962375, 39.2500124], [-8.7964467, 39.2501641], [-8.7969483, 39.2506273], [-8.7971309, 39.2507966], [-8.7974901, 39.2511299], [-8.7977016, 39.2513356], [-8.7980583, 39.25167], [-8.7982246, 39.2518237], [-8.798407, 39.2520917], [-8.7990109, 39.2531508], [-8.7990941, 39.2532962], [-8.7991987, 39.253452], [-8.7992684, 39.2535434], [-8.7994289, 39.2536951], [-8.7998849, 39.2540503], [-8.8010896, 39.2550014], [-8.8020922, 39.2557557], [-8.8023208, 39.2559277], [-8.8024652, 39.2560379], [-8.8026181, 39.2561812], [-8.802699, 39.2562725], [-8.8029484, 39.2567502], [-8.8034254, 39.2576849], [-8.803635, 39.2580981], [-8.8037476, 39.2583445], [-8.8040213, 39.2586879], [-8.8042803, 39.2589739], [-8.8048903, 39.2596474], [-8.8055566, 39.2603915], [-8.8056896, 39.2605757], [-8.805703, 39.2606435], [-8.8057191, 39.2607252], [-8.8057272, 39.2609038], [-8.8057567, 39.261043], [-8.8058341, 39.2612217], [-8.8060459, 39.2614958], [-8.8062341, 39.2617885], [-8.8063012, 39.2620024], [-8.8063387, 39.2623347], [-8.8063226, 39.2624738], [-8.8062632, 39.2626567], [-8.8062529, 39.2627749], [-8.8062444, 39.2632361], [-8.8062261, 39.2633793], [-8.8061854, 39.263531], [-8.8059417, 39.2641165], [-8.8059096, 39.2642702], [-8.8059387, 39.2643866], [-8.8060195, 39.2644778], [-8.8061375, 39.2645318], [-8.8063088, 39.2645298], [-8.8064567, 39.2645027], [-8.8068993, 39.2643013], [-8.8070468, 39.2642535], [-8.8072265, 39.2642328], [-8.8074116, 39.2642619], [-8.8075698, 39.2643179], [-8.8077469, 39.2643927], [-8.8079078, 39.2644321], [-8.8080791, 39.2644239], [-8.8082051, 39.2643741], [-8.8084117, 39.264235], [-8.8085569, 39.2641331], [-8.8087174, 39.2640668], [-8.8089002, 39.2640459], [-8.8093374, 39.2640687], [-8.8098202, 39.2640957], [-8.8099264, 39.2640939], [-8.8100616, 39.2640916], [-8.8104421, 39.2640688], [-8.8107858, 39.2640334], [-8.8110563, 39.2640335], [-8.8112472, 39.2640729], [-8.8113518, 39.2641331], [-8.8114832, 39.2642639], [-8.8115932, 39.2644425], [-8.8115958, 39.2645796], [-8.8115472, 39.2647084], [-8.8114644, 39.2647872], [-8.8112816, 39.2648538], [-8.810869, 39.2649264], [-8.8106651, 39.2649679], [-8.8105333, 39.2650033], [-8.8104023, 39.2650904], [-8.8103325, 39.2652171], [-8.8102801, 39.2653491], [-8.8101874, 39.2656522], [-8.8101363, 39.2658194], [-8.8100241, 39.2662035]]}, "properties": {"highway": "primary", "oneway": "no", "ref": "EN 114-2", "surface": "asphalt"}}, {"type": "Feature", "geometry": {"type": "LineString", "coordinates": [[-8.8100241, 39.2662035], [-8.809852, 39.2667435]]}, "properties": {"bridge": "yes", "highway": "primary", "layer": "1", "oneway": "no", "ref": "EN 114-2", "surface": "asphalt"}}, {"type": "Feature", "geometry": {"type": "LineString", "coordinates": [[-8.809852, 39.2667435], [-8.809793, 39.2669138], [-8.8097773, 39.2670902], [-8.8098202, 39.2673747], [-8.8100321, 39.2680247], [-8.8100509, 39.2681659], [-8.8100267, 39.2683694], [-8.809962, 39.2685086], [-8.8097849, 39.2688242], [-8.8096777, 39.2690526], [-8.8096593, 39.2691543], [-8.8096593, 39.2692685], [-8.8097179, 39.269414], [-8.809809, 39.2695638], [-8.8098456, 39.2696551]]}, "properties": {"highway": "primary", "oneway": "no", "ref": "EN 114-2", "surface": "asphalt"}}, {"type": "Feature", "geometry": {"type": "LineString", "coordinates": [[-8.7950696, 39.1984736], [-8.7949484, 39.1984599], [-8.7948134, 39.1984841], [-8.7946744, 39.1985716], [-8.7946203, 39.1986567], [-8.7946065, 39.1987429], [-8.7946321, 39.1988357], [-8.7946719, 39.1988918], [-8.7947558, 39.1989564], [-8.7948921, 39.1990013], [-8.7950146, 39.1990029], [-8.7951336, 39.1989704], [-8.7952278, 39.1989097], [-8.7952933, 39.1988197], [-8.7953114, 39.1987258], [-8.7952978, 39.1986576], [-8.7952222, 39.1985513], [-8.7950696, 39.1984736]]}, "properties": {"highway": "primary", "junction": "roundabout", "ref": "EN 114-2", "surface": "asphalt"}}, {"type": "Feature", "geometry": {"type": "LineString", "coordinates": [[-8.7946719, 39.1988918], [-8.7946658, 39.1991636]]}, "properties": {"highway": "primary", "oneway": "yes", "ref": "EN 114-2"}}, {"type": "Feature", "geometry": {"type": "LineString", "coordinates": [[-8.7952222, 39.1985513], [-8.7952453, 39.1983024]]}, "properties": {"destination": "Cartaxo", "highway": "primary", "oneway": "yes", "ref": "EN 114-2", "surface": "asphalt"}}, {"type": "Feature", "geometry": {"type": "LineString", "coordinates": [[-8.7946658, 39.1991636], [-8.7948921, 39.1990013]]}, "properties": {"highway": "primary", "oneway": "yes", "ref": "EN 114-2", "surface": "asphalt"}}, {"type": "Feature", "geometry": {"type": "LineString", "coordinates": [[-8.7952453, 39.1983024], [-8.7949484, 39.1984599]]}, "properties": {"highway": "primary", "oneway": "yes", "ref": "EN 114-2", "surface": "asphalt"}}, {"type": "Feature", "geometry": {"type": "LineString", "coordinates": [[-8.7946658, 39.1991636], [-8.7944371, 39.1994745], [-8.7944373, 39.1994758], [-8.7942712, 39.1997138], [-8.7941286, 39.1999413]]}, "properties": {"highway": "primary", "oneway": "no", "ref": "EN 114-2", "surface": "asphalt"}}, {"type": "Feature", "geometry": {"type": "LineString", "coordinates": [[-8.7943822, 39.202866], [-8.7944522, 39.2033123], [-8.7943948, 39.2036804], [-8.7942806, 39.2039109], [-8.7939855, 39.2043224], [-8.793521, 39.2047859], [-8.7918682, 39.206453], [-8.7914337, 39.2069185], [-8.7910834, 39.207494], [-8.7909654, 39.2077684], [-8.7908489, 39.2081281], [-8.7907953, 39.2087475], [-8.7907499, 39.2098415], [-8.7907148, 39.2106886], [-8.7907093, 39.2107633], [-8.790681, 39.2111477], [-8.7905845, 39.2116797], [-8.790509, 39.2118898], [-8.7904627, 39.2120186], [-8.7893, 39.2146932], [-8.7892925, 39.2147117], [-8.7888319, 39.2158508], [-8.788789, 39.2160253], [-8.7888249, 39.2171369], [-8.7888625, 39.21754], [-8.7889343, 39.2177576], [-8.7889793, 39.2178736]]}, "properties": {"highway": "primary", "oneway": "no", "ref": "EN 114-2", "surface": "asphalt"}}, {"type": "Feature", "geometry": {"type": "LineString", "coordinates": [[-8.7889793, 39.2178736], [-8.7890106, 39.2179544]]}, "properties": {"bridge": "yes", "highway": "primary", "layer": "1", "oneway": "no", "ref": "EN 114-2", "surface": "asphalt"}}, {"type": "Feature", "geometry": {"type": "MultiPolygon", "coordinates": [[[[-8.7941524, 39.2007477], [-8.7941257, 39.2006774], [-8.7940716, 39.2006173], [-8.7940123, 39.2005808], [-8.793943, 39.2005572], [-8.7938683, 39.2005481], [-8.793793, 39.2005541], [-8.7937156, 39.2005775], [-8.7936497, 39.2006168], [-8.7936112, 39.2006547], [-8.7935839, 39.2006979], [-8.7935688, 39.2007446], [-8.7935668, 39.2007927], [-8.7935791, 39.2008433], [-8.7936057, 39.2008905], [-8.7936453, 39.2009319], [-8.7936958, 39.2009653], [-8.7937589, 39.2009876], [-8.7937838, 39.2009964], [-8.7938143, 39.2009995], [-8.7938603, 39.2010042], [-8.7939367, 39.2009964], [-8.7940079, 39.2009735], [-8.794069, 39.200937], [-8.7941158, 39.2008895], [-8.794149, 39.2008209], [-8.7941524, 39.2007477]]]]}, "properties": {"highway": "primary", "junction": "roundabout", "ref": "EN 114-2", "surface": "asphalt"}}, {"type": "Feature", "geometry": {"type": "MultiPolygon", "coordinates": [[[[-8.7953114, 39.1987258], [-8.7952978, 39.1986576], [-8.7952222, 39.1985513], [-8.7950696, 39.1984736], [-8.7949484, 39.1984599], [-8.7948134, 39.1984841], [-8.7946744, 39.1985716], [-8.7946203, 39.1986567], [-8.7946065, 39.1987429], [-8.7946321, 39.1988357], [-8.7946719, 39.1988918], [-8.7947558, 39.1989564], [-8.7948921, 39.1990013], [-8.7950146, 39.1990029], [-8.7951336, 39.1989704], [-8.7952278, 39.1989097], [-8.7952933, 39.1988197], [-8.7953114, 39.1987258]]]]}, "properties": {"highway": "primary", "junction": "roundabout", "ref": "EN 114-2", "surface": "asphalt"}}]}