{"type": "FeatureCollection", "features": [{"type": "Feature", "geometry": {"type": "LineString", "coordinates": [[-8.2481346, 40.1291454], [-8.2482053, 40.1291963], [-8.2482936, 40.129227], [-8.2483901, 40.1292345], [-8.2484756, 40.1292206], [-8.2485521, 40.1291882], [-8.248613, 40.1291404], [-8.2486532, 40.129081], [-8.2486666, 40.1290375], [-8.2486687, 40.1289928], [-8.2486505, 40.1289275], [-8.2486082, 40.128869], [-8.2485456, 40.1288224], [-8.248468, 40.1287917], [-8.2483918, 40.1287799], [-8.2483143, 40.1287836], [-8.2482406, 40.1288025], [-8.2481757, 40.1288354], [-8.2481241, 40.1288801], [-8.2480895, 40.1289335], [-8.2480735, 40.1290067], [-8.2480891, 40.1290799], [-8.2481346, 40.1291454]]}, "properties": {"highway": "primary", "junction": "roundabout", "lanes": "2", "ref": "EN 236", "surface": "asphalt"}}, {"type": "Feature", "geometry": {"type": "LineString", "coordinates": [[-8.2483045, 40.1285327], [-8.2482715, 40.1287389], [-8.2482406, 40.1288025]]}, "properties": {"highway": "primary", "lanes": "2", "oneway": "yes", "ref": "EN 236", "surface": "asphalt"}}, {"type": "Feature", "geometry": {"type": "LineString", "coordinates": [[-8.2484938, 40.1276866], [-8.2484323, 40.1276738], [-8.2483534, 40.1276723], [-8.2482768, 40.1276866], [-8.2482077, 40.1277158], [-8.2481511, 40.1277577], [-8.2481112, 40.1278089], [-8.24809, 40.1278662], [-8.2480889, 40.1279258], [-8.2481079, 40.1279833], [-8.2481457, 40.1280352], [-8.2481997, 40.1280778]]}, "properties": {"highway": "primary", "junction": "roundabout", "lanes": "2", "ref": "EN 236", "surface": "asphalt"}}, {"type": "Feature", "geometry": {"type": "LineString", "coordinates": [[-8.2481997, 40.1280778], [-8.2483021, 40.1282175], [-8.2483124, 40.1283172]]}, "properties": {"highway": "primary", "lanes": "2", "oneway": "yes", "ref": "EN 236", "surface": "asphalt"}}, {"type": "Feature", "geometry": {"type": "LineString", "coordinates": [[-8.248468, 40.1287917], [-8.248433, 40.1286711], [-8.2484156, 40.1285453]]}, "properties": {"highway": "primary", "lanes": "2", "oneway": "yes", "ref": "EN 236", "surface": "asphalt"}}, {"type": "Feature", "geometry": {"type": "LineString", "coordinates": [[-8.2496221, 40.1301898], [-8.2497583, 40.1304039], [-8.2498639, 40.1306804], [-8.2498684, 40.1307228], [-8.2499168, 40.1311753]]}, "properties": {"highway": "primary", "lanes": "2", "oneway": "yes", "ref": "EN 236", "surface": "asphalt", "turn:lanes": "left|through"}}, {"type": "Feature", "geometry": {"type": "LineString", "coordinates": [[-8.2484156, 40.1285453], [-8.2484286, 40.1283466]]}, "properties": {"bridge": "yes", "highway": "primary", "lanes": "2", "layer": "1", "oneway": "yes", "ref": "EN 236", "surface": "asphalt"}}, {"type": "Feature", "geometry": {"type": "LineString", "coordinates": [[-8.2483124, 40.1283172], [-8.2483045, 40.1285327]]}, "properties": {"bridge": "yes", "highway": "primary", "lanes": "2", "layer": "1", "oneway": "yes", "ref": "EN 236", "surface": "asphalt"}}, {"type": "Feature", "geometry": {"type": "LineString", "coordinates": [[-8.2484286, 40.1283466], [-8.2484479, 40.1282502], [-8.2484765, 40.1281745], [-8.2485284, 40.1280993]]}, "properties": {"highway": "primary", "lanes": "2", "oneway": "yes", "ref": "EN 236", "surface": "asphalt"}}, {"type": "Feature", "geometry": {"type": "LineString", "coordinates": [[-8.2500173, 40.1311593], [-8.2499665, 40.130679], [-8.2498508, 40.1303842], [-8.2496333, 40.1300784], [-8.2494216, 40.1298841], [-8.249252, 40.1297284], [-8.2487353, 40.129261], [-8.2486867, 40.1291599], [-8.2486532, 40.129081]]}, "properties": {"highway": "primary", "lanes": "2", "oneway": "yes", "ref": "EN 236", "surface": "asphalt"}}, {"type": "Feature", "geometry": {"type": "LineString", "coordinates": [[-8.2505728, 40.1358732], [-8.2504625, 40.1357347], [-8.2504105, 40.1356249]]}, "properties": {"highway": "primary", "lanes": "1", "oneway": "yes", "ref": "EN 236", "surface": "asphalt"}}, {"type": "Feature", "geometry": {"type": "LineString", "coordinates": [[-8.2510773, 40.1366386], [-8.2508117, 40.1363657], [-8.2507462, 40.136271], [-8.2507162, 40.1362109]]}, "properties": {"highway": "primary", "lanes": "1", "oneway": "yes", "ref": "EN 236", "surface": "asphalt"}}, {"type": "Feature", "geometry": {"type": "LineString", "coordinates": [[-8.2503725, 40.1355354], [-8.2502998, 40.1347261], [-8.2502149, 40.133784], [-8.2501257, 40.1328962], [-8.2500498, 40.132098]]}, "properties": {"highway": "primary", "lanes": "2", "ref": "EN 236", "surface": "asphalt"}}, {"type": "Feature", "geometry": {"type": "LineString", "coordinates": [[-8.2503725, 40.1355354], [-8.250307, 40.135744], [-8.2502693, 40.1358186], [-8.2502101, 40.1359059]]}, "properties": {"highway": "primary", "lanes": "1", "oneway": "yes", "ref": "EN 236", "surface": "asphalt"}}, {"type": "Feature", "geometry": {"type": "LineString", "coordinates": [[-8.2504305, 40.136348], [-8.2506969, 40.1364427], [-8.2510773, 40.1366386]]}, "properties": {"highway": "primary", "lanes": "1", "oneway": "yes", "ref": "EN 236", "surface": "asphalt"}}, {"type": "Feature", "geometry": {"type": "LineString", "coordinates": [[-8.2676044, 40.1738577], [-8.2678985, 40.1749144], [-8.2680344, 40.1752349], [-8.2681005, 40.1754337], [-8.2680978, 40.1755442]]}, "properties": {"highway": "primary", "lanes": "1", "oneway": "yes", "ref": "EN 236", "surface": "asphalt"}}, {"type": "Feature", "geometry": {"type": "LineString", "coordinates": [[-8.2678115, 40.1742899], [-8.26771, 40.17388], [-8.2675815, 40.1734707]]}, "properties": {"highway": "primary", "lanes": "1", "oneway": "yes", "ref": "EN 236", "surface": "asphalt"}}, {"type": "Feature", "geometry": {"type": "LineString", "coordinates": [[-8.263628, 40.1540235], [-8.2640135, 40.1529907], [-8.2640975, 40.152662], [-8.2641444, 40.1523408], [-8.264125, 40.1520331], [-8.2640725, 40.1517978], [-8.2639892, 40.1515537], [-8.2638599, 40.1513078], [-8.2636772, 40.1510718], [-8.2634331, 40.1507999], [-8.2631809, 40.1506208], [-8.2629562, 40.1504849], [-8.2626846, 40.1503366], [-8.2622272, 40.1501352], [-8.2612427, 40.1497632], [-8.2608531, 40.1495754], [-8.2604958, 40.1493555], [-8.2601353, 40.1490552], [-8.25965, 40.14852], [-8.2593011, 40.1481902], [-8.258981, 40.147948], [-8.2586804, 40.1477528], [-8.25811, 40.14743], [-8.2574146, 40.1469854], [-8.2570266, 40.1466357], [-8.25672, 40.14628], [-8.25645, 40.14593], [-8.2561553, 40.1454099], [-8.2559257, 40.1448983], [-8.2544336, 40.1412614], [-8.2542461, 40.1409388], [-8.2540699, 40.1406793], [-8.253774, 40.1403432], [-8.25336, 40.13995], [-8.2528865, 40.1394756], [-8.25258, 40.13909], [-8.2522706, 40.1386402], [-8.25178, 40.13755], [-8.25155, 40.13717], [-8.2513297, 40.1368939], [-8.2510773, 40.1366386]]}, "properties": {"highway": "primary", "lanes": "2", "ref": "EN 236", "surface": "asphalt"}}, {"type": "Feature", "geometry": {"type": "LineString", "coordinates": [[-8.2623523, 40.1573272], [-8.263628, 40.1540235]]}, "properties": {"bridge": "yes", "highway": "primary", "lanes": "2", "layer": "1", "ref": "EN 236", "surface": "asphalt"}}, {"type": "Feature", "geometry": {"type": "LineString", "coordinates": [[-8.2671063, 40.1719706], [-8.26628, 40.16921], [-8.2656406, 40.1674799]]}, "properties": {"highway": "primary", "lanes": "2", "ref": "EN 236", "surface": "asphalt"}}, {"type": "Feature", "geometry": {"type": "LineString", "coordinates": [[-8.2502101, 40.1359059], [-8.2501704, 40.1359368], [-8.2501189, 40.1360027], [-8.2500959, 40.1360775], [-8.2500973, 40.1361268], [-8.2500991, 40.1361559], [-8.2501223, 40.1362049], [-8.2501546, 40.1362412], [-8.2502213, 40.1362949], [-8.2503056, 40.1363313], [-8.250367, 40.1363443], [-8.2504305, 40.136348]]}, "properties": {"highway": "primary", "junction": "roundabout", "lanes": "2", "ref": "EN 236", "surface": "asphalt"}}, {"type": "Feature", "geometry": {"type": "LineString", "coordinates": [[-8.2638283, 40.1626512], [-8.2630888, 40.1611797], [-8.2629174, 40.160777], [-8.2628188, 40.1604669], [-8.2622546, 40.158479], [-8.2622061, 40.1582307], [-8.2622061, 40.158012], [-8.26223, 40.15775], [-8.2622708, 40.1575536], [-8.2623523, 40.1573272]]}, "properties": {"highway": "primary", "lanes": "2", "ref": "EN 236", "surface": "asphalt"}}, {"type": "Feature", "geometry": {"type": "LineString", "coordinates": [[-8.2638283, 40.1626512], [-8.2639797, 40.1630971], [-8.2643296, 40.1640537]]}, "properties": {"highway": "primary", "lanes": "1", "oneway": "yes", "ref": "EN 236", "surface": "asphalt", "turn:lanes": "through;slight_right"}}, {"type": "Feature", "geometry": {"type": "LineString", "coordinates": [[-8.2648974, 40.1652419], [-8.2646701, 40.1646442], [-8.2643889, 40.1638353], [-8.2642746, 40.1635593], [-8.2640596, 40.1630902], [-8.2638283, 40.1626512]]}, "properties": {"highway": "primary", "lanes": "1", "oneway": "yes", "ref": "EN 236", "surface": "asphalt"}}, {"type": "Feature", "geometry": {"type": "LineString", "coordinates": [[-8.2671063, 40.1719706], [-8.2671493, 40.1722355], [-8.2674095, 40.1731519]]}, "properties": {"highway": "primary", "lanes": "1", "oneway": "yes", "ref": "EN 236", "surface": "asphalt", "turn:lanes": "through;slight_right"}}, {"type": "Feature", "geometry": {"type": "LineString", "coordinates": [[-8.2674095, 40.1731519], [-8.2676044, 40.1738577]]}, "properties": {"highway": "primary", "lanes": "2", "oneway": "yes", "ref": "EN 236", "surface": "asphalt", "turn:lanes": "through|slight_right"}}, {"type": "Feature", "geometry": {"type": "LineString", "coordinates": [[-8.2683341, 40.1754081], [-8.2681901, 40.1753404], [-8.2681075, 40.1752301], [-8.267971, 40.1748856]]}, "properties": {"highway": "primary", "lanes": "1", "oneway": "yes", "ref": "EN 236", "surface": "asphalt", "turn:lanes": "through;slight_right"}}, {"type": "Feature", "geometry": {"type": "LineString", "coordinates": [[-8.267971, 40.1748856], [-8.2678115, 40.1742899]]}, "properties": {"highway": "primary", "lanes": "2", "oneway": "yes", "ref": "EN 236", "surface": "asphalt", "turn:lanes": "through|slight_right"}}, {"type": "Feature", "geometry": {"type": "LineString", "coordinates": [[-8.2673448, 40.1726702], [-8.2672195, 40.1722467], [-8.2671063, 40.1719706]]}, "properties": {"highway": "primary", "lanes": "1", "oneway": "yes", "ref": "EN 236", "surface": "asphalt"}}, {"type": "Feature", "geometry": {"type": "LineString", "coordinates": [[-8.2675815, 40.1734707], [-8.2673448, 40.1726702]]}, "properties": {"highway": "primary", "lanes": "2", "oneway": "yes", "ref": "EN 236", "surface": "asphalt", "turn:lanes": "none|merge_to_left"}}, {"type": "Feature", "geometry": {"type": "LineString", "coordinates": [[-8.2650108, 40.1659126], [-8.265277, 40.1666083]]}, "properties": {"highway": "primary", "lanes": "2", "oneway": "yes", "ref": "EN 236", "surface": "asphalt", "turn:lanes": "none|merge_to_left"}}, {"type": "Feature", "geometry": {"type": "LineString", "coordinates": [[-8.265277, 40.1666083], [-8.2654393, 40.1670326], [-8.2656406, 40.1674799]]}, "properties": {"highway": "primary", "lanes": "1", "oneway": "yes", "ref": "EN 236", "surface": "asphalt"}}, {"type": "Feature", "geometry": {"type": "LineString", "coordinates": [[-8.264786, 40.1652673], [-8.2650108, 40.1659126]]}, "properties": {"highway": "primary", "lanes": "1", "oneway": "yes", "ref": "EN 236", "surface": "asphalt"}}, {"type": "Feature", "geometry": {"type": "LineString", "coordinates": [[-8.2656406, 40.1674799], [-8.2655166, 40.1670163], [-8.2652518, 40.1662453]]}, "properties": {"highway": "primary", "lanes": "1", "oneway": "yes", "ref": "EN 236", "surface": "asphalt"}}, {"type": "Feature", "geometry": {"type": "LineString", "coordinates": [[-8.2652518, 40.1662453], [-8.2648974, 40.1652419]]}, "properties": {"highway": "primary", "lanes": "2", "oneway": "yes", "ref": "EN 236", "surface": "asphalt", "turn:lanes": "left|through"}}, {"type": "Feature", "geometry": {"type": "LineString", "coordinates": [[-8.2643296, 40.1640537], [-8.2645979, 40.1647706]]}, "properties": {"highway": "primary", "lanes": "2", "oneway": "yes", "ref": "EN 236", "surface": "asphalt", "turn:lanes": "through|slight_right"}}, {"type": "Feature", "geometry": {"type": "LineString", "coordinates": [[-8.2645979, 40.1647706], [-8.264786, 40.1652673]]}, "properties": {"highway": "primary", "lanes": "1", "oneway": "yes", "ref": "EN 236", "surface": "asphalt"}}, {"type": "Feature", "geometry": {"type": "LineString", "coordinates": [[-8.2504105, 40.1356249], [-8.2503725, 40.1355354]]}, "properties": {"highway": "primary", "lanes": "1", "oneway": "yes", "ref": "EN 236", "surface": "asphalt"}}, {"type": "Feature", "geometry": {"type": "LineString", "coordinates": [[-8.2483901, 40.1292345], [-8.2485425, 40.1292529], [-8.2486646, 40.1292942], [-8.2496221, 40.1301898]]}, "properties": {"highway": "primary", "lanes": "1", "oneway": "yes", "ref": "EN 236", "surface": "asphalt"}}, {"type": "Feature", "geometry": {"type": "LineString", "coordinates": [[-8.2499168, 40.1311753], [-8.2499489, 40.1314757], [-8.249999, 40.1319161], [-8.2500498, 40.132098]]}, "properties": {"highway": "primary", "lanes": "2", "oneway": "yes", "ref": "EN 236", "surface": "asphalt", "turn:lanes": "merge_to_right|through"}}, {"type": "Feature", "geometry": {"type": "LineString", "coordinates": [[-8.2500498, 40.132098], [-8.2500737, 40.1319419], [-8.2500173, 40.1311593]]}, "properties": {"highway": "primary", "lanes": "2", "oneway": "yes", "ref": "EN 236", "surface": "asphalt", "turn:lanes": "through|through;right"}}, {"type": "Feature", "geometry": {"type": "LineString", "coordinates": [[-8.2507162, 40.1362109], [-8.2507396, 40.136165], [-8.2507509, 40.1361166], [-8.2507464, 40.1360512], [-8.25072, 40.1359889], [-8.2506733, 40.1359339], [-8.250627, 40.1358998], [-8.2505728, 40.1358732]]}, "properties": {"highway": "primary", "junction": "roundabout", "lanes": "2", "ref": "EN 236", "surface": "asphalt"}}, {"type": "Feature", "geometry": {"type": "LineString", "coordinates": [[-8.2505728, 40.1358732], [-8.2504814, 40.1358497], [-8.250385, 40.1358475], [-8.2502919, 40.1358668], [-8.2502101, 40.1359059]]}, "properties": {"highway": "primary", "junction": "roundabout", "lanes": "2", "ref": "EN 236", "surface": "asphalt"}}, {"type": "Feature", "geometry": {"type": "LineString", "coordinates": [[-8.2504305, 40.136348], [-8.2505177, 40.1363375], [-8.2505981, 40.1363096], [-8.2506659, 40.1362664], [-8.2507162, 40.1362109]]}, "properties": {"highway": "primary", "junction": "roundabout", "lanes": "2", "ref": "EN 236", "surface": "asphalt"}}, {"type": "Feature", "geometry": {"type": "LineString", "coordinates": [[-8.2481997, 40.1280778], [-8.2482751, 40.1281112], [-8.2483598, 40.1281265], [-8.2484467, 40.1281224], [-8.2485284, 40.1280993]]}, "properties": {"highway": "primary", "junction": "roundabout", "lanes": "2", "ref": "EN 236", "surface": "asphalt"}}, {"type": "Feature", "geometry": {"type": "LineString", "coordinates": [[-8.2486819, 40.1278746], [-8.2486623, 40.1278144], [-8.2486223, 40.1277605], [-8.2485647, 40.1277168], [-8.2484938, 40.1276866]]}, "properties": {"highway": "primary", "junction": "roundabout", "lanes": "2", "ref": "EN 236", "surface": "asphalt"}}, {"type": "Feature", "geometry": {"type": "LineString", "coordinates": [[-8.2485284, 40.1280993], [-8.2485912, 40.1280642], [-8.2486401, 40.1280179], [-8.2486716, 40.1279635], [-8.2486825, 40.1279194], [-8.2486819, 40.1278746]]}, "properties": {"highway": "primary", "junction": "roundabout", "lanes": "2", "ref": "EN 236", "surface": "asphalt"}}, {"type": "Feature", "geometry": {"type": "MultiPolygon", "coordinates": [[[[-8.2486687, 40.1289928], [-8.2486505, 40.1289275], [-8.2486082, 40.128869], [-8.2485456, 40.1288224], [-8.248468, 40.1287917], [-8.2483918, 40.1287799], [-8.2483143, 40.1287836], [-8.2482406, 40.1288025], [-8.2481757, 40.1288354], [-8.2481241, 40.1288801], [-8.2480895, 40.1289335], [-8.2480735, 40.1290067], [-8.2480891, 40.1290799], [-8.2481346, 40.1291454], [-8.2482053, 40.1291963], [-8.2482936, 40.129227], [-8.2483901, 40.1292345], [-8.2484756, 40.1292206], [-8.2485521, 40.1291882], [-8.248613, 40.1291404], [-8.2486532, 40.129081], [-8.2486666, 40.1290375], [-8.2486687, 40.1289928]]]]}, "properties": {"highway": "primary", "junction": "roundabout", "lanes": "2", "ref": "EN 236", "surface": "asphalt"}}]}