{"type": "FeatureCollection", "features": [{"type": "Feature", "geometry": {"type": "LineString", "coordinates": [[-8.9143424, 37.0772675], [-8.9142085, 37.0774696], [-8.913761, 37.0780277], [-8.9136647, 37.07813], [-8.9135447, 37.0782562], [-8.9134439, 37.0783589], [-8.9133129, 37.0784805], [-8.9131803, 37.0786004], [-8.9129841, 37.0787636], [-8.9127987, 37.078905], [-8.9126172, 37.0790396], [-8.9120679, 37.0794272], [-8.9119632, 37.0795042]]}, "properties": {"highway": "primary", "lanes": "2", "ref": "EN 268", "smoothness": "excellent", "surface": "asphalt"}}, {"type": "Feature", "geometry": {"type": "LineString", "coordinates": [[-8.9450682, 37.007588], [-8.9450212, 37.0075499], [-8.9449761, 37.0075293], [-8.9449395, 37.0075199], [-8.9448726, 37.007516], [-8.9447872, 37.0075417], [-8.9447601, 37.0075499]]}, "properties": {"bicycle": "yes", "cycleway": "no", "highway": "primary", "junction": "roundabout", "lanes": "2", "lit": "yes", "maxspeed:type": "PT:urban", "ref": "EN 268", "surface": "asphalt"}}, {"type": "Feature", "geometry": {"type": "LineString", "coordinates": [[-8.9089293, 37.0820614], [-8.9088791, 37.0820118], [-8.9087384, 37.0818311]]}, "properties": {"highway": "primary", "lanes": "2", "ref": "EN 268", "surface": "asphalt"}}, {"type": "Feature", "geometry": {"type": "LineString", "coordinates": [[-8.9085214, 37.0815506], [-8.9083909, 37.0813327], [-8.9083565, 37.0811689], [-8.9083751, 37.0810268], [-8.9084691, 37.0808119]]}, "properties": {"highway": "primary", "lanes": "2", "ref": "EN 268", "surface": "asphalt"}}, {"type": "Feature", "geometry": {"type": "LineString", "coordinates": [[-8.9087384, 37.0818311], [-8.9085214, 37.0815506]]}, "properties": {"bridge": "yes", "highway": "primary", "lanes": "2", "layer": "1", "ref": "EN 268", "surface": "asphalt"}}, {"type": "Feature", "geometry": {"type": "LineString", "coordinates": [[-8.9196559, 37.0697132], [-8.9195092, 37.0698769]]}, "properties": {"bicycle": "yes", "bridge": "yes", "highway": "primary", "lanes": "2", "layer": "1", "ref": "EN 268", "surface": "asphalt"}}, {"type": "Feature", "geometry": {"type": "LineString", "coordinates": [[-8.9371847, 37.0271268], [-8.9365528, 37.0291732], [-8.9362041, 37.0302678], [-8.9358503, 37.0311898], [-8.929231, 37.0473556], [-8.9290416, 37.0477768], [-8.9288701, 37.0481178], [-8.9286849, 37.0484381], [-8.9284848, 37.0487127], [-8.9282922, 37.0489619], [-8.9281234, 37.0491656], [-8.9279046, 37.0494092], [-8.9271618, 37.0501968], [-8.9267799, 37.0505916], [-8.9254145, 37.0520188], [-8.9243512, 37.0531553], [-8.9241778, 37.0533659], [-8.9239963, 37.053605], [-8.9236926, 37.0540703], [-8.9235051, 37.0544224], [-8.9233602, 37.0547537], [-8.923258, 37.0550535], [-8.923186, 37.0553448], [-8.9231232, 37.0556545], [-8.9230895, 37.055942], [-8.9230768, 37.0562124], [-8.9230024, 37.0588234], [-8.9229458, 37.0612119], [-8.92287, 37.0643518], [-8.9228379, 37.0648837], [-8.9228045, 37.0651769], [-8.9227464, 37.0654927], [-8.9226574, 37.0658136], [-8.9225554, 37.0661193], [-8.922428, 37.0664269], [-8.9223044, 37.0666797], [-8.9221168, 37.067011], [-8.9219068, 37.0673074], [-8.9215657, 37.0677189], [-8.9196559, 37.0697132]]}, "properties": {"highway": "primary", "lanes": "2", "maxspeed": "90", "ref": "EN 268", "smoothness": "excellent", "surface": "asphalt"}}, {"type": "Feature", "geometry": {"type": "LineString", "coordinates": [[-8.910011, 37.0797879], [-8.9101385, 37.0798288], [-8.9102268, 37.0798684], [-8.9103147, 37.0799278], [-8.9104486, 37.0800314]]}, "properties": {"highway": "primary", "lanes": "2", "ref": "EN 268", "surface": "asphalt"}}, {"type": "Feature", "geometry": {"type": "LineString", "coordinates": [[-8.9084691, 37.0808119], [-8.9088532, 37.080198], [-8.9089935, 37.080056], [-8.9090832, 37.0799986], [-8.9091845, 37.079943], [-8.9093128, 37.0798957], [-8.90963, 37.079815], [-8.9097495, 37.0797923], [-8.9098104, 37.0797853], [-8.9098631, 37.0797791], [-8.910011, 37.0797879]]}, "properties": {"highway": "primary", "lanes": "2", "ref": "EN 268", "surface": "asphalt"}}, {"type": "Feature", "geometry": {"type": "LineString", "coordinates": [[-8.9096817, 37.0810905], [-8.9090814, 37.0814857], [-8.9088827, 37.0815896], [-8.9086934, 37.0816848]]}, "properties": {"highway": "primary", "lanes": "2", "ref": "EN 268", "surface": "asphalt"}}, {"type": "Feature", "geometry": {"type": "LineString", "coordinates": [[-8.9447335, 37.0080605], [-8.9447179, 37.0080945], [-8.9446127, 37.0083235], [-8.9445309, 37.0084828], [-8.9445037, 37.0085386], [-8.9443543, 37.0088452], [-8.9440562, 37.0094526], [-8.9439484, 37.0096819], [-8.943851, 37.0098972], [-8.9436978, 37.0102193], [-8.9436499, 37.01032], [-8.9433321, 37.010988], [-8.9433151, 37.0110239], [-8.9432737, 37.0111146], [-8.9432259, 37.0112068], [-8.9430084, 37.0116268], [-8.9429465, 37.0117499], [-8.9428879, 37.0118664], [-8.9428063, 37.0120354], [-8.9426418, 37.012376], [-8.9424074, 37.0128911], [-8.9423766, 37.0129587], [-8.9422827, 37.013165], [-8.9421798, 37.0134018], [-8.9420522, 37.0136553], [-8.9417944, 37.0141675], [-8.9417364, 37.0142827], [-8.9415616, 37.0146505], [-8.9413567, 37.0150824], [-8.941331, 37.0151364], [-8.9410428, 37.0157448], [-8.9405328, 37.0168206], [-8.9403901, 37.0170992], [-8.9402909, 37.0172927], [-8.9402759, 37.0173444], [-8.9402358, 37.0174351]]}, "properties": {"bicycle": "yes", "highway": "primary", "lanes": "2", "lit": "yes", "maxspeed": "50", "ref": "EN 268", "shoulder": "no", "sidewalk": "no", "smoothness": "good", "surface": "asphalt"}}, {"type": "Feature", "geometry": {"type": "LineString", "coordinates": [[-8.9447335, 37.0080605], [-8.9447975, 37.0079923], [-8.9449781, 37.0078505]]}, "properties": {"highway": "primary", "lanes": "1", "lit": "yes", "maxspeed": "50", "oneway": "yes", "ref": "EN 268", "sidewalk": "right", "sidewalk:right:surface": "sett", "surface": "asphalt"}}, {"type": "Feature", "geometry": {"type": "LineString", "coordinates": [[-8.9447154, 37.0077951], [-8.9447156, 37.0078639], [-8.9447239, 37.0079387], [-8.9447335, 37.0080605]]}, "properties": {"highway": "primary", "lanes": "1", "maxspeed": "50", "oneway": "yes", "ref": "EN 268", "surface": "asphalt"}}, {"type": "Feature", "geometry": {"type": "LineString", "coordinates": [[-8.9377793, 37.0240447], [-8.9377712, 37.0246248], [-8.9377669, 37.0246901], [-8.9377423, 37.025062], [-8.937684, 37.025414], [-8.9375955, 37.0257765]]}, "properties": {"highway": "primary", "lanes": "2", "maxspeed:backward": "70", "maxspeed:forward": "90", "ref": "EN 268", "smoothness": "good", "surface": "asphalt"}}, {"type": "Feature", "geometry": {"type": "LineString", "coordinates": [[-8.9380188, 37.0220088], [-8.9379196, 37.0221979]]}, "properties": {"bridge": "yes", "highway": "primary", "lanes": "2", "layer": "1", "maxspeed": "50", "maxweight:signed": "no", "ref": "EN 268", "surface": "asphalt"}}, {"type": "Feature", "geometry": {"type": "LineString", "coordinates": [[-8.911297, 37.0799697], [-8.9107995, 37.0803359], [-8.9102655, 37.0807063]]}, "properties": {"highway": "primary", "lanes": "2", "ref": "EN 268", "surface": "asphalt"}}, {"type": "Feature", "geometry": {"type": "LineString", "coordinates": [[-8.9401983, 37.0175144], [-8.9401514, 37.0176108], [-8.9400426, 37.0178348], [-8.9399809, 37.0179698], [-8.9398626, 37.0182143], [-8.939554, 37.0188522], [-8.9394474, 37.0190738], [-8.9394191, 37.0191323], [-8.9394039, 37.0191638], [-8.9391889, 37.0196107], [-8.939023, 37.0199553]]}, "properties": {"bicycle": "yes", "highway": "primary", "lanes": "2", "lit": "yes", "maxspeed": "50", "ref": "EN 268", "shoulder": "no", "surface": "asphalt"}}, {"type": "Feature", "geometry": {"type": "LineString", "coordinates": [[-8.9402358, 37.0174351], [-8.9401983, 37.0175144]]}, "properties": {"bicycle": "yes", "bridge": "yes", "highway": "primary", "lanes": "2", "layer": "1", "lit": "yes", "maxspeed": "50", "maxweight:signed": "no", "ref": "EN 268", "surface": "asphalt"}}, {"type": "Feature", "geometry": {"type": "LineString", "coordinates": [[-8.9447154, 37.0077951], [-8.9447784, 37.0078404], [-8.9448285, 37.0078579], [-8.9448799, 37.0078649], [-8.9449419, 37.0078602], [-8.9449781, 37.0078505], [-8.9450303, 37.0078248], [-8.9450667, 37.0077941], [-8.9450974, 37.0077476], [-8.9451086, 37.0077068], [-8.9451073, 37.0076656], [-8.9450819, 37.0076152]]}, "properties": {"bicycle": "yes", "cycleway": "no", "highway": "primary", "junction": "roundabout", "lanes": "2", "lit": "yes", "maxspeed:type": "PT:urban", "ref": "EN 268", "surface": "asphalt"}}, {"type": "Feature", "geometry": {"type": "LineString", "coordinates": [[-8.9447601, 37.0075499], [-8.9447164, 37.0075843], [-8.94469, 37.0076202], [-8.9446738, 37.0076661], [-8.9446728, 37.007708], [-8.9447043, 37.0077724], [-8.9447154, 37.0077951]]}, "properties": {"bicycle": "yes", "cycleway": "no", "highway": "primary", "junction": "roundabout", "lanes": "2", "lit": "yes", "maxspeed:type": "PT:urban", "ref": "EN 268", "surface": "asphalt"}}, {"type": "Feature", "geometry": {"type": "LineString", "coordinates": [[-8.9450819, 37.0076152], [-8.9450682, 37.007588]]}, "properties": {"bicycle": "yes", "cycleway": "no", "highway": "primary", "junction": "roundabout", "lanes": "2", "lit": "yes", "maxspeed:type": "PT:urban", "ref": "EN 268", "surface": "asphalt"}}, {"type": "Feature", "geometry": {"type": "LineString", "coordinates": [[-8.9386387, 37.0207441], [-8.9383554, 37.0213269], [-8.9381937, 37.0216576], [-8.9380188, 37.0220088]]}, "properties": {"bicycle": "yes", "highway": "primary", "lanes": "2", "lit": "yes", "maxspeed:backward": "70", "maxspeed:forward": "50", "ref": "EN 268", "shoulder": "no", "surface": "asphalt"}}, {"type": "Feature", "geometry": {"type": "LineString", "coordinates": [[-8.939023, 37.0199553], [-8.9388151, 37.0203871], [-8.9387079, 37.020604]]}, "properties": {"bicycle": "yes", "highway": "primary", "lanes": "2", "lit": "yes", "maxspeed": "70", "ref": "EN 268", "shoulder": "no", "surface": "asphalt"}}, {"type": "Feature", "geometry": {"type": "LineString", "coordinates": [[-8.9377676, 37.0225916], [-8.9377404, 37.0226761], [-8.9377222, 37.0228103], [-8.9377192, 37.0229401], [-8.9377793, 37.0240447]]}, "properties": {"highway": "primary", "lanes": "2", "maxspeed:backward": "50", "maxspeed:forward": "90", "ref": "EN 268", "smoothness": "good", "surface": "asphalt"}}, {"type": "Feature", "geometry": {"type": "LineString", "coordinates": [[-8.9379196, 37.0221979], [-8.9378765, 37.0222836], [-8.9378383, 37.022388]]}, "properties": {"highway": "primary", "lanes": "2", "maxspeed": "50", "ref": "EN 268", "smoothness": "good", "surface": "asphalt"}}, {"type": "Feature", "geometry": {"type": "LineString", "coordinates": [[-8.9375955, 37.0257765], [-8.9371847, 37.0271268]]}, "properties": {"highway": "primary", "lanes": "2", "maxspeed": "90", "ref": "EN 268", "smoothness": "good", "surface": "asphalt"}}, {"type": "Feature", "geometry": {"type": "LineString", "coordinates": [[-8.9387079, 37.020604], [-8.9386387, 37.0207441]]}, "properties": {"bicycle": "yes", "highway": "primary", "lanes": "2", "lit": "yes", "maxspeed": "70", "ref": "EN 268", "shoulder": "no", "surface": "asphalt"}}, {"type": "Feature", "geometry": {"type": "LineString", "coordinates": [[-8.9378383, 37.022388], [-8.9377676, 37.0225916]]}, "properties": {"highway": "primary", "lanes": "2", "maxspeed": "50", "ref": "EN 268", "smoothness": "good", "surface": "asphalt"}}, {"type": "Feature", "geometry": {"type": "LineString", "coordinates": [[-8.9102655, 37.0807063], [-8.9096817, 37.0810905]]}, "properties": {"highway": "primary", "lanes": "4", "lanes:backward": "2", "lanes:forward": "2", "ref": "EN 268", "surface": "asphalt", "turn:lanes:backward": "through|slight_right", "turn:lanes:forward": "none|merge_to_left"}}, {"type": "Feature", "geometry": {"type": "LineString", "coordinates": [[-8.9119632, 37.0795042], [-8.911297, 37.0799697]]}, "properties": {"highway": "primary", "lanes": "4", "lanes:backward": "2", "ref": "EN 268", "surface": "asphalt", "turn:lanes:backward": "none|merge_to_left", "turn:lanes:forward": "through|slight_right"}}, {"type": "Feature", "geometry": {"type": "LineString", "coordinates": [[-8.9195092, 37.0698769], [-8.9187032, 37.0707905], [-8.9179989, 37.0717497], [-8.9143424, 37.0772675]]}, "properties": {"highway": "primary", "lanes": "2", "ref": "EN 268", "smoothness": "excellent", "surface": "asphalt"}}]}