{"type": "FeatureCollection", "features": [{"type": "Feature", "geometry": {"type": "LineString", "coordinates": [[-9.4124269, 38.7347642], [-9.4119391, 38.7343919], [-9.4109006, 38.7336031], [-9.4105901, 38.7333664], [-9.410512, 38.7333015], [-9.4100789, 38.7329639], [-9.4099818, 38.7328988]]}, "properties": {"highway": "primary", "lanes": "2", "name": "Rua Marqu\u00eas de Angeja", "oneway": "no", "ref": "EN 247-5"}}, {"type": "Feature", "geometry": {"type": "LineString", "coordinates": [[-9.4301474, 38.7461856], [-9.4301173, 38.7460791], [-9.4300954, 38.7460148], [-9.4300305, 38.7458178], [-9.4299971, 38.7457012], [-9.4298705, 38.745259], [-9.4296347, 38.7443999], [-9.4294958, 38.7438981], [-9.429466, 38.743792], [-9.4294451, 38.7437246], [-9.4294196, 38.743648], [-9.4293899, 38.7435789], [-9.4293519, 38.7435136], [-9.4293043, 38.7434437], [-9.4292361, 38.7433712], [-9.4291701, 38.7433152], [-9.4284788, 38.7426759], [-9.4284253, 38.742625], [-9.4283789, 38.7425699], [-9.4283435, 38.742509], [-9.4283251, 38.7424513], [-9.4283202, 38.74239], [-9.4283256, 38.7423279], [-9.4283419, 38.74226], [-9.4283615, 38.7421964], [-9.4284844, 38.7418531], [-9.4285074, 38.7417792], [-9.4285228, 38.7417102], [-9.4285209, 38.7416643], [-9.428505, 38.7416058], [-9.4284438, 38.7415132], [-9.4284022, 38.7414757], [-9.4283558, 38.7414516], [-9.4282811, 38.7414308], [-9.428204, 38.7414191], [-9.4281439, 38.7414221], [-9.428073, 38.7414333], [-9.4279971, 38.741457], [-9.4270959, 38.7418028], [-9.4269355, 38.7418631], [-9.426785, 38.7419144], [-9.4266694, 38.7419507], [-9.4265385, 38.7419819], [-9.4264029, 38.7420093], [-9.4262693, 38.742032], [-9.4261639, 38.7420426], [-9.4260928, 38.7420448], [-9.4260258, 38.7420418], [-9.4259633, 38.7420308], [-9.4258952, 38.7420066], [-9.4257438, 38.7419257], [-9.4256858, 38.7418927], [-9.4256362, 38.7418565], [-9.4255894, 38.7418109], [-9.4255461, 38.7417477], [-9.4254385, 38.7415836], [-9.4254073, 38.7415371], [-9.4253791, 38.7415031], [-9.4253438, 38.7414673], [-9.4252973, 38.741428], [-9.4251327, 38.7413149], [-9.4250645, 38.741267], [-9.4250395, 38.7412485], [-9.4250008, 38.741211], [-9.4249656, 38.7411698], [-9.4249269, 38.7411118], [-9.4248939, 38.7410534], [-9.4248765, 38.7410065], [-9.4248657, 38.7409599], [-9.4248617, 38.7409153], [-9.4248873, 38.7406855], [-9.4249618, 38.7401094], [-9.4249646, 38.7400715], [-9.424961, 38.7400246], [-9.4249497, 38.7399843], [-9.4249293, 38.7399432], [-9.4248995, 38.7399037], [-9.4248597, 38.7398671], [-9.4247393, 38.7397829], [-9.4246938, 38.7397523], [-9.4246485, 38.7397089], [-9.4245311, 38.7395768], [-9.4243746, 38.7394397], [-9.424279, 38.7393598], [-9.4242235, 38.7392892], [-9.4241712, 38.7392084], [-9.4241129, 38.7391436], [-9.4240757, 38.739108], [-9.4240249, 38.739087], [-9.4238179, 38.7390445], [-9.4235727, 38.7389918], [-9.4234186, 38.7389552], [-9.423365, 38.7389385], [-9.4232815, 38.7389153], [-9.4232077, 38.7388896], [-9.4230683, 38.7388285], [-9.4229459, 38.7387386], [-9.4226726, 38.7385107], [-9.4224802, 38.7384066], [-9.4224116, 38.7383841], [-9.4222389, 38.7383738], [-9.4221279, 38.7383604], [-9.4220214, 38.7383334], [-9.4219679, 38.7382926], [-9.4219095, 38.738227], [-9.4218628, 38.7381514], [-9.4218512, 38.7381128], [-9.4218128, 38.7379314], [-9.4217996, 38.7377724], [-9.4217859, 38.7376612], [-9.4217766, 38.7376102], [-9.421769, 38.7375807], [-9.421699, 38.7373492], [-9.4215455, 38.7370424], [-9.4215199, 38.7369984], [-9.4214782, 38.7369356], [-9.4214226, 38.7368905], [-9.4213771, 38.7368641], [-9.4212619, 38.7368273], [-9.421078, 38.7367737], [-9.4206582, 38.7366123], [-9.4203111, 38.7364396], [-9.4202681, 38.7364021], [-9.4199828, 38.7360516], [-9.4199286, 38.7359969], [-9.4198964, 38.7359683], [-9.4198562, 38.7359418], [-9.419769, 38.7359107], [-9.4195081, 38.7358445], [-9.4192557, 38.7358067], [-9.4191456, 38.7357995], [-9.4190233, 38.7358193], [-9.4189364, 38.7358592], [-9.4188634, 38.735908], [-9.4187805, 38.7360118], [-9.4185631, 38.7361877], [-9.4184777, 38.736218], [-9.418383, 38.7362222], [-9.4181843, 38.7362065], [-9.4176497, 38.7361694], [-9.4175725, 38.7361657], [-9.4175014, 38.736172], [-9.4174276, 38.7361814], [-9.4173533, 38.7362106], [-9.4171915, 38.7363264], [-9.4170977, 38.7364063], [-9.4170196, 38.7365001], [-9.4167477, 38.7369078], [-9.4166499, 38.7369912], [-9.4165225, 38.7370439], [-9.4164281, 38.7370714], [-9.4162915, 38.737086], [-9.4160125, 38.7370778], [-9.4157645, 38.7370288], [-9.415445, 38.7368958], [-9.4153328, 38.7368411], [-9.4152736, 38.7367949], [-9.4152277, 38.7367445], [-9.4151849, 38.7366877], [-9.4151636, 38.7366302], [-9.4151501, 38.736564], [-9.415142, 38.7365024], [-9.4151531, 38.7364446], [-9.4151801, 38.7363776], [-9.4155223, 38.7357865], [-9.415736, 38.7354994], [-9.4157994, 38.7354173], [-9.4158501, 38.735331], [-9.4159372, 38.7352709], [-9.4160044, 38.7352249], [-9.416334, 38.7350765], [-9.4164098, 38.7350376], [-9.4164896, 38.7349921], [-9.4165759, 38.7349423], [-9.4166372, 38.7348942], [-9.416669, 38.7348545], [-9.4166989, 38.7347738], [-9.4166999, 38.7347329], [-9.4166955, 38.7347004], [-9.416692, 38.7346615], [-9.4166748, 38.7346209], [-9.4166517, 38.7345923], [-9.4166247, 38.7345715], [-9.4165974, 38.7345502]]}, "properties": {"highway": "primary", "lanes": "2", "oneway": "no", "ref": "EN 247-5", "sidewalk": "no", "smoothness": "intermediate", "source": "GPS", "surface": "asphalt"}}, {"type": "Feature", "geometry": {"type": "LineString", "coordinates": [[-9.4367784, 38.7500639], [-9.4366004, 38.7499345], [-9.4363053, 38.7497229], [-9.4361993, 38.7496538], [-9.4361024, 38.7495982], [-9.436084, 38.7495909], [-9.4359838, 38.7495443], [-9.4356141, 38.7493916], [-9.4352681, 38.7492513], [-9.4351574, 38.7491958], [-9.4350822, 38.7491387], [-9.4350328, 38.749074], [-9.4349676, 38.7489707], [-9.4348272, 38.7487332], [-9.4346532, 38.7484402], [-9.4345914, 38.7483361], [-9.4343448, 38.7479206], [-9.4342479, 38.7477895], [-9.4340897, 38.747643], [-9.4338861, 38.747495], [-9.4337872, 38.7474318], [-9.4337022, 38.7473901], [-9.433635, 38.7473716], [-9.4335697, 38.7473655], [-9.4334807, 38.7473639], [-9.4333957, 38.7473809], [-9.4331861, 38.747458], [-9.4329232, 38.747569], [-9.4327393, 38.7476461], [-9.4325673, 38.7477201], [-9.43251, 38.7477664], [-9.4324605, 38.7478281], [-9.4324269, 38.7478974], [-9.4324151, 38.747956], [-9.4323973, 38.7480532], [-9.4323854, 38.7481657], [-9.4323637, 38.7482752], [-9.432336, 38.7483539], [-9.4322964, 38.7484248], [-9.432249, 38.7484942], [-9.4321837, 38.7485836], [-9.4321383, 38.7486391], [-9.4321106, 38.7486746], [-9.4319999, 38.748801], [-9.4319465, 38.7488396], [-9.4319116, 38.7488653], [-9.4318266, 38.7488912], [-9.4317665, 38.7488976], [-9.4316713, 38.7488869], [-9.4315807, 38.7488658], [-9.4315135, 38.7488396], [-9.4314601, 38.7488072], [-9.4314126, 38.7487517], [-9.4313751, 38.7486885], [-9.4313296, 38.7486021], [-9.431298, 38.7485466], [-9.4312525, 38.7484834], [-9.4312169, 38.7484464], [-9.4311279, 38.748377], [-9.4309883, 38.7482986], [-9.4308373, 38.7482166], [-9.4306771, 38.7481349], [-9.4305882, 38.7480871], [-9.4305193, 38.7480534], [-9.4304647, 38.7480308], [-9.4303825, 38.7480069], [-9.4302995, 38.7479946], [-9.4302351, 38.7479875], [-9.4302197, 38.7479858], [-9.4301295, 38.7479807], [-9.4300504, 38.7479792], [-9.4299891, 38.747973], [-9.4299278, 38.7479622], [-9.4298566, 38.7479483], [-9.4298131, 38.7479221], [-9.4297736, 38.7478913], [-9.429736, 38.7478512], [-9.4296965, 38.7478065], [-9.4296589, 38.7477587], [-9.4296253, 38.7477062], [-9.4296016, 38.7476569], [-9.4295719, 38.7475875], [-9.4295541, 38.7475459], [-9.4295403, 38.7475073], [-9.4295284, 38.7474672], [-9.4295245, 38.747421], [-9.4295264, 38.7473747], [-9.4295281, 38.7473691], [-9.4295423, 38.7473223], [-9.429566, 38.7472621], [-9.4295976, 38.7472128], [-9.4296589, 38.7471542], [-9.4300359, 38.7468335], [-9.4300992, 38.7467687], [-9.4301407, 38.7467163], [-9.4301684, 38.7466638], [-9.4301873, 38.7466186], [-9.4302022, 38.746566], [-9.4302078, 38.7465172], [-9.4302066, 38.7464635], [-9.430198, 38.7463955], [-9.4301474, 38.7461856]]}, "properties": {"highway": "primary", "lanes": "2", "oneway": "no", "ref": "EN 247-5", "source": "GPS", "surface": "asphalt"}}, {"type": "Feature", "geometry": {"type": "LineString", "coordinates": [[-9.4478074, 38.7521872], [-9.4477809, 38.7521275], [-9.447746, 38.7520731], [-9.4476977, 38.752025], [-9.4476387, 38.7519831], [-9.447569, 38.7519455], [-9.4475261, 38.7519267], [-9.4474773, 38.7519075]]}, "properties": {"bicycle": "yes", "highway": "primary", "name": "Avenida de Nossa Senhora da Assun\u00e7\u00e3o", "oneway": "no", "ref": "EN 9-1;EN 247-5", "source": "GPS", "surface": "sett"}}, {"type": "Feature", "geometry": {"type": "LineString", "coordinates": [[-9.4487851, 38.753086], [-9.448921, 38.7531304], [-9.4490144, 38.7531511], [-9.4490977, 38.7531647], [-9.449203, 38.7531741]]}, "properties": {"bicycle": "yes", "highway": "primary", "lanes": "2", "name": "Avenida de Nossa Senhora da Assun\u00e7\u00e3o", "ref": "EN 247-5", "smoothness": "good", "surface": "asphalt"}}, {"type": "Feature", "geometry": {"type": "LineString", "coordinates": [[-9.4504971, 38.7528646], [-9.4506334, 38.7527979], [-9.4508075, 38.752709]]}, "properties": {"highway": "primary", "name": "Avenida de Nossa Senhora da Assun\u00e7\u00e3o", "oneway": "yes", "ref": "EN 247-5", "surface": "asphalt"}}, {"type": "Feature", "geometry": {"type": "LineString", "coordinates": [[-9.4504535, 38.7526227], [-9.4503842, 38.7526619], [-9.4503252, 38.752745]]}, "properties": {"highway": "primary", "lanes": "1", "name": "Avenida de Nossa Senhora da Assun\u00e7\u00e3o", "oneway": "yes", "ref": "EN 247-5", "smoothness": "excellent", "surface": "asphalt"}}, {"type": "Feature", "geometry": {"type": "LineString", "coordinates": [[-9.4470495, 38.7518007], [-9.4469962, 38.7517884], [-9.4469214, 38.7517723], [-9.4460712, 38.7515889], [-9.4456799, 38.7515075], [-9.4450115, 38.7513684], [-9.4448731, 38.7513422], [-9.4447584, 38.7513206], [-9.4446576, 38.7513082], [-9.4445409, 38.7513005], [-9.4444137, 38.7513002], [-9.4439399, 38.751299], [-9.4432156, 38.7512979], [-9.4418386, 38.7512893]]}, "properties": {"highway": "primary", "lanes": "2", "name": "Avenida de Nossa Senhora da Assun\u00e7\u00e3o", "oneway": "no", "ref": "EN 247-5", "smoothness": "good", "source": "GPS", "surface": "asphalt"}}, {"type": "Feature", "geometry": {"type": "LineString", "coordinates": [[-9.4415165, 38.7512874], [-9.4413948, 38.751287], [-9.4413603, 38.7512871], [-9.4412724, 38.7512875]]}, "properties": {"highway": "primary", "lanes": "2", "name": "Avenida de Nossa Senhora da Assun\u00e7\u00e3o", "oneway": "no", "ref": "EN 247-5", "smoothness": "good", "source": "GPS", "surface": "asphalt"}}, {"type": "Feature", "geometry": {"type": "LineString", "coordinates": [[-9.4499246, 38.7531001], [-9.4500518, 38.7530717], [-9.4501864, 38.7530251], [-9.4502934, 38.7529769], [-9.4503838, 38.7529226]]}, "properties": {"bicycle": "yes", "highway": "primary", "lanes": "1", "name": "Avenida de Nossa Senhora da Assun\u00e7\u00e3o", "oneway": "yes", "ref": "EN 247-5", "surface": "asphalt"}}, {"type": "Feature", "geometry": {"type": "LineString", "coordinates": [[-9.4485499, 38.7528903], [-9.4485656, 38.7529142], [-9.4486019, 38.7529514], [-9.4486541, 38.7529997], [-9.4487081, 38.7530391], [-9.4487851, 38.753086]]}, "properties": {"bicycle": "yes", "highway": "primary", "lanes": "2", "name": "Rua de Cascais", "oneway": "no", "ref": "EN 247-5", "surface": "asphalt"}}, {"type": "Feature", "geometry": {"type": "LineString", "coordinates": [[-9.4502483, 38.7528633], [-9.4502223, 38.7528964], [-9.4501539, 38.7529585], [-9.450016, 38.7530496]]}, "properties": {"highway": "primary", "name": "Avenida de Nossa Senhora da Assun\u00e7\u00e3o", "oneway": "yes", "ref": "EN 247-5", "surface": "asphalt"}}, {"type": "Feature", "geometry": {"type": "LineString", "coordinates": [[-9.4496749, 38.7531541], [-9.44982, 38.7531289], [-9.4499246, 38.7531001]]}, "properties": {"bicycle": "yes", "highway": "primary", "lanes": "2", "name": "Avenida de Nossa Senhora da Assun\u00e7\u00e3o", "ref": "EN 247-5", "surface": "asphalt"}}, {"type": "Feature", "geometry": {"type": "LineString", "coordinates": [[-9.4494962, 38.7531682], [-9.4496749, 38.7531541]]}, "properties": {"bicycle": "yes", "highway": "primary", "lanes": "2", "name": "Avenida de Nossa Senhora da Assun\u00e7\u00e3o", "ref": "EN 247-5", "smoothness": "good", "surface": "asphalt"}}, {"type": "Feature", "geometry": {"type": "LineString", "coordinates": [[-9.4493799, 38.7531721], [-9.4494962, 38.7531682]]}, "properties": {"bicycle": "yes", "bridge": "yes", "highway": "primary", "lanes": "2", "layer": "1", "maxweight:signed": "no", "name": "Avenida de Nossa Senhora da Assun\u00e7\u00e3o", "ref": "EN 247-5", "surface": "asphalt"}}, {"type": "Feature", "geometry": {"type": "LineString", "coordinates": [[-9.449203, 38.7531741], [-9.4493799, 38.7531721]]}, "properties": {"bicycle": "yes", "highway": "primary", "lanes": "2", "name": "Avenida de Nossa Senhora da Assun\u00e7\u00e3o", "ref": "EN 247-5", "smoothness": "good", "surface": "asphalt"}}, {"type": "Feature", "geometry": {"type": "LineString", "coordinates": [[-9.450016, 38.7530496], [-9.4499246, 38.7531001]]}, "properties": {"highway": "primary", "name": "Avenida de Nossa Senhora da Assun\u00e7\u00e3o", "oneway": "yes", "ref": "EN 247-5", "surface": "asphalt"}}, {"type": "Feature", "geometry": {"type": "LineString", "coordinates": [[-9.4503252, 38.752745], [-9.4502887, 38.7528121], [-9.4502483, 38.7528633]]}, "properties": {"highway": "primary", "name": "Avenida de Nossa Senhora da Assun\u00e7\u00e3o", "oneway": "yes", "ref": "EN 247-5", "surface": "asphalt"}}, {"type": "Feature", "geometry": {"type": "LineString", "coordinates": [[-9.4503838, 38.7529226], [-9.4504971, 38.7528646]]}, "properties": {"bicycle": "yes", "highway": "primary", "lanes": "1", "name": "Avenida de Nossa Senhora da Assun\u00e7\u00e3o", "oneway": "yes", "ref": "EN 247-5", "surface": "asphalt"}}, {"type": "Feature", "geometry": {"type": "LineString", "coordinates": [[-9.4163392, 38.7344864], [-9.41622, 38.7344982], [-9.4161161, 38.7345345], [-9.4160355, 38.7345649], [-9.415944, 38.7346066], [-9.4155838, 38.7347691], [-9.4151154, 38.7349547], [-9.4149756, 38.734991], [-9.4148608, 38.7350092], [-9.4147526, 38.7350048], [-9.4146598, 38.734974], [-9.4142546, 38.7347956], [-9.4141436, 38.7347654], [-9.4139592, 38.7347651], [-9.4139206, 38.7347714], [-9.413663, 38.7348134], [-9.4134111, 38.7348423], [-9.4132743, 38.7348689], [-9.4130572, 38.734888], [-9.4128831, 38.7349033], [-9.4127444, 38.7348927], [-9.4126449, 38.7348757], [-9.4125685, 38.73485], [-9.4124912, 38.7348059], [-9.4124269, 38.7347642]]}, "properties": {"highway": "primary", "lanes": "2", "name": "Rua Marqu\u00eas de \u00c2ngeja", "oneway": "no", "ref": "EN 247-5", "source": "GPS", "surface": "asphalt"}}, {"type": "Feature", "geometry": {"type": "LineString", "coordinates": [[-9.4165974, 38.7345502], [-9.4165654, 38.7345346], [-9.4165236, 38.7345162], [-9.4163392, 38.7344864]]}, "properties": {"highway": "primary", "lanes": "2", "name": "Rua Marqu\u00eas de \u00c2ngeja", "oneway": "no", "ref": "EN 247-5", "source": "GPS", "surface": "asphalt"}}, {"type": "Feature", "geometry": {"type": "LineString", "coordinates": [[-9.4481069, 38.7529259], [-9.448054, 38.7528818], [-9.4480246, 38.7528437], [-9.4480015, 38.7528052], [-9.4479854, 38.7527633], [-9.447891, 38.7524696], [-9.4478743, 38.7524109], [-9.4478533, 38.7523366], [-9.4478074, 38.7521872]]}, "properties": {"bicycle": "yes", "highway": "primary", "lanes": "2", "name": "Avenida de Nossa Senhora da Assun\u00e7\u00e3o", "oneway": "no", "ref": "EN 9-1;EN 247-5", "source": "GPS", "surface": "asphalt"}}, {"type": "Feature", "geometry": {"type": "LineString", "coordinates": [[-9.4416348, 38.751288], [-9.4415854, 38.7512877], [-9.4415165, 38.7512874]]}, "properties": {"highway": "primary", "lanes": "2", "name": "Avenida de Nossa Senhora da Assun\u00e7\u00e3o", "oneway": "no", "ref": "EN 247-5", "smoothness": "good", "source": "GPS", "surface": "asphalt"}}, {"type": "Feature", "geometry": {"type": "LineString", "coordinates": [[-9.4418386, 38.7512893], [-9.4416348, 38.751288]]}, "properties": {"bridge": "yes", "highway": "primary", "lanes": "2", "layer": "1", "name": "Avenida de Nossa Senhora da Assun\u00e7\u00e3o", "ref": "EN 247-5", "smoothness": "good", "source": "GPS", "surface": "asphalt"}}, {"type": "Feature", "geometry": {"type": "LineString", "coordinates": [[-9.4474773, 38.7519075], [-9.4474, 38.7518869], [-9.4473802, 38.7518818], [-9.4472686, 38.7518534], [-9.4470495, 38.7518007]]}, "properties": {"highway": "primary", "lanes": "2", "name": "Avenida de Nossa Senhora da Assun\u00e7\u00e3o", "ref": "EN 247-5", "source": "GPS", "surface": "sett"}}, {"type": "Feature", "geometry": {"type": "LineString", "coordinates": [[-9.4412724, 38.7512875], [-9.4399693, 38.7512788], [-9.4399198, 38.7512777], [-9.4398608, 38.7512773], [-9.4386936, 38.7512718], [-9.4385535, 38.7512642], [-9.4384533, 38.7512358], [-9.4383683, 38.7512096], [-9.4382911, 38.7511741], [-9.4382015, 38.7511193], [-9.4378443, 38.7508518], [-9.4375181, 38.7506113], [-9.4372907, 38.7504463], [-9.4372279, 38.7504], [-9.4369736, 38.7502118], [-9.4367784, 38.7500639]]}, "properties": {"highway": "primary", "lanes": "2", "name": "Avenida da Nossa Senhora da Assun\u00e7\u00e3o", "oneway": "no", "ref": "EN 247-5", "source": "GPS", "surface": "asphalt"}}]}