{"type": "FeatureCollection", "features": [{"type": "Feature", "geometry": {"type": "LineString", "coordinates": [[-6.7027957, 41.8575858], [-6.7028522, 41.8573484], [-6.703077, 41.8567538], [-6.7035354, 41.8555415], [-6.7042365, 41.8537528], [-6.704766, 41.852368], [-6.7049876, 41.8519064], [-6.7051698, 41.8516244], [-6.7053856, 41.851353], [-6.7071601, 41.8496581], [-6.707672, 41.8491692], [-6.7079354, 41.8488554], [-6.7079689, 41.848791], [-6.7079937, 41.8487433], [-6.7081043, 41.8485305], [-6.7082062, 41.8481631], [-6.7082735, 41.847799], [-6.7084128, 41.8470513], [-6.7088078, 41.8447902], [-6.7088378, 41.8446186], [-6.7090925, 41.8431609], [-6.7091323, 41.8429863], [-6.7091891, 41.84284], [-6.7093102, 41.8426341], [-6.7094608, 41.8424264], [-6.7097652, 41.8420122], [-6.7103276, 41.8412351], [-6.7114844, 41.8396456], [-6.7117393, 41.8392893], [-6.7120341, 41.8389372], [-6.7122402, 41.8386998]]}, "properties": {"highway": "primary", "lanes": "2", "lit": "no", "ref": "EN 218-3", "surface": "asphalt"}}, {"type": "Feature", "geometry": {"type": "LineString", "coordinates": [[-6.7241305, 41.8149145], [-6.7241326, 41.8148177], [-6.7241576, 41.8147373], [-6.7241895, 41.8146962], [-6.7242883, 41.8146188], [-6.7244216, 41.814526], [-6.724587, 41.8144668], [-6.7262018, 41.8140454], [-6.7263044, 41.8139707], [-6.7263926, 41.8138742], [-6.72658, 41.8133556], [-6.726612, 41.813287], [-6.7267498, 41.8129914], [-6.7268664, 41.8128236], [-6.7269679, 41.8126958]]}, "properties": {"highway": "primary", "lit": "yes", "ref": "EN 218-3"}}, {"type": "Feature", "geometry": {"type": "LineString", "coordinates": [[-6.7250916, 41.8164934], [-6.7245344, 41.8156805], [-6.7242039, 41.8151984], [-6.7241284, 41.8150132], [-6.7241305, 41.8149145]]}, "properties": {"highway": "primary", "lit": "no", "ref": "EN 218-3"}}, {"type": "Feature", "geometry": {"type": "LineString", "coordinates": [[-6.7122402, 41.8386998], [-6.7126234, 41.8382584], [-6.7159126, 41.8344697], [-6.7160071, 41.8343608], [-6.7169143, 41.8332942], [-6.7169969, 41.833205], [-6.7170169, 41.8331851], [-6.7170887, 41.8331172], [-6.7171866, 41.8330383], [-6.7173522, 41.8329384], [-6.7174056, 41.8329117], [-6.7176139, 41.8328296], [-6.717849, 41.8327801], [-6.7180436, 41.8327392], [-6.7197064, 41.8325582], [-6.7200455, 41.832462], [-6.7202636, 41.8323616], [-6.720472, 41.8322213], [-6.7206674, 41.8320201], [-6.720805, 41.8317771], [-6.7213204, 41.8291339], [-6.7213505, 41.8289853], [-6.7218034, 41.8265671], [-6.7218523, 41.8262989], [-6.7219478, 41.8260855], [-6.7223739, 41.8256217], [-6.722805, 41.8251789], [-6.7229219, 41.8250701], [-6.7230625, 41.8249575], [-6.723542, 41.8246868], [-6.7240467, 41.8244325], [-6.7250109, 41.8239129], [-6.7251558, 41.8238142], [-6.7258437, 41.8231486], [-6.726072, 41.8229035], [-6.7262258, 41.8226736], [-6.7262972, 41.8224393], [-6.726503, 41.8215166], [-6.7266088, 41.8210461], [-6.7267109, 41.8205785], [-6.7269061, 41.8197145], [-6.7269284, 41.8194819], [-6.7269275, 41.8194378], [-6.7269248, 41.8193115], [-6.7268491, 41.8191116], [-6.7267921, 41.8190028], [-6.7267434, 41.8189098], [-6.7266886, 41.8188287], [-6.7265835, 41.8186733], [-6.7264355, 41.8184543], [-6.7250916, 41.8164934]]}, "properties": {"highway": "primary", "lit": "yes", "ref": "EN 218-3"}}, {"type": "Feature", "geometry": {"type": "LineString", "coordinates": [[-6.6945946, 41.8701281], [-6.6947366, 41.8699242], [-6.6952189, 41.8690445], [-6.6954077, 41.8688847], [-6.6959914, 41.8685523], [-6.6962746, 41.8682263], [-6.6964999, 41.8667531], [-6.6966866, 41.8662768], [-6.6972359, 41.8656696], [-6.6978968, 41.8652477], [-6.7030037, 41.8629146], [-6.703493, 41.8624992], [-6.7036561, 41.8622626], [-6.7037934, 41.8619558], [-6.7037934, 41.8613102], [-6.7030536, 41.8590402], [-6.7028423, 41.8583768], [-6.7027791, 41.858068], [-6.7027775, 41.8579972], [-6.7027742, 41.8578513], [-6.7027827, 41.8576405], [-6.7027957, 41.8575858]]}, "properties": {"highway": "primary", "lanes": "2", "lit": "no", "ref": "EN 218-3", "surface": "asphalt"}}, {"type": "Feature", "geometry": {"type": "LineString", "coordinates": [[-6.7265596, 41.8125554], [-6.7266707, 41.8126395], [-6.7267458, 41.8127226], [-6.7267758, 41.8127834], [-6.7267865, 41.8128602], [-6.7267737, 41.8129161], [-6.7267498, 41.8129914]]}, "properties": {"highway": "primary", "oneway": "yes", "ref": "EN 218-3"}}, {"type": "Feature", "geometry": {"type": "LineString", "coordinates": [[-6.726612, 41.813287], [-6.7266921, 41.8131688], [-6.7267436, 41.8131097], [-6.726808, 41.8130425], [-6.7268745, 41.8129817], [-6.7269368, 41.8129337], [-6.7270183, 41.8128922], [-6.7272245, 41.8128225], [-6.7276711, 41.8126761]]}, "properties": {"highway": "primary", "oneway": "yes", "ref": "EN 218-3"}}, {"type": "Feature", "geometry": {"type": "LineString", "coordinates": [[-6.7269368, 41.8129337], [-6.7269561, 41.8128426], [-6.7269646, 41.8127642], [-6.7269679, 41.8126958]]}, "properties": {"highway": "primary", "oneway": "yes", "ref": "EN 218-3"}}]}