{"type": "FeatureCollection", "features": [{"type": "Feature", "geometry": {"type": "LineString", "coordinates": [[-6.7108706, 41.3427673], [-6.7107296, 41.3428293], [-6.7105573, 41.342899], [-6.7100849, 41.3431134], [-6.7099538, 41.3431746], [-6.7090902, 41.3435785], [-6.7089967, 41.3436204], [-6.7084201, 41.3438901], [-6.7079187, 41.3440692], [-6.707041, 41.3443484], [-6.7068213, 41.3444196], [-6.7066359, 41.3444726], [-6.7063166, 41.3445638], [-6.706121, 41.3446717], [-6.7056619, 41.3451315], [-6.7054645, 41.3453672], [-6.7053295, 41.3455156], [-6.7051199, 41.345746], [-6.7048473, 41.3462215], [-6.7048012, 41.3463181], [-6.7043952, 41.3471694], [-6.7042944, 41.3473042], [-6.7041674, 41.3474741], [-6.7035848, 41.348199], [-6.7031253, 41.3487707], [-6.7029687, 41.3489899], [-6.7028946, 41.3490936]]}, "properties": {"highway": "primary", "name": "Avenida do Sabor", "oneway": "yes", "ref": "EN 219"}}, {"type": "Feature", "geometry": {"type": "LineString", "coordinates": [[-6.7030489, 41.349081], [-6.7031729, 41.3488346], [-6.7034411, 41.3485125], [-6.7036518, 41.3482358], [-6.7038703, 41.3479487], [-6.7042359, 41.3475067], [-6.7043647, 41.3473344], [-6.7044699, 41.3471936], [-6.7048926, 41.3463384], [-6.7049357, 41.3462513], [-6.7051105, 41.345897], [-6.7052168, 41.345753], [-6.705407, 41.3455489], [-6.7055538, 41.3453913], [-6.705595, 41.3453437], [-6.7057423, 41.3451735], [-6.7058624, 41.3450479], [-6.7059939, 41.3449105], [-6.7061063, 41.344818], [-6.7061949, 41.3447596], [-6.7063484, 41.344698], [-6.7063956, 41.3446838], [-6.7068821, 41.3445377], [-6.707146, 41.3444546], [-6.708223, 41.3441169], [-6.7083209, 41.3440744], [-6.7085376, 41.3439889], [-6.7094386, 41.3435847], [-6.7095267, 41.3435423], [-6.709743, 41.3434381], [-6.7103201, 41.3431658], [-6.7103439, 41.3431537], [-6.7104469, 41.3431058], [-6.7107203, 41.3429789], [-6.7108097, 41.3429382], [-6.710964, 41.3428679], [-6.7110098, 41.342847]]}, "properties": {"cycleway": "no", "highway": "primary", "name": "Avenida do Sabor", "oneway": "yes", "ref": "EN 219"}}, {"type": "Feature", "geometry": {"type": "LineString", "coordinates": [[-6.702694, 41.3493311], [-6.702674, 41.349357], [-6.7021436, 41.3500417], [-6.7018287, 41.3504528], [-6.700879, 41.3524658], [-6.700752, 41.3538733], [-6.7001339, 41.3559721], [-6.700138, 41.3560981], [-6.700358, 41.3565515]]}, "properties": {"highway": "primary", "oneway": "no", "ref": "EN 219"}}, {"type": "Feature", "geometry": {"type": "LineString", "coordinates": [[-6.5270065, 41.5775597], [-6.5269869, 41.5776417], [-6.5270106, 41.577723], [-6.5270742, 41.5777914], [-6.5271679, 41.5778364], [-6.5272774, 41.5778511], [-6.5273862, 41.5778333], [-6.5274776, 41.5777858], [-6.5275377, 41.5777157], [-6.5275574, 41.5776337], [-6.5275336, 41.5775524], [-6.5274701, 41.577484], [-6.5273764, 41.577439], [-6.5272668, 41.5774243], [-6.527158, 41.5774421], [-6.5270666, 41.5774896], [-6.5270065, 41.5775597]]}, "properties": {"highway": "primary", "junction": "roundabout", "ref": "EN 219"}}, {"type": "Feature", "geometry": {"type": "LineString", "coordinates": [[-6.5906595, 41.4560151], [-6.5906515, 41.4562032], [-6.5905878, 41.4564797], [-6.5904177, 41.456813], [-6.5897301, 41.4578398], [-6.5895936, 41.4581429], [-6.5895077, 41.458518], [-6.5895228, 41.4589803], [-6.5896391, 41.4594274], [-6.5897756, 41.4597608], [-6.5899576, 41.4600904], [-6.5900031, 41.4603973], [-6.5900031, 41.4608747], [-6.5899475, 41.4612611], [-6.5897655, 41.4616286], [-6.5894521, 41.4620113], [-6.5881645, 41.4633363], [-6.5873748, 41.4641489], [-6.5863226, 41.4652316], [-6.5859839, 41.46569], [-6.5858525, 41.4659362], [-6.5858234, 41.4660248], [-6.5857716, 41.4661825], [-6.585766, 41.4662699], [-6.5857513, 41.4664969], [-6.5857752, 41.4669938], [-6.5858221, 41.4679668], [-6.585807, 41.4682888], [-6.5857261, 41.4687245], [-6.5854935, 41.4694367], [-6.5852407, 41.469914], [-6.5849323, 41.4703382], [-6.5844672, 41.4708269], [-6.5839212, 41.471255], [-6.58336, 41.4716035], [-6.5826903, 41.471896], [-6.582544, 41.4719599], [-6.582517, 41.4719721], [-6.5821293, 41.4721278], [-6.5816821, 41.4722918], [-6.5798658, 41.4729411], [-6.5780194, 41.4736165], [-6.5773988, 41.4738435], [-6.5771351, 41.4739334], [-6.5767841, 41.4740627], [-6.5764374, 41.4742195], [-6.576148, 41.4743697], [-6.5759131, 41.4745083], [-6.5755716, 41.4747098], [-6.5750886, 41.4750834], [-6.5748618, 41.4752871], [-6.5746463, 41.4755089], [-6.5744671, 41.4756934], [-6.5740728, 41.4762711], [-6.5739995, 41.4763795], [-6.572732, 41.4782539], [-6.5724853, 41.4786187], [-6.5722326, 41.4789331], [-6.5718989, 41.4792702], [-6.5718769, 41.4792854], [-6.5714641, 41.4795694], [-6.5710849, 41.4797966], [-6.5708976, 41.4798949], [-6.5693812, 41.4806905], [-6.568997, 41.4809519], [-6.5686633, 41.4812776], [-6.5684257, 41.4815768], [-6.5672831, 41.4834971], [-6.5671213, 41.4838455], [-6.5666309, 41.4856142], [-6.5664691, 41.4859664], [-6.566277, 41.4862694], [-6.5660192, 41.4865345], [-6.5656602, 41.4867996], [-6.5651496, 41.4870571], [-6.5646997, 41.4872086], [-6.5605288, 41.488144], [-6.5602052, 41.4882577], [-6.5597654, 41.4884432], [-6.5592396, 41.4887613], [-6.5588452, 41.489106], [-6.558547, 41.4894809], [-6.5583548, 41.4898407], [-6.5577836, 41.4910411], [-6.557551, 41.4914274], [-6.557187, 41.4918213], [-6.5566663, 41.4922378], [-6.5558978, 41.4926733], [-6.5552861, 41.4930482], [-6.5549069, 41.4933739], [-6.5545581, 41.4937942], [-6.5543508, 41.4941312], [-6.5542497, 41.4945099], [-6.5541979, 41.4948048], [-6.5538719, 41.4966618], [-6.5538404, 41.4968725], [-6.5538088, 41.4970489], [-6.5535965, 41.4983245], [-6.5527117, 41.5036394], [-6.5522456, 41.5064392], [-6.5521972, 41.5069108], [-6.5521279, 41.5087509], [-6.5521833, 41.5089893], [-6.5523702, 41.5093728], [-6.552647, 41.5097564], [-6.5551097, 41.5126924], [-6.5551249, 41.5127106], [-6.5553948, 41.5132186], [-6.5568301, 41.5169145], [-6.5577758, 41.5193495], [-6.5578417, 41.5195525], [-6.5578853, 41.5197646], [-6.5579023, 41.5199533], [-6.5579073, 41.5201423], [-6.5578793, 41.5203547], [-6.5578427, 41.5205348], [-6.5577594, 41.5207967], [-6.5577041, 41.5209249], [-6.5575787, 41.5211541], [-6.5574616, 41.5212991], [-6.5572567, 41.5215156], [-6.5564098, 41.522172], [-6.5563052, 41.5222498], [-6.5560592, 41.5224327], [-6.555781, 41.5226395], [-6.5544535, 41.5236506], [-6.5532138, 41.5245703], [-6.5529377, 41.5247751], [-6.5524933, 41.5251112], [-6.5518404, 41.525605], [-6.5490268, 41.5277329], [-6.5489425, 41.5277958], [-6.5489307, 41.5278043], [-6.5488936, 41.5278336], [-6.5481827, 41.5283712], [-6.5477882, 41.528739], [-6.5475045, 41.5290914], [-6.5473245, 41.5294593], [-6.5463693, 41.5322935], [-6.5462863, 41.532765], [-6.546314, 41.5333038], [-6.5463901, 41.5336872], [-6.5466739, 41.5347545], [-6.5466964, 41.5349563], [-6.5467085, 41.5350654], [-6.5466531, 41.5354539], [-6.5465285, 41.535827], [-6.5462448, 41.536314], [-6.5446321, 41.5383189], [-6.5442168, 41.5390287], [-6.5440275, 41.5394429], [-6.5415966, 41.5457664], [-6.5404808, 41.5486689], [-6.5372608, 41.5570498], [-6.5369839, 41.5575781], [-6.5367901, 41.5578888], [-6.5362503, 41.5585362], [-6.5350667, 41.5597948], [-6.5348106, 41.5601366], [-6.534572, 41.5605882], [-6.5344076, 41.5610219], [-6.5342432, 41.5616563], [-6.5341016, 41.5636451], [-6.5340664, 41.5642144], [-6.53399, 41.5654508], [-6.5338106, 41.5683562], [-6.5337505, 41.5687671], [-6.5335644, 41.5692907], [-6.5332322, 41.569927], [-6.5328512, 41.5704208], [-6.5324791, 41.5708417], [-6.5321998, 41.5711156], [-6.5320938, 41.5712195]]}, "properties": {"highway": "primary", "oneway": "no", "ref": "EN 219", "surface": "asphalt"}}, {"type": "Feature", "geometry": {"type": "LineString", "coordinates": [[-6.7031082, 41.3492225], [-6.7031249, 41.3491801], [-6.7031176, 41.3491425], [-6.7030914, 41.3491066], [-6.7030489, 41.349081], [-6.7029966, 41.3490695], [-6.7029424, 41.3490739], [-6.7028946, 41.3490936], [-6.7028604, 41.3491255], [-6.7028451, 41.3491647], [-6.702851, 41.3492054], [-6.7028772, 41.3492413], [-6.7029197, 41.349267], [-6.7029685, 41.3492792], [-6.7030262, 41.349274], [-6.7030741, 41.3492544], [-6.7031082, 41.3492225]]}, "properties": {"alt_name": "Rotunda dos cogumelos", "highway": "primary", "junction": "roundabout", "ref": "EN 219"}}, {"type": "Feature", "geometry": {"type": "LineString", "coordinates": [[-6.7108576, 41.342676], [-6.710854, 41.3427224], [-6.7108706, 41.3427673], [-6.7109046, 41.3428048], [-6.7109527, 41.3428323], [-6.7110098, 41.342847], [-6.7110726, 41.3428471], [-6.711132, 41.3428317], [-6.7111814, 41.3428025], [-6.7112148, 41.3427636], [-6.7112297, 41.3427187], [-6.7112245, 41.3426725], [-6.7111998, 41.3426301], [-6.711148, 41.3425903], [-6.7110736, 41.3425677], [-6.7109933, 41.3425704], [-6.7109219, 41.3425978], [-6.7108811, 41.3426329], [-6.7108576, 41.342676]]}, "properties": {"highway": "primary", "junction": "roundabout", "ref": "EN 219"}}, {"type": "Feature", "geometry": {"type": "LineString", "coordinates": [[-6.5274158, 41.5782116], [-6.5275709, 41.5785496], [-6.5294999, 41.5811365], [-6.529597, 41.5812667], [-6.5297785, 41.5815005], [-6.529911, 41.5816497], [-6.5300471, 41.5817671], [-6.5301863, 41.5818526], [-6.5303217, 41.5819095], [-6.5304923, 41.5819625], [-6.5306761, 41.5819924], [-6.5309042, 41.5820052], [-6.5311412, 41.581999], [-6.531461, 41.5819655], [-6.5317802, 41.5819468], [-6.5319893, 41.5819728], [-6.5321139, 41.5820065], [-6.5322619, 41.582064], [-6.5323966, 41.5821423], [-6.5324825, 41.5822065], [-6.5325287, 41.5822474]]}, "properties": {"highway": "primary", "ref": "EN 219", "surface": "asphalt"}}, {"type": "Feature", "geometry": {"type": "LineString", "coordinates": [[-6.5311744, 41.5721974], [-6.5309147, 41.572469], [-6.5307672, 41.5726233], [-6.5303988, 41.5730129], [-6.5301069, 41.57332], [-6.5298354, 41.5736133], [-6.5284712, 41.5750517], [-6.5284275, 41.5751063], [-6.5281392, 41.5754665], [-6.5279177, 41.5758549], [-6.5273503, 41.5770948]]}, "properties": {"highway": "primary", "ref": "EN 219"}}, {"type": "Feature", "geometry": {"type": "LineString", "coordinates": [[-6.711148, 41.3425903], [-6.7110999, 41.3425345], [-6.7110607, 41.3424604], [-6.7110054, 41.3423523]]}, "properties": {"highway": "primary", "oneway": "yes", "ref": "EN 219"}}, {"type": "Feature", "geometry": {"type": "LineString", "coordinates": [[-6.7028604, 41.3491255], [-6.7027433, 41.3492188], [-6.7027089, 41.3492786], [-6.702694, 41.3493311]]}, "properties": {"highway": "primary", "oneway": "yes", "ref": "EN 219"}}, {"type": "Feature", "geometry": {"type": "LineString", "coordinates": [[-6.6338063, 41.4314929], [-6.6336003, 41.431654], [-6.6334401, 41.4318006], [-6.6333244, 41.4319681]]}, "properties": {"bridge": "yes", "highway": "primary", "layer": "1", "ref": "EN 219"}}, {"type": "Feature", "geometry": {"type": "LineString", "coordinates": [[-6.710854, 41.3423862], [-6.7108956, 41.3424289], [-6.7109328, 41.3424925], [-6.7109377, 41.3425426], [-6.7109219, 41.3425978]]}, "properties": {"highway": "primary", "oneway": "yes", "ref": "EN 219"}}, {"type": "Feature", "geometry": {"type": "LineString", "coordinates": [[-6.5910662, 41.4534972], [-6.5908814, 41.4547323], [-6.5906595, 41.4560151]]}, "properties": {"bridge": "yes", "highway": "primary", "layer": "1", "ref": "EN 219"}}, {"type": "Feature", "geometry": {"type": "LineString", "coordinates": [[-6.5318798, 41.5717856], [-6.5319343, 41.5717199], [-6.531951, 41.5716436], [-6.5319274, 41.5715683], [-6.5318671, 41.5715055], [-6.5317792, 41.5714647], [-6.5316772, 41.5714522], [-6.5315766, 41.5714699], [-6.5314926, 41.571515], [-6.5314382, 41.5715807], [-6.5314214, 41.571657], [-6.531445, 41.5717323], [-6.5315053, 41.5717951], [-6.5315932, 41.5718359], [-6.5316952, 41.5718484], [-6.5317958, 41.5718308], [-6.5318798, 41.5717856]]}, "properties": {"highway": "primary", "junction": "roundabout", "ref": "EN 219"}}, {"type": "Feature", "geometry": {"type": "LineString", "coordinates": [[-6.702694, 41.3493311], [-6.7027899, 41.3493093], [-6.7028468, 41.3492923], [-6.7029197, 41.349267]]}, "properties": {"highway": "primary", "oneway": "yes", "ref": "EN 219"}}, {"type": "Feature", "geometry": {"type": "LineString", "coordinates": [[-6.6088357, 41.4407523], [-6.6086076, 41.4410002], [-6.6084337, 41.4412604], [-6.6068801, 41.4435849], [-6.6066003, 41.4439152], [-6.6065545, 41.4439501], [-6.6042986, 41.4456678], [-6.6026138, 41.4469506], [-6.6022292, 41.4471603], [-6.6016557, 41.4473805], [-6.6009703, 41.4475378], [-6.6003758, 41.4475535], [-6.6000262, 41.4475011], [-6.5996065, 41.4474382], [-6.5984944, 41.447045], [-6.5981697, 41.4469539], [-6.59787, 41.4469126], [-6.5976114, 41.4469165], [-6.5973613, 41.4469581], [-6.5971251, 41.4470306], [-6.5969004, 41.4471398], [-6.5963782, 41.4474913], [-6.5960718, 41.4476531], [-6.5957025, 41.4477579], [-6.5953333, 41.4477721], [-6.5949528, 41.4477328], [-6.5946226, 41.4476363], [-6.5943261, 41.4474602], [-6.5940911, 41.447196], [-6.5939736, 41.4468814], [-6.5939598, 41.4466786], [-6.5939792, 41.4464788], [-6.5940879, 41.4459863], [-6.5941113, 41.4457595], [-6.5940888, 41.4455536], [-6.5940364, 41.4453931], [-6.5940205, 41.4453445], [-6.5938998, 41.4451674], [-6.5937558, 41.445041], [-6.5935583, 41.4449166], [-6.5933499, 41.4448211], [-6.5932108, 41.4447829], [-6.5929959, 41.4447455], [-6.5927226, 41.4447262], [-6.5924399, 41.4447398], [-6.5921739, 41.4447963], [-6.5920943, 41.444824]]}, "properties": {"highway": "primary", "oneway": "no", "ref": "EN 219"}}, {"type": "Feature", "geometry": {"type": "LineString", "coordinates": [[-6.5329175, 41.582536], [-6.5328589, 41.5825116], [-6.5325287, 41.5822474]]}, "properties": {"highway": "primary", "oneway": "yes", "ref": "EN 219", "surface": "asphalt"}}, {"type": "Feature", "geometry": {"type": "LineString", "coordinates": [[-6.5325287, 41.5822474], [-6.5327724, 41.5825449], [-6.5327782, 41.5825969]]}, "properties": {"highway": "primary", "oneway": "yes", "ref": "EN 219", "surface": "asphalt"}}, {"type": "Feature", "geometry": {"type": "LineString", "coordinates": [[-6.7005129, 41.3573652], [-6.7005986, 41.3573347], [-6.7006495, 41.3573003], [-6.7006879, 41.3572578], [-6.7007116, 41.3572096], [-6.7007192, 41.3571585], [-6.7007057, 41.3570958], [-6.7006681, 41.3570388], [-6.7006097, 41.3569928], [-6.7005261, 41.3569592], [-6.7004325, 41.3569482], [-6.7003393, 41.356961], [-6.7002687, 41.3569894], [-6.700213, 41.3570299], [-6.7001741, 41.3570802], [-6.7001549, 41.3571366], [-6.7001574, 41.3571978], [-6.7001831, 41.357256], [-6.7002298, 41.3573062], [-6.7002937, 41.3573443], [-6.7003634, 41.357366], [-6.7004382, 41.3573732], [-6.7005129, 41.3573652]]}, "properties": {"highway": "primary", "junction": "roundabout", "ref": "EN 219"}}, {"type": "Feature", "geometry": {"type": "LineString", "coordinates": [[-6.6939529, 41.3783567], [-6.694055, 41.3787344]]}, "properties": {"bridge": "yes", "highway": "primary", "layer": "1", "oneway": "no", "ref": "EN 219"}}, {"type": "Feature", "geometry": {"type": "LineString", "coordinates": [[-6.694055, 41.3787344], [-6.6940889, 41.3789777], [-6.6941215, 41.3792635], [-6.6941105, 41.3794423], [-6.6940848, 41.3795856], [-6.693968, 41.3802357], [-6.6936959, 41.3813332], [-6.6934169, 41.3821296], [-6.6931312, 41.3827322], [-6.6926649, 41.3834807], [-6.6926512, 41.3835028], [-6.6922718, 41.3840129], [-6.6917757, 41.3845945], [-6.6912489, 41.3851193], [-6.6887769, 41.3871939], [-6.6885784, 41.3873605], [-6.6872327, 41.3884825], [-6.6864571, 41.3891216], [-6.6863221, 41.3892328], [-6.6843149, 41.3910401], [-6.6841099, 41.3912405], [-6.6805117, 41.3946401], [-6.6800947, 41.3952108], [-6.6796432, 41.3958286], [-6.6793505, 41.3964039], [-6.6791043, 41.3968879], [-6.6785283, 41.3974698], [-6.6781242, 41.3977138], [-6.6774599, 41.3979472], [-6.6759688, 41.3981528], [-6.6754346, 41.3982713], [-6.6745891, 41.3986546], [-6.6742872, 41.3988811], [-6.6740458, 41.3991753], [-6.6721689, 41.4014631], [-6.6717601, 41.4017593], [-6.6715695, 41.4018468], [-6.6713957, 41.4019191], [-6.6706105, 41.4021285], [-6.6701326, 41.4022229], [-6.6696511, 41.4023412], [-6.6689007, 41.4026226], [-6.6688521, 41.4026408], [-6.6685223, 41.4028394], [-6.6682854, 41.403059], [-6.6680561, 41.4033903], [-6.667969, 41.4035162], [-6.6677922, 41.4037778], [-6.6677641, 41.4038127], [-6.6676569, 41.4039549], [-6.6676071, 41.4040331], [-6.6672263, 41.4045851], [-6.6665295, 41.4052994], [-6.6656887, 41.4059509], [-6.6624083, 41.4078965], [-6.6621948, 41.4080231], [-6.6566663, 41.4113018], [-6.6566004, 41.4113409], [-6.6554163, 41.4120431], [-6.6549951, 41.4122929], [-6.6542137, 41.4127563], [-6.6530348, 41.4134554], [-6.6525099, 41.4138282], [-6.6519989, 41.414288], [-6.6516852, 41.4146657], [-6.6516227, 41.4147409], [-6.6510652, 41.4156989], [-6.6508858, 41.4161949], [-6.6508144, 41.4163922], [-6.6507113, 41.4170529], [-6.6503452, 41.4193985], [-6.6502417, 41.419894], [-6.650099, 41.4201753], [-6.6499415, 41.4204041], [-6.6496995, 41.4206804], [-6.6490492, 41.421182], [-6.6476293, 41.4220135], [-6.6473946, 41.4221509], [-6.6472892, 41.4222093], [-6.6450414, 41.4235343], [-6.6445639, 41.4238761], [-6.6443208, 41.4241431], [-6.6442422, 41.4242781], [-6.6441308, 41.4244867], [-6.6440947, 41.4245608], [-6.6437651, 41.4253703], [-6.6435705, 41.4257437], [-6.6433657, 41.4260083], [-6.64314, 41.4262262], [-6.6428317, 41.4264444], [-6.6414338, 41.427102], [-6.6408347, 41.427447], [-6.6404223, 41.427766], [-6.6397411, 41.4285737], [-6.6381301, 41.4304839], [-6.6377264, 41.4309038], [-6.6374442, 41.4310925], [-6.6369667, 41.4312748], [-6.6364371, 41.4313822], [-6.6359919, 41.4313669], [-6.6355892, 41.4313197], [-6.6351137, 41.4312702], [-6.6346789, 41.4312618], [-6.6342881, 41.4313106], [-6.6338063, 41.4314929]]}, "properties": {"highway": "primary", "oneway": "no", "ref": "EN 219"}}, {"type": "Feature", "geometry": {"type": "LineString", "coordinates": [[-6.7003554, 41.3579233], [-6.7003241, 41.3582108], [-6.7002198, 41.3589245], [-6.7000084, 41.3595109], [-6.6997201, 41.3601073], [-6.6994011, 41.3605353], [-6.6989319, 41.3610799], [-6.6983778, 41.3616332], [-6.6974523, 41.362551], [-6.6961662, 41.3638627], [-6.6953393, 41.3649745], [-6.6952407, 41.3651025], [-6.6930644, 41.3683036], [-6.6925641, 41.369146], [-6.6925001, 41.3693367], [-6.6923807, 41.3696929], [-6.6923236, 41.3700035], [-6.692264, 41.3705321], [-6.6922201, 41.3711286], [-6.692145, 41.3721466], [-6.6921446, 41.3721527], [-6.6920414, 41.3731535], [-6.6920329, 41.3733386], [-6.6919972, 41.3741128], [-6.692016, 41.3745093], [-6.6920435, 41.3747886], [-6.6920485, 41.3748095], [-6.6921335, 41.3751661], [-6.6922404, 41.3754895], [-6.6924761, 41.3759623], [-6.6926281, 41.3762215], [-6.6929781, 41.3767081], [-6.6935418, 41.37746], [-6.6936828, 41.377686], [-6.6938366, 41.3780133], [-6.6939529, 41.3783567]]}, "properties": {"highway": "primary", "oneway": "no", "ref": "EN 219"}}, {"type": "Feature", "geometry": {"type": "LineString", "coordinates": [[-6.6333244, 41.4319681], [-6.6332202, 41.4321666], [-6.6332181, 41.4321769], [-6.633116, 41.4326711], [-6.6331681, 41.4335271], [-6.6333947, 41.4347295], [-6.6334242, 41.4351545], [-6.6333311, 41.4355076], [-6.6332159, 41.4357208], [-6.6329966, 41.4360023], [-6.632825, 41.4361603], [-6.6325603, 41.4364043], [-6.6322347, 41.4365898], [-6.6317875, 41.43673], [-6.6312927, 41.4368183], [-6.6307848, 41.4368274], [-6.6303984, 41.4367688], [-6.6293712, 41.4364775], [-6.6287952, 41.436325], [-6.6282538, 41.4362155], [-6.6277726, 41.4361595], [-6.6274029, 41.4361667], [-6.6270339, 41.4362448], [-6.6266041, 41.4364303], [-6.6256767, 41.4369865], [-6.6254556, 41.4371124], [-6.6228047, 41.4387089], [-6.6227621, 41.4387345], [-6.6221911, 41.4390312], [-6.6217279, 41.4392112], [-6.6217076, 41.4392191], [-6.6212779, 41.4392929], [-6.6205573, 41.439303], [-6.6197586, 41.4392082], [-6.6196976, 41.439201], [-6.6152448, 41.4386724], [-6.6145943, 41.4386409], [-6.6139579, 41.4387143], [-6.6134348, 41.4388347], [-6.6130697, 41.4389188], [-6.6116067, 41.4393622], [-6.6101462, 41.4398049], [-6.6096706, 41.4400303], [-6.6091671, 41.4403921], [-6.6091408, 41.4404207], [-6.6089004, 41.440682]]}, "properties": {"highway": "primary", "oneway": "no", "ref": "EN 219"}}, {"type": "Feature", "geometry": {"type": "LineString", "coordinates": [[-6.6089004, 41.440682], [-6.6088357, 41.4407523]]}, "properties": {"bridge": "yes", "highway": "primary", "layer": "1", "oneway": "no", "ref": "EN 219"}}, {"type": "Feature", "geometry": {"type": "LineString", "coordinates": [[-6.5919954, 41.4448583], [-6.5919227, 41.4448836], [-6.5916941, 41.4450136], [-6.5914446, 41.4452248], [-6.5904263, 41.4465165], [-6.5901186, 41.447024], [-6.5899886, 41.4474168], [-6.5898325, 41.4478886], [-6.5897066, 41.4482692], [-6.5896705, 41.4483784], [-6.5895982, 41.4485967], [-6.5895703, 41.4488441], [-6.5896094, 41.4492342], [-6.5896558, 41.4493502], [-6.5897437, 41.4495697], [-6.5899284, 41.4497835], [-6.5901466, 41.4499387], [-6.5910698, 41.4503749], [-6.5913215, 41.4505426], [-6.5915397, 41.4507774], [-6.5916461, 41.4509955], [-6.5916852, 41.4515575], [-6.5913123, 41.452409], [-6.5912096, 41.4526436], [-6.5910662, 41.4534972]]}, "properties": {"highway": "primary", "oneway": "no", "ref": "EN 219"}}, {"type": "Feature", "geometry": {"type": "LineString", "coordinates": [[-6.5920943, 41.444824], [-6.5919954, 41.4448583]]}, "properties": {"highway": "primary", "oneway": "no", "ref": "EN 219"}}, {"type": "Feature", "geometry": {"type": "MultiPolygon", "coordinates": [[[[-6.5275574, 41.5776337], [-6.5275336, 41.5775524], [-6.5274701, 41.577484], [-6.5273764, 41.577439], [-6.5272668, 41.5774243], [-6.527158, 41.5774421], [-6.5270666, 41.5774896], [-6.5270065, 41.5775597], [-6.5269869, 41.5776417], [-6.5270106, 41.577723], [-6.5270742, 41.5777914], [-6.5271679, 41.5778364], [-6.5272774, 41.5778511], [-6.5273862, 41.5778333], [-6.5274776, 41.5777858], [-6.5275377, 41.5777157], [-6.5275574, 41.5776337]]]]}, "properties": {"highway": "primary", "junction": "roundabout", "ref": "EN 219"}}, {"type": "Feature", "geometry": {"type": "MultiPolygon", "coordinates": [[[[-6.7031249, 41.3491801], [-6.7031176, 41.3491425], [-6.7030914, 41.3491066], [-6.7030489, 41.349081], [-6.7029966, 41.3490695], [-6.7029424, 41.3490739], [-6.7028946, 41.3490936], [-6.7028604, 41.3491255], [-6.7028451, 41.3491647], [-6.702851, 41.3492054], [-6.7028772, 41.3492413], [-6.7029197, 41.349267], [-6.7029685, 41.3492792], [-6.7030262, 41.349274], [-6.7030741, 41.3492544], [-6.7031082, 41.3492225], [-6.7031249, 41.3491801]]]]}, "properties": {"alt_name": "Rotunda dos cogumelos", "highway": "primary", "junction": "roundabout", "ref": "EN 219"}}, {"type": "Feature", "geometry": {"type": "MultiPolygon", "coordinates": [[[[-6.7112297, 41.3427187], [-6.7112245, 41.3426725], [-6.7111998, 41.3426301], [-6.711148, 41.3425903], [-6.7110736, 41.3425677], [-6.7109933, 41.3425704], [-6.7109219, 41.3425978], [-6.7108811, 41.3426329], [-6.7108576, 41.342676], [-6.710854, 41.3427224], [-6.7108706, 41.3427673], [-6.7109046, 41.3428048], [-6.7109527, 41.3428323], [-6.7110098, 41.342847], [-6.7110726, 41.3428471], [-6.711132, 41.3428317], [-6.7111814, 41.3428025], [-6.7112148, 41.3427636], [-6.7112297, 41.3427187]]]]}, "properties": {"highway": "primary", "junction": "roundabout", "ref": "EN 219"}}, {"type": "Feature", "geometry": {"type": "MultiPolygon", "coordinates": [[[[-6.531951, 41.5716436], [-6.5319274, 41.5715683], [-6.5318671, 41.5715055], [-6.5317792, 41.5714647], [-6.5316772, 41.5714522], [-6.5315766, 41.5714699], [-6.5314926, 41.571515], [-6.5314382, 41.5715807], [-6.5314214, 41.571657], [-6.531445, 41.5717323], [-6.5315053, 41.5717951], [-6.5315932, 41.5718359], [-6.5316952, 41.5718484], [-6.5317958, 41.5718308], [-6.5318798, 41.5717856], [-6.5319343, 41.5717199], [-6.531951, 41.5716436]]]]}, "properties": {"highway": "primary", "junction": "roundabout", "ref": "EN 219"}}, {"type": "Feature", "geometry": {"type": "MultiPolygon", "coordinates": [[[[-6.7007192, 41.3571585], [-6.7007057, 41.3570958], [-6.7006681, 41.3570388], [-6.7006097, 41.3569928], [-6.7005261, 41.3569592], [-6.7004325, 41.3569482], [-6.7003393, 41.356961], [-6.7002687, 41.3569894], [-6.700213, 41.3570299], [-6.7001741, 41.3570802], [-6.7001549, 41.3571366], [-6.7001574, 41.3571978], [-6.7001831, 41.357256], [-6.7002298, 41.3573062], [-6.7002937, 41.3573443], [-6.7003634, 41.357366], [-6.7004382, 41.3573732], [-6.7005129, 41.3573652], [-6.7005986, 41.3573347], [-6.7006495, 41.3573003], [-6.7006879, 41.3572578], [-6.7007116, 41.3572096], [-6.7007192, 41.3571585]]]]}, "properties": {"highway": "primary", "junction": "roundabout", "ref": "EN 219"}}]}