{"type": "FeatureCollection", "features": [{"type": "Feature", "geometry": {"type": "LineString", "coordinates": [[-7.4068082, 39.9257206], [-7.4066971, 39.9258212], [-7.4066185, 39.9259166], [-7.405866, 39.9267794], [-7.4056208, 39.9271257], [-7.4054244, 39.927328], [-7.405, 39.9277717], [-7.4048317, 39.9279099], [-7.4045696, 39.9281034], [-7.4044495, 39.9282194], [-7.4041521, 39.9285093], [-7.4039871, 39.9286758], [-7.4038624, 39.9287505], [-7.4038511, 39.9287599], [-7.4034371, 39.9291034], [-7.4032856, 39.9292291], [-7.4030859, 39.9293955], [-7.4030052, 39.9294953], [-7.4029143, 39.9296434], [-7.4028792, 39.9297001], [-7.402567, 39.9302023], [-7.4024258, 39.9304325], [-7.402357, 39.9305446], [-7.4022454, 39.930709], [-7.4020877, 39.930853], [-7.4014344, 39.9312575], [-7.401343, 39.9313141], [-7.4012244, 39.9313831], [-7.4009878, 39.9315385], [-7.399651, 39.9323704], [-7.3996019, 39.9323888], [-7.3994308, 39.9324528], [-7.395772, 39.9336161], [-7.3949303, 39.933892], [-7.39449, 39.9340958], [-7.3915753, 39.9360742], [-7.3913902, 39.9362346], [-7.3911516, 39.9364682], [-7.3910024, 39.9366578], [-7.3909733, 39.9366989], [-7.3907916, 39.9369666], [-7.3905591, 39.9373138], [-7.3903044, 39.9376788], [-7.3890916, 39.939412], [-7.3878661, 39.9411255], [-7.3869262, 39.9424833], [-7.3864597, 39.9431424], [-7.3853717, 39.944695], [-7.3845211, 39.9459041], [-7.3836755, 39.9470886], [-7.3834442, 39.9473466], [-7.3831733, 39.9476201], [-7.3826767, 39.9481238], [-7.3820575, 39.9487531], [-7.381471, 39.9493493], [-7.3811592, 39.9496316], [-7.3802426, 39.9502083], [-7.3795793, 39.9504693], [-7.3768178, 39.9513703], [-7.3750811, 39.9519254], [-7.3741398, 39.9522744], [-7.3734991, 39.9526642], [-7.3730036, 39.9530939], [-7.372685, 39.9534997], [-7.372415, 39.9539813], [-7.3712468, 39.9564448], [-7.3701372, 39.9587961], [-7.3688697, 39.9614759], [-7.3686702, 39.962036], [-7.3686203, 39.9622112], [-7.3684865, 39.9626392], [-7.3682786, 39.9642987], [-7.3680249, 39.9659096], [-7.3677241, 39.9665645], [-7.367376, 39.9670263], [-7.3668305, 39.9675425], [-7.3640798, 39.9691116], [-7.3636843, 39.969265], [-7.3633076, 39.9693791], [-7.3626151, 39.9695206], [-7.3619497, 39.9695662], [-7.3605493, 39.9696175], [-7.3591948, 39.9696614], [-7.3559796, 39.969784], [-7.3554631, 39.9698527], [-7.3549222, 39.9699771], [-7.3541954, 39.9702624], [-7.3498739, 39.9721868], [-7.3481066, 39.9729513], [-7.3473295, 39.9733155], [-7.346517, 39.9737917], [-7.3463486, 39.9738991], [-7.3458503, 39.9742361]]}, "properties": {"highway": "primary", "lane_markings": "yes", "lanes": "2", "ref": "EN 233", "surface": "asphalt"}}, {"type": "Feature", "geometry": {"type": "LineString", "coordinates": [[-7.3440685, 39.9755298], [-7.3442128, 39.9755971], [-7.344304, 39.9756197], [-7.3443494, 39.9756204], [-7.3443948, 39.9756212], [-7.3444838, 39.9755992], [-7.3446429, 39.9755497]]}, "properties": {"highway": "primary", "oneway": "yes", "ref": "EN 233"}}, {"type": "Feature", "geometry": {"type": "LineString", "coordinates": [[-7.225841, 40.5240265], [-7.2260947, 40.5240295], [-7.2261985, 40.5240027], [-7.2263421, 40.5239121], [-7.2264334, 40.5238123], [-7.2264806, 40.5237067], [-7.226497, 40.5236129], [-7.2264673, 40.5235126]]}, "properties": {"foot": "no", "highway": "primary", "junction": "roundabout", "lanes": "3", "ref": "EN 233", "surface": "asphalt"}}, {"type": "Feature", "geometry": {"type": "LineString", "coordinates": [[-7.2351418, 40.5295299], [-7.2352175, 40.5295503], [-7.2353008, 40.5295515], [-7.2353802, 40.5295324], [-7.2354474, 40.5294949], [-7.2354879, 40.5294538], [-7.2355129, 40.5294061], [-7.2355199, 40.5293432], [-7.2355001, 40.529282], [-7.2354556, 40.5292287], [-7.2353959, 40.5291912], [-7.2353243, 40.529169], [-7.2352567, 40.5291636], [-7.2351896, 40.5291719], [-7.2351278, 40.5291933], [-7.2350755, 40.5292263], [-7.2350451, 40.529257], [-7.2350232, 40.5292916], [-7.2350082, 40.5293443], [-7.2350129, 40.5293981], [-7.2350368, 40.5294489], [-7.2350781, 40.5294928], [-7.2351418, 40.5295299]]}, "properties": {"highway": "primary", "junction": "roundabout", "ref": "EN 233"}}, {"type": "Feature", "geometry": {"type": "LineString", "coordinates": [[-7.2274386, 40.5244632], [-7.2278467, 40.5246775], [-7.2283428, 40.5249371]]}, "properties": {"highway": "primary", "lanes": "3", "oneway": "yes", "ref": "EN 233", "surface": "asphalt", "turn:lanes": "through|through|merge_to_left"}}, {"type": "Feature", "geometry": {"type": "LineString", "coordinates": [[-7.2353243, 40.529169], [-7.2352079, 40.5290788], [-7.2351219, 40.5289612], [-7.2350342, 40.5288172], [-7.2347936, 40.5285056], [-7.2345791, 40.5282552], [-7.2342039, 40.5279233], [-7.2338214, 40.5276812], [-7.2311705, 40.5263131]]}, "properties": {"highway": "primary", "lanes": "2", "name": "Variante \u00e0 Estrada Nacional 233", "oneway": "yes", "ref": "EN 233", "surface": "asphalt"}}, {"type": "Feature", "geometry": {"type": "LineString", "coordinates": [[-7.2352175, 40.5295503], [-7.2353598, 40.5297135], [-7.2358023, 40.5304826], [-7.2361528, 40.5309538], [-7.2367265, 40.5315621], [-7.2373199, 40.532117], [-7.2376783, 40.5324608], [-7.2379031, 40.5325953], [-7.2381841, 40.5327429], [-7.238535, 40.5328572], [-7.238857, 40.5329142], [-7.2392092, 40.5329174], [-7.2396946, 40.5328409], [-7.2403199, 40.5327146], [-7.2406761, 40.5326892], [-7.2409966, 40.5327234], [-7.2413169, 40.532825], [-7.2416044, 40.5330025], [-7.2418418, 40.533185], [-7.2422362, 40.5334967], [-7.2423002, 40.5335849], [-7.2423207, 40.5336956]]}, "properties": {"highway": "primary", "name": "Variante \u00e0 Estrada Nacional 233", "oneway": "yes", "ref": "EN 233", "surface": "asphalt"}}, {"type": "Feature", "geometry": {"type": "LineString", "coordinates": [[-7.2426277, 40.5335389], [-7.2424885, 40.5334967], [-7.242267, 40.5333937], [-7.2419825, 40.5331684], [-7.2416653, 40.5329216], [-7.2413752, 40.5327575], [-7.2410265, 40.5326305], [-7.2406825, 40.5325982], [-7.2403529, 40.5326158], [-7.2394846, 40.5327986], [-7.239197, 40.5328332], [-7.2388454, 40.5328242], [-7.2385181, 40.5327669], [-7.2381053, 40.532613], [-7.2377431, 40.5323767], [-7.2369723, 40.5316333], [-7.2364117, 40.5310727], [-7.2358055, 40.5302871], [-7.2355024, 40.5296965], [-7.2354493, 40.5295708], [-7.2354474, 40.5294949]]}, "properties": {"highway": "primary", "name": "Variante \u00e0 Estrada Nacional 233", "oneway": "yes", "ref": "EN 233", "surface": "asphalt"}}, {"type": "Feature", "geometry": {"type": "LineString", "coordinates": [[-7.0943225, 40.3547495], [-7.0942545, 40.3547566], [-7.0941921, 40.3547786], [-7.094153, 40.3548033], [-7.0941125, 40.3548466], [-7.0940906, 40.3548972], [-7.0940895, 40.3549504], [-7.0940986, 40.354974], [-7.0941092, 40.3550015], [-7.0941449, 40.3550432], [-7.0941945, 40.3550758], [-7.0942541, 40.3550965], [-7.0943188, 40.3551037], [-7.0943836, 40.355097], [-7.0944269, 40.3550839], [-7.0944658, 40.3550645], [-7.0945144, 40.3550236], [-7.0945441, 40.3549734], [-7.0945521, 40.3549186], [-7.0945376, 40.3548646], [-7.0945253, 40.3548479], [-7.0945021, 40.3548166], [-7.094452, 40.3547808], [-7.0943903, 40.3547578], [-7.0943225, 40.3547495]]}, "properties": {"highway": "primary", "junction": "roundabout", "lanes": "2", "name": "Rua Cidade da Guarda", "ref": "EN 233", "source": "Plano Director Municipal do Sabugal"}}, {"type": "Feature", "geometry": {"type": "LineString", "coordinates": [[-7.0941092, 40.3550015], [-7.0941562, 40.3551656], [-7.0941494, 40.3552497], [-7.0936556, 40.3566287], [-7.0936104, 40.356876], [-7.0936099, 40.3571471], [-7.0936496, 40.3573869], [-7.0937612, 40.3576553], [-7.0938102, 40.357773], [-7.0939394, 40.3580836], [-7.0940027, 40.3582357], [-7.0940327, 40.3583078], [-7.0940805, 40.3584225], [-7.0941373, 40.3585208], [-7.0941981, 40.3585999], [-7.0944287, 40.3587353]]}, "properties": {"highway": "primary", "name": "Rua Cidade da Guarda", "oneway": "yes", "ref": "EN 233", "source": "Plano Director Municipal do Sabugal;Bing", "surface": "asphalt"}}, {"type": "Feature", "geometry": {"type": "LineString", "coordinates": [[-7.1728582, 40.1644753], [-7.1727442, 40.1644814], [-7.1711798, 40.1645777], [-7.1698494, 40.1646556], [-7.1693466, 40.1646932]]}, "properties": {"highway": "primary", "oneway": "yes", "ref": "EN 233"}}, {"type": "Feature", "geometry": {"type": "LineString", "coordinates": [[-7.2415616, 40.0792989], [-7.2413552, 40.079531]]}, "properties": {"highway": "primary", "ref": "EN 233", "surface": "asphalt"}}, {"type": "Feature", "geometry": {"type": "LineString", "coordinates": [[-7.4084901, 39.9253299], [-7.4085807, 39.9253438], [-7.4086711, 39.9253301], [-7.4087479, 39.9252909], [-7.4087993, 39.9252321], [-7.4088174, 39.9251628], [-7.4087995, 39.9250934], [-7.4087483, 39.9250345], [-7.4086717, 39.9249951], [-7.4085812, 39.9249812], [-7.4084908, 39.9249949], [-7.4084139, 39.9250342], [-7.4083627, 39.9250929], [-7.4083445, 39.9251623], [-7.4083624, 39.9252316], [-7.4084135, 39.9252905], [-7.4084901, 39.9253299]]}, "properties": {"highway": "primary", "junction": "roundabout", "lanes": "2", "ref": "EN 233", "source": "bing"}}, {"type": "Feature", "geometry": {"type": "LineString", "coordinates": [[-7.4087995, 39.9250934], [-7.4088175, 39.9249568], [-7.408878, 39.9248282], [-7.4088941, 39.9247624]]}, "properties": {"highway": "primary", "lanes": "1", "ref": "EN 233", "source": "bing"}}, {"type": "Feature", "geometry": {"type": "LineString", "coordinates": [[-7.5321147, 39.8283079], [-7.532926, 39.8285493]]}, "properties": {"bridge": "yes", "highway": "primary", "lanes": "2", "layer": "1", "oneway": "yes", "ref": "EN 233", "surface": "asphalt"}}, {"type": "Feature", "geometry": {"type": "LineString", "coordinates": [[-7.532955, 39.828497], [-7.5321553, 39.8282578]]}, "properties": {"bridge": "yes", "highway": "primary", "lanes": "2", "layer": "1", "oneway": "yes", "ref": "EN 233", "surface": "asphalt"}}, {"type": "Feature", "geometry": {"type": "LineString", "coordinates": [[-7.5022372, 39.8411029], [-7.5019525, 39.8414886], [-7.5017816, 39.841679], [-7.5015726, 39.8418695], [-7.5013463, 39.8420114], [-7.5011023, 39.8421473], [-7.5008314, 39.84226], [-7.5007562, 39.8422828], [-7.5006809, 39.8423055]]}, "properties": {"highway": "primary", "oneway": "yes", "ref": "EN 233", "surface": "asphalt"}}, {"type": "Feature", "geometry": {"type": "LineString", "coordinates": [[-7.4993498, 39.8429444], [-7.4994542, 39.8428858], [-7.499582, 39.8428272]]}, "properties": {"highway": "primary", "oneway": "yes", "ref": "EN 233", "surface": "asphalt"}}, {"type": "Feature", "geometry": {"type": "LineString", "coordinates": [[-7.4989919, 39.8429285], [-7.4989159, 39.8429853], [-7.4988192, 39.8430338], [-7.4982557, 39.8432427], [-7.497969, 39.8433477], [-7.4973959, 39.8435133], [-7.4967661, 39.8436715]]}, "properties": {"highway": "primary", "oneway": "yes", "ref": "EN 233", "surface": "asphalt"}}, {"type": "Feature", "geometry": {"type": "LineString", "coordinates": [[-7.5197059, 39.8248096], [-7.519844, 39.8248038], [-7.5199928, 39.824798], [-7.5201559, 39.8248043], [-7.5228372, 39.8252658], [-7.5262283, 39.8257684], [-7.5265117, 39.8258146], [-7.5268138, 39.8258951], [-7.5269582, 39.8259392], [-7.5271605, 39.826021], [-7.5296399, 39.8272726], [-7.5307586, 39.8277853], [-7.5312574, 39.828002], [-7.5313743, 39.8280608], [-7.5314355, 39.8281095], [-7.5314791, 39.8281583]]}, "properties": {"highway": "primary", "oneway": "yes", "ref": "EN 233", "surface": "asphalt"}}, {"type": "Feature", "geometry": {"type": "LineString", "coordinates": [[-7.5315108, 39.8282514], [-7.531549, 39.8282901], [-7.5316101, 39.8283245], [-7.531682, 39.8283428], [-7.5317577, 39.8283432], [-7.5318299, 39.8283255], [-7.5318915, 39.8282916], [-7.5319303, 39.8282532], [-7.5319548, 39.8282084], [-7.5319634, 39.8281603], [-7.5319555, 39.8281121], [-7.5319316, 39.8280672], [-7.5318933, 39.8280285], [-7.5318364, 39.8279957], [-7.5317696, 39.8279771], [-7.5316986, 39.8279742], [-7.5316296, 39.8279872], [-7.5315685, 39.828015], [-7.5315206, 39.8280552], [-7.5314899, 39.8281044], [-7.5314791, 39.8281583], [-7.531487, 39.8282065], [-7.5315108, 39.8282514]]}, "properties": {"highway": "primary", "junction": "roundabout", "lanes": "2", "ref": "EN 233", "source": "bing", "surface": "asphalt"}}, {"type": "Feature", "geometry": {"type": "LineString", "coordinates": [[-7.5316296, 39.8279872], [-7.5315355, 39.8279904], [-7.5314378, 39.8279773], [-7.5313089, 39.8279346], [-7.5302839, 39.8274749], [-7.5300078, 39.8273465], [-7.5296787, 39.8271869], [-7.5291797, 39.8269347], [-7.5272339, 39.8259601], [-7.52705, 39.8258821], [-7.5268815, 39.8258206], [-7.5267483, 39.8257828], [-7.5265301, 39.8257294], [-7.5244207, 39.8254153], [-7.5228017, 39.8251742], [-7.5201632, 39.8247165], [-7.5200612, 39.8246872], [-7.5199308, 39.8246285], [-7.5197702, 39.8245476]]}, "properties": {"highway": "primary", "oneway": "yes", "ref": "EN 233", "surface": "asphalt"}}, {"type": "Feature", "geometry": {"type": "LineString", "coordinates": [[-7.5331604, 39.8287531], [-7.5332078, 39.8287937], [-7.5332685, 39.8288221], [-7.5333374, 39.8288356], [-7.5334084, 39.8288333], [-7.5334755, 39.8288152], [-7.5335328, 39.8287829], [-7.5335716, 39.8287445], [-7.5335961, 39.8286997], [-7.5336047, 39.8286516], [-7.5335967, 39.8286034], [-7.5335728, 39.8285585], [-7.5335346, 39.8285198], [-7.5334735, 39.8284854], [-7.5334016, 39.8284671], [-7.5333258, 39.8284668], [-7.5332536, 39.8284845], [-7.5331921, 39.8285185], [-7.5331534, 39.8285568], [-7.5331289, 39.8286015], [-7.5331203, 39.8286496], [-7.5331304, 39.8287036], [-7.5331604, 39.8287531]]}, "properties": {"highway": "primary", "junction": "roundabout", "lanes": "2", "ref": "EN 233", "source": "bing", "surface": "asphalt"}}, {"type": "Feature", "geometry": {"type": "LineString", "coordinates": [[-7.5004136, 39.842367], [-7.5003358, 39.842442], [-7.5001676, 39.8425193]]}, "properties": {"highway": "primary", "oneway": "yes", "ref": "EN 233", "surface": "asphalt"}}, {"type": "Feature", "geometry": {"type": "LineString", "coordinates": [[-7.5001676, 39.8425193], [-7.4995713, 39.8427498]]}, "properties": {"bridge": "yes", "highway": "primary", "layer": "1", "oneway": "yes", "ref": "EN 233", "surface": "asphalt"}}, {"type": "Feature", "geometry": {"type": "LineString", "coordinates": [[-7.5007593, 39.8424195], [-7.500826, 39.8423678], [-7.5010326, 39.8422671], [-7.5012984, 39.842143], [-7.501478, 39.8420395], [-7.5017061, 39.8418782], [-7.5018804, 39.8417154], [-7.502024, 39.8415568], [-7.5021426, 39.8414272], [-7.502236, 39.8413583], [-7.5023313, 39.8413333], [-7.5024131, 39.8413144]]}, "properties": {"highway": "primary", "oneway": "yes", "ref": "EN 233", "surface": "asphalt"}}, {"type": "Feature", "geometry": {"type": "LineString", "coordinates": [[-7.4995713, 39.8427498], [-7.4993824, 39.8428012], [-7.4992578, 39.842822]]}, "properties": {"highway": "primary", "oneway": "yes", "ref": "EN 233", "surface": "asphalt"}}, {"type": "Feature", "geometry": {"type": "LineString", "coordinates": [[-7.4967661, 39.8436715], [-7.496005, 39.843798], [-7.4950247, 39.8439567], [-7.4942025, 39.8440868], [-7.4937581, 39.8441337], [-7.4933584, 39.8441625], [-7.4929587, 39.844177], [-7.4923999, 39.8441676], [-7.4913665, 39.8441284], [-7.4881671, 39.8440191], [-7.4876064, 39.8439763], [-7.4870863, 39.8439172], [-7.4865732, 39.8438402], [-7.4859033, 39.8436635], [-7.4844029, 39.8432403], [-7.4798621, 39.8419304], [-7.479559, 39.8418437]]}, "properties": {"highway": "primary", "ref": "EN 233"}}, {"type": "Feature", "geometry": {"type": "LineString", "coordinates": [[-7.4967661, 39.8436715], [-7.4969995, 39.8436462], [-7.4973026, 39.8435911], [-7.4975757, 39.8435326], [-7.4979133, 39.8434388], [-7.4983013, 39.8433075], [-7.4987187, 39.8431542], [-7.4989228, 39.8430869], [-7.4990026, 39.8430712], [-7.4991083, 39.8430737]]}, "properties": {"highway": "primary", "oneway": "yes", "ref": "EN 233", "surface": "asphalt"}}, {"type": "Feature", "geometry": {"type": "LineString", "coordinates": [[-7.5001804, 39.8426058], [-7.5003958, 39.842555], [-7.5005177, 39.8425488]]}, "properties": {"highway": "primary", "oneway": "yes", "ref": "EN 233", "surface": "asphalt"}}, {"type": "Feature", "geometry": {"type": "LineString", "coordinates": [[-7.499582, 39.8428272], [-7.5001804, 39.8426058]]}, "properties": {"bridge": "yes", "highway": "primary", "layer": "1", "oneway": "yes", "ref": "EN 233", "surface": "asphalt"}}, {"type": "Feature", "geometry": {"type": "LineString", "coordinates": [[-7.2264673, 40.5235126], [-7.2263963, 40.5233846], [-7.2262546, 40.5232881], [-7.2260574, 40.5232234]]}, "properties": {"bridge": "yes", "foot": "no", "highway": "primary", "junction": "roundabout", "lanes": "3", "layer": "1", "ref": "EN 233", "surface": "asphalt"}}, {"type": "Feature", "geometry": {"type": "LineString", "coordinates": [[-7.2254268, 40.523749], [-7.225507, 40.5238741], [-7.2256496, 40.523972], [-7.225841, 40.5240265]]}, "properties": {"bridge": "yes", "foot": "no", "highway": "primary", "junction": "roundabout", "lanes": "3", "layer": "1", "ref": "EN 233", "surface": "asphalt"}}, {"type": "Feature", "geometry": {"type": "LineString", "coordinates": [[-7.2254858, 40.5232386], [-7.2253714, 40.5232256], [-7.2252536, 40.5232029], [-7.2250824, 40.5231406], [-7.2249572, 40.5230828], [-7.2247743, 40.5230097]]}, "properties": {"foot": "no", "highway": "primary", "name": "Variante \u00e0 EN 233", "oneway": "yes", "ref": "EN 233", "surface": "asphalt"}}, {"type": "Feature", "geometry": {"type": "LineString", "coordinates": [[-7.2260574, 40.5232234], [-7.2259219, 40.5232126], [-7.2258044, 40.5232333], [-7.2257377, 40.5232451], [-7.2255251, 40.5233607], [-7.2254212, 40.5235316], [-7.2253987, 40.5235873], [-7.2253997, 40.5236574], [-7.2254268, 40.523749]]}, "properties": {"foot": "no", "highway": "primary", "junction": "roundabout", "lanes": "3", "ref": "EN 233", "surface": "asphalt"}}, {"type": "Feature", "geometry": {"type": "LineString", "coordinates": [[-7.2205039, 40.5202556], [-7.2204975, 40.5201994], [-7.2204699, 40.5201471], [-7.2204185, 40.5200998], [-7.22035, 40.5200673], [-7.2202715, 40.520053], [-7.2201972, 40.5200572], [-7.2201279, 40.5200777], [-7.2200694, 40.5201128], [-7.2200531, 40.5201307], [-7.2200271, 40.5201593], [-7.2200039, 40.5202162], [-7.2200048, 40.5202758], [-7.2200299, 40.5203322], [-7.2200765, 40.5203801], [-7.2201403, 40.5204147], [-7.2201904, 40.5204289], [-7.2202434, 40.5204348], [-7.2203211, 40.5204277], [-7.2203922, 40.5204028], [-7.2204498, 40.5203626], [-7.2204883, 40.5203108], [-7.2205039, 40.5202556]]}, "properties": {"highway": "primary", "junction": "roundabout", "name": "Variante \u00e0 EN 233", "ref": "EN 233"}}, {"type": "Feature", "geometry": {"type": "LineString", "coordinates": [[-7.2202715, 40.520053], [-7.2201102, 40.519949], [-7.2200258, 40.5198674], [-7.2195883, 40.5191979], [-7.2192752, 40.5187708]]}, "properties": {"highway": "primary", "name": "Variante \u00e0 EN 233", "oneway": "yes", "ref": "EN 233"}}, {"type": "Feature", "geometry": {"type": "LineString", "coordinates": [[-7.2172301, 40.5155251], [-7.2182223, 40.5171139]]}, "properties": {"bridge": "yes", "highway": "primary", "layer": "1", "name": "Variante \u00e0 EN 233", "ref": "EN 233"}}, {"type": "Feature", "geometry": {"type": "LineString", "coordinates": [[-7.2192075, 40.5186627], [-7.2192752, 40.5187708]]}, "properties": {"bridge": "yes", "highway": "primary", "layer": "1", "name": "Variante \u00e0 EN 233", "ref": "EN 233"}}, {"type": "Feature", "geometry": {"type": "LineString", "coordinates": [[-7.2182223, 40.5171139], [-7.2192075, 40.5186627]]}, "properties": {"highway": "primary", "name": "Variante \u00e0 EN 233", "ref": "EN 233"}}, {"type": "Feature", "geometry": {"type": "LineString", "coordinates": [[-7.2177536, 40.4811063], [-7.218238, 40.4816693], [-7.2184413, 40.4820187], [-7.2185516, 40.4823084], [-7.2186217, 40.4826168], [-7.2186213, 40.4829616], [-7.2185556, 40.4833499], [-7.2185218, 40.4835492], [-7.218501, 40.483655]]}, "properties": {"highway": "primary", "name": "Variante \u00e0 Estrada Nacional 233", "oneway": "yes", "ref": "EN 233", "source": "Plano Director Municipal da Guarda"}}, {"type": "Feature", "geometry": {"type": "LineString", "coordinates": [[-7.2181253, 40.4857951], [-7.2182501, 40.4854264], [-7.2184031, 40.4847719], [-7.2185982, 40.4837803], [-7.2186372, 40.4835823]]}, "properties": {"highway": "primary", "name": "Variante \u00e0 Estrada Nacional 233", "oneway": "yes", "ref": "EN 233", "source": "Plano Director Municipal da Guarda"}}, {"type": "Feature", "geometry": {"type": "LineString", "coordinates": [[-7.2247743, 40.5230097], [-7.2253133, 40.5233948], [-7.2253501, 40.5234271], [-7.2254212, 40.5235316]]}, "properties": {"foot": "no", "highway": "primary", "lanes": "1", "name": "Variante \u00e0 EN 233", "oneway": "yes", "ref": "EN 233", "surface": "asphalt"}}, {"type": "Feature", "geometry": {"type": "LineString", "coordinates": [[-7.2181253, 40.4857951], [-7.2173563, 40.4896973], [-7.2171632, 40.4904843], [-7.2169122, 40.4912383], [-7.2159641, 40.4934562], [-7.2156299, 40.4942008], [-7.2154753, 40.4947385], [-7.2154364, 40.4952101], [-7.2154719, 40.4955692], [-7.2155652, 40.4959393], [-7.2158502, 40.4964419], [-7.2161527, 40.4967959], [-7.2165536, 40.497116], [-7.2170414, 40.497414], [-7.2185729, 40.4981476], [-7.2190102, 40.4984338], [-7.219404, 40.4987751], [-7.2196242, 40.4990515], [-7.2198299, 40.499383], [-7.2199813, 40.4998443], [-7.220013, 40.5002351]]}, "properties": {"highway": "primary", "name": "Variante \u00e0 EN 233", "oneway": "no", "ref": "EN 233", "source": "Plano Director Municipal da Guarda"}}, {"type": "Feature", "geometry": {"type": "LineString", "coordinates": [[-7.231182, 40.5264326], [-7.2327113, 40.5272333], [-7.2333315, 40.5275585], [-7.2338697, 40.5278599], [-7.2341444, 40.5280483], [-7.2344066, 40.5282667], [-7.2345956, 40.5284429], [-7.2348639, 40.528764], [-7.2350299, 40.5290192], [-7.2350775, 40.5291537], [-7.2350755, 40.5292263]]}, "properties": {"highway": "primary", "lanes": "2", "name": "Variante \u00e0 Estrada Nacional 233", "oneway": "yes", "ref": "EN 233", "surface": "asphalt"}}, {"type": "Feature", "geometry": {"type": "LineString", "coordinates": [[-7.2309943, 40.5263343], [-7.231182, 40.5264326]]}, "properties": {"bridge": "viaduct", "highway": "primary", "lanes": "2", "layer": "1", "oneway": "yes", "ref": "EN 233"}}, {"type": "Feature", "geometry": {"type": "LineString", "coordinates": [[-7.2311705, 40.5263131], [-7.2309811, 40.52621]]}, "properties": {"bridge": "viaduct", "highway": "primary", "lanes": "2", "layer": "1", "oneway": "yes", "ref": "EN 233"}}, {"type": "Feature", "geometry": {"type": "LineString", "coordinates": [[-7.2309811, 40.52621], [-7.2269828, 40.5241092], [-7.2266863, 40.5239487], [-7.2266027, 40.5238786], [-7.2265461, 40.523797], [-7.2264806, 40.5237067]]}, "properties": {"foot": "no", "highway": "primary", "lane_markings": "yes", "lanes": "2", "oneway": "yes", "ref": "EN 233", "surface": "asphalt"}}, {"type": "Feature", "geometry": {"type": "LineString", "coordinates": [[-7.1033178, 40.3642916], [-7.1034489, 40.3643592], [-7.1035896, 40.3644036], [-7.1037955, 40.3644687], [-7.1041271, 40.3645484], [-7.1077503, 40.3654192], [-7.1082355, 40.3656485], [-7.1106858, 40.3668212], [-7.1109121, 40.3669295], [-7.1117677, 40.367339], [-7.1150744, 40.3689358], [-7.1162352, 40.369533], [-7.1171018, 40.3704602], [-7.1174328, 40.3708619], [-7.1176541, 40.3710034], [-7.1179214, 40.3710938], [-7.1184878, 40.3712082], [-7.119638, 40.3713906], [-7.1199379, 40.3715357], [-7.1206009, 40.3720974], [-7.1209438, 40.3723891]]}, "properties": {"highway": "primary", "ref": "EN 233", "source": "Plano Director Municipal da Guarda"}}, {"type": "Feature", "geometry": {"type": "LineString", "coordinates": [[-7.0965026, 40.3514153], [-7.0963869, 40.3516003], [-7.0958177, 40.3524497], [-7.0957808, 40.3525048], [-7.0956594, 40.3526859]]}, "properties": {"highway": "primary", "name": "Rua Cidade da Guarda", "name:pt": "EN233", "ref": "EN 233", "source": "Plano Director Municipal do Sabugal", "surface": "asphalt"}}, {"type": "Feature", "geometry": {"type": "LineString", "coordinates": [[-7.2152102, 40.5111282], [-7.2151315, 40.5115733], [-7.2151809, 40.5120301], [-7.2153514, 40.5125254], [-7.2155605, 40.5129464], [-7.2157469, 40.5132683]]}, "properties": {"highway": "primary", "name": "Variante \u00e0 EN 233", "oneway": "yes", "ref": "EN 233", "source": "Plano Director Municipal da Guarda"}}, {"type": "Feature", "geometry": {"type": "LineString", "coordinates": [[-7.2172301, 40.5155251], [-7.2167801, 40.5147047], [-7.2163331, 40.5140013], [-7.2159986, 40.5134527], [-7.2157942, 40.5131174], [-7.2156257, 40.5128411], [-7.2154176, 40.5123969], [-7.2152894, 40.5119613], [-7.2152409, 40.5115799], [-7.2152102, 40.5111282]]}, "properties": {"highway": "primary", "name": "Variante \u00e0 EN 233", "oneway": "yes", "ref": "EN 233", "source": "Plano Director Municipal da Guarda"}}, {"type": "Feature", "geometry": {"type": "LineString", "coordinates": [[-7.2192752, 40.5187708], [-7.2195182, 40.5192345], [-7.2199238, 40.5198869], [-7.2200027, 40.5200067], [-7.2200335, 40.5200824], [-7.2200531, 40.5201307]]}, "properties": {"highway": "primary", "name": "Variante \u00e0 EN 233", "oneway": "yes", "ref": "EN 233"}}, {"type": "Feature", "geometry": {"type": "LineString", "coordinates": [[-7.2186732, 40.5023166], [-7.2187613, 40.5022504], [-7.2190267, 40.5020511], [-7.2193809, 40.5017302], [-7.2196205, 40.501466], [-7.2198122, 40.5011623], [-7.2199334, 40.5008789], [-7.2200053, 40.5006045], [-7.2200252, 40.5003727], [-7.220013, 40.5002351]]}, "properties": {"highway": "primary", "name": "Variante \u00e0 EN 233", "oneway": "yes", "ref": "EN 233", "source": "Plano Director Municipal da Guarda"}}, {"type": "Feature", "geometry": {"type": "LineString", "coordinates": [[-7.2170859, 40.5042148], [-7.217123, 40.5041334], [-7.2171589, 40.5039876], [-7.2172801, 40.503685], [-7.2174039, 40.5034714], [-7.2175663, 40.5032396], [-7.2177434, 40.5030553], [-7.2179604, 40.5028518], [-7.2183668, 40.5025467], [-7.2186133, 40.5023616]]}, "properties": {"highway": "primary", "name": "Variante \u00e0 EN 233", "oneway": "yes", "ref": "EN 233", "source": "Plano Director Municipal da Guarda"}}, {"type": "Feature", "geometry": {"type": "LineString", "coordinates": [[-7.2170859, 40.5042148], [-7.2170776, 40.5044792], [-7.2171029, 40.504718], [-7.2171691, 40.5049629], [-7.2172857, 40.5052675], [-7.2177248, 40.5062676], [-7.2178259, 40.5065895], [-7.2178702, 40.5069374], [-7.217843, 40.5072376], [-7.2177703, 40.5075464], [-7.2176342, 40.5078444], [-7.2174641, 40.5081165], [-7.2172131, 40.5083998], [-7.216928, 40.5086831], [-7.2159315, 40.5096319], [-7.2157065, 40.5099345], [-7.2154929, 40.510263], [-7.2153065, 40.5106849], [-7.2152102, 40.5111282]]}, "properties": {"highway": "primary", "name": "Variante \u00e0 EN 233", "oneway": "no", "ref": "EN 233", "source": "Plano Director Municipal da Guarda"}}, {"type": "Feature", "geometry": {"type": "LineString", "coordinates": [[-7.2186133, 40.5023616], [-7.2186732, 40.5023166]]}, "properties": {"highway": "primary", "name": "Variante \u00e0 EN 233", "oneway": "yes", "ref": "EN 233", "source": "Plano Director Municipal da Guarda"}}, {"type": "Feature", "geometry": {"type": "LineString", "coordinates": [[-7.2185806, 40.5022644], [-7.2185202, 40.5023092]]}, "properties": {"highway": "primary", "name": "Variante \u00e0 EN 233", "oneway": "yes", "ref": "EN 233", "source": "Plano Director Municipal da Guarda"}}, {"type": "Feature", "geometry": {"type": "LineString", "coordinates": [[-7.220013, 40.5002351], [-7.2199293, 40.5005798], [-7.2198565, 40.5007976], [-7.2197185, 40.5010985], [-7.2195443, 40.5013806], [-7.2193391, 40.5016178], [-7.2187953, 40.5021032], [-7.2185806, 40.5022644]]}, "properties": {"highway": "primary", "name": "Variante \u00e0 EN 233", "oneway": "yes", "ref": "EN 233", "source": "Plano Director Municipal da Guarda"}}, {"type": "Feature", "geometry": {"type": "LineString", "coordinates": [[-7.2185202, 40.5023092], [-7.2184301, 40.5023759], [-7.2179385, 40.5027404], [-7.217654, 40.5029867], [-7.2174667, 40.5031943], [-7.2172915, 40.5034511], [-7.2171557, 40.5037487], [-7.2170805, 40.5040626], [-7.2170859, 40.5042148]]}, "properties": {"highway": "primary", "name": "Variante \u00e0 EN 233", "oneway": "yes", "ref": "EN 233", "source": "Plano Director Municipal da Guarda"}}, {"type": "Feature", "geometry": {"type": "LineString", "coordinates": [[-7.2157469, 40.5132683], [-7.2157805, 40.513322]]}, "properties": {"highway": "primary", "name": "Variante \u00e0 EN 233", "oneway": "yes", "ref": "EN 233", "source": "Plano Director Municipal da Guarda"}}, {"type": "Feature", "geometry": {"type": "LineString", "coordinates": [[-7.2157805, 40.513322], [-7.2165142, 40.5144945], [-7.2166689, 40.5147437], [-7.2172301, 40.5155251]]}, "properties": {"highway": "primary", "name": "Variante \u00e0 EN 233", "oneway": "yes", "ref": "EN 233", "source": "Plano Director Municipal da Guarda"}}, {"type": "Feature", "geometry": {"type": "LineString", "coordinates": [[-7.3458503, 39.9742361], [-7.3450248, 39.974905]]}, "properties": {"bridge": "yes", "highway": "primary", "layer": "1", "ref": "EN 233"}}, {"type": "Feature", "geometry": {"type": "LineString", "coordinates": [[-7.3450248, 39.974905], [-7.344786, 39.9750954], [-7.3447271, 39.9751972], [-7.3446871, 39.9752661], [-7.3446794, 39.9753152], [-7.3446429, 39.9755497], [-7.3446737, 39.975699], [-7.3447397, 39.9758051], [-7.3448312, 39.9759583]]}, "properties": {"highway": "primary", "ref": "EN 233"}}, {"type": "Feature", "geometry": {"type": "LineString", "coordinates": [[-7.4758921, 39.8424949], [-7.4757652, 39.8425937]]}, "properties": {"bridge": "yes", "highway": "primary", "lanes": "2", "layer": "1", "maxweight:signed": "no", "ref": "EN 233", "surface": "asphalt"}}, {"type": "Feature", "geometry": {"type": "LineString", "coordinates": [[-7.4757652, 39.8425937], [-7.4754686, 39.8428438], [-7.4727844, 39.8448716], [-7.4723175, 39.8451778], [-7.471449, 39.8456277], [-7.4692813, 39.8466868], [-7.4686279, 39.847229], [-7.4676623, 39.8483746], [-7.4664357, 39.8498492], [-7.4660544, 39.8502645], [-7.4657795, 39.8504773], [-7.464766, 39.8512618], [-7.4628711, 39.8527074], [-7.4626129, 39.8529615], [-7.4625724, 39.8530013], [-7.462581, 39.8530051], [-7.4612021, 39.8545443], [-7.4572124, 39.8590602], [-7.4553159, 39.861172], [-7.4544969, 39.8620882]]}, "properties": {"highway": "primary", "lanes": "2", "ref": "EN 233", "surface": "asphalt"}}, {"type": "Feature", "geometry": {"type": "LineString", "coordinates": [[-7.154813, 40.446414], [-7.1551491, 40.4467368]]}, "properties": {"highway": "primary", "oneway": "no", "ref": "EN 233", "source": "Plano Director Municipal da Guarda"}}, {"type": "Feature", "geometry": {"type": "LineString", "coordinates": [[-7.1551491, 40.4467368], [-7.1583239, 40.4497863], [-7.1596583, 40.4506178], [-7.1601239, 40.4507764], [-7.1616729, 40.4512159], [-7.1618282, 40.4512591], [-7.1621383, 40.4513453], [-7.1623877, 40.4514873], [-7.1625344, 40.4517304], [-7.1626066, 40.4527691], [-7.1629175, 40.4533195], [-7.1632869, 40.4539348], [-7.1634925, 40.454129], [-7.1636808, 40.4541871], [-7.1639437, 40.4542682], [-7.1654425, 40.4546464], [-7.1668574, 40.4549991], [-7.1673383, 40.4552542], [-7.1673543, 40.455263], [-7.1676636, 40.4554325], [-7.1677136, 40.4554599], [-7.1677259, 40.4554667], [-7.1679533, 40.455589], [-7.1680121, 40.4556226], [-7.1685989, 40.4559579], [-7.1696233, 40.4567284], [-7.1705082, 40.4574021], [-7.1721619, 40.458649], [-7.1723877, 40.458813], [-7.1727291, 40.4589466], [-7.1734557, 40.4591551], [-7.1735062, 40.4591711], [-7.1741873, 40.459381], [-7.174611, 40.4594881], [-7.1750777, 40.4595419], [-7.1761255, 40.4596091], [-7.1764236, 40.4596949], [-7.1770465, 40.4600468], [-7.182404, 40.4632256], [-7.1826811, 40.4633837], [-7.1831054, 40.4634964], [-7.1838505, 40.4635247], [-7.1869939, 40.463676], [-7.1881711, 40.4637916], [-7.1891059, 40.463926], [-7.1908707, 40.4641798], [-7.1914734, 40.4644754], [-7.1924309, 40.4651561], [-7.1929379, 40.4657678], [-7.1943573, 40.467869], [-7.1949205, 40.4687028], [-7.1955336, 40.4692346], [-7.1960368, 40.4696097], [-7.1962945, 40.469719], [-7.1969399, 40.4697925], [-7.1987426, 40.4699002], [-7.1991146, 40.4699419], [-7.1994223, 40.4700482], [-7.1997189, 40.4701943], [-7.200662, 40.470334], [-7.2011212, 40.4703967], [-7.2013661, 40.470482], [-7.2015131, 40.4705982], [-7.2018161, 40.4708161], [-7.2019857, 40.4708637], [-7.2021669, 40.4708848], [-7.2024854, 40.4708572], [-7.2031679, 40.4707542], [-7.203397, 40.4707232], [-7.2037414, 40.4707026], [-7.2039944, 40.4707681], [-7.2041916, 40.4708338], [-7.2063723, 40.4719744], [-7.206437, 40.4720083], [-7.2077382, 40.4726888], [-7.2085924, 40.4731356], [-7.2091348, 40.4734193], [-7.2094592, 40.473589], [-7.2095487, 40.4736416], [-7.2096582, 40.4736926], [-7.2102309, 40.4740429], [-7.2114014, 40.4754198], [-7.2123729, 40.4765876], [-7.2127753, 40.4768455], [-7.2140906, 40.4772596], [-7.2150817, 40.4775717], [-7.2154355, 40.4776566], [-7.2160833, 40.4776053], [-7.2163284, 40.4776558], [-7.2165546, 40.477826], [-7.2166438, 40.4779893], [-7.2170543, 40.4801535], [-7.2171255, 40.4804281], [-7.2172388, 40.4806126], [-7.2177536, 40.4811063]]}, "properties": {"highway": "primary", "oneway": "no", "ref": "EN 233", "source": "Plano Director Municipal da Guarda"}}, {"type": "Feature", "geometry": {"type": "LineString", "coordinates": [[-7.1820914, 40.2263569], [-7.1824018, 40.2263946]]}, "properties": {"bridge": "yes", "highway": "primary", "layer": "1", "lit": "no", "ref": "EN 233", "source": "Plano Director Municipal do Sabugal", "surface": "asphalt"}}, {"type": "Feature", "geometry": {"type": "LineString", "coordinates": [[-7.1824018, 40.2263946], [-7.1827843, 40.2264321], [-7.1828587, 40.2264225], [-7.1830778, 40.2263942], [-7.1837178, 40.2261635], [-7.1842955, 40.2260707], [-7.1847338, 40.226015], [-7.1848494, 40.2260133], [-7.1851122, 40.2260512], [-7.1856317, 40.2261326], [-7.1858467, 40.2261626], [-7.1861633, 40.2261832], [-7.1865263, 40.2262871], [-7.1871823, 40.2265979], [-7.1874062, 40.226704]]}, "properties": {"highway": "primary", "lit": "yes", "ref": "EN 233", "source": "Plano Director Municipal do Sabugal", "surface": "asphalt"}}, {"type": "Feature", "geometry": {"type": "LineString", "coordinates": [[-7.1613346, 40.1668704], [-7.1611762, 40.167217], [-7.1609273, 40.1681174], [-7.1608828, 40.1682783], [-7.1608493, 40.1685778], [-7.1608486, 40.1685904], [-7.1608428, 40.1686623], [-7.1608488, 40.1691145], [-7.1608974, 40.1694698], [-7.1610951, 40.1699305], [-7.1614843, 40.1704671], [-7.1621108, 40.1709295]]}, "properties": {"highway": "primary", "lit": "yes", "oneway": "yes", "ref": "EN 233", "surface": "asphalt"}}, {"type": "Feature", "geometry": {"type": "LineString", "coordinates": [[-7.4088941, 39.9247624], [-7.4087386, 39.9248723], [-7.4085812, 39.9249812]]}, "properties": {"highway": "primary", "ref": "EN 233", "source": "bing"}}, {"type": "Feature", "geometry": {"type": "LineString", "coordinates": [[-7.4084139, 39.9250342], [-7.408092, 39.9251589], [-7.4071924, 39.9255071], [-7.4069668, 39.9256216], [-7.4068082, 39.9257206]]}, "properties": {"highway": "primary", "oneway": "yes", "ref": "EN 233", "source": "bing"}}, {"type": "Feature", "geometry": {"type": "LineString", "coordinates": [[-7.4068082, 39.9257206], [-7.407005, 39.9256491], [-7.4079744, 39.92527], [-7.4081774, 39.9252425], [-7.4084135, 39.9252905]]}, "properties": {"highway": "primary", "oneway": "yes", "ref": "EN 233", "source": "bing", "surface": "asphalt"}}, {"type": "Feature", "geometry": {"type": "LineString", "coordinates": [[-7.2202434, 40.5204348], [-7.2203029, 40.5204648], [-7.2204339, 40.520541], [-7.2205573, 40.5206368], [-7.2209949, 40.5209765], [-7.2212283, 40.5211396], [-7.2213624, 40.5212151], [-7.2216226, 40.5213472]]}, "properties": {"highway": "primary", "name": "Variante \u00e0 EN 233", "oneway": "yes", "ref": "EN 233"}}, {"type": "Feature", "geometry": {"type": "LineString", "coordinates": [[-7.2216226, 40.5213472], [-7.221818, 40.5214543], [-7.2240061, 40.522606]]}, "properties": {"highway": "primary", "lanes": "2", "name": "Variante \u00e0 EN 233", "ref": "EN 233"}}, {"type": "Feature", "geometry": {"type": "LineString", "coordinates": [[-7.2216226, 40.5213472], [-7.2212869, 40.5211038], [-7.2210244, 40.5209011], [-7.2207478, 40.5206695], [-7.2205922, 40.5205186], [-7.2205278, 40.5204228], [-7.2205118, 40.5203775], [-7.2204883, 40.5203108]]}, "properties": {"highway": "primary", "name": "Variante \u00e0 EN 233", "oneway": "yes", "ref": "EN 233"}}, {"type": "Feature", "geometry": {"type": "LineString", "coordinates": [[-7.448096, 39.8701251], [-7.4478902, 39.8704428]]}, "properties": {"highway": "primary", "lanes": "2", "oneway": "no", "ref": "EN 233", "surface": "asphalt"}}, {"type": "Feature", "geometry": {"type": "LineString", "coordinates": [[-7.3451139, 39.9763523], [-7.3448312, 39.9759583]]}, "properties": {"bridge": "yes", "highway": "primary", "layer": "1", "ref": "EN 233", "source": "GPS"}}, {"type": "Feature", "geometry": {"type": "LineString", "coordinates": [[-7.1621108, 40.1709295], [-7.1615411, 40.170356], [-7.1612997, 40.1700322], [-7.1611656, 40.1697739], [-7.160994, 40.1693271], [-7.1609737, 40.1692219], [-7.1609403, 40.1690484], [-7.1609311, 40.1688624], [-7.1609296, 40.1688311], [-7.1609374, 40.1686827], [-7.1609404, 40.1686164], [-7.160977, 40.168289], [-7.1610415, 40.1680556], [-7.1612679, 40.1672366], [-7.1613346, 40.1668704]]}, "properties": {"highway": "primary", "lit": "yes", "oneway": "yes", "ref": "EN 233", "surface": "asphalt"}}, {"type": "Feature", "geometry": {"type": "LineString", "coordinates": [[-7.1621108, 40.1709295], [-7.1654367, 40.1732435]]}, "properties": {"highway": "primary", "lit": "no", "ref": "EN 233", "surface": "asphalt"}}, {"type": "Feature", "geometry": {"type": "LineString", "coordinates": [[-7.0944287, 40.3587353], [-7.0948665, 40.3590171], [-7.0973745, 40.3606315], [-7.0985427, 40.3609725], [-7.1005011, 40.3614227], [-7.1009142, 40.3615542], [-7.101327, 40.3618818], [-7.1031376, 40.364117], [-7.1032047, 40.3641999], [-7.1033178, 40.3642916]]}, "properties": {"highway": "primary", "name": "Rua Cidade da Guarda", "oneway": "no", "ref": "EN 233", "source": "Plano Director Municipal do Sabugal"}}, {"type": "Feature", "geometry": {"type": "LineString", "coordinates": [[-7.0944287, 40.3587353], [-7.0942805, 40.3585655], [-7.0942318, 40.358484], [-7.0941797, 40.3583939], [-7.0941337, 40.3582834], [-7.0941037, 40.3582113], [-7.0938622, 40.3576309], [-7.0937534, 40.3573695], [-7.0937158, 40.3571421], [-7.0937163, 40.3568817], [-7.0937595, 40.356645], [-7.0940887, 40.3557256], [-7.0942548, 40.3552619], [-7.0942981, 40.3551865], [-7.094322, 40.3551615], [-7.0943836, 40.355097]]}, "properties": {"highway": "primary", "name": "Rua Cidade da Guarda", "oneway": "yes", "ref": "EN 233", "source": "Plano Director Municipal do Sabugal;Bing", "surface": "asphalt"}}, {"type": "Feature", "geometry": {"type": "LineString", "coordinates": [[-7.0945021, 40.3548166], [-7.0944805, 40.3547246], [-7.0944859, 40.354604], [-7.0945855, 40.3543701], [-7.0947104, 40.3541532], [-7.0952366, 40.3533804], [-7.0953041, 40.3532813], [-7.0953556, 40.3531374]]}, "properties": {"highway": "primary", "name": "Rua Cidade da Guarda", "oneway": "yes", "ref": "EN 233", "source": "Plano Director Municipal do Sabugal;Bing", "surface": "asphalt"}}, {"type": "Feature", "geometry": {"type": "LineString", "coordinates": [[-7.0953556, 40.3531374], [-7.0952259, 40.3532582], [-7.0951495, 40.353346], [-7.0946218, 40.3541209], [-7.0944937, 40.3543434], [-7.0944741, 40.3543894], [-7.0943883, 40.3545909], [-7.0943154, 40.3546953], [-7.0941921, 40.3547786]]}, "properties": {"highway": "primary", "name": "Rua Cidade da Guarda", "oneway": "yes", "ref": "EN 233", "source": "Plano Director Municipal do Sabugal;Bing", "surface": "asphalt"}}, {"type": "Feature", "geometry": {"type": "LineString", "coordinates": [[-7.102293, 40.3436667], [-7.1013826, 40.3447681], [-7.1011862, 40.34496], [-7.1009968, 40.3450732], [-7.1007651, 40.3451267], [-7.1004718, 40.3451344], [-7.0978341, 40.3449524], [-7.0975823, 40.3449762], [-7.097377, 40.3450508], [-7.0971568, 40.3451831], [-7.0969579, 40.3453462], [-7.0967648, 40.3455809], [-7.096691, 40.3456994], [-7.0961456, 40.3465759], [-7.0957615, 40.347193], [-7.0957319, 40.347262], [-7.095555, 40.3479015], [-7.0955204, 40.3480264], [-7.0954847, 40.3482181], [-7.0955004, 40.3484216], [-7.0956144, 40.3486526], [-7.0958282, 40.3488639], [-7.0962541, 40.3491559], [-7.0963863, 40.3492847], [-7.0964761, 40.3494221], [-7.0965956, 40.3495994], [-7.0967083, 40.3497666], [-7.0967922, 40.3499834], [-7.0967906, 40.3502434], [-7.0967624, 40.350776], [-7.0967181, 40.3510021], [-7.0966276, 40.3512228], [-7.0965026, 40.3514153]]}, "properties": {"highway": "primary", "name": "Rua Marqu\u00eas de Pombal", "name:pt": "EN233", "oneway": "no", "ref": "EN 233", "source": "Plano Director Municipal do Sabugal", "surface": "asphalt"}}, {"type": "Feature", "geometry": {"type": "LineString", "coordinates": [[-7.5318915, 39.8282916], [-7.5320112, 39.8282934], [-7.5321147, 39.8283079]]}, "properties": {"highway": "primary", "lanes": "2", "oneway": "yes", "ref": "EN 233", "source": "bing", "surface": "asphalt"}}, {"type": "Feature", "geometry": {"type": "LineString", "coordinates": [[-7.5321553, 39.8282578], [-7.5320911, 39.8282347], [-7.5320184, 39.8281975], [-7.5319634, 39.8281603]]}, "properties": {"highway": "primary", "lanes": "2", "oneway": "yes", "ref": "EN 233", "source": "bing", "surface": "asphalt"}}, {"type": "Feature", "geometry": {"type": "LineString", "coordinates": [[-7.5331921, 39.8285185], [-7.5331226, 39.8285208], [-7.5330477, 39.8285148], [-7.532955, 39.828497]]}, "properties": {"highway": "primary", "lanes": "2", "oneway": "yes", "ref": "EN 233", "source": "bing", "surface": "asphalt"}}, {"type": "Feature", "geometry": {"type": "LineString", "coordinates": [[-7.532926, 39.8285493], [-7.5330217, 39.8285841], [-7.533079, 39.8286189], [-7.5331203, 39.8286496]]}, "properties": {"highway": "primary", "lanes": "2", "oneway": "yes", "ref": "EN 233", "source": "bing", "surface": "asphalt"}}, {"type": "Feature", "geometry": {"type": "LineString", "coordinates": [[-7.19823, 40.1440196], [-7.1989992, 40.1429069], [-7.1996499, 40.1422934], [-7.2013371, 40.1407915], [-7.2020285, 40.1401554], [-7.2024873, 40.1394284], [-7.2036974, 40.1375107], [-7.2048613, 40.1356959], [-7.2062617, 40.1343433], [-7.2062834, 40.1343216], [-7.2075992, 40.133007], [-7.2085297, 40.1320773], [-7.2102463, 40.1295574], [-7.2130787, 40.1250422], [-7.2152846, 40.1216294], [-7.216297, 40.1200721], [-7.2163166, 40.120042], [-7.2197586, 40.1147131], [-7.2208613, 40.1130507], [-7.2211662, 40.1125816], [-7.2227752, 40.1100788], [-7.2234776, 40.1089866], [-7.2237952, 40.1084927], [-7.2240151, 40.1081508], [-7.2248883, 40.1068062], [-7.2263004, 40.1046042], [-7.227292, 40.103114], [-7.2277178, 40.1026987], [-7.2282543, 40.1023356], [-7.2285445, 40.1021827], [-7.2288617, 40.1019393], [-7.2291013, 40.1016477], [-7.2292666, 40.1013867], [-7.2293869, 40.1010905], [-7.2294483, 40.1009391], [-7.2296498, 40.1004258], [-7.2298159, 40.1001157], [-7.2301829, 40.0996807], [-7.2305405, 40.0992567], [-7.2318118, 40.0977704], [-7.233357, 40.0959638], [-7.2346784, 40.0944163], [-7.2352023, 40.0938091], [-7.2352655, 40.0937174], [-7.2355008, 40.0933758], [-7.2355843, 40.0932546], [-7.2362976, 40.0920987], [-7.2364462, 40.0917969], [-7.2365208, 40.091609], [-7.236553, 40.0914199], [-7.2365578, 40.0912351], [-7.2365255, 40.0910099], [-7.236518, 40.0909855], [-7.236465, 40.0908122], [-7.2364044, 40.0906433], [-7.2361347, 40.0901427], [-7.2357757, 40.0895299], [-7.235651, 40.0893169], [-7.2353977, 40.0888571], [-7.2352615, 40.0884926], [-7.2352458, 40.0882273], [-7.2352906, 40.0879605], [-7.2353623, 40.0877786], [-7.2354874, 40.0875896], [-7.2356811, 40.0873603], [-7.2359434, 40.0870497], [-7.2362378, 40.0867163]]}, "properties": {"highway": "primary", "ref": "EN 233", "source": "GPS"}}, {"type": "Feature", "geometry": {"type": "LineString", "coordinates": [[-7.1960978, 40.1485515], [-7.1966164, 40.1474313], [-7.1969764, 40.1465981], [-7.1970823, 40.1463531], [-7.1974155, 40.145582], [-7.1978084, 40.1447976], [-7.19823, 40.1440196]]}, "properties": {"highway": "primary", "oneway": "yes", "ref": "EN 233", "source": "GPS"}}, {"type": "Feature", "geometry": {"type": "LineString", "coordinates": [[-7.1693466, 40.1646932], [-7.1697649, 40.164695], [-7.170135, 40.1646827], [-7.1705574, 40.1646745], [-7.1713353, 40.1646493]]}, "properties": {"highway": "primary", "oneway": "yes", "ref": "EN 233"}}, {"type": "Feature", "geometry": {"type": "LineString", "coordinates": [[-7.1760942, 40.1643599], [-7.1749, 40.164381], [-7.1747994, 40.164382], [-7.1747694, 40.1643834], [-7.1738191, 40.1644291], [-7.1728582, 40.1644753]]}, "properties": {"highway": "primary", "oneway": "yes", "ref": "EN 233"}}, {"type": "Feature", "geometry": {"type": "LineString", "coordinates": [[-7.1693466, 40.1646932], [-7.1646117, 40.1649312], [-7.1634208, 40.1651204], [-7.1625147, 40.1654834], [-7.1617924, 40.1661098], [-7.1613346, 40.1668704]]}, "properties": {"highway": "primary", "ref": "EN 233"}}, {"type": "Feature", "geometry": {"type": "LineString", "coordinates": [[-7.1875004, 40.1612765], [-7.1875577, 40.1612221], [-7.188353, 40.1604685], [-7.1883916, 40.1604321], [-7.1884054, 40.1604121], [-7.1891243, 40.1593643], [-7.1893905, 40.1589763], [-7.1897499, 40.1584526], [-7.1915706, 40.1557906], [-7.1934304, 40.1530907], [-7.1945878, 40.1514105], [-7.195083, 40.1506896], [-7.1955926, 40.1496425], [-7.1956589, 40.1494992], [-7.1957045, 40.1494008], [-7.1960978, 40.1485515]]}, "properties": {"highway": "primary", "ref": "EN 233", "source": "GPS"}}, {"type": "Feature", "geometry": {"type": "LineString", "coordinates": [[-7.183508, 40.162566], [-7.1787583, 40.1638562], [-7.1771593, 40.1642272], [-7.1760942, 40.1643599]]}, "properties": {"highway": "primary", "ref": "EN 233"}}, {"type": "Feature", "geometry": {"type": "LineString", "coordinates": [[-7.1218355, 40.3731158], [-7.122147, 40.3733546], [-7.1235921, 40.3745435], [-7.125673, 40.3762376], [-7.1258921, 40.3764745], [-7.1261002, 40.3768925], [-7.1280892, 40.381382], [-7.1282587, 40.3816043], [-7.128411, 40.3817747], [-7.1290753, 40.3825182], [-7.1291814, 40.3827247], [-7.1293019, 40.3832142], [-7.1298654, 40.3852293], [-7.130431, 40.387087], [-7.1305846, 40.3875296], [-7.1309476, 40.3882647], [-7.1332848, 40.3922621], [-7.1333611, 40.3924698], [-7.1334387, 40.3928039], [-7.1335075, 40.39298], [-7.1337053, 40.3932464], [-7.1338644, 40.3934391], [-7.1340536, 40.3936533], [-7.1343149, 40.3940659], [-7.1346062, 40.3947891], [-7.1347972, 40.395436], [-7.135174, 40.3967124], [-7.1354256, 40.3975389], [-7.1356109, 40.3981479], [-7.1358617, 40.3986656], [-7.1360845, 40.3990785], [-7.1362931, 40.3994652], [-7.1364427, 40.3997672], [-7.1374531, 40.4018062], [-7.1382831, 40.4035023], [-7.1388948, 40.4052704], [-7.1404748, 40.4096436], [-7.1408244, 40.4106851], [-7.1408292, 40.4109594], [-7.1407501, 40.4111628], [-7.1406986, 40.4112954], [-7.1403099, 40.4122959], [-7.1397636, 40.4136503], [-7.1396944, 40.413889], [-7.1397083, 40.4140499], [-7.1397769, 40.4142747], [-7.1401674, 40.4155549], [-7.1407608, 40.4175003], [-7.141117, 40.4187376], [-7.1417589, 40.4196005], [-7.1429331, 40.4205127], [-7.1429794, 40.4205543], [-7.1451857, 40.4225361], [-7.1453058, 40.4228003], [-7.145294, 40.4231846], [-7.1452911, 40.4240832], [-7.1452652, 40.4251182], [-7.1452572, 40.4254398], [-7.1452551, 40.4255224], [-7.145246, 40.4258872], [-7.1451936, 40.4260477], [-7.1451092, 40.4261894], [-7.1449863, 40.4263074], [-7.1443023, 40.4269457], [-7.1442177, 40.4270786], [-7.1441876, 40.4272166], [-7.1441894, 40.4274476], [-7.1442191, 40.4277258], [-7.144339, 40.4287854], [-7.144357, 40.4289442], [-7.1443773, 40.4290384], [-7.1444145, 40.4292105], [-7.1444778, 40.4294741], [-7.1444835, 40.429498], [-7.1447416, 40.4301851], [-7.1447934, 40.4303766], [-7.1449557, 40.4309766], [-7.1454574, 40.4326369], [-7.1456269, 40.4331306], [-7.1458393, 40.433606], [-7.1499795, 40.441771], [-7.154813, 40.446414]]}, "properties": {"highway": "primary", "ref": "EN 233", "source": "Plano Director Municipal da Guarda"}}, {"type": "Feature", "geometry": {"type": "LineString", "coordinates": [[-7.1678872, 40.1749675], [-7.1674178, 40.1745553], [-7.1670745, 40.1743176], [-7.1667955, 40.1741331], [-7.1665005, 40.1739548], [-7.1662752, 40.1737991], [-7.1660311, 40.173629], [-7.1656127, 40.1733461], [-7.1654367, 40.1732435]]}, "properties": {"highway": "primary", "lit": "yes", "oneway": "yes", "ref": "EN 233", "surface": "asphalt"}}, {"type": "Feature", "geometry": {"type": "LineString", "coordinates": [[-7.1691946, 40.179766], [-7.1691195, 40.1799935], [-7.1689269, 40.1805135], [-7.168507, 40.1811118], [-7.1679358, 40.181551], [-7.1674327, 40.1818979], [-7.1664383, 40.1824698], [-7.1659775, 40.1827799], [-7.1655641, 40.1830784], [-7.1652738, 40.1833638], [-7.1650382, 40.1836521], [-7.164293, 40.184889], [-7.1637445, 40.1854092], [-7.1599012, 40.1875563], [-7.1551803, 40.1902784], [-7.1541514, 40.1908564], [-7.1532776, 40.191128], [-7.1506296, 40.1919198], [-7.1498756, 40.1921479], [-7.1461395, 40.1932779], [-7.1447247, 40.1937026], [-7.1443664, 40.1938216], [-7.1437972, 40.1941565], [-7.1435558, 40.1942986], [-7.1421937, 40.1951572], [-7.140486, 40.196223], [-7.138508, 40.1974537], [-7.1384897, 40.1974652], [-7.1372098, 40.1982668], [-7.1367382, 40.198666], [-7.136304, 40.1991029], [-7.1361647, 40.1993316], [-7.136022, 40.1997877], [-7.1360182, 40.2001018], [-7.1360585, 40.2003283], [-7.136377, 40.2013756], [-7.1365674, 40.2019927], [-7.1367461, 40.2024793], [-7.1379774, 40.2038084], [-7.1384785, 40.204375], [-7.1395393, 40.2062773], [-7.1400517, 40.2071963], [-7.1413685, 40.2095398], [-7.1434311, 40.2132033], [-7.1439244, 40.2139449], [-7.1442541, 40.2141899], [-7.1446586, 40.2143869], [-7.146492, 40.2151136], [-7.1484575, 40.21587], [-7.153717, 40.2179315], [-7.153807, 40.2179558], [-7.1538687, 40.2179725], [-7.1552203, 40.2183378], [-7.1569993, 40.2188065], [-7.1579083, 40.2190586], [-7.1584482, 40.2193789], [-7.1602876, 40.2205042], [-7.1631096, 40.221848], [-7.1644807, 40.2224441], [-7.1665669, 40.2232369], [-7.172591, 40.2255264], [-7.1734678, 40.2258596], [-7.1741111, 40.226077], [-7.174812, 40.2262348], [-7.1760394, 40.2263338], [-7.1784288, 40.2265092], [-7.1789719, 40.22652], [-7.1791588, 40.2265031], [-7.1812522, 40.2263137], [-7.1815606, 40.2263025], [-7.1820914, 40.2263569]]}, "properties": {"highway": "primary", "lit": "no", "ref": "EN 233", "source": "Plano Director Municipal do Sabugal", "surface": "asphalt"}}, {"type": "Feature", "geometry": {"type": "LineString", "coordinates": [[-7.1679638, 40.1751699], [-7.168067, 40.1752728], [-7.1682519, 40.1754571], [-7.1682939, 40.175501], [-7.168341, 40.1755502], [-7.1684064, 40.1756187], [-7.1685202, 40.1757378], [-7.1689466, 40.1761559], [-7.169188, 40.1764182], [-7.169349, 40.1766109], [-7.169534, 40.1768834], [-7.169636, 40.1771334], [-7.169703, 40.1773753], [-7.1697218, 40.1776253], [-7.1697003, 40.177906], [-7.1696789, 40.1781151], [-7.1696413, 40.1783323], [-7.1695662, 40.1785475], [-7.1694375, 40.1789287], [-7.1693314, 40.1792483], [-7.1692792, 40.1794061], [-7.1691946, 40.179766]]}, "properties": {"highway": "primary", "lit": "yes", "oneway": "yes", "ref": "EN 233", "surface": "asphalt"}}, {"type": "Feature", "geometry": {"type": "LineString", "coordinates": [[-7.1691946, 40.179766], [-7.1693919, 40.1792668], [-7.1695126, 40.1789184], [-7.1695796, 40.1787094], [-7.1696896, 40.1783917], [-7.1697272, 40.1782585], [-7.1697513, 40.1780966], [-7.1697701, 40.1779409], [-7.1697889, 40.1777544], [-7.1697996, 40.1775904], [-7.1697808, 40.1773609], [-7.1697191, 40.1771027], [-7.1696521, 40.176908], [-7.1694777, 40.176574], [-7.1693221, 40.176367], [-7.1691356, 40.1761641], [-7.1689171, 40.1759758], [-7.1688124, 40.1758719], [-7.1687386, 40.1758034], [-7.1686704, 40.1757317], [-7.1684504, 40.1755103], [-7.1683517, 40.1754102], [-7.1682675, 40.1753222], [-7.1682412, 40.1752952], [-7.1678872, 40.1749675]]}, "properties": {"highway": "primary", "lit": "yes", "oneway": "yes", "ref": "EN 233", "surface": "asphalt"}}, {"type": "Feature", "geometry": {"type": "LineString", "coordinates": [[-7.1654367, 40.1732435], [-7.165618, 40.1734015], [-7.1658728, 40.1735798], [-7.1662269, 40.1738196], [-7.1664549, 40.1739938], [-7.1667016, 40.1741598], [-7.1670047, 40.1743852], [-7.1673802, 40.1746721], [-7.1676726, 40.1749017], [-7.1679435, 40.1751496], [-7.1679638, 40.1751699]]}, "properties": {"highway": "primary", "lit": "yes", "oneway": "yes", "ref": "EN 233", "surface": "asphalt"}}, {"type": "Feature", "geometry": {"type": "LineString", "coordinates": [[-7.4532875, 39.8634377], [-7.4531627, 39.8635663], [-7.4516042, 39.8653173], [-7.4502948, 39.8667884], [-7.4488214, 39.8690148], [-7.4483689, 39.8697166]]}, "properties": {"highway": "primary", "lanes": "2", "oneway": "no", "ref": "EN 233", "surface": "asphalt"}}, {"type": "Feature", "geometry": {"type": "LineString", "coordinates": [[-7.0955567, 40.3528389], [-7.0955288, 40.3528803], [-7.0953556, 40.3531374]]}, "properties": {"highway": "primary", "name": "Rua Cidade da Guarda", "oneway": "no", "ref": "EN 233", "source": "Plano Director Municipal do Sabugal", "surface": "asphalt"}}, {"type": "Feature", "geometry": {"type": "LineString", "coordinates": [[-7.1874062, 40.226704], [-7.1879458, 40.2270229]]}, "properties": {"highway": "primary", "lit": "yes", "ref": "EN 233", "source": "Plano Director Municipal do Sabugal", "surface": "asphalt"}}, {"type": "Feature", "geometry": {"type": "LineString", "coordinates": [[-7.2146311, 40.2585734], [-7.2147205, 40.2587159], [-7.2147678, 40.2588817], [-7.2147524, 40.2590435], [-7.2146353, 40.2592953], [-7.2140611, 40.2601907], [-7.2139329, 40.2605504], [-7.2139146, 40.2606203], [-7.2137761, 40.2611488], [-7.2133595, 40.2626605], [-7.2130648, 40.2637314], [-7.2129434, 40.2642386], [-7.2128215, 40.2645556], [-7.2123406, 40.265188], [-7.211311, 40.2663961], [-7.209903, 40.2673283], [-7.2097452, 40.2674321], [-7.2087793, 40.2680675], [-7.2083592, 40.2685482], [-7.2071166, 40.2701053], [-7.2069986, 40.2702054], [-7.2064463, 40.2706739], [-7.2048565, 40.2720225], [-7.2042639, 40.2723968], [-7.2029383, 40.2729154], [-7.2028219, 40.2729609], [-7.2021252, 40.273266], [-7.2017906, 40.2734987], [-7.2017446, 40.273557], [-7.2015407, 40.2738153], [-7.2014105, 40.2741069], [-7.2014061, 40.2742639], [-7.2013967, 40.274594], [-7.2014686, 40.2747832], [-7.2016632, 40.2750891], [-7.2019981, 40.2754729], [-7.2020995, 40.2759723], [-7.2020281, 40.2761554], [-7.2019895, 40.2762543], [-7.201888, 40.2764196], [-7.20176, 40.2765562], [-7.2015164, 40.276738], [-7.2011883, 40.2769309], [-7.2011146, 40.2769743], [-7.200939, 40.2771883], [-7.2009079, 40.2775391], [-7.2009252, 40.2776687], [-7.2009648, 40.2779664], [-7.2011413, 40.2783896], [-7.2012249, 40.2785667], [-7.2013377, 40.2788058], [-7.201444, 40.279031], [-7.2015237, 40.279321], [-7.2014818, 40.2796911], [-7.201359, 40.2799744], [-7.2011793, 40.2801976], [-7.2011254, 40.2802645], [-7.200249, 40.2809216], [-7.1995592, 40.2814388], [-7.1989573, 40.2819163], [-7.1986129, 40.2824349], [-7.1978532, 40.2836237], [-7.197445, 40.2842625], [-7.1974043, 40.284401], [-7.1973971, 40.2845046], [-7.1977474, 40.2854526], [-7.1976951, 40.2857428], [-7.1975218, 40.2859259], [-7.1972699, 40.2859941], [-7.1969339, 40.2860909], [-7.1966051, 40.2862682], [-7.1945447, 40.2882601], [-7.1936284, 40.2891236], [-7.1934263, 40.2892149], [-7.1931087, 40.2892408], [-7.1922215, 40.2891503], [-7.1918488, 40.289131], [-7.1916074, 40.2891467], [-7.1908493, 40.2892807], [-7.1907116, 40.289334], [-7.1904681, 40.289473], [-7.1903631, 40.2895945], [-7.1902881, 40.2896813], [-7.190231, 40.2898542], [-7.1902063, 40.2906822], [-7.1901905, 40.2912114], [-7.1897234, 40.2921297], [-7.1896613, 40.2921879], [-7.1896072, 40.2922386], [-7.1895571, 40.2922856], [-7.1892876, 40.2923565], [-7.1891914, 40.2923797], [-7.1889851, 40.2924295], [-7.1885089, 40.2925506], [-7.1877653, 40.2929001], [-7.1876221, 40.2930081], [-7.1871763, 40.2935876], [-7.1867631, 40.2938868], [-7.1863348, 40.2939782], [-7.1854874, 40.2938069], [-7.1849723, 40.2937681], [-7.1843314, 40.2938503], [-7.1833552, 40.2940878], [-7.1825766, 40.2944876], [-7.1822531, 40.2944898], [-7.1819222, 40.2943716], [-7.1810469, 40.2940147], [-7.1807162, 40.2939676], [-7.1805384, 40.2939774], [-7.1796674, 40.2941513], [-7.1790925, 40.2942195], [-7.1782884, 40.2939543], [-7.1776306, 40.2939133], [-7.1763307, 40.2941202], [-7.1757305, 40.2943202], [-7.174975, 40.2943157], [-7.1748265, 40.2942833], [-7.1745069, 40.2942135], [-7.1742821, 40.2941497], [-7.173866, 40.2941617], [-7.1735281, 40.2943083], [-7.1734072, 40.2943848], [-7.1719238, 40.2953231], [-7.1705856, 40.2961393], [-7.1701585, 40.2962161], [-7.1687508, 40.2964533], [-7.1685961, 40.2964794], [-7.1683567, 40.2965176], [-7.1674579, 40.2966608], [-7.1673462, 40.2966623], [-7.166595, 40.2965571], [-7.1664345, 40.2965347], [-7.166037, 40.2964738], [-7.1658397, 40.2964514], [-7.1657814, 40.2964432], [-7.1655947, 40.2964489], [-7.1655359, 40.29647], [-7.165201, 40.2965818], [-7.1649084, 40.2966796], [-7.1643559, 40.2967276], [-7.1638368, 40.2968575], [-7.1627601, 40.2970334], [-7.1621668, 40.2972743], [-7.1617256, 40.2975516], [-7.1615912, 40.2975816], [-7.1613447, 40.2976365], [-7.1608319, 40.2977226], [-7.1603348, 40.2978839], [-7.1599063, 40.2980767], [-7.1593432, 40.298657], [-7.1592303, 40.2987439], [-7.159096, 40.2987952], [-7.1589638, 40.2988271], [-7.1588241, 40.2988078], [-7.1585883, 40.2987215], [-7.1583682, 40.2986674], [-7.1581985, 40.298668], [-7.1580413, 40.2986863], [-7.1578884, 40.2987295], [-7.1577282, 40.2987931], [-7.1571267, 40.2990424], [-7.1568473, 40.2991666], [-7.1565856, 40.2993147], [-7.1563603, 40.2993692], [-7.1558583, 40.2994163], [-7.1557151, 40.2994556], [-7.1555858, 40.2995054], [-7.1553248, 40.2997148], [-7.1551749, 40.2999527], [-7.1550776, 40.3002595], [-7.1550102, 40.3003698], [-7.1549124, 40.300477], [-7.1546519, 40.3006722], [-7.1542908, 40.3009358], [-7.1541002, 40.3010379], [-7.1539163, 40.3010854], [-7.1537224, 40.3011], [-7.1533692, 40.3011498], [-7.1531743, 40.3012076], [-7.152905, 40.3013111], [-7.1525177, 40.3014933], [-7.1523071, 40.3015438], [-7.1521497, 40.3015415], [-7.1516778, 40.3014234], [-7.151419, 40.3013844], [-7.1510977, 40.3013865], [-7.1507401, 40.3014047], [-7.1503341, 40.3014577], [-7.1500535, 40.3015262], [-7.1497655, 40.3016462], [-7.1495813, 40.3017533], [-7.1494222, 40.3018662], [-7.1493252, 40.3019949], [-7.1492656, 40.3021092], [-7.1491545, 40.3022567], [-7.1490459, 40.3023668], [-7.1482176, 40.3027629], [-7.1477359, 40.3030132], [-7.1474278, 40.3031982], [-7.1472535, 40.3033199], [-7.1469447, 40.3035608], [-7.1466207, 40.3036583], [-7.1462882, 40.3037054], [-7.1457389, 40.3037263], [-7.1451264, 40.3036701], [-7.1447203, 40.3036288], [-7.1439971, 40.3034526], [-7.1431708, 40.3033136], [-7.1427325, 40.3032698], [-7.1426681, 40.3032634], [-7.1423552, 40.3032837], [-7.1420529, 40.3033367], [-7.1415969, 40.3035022], [-7.1413443, 40.3036554], [-7.1410807, 40.3038926], [-7.1406108, 40.304317], [-7.1402291, 40.3045406], [-7.1398802, 40.3047066]]}, "properties": {"highway": "primary", "ref": "EN 233", "source": "Plano Director Municipal do Sabugal"}}, {"type": "Feature", "geometry": {"type": "LineString", "coordinates": [[-7.2413552, 40.079531], [-7.2407239, 40.0803301], [-7.2398843, 40.0814552], [-7.2395793, 40.0826614], [-7.2394585, 40.0829392], [-7.2377625, 40.0848602], [-7.2375187, 40.0851527], [-7.2368719, 40.085929], [-7.2368412, 40.0859659], [-7.236821, 40.0859902], [-7.2366645, 40.0861778], [-7.2366523, 40.0861925], [-7.2364811, 40.086398], [-7.2362378, 40.0867163]]}, "properties": {"highway": "primary", "ref": "EN 233", "surface": "asphalt"}}, {"type": "Feature", "geometry": {"type": "LineString", "coordinates": [[-7.4483689, 39.8697166], [-7.448096, 39.8701251]]}, "properties": {"highway": "primary", "lanes": "2", "oneway": "no", "ref": "EN 233", "surface": "asphalt"}}, {"type": "Feature", "geometry": {"type": "LineString", "coordinates": [[-7.4478902, 39.8704428], [-7.4467132, 39.8723517], [-7.4449992, 39.8748721], [-7.4444359, 39.8756984], [-7.4440565, 39.8760283], [-7.4433727, 39.8767306], [-7.4406005, 39.8804351], [-7.4396869, 39.8815187], [-7.4378608, 39.8840296], [-7.4369041, 39.8853058], [-7.4346261, 39.8874738], [-7.4307884, 39.891147], [-7.4286943, 39.8936556], [-7.4266052, 39.8961581], [-7.4248741, 39.8993119], [-7.4241622, 39.9006652], [-7.4230517, 39.9018992], [-7.4228648, 39.9021068], [-7.4206923, 39.9045097], [-7.4188279, 39.9058465], [-7.4185065, 39.9062541], [-7.4153013, 39.9121389], [-7.4148271, 39.9128516], [-7.4141917, 39.9136862], [-7.4140588, 39.913869], [-7.413877, 39.9141189], [-7.4137131, 39.9143443], [-7.4124689, 39.9170434], [-7.4123522, 39.9173012], [-7.4112844, 39.9196607], [-7.4101106, 39.9222121], [-7.410004, 39.9224438], [-7.4088941, 39.9247624]]}, "properties": {"highway": "primary", "lanes": "2", "oneway": "no", "ref": "EN 233", "surface": "asphalt"}}, {"type": "Feature", "geometry": {"type": "LineString", "coordinates": [[-7.1871094, 40.1619227], [-7.186966, 40.1619038], [-7.1868726, 40.1618941], [-7.1867741, 40.1618868], [-7.186667, 40.1618814], [-7.1865694, 40.1618796], [-7.18649, 40.1618796], [-7.1863868, 40.1618802], [-7.1862932, 40.1618826], [-7.1862035, 40.1618881], [-7.1861099, 40.1618929], [-7.1860154, 40.1619014], [-7.1859345, 40.1619111], [-7.1858384, 40.1619238], [-7.1857527, 40.1619378], [-7.1856464, 40.1619566], [-7.1855138, 40.1619808], [-7.1853988, 40.1620051], [-7.1853004, 40.1620275], [-7.1851829, 40.1620579], [-7.185048, 40.1620937], [-7.1848123, 40.1621604], [-7.1846115, 40.162218], [-7.1844369, 40.1622695], [-7.184267, 40.1623235], [-7.184067, 40.1623842], [-7.1838329, 40.1624565], [-7.1836562, 40.1625149], [-7.183508, 40.162566]]}, "properties": {"highway": "primary", "oneway": "yes", "ref": "EN 233"}}, {"type": "Feature", "geometry": {"type": "LineString", "coordinates": [[-7.183508, 40.162566], [-7.1837711, 40.1625005], [-7.184035, 40.1624366], [-7.1843085, 40.1623697], [-7.1845054, 40.1623202], [-7.1847288, 40.1622652], [-7.1849476, 40.1622123], [-7.1854691, 40.1620875], [-7.1856806, 40.1620437], [-7.1858255, 40.1620186], [-7.1859851, 40.1619984], [-7.1861163, 40.1619844], [-7.1861972, 40.16198], [-7.1862677, 40.1619761], [-7.1864281, 40.1619698], [-7.1865758, 40.1619698], [-7.186739, 40.161974], [-7.1868703, 40.161981], [-7.1870189, 40.1619977], [-7.1870858, 40.1620081]]}, "properties": {"highway": "primary", "oneway": "yes", "ref": "EN 233"}}, {"type": "Feature", "geometry": {"type": "LineString", "coordinates": [[-7.1871094, 40.1619227], [-7.1870858, 40.1620081]]}, "properties": {"highway": "primary", "ref": "EN 233"}}, {"type": "Feature", "geometry": {"type": "LineString", "coordinates": [[-7.479559, 39.8418437], [-7.4792892, 39.8417556], [-7.4790577, 39.8416939], [-7.4787667, 39.8416353], [-7.4785901, 39.8416084], [-7.4783364, 39.8415893], [-7.4779824, 39.84159], [-7.4776248, 39.8416327]]}, "properties": {"highway": "primary", "lanes": "1", "oneway": "yes", "ref": "EN 233", "surface": "asphalt"}}, {"type": "Feature", "geometry": {"type": "LineString", "coordinates": [[-7.4762142, 39.8422655], [-7.4758921, 39.8424949]]}, "properties": {"highway": "primary", "lanes": "2", "ref": "EN 233", "surface": "asphalt"}}, {"type": "Feature", "geometry": {"type": "LineString", "coordinates": [[-7.2257377, 40.5232451], [-7.2254858, 40.5232386]]}, "properties": {"foot": "no", "highway": "primary", "lanes": "1", "name": "Variante \u00e0 EN 233", "oneway": "yes", "ref": "EN 233", "surface": "asphalt"}}, {"type": "Feature", "geometry": {"type": "LineString", "coordinates": [[-7.1395453, 40.3048766], [-7.1390402, 40.3051386], [-7.138746, 40.3053158], [-7.1385398, 40.3054753], [-7.1376609, 40.3062064], [-7.1373633, 40.3065409], [-7.137128, 40.3068348], [-7.1366391, 40.3073856], [-7.1359909, 40.3079239], [-7.1328075, 40.3105191], [-7.1312506, 40.3117962], [-7.1311016, 40.311949], [-7.130919, 40.3122295], [-7.1306703, 40.3125951], [-7.1300608, 40.3134911], [-7.1298624, 40.31365], [-7.1296561, 40.3137521], [-7.1293027, 40.3138974], [-7.1286463, 40.3141466], [-7.1274705, 40.3148885], [-7.1272647, 40.3150765], [-7.1266852, 40.3165509], [-7.1263089, 40.317552], [-7.1262726, 40.3176515], [-7.1259545, 40.3185237], [-7.1256139, 40.319441], [-7.1253829, 40.3198121], [-7.1247844, 40.3205739], [-7.1243753, 40.3210285], [-7.124092, 40.3212492], [-7.1238238, 40.3214064], [-7.1236695, 40.3214844], [-7.1235155, 40.3215311], [-7.1233262, 40.3215519], [-7.1227938, 40.3215631], [-7.1220887, 40.3215575], [-7.1216583, 40.321604], [-7.1212422, 40.32172], [-7.1210973, 40.3217983], [-7.1209926, 40.3218749], [-7.1205677, 40.3225377], [-7.1200223, 40.323582], [-7.1195508, 40.3244743], [-7.1186267, 40.3262094], [-7.1180369, 40.3273392], [-7.1173918, 40.3285315], [-7.117294, 40.3286652], [-7.1149288, 40.3311206], [-7.1142092, 40.3318011], [-7.1137909, 40.3320389], [-7.1133434, 40.3322981], [-7.1118806, 40.3329864], [-7.1113471, 40.3332374], [-7.1109516, 40.3334866], [-7.110633, 40.3338697], [-7.110372, 40.334234], [-7.1102198, 40.3344356], [-7.1077352, 40.3377263], [-7.1071117, 40.3385282], [-7.1058895, 40.3396273], [-7.1055298, 40.3399492], [-7.1051643, 40.3402763], [-7.1029757, 40.3428406], [-7.102293, 40.3436667]]}, "properties": {"highway": "primary", "ref": "EN 233", "source": "Plano Director Municipal do Sabugal"}}, {"type": "Feature", "geometry": {"type": "LineString", "coordinates": [[-7.1398802, 40.3047066], [-7.1395453, 40.3048766]]}, "properties": {"highway": "primary", "ref": "EN 233", "source": "Plano Director Municipal do Sabugal"}}, {"type": "Feature", "geometry": {"type": "LineString", "coordinates": [[-7.2186372, 40.4835823], [-7.2186442, 40.4835465]]}, "properties": {"highway": "primary", "name": "Variante \u00e0 Estrada Nacional 233", "oneway": "yes", "ref": "EN 233", "source": "Plano Director Municipal da Guarda"}}, {"type": "Feature", "geometry": {"type": "LineString", "coordinates": [[-7.218501, 40.483655], [-7.2183524, 40.4844127], [-7.2182097, 40.4851258], [-7.2181253, 40.4857951]]}, "properties": {"highway": "primary", "name": "Variante \u00e0 Estrada Nacional 233", "oneway": "yes", "ref": "EN 233", "source": "Plano Director Municipal da Guarda"}}, {"type": "Feature", "geometry": {"type": "LineString", "coordinates": [[-7.2186442, 40.4835465], [-7.2186681, 40.4834254], [-7.2187292, 40.4830249], [-7.2187474, 40.4827501], [-7.2187227, 40.4825019], [-7.2186759, 40.4823151], [-7.2186018, 40.4820966], [-7.2184679, 40.4818385], [-7.2183224, 40.4816434], [-7.2180776, 40.4813842], [-7.2177536, 40.4811063]]}, "properties": {"highway": "primary", "name": "Variante \u00e0 Estrada Nacional 233", "oneway": "yes", "ref": "EN 233", "source": "Plano Director Municipal da Guarda"}}, {"type": "Feature", "geometry": {"type": "LineString", "coordinates": [[-7.4762142, 39.8422655], [-7.4765508, 39.8420809], [-7.476876, 39.8419248], [-7.476981, 39.8418893], [-7.47725, 39.8417984], [-7.4775549, 39.8417391], [-7.4777562, 39.8416985]]}, "properties": {"highway": "primary", "lanes": "1", "oneway": "yes", "ref": "EN 233", "surface": "asphalt"}}, {"type": "Feature", "geometry": {"type": "LineString", "coordinates": [[-7.1879458, 40.2270229], [-7.1890804, 40.2276935], [-7.1894616, 40.2279934], [-7.1901171, 40.228509], [-7.1904534, 40.2287733], [-7.1907833, 40.2290327], [-7.1926958, 40.2305843], [-7.1938628, 40.2316671], [-7.1939654, 40.2319605], [-7.1939654, 40.2322392], [-7.193926, 40.2323669], [-7.1937945, 40.232793], [-7.1927442, 40.2357669], [-7.1926542, 40.2360065]]}, "properties": {"highway": "primary", "lit": "no", "ref": "EN 233", "source": "Plano Director Municipal do Sabugal", "surface": "asphalt"}}, {"type": "Feature", "geometry": {"type": "LineString", "coordinates": [[-7.4777562, 39.8416985], [-7.4780245, 39.8416735], [-7.478431, 39.8416735], [-7.4787644, 39.8417032], [-7.4791018, 39.8417516], [-7.479559, 39.8418437]]}, "properties": {"highway": "primary", "lanes": "1", "oneway": "yes", "ref": "EN 233", "surface": "asphalt"}}, {"type": "Feature", "geometry": {"type": "LineString", "coordinates": [[-7.4776248, 39.8416327], [-7.4772419, 39.8417218], [-7.4769601, 39.8418148], [-7.4767018, 39.8419332], [-7.4764919, 39.8420585], [-7.4762142, 39.8422655]]}, "properties": {"highway": "primary", "lanes": "1", "oneway": "yes", "ref": "EN 233", "surface": "asphalt"}}, {"type": "Feature", "geometry": {"type": "LineString", "coordinates": [[-7.0956022, 40.352771], [-7.0955567, 40.3528389]]}, "properties": {"highway": "primary", "name": "Rua Cidade da Guarda", "name:pt": "EN233", "oneway": "no", "ref": "EN 233", "source": "Plano Director Municipal do Sabugal", "surface": "asphalt"}}, {"type": "Feature", "geometry": {"type": "LineString", "coordinates": [[-7.0956594, 40.3526859], [-7.0956022, 40.352771]]}, "properties": {"bridge": "yes", "highway": "primary", "layer": "1", "name": "Rua Cidade da Guarda", "name:pt": "EN233", "oneway": "no", "ref": "EN 233", "source": "Plano Director Municipal do Sabugal", "surface": "asphalt"}}, {"type": "Feature", "geometry": {"type": "LineString", "coordinates": [[-7.2283428, 40.5249371], [-7.2309943, 40.5263343]]}, "properties": {"highway": "primary", "lanes": "2", "oneway": "yes", "ref": "EN 233", "surface": "asphalt"}}, {"type": "Feature", "geometry": {"type": "LineString", "coordinates": [[-7.2261985, 40.5240027], [-7.2264375, 40.5240117], [-7.2266462, 40.5240549], [-7.2274386, 40.5244632]]}, "properties": {"highway": "primary", "lanes": "2", "oneway": "yes", "ref": "EN 233", "surface": "asphalt"}}, {"type": "Feature", "geometry": {"type": "LineString", "coordinates": [[-7.2240061, 40.522606], [-7.2247743, 40.5230097]]}, "properties": {"highway": "primary", "lanes": "3", "lanes:backward": "2", "lanes:forward": "1", "name": "Variante \u00e0 EN 233", "ref": "EN 233", "turn:lanes:backward": "through|merge_to_left"}}, {"type": "Feature", "geometry": {"type": "LineString", "coordinates": [[-7.2145468, 40.2584481], [-7.2146311, 40.2585734]]}, "properties": {"bridge": "yes", "highway": "primary", "layer": "1", "ref": "EN 233", "source": "Plano Director Municipal do Sabugal"}}, {"type": "Feature", "geometry": {"type": "LineString", "coordinates": [[-7.2113758, 40.2540245], [-7.2117342, 40.2545204], [-7.2134649, 40.2569148], [-7.2136201, 40.257126], [-7.2144045, 40.2582364], [-7.2145468, 40.2584481]]}, "properties": {"highway": "primary", "ref": "EN 233", "source": "Plano Director Municipal do Sabugal"}}, {"type": "Feature", "geometry": {"type": "LineString", "coordinates": [[-7.2113302, 40.2539616], [-7.2113758, 40.2540245]]}, "properties": {"bridge": "yes", "highway": "primary", "layer": "1", "ref": "EN 233", "source": "Plano Director Municipal do Sabugal"}}, {"type": "Feature", "geometry": {"type": "LineString", "coordinates": [[-7.1926542, 40.2360065], [-7.1925992, 40.2361655], [-7.1924054, 40.236749], [-7.1923745, 40.2372199], [-7.1929369, 40.2384541], [-7.1930733, 40.2386356], [-7.1933194, 40.2387619], [-7.193592, 40.2388223], [-7.1955026, 40.2387603], [-7.1959678, 40.2388487], [-7.1963276, 40.2390365], [-7.1964737, 40.2392752], [-7.1966852, 40.2404174], [-7.1967845, 40.24055], [-7.1970822, 40.2407173], [-7.1972491, 40.240915], [-7.1981184, 40.2421822], [-7.1990132, 40.2426821], [-7.1994805, 40.2427626], [-7.1997948, 40.2429015], [-7.2010737, 40.2439553], [-7.2014407, 40.2441548], [-7.2026913, 40.2444995], [-7.2028336, 40.2445639], [-7.2031603, 40.2450141], [-7.204655, 40.2455139], [-7.2048349, 40.2456938], [-7.2050635, 40.2467524], [-7.2053189, 40.2471246], [-7.2059144, 40.2474882], [-7.2067156, 40.2482352], [-7.2071416, 40.2485044], [-7.2071582, 40.2487052], [-7.2069299, 40.2491457], [-7.2069388, 40.2495677], [-7.20728, 40.2506023], [-7.207446, 40.2508234], [-7.2077156, 40.2509623], [-7.2080511, 40.2510123], [-7.2086732, 40.2509383], [-7.2089809, 40.2509497], [-7.2091569, 40.2510132], [-7.2094558, 40.251336], [-7.210879, 40.2533371], [-7.2113302, 40.2539616]]}, "properties": {"highway": "primary", "lit": "no", "ref": "EN 233", "source": "Plano Director Municipal do Sabugal", "surface": "asphalt"}}, {"type": "Feature", "geometry": {"type": "MultiPolygon", "coordinates": [[[[-7.2355199, 40.5293432], [-7.2355001, 40.529282], [-7.2354556, 40.5292287], [-7.2353959, 40.5291912], [-7.2353243, 40.529169], [-7.2352567, 40.5291636], [-7.2351896, 40.5291719], [-7.2351278, 40.5291933], [-7.2350755, 40.5292263], [-7.2350451, 40.529257], [-7.2350232, 40.5292916], [-7.2350082, 40.5293443], [-7.2350129, 40.5293981], [-7.2350368, 40.5294489], [-7.2350781, 40.5294928], [-7.2351418, 40.5295299], [-7.2352175, 40.5295503], [-7.2353008, 40.5295515], [-7.2353802, 40.5295324], [-7.2354474, 40.5294949], [-7.2354879, 40.5294538], [-7.2355129, 40.5294061], [-7.2355199, 40.5293432]]]]}, "properties": {"highway": "primary", "junction": "roundabout", "ref": "EN 233"}}, {"type": "Feature", "geometry": {"type": "MultiPolygon", "coordinates": [[[[-7.0945521, 40.3549186], [-7.0945376, 40.3548646], [-7.0945253, 40.3548479], [-7.0945021, 40.3548166], [-7.094452, 40.3547808], [-7.0943903, 40.3547578], [-7.0943225, 40.3547495], [-7.0942545, 40.3547566], [-7.0941921, 40.3547786], [-7.094153, 40.3548033], [-7.0941125, 40.3548466], [-7.0940906, 40.3548972], [-7.0940895, 40.3549504], [-7.0940986, 40.354974], [-7.0941092, 40.3550015], [-7.0941449, 40.3550432], [-7.0941945, 40.3550758], [-7.0942541, 40.3550965], [-7.0943188, 40.3551037], [-7.0943836, 40.355097], [-7.0944269, 40.3550839], [-7.0944658, 40.3550645], [-7.0945144, 40.3550236], [-7.0945441, 40.3549734], [-7.0945521, 40.3549186]]]]}, "properties": {"highway": "primary", "junction": "roundabout", "lanes": "2", "name": "Rua Cidade da Guarda", "ref": "EN 233", "source": "Plano Director Municipal do Sabugal"}}, {"type": "Feature", "geometry": {"type": "MultiPolygon", "coordinates": [[[[-7.4088174, 39.9251628], [-7.4087995, 39.9250934], [-7.4087483, 39.9250345], [-7.4086717, 39.9249951], [-7.4085812, 39.9249812], [-7.4084908, 39.9249949], [-7.4084139, 39.9250342], [-7.4083627, 39.9250929], [-7.4083445, 39.9251623], [-7.4083624, 39.9252316], [-7.4084135, 39.9252905], [-7.4084901, 39.9253299], [-7.4085807, 39.9253438], [-7.4086711, 39.9253301], [-7.4087479, 39.9252909], [-7.4087993, 39.9252321], [-7.4088174, 39.9251628]]]]}, "properties": {"highway": "primary", "junction": "roundabout", "lanes": "2", "ref": "EN 233", "source": "bing"}}, {"type": "Feature", "geometry": {"type": "MultiPolygon", "coordinates": [[[[-7.5319634, 39.8281603], [-7.5319555, 39.8281121], [-7.5319316, 39.8280672], [-7.5318933, 39.8280285], [-7.5318364, 39.8279957], [-7.5317696, 39.8279771], [-7.5316986, 39.8279742], [-7.5316296, 39.8279872], [-7.5315685, 39.828015], [-7.5315206, 39.8280552], [-7.5314899, 39.8281044], [-7.5314791, 39.8281583], [-7.531487, 39.8282065], [-7.5315108, 39.8282514], [-7.531549, 39.8282901], [-7.5316101, 39.8283245], [-7.531682, 39.8283428], [-7.5317577, 39.8283432], [-7.5318299, 39.8283255], [-7.5318915, 39.8282916], [-7.5319303, 39.8282532], [-7.5319548, 39.8282084], [-7.5319634, 39.8281603]]]]}, "properties": {"highway": "primary", "junction": "roundabout", "lanes": "2", "ref": "EN 233", "source": "bing", "surface": "asphalt"}}, {"type": "Feature", "geometry": {"type": "MultiPolygon", "coordinates": [[[[-7.5336047, 39.8286516], [-7.5335967, 39.8286034], [-7.5335728, 39.8285585], [-7.5335346, 39.8285198], [-7.5334735, 39.8284854], [-7.5334016, 39.8284671], [-7.5333258, 39.8284668], [-7.5332536, 39.8284845], [-7.5331921, 39.8285185], [-7.5331534, 39.8285568], [-7.5331289, 39.8286015], [-7.5331203, 39.8286496], [-7.5331304, 39.8287036], [-7.5331604, 39.8287531], [-7.5332078, 39.8287937], [-7.5332685, 39.8288221], [-7.5333374, 39.8288356], [-7.5334084, 39.8288333], [-7.5334755, 39.8288152], [-7.5335328, 39.8287829], [-7.5335716, 39.8287445], [-7.5335961, 39.8286997], [-7.5336047, 39.8286516]]]]}, "properties": {"highway": "primary", "junction": "roundabout", "lanes": "2", "ref": "EN 233", "source": "bing", "surface": "asphalt"}}, {"type": "Feature", "geometry": {"type": "MultiPolygon", "coordinates": [[[[-7.2205039, 40.5202556], [-7.2204975, 40.5201994], [-7.2204699, 40.5201471], [-7.2204185, 40.5200998], [-7.22035, 40.5200673], [-7.2202715, 40.520053], [-7.2201972, 40.5200572], [-7.2201279, 40.5200777], [-7.2200694, 40.5201128], [-7.2200531, 40.5201307], [-7.2200271, 40.5201593], [-7.2200039, 40.5202162], [-7.2200048, 40.5202758], [-7.2200299, 40.5203322], [-7.2200765, 40.5203801], [-7.2201403, 40.5204147], [-7.2201904, 40.5204289], [-7.2202434, 40.5204348], [-7.2203211, 40.5204277], [-7.2203922, 40.5204028], [-7.2204498, 40.5203626], [-7.2204883, 40.5203108], [-7.2205039, 40.5202556]]]]}, "properties": {"highway": "primary", "junction": "roundabout", "name": "Variante \u00e0 EN 233", "ref": "EN 233"}}]}