{"type": "FeatureCollection", "features": [{"type": "Feature", "geometry": {"type": "Point", "coordinates": [-8.4035775, 40.8504841]}, "properties": {"distance": "9.6", "highway": "milestone", "ref": "EN 227"}}, {"type": "Feature", "geometry": {"type": "Point", "coordinates": [-8.4789715, 40.8936327]}, "properties": {"distance": "0", "highway": "milestone", "ref": "EN 227"}}, {"type": "Feature", "geometry": {"type": "LineString", "coordinates": [[-8.4940019, 40.900954], [-8.4940443, 40.9009778], [-8.4940813, 40.9009882], [-8.4941248, 40.900994], [-8.4941738, 40.900994], [-8.4942291, 40.900989]]}, "properties": {"alt_name": "Rua Oliveira J\u00fanior", "highway": "primary", "lanes": "1", "name": "Rua Ant\u00f3nio Jos\u00e9 de Oliveira J\u00fanior", "oneway": "yes", "ref": "EN 227", "smoothness": "intermediate", "surface": "asphalt"}}, {"type": "Feature", "geometry": {"type": "LineString", "coordinates": [[-8.4955145, 40.9026581], [-8.4955045, 40.9025514]]}, "properties": {"alt_name": "Rua Oliveira J\u00fanior", "foot": "yes", "highway": "primary", "lanes": "2", "name": "Rua Ant\u00f3nio Jos\u00e9 de Oliveira J\u00fanior", "old_ref": "EN 1", "oneway": "no", "ref": "EN 227", "smoothness": "good", "surface": "asphalt"}}, {"type": "Feature", "geometry": {"type": "LineString", "coordinates": [[-8.4866242, 40.896534], [-8.4866456, 40.8965908], [-8.4867058, 40.8966284], [-8.4867837, 40.8966334]]}, "properties": {"highway": "primary", "junction": "roundabout", "lanes": "2", "lit": "yes", "maxspeed": "50", "name": "Avenida da Liberdade", "ref": "EN 227", "smoothness": "good", "source": "BING", "surface": "asphalt"}}, {"type": "Feature", "geometry": {"type": "LineString", "coordinates": [[-8.4955184, 40.9027286], [-8.4955145, 40.9026581]]}, "properties": {"alt_name": "Rua Oliveira J\u00fanior", "foot": "yes", "highway": "primary", "lanes": "2", "name": "Rua Ant\u00f3nio Jos\u00e9 de Oliveira J\u00fanior", "old_ref": "EN 1", "oneway": "no", "ref": "EN 227", "smoothness": "good", "surface": "asphalt"}}]}