{"type": "FeatureCollection", "features": [{"type": "Feature", "geometry": {"type": "LineString", "coordinates": [[-7.7924315, 38.7073302], [-7.7924481, 38.7074193], [-7.7924197, 38.7075436]]}, "properties": {"highway": "primary", "lanes": "1", "oneway": "yes", "ref": "EN 254-1", "source": "Bing", "surface": "asphalt"}}, {"type": "Feature", "geometry": {"type": "LineString", "coordinates": [[-7.7929415, 38.7070695], [-7.792745, 38.7071714], [-7.7925955, 38.7072095], [-7.7924377, 38.7071949]]}, "properties": {"highway": "primary", "lanes": "1", "oneway": "yes", "ref": "EN 254-1", "source": "Bing", "surface": "asphalt"}}, {"type": "Feature", "geometry": {"type": "LineString", "coordinates": [[-7.7922451, 38.7071286], [-7.7923474, 38.7072314], [-7.7924315, 38.7073302], [-7.792528, 38.7073739], [-7.7926004, 38.7073795], [-7.792715, 38.7073832]]}, "properties": {"highway": "primary", "lanes": "1", "oneway": "yes", "ref": "EN 254-1", "source": "Bing", "surface": "asphalt"}}, {"type": "Feature", "geometry": {"type": "LineString", "coordinates": [[-7.7921474, 38.707903], [-7.7923817, 38.7076396], [-7.7925633, 38.7074711], [-7.7926004, 38.7073795], [-7.7925872, 38.7073083], [-7.7924377, 38.7071949], [-7.7922451, 38.7071286]]}, "properties": {"highway": "primary", "lanes": "1", "oneway": "yes", "ref": "EN 254-1", "source": "Bing", "surface": "asphalt"}}]}