{"type": "FeatureCollection", "features": [{"type": "Feature", "geometry": {"type": "LineString", "coordinates": [[-8.2767514, 38.1031257], [-8.275072, 38.1029842], [-8.2746809, 38.1029446], [-8.2741827, 38.1029047], [-8.272415, 38.1027477], [-8.2578626, 38.101481], [-8.2493057, 38.1007246], [-8.241117, 38.1], [-8.240488, 38.0999025], [-8.239983, 38.099767], [-8.2393591, 38.0995264], [-8.2388, 38.0992], [-8.238484, 38.0990046], [-8.2382813, 38.0988251], [-8.2378617, 38.0984077]]}, "properties": {"highway": "primary", "maxspeed": "90", "ref": "IP 8;EN 259"}}, {"type": "Feature", "geometry": {"type": "LineString", "coordinates": [[-8.3712382, 38.1165569], [-8.370033, 38.115783], [-8.3695317, 38.1155521], [-8.3690754, 38.1154519], [-8.366784, 38.1154984], [-8.3663147, 38.1154588], [-8.3659868, 38.1153946], [-8.3650912, 38.1152002], [-8.364613, 38.1150962], [-8.3624591, 38.1146281], [-8.3621, 38.11455], [-8.361483, 38.11435], [-8.3613544, 38.1142866]]}, "properties": {"highway": "primary", "maxspeed": "70", "ref": "EN 259"}}, {"type": "Feature", "geometry": {"type": "LineString", "coordinates": [[-8.418474, 38.1151325], [-8.4184208, 38.115012], [-8.4183707, 38.1148714], [-8.4183236, 38.1147005], [-8.418283, 38.114483], [-8.4182546, 38.1142371], [-8.4182424, 38.1139847], [-8.4182355, 38.1135412]]}, "properties": {"access": "yes", "highway": "trunk", "lanes": "1", "oneway": "yes", "ref": "IC 1;EN 259", "surface": "asphalt"}}, {"type": "Feature", "geometry": {"type": "LineString", "coordinates": [[-8.4079643, 38.1175496], [-8.4081947, 38.1175163], [-8.41003, 38.1172511]]}, "properties": {"highway": "primary", "maxspeed": "90", "ref": "EN 259"}}, {"type": "Feature", "geometry": {"type": "LineString", "coordinates": [[-8.4079643, 38.1175496], [-8.406826, 38.1177233]]}, "properties": {"bridge": "viaduct", "highway": "primary", "layer": "1", "maxspeed": "90", "ref": "EN 259"}}, {"type": "Feature", "geometry": {"type": "LineString", "coordinates": [[-8.2378617, 38.0984077], [-8.2376214, 38.0981677]]}, "properties": {"bridge": "yes", "highway": "primary", "layer": "1", "ref": "IP 8;EN 259"}}, {"type": "Feature", "geometry": {"type": "LineString", "coordinates": [[-8.3599919, 38.113602], [-8.3589257, 38.1130104]]}, "properties": {"bridge": "yes", "highway": "primary", "layer": "1", "maxspeed": "50", "ref": "EN 259"}}, {"type": "Feature", "geometry": {"type": "LineString", "coordinates": [[-8.1724488, 38.0850756], [-8.171117, 38.0847323], [-8.163767, 38.0826], [-8.1621574, 38.0822761], [-8.1508901, 38.0801133], [-8.1450651, 38.0789986], [-8.1450049, 38.0789871], [-8.1443346, 38.078865], [-8.1436483, 38.0787168], [-8.1430203, 38.0785578], [-8.1424812, 38.0783936], [-8.1419554, 38.0782157], [-8.1414044, 38.0779918], [-8.1408557, 38.077728], [-8.14033, 38.0774493], [-8.1400403, 38.0772719], [-8.1397512, 38.0770887], [-8.1395687, 38.0769612], [-8.1390265, 38.0765583], [-8.1387341, 38.0763155], [-8.13845, 38.076033], [-8.1382049, 38.0757839], [-8.137935, 38.0755096], [-8.1368097, 38.0743238], [-8.1360414, 38.0735509], [-8.1356616, 38.0731641], [-8.135431, 38.0729614], [-8.1352, 38.072782], [-8.1349533, 38.0726155], [-8.1344233, 38.0722984], [-8.1334845, 38.0717475], [-8.1321334, 38.0709807], [-8.1316615, 38.0707151], [-8.1313406, 38.0705669], [-8.1311572, 38.0704925], [-8.1308068, 38.0703505], [-8.1302248, 38.0701574], [-8.1300342, 38.0700991], [-8.1279607, 38.0694537], [-8.127514, 38.0693271], [-8.1272412, 38.0692422], [-8.126635, 38.0690604], [-8.1266047, 38.069051], [-8.1257193, 38.0687795], [-8.1251117, 38.0685987], [-8.1242557, 38.0683184], [-8.1207717, 38.0672478]]}, "properties": {"highway": "primary", "maxspeed": "90", "ref": "IP 8;EN 259"}}, {"type": "Feature", "geometry": {"type": "LineString", "coordinates": [[-8.3538698, 38.1102937], [-8.3536552, 38.1102376], [-8.3534099, 38.1101883], [-8.3531761, 38.1101509], [-8.3516856, 38.1099886], [-8.35103, 38.1099271], [-8.350737, 38.1098927], [-8.3503573, 38.1098481], [-8.3490216, 38.1097275], [-8.347333, 38.109577]]}, "properties": {"highway": "primary", "maxspeed": "90", "opening_date": "2025-05-05", "ref": "EN 259"}}, {"type": "Feature", "geometry": {"type": "LineString", "coordinates": [[-8.4183041, 38.1150174], [-8.4183446, 38.1151522], [-8.4184682, 38.1154168], [-8.4185862, 38.1156239], [-8.4186786, 38.1157791], [-8.4187966, 38.1159622], [-8.4188446, 38.116024], [-8.4189977, 38.116223], [-8.419169, 38.1164258], [-8.4193647, 38.1166217], [-8.4194943, 38.1167329], [-8.4196999, 38.1169111], [-8.4199765, 38.1171365], [-8.4201563, 38.1172699], [-8.420338, 38.117389], [-8.4205376, 38.1175097], [-8.4208161, 38.1176647], [-8.4215478, 38.1180298]]}, "properties": {"access": "yes", "highway": "trunk", "lanes": "1", "oneway": "yes", "ref": "IC 1;EN 259", "surface": "asphalt"}}, {"type": "Feature", "geometry": {"type": "LineString", "coordinates": [[-8.4215478, 38.1180298], [-8.4208475, 38.117608], [-8.4204318, 38.117364], [-8.42023, 38.117234], [-8.4200299, 38.1170894], [-8.4197308, 38.1168328], [-8.4193661, 38.1164957]]}, "properties": {"access": "yes", "highway": "trunk", "lanes": "2", "oneway": "yes", "placement": "middle_of:1", "ref": "IC 1;EN 259", "surface": "asphalt", "turn:lanes": "through|merge_to_left"}}, {"type": "Feature", "geometry": {"type": "LineString", "coordinates": [[-8.5472924, 38.1657203], [-8.546353, 38.1653764], [-8.545014, 38.1648817], [-8.5433465, 38.1642646], [-8.5429261, 38.1641068], [-8.5425733, 38.1639702], [-8.5422889, 38.1638525], [-8.5420294, 38.1637433], [-8.5417535, 38.1636211], [-8.5414544, 38.1634876], [-8.537379, 38.1615886], [-8.5366394, 38.1612478], [-8.5359099, 38.1609085], [-8.5350529, 38.1605093], [-8.5342625, 38.1601408], [-8.5335376, 38.159801], [-8.5331921, 38.1596405], [-8.5329617, 38.1595308], [-8.5326268, 38.1593744], [-8.5322209, 38.1591889], [-8.5319848, 38.1590778], [-8.5317507, 38.1589732], [-8.5315622, 38.1588909], [-8.5313981, 38.1588196], [-8.5312872, 38.1587744], [-8.5311744, 38.1587284], [-8.5309088, 38.1586267], [-8.5306991, 38.1585489], [-8.53049, 38.1584755], [-8.5303038, 38.1584146], [-8.5301004, 38.1583511], [-8.5298252, 38.1582682], [-8.5204551, 38.1554136], [-8.5200289, 38.1552876], [-8.5197344, 38.1551943], [-8.5195375, 38.1551305], [-8.5193735, 38.1550709], [-8.5192216, 38.1550145], [-8.5190812, 38.1549564], [-8.5188854, 38.1548694], [-8.5187087, 38.154786], [-8.5185245, 38.154692], [-8.5183504, 38.1545969], [-8.5181651, 38.1544903], [-8.5179922, 38.1543786], [-8.5178447, 38.154279], [-8.5176465, 38.1541415], [-8.5174288, 38.1539854], [-8.5170554, 38.1537183], [-8.509675, 38.1484297], [-8.5069673, 38.146486], [-8.5050479, 38.1451105], [-8.5037546, 38.1441844], [-8.5030894, 38.1437075], [-8.5024662, 38.143257], [-8.5000109, 38.1414973], [-8.4992533, 38.1409545], [-8.4984509, 38.1403815], [-8.4979223, 38.1400047], [-8.4976415, 38.139804], [-8.4974437, 38.1396694], [-8.4973067, 38.1395784], [-8.4971762, 38.139498], [-8.4970304, 38.1394127], [-8.496875, 38.1393307], [-8.4967005, 38.1392394], [-8.4963532, 38.1390725], [-8.4956667, 38.1387593], [-8.4927766, 38.137423], [-8.4910566, 38.1365712], [-8.4902205, 38.13612], [-8.4899264, 38.135961], [-8.4877198, 38.1347675], [-8.4841862, 38.1328548], [-8.4839323, 38.1327182], [-8.4838471, 38.1326749], [-8.4835634, 38.1325398], [-8.4833838, 38.1324545], [-8.4830816, 38.1323203], [-8.4825809, 38.1321101], [-8.4818642, 38.1318241], [-8.4812422, 38.1315742], [-8.4809608, 38.1314586], [-8.4804761, 38.1312678], [-8.4801028, 38.1311343], [-8.4798311, 38.131046], [-8.4795227, 38.1309602], [-8.4791709, 38.1308787], [-8.4789572, 38.1308389], [-8.4787117, 38.1308], [-8.4784495, 38.1307667], [-8.4782635, 38.130749], [-8.4780845, 38.130738], [-8.4778636, 38.1307282], [-8.4776588, 38.1307283], [-8.4774696, 38.1307345], [-8.4772444, 38.1307479], [-8.4769976, 38.1307696], [-8.4767005, 38.130806], [-8.4764789, 38.1308351]]}, "properties": {"access": "yes", "highway": "trunk", "lanes": "2", "lanes:backward": "1", "lanes:forward": "1", "old_ref": "EN 259", "ref": "IC 1;EN 259"}}, {"type": "Feature", "geometry": {"type": "LineString", "coordinates": [[-8.4764789, 38.1308351], [-8.4755656, 38.1309564]]}, "properties": {"access": "yes", "bridge": "yes", "highway": "trunk", "lanes": "2", "layer": "1", "old_ref": "EN 259", "ref": "IC 1;EN 259"}}, {"type": "Feature", "geometry": {"type": "LineString", "coordinates": [[-8.457481, 38.1248905], [-8.4569461, 38.1247218], [-8.4562449, 38.1244987], [-8.4559422, 38.1243958], [-8.4557656, 38.1243285], [-8.4555613, 38.1242486], [-8.4554045, 38.1241786], [-8.4552422, 38.1241008], [-8.4550766, 38.1240217], [-8.4549114, 38.1239371], [-8.4547806, 38.1238636], [-8.454582, 38.1237477], [-8.4542637, 38.1235565], [-8.4539276, 38.1233541], [-8.4537503, 38.1232444], [-8.4535926, 38.1231495], [-8.4534222, 38.1230471], [-8.4532528, 38.1229458], [-8.4530811, 38.1228458], [-8.4528706, 38.1227326], [-8.4526634, 38.1226304], [-8.4524508, 38.1225331], [-8.4522203, 38.1224368], [-8.4520856, 38.122385], [-8.4519265, 38.122326], [-8.4516701, 38.1222391], [-8.4514432, 38.1221735], [-8.4512262, 38.1221156], [-8.4509941, 38.1220662], [-8.4507826, 38.1220251], [-8.4505462, 38.1219874], [-8.450316, 38.1219545], [-8.4500135, 38.1219217], [-8.449167, 38.1218448]]}, "properties": {"access": "yes", "change:lanes:backward": "no", "change:lanes:forward": "no", "highway": "trunk", "lanes": "2", "lanes:backward": "1", "lanes:forward": "1", "old_ref": "EN 259", "ref": "IC 1;EN 259", "surface": "asphalt"}}, {"type": "Feature", "geometry": {"type": "LineString", "coordinates": [[-8.1199757, 38.0670064], [-8.1194268, 38.0668085], [-8.1191493, 38.0667111], [-8.119007, 38.0666523], [-8.1189448, 38.066623]]}, "properties": {"highway": "primary", "maxspeed": "50", "oneway": "yes", "ref": "IP 8;EN 259"}}, {"type": "Feature", "geometry": {"type": "LineString", "coordinates": [[-8.1188917, 38.0667442], [-8.1190038, 38.0667597], [-8.1191257, 38.0667845], [-8.1193986, 38.0668537], [-8.1199757, 38.0670064]]}, "properties": {"highway": "primary", "oneway": "yes", "ref": "IP 8;EN 259"}}, {"type": "Feature", "geometry": {"type": "LineString", "coordinates": [[-8.2803708, 38.1036126], [-8.2804671, 38.103576], [-8.2805302, 38.1035527], [-8.2805943, 38.1035383], [-8.2806538, 38.1035254], [-8.2807218, 38.1035226], [-8.2808038, 38.1035295], [-8.2809624, 38.1035452], [-8.2813111, 38.1035678], [-8.28169, 38.1035621]]}, "properties": {"highway": "primary", "oneway": "yes", "opening_date": "2025-05-05", "ref": "EN 259"}}, {"type": "Feature", "geometry": {"type": "LineString", "coordinates": [[-8.2797225, 38.1034699], [-8.2797157, 38.1035279], [-8.2797251, 38.1035857], [-8.2797605, 38.1036554], [-8.2798192, 38.1037145], [-8.2799038, 38.1037613], [-8.2800025, 38.1037857], [-8.2800989, 38.1037863], [-8.2801916, 38.1037653], [-8.280273, 38.1037246], [-8.2803137, 38.1036919], [-8.2803466, 38.1036542], [-8.2803708, 38.1036126], [-8.2803898, 38.1035405], [-8.2803829, 38.1034671], [-8.2803507, 38.103398], [-8.2803115, 38.1033524], [-8.2802611, 38.1033141], [-8.2802107, 38.1032884], [-8.2801554, 38.1032701], [-8.2800967, 38.1032599], [-8.2800367, 38.103258], [-8.2799544, 38.1032693], [-8.2798781, 38.1032961], [-8.2798065, 38.103342], [-8.2797533, 38.1034014], [-8.2797225, 38.1034699]]}, "properties": {"highway": "primary", "junction": "roundabout", "ref": "IP 8;EN 259"}}, {"type": "Feature", "geometry": {"type": "LineString", "coordinates": [[-8.2788423, 38.1032589], [-8.2792016, 38.1032703], [-8.2793864, 38.1032832], [-8.279503, 38.1032989], [-8.2795892, 38.103325], [-8.279653, 38.103366], [-8.2796891, 38.1034075], [-8.2797225, 38.1034699]]}, "properties": {"highway": "primary", "maxspeed": "50", "oneway": "yes", "ref": "IP 8;EN 259"}}, {"type": "Feature", "geometry": {"type": "LineString", "coordinates": [[-8.28169, 38.1035621], [-8.2810191, 38.1034533], [-8.2808096, 38.1034431], [-8.2807385, 38.1034389], [-8.2805769, 38.1034496], [-8.2805152, 38.1034483], [-8.2804332, 38.1034316], [-8.2803507, 38.103398]]}, "properties": {"highway": "primary", "maxspeed": "50", "oneway": "yes", "opening_date": "2025-05-05", "ref": "EN 259"}}, {"type": "Feature", "geometry": {"type": "LineString", "coordinates": [[-8.2798781, 38.1032961], [-8.2797735, 38.1032824], [-8.2796889, 38.1032717], [-8.279609, 38.1032545], [-8.2795207, 38.103236], [-8.2794306, 38.1032238], [-8.2793255, 38.1032092], [-8.2791722, 38.1032076], [-8.2789666, 38.103214], [-8.2788423, 38.1032589]]}, "properties": {"highway": "primary", "oneway": "yes", "ref": "IP 8;EN 259"}}, {"type": "Feature", "geometry": {"type": "LineString", "coordinates": [[-8.4337414, 38.121895], [-8.4334444, 38.1219214], [-8.4330684, 38.1219557], [-8.4326805, 38.121989], [-8.4324078, 38.1220117], [-8.4322414, 38.1220232], [-8.4320802, 38.1220313], [-8.4319146, 38.1220354], [-8.4317406, 38.1220335], [-8.4315266, 38.1220273], [-8.4313103, 38.1220183], [-8.4311024, 38.1220008], [-8.430954, 38.121984], [-8.4309076, 38.1219787], [-8.4307356, 38.1219554], [-8.4305561, 38.1219266], [-8.4303704, 38.1218913], [-8.4301785, 38.1218492], [-8.4299766, 38.1217956], [-8.4298181, 38.1217532], [-8.4296403, 38.1216974], [-8.4294737, 38.1216427], [-8.4292339, 38.1215537], [-8.4291025, 38.1215016], [-8.4288968, 38.1214128], [-8.4286416, 38.1212982], [-8.4282569, 38.1211205], [-8.4267941, 38.1204478]]}, "properties": {"access": "yes", "highway": "trunk", "lanes": "2", "old_ref": "EN 259", "ref": "IC 1;EN 259", "surface": "asphalt"}}, {"type": "Feature", "geometry": {"type": "LineString", "coordinates": [[-8.4343201, 38.1218412], [-8.4337414, 38.121895]]}, "properties": {"access": "yes", "bridge": "yes", "highway": "trunk", "lanes": "2", "layer": "1", "old_ref": "EN 259", "ref": "IC 1;EN 259", "surface": "asphalt"}}, {"type": "Feature", "geometry": {"type": "LineString", "coordinates": [[-8.5495218, 38.1665265], [-8.5492275, 38.1663938], [-8.5479444, 38.1659284]]}, "properties": {"access": "yes", "highway": "trunk", "lanes": "2", "old_ref": "EN 259", "oneway": "yes", "ref": "IC 1;EN 259", "turn:lanes": "through|merge_to_left"}}, {"type": "Feature", "geometry": {"type": "LineString", "coordinates": [[-8.5495887, 38.1666356], [-8.5498282, 38.1667618]]}, "properties": {"access": "yes", "highway": "trunk", "lanes": "1", "old_ref": "EN 259", "oneway": "yes", "ref": "IC 1;EN 259", "turn:lanes": "through;slight_right"}}, {"type": "Feature", "geometry": {"type": "LineString", "coordinates": [[-8.5498282, 38.1667618], [-8.5500529, 38.1668786], [-8.5506081, 38.1671759]]}, "properties": {"access": "yes", "highway": "trunk", "lanes": "2", "old_ref": "EN 259", "oneway": "yes", "ref": "IC 1;EN 259", "turn:lanes": "through|slight_right"}}, {"type": "Feature", "geometry": {"type": "LineString", "coordinates": [[-8.5472924, 38.1657203], [-8.5475969, 38.1658647], [-8.5487791, 38.166292], [-8.5492492, 38.1664662], [-8.5495887, 38.1666356]]}, "properties": {"access": "yes", "highway": "trunk", "lanes": "1", "old_ref": "EN 259", "oneway": "yes", "ref": "IC 1;EN 259"}}, {"type": "Feature", "geometry": {"type": "LineString", "coordinates": [[-8.4463533, 38.1216082], [-8.4458535, 38.1215659]]}, "properties": {"access": "yes", "change:lanes:backward": "no", "change:lanes:forward": "no", "highway": "trunk", "lanes": "2", "lanes:backward": "1", "lanes:forward": "1", "old_ref": "EN 259", "ref": "IC 1;EN 259", "surface": "asphalt"}}, {"type": "Feature", "geometry": {"type": "LineString", "coordinates": [[-8.4458535, 38.1215659], [-8.4448945, 38.1214856], [-8.4442259, 38.1214296]]}, "properties": {"access": "yes", "change:lanes:backward": "no", "change:lanes:forward": "no", "highway": "trunk", "lanes": "2", "lanes:backward": "1", "lanes:forward": "1", "old_ref": "EN 259", "ref": "IC 1;EN 259", "surface": "asphalt", "turn:lanes:forward": "through"}}, {"type": "Feature", "geometry": {"type": "LineString", "coordinates": [[-8.449167, 38.1218448], [-8.4479483, 38.1217422]]}, "properties": {"access": "yes", "change:lanes:backward": "no", "change:lanes:forward": "no", "highway": "trunk", "lanes": "2", "lanes:backward": "1", "lanes:forward": "1", "old_ref": "EN 259", "ref": "IC 1;EN 259", "surface": "asphalt", "turn:lanes:forward": "through;slight_right"}}, {"type": "Feature", "geometry": {"type": "LineString", "coordinates": [[-8.4479483, 38.1217422], [-8.4463533, 38.1216082]]}, "properties": {"access": "yes", "change:lanes:backward": "no", "change:lanes:forward": "no", "highway": "trunk", "lanes": "2", "lanes:backward": "1", "lanes:forward": "1", "old_ref": "EN 259", "ref": "IC 1;EN 259", "surface": "asphalt", "turn:lanes:backward": "through"}}, {"type": "Feature", "geometry": {"type": "LineString", "coordinates": [[-8.4442259, 38.1214296], [-8.4435777, 38.1213759], [-8.4430144, 38.1213271], [-8.4424698, 38.1212823]]}, "properties": {"access": "yes", "change:lanes:backward": "no", "change:lanes:forward": "no", "highway": "trunk", "lanes": "2", "lanes:backward": "1", "lanes:forward": "1", "old_ref": "EN 259", "ref": "IC 1;EN 259", "surface": "asphalt", "turn:lanes:backward": "through;slight_right", "turn:lanes:forward": "through;right"}}, {"type": "Feature", "geometry": {"type": "LineString", "coordinates": [[-8.4424698, 38.1212823], [-8.4421161, 38.1212536], [-8.441926, 38.1212413], [-8.4416835, 38.1212286]]}, "properties": {"access": "yes", "change:lanes:backward": "no", "change:lanes:forward": "no", "highway": "trunk", "lanes": "2", "lanes:backward": "1", "lanes:forward": "1", "old_ref": "EN 259", "ref": "IC 1;EN 259", "surface": "asphalt", "turn:lanes:backward": "left;through", "turn:lanes:forward": "through;right"}}, {"type": "Feature", "geometry": {"type": "LineString", "coordinates": [[-8.4755656, 38.1309564], [-8.4747518, 38.1310638], [-8.4744996, 38.1310888], [-8.4742724, 38.1311056], [-8.4741444, 38.1311103], [-8.4740934, 38.1311122], [-8.4738797, 38.1311176], [-8.4736668, 38.1311154], [-8.4734584, 38.1311056], [-8.47328, 38.1310928], [-8.4730907, 38.1310731], [-8.4728561, 38.1310411], [-8.4725558, 38.1309927], [-8.4723449, 38.1309489], [-8.4721123, 38.1308913], [-8.4719002, 38.130832], [-8.4716369, 38.1307479], [-8.4713741, 38.1306563], [-8.4711595, 38.1305723], [-8.470616, 38.1303371], [-8.4654841, 38.1280642], [-8.4648885, 38.1277977], [-8.4640657, 38.1274349], [-8.4632402, 38.1270658], [-8.4621342, 38.1265723], [-8.4611335, 38.1261313], [-8.4609143, 38.1260388], [-8.4607399, 38.1259661], [-8.4605009, 38.125873], [-8.4602772, 38.1257915], [-8.4600159, 38.1257001], [-8.4597831, 38.1256217], [-8.4595667, 38.1255538], [-8.4593086, 38.1254734], [-8.4588253, 38.1253183], [-8.4580447, 38.1250709], [-8.457481, 38.1248905]]}, "properties": {"access": "yes", "highway": "trunk", "lanes": "2", "old_ref": "EN 259", "ref": "IC 1;EN 259", "surface": "asphalt"}}, {"type": "Feature", "geometry": {"type": "LineString", "coordinates": [[-8.4416835, 38.1212286], [-8.4414962, 38.121224], [-8.4413286, 38.1212216], [-8.4411705, 38.121224], [-8.4409888, 38.1212319], [-8.4408262, 38.1212436], [-8.4405958, 38.1212628], [-8.4400008, 38.1213142], [-8.4389619, 38.1214084], [-8.4375857, 38.1215358], [-8.4366451, 38.121624], [-8.4357141, 38.1217103], [-8.4349914, 38.1217782], [-8.4343201, 38.1218412]]}, "properties": {"access": "yes", "highway": "trunk", "lanes": "2", "old_ref": "EN 259", "ref": "IC 1;EN 259", "surface": "asphalt"}}, {"type": "Feature", "geometry": {"type": "LineString", "coordinates": [[-8.4267941, 38.1204478], [-8.4261822, 38.1201658], [-8.4258783, 38.1200257], [-8.4255385, 38.1198694], [-8.4251287, 38.1196818], [-8.4247393, 38.1194983], [-8.4244178, 38.1193522], [-8.4239493, 38.1191345], [-8.4236254, 38.1189871], [-8.4235442, 38.1189502], [-8.4229491, 38.1186749], [-8.4223787, 38.1184111], [-8.4218916, 38.1181886], [-8.4215478, 38.1180298]]}, "properties": {"access": "yes", "change:lanes:backward": "yes", "change:lanes:forward": "not_left|yes", "highway": "trunk", "lanes": "3", "lanes:backward": "1", "lanes:forward": "2", "old_ref": "EN 259", "placement:forward": "left_of:1", "ref": "IC 1;EN 259", "surface": "asphalt"}}, {"type": "Feature", "geometry": {"type": "LineString", "coordinates": [[-8.4182355, 38.1135412], [-8.4182431, 38.1131223], [-8.4182553, 38.1124507]]}, "properties": {"access": "yes", "highway": "trunk", "lanes": "2", "oneway": "yes", "placement": "middle_of:1", "ref": "IC 1;EN 259", "surface": "asphalt", "turn:lanes": "through|slight_right"}}, {"type": "Feature", "geometry": {"type": "LineString", "coordinates": [[-8.4193661, 38.1164957], [-8.4191163, 38.1162042], [-8.4189594, 38.1159929], [-8.4189426, 38.1159659], [-8.4188432, 38.1158053], [-8.4187655, 38.1156772], [-8.418649, 38.1154721], [-8.4185578, 38.1153], [-8.418474, 38.1151325]]}, "properties": {"access": "yes", "highway": "trunk", "lanes": "1", "oneway": "yes", "ref": "IC 1;EN 259", "surface": "asphalt"}}, {"type": "Feature", "geometry": {"type": "LineString", "coordinates": [[-8.41003, 38.1172511], [-8.4119409, 38.1169642]]}, "properties": {"highway": "primary", "lanes": "2", "maxspeed": "80", "oneway": "yes", "ref": "EN 259"}}, {"type": "Feature", "geometry": {"type": "LineString", "coordinates": [[-8.3589257, 38.1130104], [-8.3584864, 38.1127668], [-8.3584572, 38.1127507], [-8.3584409, 38.1127417], [-8.358036, 38.1125171], [-8.3578249, 38.1124013], [-8.3571872, 38.1120532], [-8.3570815, 38.1119959], [-8.3564572, 38.1116556]]}, "properties": {"highway": "primary", "maxspeed": "50", "name": "Rua do Com\u00e9rcio", "postal_code": "7900-303", "ref": "EN 259"}}, {"type": "Feature", "geometry": {"type": "LineString", "coordinates": [[-8.2376214, 38.0981677], [-8.2365525, 38.0971124], [-8.2358207, 38.0966376], [-8.2352931, 38.0963876], [-8.2347741, 38.0961877], [-8.234622, 38.0961413], [-8.227683, 38.094467], [-8.2271732, 38.0943649], [-8.225933, 38.09415], [-8.2238808, 38.0940187], [-8.2189, 38.0937], [-8.2160585, 38.0935466]]}, "properties": {"highway": "primary", "maxspeed": "90", "ref": "IP 8;EN 259"}}, {"type": "Feature", "geometry": {"type": "LineString", "coordinates": [[-8.2133019, 38.0933662], [-8.2109088, 38.0932195], [-8.2107389, 38.0932102], [-8.2097304, 38.0931531], [-8.2096779, 38.0931501], [-8.2085441, 38.0930816], [-8.2045565, 38.0928443], [-8.2042237, 38.0928246], [-8.2041363, 38.0928164], [-8.2039148, 38.0927958], [-8.2038749, 38.092793], [-8.2037956, 38.0927875], [-8.2035686, 38.0927719], [-8.2031113, 38.0927318], [-8.2026424, 38.0926645], [-8.2023381, 38.092611], [-8.2020621, 38.0925596], [-8.2010713, 38.0923782], [-8.2001955, 38.0922135], [-8.2000273, 38.0921813]]}, "properties": {"highway": "primary", "maxspeed": "50", "postal_code": "7900-234", "ref": "EN 259"}}, {"type": "Feature", "geometry": {"type": "LineString", "coordinates": [[-8.2145338, 38.0930266], [-8.2144847, 38.0930325], [-8.2144374, 38.0930447], [-8.2143933, 38.0930627], [-8.2143535, 38.093086], [-8.2143123, 38.0931209], [-8.2142806, 38.0931614], [-8.2142608, 38.0932029], [-8.214251, 38.0932465], [-8.2142515, 38.0932908], [-8.2142623, 38.0933342], [-8.214283, 38.0933754], [-8.214313, 38.0934129], [-8.2143507, 38.093445], [-8.214395, 38.0934712], [-8.2144447, 38.0934906], [-8.214498, 38.0935027], [-8.2145533, 38.093507], [-8.2146086, 38.0935034], [-8.2146621, 38.0934919], [-8.2147121, 38.093473], [-8.214757, 38.0934473], [-8.2147946, 38.0934163], [-8.2148246, 38.0933805], [-8.2148461, 38.093341], [-8.2148583, 38.0932992], [-8.2148608, 38.0932564], [-8.2148537, 38.0932138], [-8.2148369, 38.0931727], [-8.2148111, 38.0931346], [-8.214777, 38.0931008], [-8.2147358, 38.0930723], [-8.2146887, 38.09305], [-8.2146374, 38.0930348], [-8.2145834, 38.093027], [-8.2145338, 38.0930266]]}, "properties": {"highway": "primary", "junction": "roundabout", "ref": "IP 8;EN 259"}}, {"type": "Feature", "geometry": {"type": "LineString", "coordinates": [[-8.1737978, 38.0850824], [-8.1737632, 38.0850123], [-8.173712, 38.0849489], [-8.1736459, 38.0848945], [-8.1735677, 38.0848514], [-8.1734802, 38.0848211], [-8.1733869, 38.0848049], [-8.1732914, 38.0848034], [-8.1731973, 38.0848166], [-8.1731084, 38.084844], [-8.1730279, 38.0848846], [-8.1729591, 38.0849368], [-8.1729046, 38.0849985], [-8.1728674, 38.0850652], [-8.1728469, 38.0851361], [-8.1728439, 38.0852089], [-8.1728585, 38.0852808], [-8.1728843, 38.0853395], [-8.172922, 38.0853941], [-8.1729703, 38.0854432], [-8.1730281, 38.0854855], [-8.1730765, 38.085512], [-8.1731287, 38.0855337], [-8.1731984, 38.0855536], [-8.1732712, 38.085565], [-8.1733453, 38.0855675], [-8.1734191, 38.0855611], [-8.1734793, 38.0855491], [-8.173537, 38.085531], [-8.1736017, 38.085502], [-8.1736601, 38.0854655], [-8.1737106, 38.0854225], [-8.1737522, 38.0853738], [-8.173791, 38.0853051], [-8.1738119, 38.0852317], [-8.1738142, 38.0851565], [-8.1737978, 38.0850824]]}, "properties": {"highway": "primary", "junction": "roundabout", "ref": "IP 8;EN 259"}}, {"type": "Feature", "geometry": {"type": "LineString", "coordinates": [[-8.1201655, 38.0670633], [-8.1199757, 38.0670064]]}, "properties": {"highway": "primary", "maxspeed": "50", "ref": "IP 8;EN 259"}}, {"type": "Feature", "geometry": {"type": "LineString", "coordinates": [[-8.1207717, 38.0672478], [-8.1203846, 38.0671289], [-8.1201655, 38.0670633]]}, "properties": {"highway": "primary", "maxspeed:backward": "50", "maxspeed:forward": "70", "ref": "IP 8;EN 259"}}, {"type": "Feature", "geometry": {"type": "LineString", "coordinates": [[-8.1739326, 38.0862414], [-8.1735259, 38.0859816], [-8.1734539, 38.0859227], [-8.1734071, 38.0858748], [-8.173379, 38.0858359]]}, "properties": {"highway": "primary", "maxspeed:backward": "70", "maxspeed:forward": "90", "ref": "EN 259"}}, {"type": "Feature", "geometry": {"type": "LineString", "coordinates": [[-8.1786831, 38.0881707], [-8.1776788, 38.0879839], [-8.176917, 38.087817], [-8.176537, 38.087706], [-8.176133, 38.08755], [-8.1756605, 38.0873238], [-8.1751, 38.086983], [-8.1739326, 38.0862414]]}, "properties": {"highway": "primary", "maxspeed": "50", "ref": "EN 259"}}, {"type": "Feature", "geometry": {"type": "LineString", "coordinates": [[-8.1793999, 38.0883041], [-8.1786831, 38.0881707]]}, "properties": {"highway": "primary", "maxspeed:backward": "90", "maxspeed:forward": "70", "ref": "EN 259"}}, {"type": "Feature", "geometry": {"type": "LineString", "coordinates": [[-8.195863, 38.0913885], [-8.1810595, 38.0886128], [-8.1793999, 38.0883041]]}, "properties": {"highway": "primary", "maxspeed": "90", "ref": "EN 259"}}, {"type": "Feature", "geometry": {"type": "LineString", "coordinates": [[-8.1982091, 38.0918337], [-8.1961831, 38.0914463], [-8.1961202, 38.0914349], [-8.195863, 38.0913885]]}, "properties": {"highway": "primary", "maxspeed:backward": "70", "maxspeed:forward": "90", "ref": "EN 259"}}, {"type": "Feature", "geometry": {"type": "LineString", "coordinates": [[-8.2000273, 38.0921813], [-8.1982091, 38.0918337]]}, "properties": {"highway": "primary", "maxspeed:backward": "50", "maxspeed:forward": "90", "ref": "EN 259"}}, {"type": "Feature", "geometry": {"type": "LineString", "coordinates": [[-8.2788423, 38.1032589], [-8.2787135, 38.1032701], [-8.2786389, 38.1032729], [-8.2783544, 38.1032633], [-8.2770514, 38.1031495], [-8.2767514, 38.1031257]]}, "properties": {"highway": "primary", "maxspeed:backward": "70", "maxspeed:forward": "90", "ref": "IP 8;EN 259"}}, {"type": "Feature", "geometry": {"type": "LineString", "coordinates": [[-8.3825212, 38.1212146], [-8.3813513, 38.1213844]]}, "properties": {"highway": "primary", "maxspeed:backward": "90", "maxspeed:forward": "70", "ref": "EN 259"}}, {"type": "Feature", "geometry": {"type": "LineString", "coordinates": [[-8.406826, 38.1177233], [-8.4012731, 38.1184932], [-8.3825212, 38.1212146]]}, "properties": {"highway": "primary", "maxspeed": "90", "ref": "EN 259"}}, {"type": "Feature", "geometry": {"type": "LineString", "coordinates": [[-8.3772567, 38.1204326], [-8.3763925, 38.1198666], [-8.3762437, 38.1197711]]}, "properties": {"highway": "primary", "maxspeed:backward": "70", "maxspeed:forward": "90", "ref": "EN 259"}}, {"type": "Feature", "geometry": {"type": "LineString", "coordinates": [[-8.3762437, 38.1197711], [-8.3712382, 38.1165569]]}, "properties": {"highway": "primary", "maxspeed": "90", "ref": "EN 259"}}, {"type": "Feature", "geometry": {"type": "LineString", "coordinates": [[-8.3813513, 38.1213844], [-8.379683, 38.1216265], [-8.3793148, 38.1216305], [-8.3790716, 38.1215814], [-8.378867, 38.1215], [-8.3781608, 38.1210312], [-8.3774364, 38.1205503], [-8.3772567, 38.1204326]]}, "properties": {"highway": "primary", "maxspeed": "50", "ref": "EN 259"}}, {"type": "Feature", "geometry": {"type": "LineString", "coordinates": [[-8.3613544, 38.1142866], [-8.360829, 38.1140276], [-8.360541, 38.1138937], [-8.3599919, 38.113602]]}, "properties": {"highway": "primary", "maxspeed:backward": "50", "maxspeed:forward": "70", "ref": "EN 259"}}, {"type": "Feature", "geometry": {"type": "LineString", "coordinates": [[-8.3555855, 38.1111742], [-8.3551812, 38.1109506], [-8.3546498, 38.1106521]]}, "properties": {"highway": "primary", "maxspeed:backward": "50", "maxspeed:forward": "90", "opening_date": "2025-05-05", "ref": "EN 259"}}, {"type": "Feature", "geometry": {"type": "LineString", "coordinates": [[-8.3546498, 38.1106521], [-8.3544002, 38.1105119], [-8.3541408, 38.1103887], [-8.3538698, 38.1102937]]}, "properties": {"highway": "primary", "maxspeed:backward": "70", "maxspeed:forward": "90", "opening_date": "2025-05-05", "ref": "EN 259"}}, {"type": "Feature", "geometry": {"type": "LineString", "coordinates": [[-8.347333, 38.109577], [-8.3441172, 38.1092965], [-8.3436293, 38.1092537]]}, "properties": {"highway": "primary", "maxspeed:backward": "70", "maxspeed:forward": "90", "opening_date": "2025-05-05", "ref": "EN 259"}}, {"type": "Feature", "geometry": {"type": "LineString", "coordinates": [[-8.3436293, 38.1092537], [-8.337883, 38.10875], [-8.3323395, 38.1082096], [-8.3281737, 38.1077752], [-8.3207942, 38.1070614], [-8.308167, 38.105883], [-8.295667, 38.104833], [-8.2933759, 38.1046051], [-8.2859284, 38.1039609], [-8.2829736, 38.1036818]]}, "properties": {"highway": "primary", "maxspeed": "90", "opening_date": "2025-05-05", "ref": "EN 259"}}, {"type": "Feature", "geometry": {"type": "LineString", "coordinates": [[-8.2829736, 38.1036818], [-8.28169, 38.1035621]]}, "properties": {"highway": "primary", "maxspeed:backward": "90", "maxspeed:forward": "70", "opening_date": "2025-05-05", "ref": "EN 259"}}, {"type": "Feature", "geometry": {"type": "LineString", "coordinates": [[-8.3564572, 38.1116556], [-8.3564201, 38.1116351]]}, "properties": {"highway": "primary", "maxspeed": "50", "name": "Rua do Com\u00e9rcio", "postal_code": "7900-303", "ref": "EN 259"}}, {"type": "Feature", "geometry": {"type": "LineString", "coordinates": [[-8.3564201, 38.1116351], [-8.3563954, 38.1116219], [-8.3555855, 38.1111742]]}, "properties": {"highway": "primary", "maxspeed": "50", "name": "Rua do Com\u00e9rcio", "postal_code": "7900-303", "ref": "EN 259"}}, {"type": "Feature", "geometry": {"type": "LineString", "coordinates": [[-8.214757, 38.0934473], [-8.2148663, 38.093435], [-8.2149555, 38.0934324], [-8.2150737, 38.0934462], [-8.2151759, 38.0934672], [-8.2153048, 38.0934943], [-8.2154235, 38.0935151], [-8.2155087, 38.0935235], [-8.2156258, 38.0935325], [-8.2157303, 38.0935365], [-8.2160585, 38.0935466]]}, "properties": {"highway": "primary", "oneway": "yes", "ref": "IP 8;EN 259"}}, {"type": "Feature", "geometry": {"type": "LineString", "coordinates": [[-8.2133019, 38.0933662], [-8.2135978, 38.0933916], [-8.2137497, 38.0933995], [-8.2138208, 38.0933962], [-8.2139093, 38.0933881], [-8.2140172, 38.0933781], [-8.2141276, 38.0933745], [-8.2142198, 38.0933823], [-8.2142602, 38.0933891], [-8.214313, 38.0934129]]}, "properties": {"highway": "primary", "oneway": "yes", "ref": "EN 259"}}, {"type": "Feature", "geometry": {"type": "LineString", "coordinates": [[-8.2160585, 38.0935466], [-8.2156005, 38.093471], [-8.2153256, 38.0934161], [-8.2151412, 38.0933716], [-8.2150243, 38.0933368], [-8.2149334, 38.0932831], [-8.2148537, 38.0932138]]}, "properties": {"highway": "primary", "oneway": "yes", "ref": "IP 8;EN 259"}}, {"type": "Feature", "geometry": {"type": "LineString", "coordinates": [[-8.2142806, 38.0931614], [-8.214227, 38.0932139], [-8.2141884, 38.0932404], [-8.2141514, 38.0932537], [-8.2140776, 38.0932709], [-8.213996, 38.0932821], [-8.2137914, 38.0933048], [-8.2133019, 38.0933662]]}, "properties": {"highway": "primary", "oneway": "yes", "ref": "EN 259"}}, {"type": "Feature", "geometry": {"type": "LineString", "coordinates": [[-8.1724488, 38.0850756], [-8.1725691, 38.0851265], [-8.1726573, 38.0851693], [-8.1728585, 38.0852808]]}, "properties": {"highway": "primary", "oneway": "yes", "ref": "IP 8;EN 259"}}, {"type": "Feature", "geometry": {"type": "LineString", "coordinates": [[-8.1729046, 38.0849985], [-8.1727721, 38.0850546], [-8.1726947, 38.0850765], [-8.1726009, 38.0850813], [-8.1724488, 38.0850756]]}, "properties": {"highway": "primary", "oneway": "yes", "ref": "IP 8;EN 259"}}, {"type": "Feature", "geometry": {"type": "LineString", "coordinates": [[-8.173379, 38.0858359], [-8.1733928, 38.085695], [-8.1733986, 38.085654], [-8.1734094, 38.0856052], [-8.1734191, 38.0855611]]}, "properties": {"highway": "primary", "maxspeed:backward": "70", "maxspeed:forward": "90", "oneway": "yes", "ref": "EN 259"}}, {"type": "Feature", "geometry": {"type": "LineString", "coordinates": [[-8.1731287, 38.0855337], [-8.1731954, 38.085596], [-8.1732375, 38.0856461], [-8.1732761, 38.0856962], [-8.173379, 38.0858359]]}, "properties": {"highway": "primary", "maxspeed:backward": "90", "maxspeed:forward": "70", "oneway": "yes", "ref": "EN 259"}}, {"type": "Feature", "geometry": {"type": "MultiPolygon", "coordinates": [[[[-8.2803898, 38.1035405], [-8.2803829, 38.1034671], [-8.2803507, 38.103398], [-8.2803115, 38.1033524], [-8.2802611, 38.1033141], [-8.2802107, 38.1032884], [-8.2801554, 38.1032701], [-8.2800967, 38.1032599], [-8.2800367, 38.103258], [-8.2799544, 38.1032693], [-8.2798781, 38.1032961], [-8.2798065, 38.103342], [-8.2797533, 38.1034014], [-8.2797225, 38.1034699], [-8.2797157, 38.1035279], [-8.2797251, 38.1035857], [-8.2797605, 38.1036554], [-8.2798192, 38.1037145], [-8.2799038, 38.1037613], [-8.2800025, 38.1037857], [-8.2800989, 38.1037863], [-8.2801916, 38.1037653], [-8.280273, 38.1037246], [-8.2803137, 38.1036919], [-8.2803466, 38.1036542], [-8.2803708, 38.1036126], [-8.2803898, 38.1035405]]]]}, "properties": {"highway": "primary", "junction": "roundabout", "ref": "IP 8;EN 259"}}, {"type": "Feature", "geometry": {"type": "MultiPolygon", "coordinates": [[[[-8.2148608, 38.0932564], [-8.2148537, 38.0932138], [-8.2148369, 38.0931727], [-8.2148111, 38.0931346], [-8.214777, 38.0931008], [-8.2147358, 38.0930723], [-8.2146887, 38.09305], [-8.2146374, 38.0930348], [-8.2145834, 38.093027], [-8.2145338, 38.0930266], [-8.2144847, 38.0930325], [-8.2144374, 38.0930447], [-8.2143933, 38.0930627], [-8.2143535, 38.093086], [-8.2143123, 38.0931209], [-8.2142806, 38.0931614], [-8.2142608, 38.0932029], [-8.214251, 38.0932465], [-8.2142515, 38.0932908], [-8.2142623, 38.0933342], [-8.214283, 38.0933754], [-8.214313, 38.0934129], [-8.2143507, 38.093445], [-8.214395, 38.0934712], [-8.2144447, 38.0934906], [-8.214498, 38.0935027], [-8.2145533, 38.093507], [-8.2146086, 38.0935034], [-8.2146621, 38.0934919], [-8.2147121, 38.093473], [-8.214757, 38.0934473], [-8.2147946, 38.0934163], [-8.2148246, 38.0933805], [-8.2148461, 38.093341], [-8.2148583, 38.0932992], [-8.2148608, 38.0932564]]]]}, "properties": {"highway": "primary", "junction": "roundabout", "ref": "IP 8;EN 259"}}, {"type": "Feature", "geometry": {"type": "MultiPolygon", "coordinates": [[[[-8.1738142, 38.0851565], [-8.1737978, 38.0850824], [-8.1737632, 38.0850123], [-8.173712, 38.0849489], [-8.1736459, 38.0848945], [-8.1735677, 38.0848514], [-8.1734802, 38.0848211], [-8.1733869, 38.0848049], [-8.1732914, 38.0848034], [-8.1731973, 38.0848166], [-8.1731084, 38.084844], [-8.1730279, 38.0848846], [-8.1729591, 38.0849368], [-8.1729046, 38.0849985], [-8.1728674, 38.0850652], [-8.1728469, 38.0851361], [-8.1728439, 38.0852089], [-8.1728585, 38.0852808], [-8.1728843, 38.0853395], [-8.172922, 38.0853941], [-8.1729703, 38.0854432], [-8.1730281, 38.0854855], [-8.1730765, 38.085512], [-8.1731287, 38.0855337], [-8.1731984, 38.0855536], [-8.1732712, 38.085565], [-8.1733453, 38.0855675], [-8.1734191, 38.0855611], [-8.1734793, 38.0855491], [-8.173537, 38.085531], [-8.1736017, 38.085502], [-8.1736601, 38.0854655], [-8.1737106, 38.0854225], [-8.1737522, 38.0853738], [-8.173791, 38.0853051], [-8.1738119, 38.0852317], [-8.1738142, 38.0851565]]]]}, "properties": {"highway": "primary", "junction": "roundabout", "ref": "IP 8;EN 259"}}]}