{"type": "FeatureCollection", "features": [{"type": "Feature", "geometry": {"type": "LineString", "coordinates": [[-7.6569048, 39.2065898], [-7.6567886, 39.206979], [-7.6567277, 39.207148], [-7.6566458, 39.2073415], [-7.6565706, 39.2074991], [-7.6565124, 39.2076494], [-7.6564921, 39.2077637], [-7.6564852, 39.2079569], [-7.6565022, 39.2084385], [-7.6564928, 39.2087521], [-7.6564806, 39.2089599], [-7.6564645, 39.2091514], [-7.6564191, 39.2096591], [-7.6563357, 39.2106586], [-7.6563054, 39.2109378], [-7.6562849, 39.2110752], [-7.6562247, 39.2112431], [-7.6561407, 39.2114116], [-7.6559754, 39.2117234], [-7.6557412, 39.21216], [-7.6555023, 39.2126055], [-7.6554106, 39.2127858], [-7.6553731, 39.2129073], [-7.6553673, 39.2131147], [-7.6553913, 39.2134932], [-7.6554227, 39.2140506], [-7.6554238, 39.2141981], [-7.6554143, 39.2143378], [-7.6553925, 39.2144302], [-7.6553596, 39.2145015], [-7.6549627, 39.2151594], [-7.6548458, 39.2153976], [-7.6547534, 39.2156083], [-7.6546038, 39.2159808], [-7.6543767, 39.2165876], [-7.6541886, 39.2171577], [-7.6540592, 39.2174868], [-7.6539111, 39.2178458], [-7.6538139, 39.218154], [-7.6537425, 39.2183859], [-7.6537017, 39.2185532], [-7.6536792, 39.2187437], [-7.6536685, 39.2189394], [-7.6536589, 39.2192762], [-7.6536501, 39.2194964], [-7.6536466, 39.219633], [-7.6536259, 39.2197733], [-7.6535995, 39.2199295], [-7.6535693, 39.2200826], [-7.6535092, 39.2203214], [-7.6534441, 39.2205215], [-7.6533965, 39.2206756], [-7.6533713, 39.2208002], [-7.6533547, 39.2209271], [-7.6533493, 39.2210302], [-7.6533383, 39.2212286], [-7.6533357, 39.2213484], [-7.6533333, 39.2215716]]}, "properties": {"highway": "primary", "lanes": "2", "ref": "EN 245", "surface": "asphalt", "wikidata": "Q10269637", "wikipedia": "pt:Lista de estradas nacionais de Portugal"}}, {"type": "Feature", "geometry": {"type": "LineString", "coordinates": [[-7.6228334, 39.4101599], [-7.6228671, 39.4102075], [-7.6229172, 39.4102455], [-7.6229721, 39.4102686], [-7.6230329, 39.4102799], [-7.6230954, 39.4102786], [-7.6231667, 39.4102608], [-7.6232274, 39.4102267], [-7.6232714, 39.4101798], [-7.6232945, 39.4101247], [-7.6232945, 39.4100668], [-7.6232826, 39.4100318], [-7.6232622, 39.4099993], [-7.623217, 39.4099576], [-7.6231581, 39.4099279], [-7.6230906, 39.4099127], [-7.6230202, 39.4099133], [-7.6229533, 39.4099296], [-7.6228954, 39.4099602], [-7.6228515, 39.4100024], [-7.6228253, 39.4100527], [-7.6228191, 39.4101067], [-7.6228334, 39.4101599]]}, "properties": {"highway": "primary", "junction": "roundabout", "lanes": "1", "ref": "EN 245"}}, {"type": "Feature", "geometry": {"type": "LineString", "coordinates": [[-7.6233969, 39.4091723], [-7.6231448, 39.4097051], [-7.6230744, 39.4098237], [-7.6230202, 39.4099133]]}, "properties": {"highway": "primary", "lanes": "1", "oneway": "yes", "ref": "EN 245"}}, {"type": "Feature", "geometry": {"type": "LineString", "coordinates": [[-7.6232622, 39.4099993], [-7.6232289, 39.4099113], [-7.6232177, 39.4098298], [-7.6233969, 39.4091723]]}, "properties": {"highway": "primary", "lanes": "1", "oneway": "yes", "ref": "EN 245"}}, {"type": "Feature", "geometry": {"type": "LineString", "coordinates": [[-7.6214804, 39.4151458], [-7.6215444, 39.4149492], [-7.6216804, 39.4145315], [-7.6217947, 39.4141804], [-7.6221811, 39.4129929], [-7.6222643, 39.412721], [-7.6224139, 39.4122777], [-7.6225889, 39.4116549]]}, "properties": {"highway": "primary", "postal_code": "6050-048", "ref": "EN 245"}}, {"type": "Feature", "geometry": {"type": "LineString", "coordinates": [[-7.6225413, 39.4110704], [-7.6225628, 39.4111026], [-7.6226129, 39.4111457], [-7.6226777, 39.4111747], [-7.6227509, 39.4111868], [-7.6228254, 39.4111808], [-7.6228939, 39.4111573], [-7.6229415, 39.411126], [-7.622977, 39.4110862], [-7.6229979, 39.4110407], [-7.6230023, 39.4109865], [-7.6229862, 39.4109337], [-7.622951, 39.4108867], [-7.6228996, 39.4108497], [-7.6228438, 39.4108277], [-7.6227825, 39.4108177], [-7.62272, 39.4108202], [-7.6226495, 39.4108395], [-7.6225901, 39.4108747], [-7.6225477, 39.4109223], [-7.6225264, 39.4109777], [-7.6225283, 39.4110355], [-7.6225413, 39.4110704]]}, "properties": {"highway": "primary", "junction": "roundabout", "lanes": "1", "ref": "EN 245"}}, {"type": "Feature", "geometry": {"type": "LineString", "coordinates": [[-7.6225628, 39.4111026], [-7.6226152, 39.4112443], [-7.6226194, 39.4113667], [-7.6225889, 39.4116549]]}, "properties": {"highway": "primary", "lanes": "1", "oneway": "yes", "ref": "EN 245"}}, {"type": "Feature", "geometry": {"type": "LineString", "coordinates": [[-7.6225889, 39.4116549], [-7.6227002, 39.4113872], [-7.6227701, 39.4112758], [-7.6228939, 39.4111573]]}, "properties": {"highway": "primary", "lanes": "1", "oneway": "yes", "ref": "EN 245"}}, {"type": "Feature", "geometry": {"type": "LineString", "coordinates": [[-7.6228996, 39.4108497], [-7.6228984, 39.4107042], [-7.6229996, 39.4103941], [-7.6230954, 39.4102786]]}, "properties": {"highway": "primary", "lanes": "1", "oneway": "yes", "ref": "EN 245"}}, {"type": "Feature", "geometry": {"type": "LineString", "coordinates": [[-7.6416507, 39.308624], [-7.6415316, 39.3085927], [-7.6414538, 39.3085491], [-7.6413894, 39.3084951]]}, "properties": {"highway": "primary", "lanes": "1", "lit": "yes", "noname": "yes", "oneway": "yes", "placement": "left_of:1", "ref": "EN 245", "smoothness": "excellent", "source": "Orthophotos of mainland Portugal - 25cm - 2018 (DGT)", "surface": "asphalt"}}, {"type": "Feature", "geometry": {"type": "LineString", "coordinates": [[-7.6452246, 39.3170561], [-7.6448815, 39.3157828], [-7.6444626, 39.3143912], [-7.6441092, 39.3134883]]}, "properties": {"highway": "primary", "ref": "EN 245"}}, {"type": "Feature", "geometry": {"type": "LineString", "coordinates": [[-7.6758803, 38.9506121], [-7.6759092, 38.950606], [-7.675935, 38.9505943], [-7.675956, 38.9505778], [-7.6759686, 38.9505614], [-7.6759764, 38.9505432], [-7.675978, 38.9505131], [-7.6759664, 38.9504844], [-7.6759431, 38.9504603], [-7.6759108, 38.9504437], [-7.675882, 38.9504374], [-7.6758522, 38.950437], [-7.6758232, 38.9504428], [-7.6757972, 38.9504542], [-7.6757733, 38.9504733], [-7.6757579, 38.950497], [-7.6757524, 38.950519], [-7.6757542, 38.9505414], [-7.6757632, 38.9505627], [-7.6757688, 38.9505706], [-7.6757754, 38.9505781], [-7.6757962, 38.9505944], [-7.6758218, 38.950606], [-7.6758504, 38.950612], [-7.6758803, 38.9506121]]}, "properties": {"highway": "primary", "junction": "roundabout", "ref": "EN 245"}}, {"type": "Feature", "geometry": {"type": "LineString", "coordinates": [[-7.6750416, 38.9572551], [-7.6750457, 38.9572313], [-7.6750422, 38.9572075], [-7.6750311, 38.9571851], [-7.6750133, 38.9571656], [-7.6749898, 38.9571501], [-7.6749621, 38.9571398], [-7.6749319, 38.9571351], [-7.6749012, 38.9571364], [-7.6748715, 38.9571439], [-7.6748451, 38.957157], [-7.6748369, 38.9571638], [-7.6748238, 38.9571748], [-7.6748091, 38.9571963], [-7.6748017, 38.95722], [-7.674802, 38.9572423], [-7.674805, 38.9572519], [-7.6748088, 38.9572639], [-7.6748218, 38.9572837], [-7.6748403, 38.9573006], [-7.6748634, 38.9573137], [-7.6748735, 38.957317], [-7.6748896, 38.9573223], [-7.6749178, 38.9573259], [-7.6749462, 38.9573243], [-7.6749724, 38.957318], [-7.6749961, 38.9573073], [-7.6750016, 38.9573033], [-7.6750116, 38.957296], [-7.6750162, 38.9572927], [-7.6750316, 38.957275], [-7.6750416, 38.9572551]]}, "properties": {"highway": "primary", "junction": "roundabout", "name": "Rotunda do Bombeiro", "ref": "EN 245"}}, {"type": "Feature", "geometry": {"type": "LineString", "coordinates": [[-7.6772491, 38.9438276], [-7.6772591, 38.94375], [-7.6773139, 38.9433225], [-7.6771637, 38.9420374], [-7.6756026, 38.939463], [-7.6754524, 38.9393086], [-7.6737304, 38.9385492], [-7.6724912, 38.9381653], [-7.6712741, 38.9374314], [-7.667218, 38.9346778], [-7.6669391, 38.9343682], [-7.666905, 38.9342754], [-7.6668318, 38.9340761], [-7.6668498, 38.9339658], [-7.6668836, 38.9337592], [-7.6671805, 38.9330663], [-7.6672395, 38.9327658], [-7.6672288, 38.9319438], [-7.6671536, 38.9316809], [-7.6659145, 38.9296069], [-7.6655175, 38.9284426], [-7.6654263, 38.9280795], [-7.6654692, 38.9253502], [-7.6655282, 38.9251123], [-7.6677706, 38.9217068], [-7.6678457, 38.9214772], [-7.6678349, 38.9212686], [-7.6677384, 38.9210348], [-7.6675184, 38.9208345], [-7.6672073, 38.9206676], [-7.6643642, 38.9196279], [-7.6640047, 38.9194447], [-7.6636936, 38.9191734], [-7.6634898, 38.918923], [-7.6634039, 38.9186767], [-7.6634415, 38.9182761], [-7.6635219, 38.9180131], [-7.6636829, 38.9177794], [-7.6640584, 38.9175373], [-7.6672266, 38.9159805], [-7.6674736, 38.9157676], [-7.6675774, 38.915538], [-7.6675399, 38.9153001], [-7.6674326, 38.9150956], [-7.6672127, 38.914962], [-7.6636406, 38.9143056], [-7.6635327, 38.9142858], [-7.6632966, 38.9141815], [-7.6630338, 38.9140229], [-7.6628817, 38.9138434], [-7.662742, 38.9135721], [-7.662787, 38.9128708], [-7.6628836, 38.9125536], [-7.6631035, 38.9122239], [-7.6634307, 38.9118774], [-7.6634951, 38.9117021], [-7.6634844, 38.911556], [-7.6633771, 38.9113765], [-7.6621433, 38.9104123], [-7.6619877, 38.9101994], [-7.6619287, 38.9099656], [-7.661977, 38.9097235], [-7.6621433, 38.9094856], [-7.6624598, 38.9092769], [-7.6648094, 38.9082333], [-7.6654639, 38.9079035], [-7.6658769, 38.907603], [-7.6662846, 38.9071939], [-7.666864, 38.9063548], [-7.6672266, 38.9056953], [-7.6675023, 38.9048812], [-7.6676315, 38.904458], [-7.6676489, 38.904401], [-7.6679637, 38.90337], [-7.6679959, 38.9029025], [-7.6679422, 38.9024307], [-7.666639, 38.8972662], [-7.6665739, 38.8970271], [-7.6664778, 38.896759], [-7.6663619, 38.8965489], [-7.6663012, 38.8964652], [-7.6662018, 38.8963281]]}, "properties": {"highway": "primary", "ref": "EN 245"}}, {"type": "Feature", "geometry": {"type": "LineString", "coordinates": [[-7.6748596, 38.9569813], [-7.6748376, 38.9568773], [-7.6747861, 38.9565938], [-7.6747283, 38.9563099], [-7.6746888, 38.9561154], [-7.6746155, 38.9557551], [-7.6744975, 38.9551749]]}, "properties": {"highway": "primary", "name": "Avenida 25 de Abril", "postal_code": "7470-203", "ref": "EN 245"}}, {"type": "Feature", "geometry": {"type": "LineString", "coordinates": [[-7.6501686, 39.0710072], [-7.6502492, 39.0710848], [-7.6503999, 39.0711999], [-7.6508168, 39.071515], [-7.6510648, 39.071742], [-7.6512188, 39.0719399], [-7.6513079, 39.0722297], [-7.6512961, 39.0724541], [-7.6511594, 39.0731128], [-7.6509875, 39.0738533], [-7.6508317, 39.0745243], [-7.6507118, 39.0754352], [-7.6507041, 39.0759325], [-7.6507918, 39.0768226], [-7.6509648, 39.0775364], [-7.6513616, 39.0786917], [-7.6516692, 39.079184], [-7.6519092, 39.0794106], [-7.6522345, 39.0796291], [-7.6532942, 39.0800752], [-7.6536161, 39.0802361], [-7.6539087, 39.0804345], [-7.6541669, 39.080741], [-7.6543447, 39.0810582], [-7.654444, 39.0815113], [-7.6544371, 39.0816223], [-7.654386, 39.081881], [-7.6542796, 39.0822254], [-7.652824, 39.0854143], [-7.6514099, 39.0884917], [-7.6499323, 39.0916913], [-7.6498949, 39.0918385], [-7.6498504, 39.0920133], [-7.6498139, 39.0923605], [-7.6498826, 39.0938228]]}, "properties": {"highway": "primary", "ref": "EN 245"}}, {"type": "Feature", "geometry": {"type": "LineString", "coordinates": [[-7.6550555, 39.1881125], [-7.6550719, 39.1882083], [-7.6550875, 39.188284], [-7.6551123, 39.1883748], [-7.6551549, 39.1885029], [-7.6552222, 39.1887285], [-7.6552561, 39.1888718], [-7.6552859, 39.1890218], [-7.6553158, 39.189431], [-7.6553333, 39.1897652], [-7.655374, 39.1905736], [-7.655387, 39.1907968], [-7.6554421, 39.1917413], [-7.6554684, 39.1922503], [-7.6554877, 39.1926242], [-7.6555302, 39.1936337], [-7.6555453, 39.1937166], [-7.655565, 39.1938035], [-7.6556043, 39.193902], [-7.6556651, 39.1940293]]}, "properties": {"highway": "primary", "maxspeed": "50", "name": "Avenida Padre Jos\u00e9 Agostinho Rodrigues", "postal_code": "7440-014", "ref": "EN 245"}}, {"type": "Feature", "geometry": {"type": "LineString", "coordinates": [[-7.6524093, 39.1384544], [-7.6524203, 39.1386436]]}, "properties": {"bridge": "yes", "highway": "primary", "layer": "1", "ref": "EN 245"}}, {"type": "Feature", "geometry": {"type": "LineString", "coordinates": [[-7.6256452, 38.8673141], [-7.6264061, 38.8678184]]}, "properties": {"highway": "primary", "lanes": "2", "maxspeed": "90", "ref": "EN 245", "source": "Bing"}}, {"type": "Feature", "geometry": {"type": "LineString", "coordinates": [[-7.6264061, 38.8678184], [-7.6279162, 38.8688336], [-7.6284062, 38.8691658], [-7.6284148, 38.8691716], [-7.6293892, 38.869819], [-7.6298958, 38.8701613], [-7.6305174, 38.8705757], [-7.6311132, 38.8710114], [-7.6313811, 38.8712452], [-7.6318677, 38.8717853], [-7.6320379, 38.8719837], [-7.6343161, 38.8746402], [-7.6347948, 38.8752049], [-7.6354616, 38.8759671], [-7.635793, 38.8763806], [-7.6358858, 38.8764731], [-7.6359538, 38.8765302], [-7.6360479, 38.8765881], [-7.6382602, 38.8778602], [-7.638449, 38.8779687], [-7.6390732, 38.8783348], [-7.6391868, 38.8783981], [-7.6394738, 38.8785578], [-7.6398376, 38.878767], [-7.6404571, 38.8791233], [-7.6406902, 38.8792606], [-7.6410434, 38.8794628], [-7.6430426, 38.8806239], [-7.6437408, 38.8810391], [-7.6438654, 38.8811447], [-7.6439807, 38.8812585], [-7.6446919, 38.8822021], [-7.6450038, 38.8826966], [-7.6451896, 38.8829294], [-7.6461666, 38.8842083], [-7.6462822, 38.8843557], [-7.6464276, 38.8844703], [-7.6476127, 38.8852206], [-7.6493018, 38.8862641], [-7.6504819, 38.8870118], [-7.6509259, 38.8872803], [-7.6514804, 38.8876233], [-7.6527189, 38.8883823], [-7.6530927, 38.8886114], [-7.654187, 38.8892755], [-7.6554828, 38.8898678], [-7.6568276, 38.8904386], [-7.6578925, 38.8907415], [-7.6598414, 38.8913058], [-7.6602636, 38.8914551], [-7.6610079, 38.8918603], [-7.6626529, 38.8928394], [-7.6629458, 38.8930897], [-7.6652692, 38.8953831], [-7.6657658, 38.8958674], [-7.6660222, 38.8961266], [-7.6660414, 38.8961481], [-7.6662018, 38.8963281]]}, "properties": {"highway": "primary", "lanes": "2", "maxspeed": "90", "ref": "EN 245"}}, {"type": "Feature", "geometry": {"type": "LineString", "coordinates": [[-7.6452246, 39.3170561], [-7.6455014, 39.3188927], [-7.6456649, 39.3207719], [-7.6459739, 39.3286575], [-7.6460551, 39.3309473], [-7.6462349, 39.3351119], [-7.6462646, 39.3366636], [-7.6461594, 39.3379667], [-7.6460656, 39.3384103], [-7.6457334, 39.3399811], [-7.6454972, 39.3407749], [-7.644447, 39.3439944]]}, "properties": {"highway": "primary", "ref": "EN 245"}}, {"type": "Feature", "geometry": {"type": "LineString", "coordinates": [[-7.6530886, 39.2220057], [-7.6530455, 39.2220642], [-7.653028, 39.2221301], [-7.6530377, 39.2221971], [-7.6530738, 39.2222584], [-7.6531327, 39.2223079], [-7.6532085, 39.2223409], [-7.6532804, 39.2223534], [-7.653354, 39.2223507], [-7.6534241, 39.222333], [-7.6534857, 39.2223017], [-7.6535369, 39.2222558], [-7.6535696, 39.2222006], [-7.6535809, 39.2221406], [-7.6535652, 39.2220688], [-7.6535194, 39.2220051], [-7.6534487, 39.2219571], [-7.6534006, 39.221939], [-7.6533165, 39.2219258], [-7.6532313, 39.2219332], [-7.6531531, 39.2219604], [-7.6530886, 39.2220057]]}, "properties": {"highway": "primary", "junction": "roundabout", "ref": "EN 245", "wikidata": "Q10269637", "wikipedia": "pt:Lista de estradas nacionais de Portugal"}}, {"type": "Feature", "geometry": {"type": "LineString", "coordinates": [[-7.6533977, 39.2236243], [-7.6533523, 39.2236798], [-7.6533306, 39.2237432], [-7.653335, 39.2238101], [-7.6533658, 39.2238727], [-7.6534199, 39.2239249], [-7.6534914, 39.2239614], [-7.6535675, 39.2239786], [-7.6536467, 39.2239785], [-7.6537227, 39.223961], [-7.6537794, 39.2239338], [-7.6538262, 39.223897], [-7.6538602, 39.2238526], [-7.6538827, 39.2237852], [-7.6538762, 39.2237158], [-7.6538414, 39.2236516], [-7.6537852, 39.2236015], [-7.653712, 39.2235671], [-7.6536282, 39.2235516], [-7.6535423, 39.2235568], [-7.6534626, 39.2235821], [-7.6533977, 39.2236243]]}, "properties": {"highway": "primary", "junction": "roundabout", "ref": "EN 245", "wikidata": "Q10269637", "wikipedia": "pt:Lista de estradas nacionais de Portugal"}}, {"type": "Feature", "geometry": {"type": "LineString", "coordinates": [[-7.6532085, 39.2223409], [-7.653315, 39.2224449], [-7.6533537, 39.2225298], [-7.6533777, 39.2226623], [-7.6535053, 39.2233653], [-7.6535076, 39.2234661], [-7.6534626, 39.2235821]]}, "properties": {"highway": "primary", "oneway": "yes", "ref": "EN 245", "wikidata": "Q10269637", "wikipedia": "pt:Lista de estradas nacionais de Portugal"}}, {"type": "Feature", "geometry": {"type": "LineString", "coordinates": [[-7.653712, 39.2235671], [-7.6535855, 39.2234561], [-7.6535533, 39.2233523], [-7.6534123, 39.2225226], [-7.6534114, 39.2224518], [-7.6534857, 39.2223017]]}, "properties": {"highway": "primary", "oneway": "yes", "ref": "EN 245", "wikidata": "Q10269637", "wikipedia": "pt:Lista de estradas nacionais de Portugal"}}, {"type": "Feature", "geometry": {"type": "LineString", "coordinates": [[-7.6703395, 38.983867], [-7.6704967, 38.9834476]]}, "properties": {"bridge": "yes", "highway": "primary", "lanes": "2", "layer": "1", "maxspeed": "90", "ref": "EN 245"}}, {"type": "Feature", "geometry": {"type": "LineString", "coordinates": [[-7.6704967, 38.9834476], [-7.6709231, 38.9823891], [-7.6711406, 38.9818203], [-7.6713534, 38.9812257], [-7.6714296, 38.9810294], [-7.6715065, 38.9808724], [-7.6716318, 38.9806779], [-7.6717786, 38.98049], [-7.6719285, 38.9803482], [-7.6721266, 38.9801881], [-7.6741601, 38.9789101], [-7.6764044, 38.977339], [-7.6765616, 38.9771987], [-7.6767204, 38.9770258], [-7.6768711, 38.9768058], [-7.6776144, 38.9755224], [-7.6780637, 38.9747108], [-7.6782192, 38.9743712], [-7.6782614, 38.9742409], [-7.678283, 38.9740918], [-7.6782771, 38.9737735], [-7.6779199, 38.9720008], [-7.6772701, 38.9688492], [-7.67668, 38.965939], [-7.6765952, 38.9653043], [-7.6763903, 38.9637718], [-7.6763105, 38.9625916], [-7.6763064, 38.962414], [-7.6761302, 38.9620283], [-7.6758089, 38.9612744], [-7.6756702, 38.9608991]]}, "properties": {"highway": "primary", "lanes": "2", "maxspeed": "90", "ref": "EN 245"}}, {"type": "Feature", "geometry": {"type": "LineString", "coordinates": [[-7.6438846, 39.3129358], [-7.6433958, 39.3118139], [-7.6429471, 39.3109203], [-7.6425062, 39.3102364], [-7.6420424, 39.3094743]]}, "properties": {"highway": "primary", "ref": "EN 245"}}, {"type": "Feature", "geometry": {"type": "LineString", "coordinates": [[-7.6392558, 39.3599418], [-7.6381601, 39.3633606], [-7.6365066, 39.3685197], [-7.63597, 39.3700861], [-7.6354805, 39.3717773]]}, "properties": {"highway": "primary", "ref": "EN 245"}}, {"type": "Feature", "geometry": {"type": "LineString", "coordinates": [[-7.6294024, 39.39049], [-7.629346, 39.3907041]]}, "properties": {"bridge": "yes", "highway": "primary", "layer": "1", "ref": "EN 245"}}, {"type": "Feature", "geometry": {"type": "LineString", "coordinates": [[-7.644447, 39.3439944], [-7.644402, 39.3441323]]}, "properties": {"bridge": "yes", "highway": "primary", "layer": "1", "ref": "EN 245"}}, {"type": "Feature", "geometry": {"type": "LineString", "coordinates": [[-7.629346, 39.3907041], [-7.6267053, 39.3988794], [-7.6246521, 39.4052352], [-7.6239108, 39.4075298], [-7.6236557, 39.4084162], [-7.6233969, 39.4091723]]}, "properties": {"highway": "primary", "ref": "EN 245"}}, {"type": "Feature", "geometry": {"type": "LineString", "coordinates": [[-7.6498826, 39.0938228], [-7.6498871, 39.09392]]}, "properties": {"bridge": "yes", "highway": "primary", "layer": "1", "ref": "EN 245", "source": "Bing"}}, {"type": "Feature", "geometry": {"type": "LineString", "coordinates": [[-7.6500319, 39.0970447], [-7.6501241, 39.0992139], [-7.6515252, 39.1225091], [-7.6515265, 39.122536], [-7.6515347, 39.1227021], [-7.6515419, 39.1228414], [-7.6515435, 39.1228702], [-7.6520512, 39.1324467]]}, "properties": {"highway": "primary", "ref": "EN 245"}}, {"type": "Feature", "geometry": {"type": "LineString", "coordinates": [[-7.6214804, 39.4151458], [-7.6214023, 39.4152428], [-7.6213664, 39.4152873]]}, "properties": {"highway": "primary", "oneway": "yes", "ref": "EN 245"}}, {"type": "Feature", "geometry": {"type": "LineString", "coordinates": [[-7.6214773, 39.4153082], [-7.6214804, 39.4151458]]}, "properties": {"highway": "primary", "oneway": "yes", "ref": "EN 245"}}, {"type": "Feature", "geometry": {"type": "LineString", "coordinates": [[-7.6229172, 39.4102455], [-7.6229149, 39.4103869], [-7.6228054, 39.4107062], [-7.62272, 39.4108202]]}, "properties": {"highway": "primary", "lanes": "1", "oneway": "yes", "ref": "EN 245"}}, {"type": "Feature", "geometry": {"type": "LineString", "coordinates": [[-7.674233, 38.9529148], [-7.6743443, 38.9525863], [-7.6744657, 38.952399], [-7.6745829, 38.952252], [-7.6747185, 38.9520819], [-7.6747978, 38.9519893], [-7.6753494, 38.9513453], [-7.6756867, 38.9508133], [-7.675724, 38.9507071]]}, "properties": {"highway": "primary", "name": "Avenida 25 de Abril", "postal_code": "7470-203", "ref": "EN 245"}}, {"type": "Feature", "geometry": {"type": "LineString", "coordinates": [[-7.6299723, 39.2953535], [-7.6294359, 39.2947869], [-7.6226246, 39.2875923]]}, "properties": {"highway": "primary", "lanes": "2", "noname": "yes", "ref": "EN 245", "smoothness": "excellent", "source": "Orthophotos of mainland Portugal - 25cm - 2018 (DGT)", "surface": "asphalt"}}, {"type": "Feature", "geometry": {"type": "LineString", "coordinates": [[-7.6566647, 39.042086], [-7.6566826, 39.0418585], [-7.6567734, 39.0410108], [-7.6568737, 39.0397397], [-7.6571305, 39.0370186], [-7.6571651, 39.0366525], [-7.657394, 39.0341932], [-7.6574314, 39.0339691], [-7.6574774, 39.0337944], [-7.6575458, 39.0336226], [-7.6576505, 39.0334374], [-7.6578417, 39.0331735], [-7.6587684, 39.0320352], [-7.65896, 39.0317618], [-7.6590403, 39.0316169], [-7.6591105, 39.0314289], [-7.65916, 39.0312435], [-7.6591839, 39.0310312], [-7.6591715, 39.0308279], [-7.6588756, 39.0271925], [-7.6588049, 39.0261694], [-7.6588019, 39.0257809]]}, "properties": {"highway": "primary", "lanes": "2", "maxspeed": "90", "ref": "EN 245"}}, {"type": "Feature", "geometry": {"type": "LineString", "coordinates": [[-7.6566016, 39.0429715], [-7.6564601, 39.044332], [-7.6564203, 39.0445059], [-7.6563786, 39.0446581], [-7.6562997, 39.044891], [-7.655555, 39.0465837], [-7.6554703, 39.0467147], [-7.6553751, 39.0468199], [-7.6552846, 39.0469137], [-7.6539603, 39.0481354], [-7.6534673, 39.0485901], [-7.6513312, 39.0499132], [-7.6506864, 39.0503179], [-7.650446, 39.0504978], [-7.6503765, 39.0505684], [-7.6503185, 39.0506344], [-7.6494571, 39.05182], [-7.6490487, 39.0524601], [-7.6487815, 39.052879], [-7.6486441, 39.0530943], [-7.6486202, 39.0531318], [-7.6485996, 39.0531626], [-7.6481108, 39.0538921]]}, "properties": {"highway": "primary", "ref": "EN 245"}}, {"type": "Feature", "geometry": {"type": "LineString", "coordinates": [[-7.6194236, 39.2842027], [-7.6173486, 39.28201]]}, "properties": {"bridge": "yes", "highway": "primary", "lanes": "2", "layer": "1", "noname": "yes", "ref": "EN 245", "smoothness": "excellent", "source": "Orthophotos of mainland Portugal - 25cm - 2018 (DGT)", "surface": "asphalt"}}, {"type": "Feature", "geometry": {"type": "LineString", "coordinates": [[-7.6173486, 39.28201], [-7.6172483, 39.2819026]]}, "properties": {"highway": "primary", "lanes": "2", "noname": "yes", "ref": "EN 245", "smoothness": "excellent", "source": "Orthophotos of mainland Portugal - 25cm - 2018 (DGT)", "surface": "asphalt"}}, {"type": "Feature", "geometry": {"type": "LineString", "coordinates": [[-7.6172483, 39.2819026], [-7.6169432, 39.2815458], [-7.6166837, 39.2812051], [-7.6165343, 39.2809878], [-7.6165019, 39.2808828]]}, "properties": {"fixme": "name", "highway": "primary", "oneway": "yes", "ref": "EN 245", "source": "guess", "wikidata": "Q20746451", "wikipedia": "pt:IC13"}}, {"type": "Feature", "geometry": {"type": "LineString", "coordinates": [[-7.6162134, 39.2810382], [-7.6164225, 39.2811737], [-7.6170466, 39.281744], [-7.6172483, 39.2819026]]}, "properties": {"highway": "primary", "oneway": "yes", "ref": "EN 245"}}, {"type": "Feature", "geometry": {"type": "LineString", "coordinates": [[-7.630834, 39.2962899], [-7.6307914, 39.2962222], [-7.6307684, 39.2961609], [-7.6307615, 39.296097], [-7.6307675, 39.29603]]}, "properties": {"highway": "primary", "lanes": "1", "lit": "yes", "noname": "yes", "oneway": "yes", "placement": "left_of:1", "ref": "EN 245", "smoothness": "excellent", "source": "Orthophotos of mainland Portugal - 25cm - 2018 (DGT)", "surface": "asphalt"}}, {"type": "Feature", "geometry": {"type": "LineString", "coordinates": [[-7.6305036, 39.2961506], [-7.6305948, 39.2961744], [-7.6306763, 39.2962021], [-7.6307435, 39.2962349], [-7.630834, 39.2962899]]}, "properties": {"highway": "primary", "lanes": "1", "lit": "yes", "noname": "yes", "oneway": "yes", "placement": "left_of:1", "ref": "EN 245", "smoothness": "excellent", "source": "Orthophotos of mainland Portugal - 25cm - 2018 (DGT)", "surface": "asphalt"}}, {"type": "Feature", "geometry": {"type": "LineString", "coordinates": [[-7.6301758, 39.2955715], [-7.6302379, 39.2956785], [-7.6302586, 39.2957789], [-7.6302582, 39.2958652]]}, "properties": {"highway": "primary", "lanes": "1", "lit": "yes", "noname": "yes", "oneway": "yes", "placement": "left_of:1", "ref": "EN 245", "smoothness": "excellent", "source": "Orthophotos of mainland Portugal - 25cm - 2018 (DGT)", "surface": "asphalt"}}, {"type": "Feature", "geometry": {"type": "LineString", "coordinates": [[-7.6305257, 39.2957158], [-7.6304012, 39.295682], [-7.6302789, 39.2956369], [-7.6301758, 39.2955715]]}, "properties": {"highway": "primary", "lanes": "1", "lit": "yes", "noname": "yes", "oneway": "yes", "placement": "left_of:1", "ref": "EN 245", "smoothness": "excellent", "source": "Orthophotos of mainland Portugal - 25cm - 2018 (DGT)", "surface": "asphalt"}}, {"type": "Feature", "geometry": {"type": "LineString", "coordinates": [[-7.6588019, 39.0257809], [-7.6588088, 39.0256759]]}, "properties": {"bridge": "yes", "highway": "primary", "lanes": "2", "layer": "1", "maxspeed": "90", "ref": "EN 245"}}, {"type": "Feature", "geometry": {"type": "LineString", "coordinates": [[-7.6588088, 39.0256759], [-7.6588453, 39.0255094], [-7.6589314, 39.0253213], [-7.6590647, 39.0251298], [-7.6592042, 39.0249812], [-7.659404, 39.024827], [-7.6603984, 39.0241174], [-7.6607647, 39.0235326], [-7.6609889, 39.0230612], [-7.6628035, 39.0192742], [-7.6628749, 39.01911], [-7.6629189, 39.0189538], [-7.6629379, 39.0188046], [-7.6629304, 39.0186596], [-7.6628838, 39.0184371], [-7.6620648, 39.0153327], [-7.6620369, 39.0152418], [-7.6619877, 39.0151219], [-7.6619025, 39.014975], [-7.6613736, 39.0144201], [-7.6613002, 39.0143207], [-7.6612457, 39.0142125], [-7.6611984, 39.0140698], [-7.6611788, 39.0138949], [-7.6611956, 39.0137107], [-7.6612259, 39.0135522], [-7.661295, 39.0133789], [-7.6613812, 39.013265], [-7.6616263, 39.0129976], [-7.6642516, 39.0104469], [-7.6644019, 39.010281], [-7.6645301, 39.0101314], [-7.6646296, 39.0099928], [-7.6646981, 39.0098498], [-7.6647592, 39.0096598], [-7.6649522, 39.0090047], [-7.6657601, 39.006502], [-7.6667102, 39.0034497], [-7.6667214, 39.0034129], [-7.6676623, 39.0001859], [-7.6692291, 38.9949496], [-7.6694345, 38.994242], [-7.6694841, 38.9940297], [-7.6695203, 38.9937662], [-7.6695091, 38.9934372], [-7.6694686, 38.9932362], [-7.6693943, 38.9930073], [-7.6690404, 38.9923722], [-7.6688286, 38.9920287], [-7.6686445, 38.9917214], [-7.6685141, 38.9913956], [-7.6684963, 38.9911683], [-7.6684956, 38.9909068], [-7.6686191, 38.9895557], [-7.6687062, 38.9888597], [-7.6687904, 38.9883735], [-7.6688933, 38.9879221], [-7.6691018, 38.9871206], [-7.669246, 38.9866809], [-7.6694002, 38.9862835], [-7.6696175, 38.9857249], [-7.6703395, 38.983867]]}, "properties": {"highway": "primary", "lanes": "2", "maxspeed": "90", "ref": "EN 245"}}, {"type": "Feature", "geometry": {"type": "LineString", "coordinates": [[-7.6416159, 39.3090553], [-7.6416845, 39.3090783], [-7.6417559, 39.3091119], [-7.6418078, 39.3091489], [-7.6418753, 39.3092115]]}, "properties": {"highway": "primary", "lanes": "1", "lit": "yes", "noname": "yes", "oneway": "yes", "placement": "left_of:1", "ref": "EN 245", "smoothness": "excellent", "source": "Orthophotos of mainland Portugal - 25cm - 2018 (DGT)", "surface": "asphalt"}}, {"type": "Feature", "geometry": {"type": "LineString", "coordinates": [[-7.6225398, 39.2874987], [-7.6194236, 39.2842027]]}, "properties": {"highway": "primary", "lanes": "2", "noname": "yes", "ref": "EN 245", "smoothness": "excellent", "source": "Orthophotos of mainland Portugal - 25cm - 2018 (DGT)", "surface": "asphalt"}}, {"type": "Feature", "geometry": {"type": "LineString", "coordinates": [[-7.6226246, 39.2875923], [-7.6225398, 39.2874987]]}, "properties": {"bridge": "yes", "highway": "primary", "lanes": "2", "layer": "1", "noname": "yes", "ref": "EN 245", "smoothness": "excellent", "source": "Orthophotos of mainland Portugal - 25cm - 2018 (DGT)", "surface": "asphalt"}}, {"type": "Feature", "geometry": {"type": "LineString", "coordinates": [[-7.6418753, 39.3092115], [-7.641832, 39.3091385], [-7.6418183, 39.3090868], [-7.6418186, 39.3090472], [-7.6418251, 39.3089873]]}, "properties": {"highway": "primary", "lanes": "1", "lit": "yes", "noname": "yes", "oneway": "yes", "placement": "left_of:1", "ref": "EN 245", "smoothness": "excellent", "source": "Orthophotos of mainland Portugal - 25cm - 2018 (DGT)", "surface": "asphalt"}}, {"type": "Feature", "geometry": {"type": "LineString", "coordinates": [[-7.6411222, 39.3081355], [-7.6406236, 39.3074644], [-7.6403148, 39.3070755], [-7.6400016, 39.3066935], [-7.639667, 39.3063038], [-7.632786, 39.2985004], [-7.6316613, 39.2972267], [-7.631043, 39.2965265]]}, "properties": {"highway": "primary", "lanes": "2", "lit": "no", "noname": "yes", "ref": "EN 245", "smoothness": "excellent", "source": "Orthophotos of mainland Portugal - 25cm - 2018 (DGT)", "surface": "asphalt"}}, {"type": "Feature", "geometry": {"type": "LineString", "coordinates": [[-7.6413894, 39.3084951], [-7.641424, 39.3085659], [-7.6414294, 39.3086344], [-7.6414125, 39.3086956]]}, "properties": {"highway": "primary", "lanes": "1", "lit": "yes", "noname": "yes", "oneway": "yes", "placement": "left_of:1", "ref": "EN 245", "smoothness": "excellent", "source": "Orthophotos of mainland Portugal - 25cm - 2018 (DGT)", "surface": "asphalt"}}, {"type": "Feature", "geometry": {"type": "LineString", "coordinates": [[-7.644402, 39.3441323], [-7.6441108, 39.3450775], [-7.6440038, 39.3453997], [-7.6431423, 39.3479937], [-7.6422456, 39.3507424], [-7.6411081, 39.3542289]]}, "properties": {"highway": "primary", "ref": "EN 245"}}, {"type": "Feature", "geometry": {"type": "LineString", "coordinates": [[-7.6352784, 39.3723996], [-7.6351958, 39.3726486], [-7.6351365, 39.3728321], [-7.6349459, 39.3733497], [-7.6345534, 39.3745715], [-7.6334734, 39.3779331], [-7.6324049, 39.3812586], [-7.6313079, 39.3846761], [-7.6309666, 39.3857294], [-7.6306497, 39.3867024], [-7.6306355, 39.3867461], [-7.6299134, 39.3889633], [-7.6299029, 39.3889955], [-7.6298852, 39.3890496], [-7.6294024, 39.39049]]}, "properties": {"highway": "primary", "ref": "EN 245"}}, {"type": "Feature", "geometry": {"type": "LineString", "coordinates": [[-7.6411081, 39.3542289], [-7.6394835, 39.3592868], [-7.6393558, 39.3597116]]}, "properties": {"highway": "primary", "ref": "EN 245"}}, {"type": "Feature", "geometry": {"type": "LineString", "coordinates": [[-7.6354805, 39.3717773], [-7.6354613, 39.3718343], [-7.6354455, 39.3718809], [-7.6353888, 39.3720563], [-7.6353004, 39.3723382], [-7.6352784, 39.3723996]]}, "properties": {"highway": "primary", "ref": "EN 245"}}, {"type": "Feature", "geometry": {"type": "LineString", "coordinates": [[-7.6551543, 39.1872399], [-7.655168, 39.1871485], [-7.6551699, 39.187058], [-7.6551621, 39.1869233], [-7.6549377, 39.1827485], [-7.6534698, 39.1570954], [-7.6530362, 39.1495148], [-7.6524203, 39.1386436]]}, "properties": {"highway": "primary", "ref": "EN 245"}}, {"type": "Feature", "geometry": {"type": "LineString", "coordinates": [[-7.6551288, 39.1875616], [-7.6551092, 39.1875504], [-7.6550741, 39.1875388], [-7.6550358, 39.1875347], [-7.6549964, 39.1875364], [-7.6549623, 39.1875421], [-7.6549336, 39.187552], [-7.6549102, 39.1875694], [-7.65489, 39.1875908], [-7.654874, 39.1876189], [-7.6548666, 39.1876444], [-7.6548687, 39.1876741], [-7.6548761, 39.187703], [-7.6548921, 39.1877294], [-7.6549187, 39.1877533], [-7.6549506, 39.1877731], [-7.6549868, 39.1877838], [-7.6550294, 39.187788], [-7.6550667, 39.1877855], [-7.6551027, 39.1877768], [-7.6551305, 39.1877632], [-7.6551507, 39.1877434], [-7.6551678, 39.1877203], [-7.6551805, 39.1876939], [-7.6551859, 39.1876642], [-7.6551795, 39.1876337], [-7.6551648, 39.1875993], [-7.6551506, 39.1875805], [-7.6551288, 39.1875616]]}, "properties": {"highway": "primary", "junction": "roundabout", "ref": "EN 245"}}, {"type": "Feature", "geometry": {"type": "LineString", "coordinates": [[-7.6551648, 39.1875993], [-7.6551405, 39.1875365], [-7.6551328, 39.1874902], [-7.655132, 39.1874459], [-7.6551344, 39.1873961], [-7.6551421, 39.1873289], [-7.6551543, 39.1872399]]}, "properties": {"highway": "primary", "oneway": "yes", "ref": "EN 245"}}, {"type": "Feature", "geometry": {"type": "LineString", "coordinates": [[-7.6550555, 39.1881125], [-7.6550653, 39.188003], [-7.6550738, 39.1879377], [-7.6550836, 39.18788], [-7.6551004, 39.1878278], [-7.6551215, 39.1877875], [-7.6551507, 39.1877434]]}, "properties": {"highway": "primary", "oneway": "yes", "ref": "EN 245"}}, {"type": "Feature", "geometry": {"type": "LineString", "coordinates": [[-7.6549187, 39.1877533], [-7.6549658, 39.1878132], [-7.6549881, 39.1878495], [-7.6550035, 39.1878953], [-7.6550148, 39.1879432], [-7.6550246, 39.1879878], [-7.6550386, 39.1880466], [-7.6550555, 39.1881125]]}, "properties": {"highway": "primary", "oneway": "yes", "ref": "EN 245"}}, {"type": "Feature", "geometry": {"type": "LineString", "coordinates": [[-7.6556651, 39.1940293], [-7.6557855, 39.1941974], [-7.6560309, 39.1945386], [-7.6560488, 39.1945635], [-7.656071, 39.1945945], [-7.6561811, 39.1947489], [-7.6563044, 39.1949286]]}, "properties": {"highway": "primary", "maxspeed": "50", "name": "Avenida Padre Jos\u00e9 Agostinho Rodrigues", "postal_code": "7440-014", "ref": "EN 245"}}, {"type": "Feature", "geometry": {"type": "LineString", "coordinates": [[-7.6563044, 39.1949286], [-7.6563496, 39.1950001], [-7.6563648, 39.1950298]]}, "properties": {"highway": "primary", "maxspeed": "50", "name": "Avenida Padre Jos\u00e9 Agostinho Rodrigues", "postal_code": "7440-014", "ref": "EN 245"}}, {"type": "Feature", "geometry": {"type": "LineString", "coordinates": [[-7.6582055, 39.1990706], [-7.6581869, 39.1991395], [-7.658141, 39.1992276], [-7.6581163, 39.1992651], [-7.6580928, 39.1993011], [-7.6580786, 39.1993265], [-7.6580476, 39.1994123], [-7.6580113, 39.1995681], [-7.6579999, 39.199617], [-7.6579774, 39.1997628], [-7.6579327, 39.2003902], [-7.6579251, 39.2005122], [-7.657913, 39.200902], [-7.6578973, 39.2012399]]}, "properties": {"highway": "primary", "maxspeed": "50", "name": "Avenida 25 de Abril", "postal_code": "7440-015", "ref": "EN 245"}}, {"type": "Feature", "geometry": {"type": "LineString", "coordinates": [[-7.602895, 38.8457845], [-7.6034112, 38.8461303], [-7.6040736, 38.8465723], [-7.6044565, 38.8468248], [-7.6046891, 38.8469685], [-7.6049064, 38.8470623], [-7.6053741, 38.8472253], [-7.6055781, 38.8473247], [-7.6066456, 38.8480107], [-7.607407, 38.8485015], [-7.6075859, 38.8485774], [-7.6077974, 38.8486307], [-7.6080713, 38.8486715], [-7.6086581, 38.8487587], [-7.6087913, 38.8488078], [-7.6089489, 38.8488942], [-7.6092112, 38.8490551], [-7.6107593, 38.8500016], [-7.6108502, 38.8500596], [-7.6109059, 38.8501016], [-7.6109708, 38.8501638], [-7.611035, 38.8502858], [-7.6110962, 38.8504427], [-7.6111502, 38.8505811], [-7.6113074, 38.8510305], [-7.6115124, 38.8515474], [-7.6116496, 38.8519095], [-7.6117629, 38.8522338], [-7.6118181, 38.8523626], [-7.6121092, 38.8530421], [-7.6135468, 38.8544583], [-7.6140916, 38.85493], [-7.6156794, 38.8569219], [-7.6169537, 38.8585602], [-7.6180496, 38.8594727], [-7.6181877, 38.8596107], [-7.6182923, 38.8597428], [-7.6183936, 38.8599209], [-7.6185391, 38.860283], [-7.6185464, 38.8603012], [-7.6187396, 38.8607669], [-7.61913, 38.8616567], [-7.619226, 38.8618368], [-7.6195118, 38.8622805], [-7.6198319, 38.8627378], [-7.620023, 38.8629538], [-7.6202776, 38.8631822], [-7.6205061, 38.8633861], [-7.6212401, 38.864031], [-7.6227119, 38.8653248], [-7.6236914, 38.8659932], [-7.6256452, 38.8673141]]}, "properties": {"highway": "primary", "lanes": "2", "maxspeed": "90", "ref": "EN 245", "source": "Bing", "surface": "asphalt"}}, {"type": "Feature", "geometry": {"type": "LineString", "coordinates": [[-7.6501288, 39.0709469], [-7.6501686, 39.0710072]]}, "properties": {"highway": "primary", "ref": "EN 245"}}, {"type": "Feature", "geometry": {"type": "LineString", "coordinates": [[-7.6738458, 38.9530324], [-7.6738361, 38.9530752], [-7.6738455, 38.9531181], [-7.673873, 38.953156], [-7.6739153, 38.9531844], [-7.6739411, 38.9531922], [-7.6739675, 38.9532001], [-7.6740234, 38.9532012], [-7.6740718, 38.9531894], [-7.6741132, 38.9531666], [-7.6741436, 38.953135], [-7.6741601, 38.9530977], [-7.6741611, 38.9530582], [-7.6741464, 38.9530205], [-7.6741176, 38.952988], [-7.6740773, 38.952964], [-7.6740243, 38.9529501], [-7.6739684, 38.9529509], [-7.6739161, 38.9529664], [-7.6738736, 38.9529946], [-7.6738458, 38.9530324]]}, "properties": {"highway": "primary", "junction": "roundabout", "ref": "EN 245"}}, {"type": "Feature", "geometry": {"type": "LineString", "coordinates": [[-7.674233, 38.9529148], [-7.6741574, 38.9529326], [-7.6740773, 38.952964]]}, "properties": {"highway": "primary", "ref": "EN 245"}}, {"type": "Feature", "geometry": {"type": "LineString", "coordinates": [[-7.6744975, 38.9551749], [-7.6744802, 38.955084], [-7.674372, 38.9546011], [-7.6742469, 38.9540291], [-7.6741918, 38.9537774], [-7.6741608, 38.9535989], [-7.674153, 38.9534854], [-7.674146, 38.9533591]]}, "properties": {"highway": "primary", "name": "Avenida 25 de Abril", "postal_code": "7470-203", "ref": "EN 245"}}, {"type": "Feature", "geometry": {"type": "LineString", "coordinates": [[-7.674146, 38.9533591], [-7.6741436, 38.953135]]}, "properties": {"highway": "primary", "oneway": "yes", "ref": "EN 245"}}, {"type": "Feature", "geometry": {"type": "LineString", "coordinates": [[-7.6758299, 38.9503198], [-7.675822, 38.9501965], [-7.6757781, 38.9495117]]}, "properties": {"highway": "primary", "name": "Largo do Convento", "postal_code": "7470-217", "ref": "EN 245"}}, {"type": "Feature", "geometry": {"type": "LineString", "coordinates": [[-7.6757376, 38.9485059], [-7.6762216, 38.9472622], [-7.676527, 38.9465256], [-7.6770134, 38.9454484], [-7.6770725, 38.9452041], [-7.6772491, 38.9438276]]}, "properties": {"highway": "primary", "name": "Avenida de S\u00e3o Jo\u00e3o Nepomuceno", "postal_code": "7470-224", "ref": "EN 245"}}, {"type": "Feature", "geometry": {"type": "LineString", "coordinates": [[-7.6750707, 38.9580511], [-7.675001, 38.9576735], [-7.6749676, 38.9574692]]}, "properties": {"highway": "primary", "lanes": "2", "maxspeed": "90", "ref": "EN 245"}}, {"type": "Feature", "geometry": {"type": "LineString", "coordinates": [[-7.6756702, 38.9608991], [-7.6753432, 38.9594416], [-7.6752303, 38.9589384], [-7.6751319, 38.9583913], [-7.6750707, 38.9580511]]}, "properties": {"highway": "primary", "lanes": "2", "maxspeed": "90", "name": "Alto da Boavista", "ref": "EN 245"}}, {"type": "Feature", "geometry": {"type": "LineString", "coordinates": [[-7.6563648, 39.1950298], [-7.6563926, 39.1950839], [-7.6564161, 39.1951743]]}, "properties": {"highway": "primary", "maxspeed": "50", "name": "Avenida Padre Jos\u00e9 Agostinho Rodrigues", "postal_code": "7440-014", "ref": "EN 245"}}, {"type": "Feature", "geometry": {"type": "LineString", "coordinates": [[-7.6564084, 39.1963237], [-7.6564583, 39.1964478], [-7.6565513, 39.1966719], [-7.6566816, 39.1969152], [-7.6567836, 39.1971035], [-7.6569756, 39.1974268], [-7.6569935, 39.1974546]]}, "properties": {"highway": "primary", "maxspeed": "50", "name": "Avenida Padre Jos\u00e9 Agostinho Rodrigues", "postal_code": "7440-014", "ref": "EN 245"}}, {"type": "Feature", "geometry": {"type": "LineString", "coordinates": [[-7.6757781, 38.9495117], [-7.6757032, 38.9491217], [-7.6756891, 38.9487376], [-7.6757376, 38.9485059]]}, "properties": {"highway": "primary", "name": "Avenida de S\u00e3o Jo\u00e3o Nepomuceno", "ref": "EN 245"}}, {"type": "Feature", "geometry": {"type": "LineString", "coordinates": [[-7.631043, 39.2965265], [-7.630834, 39.2962899]]}, "properties": {"highway": "primary", "lanes": "2", "lit": "yes", "noname": "yes", "ref": "EN 245", "smoothness": "excellent", "source": "Orthophotos of mainland Portugal - 25cm - 2018 (DGT)", "surface": "asphalt"}}, {"type": "Feature", "geometry": {"type": "LineString", "coordinates": [[-7.6301758, 39.2955715], [-7.6299723, 39.2953535]]}, "properties": {"highway": "primary", "lanes": "2", "lit": "yes", "noname": "yes", "ref": "EN 245", "smoothness": "excellent", "source": "Orthophotos of mainland Portugal - 25cm - 2018 (DGT)", "surface": "asphalt"}}, {"type": "Feature", "geometry": {"type": "LineString", "coordinates": [[-7.6413894, 39.3084951], [-7.6411222, 39.3081355]]}, "properties": {"highway": "primary", "lanes": "2", "lit": "yes", "noname": "yes", "ref": "EN 245", "smoothness": "excellent", "source": "Orthophotos of mainland Portugal - 25cm - 2018 (DGT)", "surface": "asphalt"}}, {"type": "Feature", "geometry": {"type": "LineString", "coordinates": [[-7.6420424, 39.3094743], [-7.6418753, 39.3092115]]}, "properties": {"highway": "primary", "lanes": "2", "lit": "yes", "noname": "yes", "ref": "EN 245", "smoothness": "excellent", "source": "Orthophotos of mainland Portugal - 25cm - 2018 (DGT)", "surface": "asphalt"}}, {"type": "Feature", "geometry": {"type": "LineString", "coordinates": [[-7.6520709, 39.1326725], [-7.6522156, 39.1354161], [-7.6524093, 39.1384544]]}, "properties": {"highway": "primary", "ref": "EN 245"}}, {"type": "Feature", "geometry": {"type": "LineString", "coordinates": [[-7.6520512, 39.1324467], [-7.6520709, 39.1326725]]}, "properties": {"bridge": "yes", "highway": "primary", "layer": "1", "ref": "EN 245"}}, {"type": "Feature", "geometry": {"type": "LineString", "coordinates": [[-7.6569935, 39.1974546], [-7.6571015, 39.1976128], [-7.6571505, 39.1976867], [-7.65726, 39.197835], [-7.6573424, 39.1979411], [-7.6574491, 39.1980673], [-7.6576766, 39.1983341], [-7.6576938, 39.198356], [-7.6577644, 39.198446], [-7.6578577, 39.1985358], [-7.6579955, 39.1986489], [-7.6581148, 39.1987591], [-7.658124, 39.1987688], [-7.6581713, 39.1988188], [-7.6581991, 39.1988573], [-7.6582136, 39.1988849], [-7.6582195, 39.1989182]]}, "properties": {"highway": "primary", "maxspeed": "50", "name": "Avenida Doutor Jo\u00e3o Pestana", "postal_code": "7440-013", "ref": "EN 245"}}, {"type": "Feature", "geometry": {"type": "LineString", "coordinates": [[-7.6578973, 39.2012399], [-7.6578838, 39.2013281], [-7.657756, 39.2017749], [-7.6576587, 39.2021673], [-7.6575997, 39.2024072], [-7.657511, 39.2029131], [-7.6574378, 39.2034677], [-7.657323, 39.2042544]]}, "properties": {"highway": "primary", "maxspeed": "50", "name": "Avenida de Alc\u00e1rcova", "postal_code": "7440-011", "ref": "EN 245", "surface": "sett"}}, {"type": "Feature", "geometry": {"type": "LineString", "coordinates": [[-7.6570099, 39.2061962], [-7.6569048, 39.2065898]]}, "properties": {"highway": "primary", "lanes": "2", "ref": "EN 245", "surface": "asphalt", "wikidata": "Q10269637", "wikipedia": "pt:Lista de estradas nacionais de Portugal"}}, {"type": "Feature", "geometry": {"type": "LineString", "coordinates": [[-7.657323, 39.2042544], [-7.6572211, 39.2049032], [-7.6572036, 39.205047], [-7.6571985, 39.2050997], [-7.657166, 39.2053672], [-7.6571121, 39.205716], [-7.6570099, 39.2061962]]}, "properties": {"highway": "primary", "maxspeed": "50", "name": "Avenida de Alc\u00e1rcova", "postal_code": "7440-011", "ref": "EN 245", "surface": "sett", "wikidata": "Q10269637", "wikipedia": "pt:Lista de estradas nacionais de Portugal"}}, {"type": "Feature", "geometry": {"type": "LineString", "coordinates": [[-7.6758299, 38.9503198], [-7.6758074, 38.9504122], [-7.6757972, 38.9504542]]}, "properties": {"highway": "primary", "name": "Largo do Convento", "oneway": "yes", "postal_code": "7470-217", "ref": "EN 245"}}, {"type": "Feature", "geometry": {"type": "LineString", "coordinates": [[-7.675724, 38.9507071], [-7.6758064, 38.9506451], [-7.6758504, 38.950612]]}, "properties": {"highway": "primary", "name": "Avenida 25 de Abril", "oneway": "yes", "postal_code": "7470-203", "ref": "EN 245"}}, {"type": "Feature", "geometry": {"type": "LineString", "coordinates": [[-7.6748735, 38.957317], [-7.6749676, 38.9574692]]}, "properties": {"highway": "primary", "lanes": "2", "maxspeed": "90", "oneway": "yes", "ref": "EN 245"}}, {"type": "Feature", "geometry": {"type": "LineString", "coordinates": [[-7.6748596, 38.9569813], [-7.6748369, 38.9571638]]}, "properties": {"highway": "primary", "name": "Avenida 25 de Abril", "oneway": "yes", "postal_code": "7470-203", "ref": "EN 245"}}, {"type": "Feature", "geometry": {"type": "LineString", "coordinates": [[-7.6749319, 38.9571351], [-7.6748596, 38.9569813]]}, "properties": {"highway": "primary", "name": "Avenida 25 de Abril", "oneway": "yes", "postal_code": "7470-203", "ref": "EN 245"}}, {"type": "Feature", "geometry": {"type": "LineString", "coordinates": [[-7.6749676, 38.9574692], [-7.6750016, 38.9573033]]}, "properties": {"highway": "primary", "lanes": "2", "maxspeed": "90", "oneway": "yes", "ref": "EN 245"}}, {"type": "Feature", "geometry": {"type": "LineString", "coordinates": [[-7.6393558, 39.3597116], [-7.6392558, 39.3599418]]}, "properties": {"highway": "primary", "ref": "EN 245"}}, {"type": "Feature", "geometry": {"type": "LineString", "coordinates": [[-7.6582195, 39.1989182], [-7.6582191, 39.198953], [-7.6582189, 39.1989879], [-7.6582127, 39.1990441], [-7.6582055, 39.1990706]]}, "properties": {"highway": "primary", "maxspeed": "50", "name": "Avenida 25 de Abril", "postal_code": "7440-015", "ref": "EN 245"}}, {"type": "Feature", "geometry": {"type": "LineString", "coordinates": [[-7.6564161, 39.1951743], [-7.6564381, 39.1952698], [-7.6564357, 39.1953689], [-7.6564309, 39.1953983], [-7.6564148, 39.1954986], [-7.6563715, 39.1957307], [-7.6563603, 39.195842], [-7.65636, 39.196061], [-7.6563758, 39.1961801], [-7.6564084, 39.1963237]]}, "properties": {"highway": "primary", "maxspeed": "50", "name": "Avenida Padre Jos\u00e9 Agostinho Rodrigues", "postal_code": "7440-014", "ref": "EN 245"}}, {"type": "Feature", "geometry": {"type": "LineString", "coordinates": [[-7.6498871, 39.09392], [-7.6499387, 39.0950185], [-7.6500129, 39.0965978], [-7.6500283, 39.0969601]]}, "properties": {"highway": "primary", "ref": "EN 245"}}, {"type": "Feature", "geometry": {"type": "LineString", "coordinates": [[-7.6500283, 39.0969601], [-7.6500319, 39.0970447]]}, "properties": {"bridge": "yes", "highway": "primary", "layer": "1", "ref": "EN 245"}}, {"type": "Feature", "geometry": {"type": "MultiPolygon", "coordinates": [[[[-7.6232945, 39.4100668], [-7.6232826, 39.4100318], [-7.6232622, 39.4099993], [-7.623217, 39.4099576], [-7.6231581, 39.4099279], [-7.6230906, 39.4099127], [-7.6230202, 39.4099133], [-7.6229533, 39.4099296], [-7.6228954, 39.4099602], [-7.6228515, 39.4100024], [-7.6228253, 39.4100527], [-7.6228191, 39.4101067], [-7.6228334, 39.4101599], [-7.6228671, 39.4102075], [-7.6229172, 39.4102455], [-7.6229721, 39.4102686], [-7.6230329, 39.4102799], [-7.6230954, 39.4102786], [-7.6231667, 39.4102608], [-7.6232274, 39.4102267], [-7.6232714, 39.4101798], [-7.6232945, 39.4101247], [-7.6232945, 39.4100668]]]]}, "properties": {"highway": "primary", "junction": "roundabout", "lanes": "1", "ref": "EN 245"}}, {"type": "Feature", "geometry": {"type": "MultiPolygon", "coordinates": [[[[-7.6230023, 39.4109865], [-7.6229862, 39.4109337], [-7.622951, 39.4108867], [-7.6228996, 39.4108497], [-7.6228438, 39.4108277], [-7.6227825, 39.4108177], [-7.62272, 39.4108202], [-7.6226495, 39.4108395], [-7.6225901, 39.4108747], [-7.6225477, 39.4109223], [-7.6225264, 39.4109777], [-7.6225283, 39.4110355], [-7.6225413, 39.4110704], [-7.6225628, 39.4111026], [-7.6226129, 39.4111457], [-7.6226777, 39.4111747], [-7.6227509, 39.4111868], [-7.6228254, 39.4111808], [-7.6228939, 39.4111573], [-7.6229415, 39.411126], [-7.622977, 39.4110862], [-7.6229979, 39.4110407], [-7.6230023, 39.4109865]]]]}, "properties": {"highway": "primary", "junction": "roundabout", "lanes": "1", "ref": "EN 245"}}, {"type": "Feature", "geometry": {"type": "MultiPolygon", "coordinates": [[[[-7.675978, 38.9505131], [-7.6759664, 38.9504844], [-7.6759431, 38.9504603], [-7.6759108, 38.9504437], [-7.675882, 38.9504374], [-7.6758522, 38.950437], [-7.6758232, 38.9504428], [-7.6757972, 38.9504542], [-7.6757733, 38.9504733], [-7.6757579, 38.950497], [-7.6757524, 38.950519], [-7.6757542, 38.9505414], [-7.6757632, 38.9505627], [-7.6757688, 38.9505706], [-7.6757754, 38.9505781], [-7.6757962, 38.9505944], [-7.6758218, 38.950606], [-7.6758504, 38.950612], [-7.6758803, 38.9506121], [-7.6759092, 38.950606], [-7.675935, 38.9505943], [-7.675956, 38.9505778], [-7.6759686, 38.9505614], [-7.6759764, 38.9505432], [-7.675978, 38.9505131]]]]}, "properties": {"highway": "primary", "junction": "roundabout", "ref": "EN 245"}}, {"type": "Feature", "geometry": {"type": "MultiPolygon", "coordinates": [[[[-7.6750457, 38.9572313], [-7.6750422, 38.9572075], [-7.6750311, 38.9571851], [-7.6750133, 38.9571656], [-7.6749898, 38.9571501], [-7.6749621, 38.9571398], [-7.6749319, 38.9571351], [-7.6749012, 38.9571364], [-7.6748715, 38.9571439], [-7.6748451, 38.957157], [-7.6748369, 38.9571638], [-7.6748238, 38.9571748], [-7.6748091, 38.9571963], [-7.6748017, 38.95722], [-7.674802, 38.9572423], [-7.674805, 38.9572519], [-7.6748088, 38.9572639], [-7.6748218, 38.9572837], [-7.6748403, 38.9573006], [-7.6748634, 38.9573137], [-7.6748735, 38.957317], [-7.6748896, 38.9573223], [-7.6749178, 38.9573259], [-7.6749462, 38.9573243], [-7.6749724, 38.957318], [-7.6749961, 38.9573073], [-7.6750016, 38.9573033], [-7.6750116, 38.957296], [-7.6750162, 38.9572927], [-7.6750316, 38.957275], [-7.6750416, 38.9572551], [-7.6750457, 38.9572313]]]]}, "properties": {"highway": "primary", "junction": "roundabout", "name": "Rotunda do Bombeiro", "ref": "EN 245"}}, {"type": "Feature", "geometry": {"type": "MultiPolygon", "coordinates": [[[[-7.6535809, 39.2221406], [-7.6535652, 39.2220688], [-7.6535194, 39.2220051], [-7.6534487, 39.2219571], [-7.6534006, 39.221939], [-7.6533165, 39.2219258], [-7.6532313, 39.2219332], [-7.6531531, 39.2219604], [-7.6530886, 39.2220057], [-7.6530455, 39.2220642], [-7.653028, 39.2221301], [-7.6530377, 39.2221971], [-7.6530738, 39.2222584], [-7.6531327, 39.2223079], [-7.6532085, 39.2223409], [-7.6532804, 39.2223534], [-7.653354, 39.2223507], [-7.6534241, 39.222333], [-7.6534857, 39.2223017], [-7.6535369, 39.2222558], [-7.6535696, 39.2222006], [-7.6535809, 39.2221406]]]]}, "properties": {"highway": "primary", "junction": "roundabout", "ref": "EN 245", "wikidata": "Q10269637", "wikipedia": "pt:Lista de estradas nacionais de Portugal"}}, {"type": "Feature", "geometry": {"type": "MultiPolygon", "coordinates": [[[[-7.6538827, 39.2237852], [-7.6538762, 39.2237158], [-7.6538414, 39.2236516], [-7.6537852, 39.2236015], [-7.653712, 39.2235671], [-7.6536282, 39.2235516], [-7.6535423, 39.2235568], [-7.6534626, 39.2235821], [-7.6533977, 39.2236243], [-7.6533523, 39.2236798], [-7.6533306, 39.2237432], [-7.653335, 39.2238101], [-7.6533658, 39.2238727], [-7.6534199, 39.2239249], [-7.6534914, 39.2239614], [-7.6535675, 39.2239786], [-7.6536467, 39.2239785], [-7.6537227, 39.223961], [-7.6537794, 39.2239338], [-7.6538262, 39.223897], [-7.6538602, 39.2238526], [-7.6538827, 39.2237852]]]]}, "properties": {"highway": "primary", "junction": "roundabout", "ref": "EN 245", "wikidata": "Q10269637", "wikipedia": "pt:Lista de estradas nacionais de Portugal"}}, {"type": "Feature", "geometry": {"type": "MultiPolygon", "coordinates": [[[[-7.6551859, 39.1876642], [-7.6551795, 39.1876337], [-7.6551648, 39.1875993], [-7.6551506, 39.1875805], [-7.6551288, 39.1875616], [-7.6551092, 39.1875504], [-7.6550741, 39.1875388], [-7.6550358, 39.1875347], [-7.6549964, 39.1875364], [-7.6549623, 39.1875421], [-7.6549336, 39.187552], [-7.6549102, 39.1875694], [-7.65489, 39.1875908], [-7.654874, 39.1876189], [-7.6548666, 39.1876444], [-7.6548687, 39.1876741], [-7.6548761, 39.187703], [-7.6548921, 39.1877294], [-7.6549187, 39.1877533], [-7.6549506, 39.1877731], [-7.6549868, 39.1877838], [-7.6550294, 39.187788], [-7.6550667, 39.1877855], [-7.6551027, 39.1877768], [-7.6551305, 39.1877632], [-7.6551507, 39.1877434], [-7.6551678, 39.1877203], [-7.6551805, 39.1876939], [-7.6551859, 39.1876642]]]]}, "properties": {"highway": "primary", "junction": "roundabout", "ref": "EN 245"}}, {"type": "Feature", "geometry": {"type": "MultiPolygon", "coordinates": [[[[-7.6741611, 38.9530582], [-7.6741464, 38.9530205], [-7.6741176, 38.952988], [-7.6740773, 38.952964], [-7.6740243, 38.9529501], [-7.6739684, 38.9529509], [-7.6739161, 38.9529664], [-7.6738736, 38.9529946], [-7.6738458, 38.9530324], [-7.6738361, 38.9530752], [-7.6738455, 38.9531181], [-7.673873, 38.953156], [-7.6739153, 38.9531844], [-7.6739411, 38.9531922], [-7.6739675, 38.9532001], [-7.6740234, 38.9532012], [-7.6740718, 38.9531894], [-7.6741132, 38.9531666], [-7.6741436, 38.953135], [-7.6741601, 38.9530977], [-7.6741611, 38.9530582]]]]}, "properties": {"highway": "primary", "junction": "roundabout", "ref": "EN 245"}}]}