{"type": "FeatureCollection", "features": [{"type": "Feature", "geometry": {"type": "Point", "coordinates": [-7.4539038, 40.1083786]}, "properties": {"distance": "0", "highway": "milestone", "ref": "EN 239"}}, {"type": "Feature", "geometry": {"type": "LineString", "coordinates": [[-6.883861, 39.9896866], [-6.88387, 39.9897124], [-6.883884, 39.9897368], [-6.883901, 39.9897575], [-6.8839216, 39.9897762], [-6.8839454, 39.9897926], [-6.883972, 39.9898062], [-6.8840008, 39.9898168], [-6.8840312, 39.9898243], [-6.8840627, 39.9898285], [-6.8840946, 39.9898292], [-6.8841264, 39.9898265], [-6.8841574, 39.9898204], [-6.8842066, 39.9898027], [-6.8842419, 39.9897819], [-6.8842712, 39.9897562], [-6.8842935, 39.9897267], [-6.8843078, 39.9896944], [-6.8843138, 39.9896606], [-6.8843131, 39.9896397], [-6.8843092, 39.989619], [-6.8843028, 39.9896005], [-6.8842938, 39.9895826], [-6.8842824, 39.9895656], [-6.8842686, 39.9895497], [-6.8842525, 39.989535], [-6.8842345, 39.9895217], [-6.8842147, 39.98951], [-6.8841934, 39.9895001], [-6.8841708, 39.989492], [-6.8841471, 39.9894858], [-6.8841227, 39.9894817], [-6.8840979, 39.9894796], [-6.8840729, 39.9894796], [-6.8840158, 39.9894877], [-6.8839921, 39.9894946], [-6.8839695, 39.9895036], [-6.8839484, 39.9895144], [-6.8839289, 39.9895269], [-6.8839115, 39.989541], [-6.8838961, 39.9895565], [-6.8838831, 39.9895732], [-6.8838726, 39.9895909], [-6.8838647, 39.9896094], [-6.8838596, 39.9896285], [-6.8838572, 39.9896479], [-6.8838577, 39.9896673], [-6.883861, 39.9896866]]}, "properties": {"highway": "primary", "junction": "roundabout", "lanes": "2", "old_ref": "EN 240", "ref": "EN 239", "surface": "asphalt"}}, {"type": "Feature", "geometry": {"type": "LineString", "coordinates": [[-7.1830444, 40.046835], [-7.1831038, 40.0468658], [-7.1831743, 40.0468769], [-7.1832448, 40.0468665], [-7.1833049, 40.0468361], [-7.1833451, 40.0467905], [-7.1833595, 40.0467367], [-7.1833459, 40.0466826], [-7.1833062, 40.0466367], [-7.1832466, 40.0466059], [-7.1831762, 40.0465949], [-7.1831056, 40.0466054], [-7.1830457, 40.0466357], [-7.1830055, 40.0466813], [-7.1829912, 40.0467351], [-7.1830048, 40.0467891], [-7.1830444, 40.046835]]}, "properties": {"highway": "primary", "junction": "roundabout", "lanes": "2", "ref": "EN 239;EN 332", "source": "bing", "surface": "asphalt"}}, {"type": "Feature", "geometry": {"type": "LineString", "coordinates": [[-7.2324928, 40.0285714], [-7.2323376, 40.0284899], [-7.2322266, 40.0284842], [-7.2320215, 40.0285551], [-7.2312579, 40.0291812], [-7.2310068, 40.0293095], [-7.2286027, 40.0300268], [-7.2280652, 40.0301072], [-7.2269679, 40.0302214], [-7.2260368, 40.0304381], [-7.2251227, 40.0306189], [-7.224997, 40.0306306], [-7.2248035, 40.0305941], [-7.2235504, 40.0302548], [-7.2233272, 40.0302168], [-7.2230053, 40.030295], [-7.2228318, 40.0303954], [-7.2224342, 40.0308928], [-7.222215, 40.0311459], [-7.2218881, 40.0313797], [-7.2214757, 40.0316301], [-7.221363, 40.0317326], [-7.2212706, 40.0318443], [-7.2209366, 40.0323889], [-7.2191789, 40.0345689], [-7.218674, 40.0351994], [-7.2183725, 40.035486], [-7.2180958, 40.0356644], [-7.2174781, 40.0360035], [-7.2169282, 40.0362565], [-7.2163248, 40.0365035], [-7.2159231, 40.0367257], [-7.2145043, 40.0376221], [-7.2141454, 40.0377802], [-7.2127868, 40.0382804], [-7.2123509, 40.0384813], [-7.2111921, 40.039259], [-7.210637, 40.0396141], [-7.2104547, 40.0396741], [-7.2102789, 40.0397073], [-7.2100625, 40.03972], [-7.2090641, 40.0396719], [-7.2085624, 40.0396573], [-7.2082468, 40.0396877], [-7.2073126, 40.0398613], [-7.2050047, 40.0403648], [-7.2040954, 40.0407979], [-7.203433, 40.0411034], [-7.2027636, 40.0413334], [-7.2008848, 40.0416626], [-7.2004758, 40.0417637], [-7.1958558, 40.0433046], [-7.1944924, 40.0439439], [-7.1924042, 40.0451138], [-7.1918992, 40.0453959], [-7.1915663, 40.0455251], [-7.1912898, 40.0455752], [-7.1910012, 40.0455719], [-7.1867991, 40.0449774]]}, "properties": {"highway": "primary", "lanes": "2", "oneway": "no", "ref": "EN 239", "surface": "asphalt"}}, {"type": "Feature", "geometry": {"type": "LineString", "coordinates": [[-7.1833595, 40.0467367], [-7.1835128, 40.0465546]]}, "properties": {"highway": "primary", "lanes": "1", "oneway": "yes", "ref": "EN 239", "source": "bing", "surface": "asphalt"}}, {"type": "Feature", "geometry": {"type": "LineString", "coordinates": [[-7.1829912, 40.0467351], [-7.1828496, 40.0469009]]}, "properties": {"highway": "primary", "lanes": "1", "oneway": "yes", "ref": "EN 239", "source": "bing", "surface": "asphalt"}}, {"type": "Feature", "geometry": {"type": "LineString", "coordinates": [[-6.8835068, 39.9894135], [-6.8830214, 39.9892254], [-6.8825418, 39.9890673], [-6.8823215, 39.9890074], [-6.8820928, 39.9889455], [-6.8818363, 39.9888899], [-6.8816355, 39.9888451], [-6.8813929, 39.9888066], [-6.8810415, 39.988751], [-6.8797946, 39.9885374]]}, "properties": {"highway": "primary", "lanes": "2", "oneway": "no", "ref": "EN 239", "source": "PNOA", "surface": "asphalt"}}, {"type": "Feature", "geometry": {"type": "LineString", "coordinates": [[-6.8797946, 39.9885374], [-6.8793809, 39.9884638]]}, "properties": {"bridge": "yes", "highway": "primary", "lanes": "2", "layer": "1", "oneway": "no", "ref": "EN 239", "source": "PNOA", "surface": "asphalt"}}, {"type": "Feature", "geometry": {"type": "LineString", "coordinates": [[-7.4539621, 40.1083977], [-7.4539038, 40.1083786], [-7.4538079, 40.1083471], [-7.4537293, 40.1083523], [-7.4536254, 40.1083592], [-7.4534805, 40.1083988], [-7.4531284, 40.1085384], [-7.4529415, 40.1086013], [-7.4527798, 40.1086174], [-7.4509164, 40.108589], [-7.4506163, 40.1086036], [-7.449114, 40.1087695], [-7.4487921, 40.1088383], [-7.4484783, 40.1089624], [-7.4483188, 40.1090343], [-7.447518, 40.1093952], [-7.4473563, 40.1094439], [-7.4471962, 40.1094588], [-7.4469672, 40.1094327], [-7.4463697, 40.1093087], [-7.4459141, 40.1092331], [-7.4454493, 40.1092194], [-7.4444952, 40.109229], [-7.4443995, 40.1092477], [-7.444275, 40.1092719], [-7.4432802, 40.1098609], [-7.4430608, 40.1099068], [-7.442599, 40.1099266], [-7.4423978, 40.1099409], [-7.4421992, 40.1099881], [-7.4411686, 40.1104012], [-7.4411446, 40.1104108], [-7.4407339, 40.1105733], [-7.4402811, 40.1107525], [-7.4402107, 40.1107762], [-7.4398281, 40.110905], [-7.4387714, 40.1110035], [-7.4384095, 40.1110643], [-7.4379506, 40.111184], [-7.4375818, 40.1112507], [-7.4374213, 40.1112636], [-7.4372626, 40.1112774], [-7.4371178, 40.1112701], [-7.4370022, 40.1112344], [-7.4369016, 40.1111912], [-7.4368095, 40.1111516], [-7.4367282, 40.1111116], [-7.4366623, 40.1110822], [-7.4365964, 40.1110528], [-7.4365285, 40.1110368], [-7.4364606, 40.1110209], [-7.4363953, 40.111016], [-7.4358665, 40.1110293]]}, "properties": {"destination:forward": "Vale dos Prazeres;Orca;Monsanto;Monfortinho", "highway": "primary", "lanes": "2", "oneway": "no", "ref": "EN 239", "source": "Bing", "surface": "asphalt"}}, {"type": "Feature", "geometry": {"type": "LineString", "coordinates": [[-7.3401655, 40.036809], [-7.3400206, 40.0367823], [-7.3398838, 40.0368152], [-7.3397728, 40.0368691], [-7.3395811, 40.0370493], [-7.3393822, 40.0371458], [-7.339228, 40.0371891], [-7.3390561, 40.0372111], [-7.3388829, 40.0372159], [-7.3386602, 40.0372012], [-7.3356853, 40.0367036], [-7.3354335, 40.0366189], [-7.3352003, 40.0365056], [-7.3347621, 40.0362789]]}, "properties": {"highway": "primary", "lanes": "2", "oneway": "no", "ref": "EN 239", "source": "Bing", "surface": "asphalt"}}, {"type": "Feature", "geometry": {"type": "LineString", "coordinates": [[-7.3409272, 40.0371212], [-7.3401655, 40.036809]]}, "properties": {"bridge": "yes", "highway": "primary", "layer": "1", "narrow": "yes", "oneway": "no", "ref": "EN 239", "source": "Bing", "surface": "asphalt"}}, {"type": "Feature", "geometry": {"type": "LineString", "coordinates": [[-7.3542524, 40.0483881], [-7.3460958, 40.0425013], [-7.3456452, 40.0421954], [-7.3454414, 40.0420999], [-7.345233, 40.0420401], [-7.3450712, 40.0419674], [-7.3449398, 40.0418483], [-7.344848, 40.041686], [-7.3447762, 40.0414931], [-7.3447581, 40.041093], [-7.3447165, 40.0409184], [-7.3443171, 40.0402074], [-7.3442696, 40.0401086], [-7.3442408, 40.0400062], [-7.344241, 40.039868], [-7.3442692, 40.0397333], [-7.3444803, 40.0387953]]}, "properties": {"highway": "primary", "lanes": "2", "oneway": "no", "ref": "EN 239", "source": "Bing", "surface": "asphalt"}}, {"type": "Feature", "geometry": {"type": "LineString", "coordinates": [[-7.3702077, 40.0521878], [-7.3701863, 40.0521252], [-7.3701521, 40.0520252], [-7.3701064, 40.0519337], [-7.3700573, 40.0518559], [-7.3700061, 40.0517857], [-7.3699567, 40.0517334], [-7.3699071, 40.0516807], [-7.3698621, 40.0516352], [-7.3698209, 40.0515987], [-7.3697667, 40.0515508], [-7.369708, 40.0515041], [-7.3693627, 40.0513158]]}, "properties": {"access": "yes", "bicycle": "yes", "destination:backward": "Fund\u00e3o", "highway": "primary", "lanes": "2", "maxspeed": "50", "name": "Rua Engenheiro Lopes Galv\u00e3o", "oneway": "no", "ref": "EN 239", "source": "Bing", "surface": "asphalt"}}, {"type": "Feature", "geometry": {"type": "LineString", "coordinates": [[-7.1828496, 40.0469009], [-7.1830181, 40.0468758], [-7.1831038, 40.0468658]]}, "properties": {"highway": "primary", "lanes": "1", "oneway": "yes", "ref": "EN 239", "source": "bing", "surface": "asphalt"}}, {"type": "Feature", "geometry": {"type": "LineString", "coordinates": [[-7.1835128, 40.0465546], [-7.1833033, 40.046595], [-7.1832466, 40.0466059]]}, "properties": {"highway": "primary", "lanes": "1", "oneway": "yes", "ref": "EN 239", "source": "bing", "surface": "asphalt"}}, {"type": "Feature", "geometry": {"type": "LineString", "coordinates": [[-7.2966996, 40.0221816], [-7.294228, 40.0221094], [-7.2925596, 40.0220701], [-7.2906532, 40.0220234], [-7.2901081, 40.0219638], [-7.2896554, 40.0218806], [-7.2876942, 40.0213702], [-7.2859015, 40.0208888], [-7.2849903, 40.0206664], [-7.2846657, 40.0206041], [-7.2843848, 40.020586], [-7.2840088, 40.0206052], [-7.283404, 40.0207032], [-7.282336, 40.020937], [-7.2797802, 40.0214854], [-7.27745, 40.0219854], [-7.2732033, 40.0229017], [-7.2726713, 40.0229558], [-7.272151, 40.0229497], [-7.2713041, 40.022872], [-7.2709781, 40.0228421], [-7.2705652, 40.0228191], [-7.2703208, 40.0228219], [-7.2700311, 40.0228432], [-7.26966, 40.0228985], [-7.2671268, 40.0236337], [-7.2666802, 40.0236942], [-7.2663198, 40.0236799], [-7.2660451, 40.0236488], [-7.2651743, 40.0234954], [-7.2610081, 40.0226168]]}, "properties": {"highway": "primary", "lanes": "2", "oneway": "no", "ref": "EN 239", "surface": "asphalt"}}, {"type": "Feature", "geometry": {"type": "LineString", "coordinates": [[-7.2328458, 40.0287692], [-7.2324928, 40.0285714]]}, "properties": {"bridge": "yes", "highway": "primary", "layer": "1", "narrow": "yes", "oneway": "no", "ref": "EN 239", "surface": "asphalt"}}, {"type": "Feature", "geometry": {"type": "LineString", "coordinates": [[-7.2389528, 40.0285174], [-7.2388801, 40.0285504], [-7.238475, 40.0286393], [-7.2356388, 40.0290624]]}, "properties": {"highway": "primary", "lanes": "2", "maxspeed": "50", "oneway": "no", "ref": "EN 239", "surface": "asphalt"}}, {"type": "Feature", "geometry": {"type": "LineString", "coordinates": [[-6.884588, 39.9898599], [-6.8852035, 39.990109], [-6.8863342, 39.9905623], [-6.8865844, 39.990666], [-6.8869794, 39.9908297], [-6.8883395, 39.9913772], [-6.888687, 39.9915427], [-6.8889788, 39.9917329], [-6.8892453, 39.9919288], [-6.8895483, 39.9922346], [-6.889724, 39.9924706], [-6.8898496, 39.9926762], [-6.8899686, 39.9928999], [-6.8910335, 39.99504], [-6.8924732, 39.9979289], [-6.8930185, 39.9990231], [-6.89342, 39.9998195], [-6.8937156, 40.0004307], [-6.8938548, 40.00069], [-6.8939809, 40.0008411], [-6.8941559, 40.0009719], [-6.8943525, 40.00106], [-6.8946057, 40.0011253], [-6.894875, 40.0011552], [-6.895072, 40.0011392], [-6.8951839, 40.0011301], [-6.8970823, 40.000572], [-6.8972453, 40.0005513], [-6.8974436, 40.0005467], [-6.8976661, 40.0005975], [-6.8978755, 40.0006688], [-6.8980792, 40.0007844], [-6.8983222, 40.0010084], [-6.8985691, 40.0014489], [-6.8987554, 40.0017466], [-6.89891, 40.0018917], [-6.8990861, 40.0019964], [-6.8993237, 40.0021031], [-6.8996814, 40.0021509], [-6.8998795, 40.0021515], [-6.9001333, 40.0021198], [-6.9027844, 40.0016292], [-6.903074, 40.0015838], [-6.9033328, 40.0015791], [-6.903595, 40.001609], [-6.9038106, 40.0016612], [-6.9039961, 40.0017297], [-6.9042446, 40.0018442], [-6.904425, 40.0019639], [-6.9045746, 40.0020997], [-6.9046739, 40.0022271], [-6.9047597, 40.0023668], [-6.9048479, 40.002568], [-6.9049897, 40.0030028], [-6.9053117, 40.0039999], [-6.9053332, 40.0041192], [-6.9053337, 40.0042591], [-6.9053206, 40.0043923], [-6.9052966, 40.0044942], [-6.9052442, 40.0046462], [-6.9051233, 40.0049304], [-6.9050226, 40.0052001], [-6.9049794, 40.00535], [-6.9049796, 40.0054877], [-6.9050138, 40.0056663], [-6.9050711, 40.0057998], [-6.905162, 40.0059335], [-6.905275, 40.0060488], [-6.9054231, 40.0061465], [-6.9055489, 40.006216], [-6.905783, 40.0063043], [-6.905972, 40.0063596], [-6.9064829, 40.0064773], [-6.9066909, 40.0065067], [-6.9069025, 40.0065233], [-6.9071071, 40.006528], [-6.9073092, 40.0065117], [-6.9075841, 40.0064718], [-6.9083699, 40.0063157], [-6.9104359, 40.0058854], [-6.9105976, 40.0058528], [-6.9108678, 40.005794], [-6.9111774, 40.0057524], [-6.9114134, 40.0057214], [-6.9122815, 40.0056794], [-6.9133816, 40.0056566], [-6.9135366, 40.005673], [-6.9141709, 40.0057833], [-6.914646, 40.005876], [-6.9148904, 40.0058976], [-6.9150863, 40.0059013], [-6.9153289, 40.0058822], [-6.9155308, 40.0058479], [-6.9157742, 40.0057918], [-6.9160429, 40.0057145], [-6.9163679, 40.005604], [-6.9166958, 40.0054925], [-6.9169838, 40.0054343], [-6.9171446, 40.0054145], [-6.9173593, 40.0054055], [-6.917594, 40.0054107], [-6.9182353, 40.00544], [-6.9183311, 40.0054403], [-6.9184303, 40.0054377], [-6.9185449, 40.0054281], [-6.9187278, 40.0054083], [-6.9202828, 40.005195], [-6.9206061, 40.0051614], [-6.9209867, 40.0051626], [-6.9217424, 40.0052345], [-6.9232931, 40.0054584], [-6.9237446, 40.0055414], [-6.9243915, 40.0056199], [-6.9248865, 40.0056594], [-6.9253444, 40.0056612], [-6.9259658, 40.005611], [-6.9264906, 40.0055278], [-6.9273011, 40.0054049], [-6.9280158, 40.005334], [-6.9284872, 40.005319], [-6.9286318, 40.0053144], [-6.9290976, 40.0053297], [-6.9296802, 40.0053875], [-6.930266, 40.0054783], [-6.9334126, 40.0060819], [-6.9351038, 40.0064139], [-6.9365279, 40.0066493], [-6.9399116, 40.0071073], [-6.9428504, 40.007505], [-6.9446675, 40.0077855], [-6.9455451, 40.0079466], [-6.9466264, 40.0081755], [-6.9475168, 40.0083781], [-6.9476084, 40.0084029], [-6.9486559, 40.0086867], [-6.9496729, 40.008995], [-6.949992, 40.0090917], [-6.9508139, 40.0093409], [-6.9521756, 40.0098469], [-6.9536303, 40.0104234], [-6.953942, 40.0105539], [-6.9552179, 40.0111113], [-6.9565413, 40.0117633], [-6.9573924, 40.0122078], [-6.9612121, 40.0141404], [-6.9620244, 40.0145391], [-6.9629635, 40.0149306], [-6.9640903, 40.0153477], [-6.9652031, 40.0157], [-6.9663697, 40.016008], [-6.967308, 40.0162265], [-6.968299, 40.0164151], [-6.9690427, 40.0165377], [-6.9698463, 40.0166416], [-6.9706964, 40.016718], [-6.9715419, 40.0167655], [-6.9726332, 40.0168217], [-6.9740383, 40.0169193], [-6.9750708, 40.0170525], [-6.9761417, 40.0172161], [-6.9770686, 40.0173952], [-6.9780723, 40.0176274], [-6.9799202, 40.0180425], [-6.9844403, 40.0190635]]}, "properties": {"highway": "primary", "lanes": "2", "oneway": "no", "ref": "EN 239", "surface": "asphalt"}}, {"type": "Feature", "geometry": {"type": "LineString", "coordinates": [[-7.1678173, 40.047134], [-7.1686088, 40.0468682], [-7.1690251, 40.0467607], [-7.1692516, 40.0467595], [-7.1694901, 40.0467853], [-7.1701237, 40.0469859]]}, "properties": {"highway": "primary", "lanes": "2", "oneway": "no", "overtaking": "no", "ref": "EN 239", "surface": "asphalt"}}, {"type": "Feature", "geometry": {"type": "LineString", "coordinates": [[-7.1701237, 40.0469859], [-7.1712209, 40.0473429], [-7.1716126, 40.0474354], [-7.1720247, 40.0474968], [-7.1742189, 40.0477906], [-7.1743823, 40.0478108], [-7.1766675, 40.0480931], [-7.1770871, 40.0481244], [-7.1772026, 40.0481316], [-7.1773458, 40.0481406]]}, "properties": {"highway": "primary", "lanes": "2", "oneway": "no", "ref": "EN 239", "surface": "asphalt"}}, {"type": "Feature", "geometry": {"type": "LineString", "coordinates": [[-7.1268857, 40.0519628], [-7.1270943, 40.0519228], [-7.1318202, 40.0511456], [-7.132092, 40.0510877]]}, "properties": {"highway": "primary", "lanes": "2", "oneway": "no", "ref": "EN 239", "surface": "asphalt"}}, {"type": "Feature", "geometry": {"type": "LineString", "coordinates": [[-7.1630228, 40.0474559], [-7.1640798, 40.0478757], [-7.1642153, 40.0479236], [-7.1643588, 40.0479622], [-7.1645108, 40.0479768], [-7.1647191, 40.0479712], [-7.1653264, 40.0479264], [-7.1655941, 40.0478769], [-7.1668334, 40.0474679]]}, "properties": {"highway": "primary", "lanes": "2", "oneway": "no", "overtaking": "no", "ref": "EN 239", "surface": "asphalt"}}, {"type": "Feature", "geometry": {"type": "LineString", "coordinates": [[-7.1668334, 40.0474679], [-7.1678173, 40.047134]]}, "properties": {"highway": "primary", "lanes": "2", "oneway": "no", "ref": "EN 239", "surface": "asphalt"}}, {"type": "Feature", "geometry": {"type": "LineString", "coordinates": [[-7.1247742, 40.0524162], [-7.1257666, 40.0521774], [-7.1268857, 40.0519628]]}, "properties": {"highway": "primary", "lanes": "2", "oneway": "no", "overtaking": "no", "ref": "EN 239", "surface": "asphalt"}}, {"type": "Feature", "geometry": {"type": "LineString", "coordinates": [[-7.1420062, 40.0502975], [-7.1424523, 40.0504985], [-7.1428443, 40.0506702], [-7.1431967, 40.050777], [-7.1435282, 40.0507704], [-7.147672, 40.0504007], [-7.1478924, 40.0503549], [-7.1481522, 40.0502806], [-7.1497477, 40.0497757], [-7.1500131, 40.0496816], [-7.1501991, 40.049577], [-7.152201, 40.0481334], [-7.1526425, 40.0478615], [-7.1531444, 40.0476211], [-7.1542459, 40.0471585], [-7.1544681, 40.0470822], [-7.1547611, 40.0470081], [-7.1564496, 40.0466836], [-7.1582288, 40.0463446], [-7.158566, 40.0462934]]}, "properties": {"highway": "primary", "lanes": "2", "oneway": "no", "ref": "EN 239", "surface": "asphalt"}}, {"type": "Feature", "geometry": {"type": "LineString", "coordinates": [[-7.132092, 40.0510877], [-7.1329649, 40.0508678], [-7.1332204, 40.0507804], [-7.1337089, 40.0505561], [-7.1343383, 40.0502709], [-7.1344971, 40.050218], [-7.1364763, 40.0498526], [-7.1391981, 40.0498318]]}, "properties": {"highway": "primary", "lanes": "2", "oneway": "no", "overtaking": "no", "ref": "EN 239", "surface": "asphalt"}}, {"type": "Feature", "geometry": {"type": "LineString", "coordinates": [[-7.0172835, 40.0358622], [-7.0187703, 40.0357555], [-7.0192594, 40.0357475], [-7.0197291, 40.0357881], [-7.0202635, 40.0358542], [-7.0207645, 40.0359567], [-7.0211902, 40.0360753], [-7.0214081, 40.0361512], [-7.0216469, 40.0362345], [-7.0217814, 40.0362851], [-7.0223548, 40.0365401], [-7.0224643, 40.036606], [-7.0228016, 40.0368091], [-7.0228985, 40.0368674], [-7.0229578, 40.0369119], [-7.0234044, 40.0372474], [-7.0235225, 40.037363], [-7.0237667, 40.0376058], [-7.0244668, 40.0383488], [-7.0245198, 40.0384072], [-7.0247822, 40.0386869], [-7.0261436, 40.0401382], [-7.0266636, 40.0406802], [-7.0271708, 40.0411753], [-7.0273162, 40.041295], [-7.0275382, 40.0414779], [-7.0280776, 40.0418573], [-7.028555, 40.0421253], [-7.0295964, 40.0426727], [-7.0302711, 40.0429592], [-7.0304838, 40.0430211], [-7.0308952, 40.0431368], [-7.0316956, 40.0433372], [-7.0339052, 40.0438485], [-7.0369899, 40.0445622], [-7.0389005, 40.0450012], [-7.0393315, 40.0451421], [-7.0398489, 40.0453741], [-7.040191, 40.0455752], [-7.0406902, 40.0459577], [-7.0410382, 40.0462244], [-7.0421635, 40.0471084], [-7.0427691, 40.0475842], [-7.0433425, 40.0480346], [-7.0443481, 40.0488282], [-7.0447619, 40.0491547], [-7.0451563, 40.0493851], [-7.0452283, 40.0494201], [-7.0454192, 40.0495128], [-7.0457782, 40.0496309], [-7.0462768, 40.0497433], [-7.047454, 40.0499138], [-7.0480338, 40.0500369], [-7.0484883, 40.0501744], [-7.048907, 40.0503443], [-7.0492699, 40.050551], [-7.0503717, 40.0513265], [-7.0508045, 40.0516151], [-7.0508962, 40.0516672], [-7.0511641, 40.0518192], [-7.0515661, 40.0519864], [-7.0518707, 40.0520894], [-7.0522198, 40.0521816], [-7.0551472, 40.0529215], [-7.0571222, 40.0534207], [-7.0577743, 40.0535359], [-7.0582496, 40.053598], [-7.0588751, 40.0536641], [-7.0617681, 40.0539407], [-7.0621729, 40.0539872], [-7.0626508, 40.0540568], [-7.0630827, 40.0541597], [-7.063535, 40.0542825], [-7.06478, 40.0546667], [-7.0677308, 40.055589], [-7.0695429, 40.0561562], [-7.0709925, 40.0566099], [-7.073697, 40.0574564], [-7.0764785, 40.0582919], [-7.0767533, 40.0583596], [-7.0770831, 40.0584212], [-7.0774476, 40.058468], [-7.0780295, 40.0584908], [-7.0784947, 40.0584759], [-7.0800216, 40.0584477], [-7.0819456, 40.0584202], [-7.0822615, 40.0583935], [-7.0824913, 40.0583612], [-7.0828001, 40.0583047], [-7.0843576, 40.0579223], [-7.0886557, 40.0569065], [-7.0894388, 40.0566939], [-7.0899021, 40.0565205], [-7.0901704, 40.0563939], [-7.0913021, 40.0558094], [-7.0920347, 40.055431], [-7.0941279, 40.05435], [-7.0944368, 40.0542414], [-7.0945993, 40.0542002], [-7.094654, 40.0541863], [-7.0950587, 40.0541155], [-7.0961848, 40.054081], [-7.0985217, 40.0540093], [-7.0987459, 40.0540184], [-7.0990304, 40.0540668], [-7.0993556, 40.0541644], [-7.1020285, 40.0552676], [-7.1023224, 40.0553449], [-7.1025937, 40.0553738], [-7.1028301, 40.0553752], [-7.1031767, 40.0553288], [-7.1047539, 40.055027], [-7.1051627, 40.0548978], [-7.1052685, 40.0548604], [-7.1053718, 40.0548238], [-7.1075487, 40.0539625], [-7.1081474, 40.0537482], [-7.108662, 40.0536154], [-7.1098267, 40.053429], [-7.1099914, 40.0534027], [-7.1101474, 40.0533777], [-7.1102895, 40.053355], [-7.1104177, 40.0533345], [-7.1105434, 40.0533144], [-7.1106421, 40.0532986], [-7.1107579, 40.05328], [-7.1108453, 40.053266], [-7.1109103, 40.0532556], [-7.1109735, 40.0532455], [-7.1110354, 40.0532356], [-7.1111887, 40.053213], [-7.1114028, 40.0531814], [-7.1115238, 40.0531718], [-7.1116325, 40.0531647], [-7.1117139, 40.0531616], [-7.1117921, 40.0531586], [-7.111868, 40.0531556], [-7.1119566, 40.0531522], [-7.1120595, 40.0531482], [-7.1121692, 40.053144], [-7.1122893, 40.0531393], [-7.1124238, 40.0531341], [-7.1125751, 40.0531283], [-7.1127263, 40.0531224], [-7.1128943, 40.0531166], [-7.1141437, 40.0530668], [-7.1151132, 40.05303], [-7.1153955, 40.0530249], [-7.1156426, 40.0530353], [-7.1159146, 40.0530584], [-7.1161761, 40.0530999], [-7.1164564, 40.0531558], [-7.1172898, 40.0533452], [-7.1179809, 40.0534379], [-7.1182839, 40.0534439], [-7.1185838, 40.0534498], [-7.1188481, 40.0534328], [-7.1200658, 40.053291]]}, "properties": {"highway": "primary", "lanes": "2", "oneway": "no", "ref": "EN 239", "surface": "asphalt"}}, {"type": "Feature", "geometry": {"type": "LineString", "coordinates": [[-7.0168735, 40.0358751], [-7.0172835, 40.0358622]]}, "properties": {"bridge": "yes", "highway": "primary", "lanes": "2", "layer": "1", "oneway": "no", "ref": "EN 239", "surface": "asphalt"}}, {"type": "Feature", "geometry": {"type": "LineString", "coordinates": [[-7.1397491, 40.0498298], [-7.1402618, 40.0498258]]}, "properties": {"highway": "primary", "lanes": "2", "oneway": "no", "overtaking": "no", "ref": "EN 239", "surface": "asphalt"}}, {"type": "Feature", "geometry": {"type": "LineString", "coordinates": [[-7.1402618, 40.0498258], [-7.1407672, 40.0498368], [-7.1409947, 40.0498706], [-7.1411641, 40.0499344], [-7.1420062, 40.0502975]]}, "properties": {"highway": "primary", "lanes": "2", "oneway": "no", "overtaking": "no", "ref": "EN 239", "surface": "asphalt"}}, {"type": "Feature", "geometry": {"type": "LineString", "coordinates": [[-7.3444803, 40.0387953], [-7.3446555, 40.0380165], [-7.3446671, 40.0379402], [-7.3446072, 40.0378296], [-7.3444919, 40.0377372], [-7.3442666, 40.0376879], [-7.343138, 40.0375599], [-7.3427801, 40.0375541], [-7.3423832, 40.0375885], [-7.3416381, 40.0375951], [-7.3413161, 40.0375709], [-7.3412062, 40.0375134], [-7.3410238, 40.037193], [-7.3409272, 40.0371212]]}, "properties": {"highway": "primary", "lanes": "2", "oneway": "no", "ref": "EN 239", "source": "Bing", "surface": "asphalt"}}, {"type": "Feature", "geometry": {"type": "LineString", "coordinates": [[-7.330475, 40.0343832], [-7.3304228, 40.03427], [-7.3303355, 40.0341412], [-7.3301257, 40.0339974], [-7.3300413, 40.0339605], [-7.3289592, 40.0335391], [-7.3287453, 40.0334901], [-7.328557, 40.0335025], [-7.3275445, 40.0337446], [-7.3273381, 40.0337765], [-7.32706, 40.0337799], [-7.3262205, 40.0337132], [-7.3259768, 40.0337154], [-7.3257444, 40.0337551], [-7.3253577, 40.0338921], [-7.3251931, 40.0339308], [-7.3250105, 40.0339359], [-7.3248224, 40.0338887], [-7.324695, 40.0338246], [-7.324596, 40.0337253], [-7.3244732, 40.0333713], [-7.3244086, 40.0332404], [-7.3242962, 40.0331311], [-7.3233555, 40.0325608], [-7.3231262, 40.0324205], [-7.322956, 40.0323531], [-7.3227204, 40.0322995], [-7.3215533, 40.0321507], [-7.3213531, 40.0321472], [-7.321217, 40.0321755], [-7.3210864, 40.03227], [-7.3209948, 40.0323902], [-7.3205394, 40.0330783], [-7.3203624, 40.0333317], [-7.3202599, 40.0334134], [-7.3201203, 40.033471], [-7.319956, 40.0334852], [-7.3193513, 40.0335099], [-7.3191743, 40.0334933], [-7.319015, 40.033448], [-7.3157282, 40.0322052], [-7.3153595, 40.0320195], [-7.3142506, 40.0313047], [-7.3139844, 40.0310927], [-7.3134028, 40.0303409], [-7.3133463, 40.0301153], [-7.3135649, 40.0289989], [-7.3136219, 40.0286114], [-7.3136307, 40.0285516], [-7.3141785, 40.024827], [-7.3143353, 40.0237042], [-7.3143399, 40.0235248], [-7.3142926, 40.0233622], [-7.3136755, 40.0215553]]}, "properties": {"highway": "primary", "lanes": "2", "oneway": "no", "ref": "EN 239", "source": "Bing", "surface": "asphalt"}}, {"type": "Feature", "geometry": {"type": "LineString", "coordinates": [[-7.3681828, 40.0507088], [-7.3681318, 40.050683], [-7.3676585, 40.0504434], [-7.3673109, 40.0502671], [-7.3671929, 40.0502188], [-7.367107, 40.0501836], [-7.3670116, 40.0501457], [-7.3665645, 40.0500886], [-7.366346, 40.0500657], [-7.3661369, 40.0498779], [-7.3660438, 40.0497928], [-7.3659484, 40.0497426], [-7.3658917, 40.0497207], [-7.3658296, 40.0497049], [-7.3657698, 40.0496988], [-7.3657125, 40.0496931], [-7.3656801, 40.0496908], [-7.3656552, 40.0496895], [-7.3656303, 40.0496883], [-7.3655908, 40.049687], [-7.3651447, 40.0496728], [-7.3650853, 40.0496713], [-7.3646, 40.0496587]]}, "properties": {"access": "yes", "bicycle": "yes", "highway": "primary", "lanes": "2", "maxspeed": "50", "name": "Rua Engenheiro Lopes Galv\u00e3o", "oneway": "no", "ref": "EN 239", "source": "Bing", "surface": "asphalt"}}, {"type": "Feature", "geometry": {"type": "LineString", "coordinates": [[-7.3646, 40.0496587], [-7.3643507, 40.0496523], [-7.364219, 40.0496479], [-7.3622179, 40.0495928], [-7.3615572, 40.049571], [-7.3613518, 40.0495524], [-7.3610473, 40.0495125], [-7.3609799, 40.0495037], [-7.360912, 40.0494948], [-7.3608418, 40.0494856], [-7.3607599, 40.0494749], [-7.3606687, 40.0494629], [-7.3605529, 40.0494478], [-7.3604479, 40.049434], [-7.3603257, 40.049418], [-7.3601855, 40.0493996], [-7.3600792, 40.0493857], [-7.3600374, 40.0493802], [-7.3598758, 40.0493591], [-7.3576049, 40.0490665]]}, "properties": {"access": "yes", "bicycle": "yes", "highway": "primary", "lanes": "2", "maxspeed": "50", "name": "Rua Engenheiro Lopes Galv\u00e3o", "oneway": "no", "ref": "EN 239", "source": "Bing", "surface": "asphalt"}}, {"type": "Feature", "geometry": {"type": "LineString", "coordinates": [[-6.9864237, 40.0195171], [-6.9885486, 40.020003], [-6.9898549, 40.0203074], [-6.990839, 40.0206347], [-6.9914053, 40.0208514], [-6.9921015, 40.0211659], [-6.9925401, 40.0213846], [-6.9929007, 40.0215915], [-6.9937077, 40.0220949], [-6.9956729, 40.02364], [-6.9984058, 40.0257754], [-6.9993442, 40.0264503], [-6.9995328, 40.0265647], [-7.0002323, 40.0269889], [-7.0006727, 40.027231], [-7.0012031, 40.0275226], [-7.0042919, 40.0292202], [-7.0051381, 40.0297255], [-7.0088619, 40.0320885], [-7.0098784, 40.0327397], [-7.0105528, 40.0331717], [-7.01216, 40.0341922], [-7.0134814, 40.0350312], [-7.0140141, 40.035293], [-7.0145249, 40.0354898], [-7.0148963, 40.0356125], [-7.0155526, 40.0357507], [-7.016109, 40.0358342], [-7.0164898, 40.035867], [-7.0168735, 40.0358751]]}, "properties": {"highway": "primary", "lanes": "2", "oneway": "no", "ref": "EN 239", "surface": "asphalt"}}, {"type": "Feature", "geometry": {"type": "LineString", "coordinates": [[-6.9844403, 40.0190635], [-6.9864237, 40.0195171]]}, "properties": {"highway": "primary", "lanes": "2", "oneway": "no", "ref": "EN 239", "surface": "asphalt"}}, {"type": "Feature", "geometry": {"type": "LineString", "coordinates": [[-7.4279528, 40.1113322], [-7.4278837, 40.1113123], [-7.4278146, 40.1112923], [-7.4276958, 40.1112876], [-7.4274935, 40.1112795], [-7.4272196, 40.111242]]}, "properties": {"destination:forward": "Orca;Penamacor", "highway": "primary", "lanes": "2", "maxspeed": "50", "oneway": "no", "ref": "EN 239", "source": "Bing", "surface": "paving_stones"}}, {"type": "Feature", "geometry": {"type": "LineString", "coordinates": [[-7.4358665, 40.1110293], [-7.4356332, 40.111044], [-7.4354071, 40.1110582]]}, "properties": {"destination:forward": "Vale dos Prazeres;Orca;Monsanto;Monfortinho", "highway": "primary", "lanes": "2", "oneway": "no", "ref": "EN 239", "source": "Bing", "surface": "paving_stones"}}, {"type": "Feature", "geometry": {"type": "LineString", "coordinates": [[-7.4354071, 40.1110582], [-7.4349538, 40.1110868], [-7.4347066, 40.1111076]]}, "properties": {"destination:forward": "Vale dos Prazeres;Orca;Monsanto;Monfortinho", "highway": "primary", "lanes": "2", "maxspeed": "50", "oneway": "no", "ref": "EN 239", "source": "Bing", "surface": "paving_stones"}}, {"type": "Feature", "geometry": {"type": "LineString", "coordinates": [[-7.4347066, 40.1111076], [-7.4339126, 40.1111707], [-7.4337228, 40.1111556], [-7.4335357, 40.1111132], [-7.4332004, 40.1109163], [-7.4330061, 40.1108595]]}, "properties": {"destination:forward": "Vale dos Prazeres;Orca;Monsanto;Monfortinho", "highway": "primary", "lanes": "2", "maxspeed": "50", "oneway": "no", "ref": "EN 239", "source": "Bing", "surface": "asphalt"}}, {"type": "Feature", "geometry": {"type": "LineString", "coordinates": [[-7.4330061, 40.1108595], [-7.4326868, 40.1108086], [-7.432369, 40.1107604], [-7.4321379, 40.1107375], [-7.4319085, 40.1107484], [-7.4317698, 40.1108165], [-7.4317075, 40.1108584], [-7.4316757, 40.1108798], [-7.4313679, 40.1110647], [-7.4310093, 40.1112775], [-7.4309012, 40.1113316], [-7.4307945, 40.1113502], [-7.4306783, 40.111356], [-7.4301668, 40.1112849], [-7.4301204, 40.1112801], [-7.4296306, 40.1112132], [-7.4294721, 40.1112127], [-7.4293818, 40.1112242], [-7.429103, 40.1112596], [-7.4289223, 40.1112825], [-7.4285525, 40.1112893], [-7.4284902, 40.1112917], [-7.4282821, 40.1112996], [-7.4282098, 40.1113238], [-7.4281672, 40.1113381]]}, "properties": {"destination:forward": "Vale dos Prazeres;Orca;Monsanto;Monfortinho", "highway": "primary", "lanes": "2", "maxspeed": "50", "name": "Rua Aur\u00e9lio Pinto Castelo Branco", "oneway": "no", "ref": "EN 239", "source": "Bing", "surface": "paving_stones"}}, {"type": "Feature", "geometry": {"type": "LineString", "coordinates": [[-7.4281846, 40.1113987], [-7.4281823, 40.1113673], [-7.4281672, 40.1113381], [-7.4281408, 40.1113141], [-7.4281057, 40.1112977], [-7.4280657, 40.1112907], [-7.4280225, 40.1112943], [-7.4279834, 40.1113087], [-7.4279528, 40.1113322], [-7.4279344, 40.1113623], [-7.4279301, 40.1113953], [-7.4279406, 40.1114275], [-7.4279646, 40.1114552], [-7.4279993, 40.1114752], [-7.4280384, 40.1114848], [-7.4280585, 40.1114846], [-7.4280794, 40.1114845], [-7.4281182, 40.1114742], [-7.4281508, 40.111455], [-7.4281737, 40.1114289], [-7.4281846, 40.1113987]]}, "properties": {"highway": "primary", "junction": "roundabout", "maxspeed": "50", "ref": "EN 239", "surface": "paving_stones"}}, {"type": "Feature", "geometry": {"type": "LineString", "coordinates": [[-7.4272196, 40.111242], [-7.4267105, 40.111168], [-7.4259616, 40.1110592], [-7.4256313, 40.1110017], [-7.4255671, 40.110982], [-7.4255002, 40.1109615], [-7.4254332, 40.1109409], [-7.425363, 40.1109145], [-7.4252751, 40.1108813], [-7.4251873, 40.1108482], [-7.4250856, 40.1108068], [-7.4249745, 40.1107542], [-7.4248531, 40.1106968], [-7.4247317, 40.1106394], [-7.424598, 40.110567], [-7.4240119, 40.11021], [-7.4231908, 40.1097098], [-7.4230483, 40.1096106], [-7.4230317, 40.1095932], [-7.4213544, 40.107831], [-7.4203206, 40.1067448], [-7.4201451, 40.1065719], [-7.4200719, 40.1064997], [-7.4191947, 40.1056354]]}, "properties": {"highway": "primary", "lanes": "2", "maxspeed": "50", "oneway": "no", "ref": "EN 239", "source": "Bing", "surface": "asphalt"}}, {"type": "Feature", "geometry": {"type": "LineString", "coordinates": [[-7.4103971, 40.0996262], [-7.4102418, 40.0994877], [-7.410163, 40.0994175], [-7.4101067, 40.0993673], [-7.4099079, 40.0992709], [-7.409624, 40.099197], [-7.40721, 40.0986574], [-7.4070061, 40.0985548], [-7.4068343, 40.0984106], [-7.4067138, 40.0982307], [-7.4060761, 40.0956792], [-7.4056784, 40.0940881], [-7.4054769, 40.0937735], [-7.4052707, 40.0935054], [-7.4039806, 40.0918878], [-7.4038536, 40.0917478], [-7.40368, 40.0916292], [-7.4027441, 40.0911005], [-7.4026145, 40.0910334]]}, "properties": {"destination:backward": "Fund\u00e3o", "highway": "primary", "lanes": "2", "oneway": "no", "ref": "EN 239", "source": "Bing", "surface": "asphalt"}}, {"type": "Feature", "geometry": {"type": "LineString", "coordinates": [[-7.394359, 40.085182], [-7.391662, 40.0821006], [-7.389441, 40.0795014], [-7.3892015, 40.0792372], [-7.3869196, 40.076862], [-7.3793439, 40.0689756], [-7.3778933, 40.0674313], [-7.3775768, 40.0671542], [-7.3757959, 40.0658631], [-7.3756006, 40.0657], [-7.3754835, 40.065569], [-7.3753746, 40.0654138], [-7.3748491, 40.0646105], [-7.3743024, 40.0637775], [-7.3733658, 40.06232], [-7.3720592, 40.0602643], [-7.3714735, 40.0593446], [-7.3713944, 40.059173], [-7.3713252, 40.0588928], [-7.3709623, 40.0568169]]}, "properties": {"highway": "primary", "lanes": "2", "oneway": "no", "ref": "EN 239", "source": "Bing", "surface": "asphalt"}}, {"type": "Feature", "geometry": {"type": "LineString", "coordinates": [[-7.3709623, 40.0568169], [-7.3708083, 40.0559358], [-7.3703502, 40.0530319], [-7.3702411, 40.0523628], [-7.3702211, 40.0522402], [-7.3702077, 40.0521878]]}, "properties": {"highway": "primary", "lanes": "2", "maxspeed": "50", "oneway": "no", "ref": "EN 239", "source": "Bing", "surface": "asphalt"}}, {"type": "Feature", "geometry": {"type": "LineString", "coordinates": [[-7.3692003, 40.0512294], [-7.3690288, 40.0511407]]}, "properties": {"access": "yes", "bicycle": "yes", "destination:forward": "Monfortinho", "highway": "primary", "lanes": "2", "maxspeed": "50", "name": "Rua Engenheiro Lopes Galv\u00e3o", "oneway": "no", "ref": "EN 239", "source": "Bing", "surface": "asphalt"}}, {"type": "Feature", "geometry": {"type": "LineString", "coordinates": [[-7.3690288, 40.0511407], [-7.3686185, 40.0509292]]}, "properties": {"access": "yes", "bicycle": "yes", "destination:forward": "Monfortinho", "highway": "primary", "lanes": "2", "maxspeed": "50", "name": "Rua Engenheiro Lopes Galv\u00e3o", "oneway": "no", "ref": "EN 239", "source": "Bing", "surface": "asphalt"}}, {"type": "Feature", "geometry": {"type": "LineString", "coordinates": [[-7.3693627, 40.0513158], [-7.3692003, 40.0512294]]}, "properties": {"access": "yes", "bicycle": "yes", "destination:backward": "Fund\u00e3o", "highway": "primary", "lanes": "2", "maxspeed": "50", "name": "Rua Engenheiro Lopes Galv\u00e3o", "oneway": "no", "ref": "EN 239", "source": "Bing", "surface": "asphalt"}}, {"type": "Feature", "geometry": {"type": "LineString", "coordinates": [[-7.3684161, 40.0508248], [-7.3681828, 40.0507088]]}, "properties": {"access": "yes", "bicycle": "yes", "destination:forward": "Monfortinho", "highway": "primary", "lanes": "2", "maxspeed": "50", "name": "Rua Engenheiro Lopes Galv\u00e3o", "oneway": "no", "ref": "EN 239", "source": "Bing", "surface": "asphalt"}}, {"type": "Feature", "geometry": {"type": "LineString", "coordinates": [[-7.3686185, 40.0509292], [-7.3684161, 40.0508248]]}, "properties": {"access": "yes", "bicycle": "yes", "destination:forward": "Monfortinho", "highway": "primary", "lanes": "2", "maxspeed": "50", "name": "Rua Engenheiro Lopes Galv\u00e3o", "oneway": "no", "ref": "EN 239", "source": "Bing", "surface": "asphalt"}}, {"type": "Feature", "geometry": {"type": "LineString", "coordinates": [[-7.3576049, 40.0490665], [-7.356256, 40.048885], [-7.3558748, 40.0488191], [-7.354577, 40.0485257], [-7.354403, 40.0484712], [-7.3542524, 40.0483881]]}, "properties": {"access": "yes", "bicycle": "yes", "highway": "primary", "lanes": "2", "name": "Rua Engenheiro Lopes Galv\u00e3o", "oneway": "no", "ref": "EN 239", "source": "Bing", "surface": "asphalt"}}, {"type": "Feature", "geometry": {"type": "LineString", "coordinates": [[-7.2356388, 40.0290624], [-7.2345343, 40.02923], [-7.2343651, 40.0292341], [-7.2341878, 40.0292133], [-7.2332888, 40.029019], [-7.233154, 40.0289649], [-7.2331079, 40.0289369], [-7.2330219, 40.0288848], [-7.2328458, 40.0287692]]}, "properties": {"highway": "primary", "lanes": "2", "oneway": "no", "ref": "EN 239", "surface": "asphalt"}}, {"type": "Feature", "geometry": {"type": "LineString", "coordinates": [[-7.1867991, 40.0449774], [-7.1864009, 40.045008], [-7.1861215, 40.0451104], [-7.1845957, 40.0459551], [-7.1842304, 40.0461573], [-7.1837055, 40.0464479], [-7.1835128, 40.0465546]]}, "properties": {"highway": "primary", "lanes": "2", "lit": "yes", "maxspeed": "50", "oneway": "no", "ref": "EN 239", "sidewalk": "both", "surface": "asphalt"}}, {"type": "Feature", "geometry": {"type": "LineString", "coordinates": [[-7.1773458, 40.0481406], [-7.1785787, 40.0481918], [-7.1798181, 40.0483527]]}, "properties": {"highway": "primary", "lanes": "2", "maxspeed": "50", "oneway": "no", "ref": "EN 239", "surface": "asphalt"}}, {"type": "Feature", "geometry": {"type": "LineString", "coordinates": [[-7.1798181, 40.0483527], [-7.1800439, 40.0483408], [-7.180218, 40.0482986], [-7.1803689, 40.048243], [-7.1805786, 40.0481313]]}, "properties": {"highway": "primary", "lanes": "2", "maxspeed": "50", "oneway": "no", "ref": "EN 239", "surface": "asphalt"}}, {"type": "Feature", "geometry": {"type": "LineString", "coordinates": [[-7.1805786, 40.0481313], [-7.1809609, 40.047927], [-7.1810137, 40.0479014], [-7.1810649, 40.0478728], [-7.1824428, 40.0471243]]}, "properties": {"highway": "primary", "lanes": "2", "maxspeed": "50", "oneway": "no", "ref": "EN 239", "surface": "asphalt"}}, {"type": "Feature", "geometry": {"type": "LineString", "coordinates": [[-7.1394493, 40.0498317], [-7.1397491, 40.0498298]]}, "properties": {"highway": "primary", "lanes": "2", "oneway": "no", "overtaking": "no", "ref": "EN 239", "surface": "asphalt"}}, {"type": "Feature", "geometry": {"type": "LineString", "coordinates": [[-7.1391981, 40.0498318], [-7.1394493, 40.0498317]]}, "properties": {"highway": "primary", "lanes": "2", "oneway": "no", "overtaking": "no", "ref": "EN 239", "surface": "asphalt"}}, {"type": "Feature", "geometry": {"type": "LineString", "coordinates": [[-7.1239652, 40.0526268], [-7.1247742, 40.0524162]]}, "properties": {"highway": "primary", "lanes": "2", "oneway": "no", "ref": "EN 239", "surface": "asphalt"}}, {"type": "Feature", "geometry": {"type": "LineString", "coordinates": [[-7.1219757, 40.0530519], [-7.1221531, 40.0530308]]}, "properties": {"highway": "primary", "lanes": "2", "maxspeed": "70", "oneway": "no", "ref": "EN 239", "surface": "asphalt"}}, {"type": "Feature", "geometry": {"type": "LineString", "coordinates": [[-7.1217199, 40.0530845], [-7.1219757, 40.0530519]]}, "properties": {"highway": "primary", "lanes": "2", "maxspeed": "70", "oneway": "no", "ref": "EN 239", "surface": "asphalt"}}, {"type": "Feature", "geometry": {"type": "LineString", "coordinates": [[-7.1221531, 40.0530308], [-7.1222878, 40.0530118], [-7.122353, 40.0530037], [-7.1224254, 40.0529946], [-7.1226123, 40.0529533], [-7.1227158, 40.0529306], [-7.1228345, 40.0529047], [-7.1229598, 40.0528773], [-7.1230906, 40.0528437], [-7.123254, 40.052804], [-7.1234151, 40.0527648], [-7.1237444, 40.0526846], [-7.1239652, 40.0526268]]}, "properties": {"highway": "primary", "lanes": "2", "maxspeed": "70", "oneway": "no", "ref": "EN 239", "surface": "asphalt"}}, {"type": "Feature", "geometry": {"type": "LineString", "coordinates": [[-7.1216181, 40.0530975], [-7.1216841, 40.0530891], [-7.1217199, 40.0530845]]}, "properties": {"highway": "primary", "lanes": "2", "maxspeed": "70", "oneway": "no", "ref": "EN 239", "surface": "asphalt"}}, {"type": "Feature", "geometry": {"type": "LineString", "coordinates": [[-7.1200658, 40.053291], [-7.1206123, 40.0532197], [-7.1207602, 40.0532022], [-7.120908, 40.0531847], [-7.1210495, 40.053168], [-7.1211621, 40.0531547], [-7.1212714, 40.0531417], [-7.121379, 40.053128], [-7.1215368, 40.0531079], [-7.1216181, 40.0530975]]}, "properties": {"highway": "primary", "lanes": "2", "maxspeed:forward": "70", "oneway": "no", "ref": "EN 239", "surface": "asphalt"}}, {"type": "Feature", "geometry": {"type": "LineString", "coordinates": [[-7.3305006, 40.0344385], [-7.330475, 40.0343832]]}, "properties": {"bridge": "yes", "highway": "primary", "lanes": "2", "layer": "1", "oneway": "no", "ref": "EN 239", "source": "Bing", "surface": "asphalt"}}, {"type": "Feature", "geometry": {"type": "LineString", "coordinates": [[-7.3347621, 40.0362789], [-7.3347151, 40.0362546], [-7.3337355, 40.035748], [-7.3334041, 40.0356547], [-7.3329983, 40.0355758], [-7.3327461, 40.0355502], [-7.3324939, 40.0355747], [-7.3320437, 40.0357209], [-7.3317502, 40.0357703], [-7.3310728, 40.035696], [-7.3309022, 40.0356234], [-7.3307714, 40.0354757], [-7.3307138, 40.0352578], [-7.330688, 40.0349186], [-7.330586, 40.0346235], [-7.3305006, 40.0344385]]}, "properties": {"highway": "primary", "lanes": "2", "oneway": "no", "ref": "EN 239", "source": "Bing", "surface": "asphalt"}}, {"type": "Feature", "geometry": {"type": "LineString", "coordinates": [[-7.4191947, 40.1056354], [-7.4177618, 40.1042235], [-7.4173299, 40.1038645], [-7.4155452, 40.1026945], [-7.4151654, 40.1024685], [-7.4148098, 40.1023334], [-7.414173, 40.102152], [-7.4129901, 40.1018149], [-7.4127031, 40.1016816], [-7.4104662, 40.0996878]]}, "properties": {"destination:backward": "Fund\u00e3o", "highway": "primary", "lanes": "2", "oneway": "no", "ref": "EN 239", "source": "Bing", "surface": "asphalt"}}, {"type": "Feature", "geometry": {"type": "LineString", "coordinates": [[-7.4104662, 40.0996878], [-7.4103971, 40.0996262]]}, "properties": {"bridge": "yes", "destination:backward": "Fund\u00e3o", "highway": "primary", "lanes": "2", "layer": "1", "oneway": "no", "ref": "EN 239", "source": "Bing", "surface": "asphalt"}}, {"type": "Feature", "geometry": {"type": "LineString", "coordinates": [[-7.4025157, 40.0909822], [-7.4025076, 40.090978], [-7.4022291, 40.0908912], [-7.4014646, 40.0908235], [-7.3992974, 40.0905239], [-7.399084, 40.0904566], [-7.3989149, 40.0903572], [-7.3988246, 40.0902768], [-7.394359, 40.085182]]}, "properties": {"destination:backward": "Fund\u00e3o", "highway": "primary", "lanes": "2", "oneway": "no", "ref": "EN 239", "source": "Bing", "surface": "asphalt"}}, {"type": "Feature", "geometry": {"type": "LineString", "coordinates": [[-7.4026145, 40.0910334], [-7.4025157, 40.0909822]]}, "properties": {"bridge": "yes", "destination:backward": "Fund\u00e3o", "highway": "primary", "lanes": "2", "layer": "1", "oneway": "no", "ref": "EN 239", "source": "Bing", "surface": "asphalt"}}, {"type": "Feature", "geometry": {"type": "LineString", "coordinates": [[-7.307105, 40.0253421], [-7.3060445, 40.0246047], [-7.3057401, 40.0244369], [-7.3052351, 40.0242407], [-7.3029319, 40.0236074], [-7.3013354, 40.0231745], [-7.3012984, 40.0231644], [-7.2996612, 40.0227184], [-7.2981486, 40.0223104], [-7.2973829, 40.0222016], [-7.2968082, 40.0221848]]}, "properties": {"highway": "primary", "lanes": "2", "oneway": "no", "ref": "EN 239", "surface": "asphalt"}}, {"type": "Feature", "geometry": {"type": "LineString", "coordinates": [[-7.2968082, 40.0221848], [-7.2966996, 40.0221816]]}, "properties": {"bridge": "yes", "highway": "primary", "lanes": "2", "layer": "1", "oneway": "no", "ref": "EN 239", "surface": "asphalt"}}, {"type": "Feature", "geometry": {"type": "LineString", "coordinates": [[-7.260896, 40.0225984], [-7.2587925, 40.0221602], [-7.2578926, 40.0219796], [-7.2574232, 40.0218009], [-7.2569785, 40.0215423], [-7.2552638, 40.0203349], [-7.2547447, 40.0199693], [-7.2524713, 40.018817], [-7.25212, 40.0186021], [-7.2516512, 40.018181], [-7.2513775, 40.0179137]]}, "properties": {"highway": "primary", "lanes": "2", "oneway": "no", "ref": "EN 239", "surface": "asphalt"}}, {"type": "Feature", "geometry": {"type": "LineString", "coordinates": [[-7.2610081, 40.0226168], [-7.260896, 40.0225984]]}, "properties": {"bridge": "yes", "highway": "primary", "lanes": "2", "layer": "1", "oneway": "no", "ref": "EN 239", "surface": "asphalt"}}, {"type": "Feature", "geometry": {"type": "LineString", "coordinates": [[-7.1628283, 40.0473772], [-7.1630228, 40.0474559]]}, "properties": {"highway": "primary", "lanes": "2", "oneway": "no", "overtaking": "no", "ref": "EN 239", "surface": "asphalt"}}, {"type": "Feature", "geometry": {"type": "LineString", "coordinates": [[-7.158566, 40.0462934], [-7.1587624, 40.0462895], [-7.1598678, 40.0464809], [-7.1608327, 40.04666], [-7.1611998, 40.0467465], [-7.1628283, 40.0473772]]}, "properties": {"highway": "primary", "lanes": "2", "oneway": "no", "ref": "EN 239", "surface": "asphalt"}}, {"type": "Feature", "geometry": {"type": "LineString", "coordinates": [[-7.1824428, 40.0471243], [-7.1828496, 40.0469009]]}, "properties": {"highway": "primary", "lanes": "2", "maxspeed": "50", "oneway": "no", "ref": "EN 239", "surface": "asphalt"}}, {"type": "Feature", "geometry": {"type": "MultiPolygon", "coordinates": [[[[-6.8843138, 39.9896606], [-6.8843131, 39.9896397], [-6.8843092, 39.989619], [-6.8843028, 39.9896005], [-6.8842938, 39.9895826], [-6.8842824, 39.9895656], [-6.8842686, 39.9895497], [-6.8842525, 39.989535], [-6.8842345, 39.9895217], [-6.8842147, 39.98951], [-6.8841934, 39.9895001], [-6.8841708, 39.989492], [-6.8841471, 39.9894858], [-6.8841227, 39.9894817], [-6.8840979, 39.9894796], [-6.8840729, 39.9894796], [-6.8840158, 39.9894877], [-6.8839921, 39.9894946], [-6.8839695, 39.9895036], [-6.8839484, 39.9895144], [-6.8839289, 39.9895269], [-6.8839115, 39.989541], [-6.8838961, 39.9895565], [-6.8838831, 39.9895732], [-6.8838726, 39.9895909], [-6.8838647, 39.9896094], [-6.8838596, 39.9896285], [-6.8838572, 39.9896479], [-6.8838577, 39.9896673], [-6.883861, 39.9896866], [-6.88387, 39.9897124], [-6.883884, 39.9897368], [-6.883901, 39.9897575], [-6.8839216, 39.9897762], [-6.8839454, 39.9897926], [-6.883972, 39.9898062], [-6.8840008, 39.9898168], [-6.8840312, 39.9898243], [-6.8840627, 39.9898285], [-6.8840946, 39.9898292], [-6.8841264, 39.9898265], [-6.8841574, 39.9898204], [-6.8842066, 39.9898027], [-6.8842419, 39.9897819], [-6.8842712, 39.9897562], [-6.8842935, 39.9897267], [-6.8843078, 39.9896944], [-6.8843138, 39.9896606]]]]}, "properties": {"highway": "primary", "junction": "roundabout", "lanes": "2", "old_ref": "EN 240", "ref": "EN 239", "surface": "asphalt"}}, {"type": "Feature", "geometry": {"type": "MultiPolygon", "coordinates": [[[[-7.1833595, 40.0467367], [-7.1833459, 40.0466826], [-7.1833062, 40.0466367], [-7.1832466, 40.0466059], [-7.1831762, 40.0465949], [-7.1831056, 40.0466054], [-7.1830457, 40.0466357], [-7.1830055, 40.0466813], [-7.1829912, 40.0467351], [-7.1830048, 40.0467891], [-7.1830444, 40.046835], [-7.1831038, 40.0468658], [-7.1831743, 40.0468769], [-7.1832448, 40.0468665], [-7.1833049, 40.0468361], [-7.1833451, 40.0467905], [-7.1833595, 40.0467367]]]]}, "properties": {"highway": "primary", "junction": "roundabout", "lanes": "2", "ref": "EN 239;EN 332", "source": "bing", "surface": "asphalt"}}, {"type": "Feature", "geometry": {"type": "MultiPolygon", "coordinates": [[[[-7.4281846, 40.1113987], [-7.4281823, 40.1113673], [-7.4281672, 40.1113381], [-7.4281408, 40.1113141], [-7.4281057, 40.1112977], [-7.4280657, 40.1112907], [-7.4280225, 40.1112943], [-7.4279834, 40.1113087], [-7.4279528, 40.1113322], [-7.4279344, 40.1113623], [-7.4279301, 40.1113953], [-7.4279406, 40.1114275], [-7.4279646, 40.1114552], [-7.4279993, 40.1114752], [-7.4280384, 40.1114848], [-7.4280585, 40.1114846], [-7.4280794, 40.1114845], [-7.4281182, 40.1114742], [-7.4281508, 40.111455], [-7.4281737, 40.1114289], [-7.4281846, 40.1113987]]]]}, "properties": {"highway": "primary", "junction": "roundabout", "maxspeed": "50", "ref": "EN 239", "surface": "paving_stones"}}]}