{"type": "FeatureCollection", "features": [{"type": "Feature", "geometry": {"type": "LineString", "coordinates": [[-8.2244364, 37.0955755], [-8.2243648, 37.0955531], [-8.2242879, 37.0955505], [-8.2242141, 37.0955681], [-8.2241516, 37.0956038]]}, "properties": {"highway": "primary", "junction": "roundabout", "lanes": "3", "name": "Rotundo do Globo", "ref": "EN 269;EM 526", "smoothness": "excellent", "surface": "asphalt"}}, {"type": "Feature", "geometry": {"type": "LineString", "coordinates": [[-8.2244524, 37.0972023], [-8.2244903, 37.0971961], [-8.2245256, 37.0971836], [-8.2245568, 37.0971654], [-8.2245825, 37.0971423], [-8.2246014, 37.0971154], [-8.2246128, 37.097086], [-8.2246161, 37.0970552], [-8.2246094, 37.097019], [-8.2245914, 37.0969853], [-8.2245634, 37.0969562], [-8.2245271, 37.0969337], [-8.2244849, 37.0969192]]}, "properties": {"highway": "primary", "junction": "roundabout", "lanes": "2", "ref": "EN 269", "surface": "asphalt"}}, {"type": "Feature", "geometry": {"type": "LineString", "coordinates": [[-8.2299632, 37.1044848], [-8.2299659, 37.1045732], [-8.2299605, 37.1046738], [-8.2299498, 37.1047401], [-8.2298921, 37.1048226]]}, "properties": {"highway": "primary", "lanes": "1", "maxspeed": "50", "name": "Rua Teixeira Gomes", "oneway": "yes", "ref": "EN 269"}}, {"type": "Feature", "geometry": {"type": "LineString", "coordinates": [[-8.2301998, 37.1050118], [-8.2302253, 37.1049786], [-8.230241, 37.1049536], [-8.2302474, 37.1048848], [-8.2302263, 37.1048344], [-8.2301832, 37.1047912], [-8.2301611, 37.1047799], [-8.2301056, 37.1047575], [-8.2300612, 37.1047527], [-8.2299971, 37.1047596], [-8.2299368, 37.1047844], [-8.2298921, 37.1048226], [-8.2298686, 37.1048532], [-8.2298612, 37.1049257], [-8.2298754, 37.1049688], [-8.2299267, 37.1050283], [-8.229958, 37.1050431], [-8.2299927, 37.1050543], [-8.2300669, 37.1050631], [-8.2301278, 37.1050521], [-8.2301998, 37.1050118]]}, "properties": {"highway": "primary", "junction": "roundabout", "lanes": "2", "maxspeed": "50", "name": "Rotunda da Montechoro", "ref": "EN 269"}}, {"type": "Feature", "geometry": {"type": "LineString", "coordinates": [[-8.2303468, 37.1055007], [-8.2302645, 37.1052222], [-8.2302404, 37.1051383], [-8.2302234, 37.1050609], [-8.2302253, 37.1049786]]}, "properties": {"highway": "primary", "lanes": "1", "maxspeed": "50", "name": "Estrada dos Brejos", "oneway": "yes", "ref": "EN 269"}}, {"type": "Feature", "geometry": {"type": "LineString", "coordinates": [[-8.2294699, 37.116102], [-8.2295275, 37.1160999], [-8.2295592, 37.1160919], [-8.2295884, 37.1160794], [-8.2296303, 37.1160482], [-8.2296575, 37.116008], [-8.2296671, 37.115963], [-8.2296581, 37.1159179], [-8.2296314, 37.1158775], [-8.2296172, 37.1158642], [-8.2295745, 37.1158385], [-8.2295242, 37.1158241], [-8.2294707, 37.1158225], [-8.2294191, 37.1158337], [-8.2293741, 37.1158566], [-8.2293375, 37.1158924], [-8.2293174, 37.1159357], [-8.2293159, 37.1159817], [-8.2293331, 37.1160256], [-8.2293672, 37.1160628], [-8.2294144, 37.1160892], [-8.2294699, 37.116102]]}, "properties": {"highway": "primary", "junction": "roundabout", "lanes": "2", "ref": "EN 269"}}, {"type": "Feature", "geometry": {"type": "LineString", "coordinates": [[-8.2237422, 37.1219323], [-8.2237689, 37.1219118], [-8.2238002, 37.1218703], [-8.2238129, 37.1218229], [-8.2238056, 37.1217747], [-8.2237836, 37.1217363], [-8.2237488, 37.1217045], [-8.2237032, 37.1216815], [-8.2236513, 37.12167], [-8.2235975, 37.121671], [-8.2235462, 37.1216842], [-8.2235005, 37.1217098], [-8.2234665, 37.1217452], [-8.2234472, 37.121787], [-8.2234446, 37.1218315], [-8.2234572, 37.1218719], [-8.2234836, 37.1219078], [-8.2235225, 37.121937], [-8.2235665, 37.1219551], [-8.2236148, 37.1219632], [-8.2236641, 37.1219608], [-8.2237109, 37.121948], [-8.2237422, 37.1219323]]}, "properties": {"highway": "primary", "junction": "roundabout", "lanes": "2", "ref": "EN 269", "surface": "asphalt"}}, {"type": "Feature", "geometry": {"type": "LineString", "coordinates": [[-8.2237267, 37.1213408], [-8.2238729, 37.1210314], [-8.2239238, 37.1209449], [-8.2240526, 37.1207674], [-8.2241869, 37.1206364], [-8.2242983, 37.1205352], [-8.2246055, 37.1202948], [-8.2248117, 37.1201472], [-8.2252462, 37.1198713], [-8.2256405, 37.119651], [-8.2261531, 37.1193975], [-8.2263727, 37.1192888], [-8.226488, 37.1192318], [-8.2265018, 37.119224], [-8.226716, 37.1191035], [-8.2267533, 37.1190802], [-8.2267936, 37.1190515], [-8.2269011, 37.1189794], [-8.227052, 37.1188491], [-8.2272156, 37.1186865], [-8.2273342, 37.1185507], [-8.2275412, 37.1183107], [-8.2277421, 37.1180531], [-8.2279189, 37.1178139], [-8.2279617, 37.1177464], [-8.228016, 37.1176679], [-8.2280789, 37.117572]]}, "properties": {"highway": "primary", "lanes": "2", "lanes:backward": "1", "lanes:forward": "1", "maxspeed": "50", "ref": "EN 269", "surface": "asphalt"}}, {"type": "Feature", "geometry": {"type": "LineString", "coordinates": [[-8.2283225, 37.1165359], [-8.2282872, 37.116553], [-8.2282318, 37.1166011], [-8.2282026, 37.1166621], [-8.2282034, 37.1167266], [-8.2282328, 37.1167853], [-8.2282425, 37.1167966], [-8.2282848, 37.1168307], [-8.2283515, 37.1168584], [-8.2284241, 37.1168665], [-8.2284764, 37.1168601], [-8.2285441, 37.1168342], [-8.2285996, 37.1167882], [-8.2286286, 37.1167362], [-8.2286349, 37.1166792], [-8.2286189, 37.1166259], [-8.2286018, 37.1165997], [-8.2285352, 37.1165462], [-8.2284717, 37.1165241], [-8.2284047, 37.1165189], [-8.2283225, 37.1165359]]}, "properties": {"highway": "primary", "junction": "roundabout", "lanes": "2", "ref": "EN 269"}}, {"type": "Feature", "geometry": {"type": "LineString", "coordinates": [[-8.4357234, 37.1861193], [-8.4354811, 37.1862649], [-8.4353985, 37.1863102]]}, "properties": {"bicycle": "yes", "highway": "primary", "lanes": "1", "maxspeed": "50", "oneway": "yes", "ref": "EN 269", "turn:lanes": "through"}}, {"type": "Feature", "geometry": {"type": "LineString", "coordinates": [[-8.2244849, 37.0969192], [-8.2244712, 37.0968808], [-8.2244444, 37.0967995], [-8.224401, 37.0962393], [-8.2244029, 37.0961673], [-8.224414, 37.096103], [-8.2244783, 37.0958692]]}, "properties": {"highway": "primary", "lanes": "2", "name": "Rua Teixeira Gomes", "oneway": "yes", "ref": "EN 269", "surface": "asphalt"}}, {"type": "Feature", "geometry": {"type": "LineString", "coordinates": [[-8.2244364, 37.0955755], [-8.2243652, 37.0955017], [-8.2243314, 37.095443], [-8.2243023, 37.0953652], [-8.2242881, 37.0952401], [-8.2242532, 37.0948786], [-8.2242076, 37.094686]]}, "properties": {"highway": "primary", "lanes": "1", "lit": "yes", "name": "Estrada de Santa Eul\u00e1lia", "oneway": "yes", "ref": "EN 269", "surface": "asphalt"}}, {"type": "Feature", "geometry": {"type": "LineString", "coordinates": [[-8.2305998, 37.1093703], [-8.230533, 37.1094486], [-8.2304445, 37.1095256], [-8.2303426, 37.1096047], [-8.2302116, 37.1096847], [-8.2295376, 37.1100646], [-8.2291863, 37.1102614], [-8.2290575, 37.1103363], [-8.2289341, 37.1104175], [-8.2288376, 37.1104988], [-8.2287279, 37.1106122], [-8.2286203, 37.1107448], [-8.2285399, 37.1108582], [-8.2284648, 37.1109844], [-8.2284123, 37.1110871], [-8.2283736, 37.1112432], [-8.2283521, 37.1114036], [-8.2283467, 37.1115362], [-8.2283575, 37.111656], [-8.2283897, 37.1118421], [-8.2284379, 37.1120068], [-8.2285079, 37.1121822], [-8.2285938, 37.1123533], [-8.2286954, 37.1125094], [-8.2290318, 37.1129982], [-8.2294253, 37.1135575], [-8.2296369, 37.1138677], [-8.2297437, 37.1140536], [-8.2298316, 37.1142899], [-8.2298488, 37.1145028], [-8.2298216, 37.1147432], [-8.229766, 37.1150158], [-8.2297499, 37.1150946], [-8.2297252, 37.1152161], [-8.2296931, 37.1153734], [-8.2296765, 37.1154503], [-8.2296525, 37.115546], [-8.2296378, 37.1155949]]}, "properties": {"highway": "primary", "maxspeed": "50", "name": "Estrada dos Brejos", "ref": "EN 269"}}, {"type": "Feature", "geometry": {"type": "LineString", "coordinates": [[-8.2308868, 37.1091367], [-8.2309407, 37.109132], [-8.2309735, 37.1091169], [-8.2309977, 37.1090946], [-8.2310141, 37.1090524], [-8.2310091, 37.1090209], [-8.2309834, 37.108986], [-8.2309762, 37.1089794], [-8.2309475, 37.1089658], [-8.2309225, 37.1089596], [-8.2308843, 37.1089591], [-8.2308389, 37.1089733], [-8.2308157, 37.1089899], [-8.2307984, 37.1090188], [-8.2307914, 37.1090445], [-8.2307918, 37.1090686], [-8.2308001, 37.1090837], [-8.2308062, 37.1090952], [-8.2308252, 37.1091135], [-8.2308582, 37.1091305], [-8.2308868, 37.1091367]]}, "properties": {"highway": "primary", "junction": "roundabout", "maxspeed": "50", "ref": "EN 269"}}, {"type": "Feature", "geometry": {"type": "LineString", "coordinates": [[-8.2307918, 37.1090686], [-8.230784, 37.1091118], [-8.2307652, 37.1091653], [-8.2305998, 37.1093703]]}, "properties": {"highway": "primary", "maxspeed": "50", "oneway": "yes", "ref": "EN 269"}}, {"type": "Feature", "geometry": {"type": "LineString", "coordinates": [[-8.2309762, 37.1089794], [-8.2309405, 37.1089107], [-8.2309315, 37.1088637], [-8.2309449, 37.108808], [-8.2309691, 37.1086754]]}, "properties": {"highway": "primary", "maxspeed": "50", "oneway": "yes", "ref": "EN 269"}}, {"type": "Feature", "geometry": {"type": "LineString", "coordinates": [[-8.2305998, 37.1093703], [-8.2308009, 37.1091905], [-8.230843, 37.1091695], [-8.2309407, 37.109132]]}, "properties": {"highway": "primary", "maxspeed": "50", "oneway": "yes", "ref": "EN 269"}}, {"type": "Feature", "geometry": {"type": "LineString", "coordinates": [[-8.2242692, 37.0960788], [-8.2242929, 37.0961373], [-8.2243113, 37.0962098], [-8.2243195, 37.0962704], [-8.2243256, 37.0963372], [-8.2243747, 37.0968166], [-8.2243666, 37.0968893], [-8.2243193, 37.0969466]]}, "properties": {"highway": "primary", "lanes": "2", "name": "Rua Teixeira Gomes", "oneway": "yes", "ref": "EN 269", "surface": "asphalt"}}, {"type": "Feature", "geometry": {"type": "LineString", "coordinates": [[-8.2242076, 37.094686], [-8.2241566, 37.0945042], [-8.2241328, 37.09443], [-8.2240909, 37.0942995], [-8.2240243, 37.0940941], [-8.2239933, 37.0939866], [-8.2239782, 37.0939486], [-8.2239507, 37.0938611], [-8.2238348, 37.0936698]]}, "properties": {"highway": "primary", "lanes": "2", "lanes:backward": "1", "lanes:forward": "1", "lit": "yes", "name": "Estrada de Santa Eul\u00e1lia", "ref": "EN 269"}}, {"type": "Feature", "geometry": {"type": "LineString", "coordinates": [[-8.2286349, 37.1166792], [-8.2286886, 37.1166057], [-8.228753, 37.1165266], [-8.2288388, 37.1164581], [-8.2289179, 37.1164043], [-8.2290507, 37.116317], [-8.2291138, 37.116285], [-8.2292533, 37.1162224], [-8.2294438, 37.1161497], [-8.2295275, 37.1160999]]}, "properties": {"highway": "primary", "lanes": "1", "maxspeed": "50", "oneway": "yes", "ref": "EN 269"}}, {"type": "Feature", "geometry": {"type": "LineString", "coordinates": [[-8.2282848, 37.1168307], [-8.2283466, 37.1169005], [-8.2283723, 37.1169713], [-8.2283413, 37.1170973], [-8.2282424, 37.1173072]]}, "properties": {"destination": "Lisboa;Faro;Portim\u00e3o", "highway": "primary", "lanes": "1", "maxspeed": "50", "oneway": "yes", "ref": "EN 269"}}, {"type": "Feature", "geometry": {"type": "LineString", "coordinates": [[-8.2282424, 37.1173072], [-8.2283708, 37.1171101], [-8.2284298, 37.1170139], [-8.2284864, 37.1169305], [-8.2285441, 37.1168342]]}, "properties": {"highway": "primary", "lanes": "1", "maxspeed": "50", "oneway": "yes", "ref": "EN 269"}}, {"type": "Feature", "geometry": {"type": "LineString", "coordinates": [[-8.2293174, 37.1159357], [-8.2292399, 37.1160894], [-8.2291567, 37.1161798], [-8.2290842, 37.1162375], [-8.22882, 37.1164154], [-8.2287087, 37.1164728], [-8.2286323, 37.1165116], [-8.2285532, 37.1165241], [-8.2284047, 37.1165189]]}, "properties": {"destination": "Lisboa;Faro;Portim\u00e3o", "highway": "primary", "lanes": "1", "maxspeed": "50", "oneway": "yes", "ref": "EN 269"}}, {"type": "Feature", "geometry": {"type": "LineString", "coordinates": [[-8.2296172, 37.1158642], [-8.2296235, 37.115784], [-8.229626, 37.11569], [-8.2296378, 37.1155949]]}, "properties": {"destination": "centro", "highway": "primary", "lanes": "1", "maxspeed": "50", "oneway": "yes", "ref": "EN 269"}}, {"type": "Feature", "geometry": {"type": "LineString", "coordinates": [[-8.2296378, 37.1155949], [-8.2295697, 37.1156814], [-8.229496, 37.1157694], [-8.2293741, 37.1158566]]}, "properties": {"highway": "primary", "lanes": "1", "maxspeed": "50", "oneway": "yes", "ref": "EN 269"}}, {"type": "Feature", "geometry": {"type": "LineString", "coordinates": [[-8.2303468, 37.1055007], [-8.2304139, 37.1056823]]}, "properties": {"highway": "primary", "maxspeed": "50", "name": "Estrada dos Brejos", "ref": "EN 269"}}, {"type": "Feature", "geometry": {"type": "LineString", "coordinates": [[-8.2299927, 37.1050543], [-8.2300651, 37.1050909], [-8.2301219, 37.1051242], [-8.2302074, 37.1052208], [-8.2302202, 37.1052399], [-8.2303468, 37.1055007]]}, "properties": {"highway": "primary", "lanes": "1", "name": "Estrada dos Brejos", "oneway": "yes", "ref": "EN 269"}}, {"type": "Feature", "geometry": {"type": "LineString", "coordinates": [[-8.2309691, 37.1086754], [-8.2309036, 37.1088259], [-8.2308659, 37.1089135], [-8.2308157, 37.1089899]]}, "properties": {"highway": "primary", "maxspeed": "50", "oneway": "yes", "ref": "EN 269"}}, {"type": "Feature", "geometry": {"type": "LineString", "coordinates": [[-8.4342609, 37.1868608], [-8.4347239, 37.1867003], [-8.4350082, 37.1865978]]}, "properties": {"highway": "primary", "lanes": "1", "maxspeed": "50", "oneway": "yes", "ref": "EN 269", "surface": "asphalt", "turn:lanes": "through;slight_right"}}, {"type": "Feature", "geometry": {"type": "LineString", "coordinates": [[-8.2235225, 37.121937], [-8.2235671, 37.122025], [-8.2236113, 37.1221469], [-8.2236575, 37.1223968]]}, "properties": {"destination": "Lisboa;Faro;Portim\u00e3o", "highway": "primary", "lanes": "2", "maxspeed": "60", "oneway": "yes", "ref": "EN 269", "surface": "asphalt"}}, {"type": "Feature", "geometry": {"type": "LineString", "coordinates": [[-8.2238628, 37.1229406], [-8.2238127, 37.1227915], [-8.2236893, 37.1221277], [-8.2237012, 37.1220178], [-8.2237109, 37.121948]]}, "properties": {"destination": "Albufeira;Montechoro", "highway": "primary", "lanes": "2", "maxspeed": "50", "oneway": "yes", "ref": "EN 269", "surface": "asphalt"}}, {"type": "Feature", "geometry": {"type": "LineString", "coordinates": [[-8.2237267, 37.1213408], [-8.2236556, 37.1214871], [-8.2236127, 37.1215962], [-8.2235462, 37.1216842]]}, "properties": {"highway": "primary", "maxspeed": "50", "oneway": "yes", "ref": "EN 269", "surface": "asphalt"}}, {"type": "Feature", "geometry": {"type": "LineString", "coordinates": [[-8.2237488, 37.1217045], [-8.2237333, 37.1216689], [-8.2237134, 37.1216017], [-8.2237119, 37.1214775], [-8.2237267, 37.1213408]]}, "properties": {"highway": "primary", "maxspeed": "50", "oneway": "yes", "ref": "EN 269", "surface": "asphalt"}}, {"type": "Feature", "geometry": {"type": "LineString", "coordinates": [[-8.2301056, 37.1047575], [-8.2300627, 37.1046862], [-8.2300325, 37.1046171]]}, "properties": {"highway": "primary", "lanes": "1", "name": "Rua Teixeira Gomes", "oneway": "yes", "ref": "EN 269"}}, {"type": "Feature", "geometry": {"type": "LineString", "coordinates": [[-8.223293, 37.0927798], [-8.2233761, 37.0929531], [-8.2233884, 37.0929782], [-8.2234154, 37.0930336], [-8.2234566, 37.0931178], [-8.2234892, 37.0931698], [-8.2235981, 37.0933436], [-8.2236041, 37.0933531], [-8.2236348, 37.0933978], [-8.2236571, 37.0934303], [-8.2237114, 37.0935093], [-8.2238348, 37.0936698]]}, "properties": {"highway": "primary", "lanes": "1", "lit": "yes", "name": "Estrada de Santa Eul\u00e1lia", "oneway": "yes", "ref": "EN 269"}}, {"type": "Feature", "geometry": {"type": "LineString", "coordinates": [[-8.223293, 37.0927798], [-8.2232004, 37.0926249], [-8.2230998, 37.0924567], [-8.2230086, 37.0923219], [-8.222928, 37.0922213], [-8.222904, 37.0921914], [-8.2228677, 37.0921472], [-8.2228384, 37.0921115], [-8.2228021, 37.0920673], [-8.2227246, 37.0919884], [-8.2226429, 37.0919052], [-8.2224549, 37.0917138], [-8.2224239, 37.0916822], [-8.2223005, 37.0915517], [-8.2222362, 37.0914618], [-8.2221584, 37.0913527], [-8.2220913, 37.0912286], [-8.2220611, 37.091149], [-8.2220296, 37.091066], [-8.2220069, 37.0909984], [-8.2219749, 37.0909036], [-8.2219121, 37.0907169], [-8.2217495, 37.0902346], [-8.2216452, 37.0899033], [-8.221607, 37.089782], [-8.2215434, 37.0895813]]}, "properties": {"highway": "primary", "lanes:backward": "1", "lanes:forward": "1", "lit": "yes", "name": "Estrada de Santa Eul\u00e1lia", "oneway": "no", "ref": "EN 269", "sidewalk": "both", "surface": "asphalt"}}, {"type": "Feature", "geometry": {"type": "LineString", "coordinates": [[-8.2238348, 37.0936698], [-8.2237658, 37.0935119], [-8.2237126, 37.0934095], [-8.2236543, 37.0933088], [-8.2235551, 37.0931373], [-8.2235031, 37.0930475], [-8.223293, 37.0927798]]}, "properties": {"highway": "primary", "lanes": "1", "lit": "yes", "name": "Estrada de Santa Eul\u00e1lia", "oneway": "yes", "ref": "EN 269"}}, {"type": "Feature", "geometry": {"type": "LineString", "coordinates": [[-8.2213309, 37.0893358], [-8.2214013, 37.0893866], [-8.2214611, 37.0894453], [-8.2215088, 37.0895108], [-8.2215434, 37.0895813]]}, "properties": {"highway": "primary", "lanes": "1", "lit": "yes", "name": "Estrada de Santa Eul\u00e1lia", "oneway": "yes", "ref": "EN 269", "sidewalk": "both", "surface": "asphalt"}}, {"type": "Feature", "geometry": {"type": "LineString", "coordinates": [[-8.2215434, 37.0895813], [-8.2215284, 37.0895054], [-8.2215194, 37.0894288], [-8.2215162, 37.089352], [-8.2215188, 37.0892751]]}, "properties": {"highway": "primary", "lanes": "1", "lit": "yes", "name": "Estrada de Santa Eul\u00e1lia", "oneway": "yes", "ref": "EN 269", "sidewalk": "both", "surface": "asphalt"}}, {"type": "Feature", "geometry": {"type": "LineString", "coordinates": [[-8.2244524, 37.0972023], [-8.2244584, 37.0972612], [-8.2244661, 37.0973516], [-8.2245002, 37.0977092], [-8.2245532, 37.0982817], [-8.2245525, 37.0983717], [-8.2245519, 37.0984461], [-8.2244923, 37.0992166], [-8.2244781, 37.0994006], [-8.2244493, 37.0997599], [-8.2244534, 37.0998975], [-8.2244737, 37.1000451], [-8.2245462, 37.1003252], [-8.2247088, 37.1007996], [-8.2247825, 37.1009746]]}, "properties": {"highway": "primary", "lanes": "2", "maxspeed": "50", "name": "Rua Teixeira Gomes", "ref": "EN 269"}}, {"type": "Feature", "geometry": {"type": "LineString", "coordinates": [[-8.2242076, 37.094686], [-8.2242134, 37.0948491], [-8.224224, 37.0951438], [-8.2242288, 37.0952757], [-8.2241808, 37.095499], [-8.2241516, 37.0956038]]}, "properties": {"highway": "primary", "lanes": "1", "lit": "yes", "name": "Estrada de Santa Eul\u00e1lia", "oneway": "yes", "ref": "EN 269", "surface": "asphalt"}}, {"type": "Feature", "geometry": {"type": "LineString", "coordinates": [[-8.2236575, 37.1223968], [-8.2237094, 37.1226797], [-8.2237491, 37.122957]]}, "properties": {"highway": "primary", "lanes": "2", "maxspeed": "60", "oneway": "yes", "ref": "EN 269", "surface": "asphalt"}}, {"type": "Feature", "geometry": {"type": "LineString", "coordinates": [[-8.4353985, 37.1863102], [-8.4352234, 37.1864065], [-8.4351128, 37.1864674], [-8.4349599, 37.1865422], [-8.4348043, 37.1866085], [-8.4345924, 37.1866982], [-8.4344391, 37.1867706], [-8.4342609, 37.1868608]]}, "properties": {"highway": "primary", "lanes": "1", "maxspeed": "50", "oneway": "yes", "ref": "EN 269", "smoothness": "good", "surface": "asphalt", "turn:lanes": "through"}}, {"type": "Feature", "geometry": {"type": "LineString", "coordinates": [[-8.4350082, 37.1865978], [-8.4351503, 37.1865358], [-8.4353005, 37.1864653], [-8.4354943, 37.1863659], [-8.4356475, 37.1862813]]}, "properties": {"bicycle": "yes", "highway": "primary", "lanes": "1", "maxspeed": "50", "oneway": "yes", "ref": "EN 269", "turn:lanes": "through"}}, {"type": "Feature", "geometry": {"type": "LineString", "coordinates": [[-8.2282277, 37.1173319], [-8.2282424, 37.1173072]]}, "properties": {"highway": "primary", "lanes": "2", "lanes:backward": "1", "lanes:forward": "1", "maxspeed": "50", "ref": "EN 269"}}, {"type": "Feature", "geometry": {"type": "LineString", "coordinates": [[-8.228184, 37.1174055], [-8.2282277, 37.1173319]]}, "properties": {"highway": "primary", "lanes": "2", "lanes:backward": "1", "lanes:forward": "1", "maxspeed": "50", "ref": "EN 269"}}, {"type": "Feature", "geometry": {"type": "LineString", "coordinates": [[-8.4356475, 37.1862813], [-8.4356734, 37.1862687]]}, "properties": {"bicycle": "yes", "highway": "primary", "lanes": "1", "maxspeed": "50", "oneway": "yes", "ref": "EN 269"}}, {"type": "Feature", "geometry": {"type": "LineString", "coordinates": [[-8.228144, 37.1174727], [-8.228184, 37.1174055]]}, "properties": {"highway": "primary", "lanes": "2", "lanes:backward": "1", "lanes:forward": "1", "maxspeed": "50", "ref": "EN 269", "turn:lanes:backward": "left;through"}}, {"type": "Feature", "geometry": {"type": "LineString", "coordinates": [[-8.2280789, 37.117572], [-8.228144, 37.1174727]]}, "properties": {"highway": "primary", "lanes": "2", "lanes:backward": "1", "lanes:forward": "1", "maxspeed": "50", "ref": "EN 269", "turn:lanes:forward": "through;right"}}, {"type": "Feature", "geometry": {"type": "LineString", "coordinates": [[-8.2300325, 37.1046171], [-8.2299632, 37.1044848]]}, "properties": {"highway": "primary", "lanes": "1", "name": "Rua Teixeira Gomes", "oneway": "yes", "ref": "EN 269"}}, {"type": "Feature", "geometry": {"type": "LineString", "coordinates": [[-8.2275253, 37.1027681], [-8.227653, 37.1028054], [-8.2280006, 37.1029071], [-8.2281849, 37.1029603], [-8.2285421, 37.1030814], [-8.2285923, 37.1031111], [-8.2286685, 37.1031725], [-8.2290394, 37.1034181], [-8.2291403, 37.1034895], [-8.2293396, 37.1036333], [-8.2294969, 37.10374], [-8.2296097, 37.1038373], [-8.2297231, 37.1039551], [-8.2298909, 37.1042136], [-8.2299632, 37.1044848]]}, "properties": {"highway": "primary", "lanes": "2", "maxspeed": "50", "name": "Rua Teixeira Gomes", "ref": "EN 269"}}, {"type": "Feature", "geometry": {"type": "LineString", "coordinates": [[-8.2251942, 37.1018316], [-8.225287, 37.1019213], [-8.2254759, 37.1020425], [-8.225677, 37.1021538], [-8.2259131, 37.1022565], [-8.225993, 37.1022863], [-8.2262054, 37.1023656], [-8.2262467, 37.1023788], [-8.2265328, 37.1024671], [-8.2266793, 37.1025173], [-8.2269538, 37.1026052], [-8.2275253, 37.1027681]]}, "properties": {"highway": "primary", "lanes": "2", "maxspeed": "50", "name": "Rua Teixeira Gomes", "ref": "EN 269"}}, {"type": "Feature", "geometry": {"type": "LineString", "coordinates": [[-8.2304139, 37.1056823], [-8.2305794, 37.1061303], [-8.2305941, 37.1061701], [-8.2306603, 37.1063492], [-8.2307563, 37.1066092], [-8.2307945, 37.1067126], [-8.2308282, 37.1068072], [-8.230894, 37.1069916], [-8.2309561, 37.1072038], [-8.2309885, 37.1073255], [-8.2309945, 37.1073476], [-8.2310395, 37.1075902], [-8.2310488, 37.1077264], [-8.2310564, 37.1078364], [-8.2310584, 37.1080057], [-8.2310566, 37.1081233], [-8.2310388, 37.1083096], [-8.2310093, 37.1084808], [-8.2309717, 37.108663], [-8.2309691, 37.1086754]]}, "properties": {"highway": "primary", "maxspeed": "50", "name": "Estrada dos Brejos", "ref": "EN 269"}}, {"type": "Feature", "geometry": {"type": "LineString", "coordinates": [[-8.2244849, 37.0969192], [-8.2244269, 37.0969137], [-8.2243698, 37.0969232], [-8.2243193, 37.0969466]]}, "properties": {"highway": "primary", "junction": "roundabout", "lanes": "2", "ref": "EN 269", "surface": "asphalt"}}, {"type": "Feature", "geometry": {"type": "LineString", "coordinates": [[-8.22419, 37.0958912], [-8.2242218, 37.0959555], [-8.2242692, 37.0960788]]}, "properties": {"highway": "primary", "lanes": "2", "name": "Rua Teixeira Gomes", "oneway": "yes", "ref": "EN 269", "surface": "asphalt"}}, {"type": "Feature", "geometry": {"type": "LineString", "coordinates": [[-8.2244783, 37.0958692], [-8.2245191, 37.0958275], [-8.2245435, 37.0957784]]}, "properties": {"highway": "primary", "junction": "roundabout", "lanes": "3", "name": "Rotundo do Globo", "ref": "EN 269;EM 526", "smoothness": "excellent", "surface": "asphalt"}}, {"type": "Feature", "geometry": {"type": "LineString", "coordinates": [[-8.224161, 37.0958742], [-8.22419, 37.0958912], [-8.2242464, 37.0959124], [-8.2243078, 37.095921], [-8.2243698, 37.0959162], [-8.224428, 37.0958985], [-8.2244783, 37.0958692]]}, "properties": {"highway": "primary", "junction": "roundabout", "lanes": "3", "name": "Rotundo do Globo", "ref": "EN 269;EM 526", "smoothness": "excellent", "surface": "asphalt"}}, {"type": "Feature", "geometry": {"type": "LineString", "coordinates": [[-8.2243193, 37.0969466], [-8.2242874, 37.0969738], [-8.2242653, 37.0970065], [-8.2242543, 37.0970427], [-8.2242553, 37.09708], [-8.2242716, 37.0971218], [-8.2243029, 37.0971578], [-8.2243462, 37.0971846], [-8.2243976, 37.0972], [-8.2244524, 37.0972023]]}, "properties": {"highway": "primary", "junction": "roundabout", "lanes": "2", "ref": "EN 269", "surface": "asphalt"}}, {"type": "Feature", "geometry": {"type": "LineString", "coordinates": [[-8.2247825, 37.1009746], [-8.2249407, 37.1013415], [-8.2250735, 37.1016318], [-8.2251942, 37.1018316]]}, "properties": {"highway": "primary", "lanes": "2", "maxspeed": "50", "name": "Rua Teixeira Gomes", "ref": "EN 269"}}, {"type": "Feature", "geometry": {"type": "LineString", "coordinates": [[-8.2245435, 37.0957784], [-8.2245497, 37.0957275], [-8.2245383, 37.0956771], [-8.2245101, 37.0956311], [-8.2244672, 37.095593]]}, "properties": {"highway": "primary", "junction": "roundabout", "lanes": "3", "name": "Rotundo do Globo", "ref": "EN 269;EM 526", "smoothness": "excellent", "surface": "asphalt"}}, {"type": "Feature", "geometry": {"type": "LineString", "coordinates": [[-8.2240954, 37.0956766], [-8.2240835, 37.0957334], [-8.224094, 37.0957903], [-8.2241258, 37.0958419], [-8.224161, 37.0958742]]}, "properties": {"highway": "primary", "junction": "roundabout", "lanes": "3", "name": "Rotundo do Globo", "ref": "EN 269;EM 526", "smoothness": "excellent", "surface": "asphalt"}}, {"type": "Feature", "geometry": {"type": "LineString", "coordinates": [[-8.2244672, 37.095593], [-8.2244523, 37.0955837], [-8.2244364, 37.0955755]]}, "properties": {"highway": "primary", "junction": "roundabout", "lanes": "3", "name": "Rotundo do Globo", "ref": "EN 269;EM 526", "smoothness": "excellent", "surface": "asphalt"}}, {"type": "Feature", "geometry": {"type": "LineString", "coordinates": [[-8.2241516, 37.0956038], [-8.2241181, 37.0956376], [-8.2240954, 37.0956766]]}, "properties": {"highway": "primary", "junction": "roundabout", "lanes": "3", "name": "Rotundo do Globo", "ref": "EN 269;EM 526", "smoothness": "excellent", "surface": "asphalt"}}, {"type": "Feature", "geometry": {"type": "MultiPolygon", "coordinates": [[[[-8.2302474, 37.1048848], [-8.2302263, 37.1048344], [-8.2301832, 37.1047912], [-8.2301611, 37.1047799], [-8.2301056, 37.1047575], [-8.2300612, 37.1047527], [-8.2299971, 37.1047596], [-8.2299368, 37.1047844], [-8.2298921, 37.1048226], [-8.2298686, 37.1048532], [-8.2298612, 37.1049257], [-8.2298754, 37.1049688], [-8.2299267, 37.1050283], [-8.229958, 37.1050431], [-8.2299927, 37.1050543], [-8.2300669, 37.1050631], [-8.2301278, 37.1050521], [-8.2301998, 37.1050118], [-8.2302253, 37.1049786], [-8.230241, 37.1049536], [-8.2302474, 37.1048848]]]]}, "properties": {"highway": "primary", "junction": "roundabout", "lanes": "2", "maxspeed": "50", "name": "Rotunda da Montechoro", "ref": "EN 269"}}, {"type": "Feature", "geometry": {"type": "MultiPolygon", "coordinates": [[[[-8.2296671, 37.115963], [-8.2296581, 37.1159179], [-8.2296314, 37.1158775], [-8.2296172, 37.1158642], [-8.2295745, 37.1158385], [-8.2295242, 37.1158241], [-8.2294707, 37.1158225], [-8.2294191, 37.1158337], [-8.2293741, 37.1158566], [-8.2293375, 37.1158924], [-8.2293174, 37.1159357], [-8.2293159, 37.1159817], [-8.2293331, 37.1160256], [-8.2293672, 37.1160628], [-8.2294144, 37.1160892], [-8.2294699, 37.116102], [-8.2295275, 37.1160999], [-8.2295592, 37.1160919], [-8.2295884, 37.1160794], [-8.2296303, 37.1160482], [-8.2296575, 37.116008], [-8.2296671, 37.115963]]]]}, "properties": {"highway": "primary", "junction": "roundabout", "lanes": "2", "ref": "EN 269"}}, {"type": "Feature", "geometry": {"type": "MultiPolygon", "coordinates": [[[[-8.2238129, 37.1218229], [-8.2238056, 37.1217747], [-8.2237836, 37.1217363], [-8.2237488, 37.1217045], [-8.2237032, 37.1216815], [-8.2236513, 37.12167], [-8.2235975, 37.121671], [-8.2235462, 37.1216842], [-8.2235005, 37.1217098], [-8.2234665, 37.1217452], [-8.2234472, 37.121787], [-8.2234446, 37.1218315], [-8.2234572, 37.1218719], [-8.2234836, 37.1219078], [-8.2235225, 37.121937], [-8.2235665, 37.1219551], [-8.2236148, 37.1219632], [-8.2236641, 37.1219608], [-8.2237109, 37.121948], [-8.2237422, 37.1219323], [-8.2237689, 37.1219118], [-8.2238002, 37.1218703], [-8.2238129, 37.1218229]]]]}, "properties": {"highway": "primary", "junction": "roundabout", "lanes": "2", "ref": "EN 269", "surface": "asphalt"}}, {"type": "Feature", "geometry": {"type": "MultiPolygon", "coordinates": [[[[-8.2286349, 37.1166792], [-8.2286189, 37.1166259], [-8.2286018, 37.1165997], [-8.2285352, 37.1165462], [-8.2284717, 37.1165241], [-8.2284047, 37.1165189], [-8.2283225, 37.1165359], [-8.2282872, 37.116553], [-8.2282318, 37.1166011], [-8.2282026, 37.1166621], [-8.2282034, 37.1167266], [-8.2282328, 37.1167853], [-8.2282425, 37.1167966], [-8.2282848, 37.1168307], [-8.2283515, 37.1168584], [-8.2284241, 37.1168665], [-8.2284764, 37.1168601], [-8.2285441, 37.1168342], [-8.2285996, 37.1167882], [-8.2286286, 37.1167362], [-8.2286349, 37.1166792]]]]}, "properties": {"highway": "primary", "junction": "roundabout", "lanes": "2", "ref": "EN 269"}}, {"type": "Feature", "geometry": {"type": "MultiPolygon", "coordinates": [[[[-8.2310141, 37.1090524], [-8.2310091, 37.1090209], [-8.2309834, 37.108986], [-8.2309762, 37.1089794], [-8.2309475, 37.1089658], [-8.2309225, 37.1089596], [-8.2308843, 37.1089591], [-8.2308389, 37.1089733], [-8.2308157, 37.1089899], [-8.2307984, 37.1090188], [-8.2307914, 37.1090445], [-8.2307918, 37.1090686], [-8.2308001, 37.1090837], [-8.2308062, 37.1090952], [-8.2308252, 37.1091135], [-8.2308582, 37.1091305], [-8.2308868, 37.1091367], [-8.2309407, 37.109132], [-8.2309735, 37.1091169], [-8.2309977, 37.1090946], [-8.2310141, 37.1090524]]]]}, "properties": {"highway": "primary", "junction": "roundabout", "maxspeed": "50", "ref": "EN 269"}}]}