{"type": "FeatureCollection", "features": [{"type": "Feature", "geometry": {"type": "LineString", "coordinates": [[-8.2295594, 37.8320249], [-8.2286239, 37.8322042], [-8.2274212, 37.8324694], [-8.2239233, 37.8332369], [-8.2224845, 37.8337231], [-8.2185029, 37.8350686], [-8.2176266, 37.8353686], [-8.2174409, 37.8353988], [-8.2172555, 37.8354001], [-8.21707, 37.8353622], [-8.2168409, 37.8352866], [-8.2156311, 37.8348979], [-8.2144422, 37.8344821], [-8.2129455, 37.8336954], [-8.2127517, 37.8336307], [-8.2124702, 37.8335797], [-8.2120811, 37.8335314], [-8.2118592, 37.8334751], [-8.211682, 37.8334176], [-8.2112349, 37.833211], [-8.211023, 37.8331429], [-8.2107862, 37.8330919], [-8.2102117, 37.8330122], [-8.2093208, 37.8329089], [-8.2082495, 37.8327846], [-8.2080508, 37.8327846], [-8.2078819, 37.8328003], [-8.2077395, 37.8328526], [-8.2074647, 37.8330632], [-8.2065722, 37.8338347], [-8.2063603, 37.8339812], [-8.2061285, 37.8341198], [-8.2055638, 37.8344232], [-8.2037905, 37.8353556], [-8.2026513, 37.8359533], [-8.2010021, 37.8368203], [-8.1991145, 37.8378154], [-8.1974918, 37.8386706], [-8.1968758, 37.8390289], [-8.1962301, 37.8394827], [-8.1955408, 37.8399691], [-8.1913591, 37.8429282], [-8.1905266, 37.8435121], [-8.190193, 37.8437598], [-8.1899728, 37.8439429], [-8.1886829, 37.8452125], [-8.1876215, 37.8462638], [-8.1870139, 37.846809], [-8.1860038, 37.8476628], [-8.1839606, 37.8494044], [-8.1814305, 37.8515669], [-8.1803029, 37.8525318], [-8.1798674, 37.8529057], [-8.179417, 37.8533332], [-8.1789799, 37.8537895], [-8.1786289, 37.8541229], [-8.1775278, 37.8550877], [-8.1765276, 37.8559571], [-8.1757991, 37.856616], [-8.175208, 37.8571207], [-8.1748454, 37.8574357], [-8.1745672, 37.8576723], [-8.174395, 37.8578528], [-8.1742261, 37.8580828], [-8.1741317, 37.8582201], [-8.1740438, 37.8583928], [-8.1739839, 37.858505], [-8.1734917, 37.8594952], [-8.1723261, 37.8618264], [-8.1719828, 37.8622127], [-8.1717896, 37.862556], [-8.1716608, 37.8629637], [-8.1699922, 37.8653315], [-8.1698978, 37.8654917], [-8.1698423, 37.8656093], [-8.1698158, 37.8657479], [-8.1698117, 37.8658969], [-8.1698465, 37.8662086], [-8.169926, 37.866721], [-8.1699831, 37.867091], [-8.1700137, 37.8672603], [-8.1700891, 37.8677491], [-8.1701603, 37.8681916], [-8.1702248, 37.8686308], [-8.1702522, 37.8688536], [-8.1702472, 37.8690909], [-8.1702249, 37.8698169], [-8.170213, 37.8700328], [-8.170126, 37.8713901], [-8.17003, 37.8720503]]}, "properties": {"highway": "primary", "oneway": "no", "ref": "EN 263", "surface": "asphalt"}}, {"type": "Feature", "geometry": {"type": "LineString", "coordinates": [[-8.2319874, 37.8320446], [-8.2310953, 37.8320374], [-8.2310736, 37.8320372], [-8.2295594, 37.8320249]]}, "properties": {"highway": "primary", "oneway": "no", "ref": "EN 263"}}, {"type": "Feature", "geometry": {"type": "LineString", "coordinates": [[-8.6104462, 37.6041268], [-8.610344, 37.6043524]]}, "properties": {"highway": "primary", "lanes": "2", "oneway": "no", "ref": "EN 263", "source": "GPS", "surface": "paved"}}, {"type": "Feature", "geometry": {"type": "LineString", "coordinates": [[-8.3338258, 37.7832241], [-8.3289824, 37.7863903], [-8.3286553, 37.7865665], [-8.3281368, 37.7866844], [-8.3275804, 37.7867648], [-8.3275299, 37.7867935]]}, "properties": {"highway": "primary", "ref": "EN 263", "source": "GPS"}}, {"type": "Feature", "geometry": {"type": "LineString", "coordinates": [[-8.3403152, 37.7774498], [-8.3401328, 37.7775975]]}, "properties": {"bridge": "yes", "highway": "primary", "layer": "1", "ref": "EN 263", "source": "GPS"}}, {"type": "Feature", "geometry": {"type": "LineString", "coordinates": [[-8.3393213, 37.7800285], [-8.3391972, 37.7801068], [-8.3391112, 37.780144], [-8.3390531, 37.7801614], [-8.3388778, 37.7802139], [-8.3382796, 37.7803087], [-8.3380352, 37.7803624], [-8.3377969, 37.7804691], [-8.3377496, 37.7804996], [-8.3376261, 37.7805792], [-8.3374261, 37.7807479], [-8.3372122, 37.7809284], [-8.3367919, 37.7812706], [-8.3355545, 37.7821326], [-8.3338258, 37.7832241]]}, "properties": {"highway": "primary", "ref": "EN 263", "source": "GPS"}}, {"type": "Feature", "geometry": {"type": "LineString", "coordinates": [[-8.5664836, 37.6475951], [-8.5664132, 37.6477563], [-8.5663462, 37.647844], [-8.5662651, 37.6479256], [-8.5661362, 37.6479848], [-8.5660022, 37.6480293], [-8.5658414, 37.6480605], [-8.5648197, 37.6482122], [-8.5645611, 37.6482528], [-8.5643334, 37.6483002], [-8.5642156, 37.6483328], [-8.5641128, 37.6483669], [-8.5639189, 37.6484501], [-8.562843, 37.6489513], [-8.5622256, 37.6492453], [-8.5618242, 37.649429], [-8.5614459, 37.6495669], [-8.5609211, 37.6497765], [-8.560246, 37.6500743], [-8.5597053, 37.6502873], [-8.5584986, 37.6506754], [-8.5576573, 37.6509459], [-8.5572962, 37.6510743], [-8.5571257, 37.6511475], [-8.5568129, 37.651306], [-8.5564555, 37.6514984], [-8.555279, 37.6521235], [-8.5548178, 37.6523558], [-8.5541555, 37.6527124], [-8.5535546, 37.6530322], [-8.553366, 37.6531154], [-8.5531908, 37.6531799], [-8.5530279, 37.6532265], [-8.5528452, 37.6532698], [-8.5517716, 37.653502], [-8.5507063, 37.6537338], [-8.5497852, 37.6539106], [-8.5475923, 37.6542359], [-8.5472128, 37.6542919], [-8.5469872, 37.6543462], [-8.5468716, 37.6543872], [-8.5467417, 37.6544522], [-8.5465868, 37.654545], [-8.5463401, 37.6547212], [-8.5461202, 37.6548943], [-8.5459817, 37.655001], [-8.5459005, 37.6550768], [-8.5458136, 37.6551926], [-8.5457593, 37.6553011], [-8.5457062, 37.6554355], [-8.5454984, 37.6561628], [-8.5454587, 37.6562843], [-8.5453981, 37.6563962], [-8.5453229, 37.6564912], [-8.5452364, 37.6565761], [-8.5450859, 37.6566814], [-8.5449307, 37.6567619], [-8.5446066, 37.656893], [-8.5435525, 37.6572872], [-8.5427441, 37.6575924], [-8.542405, 37.6577264], [-8.5422641, 37.6577969], [-8.5421447, 37.6578762], [-8.5420627, 37.6579442], [-8.5419786, 37.6580353], [-8.5418845, 37.658157], [-8.5412864, 37.6590304], [-8.5411594, 37.6591983], [-8.5411148, 37.6592603], [-8.5410247, 37.6593471], [-8.5409279, 37.6594277], [-8.5408128, 37.6595139], [-8.5401547, 37.659951], [-8.5399164, 37.6601147], [-8.5398028, 37.6602003], [-8.53972, 37.6602723], [-8.5396505, 37.6603529], [-8.5396092, 37.6604239], [-8.5394958, 37.6606796], [-8.5391615, 37.6616717], [-8.5389319, 37.6623614], [-8.5388932, 37.6625096], [-8.5388653, 37.6626583], [-8.5388361, 37.6628522], [-8.538745, 37.6637832], [-8.5387249, 37.6639171], [-8.5386968, 37.6640262], [-8.5386706, 37.6641002], [-8.5386131, 37.6642033], [-8.5385258, 37.6643247], [-8.5384408, 37.6644124], [-8.5383264, 37.6645186], [-8.5379893, 37.6648461], [-8.5377989, 37.6650771], [-8.5373177, 37.6657501], [-8.536525, 37.666836], [-8.5357369, 37.6679473], [-8.5355169, 37.6682273], [-8.5353282, 37.6684128], [-8.5351644, 37.668549], [-8.5350295, 37.6686499], [-8.5347465, 37.6688423], [-8.5343935, 37.6690807], [-8.5336964, 37.669561], [-8.5334402, 37.6697374], [-8.5333075, 37.6698264], [-8.5331587, 37.6699133], [-8.5330037, 37.6699853], [-8.5328315, 37.6700419], [-8.5326587, 37.6700894], [-8.5314161, 37.6703678], [-8.5306609, 37.6705398], [-8.5304342, 37.6706129], [-8.5302004, 37.6707279], [-8.5300091, 37.6708564], [-8.5298558, 37.6709901], [-8.5297397, 37.6711089], [-8.5296281, 37.6712613], [-8.5289421, 37.672423], [-8.5283947, 37.673448], [-8.5281101, 37.6739658], [-8.5275522, 37.6750757], [-8.5273721, 37.6754452], [-8.5272927, 37.6756188], [-8.5272156, 37.6757446], [-8.5270304, 37.6760196], [-8.5267841, 37.676325], [-8.5265584, 37.6765684], [-8.5262985, 37.6767886], [-8.5259483, 37.6770412], [-8.5256578, 37.6772221], [-8.5253763, 37.6773754], [-8.5250182, 37.677537], [-8.5236726, 37.6780644], [-8.5218752, 37.6787586], [-8.5198481, 37.6795615], [-8.5193471, 37.6797518], [-8.518973, 37.6798833], [-8.5186508, 37.6799739], [-8.5182923, 37.6800448], [-8.5176703, 37.6801435], [-8.5173693, 37.6801995], [-8.5171231, 37.6802692], [-8.5168981, 37.6803739], [-8.5166601, 37.6805219], [-8.516468, 37.680677], [-8.5162761, 37.6808823], [-8.5159635, 37.6812906], [-8.5157731, 37.6814161], [-8.5156531, 37.6814695], [-8.5153903, 37.6815385], [-8.514605, 37.6816563], [-8.5122858, 37.6819902], [-8.5118961, 37.6820935], [-8.511669, 37.6821698], [-8.5113009, 37.6823382], [-8.5105081, 37.6827587], [-8.5078616, 37.6842324], [-8.5072484, 37.6845305], [-8.5069479, 37.6846556], [-8.5064486, 37.6847973], [-8.5059629, 37.6849253], [-8.5056149, 37.6850595], [-8.505366, 37.6852232], [-8.5050859, 37.6854603], [-8.5046588, 37.6858078], [-8.5039722, 37.6863532], [-8.5035422, 37.686618], [-8.5031655, 37.6868154], [-8.5023634, 37.6871079], [-8.5021149, 37.6872089], [-8.5019115, 37.6873058], [-8.5015458, 37.6875376], [-8.5014499, 37.6876014], [-8.5010149, 37.6879159], [-8.5008006, 37.6880456], [-8.5005, 37.6881905], [-8.5000828, 37.6883626], [-8.4998316, 37.688499], [-8.4993179, 37.6888788], [-8.4991446, 37.688979], [-8.4983844, 37.689321], [-8.4980959, 37.6895133], [-8.4976229, 37.6898995], [-8.4975103, 37.689998], [-8.4972624, 37.6902122], [-8.4969653, 37.690427], [-8.4966381, 37.6906518], [-8.4958513, 37.6911206], [-8.4954142, 37.6913448], [-8.4948725, 37.6916469], [-8.4939218, 37.6923687], [-8.4936578, 37.692569], [-8.4933567, 37.6927521], [-8.4923381, 37.6932422], [-8.4921744, 37.6933113], [-8.4918028, 37.6934411], [-8.4910735, 37.6936744], [-8.4908291, 37.6937545], [-8.4906078, 37.693848], [-8.4903015, 37.693996], [-8.4885733, 37.6949586]]}, "properties": {"highway": "primary", "lanes": "2", "ref": "EN 263", "surface": "paved"}}, {"type": "Feature", "geometry": {"type": "LineString", "coordinates": [[-8.566547, 37.6473969], [-8.5664836, 37.6475951]]}, "properties": {"bridge": "yes", "highway": "primary", "lanes": "2", "layer": "1", "ref": "EN 263", "surface": "paved"}}, {"type": "Feature", "geometry": {"type": "LineString", "coordinates": [[-8.4100397, 37.7269294], [-8.4100112, 37.7270191], [-8.4099398, 37.7271298]]}, "properties": {"highway": "primary", "lanes": "1", "oneway": "yes", "ref": "EN 263"}}, {"type": "Feature", "geometry": {"type": "LineString", "coordinates": [[-8.4099858, 37.72687], [-8.4100397, 37.7269294], [-8.4101148, 37.726957], [-8.4101658, 37.7269655], [-8.4102029, 37.7269713], [-8.4102811, 37.7269612], [-8.4103455, 37.7269464], [-8.4104099, 37.726923], [-8.4104581, 37.7269061], [-8.4105059, 37.726876], [-8.4105493, 37.7268339], [-8.4105815, 37.7267724], [-8.4105842, 37.726713], [-8.4105716, 37.7266619], [-8.4105467, 37.7266218], [-8.4104984, 37.7265857], [-8.4104245, 37.7265606], [-8.4103535, 37.7265518], [-8.4102597, 37.726556], [-8.4101738, 37.7265857], [-8.4100826, 37.726626], [-8.4100129, 37.7266918], [-8.409978, 37.726766], [-8.4099807, 37.7268339], [-8.4099858, 37.72687]]}, "properties": {"highway": "primary", "junction": "roundabout", "lanes": "2", "ref": "EN 263", "source": "GPS"}}, {"type": "Feature", "geometry": {"type": "LineString", "coordinates": [[-8.4107678, 37.7264476], [-8.4106265, 37.7265085], [-8.4105184, 37.7265405], [-8.4103535, 37.7265518]]}, "properties": {"highway": "primary", "lanes": "1", "oneway": "yes", "ref": "EN 263"}}, {"type": "Feature", "geometry": {"type": "LineString", "coordinates": [[-8.4099398, 37.7271298], [-8.4095123, 37.7274578], [-8.4092035, 37.7276978], [-8.4088581, 37.7279379], [-8.407669, 37.7287141], [-8.4072974, 37.7289566], [-8.4056583, 37.7300207], [-8.4056031, 37.7300586], [-8.4047098, 37.7306417], [-8.4035837, 37.7313809], [-8.4028048, 37.7318729], [-8.4011543, 37.7329512], [-8.3967256, 37.7358339], [-8.3937693, 37.7377582], [-8.3929898, 37.7382731], [-8.3926466, 37.7385463], [-8.3879892, 37.743178], [-8.3841379, 37.7470513], [-8.3806801, 37.750504], [-8.3803259, 37.7508238], [-8.3799718, 37.7511061], [-8.3796374, 37.7513355], [-8.3793283, 37.7515125], [-8.3788694, 37.7517613], [-8.3754925, 37.7535329], [-8.3745887, 37.7540223], [-8.3737063, 37.7544736], [-8.3687012, 37.7571346], [-8.3683485, 37.7573183], [-8.3679958, 37.7575317], [-8.3676832, 37.7577747], [-8.3674331, 37.758012], [-8.3671894, 37.7582996], [-8.3670384, 37.7585325], [-8.3662049, 37.7600232], [-8.3651447, 37.7619194], [-8.3644616, 37.7631512], [-8.3638591, 37.7641498], [-8.3630553, 37.7651404], [-8.3617051, 37.7667932], [-8.3607674, 37.7679409], [-8.3606341, 37.7680995], [-8.3590387, 37.7700539], [-8.3586679, 37.7704949], [-8.3582639, 37.7709117], [-8.3578545, 37.7712629], [-8.3544211, 37.7739218], [-8.3540486, 37.7742166], [-8.353184, 37.7748479], [-8.3527344, 37.7751047], [-8.3521772, 37.775388], [-8.3516398, 37.7755975], [-8.349773, 37.7761678], [-8.3467076, 37.777028], [-8.3436609, 37.7778925], [-8.3433973, 37.7779361], [-8.3431975, 37.7779611], [-8.3430139, 37.7779605], [-8.3428879, 37.7779479], [-8.3426116, 37.7779008], [-8.3423138, 37.7778014], [-8.3422177, 37.7777585], [-8.3421624, 37.7777338], [-8.3419083, 37.777598], [-8.3412329, 37.7772474], [-8.3410773, 37.7772057], [-8.3409217, 37.7771928], [-8.3407595, 37.7772028], [-8.3405893, 37.777248], [-8.3404989, 37.777297], [-8.3403152, 37.7774498]]}, "properties": {"highway": "primary", "ref": "EN 263", "source": "GPS"}}, {"type": "Feature", "geometry": {"type": "LineString", "coordinates": [[-8.4105716, 37.7266619], [-8.4106099, 37.7265973], [-8.4106605, 37.7265407], [-8.4107678, 37.7264476]]}, "properties": {"highway": "primary", "lanes": "1", "oneway": "yes", "ref": "EN 263", "source": "GPS", "surface": "paved"}}, {"type": "Feature", "geometry": {"type": "LineString", "coordinates": [[-8.4099398, 37.7271298], [-8.4101271, 37.7270087], [-8.4102029, 37.7269713]]}, "properties": {"highway": "primary", "lanes": "1", "oneway": "yes", "ref": "EN 263", "source": "GPS"}}, {"type": "Feature", "geometry": {"type": "LineString", "coordinates": [[-8.17003, 37.8720503], [-8.1700139, 37.8720884], [-8.1699818, 37.8722408], [-8.1699549, 37.8723551], [-8.169903, 37.8724673]]}, "properties": {"highway": "primary", "lanes": "1", "oneway": "yes", "ref": "EN 263", "surface": "asphalt"}}, {"type": "Feature", "geometry": {"type": "LineString", "coordinates": [[-8.1701859, 37.8723817], [-8.1701427, 37.8723382], [-8.1700928, 37.8722597], [-8.1700515, 37.8721688], [-8.17003, 37.8720503]]}, "properties": {"highway": "primary", "lanes": "1", "oneway": "yes", "ref": "EN 263", "surface": "asphalt"}}, {"type": "Feature", "geometry": {"type": "LineString", "coordinates": [[-8.3402164, 37.7793684], [-8.3393213, 37.7800285]]}, "properties": {"bridge": "yes", "highway": "primary", "layer": "1", "ref": "EN 263", "source": "GPS"}}, {"type": "Feature", "geometry": {"type": "LineString", "coordinates": [[-8.3401328, 37.7775975], [-8.3400462, 37.7777058], [-8.3400074, 37.7778049], [-8.3399835, 37.7779142], [-8.3399926, 37.7780267], [-8.3400246, 37.7781299], [-8.3400824, 37.7782191], [-8.3404568, 37.7787306], [-8.3404916, 37.7788061], [-8.3405165, 37.7789047], [-8.3405108, 37.7789931], [-8.3404809, 37.7790777], [-8.3404137, 37.7791804], [-8.3403548, 37.7792536], [-8.3403015, 37.7793028], [-8.3402164, 37.7793684]]}, "properties": {"highway": "primary", "ref": "EN 263", "source": "GPS"}}, {"type": "Feature", "geometry": {"type": "LineString", "coordinates": [[-8.324659, 37.7891892], [-8.3235367, 37.7899373], [-8.3185346, 37.793159], [-8.3176172, 37.7937312], [-8.3169233, 37.7940592], [-8.3122087, 37.7962303], [-8.3105595, 37.7969403], [-8.3074236, 37.7982903], [-8.3033681, 37.8000712], [-8.3021665, 37.8009295], [-8.3011475, 37.801815], [-8.2987424, 37.8039049], [-8.2977804, 37.8044835], [-8.2935734, 37.8067922], [-8.2934426, 37.8068638], [-8.2900545, 37.80872], [-8.2897854, 37.8088903], [-8.278648, 37.8149564], [-8.2785089, 37.8150284], [-8.2784064, 37.8150716], [-8.2783285, 37.8150991], [-8.2782216, 37.8151259], [-8.2781245, 37.8151427], [-8.2780156, 37.8151507], [-8.2779273, 37.8151496], [-8.2778376, 37.815139], [-8.2777421, 37.8151223], [-8.2775879, 37.8150862], [-8.277323, 37.8150194], [-8.2749077, 37.8143716], [-8.2747905, 37.8143389], [-8.2746671, 37.8143136], [-8.2745798, 37.8142996], [-8.2745012, 37.8142926], [-8.2744178, 37.8142877], [-8.2743335, 37.8142873], [-8.2742351, 37.8142927], [-8.2741439, 37.8143061], [-8.2740357, 37.8143233], [-8.2739396, 37.8143443], [-8.273839, 37.8143758], [-8.2737292, 37.8144127], [-8.273618, 37.8144572], [-8.2727476, 37.8147945], [-8.2711535, 37.8154055], [-8.2685556, 37.8164158], [-8.2683476, 37.816496], [-8.2682072, 37.8165492], [-8.2680813, 37.816594], [-8.2679576, 37.8166321], [-8.2678623, 37.816661], [-8.2676903, 37.8167053], [-8.2675753, 37.8167303], [-8.2674462, 37.8167539], [-8.2673087, 37.8167783], [-8.2664342, 37.8169288], [-8.2642387, 37.8173057], [-8.2583729, 37.8183232], [-8.2539634, 37.8190884], [-8.2537761, 37.8191233], [-8.2536724, 37.8191434], [-8.2535738, 37.8191689], [-8.2534628, 37.8192042], [-8.2533593, 37.819249], [-8.25328, 37.8192873], [-8.2532105, 37.8193264], [-8.2531337, 37.8193764], [-8.2530807, 37.8194177], [-8.2530134, 37.819478], [-8.252919, 37.8195811], [-8.2527826, 37.8197394], [-8.2513332, 37.8214859], [-8.2502339, 37.8228143], [-8.2501281, 37.8229387], [-8.2500446, 37.8230282], [-8.2499606, 37.8231085], [-8.2498263, 37.823221], [-8.2496936, 37.8233206], [-8.2487335, 37.8239642], [-8.2482755, 37.8242665], [-8.2439197, 37.8271492], [-8.2425364, 37.8280576], [-8.242372, 37.8281655]]}, "properties": {"highway": "primary", "lanes": "2", "ref": "EN 263"}}, {"type": "Feature", "geometry": {"type": "LineString", "coordinates": [[-8.4403127, 37.7114368], [-8.4401827, 37.7114849], [-8.4398271, 37.7116058], [-8.4393925, 37.7117149], [-8.4291575, 37.7135308], [-8.4283267, 37.7137685], [-8.4275826, 37.7141666], [-8.4258301, 37.7152509], [-8.4241018, 37.7163308], [-8.424067, 37.716362], [-8.4217191, 37.7178388], [-8.4200134, 37.7189346], [-8.4186934, 37.719998], [-8.4165758, 37.7217193], [-8.4107678, 37.7264476]]}, "properties": {"highway": "primary", "lanes": "2", "ref": "EN 263", "source": "GPS", "surface": "paved"}}, {"type": "Feature", "geometry": {"type": "LineString", "coordinates": [[-8.4405908, 37.7113339], [-8.4404362, 37.7113911], [-8.4403127, 37.7114368]]}, "properties": {"highway": "primary", "lanes": "2", "oneway": "no", "ref": "EN 263", "source": "GPS", "surface": "paved"}}, {"type": "Feature", "geometry": {"type": "LineString", "coordinates": [[-8.4409755, 37.7111915], [-8.4407871, 37.7112612], [-8.4405908, 37.7113339]]}, "properties": {"highway": "primary", "lanes": "2", "oneway": "no", "ref": "EN 263", "source": "GPS", "surface": "paved"}}, {"type": "Feature", "geometry": {"type": "LineString", "coordinates": [[-8.610344, 37.6043524], [-8.6083651, 37.6088777], [-8.60824, 37.6091637], [-8.6079673, 37.6097873], [-8.6073268, 37.611183], [-8.6072843, 37.6112868], [-8.6072486, 37.6113952], [-8.6072239, 37.6114915], [-8.6072077, 37.611603], [-8.6071585, 37.6128399], [-8.6071374, 37.6133151], [-8.607123, 37.6135734], [-8.6070913, 37.6137722], [-8.6066713, 37.6151281], [-8.6066017, 37.6152942], [-8.6065549, 37.6153788], [-8.606482, 37.6154613], [-8.6054386, 37.6165559], [-8.6047635, 37.6172112], [-8.6039728, 37.6178123], [-8.6027844, 37.6187202], [-8.602624, 37.6188275], [-8.6025331, 37.6188783], [-8.6024086, 37.618932], [-8.6019793, 37.6190799], [-8.6018096, 37.6191562], [-8.6016498, 37.6192634], [-8.6015034, 37.6193794], [-8.6009288, 37.6198571], [-8.6006511, 37.6200935], [-8.5994449, 37.6210762], [-8.5989376, 37.6214079], [-8.5980146, 37.6219257], [-8.5967789, 37.6226226], [-8.5961674, 37.6229636], [-8.5958558, 37.6231435], [-8.59509, 37.6236021], [-8.5946279, 37.6239042], [-8.5942583, 37.6241432], [-8.5930934, 37.6248938], [-8.5922735, 37.6254295], [-8.5919481, 37.6256241], [-8.5916552, 37.6258055], [-8.5904893, 37.6264829], [-8.5897166, 37.6269352], [-8.5885261, 37.6276367], [-8.5879569, 37.62797], [-8.5875755, 37.6281903], [-8.5869414, 37.6285625], [-8.5863388, 37.6289152], [-8.585689, 37.6292943], [-8.5853027, 37.6295162], [-8.5849114, 37.6297513], [-8.5847797, 37.6298152], [-8.5839136, 37.6303307], [-8.5828723, 37.6309477], [-8.5824767, 37.6311835], [-8.5822167, 37.631336], [-8.5806986, 37.6324133], [-8.5804116, 37.6326218], [-8.579916, 37.6329734], [-8.5792351, 37.6334577], [-8.5788643, 37.6337663], [-8.578329, 37.6343444], [-8.5780548, 37.6346759], [-8.577891, 37.6348611], [-8.5777238, 37.6350235], [-8.5770344, 37.6355184], [-8.5765743, 37.6358484], [-8.5761542, 37.6361245], [-8.5760848, 37.6361602], [-8.5760156, 37.6361874], [-8.5759106, 37.6362121], [-8.5758048, 37.6362231], [-8.5753951, 37.6362254], [-8.5752649, 37.6362339], [-8.5751519, 37.6362668], [-8.5750687, 37.6363256], [-8.5750062, 37.6364031], [-8.5749701, 37.6365051], [-8.5748695, 37.6369428], [-8.5748293, 37.6371006], [-8.5747778, 37.6372465], [-8.5747311, 37.6373497], [-8.5746853, 37.6374321], [-8.5744782, 37.6377129], [-8.5743034, 37.6379458], [-8.5740983, 37.6382914], [-8.573996, 37.6384527], [-8.5739092, 37.6386643], [-8.5738678, 37.6388083], [-8.5738396, 37.6389542], [-8.5737851, 37.6392977], [-8.5737483, 37.6393941], [-8.573676, 37.6394992], [-8.5729983, 37.640233], [-8.5728683, 37.6404079], [-8.5727622, 37.6405932], [-8.5726667, 37.6408147], [-8.5725797, 37.6409457], [-8.5724775, 37.6410481], [-8.5723674, 37.6411215], [-8.5720619, 37.6412667], [-8.5718167, 37.6413981], [-8.5716073, 37.6415322], [-8.5713108, 37.641704], [-8.5708342, 37.6418992], [-8.5703351, 37.6420971], [-8.5699959, 37.64225], [-8.5698951, 37.6423177], [-8.569805, 37.64239], [-8.5696611, 37.6425863], [-8.5694281, 37.6429911], [-8.5693282, 37.6432339], [-8.5691836, 37.6435485], [-8.5690547, 37.6438597], [-8.5688326, 37.6443857], [-8.568771, 37.6445149], [-8.5687063, 37.6446301], [-8.5685864, 37.6447944], [-8.5684362, 37.6449765], [-8.5671922, 37.6464352], [-8.5668347, 37.6468618], [-8.5667237, 37.6470214], [-8.5666682, 37.6471072], [-8.5666207, 37.6471968], [-8.566547, 37.6473969]]}, "properties": {"highway": "primary", "lanes": "2", "ref": "EN 263"}}, {"type": "Feature", "geometry": {"type": "LineString", "coordinates": [[-8.475026, 37.7005635], [-8.4718398, 37.7019873], [-8.4696037, 37.7029795], [-8.4693733, 37.7030825], [-8.4691004, 37.7031978], [-8.4671114, 37.704059], [-8.465791, 37.7046595], [-8.4650069, 37.7050231], [-8.4611776, 37.7067336], [-8.4608915, 37.7068534], [-8.4606007, 37.7069598], [-8.4603266, 37.7070483], [-8.4598736, 37.7071545], [-8.4594525, 37.707216], [-8.4593483, 37.7072312], [-8.4568241, 37.7075997], [-8.4563135, 37.7076742], [-8.4510932, 37.7084435], [-8.4501416, 37.708574], [-8.447488, 37.7089687], [-8.4469966, 37.7090665], [-8.4461084, 37.7092913], [-8.4440078, 37.710036], [-8.443654, 37.7101708], [-8.44229, 37.7106906], [-8.4409755, 37.7111915]]}, "properties": {"highway": "primary", "lanes": "2", "oneway": "no", "ref": "EN 263", "source": "GPS", "surface": "paved"}}, {"type": "Feature", "geometry": {"type": "LineString", "coordinates": [[-8.242372, 37.8281655], [-8.2423267, 37.8281954], [-8.2420725, 37.8283628], [-8.2419466, 37.8284457], [-8.2419386, 37.828451], [-8.2418323, 37.8285266], [-8.2417351, 37.8286029], [-8.2416815, 37.8286613], [-8.2416433, 37.8287096], [-8.2416022, 37.8287643], [-8.2415751, 37.8288225], [-8.2415584, 37.8288774], [-8.2415512, 37.828939], [-8.2415505, 37.8290123], [-8.241561, 37.8290876], [-8.241582, 37.829188], [-8.241617, 37.8293262], [-8.2418013, 37.8300165], [-8.2420072, 37.8307556], [-8.2420239, 37.8308959], [-8.2420009, 37.8310172], [-8.2419487, 37.8311352], [-8.2418818, 37.8312136], [-8.2417899, 37.8312879], [-8.2416979, 37.8313391], [-8.2415853, 37.8313786], [-8.2414787, 37.8314075], [-8.2412488, 37.8314702], [-8.2407901, 37.8315907], [-8.2398706, 37.8318317], [-8.2395019, 37.8319311], [-8.2389667, 37.8320777]]}, "properties": {"highway": "primary", "lanes": "2", "name": "Rua de Odemira", "postal_code": "7600-330", "ref": "EN 263"}}, {"type": "Feature", "geometry": {"type": "LineString", "coordinates": [[-8.2374931, 37.832054], [-8.2361308, 37.8320156], [-8.2344109, 37.8320277], [-8.2327947, 37.832039], [-8.2319874, 37.8320446]]}, "properties": {"highway": "primary", "lanes": "2", "oneway": "no", "ref": "EN 263"}}, {"type": "Feature", "geometry": {"type": "LineString", "coordinates": [[-8.2389667, 37.8320777], [-8.2389563, 37.8320781], [-8.2385707, 37.8320983], [-8.2374931, 37.832054]]}, "properties": {"highway": "primary", "lanes": "2", "name": "Rua de Aljustrel", "postal_code": "7600-327", "ref": "EN 263"}}, {"type": "Feature", "geometry": {"type": "LineString", "coordinates": [[-8.1510758, 37.8857357], [-8.1519279, 37.8863112], [-8.1523204, 37.8865837], [-8.1527101, 37.8868157], [-8.1531591, 37.8870092], [-8.1537897, 37.8871977], [-8.1549051, 37.8874854], [-8.1555574, 37.8876513], [-8.1563128, 37.8878451], [-8.1570126, 37.8880266], [-8.1574978, 37.8881651], [-8.1580351, 37.8883568], [-8.1584826, 37.8885624], [-8.1589828, 37.8888352], [-8.1592682, 37.8890297], [-8.1595585, 37.8892471], [-8.1600253, 37.8896906], [-8.1604805, 37.8902017], [-8.1609188, 37.8907499], [-8.1627783, 37.89316], [-8.1634629, 37.8939617], [-8.1637571, 37.8942552], [-8.1640691, 37.8945534], [-8.1643382, 37.8947823], [-8.1646308, 37.8950019], [-8.1649004, 37.8951615], [-8.1651705, 37.8952967], [-8.1655059, 37.8954287], [-8.1659104, 37.8955578], [-8.1664954, 37.8957214]]}, "properties": {"highway": "primary", "lanes": "2", "name": "Variante a Aljustrel", "oneway": "no", "ref": "EN 263", "surface": "asphalt"}}, {"type": "Feature", "geometry": {"type": "LineString", "coordinates": [[-8.1793496, 37.8913163], [-8.1797847, 37.891158], [-8.1815371, 37.8905291], [-8.1821314, 37.8903058], [-8.1826529, 37.8900984], [-8.1831194, 37.8898854], [-8.1834872, 37.8896939], [-8.1837778, 37.8895326], [-8.1840975, 37.889325], [-8.184337, 37.8891394], [-8.1845291, 37.8889616], [-8.1847764, 37.8886701], [-8.1849618, 37.8884095], [-8.1852801, 37.887962], [-8.1855262, 37.8876585], [-8.1858541, 37.8873895], [-8.1861264, 37.8871949], [-8.186458, 37.8870082], [-8.1875375, 37.8864846], [-8.1882268, 37.8861132], [-8.1887479, 37.8857708], [-8.1891262, 37.8854278], [-8.1893939, 37.8850477], [-8.1901137, 37.8838894]]}, "properties": {"highway": "primary", "lanes": "2", "name": "Variante a Aljustrel", "oneway": "no", "ref": "EN 263", "surface": "asphalt"}}, {"type": "Feature", "geometry": {"type": "LineString", "coordinates": [[-8.175709, 37.8928373], [-8.1790073, 37.8914575], [-8.1793496, 37.8913163]]}, "properties": {"highway": "primary", "lanes": "2", "name": "Variante a Aljustrel", "oneway": "no", "ref": "EN 263", "surface": "asphalt"}}, {"type": "Feature", "geometry": {"type": "LineString", "coordinates": [[-8.4831384, 37.6969146], [-8.4812675, 37.6977562], [-8.4780136, 37.6992144], [-8.4752902, 37.7004425], [-8.475026, 37.7005635]]}, "properties": {"highway": "primary", "lanes": "2", "ref": "EN 263", "surface": "paved"}}, {"type": "Feature", "geometry": {"type": "LineString", "coordinates": [[-8.4885733, 37.6949586], [-8.487593, 37.6954839], [-8.487448, 37.6955483], [-8.4872866, 37.69561], [-8.4870352, 37.6956791], [-8.4868902, 37.6957141], [-8.4867622, 37.6957452], [-8.4865977, 37.6957727], [-8.486527, 37.6957809], [-8.4864528, 37.6957928], [-8.4856379, 37.6959265], [-8.4852407, 37.6959997], [-8.4850756, 37.6960478], [-8.4849726, 37.6960897], [-8.4847969, 37.6961615], [-8.4838091, 37.696614], [-8.4831384, 37.6969146]]}, "properties": {"highway": "primary", "lanes": "2", "maxspeed": "50", "ref": "EN 263", "surface": "paved"}}, {"type": "Feature", "geometry": {"type": "LineString", "coordinates": [[-8.1668822, 37.8960088], [-8.1669268, 37.8960206], [-8.1669736, 37.8960253], [-8.1670207, 37.8960226], [-8.1670661, 37.8960125], [-8.1671082, 37.8959956], [-8.1671451, 37.8959724], [-8.1671755, 37.8959439], [-8.1671969, 37.8959136], [-8.1672108, 37.8958806], [-8.1672168, 37.8958462], [-8.1672146, 37.8958116], [-8.1672035, 37.8957759], [-8.1671837, 37.8957426], [-8.1671561, 37.895713], [-8.1671217, 37.8956882], [-8.1670818, 37.8956692], [-8.167038, 37.8956567], [-8.1669919, 37.8956513], [-8.1669454, 37.895653], [-8.1669002, 37.8956618], [-8.1668581, 37.8956775], [-8.1668207, 37.8956993], [-8.1668042, 37.8957123], [-8.1667788, 37.8957388], [-8.1667597, 37.8957684], [-8.1667475, 37.8958002], [-8.1667427, 37.8958332], [-8.1667453, 37.8958664], [-8.166757, 37.8959024], [-8.1667775, 37.8959359], [-8.166806, 37.8959656], [-8.1668413, 37.8959902], [-8.1668822, 37.8960088]]}, "properties": {"highway": "primary", "junction": "roundabout", "name": "Variante a Aljustrel", "ref": "EN 263", "surface": "asphalt"}}, {"type": "Feature", "geometry": {"type": "LineString", "coordinates": [[-8.167475, 37.8959394], [-8.1678947, 37.8960259], [-8.1681736, 37.8960669], [-8.1685216, 37.8960969], [-8.1689649, 37.8960959], [-8.1694049, 37.896056], [-8.1698041, 37.8959942], [-8.1702735, 37.8958623], [-8.1707324, 37.895669], [-8.1712983, 37.895347], [-8.1718387, 37.8949849], [-8.1729686, 37.8941558], [-8.1733502, 37.8939108], [-8.1736922, 37.8937043], [-8.1739671, 37.8935592], [-8.1741837, 37.8934582], [-8.175709, 37.8928373]]}, "properties": {"highway": "primary", "lanes": "2", "name": "Variante a Aljustrel", "oneway": "no", "ref": "EN 263", "surface": "asphalt"}}, {"type": "Feature", "geometry": {"type": "LineString", "coordinates": [[-8.1508491, 37.8856759], [-8.1508986, 37.885685], [-8.1509616, 37.8856988], [-8.1510758, 37.8857357]]}, "properties": {"highway": "primary", "name": "Variante a Aljustrel", "oneway": "yes", "ref": "EN 263", "surface": "asphalt"}}, {"type": "Feature", "geometry": {"type": "LineString", "coordinates": [[-8.1510758, 37.8857357], [-8.1510186, 37.8856567], [-8.1509999, 37.8856174], [-8.1509872, 37.8855735]]}, "properties": {"highway": "primary", "name": "Variante a Aljustrel", "oneway": "yes", "ref": "EN 263", "surface": "asphalt"}}, {"type": "Feature", "geometry": {"type": "LineString", "coordinates": [[-8.1671755, 37.8959439], [-8.1672372, 37.8959387], [-8.1673059, 37.8959364], [-8.167475, 37.8959394]]}, "properties": {"highway": "primary", "name": "Variante a Aljustrel", "oneway": "yes", "ref": "EN 263", "surface": "asphalt"}}, {"type": "Feature", "geometry": {"type": "LineString", "coordinates": [[-8.167475, 37.8959394], [-8.1673343, 37.8958819], [-8.1672734, 37.8958489], [-8.1672146, 37.8958116]]}, "properties": {"highway": "primary", "name": "Variante a Aljustrel", "oneway": "yes", "ref": "EN 263", "surface": "asphalt"}}, {"type": "Feature", "geometry": {"type": "LineString", "coordinates": [[-8.1668042, 37.8957123], [-8.1667519, 37.8957205], [-8.1666871, 37.8957258], [-8.1664954, 37.8957214]]}, "properties": {"highway": "primary", "name": "Variante a Aljustrel", "oneway": "yes", "ref": "EN 263", "surface": "asphalt"}}, {"type": "Feature", "geometry": {"type": "LineString", "coordinates": [[-8.1664954, 37.8957214], [-8.1666686, 37.8958052], [-8.1667069, 37.895833], [-8.1667453, 37.8958664]]}, "properties": {"highway": "primary", "name": "Variante a Aljustrel", "oneway": "yes", "ref": "EN 263", "surface": "asphalt"}}, {"type": "Feature", "geometry": {"type": "LineString", "coordinates": [[-8.1901531, 37.8836255], [-8.1901537, 37.883679], [-8.1901451, 37.8837565], [-8.1901137, 37.8838894]]}, "properties": {"highway": "primary", "name": "Variante a Aljustrel", "oneway": "yes", "ref": "EN 263", "surface": "asphalt"}}, {"type": "Feature", "geometry": {"type": "LineString", "coordinates": [[-8.1901137, 37.8838894], [-8.1902453, 37.8837797], [-8.190312, 37.8837348], [-8.1903703, 37.8837038]]}, "properties": {"highway": "primary", "name": "Variante a Aljustrel", "oneway": "yes", "ref": "EN 263", "surface": "asphalt"}}, {"type": "Feature", "geometry": {"type": "MultiPolygon", "coordinates": [[[[-8.4105842, 37.726713], [-8.4105716, 37.7266619], [-8.4105467, 37.7266218], [-8.4104984, 37.7265857], [-8.4104245, 37.7265606], [-8.4103535, 37.7265518], [-8.4102597, 37.726556], [-8.4101738, 37.7265857], [-8.4100826, 37.726626], [-8.4100129, 37.7266918], [-8.409978, 37.726766], [-8.4099807, 37.7268339], [-8.4099858, 37.72687], [-8.4100397, 37.7269294], [-8.4101148, 37.726957], [-8.4101658, 37.7269655], [-8.4102029, 37.7269713], [-8.4102811, 37.7269612], [-8.4103455, 37.7269464], [-8.4104099, 37.726923], [-8.4104581, 37.7269061], [-8.4105059, 37.726876], [-8.4105493, 37.7268339], [-8.4105815, 37.7267724], [-8.4105842, 37.726713]]]]}, "properties": {"highway": "primary", "junction": "roundabout", "lanes": "2", "ref": "EN 263", "source": "GPS"}}, {"type": "Feature", "geometry": {"type": "MultiPolygon", "coordinates": [[[[-8.1672168, 37.8958462], [-8.1672146, 37.8958116], [-8.1672035, 37.8957759], [-8.1671837, 37.8957426], [-8.1671561, 37.895713], [-8.1671217, 37.8956882], [-8.1670818, 37.8956692], [-8.167038, 37.8956567], [-8.1669919, 37.8956513], [-8.1669454, 37.895653], [-8.1669002, 37.8956618], [-8.1668581, 37.8956775], [-8.1668207, 37.8956993], [-8.1668042, 37.8957123], [-8.1667788, 37.8957388], [-8.1667597, 37.8957684], [-8.1667475, 37.8958002], [-8.1667427, 37.8958332], [-8.1667453, 37.8958664], [-8.166757, 37.8959024], [-8.1667775, 37.8959359], [-8.166806, 37.8959656], [-8.1668413, 37.8959902], [-8.1668822, 37.8960088], [-8.1669268, 37.8960206], [-8.1669736, 37.8960253], [-8.1670207, 37.8960226], [-8.1670661, 37.8960125], [-8.1671082, 37.8959956], [-8.1671451, 37.8959724], [-8.1671755, 37.8959439], [-8.1671969, 37.8959136], [-8.1672108, 37.8958806], [-8.1672168, 37.8958462]]]]}, "properties": {"highway": "primary", "junction": "roundabout", "name": "Variante a Aljustrel", "ref": "EN 263", "surface": "asphalt"}}]}