{"type": "FeatureCollection", "features": [{"type": "Feature", "geometry": {"type": "Point", "coordinates": [-8.4563796, 40.4602906]}, "properties": {"distance": "27", "highway": "milestone", "ref": "EN 235"}}, {"type": "Feature", "geometry": {"type": "Point", "coordinates": [-8.6498041, 40.6244491]}, "properties": {"distance": "0.0", "highway": "milestone", "ref": "EN 235"}}, {"type": "Feature", "geometry": {"type": "Point", "coordinates": [-8.4563785, 40.4602335]}, "properties": {"distance": "27", "highway": "milestone", "ref": "EN 235"}}, {"type": "Feature", "geometry": {"type": "Point", "coordinates": [-8.6497526, 40.6245073]}, "properties": {"distance": "0.0", "highway": "milestone", "ref": "EN 235"}}, {"type": "Feature", "geometry": {"type": "LineString", "coordinates": [[-8.6477179, 40.6235946], [-8.6481468, 40.6237823]]}, "properties": {"bicycle": "no", "foot": "no", "highway": "primary", "horse": "no", "lanes": "1", "oneway": "yes", "ref": "EN 235", "surface": "asphalt", "toll": "no"}}, {"type": "Feature", "geometry": {"type": "LineString", "coordinates": [[-8.6481468, 40.6237823], [-8.6487672, 40.6240259], [-8.6493159, 40.6242734], [-8.6495994, 40.6244282], [-8.6497526, 40.6245073], [-8.6502235, 40.6247502], [-8.650676, 40.6249893]]}, "properties": {"bicycle": "no", "foot": "no", "highway": "primary", "horse": "no", "lanes": "1", "maxspeed": "50", "oneway": "yes", "ref": "EN 235", "surface": "asphalt", "toll": "no"}}, {"type": "Feature", "geometry": {"type": "LineString", "coordinates": [[-8.6423737, 40.6196288], [-8.6420257, 40.6193495], [-8.6416247, 40.6189586], [-8.6412606, 40.6186292], [-8.6409823, 40.6184207], [-8.6406722, 40.618231], [-8.6401965, 40.6179743]]}, "properties": {"bicycle": "no", "foot": "no", "highway": "primary", "horse": "no", "lanes": "2", "oneway": "no", "overtaking": "no", "ref": "EN 235", "surface": "asphalt", "toll": "no"}}, {"type": "Feature", "geometry": {"type": "LineString", "coordinates": [[-8.4556042, 40.4601287], [-8.4555719, 40.4601635], [-8.4555492, 40.4602024], [-8.4555368, 40.4602439], [-8.4555354, 40.4602865], [-8.4555449, 40.4603285], [-8.4555651, 40.4603682], [-8.4555953, 40.4604044], [-8.4556342, 40.4604354], [-8.4556805, 40.4604599], [-8.4557321, 40.4604771], [-8.4557864, 40.4604861], [-8.4558419, 40.4604869], [-8.4558966, 40.4604795], [-8.4559483, 40.4604642], [-8.4559952, 40.4604415], [-8.4560354, 40.4604124], [-8.4560675, 40.4603777], [-8.4560901, 40.460339], [-8.4561024, 40.4602976], [-8.4561039, 40.4602552], [-8.4560945, 40.4602134], [-8.4560746, 40.4601738], [-8.4560446, 40.4601376], [-8.4560058, 40.4601065], [-8.4559602, 40.4600821], [-8.4559092, 40.4600648], [-8.4558547, 40.4600555], [-8.455799, 40.4600544], [-8.455744, 40.4600616], [-8.4556919, 40.4600769], [-8.4556447, 40.4600995], [-8.4556042, 40.4601287]]}, "properties": {"highway": "primary", "junction": "roundabout", "lanes": "2", "maxspeed": "50", "ref": "IC2;EN 1;EN 235", "surface": "asphalt"}}, {"type": "Feature", "geometry": {"type": "LineString", "coordinates": [[-8.4953483, 40.5099122], [-8.4949618, 40.5096885], [-8.4945999, 40.509432]]}, "properties": {"bridge": "yes", "highway": "primary", "lanes": "2", "layer": "1", "maxspeed": "70", "maxweight:signed": "no", "oneway": "no", "ref": "EN 235", "source": "Bing", "surface": "asphalt", "toll": "no"}}, {"type": "Feature", "geometry": {"type": "LineString", "coordinates": [[-8.4945999, 40.509432], [-8.4941744, 40.5090948], [-8.4938709, 40.5087902], [-8.493499, 40.5083344], [-8.4931855, 40.5078556], [-8.4925995, 40.5068608], [-8.4922028, 40.5061348], [-8.4919736, 40.5057277], [-8.4917628, 40.5054189], [-8.4913596, 40.5049506], [-8.4905943, 40.5041963], [-8.489853, 40.5033685], [-8.4871997, 40.5006786], [-8.4867472, 40.5001757], [-8.4862137, 40.4996257], [-8.4853878, 40.4990097], [-8.4847412, 40.4984724], [-8.4837828, 40.4976059], [-8.4833118, 40.4971367], [-8.4829631, 40.4967665], [-8.4827366, 40.4964879], [-8.4824972, 40.4961063], [-8.4822586, 40.4956245], [-8.4819037, 40.4947098], [-8.4816418, 40.4937249]]}, "properties": {"highway": "primary", "lanes": "2", "maxspeed": "70", "oneway": "no", "ref": "EN 235", "source": "Bing", "surface": "asphalt", "toll": "no"}}, {"type": "Feature", "geometry": {"type": "LineString", "coordinates": [[-8.6290136, 40.6108864], [-8.6284701, 40.6108221]]}, "properties": {"bicycle": "no", "foot": "no", "highway": "primary", "horse": "no", "lanes": "2", "layer": "-1", "oneway": "no", "overtaking": "no", "ref": "EN 235", "surface": "asphalt", "toll": "no", "tunnel": "yes"}}, {"type": "Feature", "geometry": {"type": "LineString", "coordinates": [[-8.6284701, 40.6108221], [-8.6280244, 40.6107766], [-8.6275107, 40.6107096], [-8.6272256, 40.6106583], [-8.6269324, 40.6106008], [-8.6266495, 40.6105191], [-8.6263707, 40.6104281], [-8.6260845, 40.6103008], [-8.6258105, 40.6101674], [-8.6253843, 40.6098943], [-8.6249569, 40.6095253], [-8.6245433, 40.6090742], [-8.6242057, 40.608665]]}, "properties": {"bicycle": "no", "foot": "no", "highway": "primary", "horse": "no", "lanes": "2", "oneway": "no", "overtaking": "no", "ref": "EN 235", "source": "Bing", "surface": "asphalt", "toll": "no"}}, {"type": "Feature", "geometry": {"type": "LineString", "coordinates": [[-8.5063516, 40.5245886], [-8.5066083, 40.5249918], [-8.5068506, 40.5253001], [-8.5072863, 40.5258381], [-8.5075301, 40.52617], [-8.507678, 40.5263871], [-8.5078211, 40.5266419], [-8.5079595, 40.5269187], [-8.5080505, 40.5271172], [-8.5081951, 40.5275315]]}, "properties": {"highway": "primary", "lanes": "1", "maxspeed": "70", "oneway": "yes", "ref": "EN 235", "source": "Bing", "surface": "asphalt", "toll": "no"}}, {"type": "Feature", "geometry": {"type": "LineString", "coordinates": [[-8.4556042, 40.4601287], [-8.4554005, 40.4601896], [-8.455165, 40.4602027], [-8.4545277, 40.4602292]]}, "properties": {"highway": "primary", "lanes": "1", "oneway": "yes", "ref": "EN 235", "source": "Bing", "surface": "asphalt"}}, {"type": "Feature", "geometry": {"type": "LineString", "coordinates": [[-8.3808786, 40.3902049], [-8.3810583, 40.3898392]]}, "properties": {"bridge": "yes", "highway": "primary", "layer": "1", "ref": "EN 235"}}, {"type": "Feature", "geometry": {"type": "LineString", "coordinates": [[-8.3810583, 40.3898392], [-8.3811253, 40.38978], [-8.3812514, 40.3897269], [-8.3817476, 40.3896799], [-8.381871, 40.3896799], [-8.3820695, 40.389733], [-8.3834669, 40.3901273], [-8.383593, 40.3901927], [-8.3837217, 40.3902948], [-8.383939, 40.3906155], [-8.3840275, 40.3906646], [-8.3841133, 40.3906748], [-8.384226, 40.3906646], [-8.3852023, 40.3904098], [-8.3853149, 40.3903789], [-8.3854184, 40.3903484], [-8.3862093, 40.3901217]]}, "properties": {"highway": "primary", "lanes": "2", "maxheight:signed": "no", "oneway": "no", "ref": "EN 235", "surface": "asphalt"}}, {"type": "Feature", "geometry": {"type": "LineString", "coordinates": [[-8.4225614, 40.4421621], [-8.4225965, 40.4421192], [-8.4226055, 40.4420907], [-8.422612, 40.44207], [-8.4226063, 40.4420196], [-8.4225828, 40.4419764], [-8.4225593, 40.4419548], [-8.4225436, 40.4419404], [-8.4224926, 40.4419148], [-8.4224339, 40.4419015], [-8.4223727, 40.4419018], [-8.4223143, 40.4419157], [-8.4222625, 40.4419428], [-8.4222554, 40.4419497], [-8.4222238, 40.4419804], [-8.4222015, 40.442025], [-8.4222005, 40.4420375], [-8.4221978, 40.4420727], [-8.422213, 40.4421191], [-8.4222509, 40.4421644], [-8.4222797, 40.4421815], [-8.4223065, 40.4421975], [-8.4223736, 40.4422145], [-8.4223986, 40.4422141], [-8.4224442, 40.4422134], [-8.4225102, 40.4421944], [-8.4225614, 40.4421621]]}, "properties": {"highway": "primary", "junction": "roundabout", "ref": "EN 235", "source": "Bing"}}, {"type": "Feature", "geometry": {"type": "LineString", "coordinates": [[-8.4221679, 40.4416474], [-8.4217493, 40.4409676], [-8.421709, 40.4408999], [-8.4197038, 40.4375306], [-8.4196664, 40.4374678], [-8.4186619, 40.4357805], [-8.4153851, 40.4302764], [-8.4146746, 40.4289987], [-8.4127273, 40.4245271], [-8.4125665, 40.4240777], [-8.4124376, 40.423596], [-8.4123966, 40.4231325], [-8.4123947, 40.422669], [-8.4125824, 40.4218686], [-8.4131382, 40.4203851], [-8.4131548, 40.4203408], [-8.4131853, 40.4202585], [-8.4134947, 40.4194244]]}, "properties": {"highway": "primary", "ref": "EN 235"}}, {"type": "Feature", "geometry": {"type": "LineString", "coordinates": [[-8.5674532, 40.5680456], [-8.5674421, 40.5680392], [-8.5672781, 40.5679446], [-8.5667724, 40.567676], [-8.5662896, 40.5674218], [-8.5657939, 40.5671332], [-8.565707, 40.5670785], [-8.5653677, 40.5668648], [-8.5649263, 40.5665115], [-8.5647005, 40.5662917], [-8.5645287, 40.5661013], [-8.5642508, 40.5657134], [-8.5641348, 40.5655234], [-8.564033, 40.5653281], [-8.5639595, 40.5651762], [-8.5638813, 40.5649911], [-8.5638347, 40.5648522], [-8.5637972, 40.5647241], [-8.5637221, 40.5644162], [-8.5636781, 40.5641066]]}, "properties": {"highway": "primary", "lanes": "2", "ref": "EN 235", "surface": "asphalt"}}, {"type": "Feature", "geometry": {"type": "LineString", "coordinates": [[-8.6021077, 40.5840715], [-8.6022366, 40.5840058], [-8.6023502, 40.5839504], [-8.6025479, 40.5839211], [-8.6032876, 40.5839584]]}, "properties": {"bicycle": "no", "foot": "no", "highway": "primary", "horse": "no", "lanes": "1", "lit": "yes", "oneway": "yes", "ref": "EN 235", "surface": "asphalt", "toll": "no"}}, {"type": "Feature", "geometry": {"type": "LineString", "coordinates": [[-8.6025758, 40.5838147], [-8.6024303, 40.5837735], [-8.6023304, 40.5836981], [-8.6022654, 40.5836494]]}, "properties": {"bicycle": "no", "foot": "no", "highway": "primary", "horse": "no", "lanes": "2", "lit": "yes", "oneway": "yes", "ref": "EN 235", "surface": "asphalt", "toll": "no"}}, {"type": "Feature", "geometry": {"type": "LineString", "coordinates": [[-8.5992503, 40.5834976], [-8.5995445, 40.5835455], [-8.5998255, 40.5835781], [-8.6002644, 40.5836188]]}, "properties": {"bicycle": "no", "foot": "no", "highway": "primary", "horse": "no", "lanes": "1", "lit": "yes", "oneway": "yes", "ref": "EN 235", "smoothness": "excellent", "source": "Bing", "surface": "asphalt", "toll": "no"}}, {"type": "Feature", "geometry": {"type": "LineString", "coordinates": [[-8.5992503, 40.5834976], [-8.5976047, 40.5833137]]}, "properties": {"bicycle": "no", "foot": "no", "highway": "primary", "horse": "no", "lanes": "2", "oneway": "no", "overtaking": "no", "ref": "EN 235", "smoothness": "excellent", "surface": "asphalt", "toll": "no"}}, {"type": "Feature", "geometry": {"type": "LineString", "coordinates": [[-8.6499322, 40.6245126], [-8.6498041, 40.6244491], [-8.6497836, 40.624439], [-8.6496454, 40.6243705], [-8.6491419, 40.6241209], [-8.648642, 40.6238971], [-8.6483073, 40.6237782], [-8.6477179, 40.6235946]]}, "properties": {"bicycle": "no", "foot": "no", "highway": "primary", "horse": "no", "lanes": "1", "maxspeed": "50", "oneway": "yes", "ref": "EN 235", "surface": "asphalt", "toll": "no"}}, {"type": "Feature", "geometry": {"type": "LineString", "coordinates": [[-8.5051616, 40.5218148], [-8.5054181, 40.5225187]]}, "properties": {"bridge": "viaduct", "highway": "primary", "lanes": "1", "layer": "1", "maxspeed": "70", "oneway": "yes", "ref": "EN 235", "source": "Bing", "surface": "asphalt", "toll": "no"}}, {"type": "Feature", "geometry": {"type": "LineString", "coordinates": [[-8.5054181, 40.5225187], [-8.5056863, 40.5231572], [-8.5059362, 40.5237536], [-8.5060857, 40.5240713], [-8.5061931, 40.5242737], [-8.5063516, 40.5245886]]}, "properties": {"highway": "primary", "lanes": "1", "maxspeed": "70", "oneway": "yes", "ref": "EN 235", "source": "Bing", "surface": "asphalt", "toll": "no"}}, {"type": "Feature", "geometry": {"type": "LineString", "coordinates": [[-8.61258, 40.5962001], [-8.6127292, 40.5964844], [-8.6128754, 40.5966818], [-8.6131446, 40.5969841], [-8.6132883, 40.5971194], [-8.6134522, 40.5972486], [-8.613793, 40.5974962], [-8.6142296, 40.5977532], [-8.6148399, 40.5980687], [-8.6153181, 40.598367], [-8.6156809, 40.5986723], [-8.616038, 40.599063], [-8.6175167, 40.6007978], [-8.6177591, 40.6010625], [-8.6183408, 40.6017029]]}, "properties": {"bicycle": "no", "foot": "no", "highway": "primary", "horse": "no", "lanes": "1", "oneway": "yes", "overtaking": "no", "ref": "EN 235", "source": "Bing", "surface": "asphalt", "toll": "no"}}, {"type": "Feature", "geometry": {"type": "LineString", "coordinates": [[-8.6183408, 40.6017029], [-8.6175767, 40.6007521], [-8.6161136, 40.5990222], [-8.6157514, 40.5986276], [-8.6153785, 40.5983175], [-8.6148932, 40.5980147], [-8.6142818, 40.5976987], [-8.6138539, 40.5974511], [-8.6135086, 40.5972013], [-8.6132149, 40.596947], [-8.6129189, 40.5966452], [-8.6127715, 40.5964668], [-8.61258, 40.5962001]]}, "properties": {"bicycle": "no", "foot": "no", "highway": "primary", "horse": "no", "lanes": "1", "oneway": "yes", "overtaking": "no", "ref": "EN 235", "source": "Bing", "surface": "asphalt", "toll": "no"}}, {"type": "Feature", "geometry": {"type": "LineString", "coordinates": [[-8.61258, 40.5962001], [-8.6124621, 40.5959524], [-8.612371, 40.5956965], [-8.6122665, 40.5953129], [-8.6121951, 40.5949143]]}, "properties": {"bicycle": "no", "foot": "no", "highway": "primary", "horse": "no", "lanes": "2", "oneway": "no", "ref": "EN 235", "source": "Bing", "surface": "asphalt", "toll": "no"}}, {"type": "Feature", "geometry": {"type": "LineString", "coordinates": [[-8.5081951, 40.5275315], [-8.5082103, 40.5276553], [-8.5082596, 40.5280567], [-8.5082982, 40.5286738], [-8.5083481, 40.5298996], [-8.50837, 40.5301843], [-8.5083738, 40.5302214]]}, "properties": {"highway": "primary", "lanes": "2", "maxspeed": "70", "oneway": "no", "ref": "EN 235", "source": "Bing", "surface": "asphalt"}}, {"type": "Feature", "geometry": {"type": "LineString", "coordinates": [[-8.5320285, 40.5421341], [-8.5325176, 40.5426719], [-8.5325502, 40.5427084], [-8.5326024, 40.5427897], [-8.5326102, 40.5428086], [-8.532618, 40.5428378], [-8.5326255, 40.5428808], [-8.5326267, 40.5429165]]}, "properties": {"highway": "primary", "oneway": "yes", "ref": "EN 235", "source": "Bing", "surface": "asphalt"}}, {"type": "Feature", "geometry": {"type": "LineString", "coordinates": [[-8.4810956, 40.4834298], [-8.4810293, 40.483242], [-8.4809207, 40.4830154]]}, "properties": {"bridge": "viaduct", "highway": "primary", "lanes": "1", "layer": "1", "maxspeed": "70", "oneway": "yes", "ref": "EN 235", "source": "Bing"}}, {"type": "Feature", "geometry": {"type": "LineString", "coordinates": [[-8.505631, 40.5227847], [-8.5053151, 40.5219577]]}, "properties": {"bridge": "viaduct", "highway": "primary", "lanes": "1", "layer": "1", "maxspeed": "70", "maxweight:signed": "no", "oneway": "yes", "ref": "EN 235", "source": "Bing", "surface": "asphalt", "toll": "no"}}, {"type": "Feature", "geometry": {"type": "LineString", "coordinates": [[-8.4809207, 40.4830154], [-8.4808427, 40.4828839], [-8.4807283, 40.4827016], [-8.4806613, 40.4826044], [-8.4805782, 40.4825095], [-8.4801939, 40.4821095], [-8.4796534, 40.4816634], [-8.478962, 40.48112], [-8.4783887, 40.4805866], [-8.4778739, 40.4800864], [-8.4773326, 40.4794774], [-8.4767365, 40.4787893]]}, "properties": {"highway": "primary", "lanes": "1", "maxspeed": "70", "oneway": "yes", "ref": "EN 235", "source": "Bing", "surface": "asphalt", "toll": "no"}}, {"type": "Feature", "geometry": {"type": "LineString", "coordinates": [[-8.5053151, 40.5219577], [-8.5047193, 40.5203197], [-8.5044667, 40.5196994], [-8.5041534, 40.5191224], [-8.5038354, 40.5186391], [-8.5034652, 40.5181395], [-8.5017051, 40.5159475]]}, "properties": {"highway": "primary", "lanes": "1", "maxspeed": "70", "oneway": "yes", "ref": "EN 235", "source": "Bing", "surface": "asphalt", "toll": "no"}}, {"type": "Feature", "geometry": {"type": "LineString", "coordinates": [[-8.5340623, 40.5443159], [-8.5335872, 40.5437333]]}, "properties": {"highway": "primary", "lanes": "1", "oneway": "yes", "ref": "EN 235", "source": "Bing", "surface": "asphalt", "traffic_calming": "rumble_strip"}}, {"type": "Feature", "geometry": {"type": "LineString", "coordinates": [[-8.4729563, 40.4748631], [-8.4709061, 40.4727385], [-8.4702675, 40.4720413], [-8.469666, 40.471418], [-8.469097, 40.4707854], [-8.4678535, 40.4693774]]}, "properties": {"highway": "primary", "lanes": "2", "maxspeed": "70", "oneway": "no", "ref": "EN 235", "source": "Bing", "surface": "asphalt", "toll": "no"}}, {"type": "Feature", "geometry": {"type": "LineString", "coordinates": [[-8.4959683, 40.510238], [-8.4963982, 40.5104829], [-8.4969247, 40.5107197], [-8.4973499, 40.510972], [-8.4976442, 40.5111911], [-8.4981038, 40.5115529], [-8.4984786, 40.5119317], [-8.4989186, 40.5124757], [-8.4998909, 40.5136935], [-8.5005699, 40.5145834], [-8.5009585, 40.5151288], [-8.5015978, 40.5159863]]}, "properties": {"highway": "primary", "lanes": "1", "maxspeed": "70", "oneway": "yes", "ref": "EN 235", "source": "Bing", "surface": "asphalt", "toll": "no"}}, {"type": "Feature", "geometry": {"type": "LineString", "coordinates": [[-8.5017051, 40.5159475], [-8.5010349, 40.5151017], [-8.5006374, 40.5145584], [-8.4989886, 40.5124449], [-8.4985462, 40.5118986], [-8.4981636, 40.511514], [-8.4977492, 40.5111706], [-8.4974212, 40.510937], [-8.4969807, 40.5106677], [-8.4969746, 40.510664], [-8.4959683, 40.510238]]}, "properties": {"highway": "primary", "lanes": "1", "maxheight:signed": "no", "maxspeed": "70", "oneway": "yes", "ref": "EN 235", "source": "Bing"}}, {"type": "Feature", "geometry": {"type": "LineString", "coordinates": [[-8.4678535, 40.4693774], [-8.4676268, 40.4691221], [-8.4673513, 40.4688761], [-8.4669282, 40.4685175], [-8.4653823, 40.4673245], [-8.4646398, 40.4667995], [-8.4643468, 40.4665714], [-8.4641669, 40.466424], [-8.4639569, 40.4662284], [-8.4636921, 40.4659589], [-8.4632324, 40.4654575], [-8.4628261, 40.4649716], [-8.4623492, 40.4644145], [-8.4614734, 40.4634595]]}, "properties": {"highway": "primary", "lanes": "1", "maxspeed": "70", "oneway": "yes", "ref": "EN 235", "source": "Bing", "surface": "asphalt", "toll": "no"}}, {"type": "Feature", "geometry": {"type": "LineString", "coordinates": [[-8.4767365, 40.4787893], [-8.4772542, 40.4794958], [-8.477788, 40.4801134], [-8.478292, 40.4806217], [-8.4788967, 40.481164], [-8.4793758, 40.4815545], [-8.4801361, 40.4821521], [-8.4805206, 40.4825368], [-8.4805976, 40.4826299], [-8.4806518, 40.4827203], [-8.4807603, 40.4829241], [-8.4808214, 40.4830488]]}, "properties": {"highway": "primary", "lanes": "1", "maxspeed": "70", "oneway": "yes", "ref": "EN 235", "source": "Bing", "surface": "asphalt", "toll": "no"}}, {"type": "Feature", "geometry": {"type": "LineString", "coordinates": [[-8.461403, 40.4635002], [-8.4622802, 40.4644492], [-8.4627573, 40.4650056], [-8.4631753, 40.4655059], [-8.4634002, 40.465768], [-8.463642, 40.4660193], [-8.464092, 40.466447], [-8.4644103, 40.4667215], [-8.46558, 40.4675699], [-8.4660938, 40.4679694], [-8.4668652, 40.468563], [-8.4673033, 40.4689066], [-8.4678535, 40.4693774]]}, "properties": {"highway": "primary", "lanes": "1", "maxspeed": "70", "oneway": "yes", "ref": "EN 235", "source": "Bing", "surface": "asphalt", "toll": "no"}}, {"type": "Feature", "geometry": {"type": "LineString", "coordinates": [[-8.5081951, 40.5275315], [-8.5080903, 40.5271019], [-8.5080405, 40.5269638], [-8.5080175, 40.5268998], [-8.5078831, 40.526616], [-8.5077562, 40.5263635], [-8.5075994, 40.5261294], [-8.5073594, 40.5258006], [-8.50692, 40.5252639], [-8.506696, 40.5249532], [-8.5063875, 40.5244563], [-8.5061673, 40.5240451], [-8.5060228, 40.52375], [-8.5058835, 40.523442], [-8.5057394, 40.5230579], [-8.505631, 40.5227847]]}, "properties": {"highway": "primary", "lanes": "1", "maxspeed": "70", "oneway": "yes", "ref": "EN 235", "smoothness": "excellent", "source": "Bing", "surface": "asphalt", "toll": "no"}}, {"type": "Feature", "geometry": {"type": "LineString", "coordinates": [[-8.4614734, 40.4634595], [-8.4610419, 40.4629746]]}, "properties": {"bridge": "viaduct", "highway": "primary", "lanes": "1", "layer": "1", "maxspeed": "70", "maxweight:signed": "no", "oneway": "yes", "ref": "EN 235", "source": "Bing", "surface": "asphalt", "toll": "no"}}, {"type": "Feature", "geometry": {"type": "LineString", "coordinates": [[-8.4808214, 40.4830488], [-8.4809229, 40.4832508], [-8.4810003, 40.4834426]]}, "properties": {"bridge": "viaduct", "highway": "primary", "lanes": "1", "layer": "1", "maxspeed": "70", "oneway": "yes", "ref": "EN 235", "source": "Bing"}}, {"type": "Feature", "geometry": {"type": "LineString", "coordinates": [[-8.4609655, 40.463014], [-8.461403, 40.4635002]]}, "properties": {"bridge": "viaduct", "highway": "primary", "lanes": "1", "layer": "1", "maxspeed": "70", "oneway": "yes", "ref": "EN 235", "source": "Bing", "surface": "asphalt", "toll": "no"}}, {"type": "Feature", "geometry": {"type": "LineString", "coordinates": [[-8.4959683, 40.510238], [-8.4953483, 40.5099122]]}, "properties": {"highway": "primary", "lanes": "2", "maxspeed": "70", "oneway": "no", "ref": "EN 235", "source": "Bing", "surface": "asphalt", "toll": "no"}}, {"type": "Feature", "geometry": {"type": "LineString", "coordinates": [[-8.5083738, 40.5302214], [-8.5083831, 40.5305053]]}, "properties": {"bridge": "yes", "highway": "primary", "lanes": "2", "layer": "1", "maxspeed": "70", "maxweight:signed": "no", "oneway": "no", "ref": "EN 235", "source": "Bing", "surface": "asphalt"}}, {"type": "Feature", "geometry": {"type": "LineString", "coordinates": [[-8.5083831, 40.5305053], [-8.5083965, 40.5307949], [-8.5084915, 40.5314446], [-8.5085597, 40.5317565], [-8.5087453, 40.5322191], [-8.5089519, 40.5326138], [-8.5091376, 40.532877], [-8.5094799, 40.5332381], [-8.5097913, 40.533535], [-8.5101197, 40.5337942], [-8.5102577, 40.5338988], [-8.5102979, 40.5339233], [-8.5104697, 40.5340556], [-8.5106381, 40.5341557], [-8.5108804, 40.5342949], [-8.5114492, 40.534572], [-8.5132419, 40.5353939], [-8.5140176, 40.5357473], [-8.5148897, 40.5361215], [-8.5149905, 40.5361637], [-8.5152817, 40.5362769], [-8.5158259, 40.5364702], [-8.5162849, 40.5366118], [-8.5167438, 40.5367317], [-8.5175927, 40.5369545], [-8.5184696, 40.5371313], [-8.5195044, 40.5372698], [-8.5201015, 40.5373193], [-8.5204293, 40.5373391], [-8.5209014, 40.5373677], [-8.5210217, 40.537375], [-8.5234387, 40.5375116], [-8.5240723, 40.5375687], [-8.5245623, 40.5376335], [-8.5246292, 40.5376389], [-8.5248481, 40.5376921], [-8.525444, 40.5378531], [-8.5259387, 40.53803], [-8.5260649, 40.5380726], [-8.5269303, 40.5383957], [-8.5284003, 40.5389548], [-8.5288501, 40.5391551], [-8.5290248, 40.5392643], [-8.5291007, 40.5393109]]}, "properties": {"highway": "primary", "lanes": "2", "maxspeed": "70", "oneway": "no", "ref": "EN 235", "source": "Bing", "surface": "asphalt"}}, {"type": "Feature", "geometry": {"type": "LineString", "coordinates": [[-8.4767365, 40.4787893], [-8.4764658, 40.4784656], [-8.4759786, 40.4778979], [-8.4752545, 40.4771268], [-8.4744857, 40.4763743], [-8.4738575, 40.4757849], [-8.4729563, 40.4748631]]}, "properties": {"highway": "primary", "lanes": "2", "maxspeed": "70", "oneway": "no", "ref": "EN 235", "source": "Bing", "surface": "asphalt", "toll": "no"}}, {"type": "Feature", "geometry": {"type": "LineString", "coordinates": [[-8.4810003, 40.4834426], [-8.4811089, 40.4837784], [-8.4811888, 40.4842248], [-8.481213, 40.4850027], [-8.4813101, 40.4854882]]}, "properties": {"highway": "primary", "lanes": "1", "maxspeed": "70", "oneway": "yes", "ref": "EN 235", "source": "Bing", "surface": "asphalt", "toll": "no"}}, {"type": "Feature", "geometry": {"type": "LineString", "coordinates": [[-8.4813101, 40.4854882], [-8.4812989, 40.4849942], [-8.4812746, 40.4842276], [-8.4811967, 40.4837709], [-8.4810956, 40.4834298]]}, "properties": {"highway": "primary", "lanes": "1", "maxspeed": "70", "oneway": "yes", "ref": "EN 235", "source": "Bing", "surface": "asphalt", "toll": "no"}}, {"type": "Feature", "geometry": {"type": "LineString", "coordinates": [[-8.5015978, 40.5159863], [-8.5034055, 40.5181696], [-8.5037672, 40.5186699], [-8.5040869, 40.5191474], [-8.5043873, 40.5197087], [-8.5046515, 40.5204076], [-8.5047273, 40.5205889], [-8.5051616, 40.5218148]]}, "properties": {"highway": "primary", "lanes": "1", "maxspeed": "70", "oneway": "yes", "ref": "EN 235", "source": "Bing", "surface": "asphalt", "toll": "no"}}, {"type": "Feature", "geometry": {"type": "LineString", "coordinates": [[-8.4362984, 40.4572313], [-8.4358855, 40.4569726], [-8.4349681, 40.4562706], [-8.4330359, 40.4546324], [-8.4327008, 40.4543483], [-8.4324308, 40.4541194], [-8.4321584, 40.4538939], [-8.4285257, 40.4508767], [-8.4283516, 40.4507321], [-8.4283286, 40.4507122], [-8.4281646, 40.4505737], [-8.4275526, 40.4500805], [-8.4268789, 40.4493804], [-8.4264111, 40.4487525], [-8.4250626, 40.4464854], [-8.4235879, 40.4440197]]}, "properties": {"highway": "primary", "lanes": "2", "ref": "EN 235", "surface": "asphalt"}}, {"type": "Feature", "geometry": {"type": "LineString", "coordinates": [[-8.4545277, 40.4602292], [-8.4551721, 40.46027], [-8.4554945, 40.4603368], [-8.4555651, 40.4603682]]}, "properties": {"highway": "primary", "lanes": "1", "oneway": "yes", "ref": "EN 235", "source": "Bing", "surface": "asphalt"}}, {"type": "Feature", "geometry": {"type": "LineString", "coordinates": [[-8.5636781, 40.5641066], [-8.5636437, 40.5638285]]}, "properties": {"bridge": "viaduct", "highway": "primary", "layer": "1", "ref": "EN 235"}}, {"type": "Feature", "geometry": {"type": "LineString", "coordinates": [[-8.5636437, 40.5638285], [-8.5635876, 40.5634842], [-8.5635253, 40.5630631], [-8.5634645, 40.5626], [-8.5634522, 40.5625068], [-8.563396, 40.5620496], [-8.5633182, 40.561553], [-8.5632236, 40.5610884], [-8.563077, 40.5606011], [-8.5629394, 40.5602944], [-8.5628479, 40.5601127], [-8.5627338, 40.5599319], [-8.5625069, 40.5596089], [-8.562247, 40.559309], [-8.5621827, 40.5592348], [-8.561976, 40.559028], [-8.5617257, 40.5588039], [-8.5612561, 40.5584565], [-8.5608265, 40.5582124], [-8.5604173, 40.558009], [-8.5600381, 40.5578544], [-8.5596136, 40.5577078], [-8.5590837, 40.5575567], [-8.5587584, 40.5574707], [-8.5586409, 40.5574396], [-8.5578216, 40.5572222], [-8.5573627, 40.5571055], [-8.5559184, 40.5567257], [-8.5556312, 40.556651]]}, "properties": {"highway": "primary", "maxheight:signed": "no", "ref": "EN 235"}}, {"type": "Feature", "geometry": {"type": "LineString", "coordinates": [[-8.6022379, 40.5835025], [-8.6022075, 40.5834404], [-8.6021282, 40.5833218], [-8.6020191, 40.5832167], [-8.601888, 40.5831318], [-8.6017373, 40.5830675], [-8.6015729, 40.5830265], [-8.6014006, 40.5830106], [-8.6012312, 40.5830355]]}, "properties": {"bicycle": "no", "foot": "no", "highway": "primary", "horse": "no", "junction": "roundabout", "lanes": "2", "lit": "yes", "maxspeed": "40", "ref": "EN 235", "source": "Bing", "surface": "asphalt", "toll": "no"}}, {"type": "Feature", "geometry": {"type": "LineString", "coordinates": [[-8.6007775, 40.5832478], [-8.6004691, 40.58345], [-8.6004165, 40.5834753], [-8.6003578, 40.583494], [-8.6002998, 40.5835072], [-8.6002376, 40.5835133], [-8.5999806, 40.5835246], [-8.5997252, 40.5835231], [-8.5992503, 40.5834976]]}, "properties": {"bicycle": "no", "foot": "no", "highway": "primary", "horse": "no", "lanes": "1", "lit": "yes", "oneway": "yes", "ref": "EN 235", "smoothness": "excellent", "source": "Bing", "surface": "asphalt", "toll": "no"}}, {"type": "Feature", "geometry": {"type": "LineString", "coordinates": [[-8.6477179, 40.6235946], [-8.6472902, 40.6234048], [-8.647025, 40.6232524], [-8.6468064, 40.6231053], [-8.6465456, 40.6228993], [-8.6463132, 40.6226799], [-8.645947, 40.6222234], [-8.645595, 40.6217615], [-8.6453918, 40.6215045], [-8.6451786, 40.6212884], [-8.6447989, 40.6209785], [-8.6441145, 40.6205775], [-8.6432775, 40.620138], [-8.6429209, 40.619959], [-8.6425318, 40.6197351]]}, "properties": {"bicycle": "no", "foot": "no", "highway": "primary", "horse": "no", "lanes": "2", "oneway": "no", "overtaking": "no", "ref": "EN 235", "surface": "asphalt", "toll": "no"}}, {"type": "Feature", "geometry": {"type": "LineString", "coordinates": [[-8.4610419, 40.4629746], [-8.46053, 40.4624054], [-8.4598743, 40.4616323], [-8.4596158, 40.4613595], [-8.4594129, 40.461194], [-8.4590288, 40.460931], [-8.4587963, 40.4607958], [-8.4585476, 40.4606708], [-8.458315, 40.4605681], [-8.4581178, 40.4604992], [-8.4580109, 40.4604624], [-8.4578404, 40.4604164], [-8.4576893, 40.4603799], [-8.4575394, 40.4603429], [-8.4573881, 40.4603141], [-8.4572678, 40.4602993], [-8.4571475, 40.4602845], [-8.4570375, 40.460271], [-8.4569426, 40.4602638], [-8.4568565, 40.4602583], [-8.4567734, 40.4602501], [-8.4566803, 40.4602461], [-8.4563785, 40.4602335], [-8.4563668, 40.460233], [-8.45627, 40.4602289], [-8.456142, 40.4601958], [-8.4560746, 40.4601738]]}, "properties": {"highway": "primary", "lanes": "1", "maxspeed": "70", "oneway": "yes", "ref": "EN 235", "source": "Bing", "surface": "asphalt", "toll": "no"}}, {"type": "Feature", "geometry": {"type": "LineString", "coordinates": [[-8.4567129, 40.4603068], [-8.456893, 40.4603202], [-8.4573723, 40.4603677], [-8.4577633, 40.4604609], [-8.4580581, 40.4605495], [-8.4582882, 40.4606306], [-8.4585022, 40.4607198], [-8.4587411, 40.4608424], [-8.4589746, 40.4609752], [-8.4591712, 40.4611003], [-8.4593516, 40.4612295], [-8.4595896, 40.4614304], [-8.4598076, 40.4616644], [-8.4601367, 40.4620644], [-8.4605543, 40.4625529], [-8.4609655, 40.463014]]}, "properties": {"highway": "primary", "lanes": "1", "maxspeed": "70", "oneway": "yes", "ref": "EN 235", "source": "Bing", "surface": "asphalt", "toll": "no"}}, {"type": "Feature", "geometry": {"type": "LineString", "coordinates": [[-8.4135848, 40.4191889], [-8.4137227, 40.418771], [-8.4137447, 40.4187044], [-8.4137927, 40.4185588], [-8.4138002, 40.4185361], [-8.4138236, 40.4183597], [-8.4138484, 40.4181726], [-8.4137841, 40.4178377], [-8.4135051, 40.4170821], [-8.4134783, 40.4169596], [-8.4135051, 40.415526], [-8.4134944, 40.4153872], [-8.4131993, 40.4149052], [-8.413135, 40.4148317], [-8.4119655, 40.4141006], [-8.411531, 40.4137126], [-8.4108604, 40.4133736], [-8.4104098, 40.4132143], [-8.4098438, 40.4130591], [-8.4093824, 40.4128814], [-8.4088352, 40.4126057], [-8.4083471, 40.4122851], [-8.4078804, 40.4118399], [-8.4077409, 40.4117296], [-8.4075827, 40.4116785], [-8.407352, 40.4116601], [-8.4054616, 40.411638], [-8.4052309, 40.4116195], [-8.4050104, 40.411558], [-8.4044176, 40.4113171], [-8.404254, 40.4112354], [-8.4040046, 40.4110761], [-8.403436, 40.4106247]]}, "properties": {"highway": "primary", "ref": "EN 235"}}, {"type": "Feature", "geometry": {"type": "LineString", "coordinates": [[-8.4134947, 40.4194244], [-8.4135848, 40.4191889]]}, "properties": {"bridge": "yes", "highway": "primary", "layer": "1", "ref": "EN 235", "source": "bing"}}, {"type": "Feature", "geometry": {"type": "LineString", "coordinates": [[-8.6296699, 40.610957], [-8.6290136, 40.6108864]]}, "properties": {"bicycle": "no", "foot": "no", "highway": "primary", "horse": "no", "lanes": "2", "oneway": "no", "overtaking": "no", "ref": "EN 235", "surface": "asphalt", "toll": "no"}}, {"type": "Feature", "geometry": {"type": "LineString", "coordinates": [[-8.633239, 40.612853], [-8.6329401, 40.6124996], [-8.6326563, 40.6121997]]}, "properties": {"bicycle": "no", "foot": "no", "highway": "primary", "horse": "no", "lanes": "2", "oneway": "no", "overtaking": "no", "ref": "EN 235", "surface": "asphalt", "toll": "no"}}, {"type": "Feature", "geometry": {"type": "LineString", "coordinates": [[-8.3851762, 40.389966], [-8.3845836, 40.3900871], [-8.3844417, 40.3900966], [-8.3843068, 40.3900683], [-8.3840115, 40.3899046], [-8.3839323, 40.3898658], [-8.3838617, 40.3898419], [-8.3836423, 40.3897908], [-8.3835844, 40.3897739], [-8.383515, 40.3897363], [-8.3834557, 40.3896909], [-8.3833446, 40.3895917], [-8.382747, 40.3888692], [-8.3827063, 40.3886504], [-8.3826758, 40.3885781], [-8.3821662, 40.3881273], [-8.3820106, 40.3880455], [-8.3818443, 40.3880047], [-8.3816673, 40.3879924], [-8.381265, 40.3880251], [-8.3811469, 40.3880047], [-8.3810041, 40.3879243], [-8.3808503, 40.3877732]]}, "properties": {"highway": "primary", "lanes": "2", "oneway": "no", "ref": "EN 235", "surface": "asphalt"}}, {"type": "Feature", "geometry": {"type": "LineString", "coordinates": [[-8.6318324, 40.6115909], [-8.6313632, 40.6113691], [-8.6311715, 40.6112892], [-8.6309569, 40.6112132], [-8.6305756, 40.6111096], [-8.6301872, 40.6110321]]}, "properties": {"bicycle": "no", "foot": "no", "highway": "primary", "horse": "no", "lanes": "2", "oneway": "no", "overtaking": "no", "ref": "EN 235", "surface": "asphalt", "toll": "no"}}, {"type": "Feature", "geometry": {"type": "LineString", "coordinates": [[-8.6425318, 40.6197351], [-8.6423737, 40.6196288]]}, "properties": {"bicycle": "no", "bridge": "yes", "foot": "no", "highway": "primary", "horse": "no", "lanes": "2", "layer": "1", "maxweight:signed": "no", "oneway": "no", "overtaking": "no", "ref": "EN 235", "surface": "asphalt", "toll": "no"}}, {"type": "Feature", "geometry": {"type": "LineString", "coordinates": [[-8.3802736, 40.3873514], [-8.380458, 40.3874339], [-8.3805677, 40.3875407]]}, "properties": {"highway": "primary", "oneway": "yes", "ref": "EN 235", "surface": "asphalt"}}, {"type": "Feature", "geometry": {"type": "LineString", "coordinates": [[-8.3806495, 40.3874055], [-8.3805841, 40.3874268], [-8.3805514, 40.3874748], [-8.3805677, 40.3875407]]}, "properties": {"highway": "primary", "oneway": "yes", "ref": "EN 235", "surface": "asphalt"}}, {"type": "Feature", "geometry": {"type": "LineString", "coordinates": [[-8.3805677, 40.3875407], [-8.3806378, 40.3875673], [-8.3806962, 40.3875762], [-8.380763, 40.3875745]]}, "properties": {"highway": "primary", "oneway": "yes", "ref": "EN 235", "surface": "asphalt"}}, {"type": "Feature", "geometry": {"type": "LineString", "coordinates": [[-8.3808503, 40.3877732], [-8.3807872, 40.3876669], [-8.380763, 40.3875745]]}, "properties": {"highway": "primary", "oneway": "yes", "ref": "EN 235"}}, {"type": "Feature", "geometry": {"type": "LineString", "coordinates": [[-8.380763, 40.3875745], [-8.3807864, 40.3875482]]}, "properties": {"highway": "primary", "oneway": "yes", "ref": "EN 235", "surface": "asphalt"}}, {"type": "Feature", "geometry": {"type": "LineString", "coordinates": [[-8.3807864, 40.3875482], [-8.3808409, 40.3875282], [-8.380918, 40.3875122], [-8.3810103, 40.3875227]]}, "properties": {"highway": "primary", "oneway": "yes", "ref": "EN 235", "surface": "asphalt"}}, {"type": "Feature", "geometry": {"type": "LineString", "coordinates": [[-8.3807864, 40.3875482], [-8.3807872, 40.3874855], [-8.3807709, 40.3874398]]}, "properties": {"highway": "primary", "oneway": "yes", "ref": "EN 235", "surface": "asphalt"}}, {"type": "Feature", "geometry": {"type": "LineString", "coordinates": [[-8.3974904, 40.4078225], [-8.3973661, 40.4075694], [-8.3970465, 40.40688], [-8.3965802, 40.4058742], [-8.3965239, 40.4057803], [-8.3964434, 40.4057108], [-8.3963093, 40.4056414], [-8.396135, 40.4055985], [-8.3954349, 40.4054882], [-8.3953142, 40.4054433], [-8.3951613, 40.4053513], [-8.3950353, 40.4052186], [-8.3947322, 40.4048857], [-8.3946732, 40.4047897], [-8.3946356, 40.4046467], [-8.3946222, 40.404518], [-8.3945793, 40.4044016], [-8.3944023, 40.404132], [-8.394303, 40.4039237], [-8.3942308, 40.4037582], [-8.3941288, 40.4036438], [-8.3939786, 40.4035295], [-8.3938767, 40.4034396], [-8.3938338, 40.4033334], [-8.3938606, 40.4032231], [-8.3939561, 40.4031075], [-8.3943971, 40.4025736], [-8.3944614, 40.4023938], [-8.3944775, 40.4022631], [-8.3942898, 40.4011438]]}, "properties": {"highway": "primary", "name": "Rua dos Casais", "ref": "EN 235"}}, {"type": "Feature", "geometry": {"type": "LineString", "coordinates": [[-8.3942898, 40.4011438], [-8.3943059, 40.4010212], [-8.3943702, 40.4009313], [-8.394499, 40.4008496], [-8.3946706, 40.4007925], [-8.3949013, 40.4007475], [-8.3952768, 40.4007067], [-8.3954753, 40.4006454], [-8.3956148, 40.400531], [-8.3956899, 40.4004166], [-8.3957006, 40.4002696], [-8.3956362, 40.400049], [-8.3956309, 40.3999182], [-8.3956845, 40.3998161], [-8.3957374, 40.3997557], [-8.3957723, 40.3997281], [-8.3958454, 40.3996323], [-8.3958884, 40.3995138], [-8.3959162, 40.3991229], [-8.3959228, 40.3990308], [-8.3959285, 40.3988806], [-8.3959124, 40.3987805], [-8.3958265, 40.3986232], [-8.3952794, 40.3980329], [-8.3951453, 40.3979348], [-8.3948341, 40.3977203], [-8.3947402, 40.3976162], [-8.3946464, 40.3974548], [-8.394523, 40.3971627], [-8.3944103, 40.3969809], [-8.3942279, 40.3967848], [-8.3940419, 40.3966381], [-8.3940026, 40.3966071], [-8.3930137, 40.3959409], [-8.392267, 40.3954378], [-8.3921036, 40.3952977], [-8.3920124, 40.3951465], [-8.3919722, 40.3949913], [-8.3919755, 40.3948882], [-8.3919776, 40.3948238], [-8.3920017, 40.3941497], [-8.3919883, 40.3940312], [-8.391932, 40.393927], [-8.3918032, 40.3938146], [-8.391645, 40.3936859], [-8.3915699, 40.3935858], [-8.3915672, 40.3934633], [-8.3915994, 40.3932896], [-8.3918032, 40.3927176], [-8.3917979, 40.3925869], [-8.3917228, 40.3924071], [-8.3916128, 40.3922866], [-8.3913982, 40.3921906], [-8.390786, 40.3920191], [-8.3903334, 40.3918923], [-8.3901858, 40.3918617], [-8.3898425, 40.391829], [-8.3895126, 40.3917922], [-8.389239, 40.391733], [-8.3889333, 40.3916166], [-8.3887475, 40.3915481], [-8.3886516, 40.3915348], [-8.3885282, 40.3915389], [-8.3884102, 40.3915839], [-8.3882681, 40.3916717], [-8.3881742, 40.3917698], [-8.3880159, 40.3919414], [-8.3878979, 40.3920129], [-8.3877397, 40.3920639], [-8.3863744, 40.3922315], [-8.3861894, 40.3922662], [-8.385264, 40.3924991], [-8.3851299, 40.3925134], [-8.3850038, 40.3925113], [-8.3848643, 40.3924786], [-8.3847463, 40.3924187], [-8.3845183, 40.392303], [-8.3831139, 40.3915999], [-8.381192, 40.3906378], [-8.3810612, 40.3905666], [-8.380943, 40.3904644], [-8.3808732, 40.3903561], [-8.3808607, 40.3903015], [-8.3808786, 40.3902049]]}, "properties": {"highway": "primary", "ref": "EN 235"}}, {"type": "Feature", "geometry": {"type": "LineString", "coordinates": [[-8.3991029, 40.4095005], [-8.3990908, 40.4094422], [-8.3990778, 40.4093375], [-8.399071, 40.4092166], [-8.3990372, 40.4091214], [-8.3988462, 40.4088074], [-8.3988038, 40.4087376], [-8.398718, 40.4086376], [-8.3986402, 40.4085824], [-8.3985302, 40.4085354], [-8.3983424, 40.4084823], [-8.3982325, 40.4084333], [-8.398144, 40.4083782], [-8.3981179, 40.4083599], [-8.3980676, 40.4083247], [-8.3979455, 40.4082393], [-8.3978141, 40.4081065], [-8.3974904, 40.4078225]]}, "properties": {"highway": "primary", "name": "Rua Nossa Senhora das Neves", "ref": "EN 235"}}, {"type": "Feature", "geometry": {"type": "LineString", "coordinates": [[-8.5911123, 40.582575], [-8.5909763, 40.5825751], [-8.5908825, 40.5825834], [-8.5905633, 40.5825926]]}, "properties": {"highway": "primary", "lanes": "1", "oneway": "yes", "ref": "EN 235", "smoothness": "excellent", "surface": "asphalt"}}, {"type": "Feature", "geometry": {"type": "LineString", "coordinates": [[-8.5912839, 40.5825323], [-8.5912375, 40.5825326], [-8.5911922, 40.58254], [-8.5911499, 40.5825544], [-8.5911123, 40.582575], [-8.5910817, 40.5826004], [-8.5910585, 40.58263], [-8.5910435, 40.5826625], [-8.5910374, 40.5826966], [-8.5910404, 40.582731], [-8.5910525, 40.5827642], [-8.5910674, 40.5827879], [-8.591087, 40.5828095], [-8.5911179, 40.5828335], [-8.5911544, 40.5828524], [-8.5911951, 40.5828655], [-8.5912363, 40.5828721], [-8.5912785, 40.5828728], [-8.5913201, 40.5828675], [-8.5913567, 40.5828575], [-8.5913905, 40.5828428], [-8.5914204, 40.5828239], [-8.5914456, 40.5828014], [-8.5914653, 40.5827759], [-8.591479, 40.5827482], [-8.5914864, 40.5827167], [-8.591486, 40.5826847], [-8.5914777, 40.5826532], [-8.5914619, 40.5826236], [-8.591439, 40.5825966], [-8.5914099, 40.5825734], [-8.5913719, 40.5825532], [-8.5913293, 40.5825393], [-8.5912839, 40.5825323]]}, "properties": {"highway": "primary", "junction": "roundabout", "lanes": "1", "ref": "EN 235", "smoothness": "excellent", "surface": "asphalt"}}, {"type": "Feature", "geometry": {"type": "LineString", "coordinates": [[-8.554197, 40.5562912], [-8.554229, 40.5563011], [-8.5542656, 40.5563124], [-8.5543082, 40.5563256], [-8.5543599, 40.5563416], [-8.5545233, 40.5563921], [-8.5546585, 40.5564518], [-8.5547272, 40.5564824], [-8.5547874, 40.556524]]}, "properties": {"highway": "primary", "oneway": "yes", "ref": "EN 235"}}, {"type": "Feature", "geometry": {"type": "LineString", "coordinates": [[-8.5556312, 40.556651], [-8.5554383, 40.5565561], [-8.5553131, 40.5565048]]}, "properties": {"highway": "primary", "oneway": "yes", "ref": "EN 235"}}, {"type": "Feature", "geometry": {"type": "LineString", "coordinates": [[-8.554197, 40.5562912], [-8.5541561, 40.5562802], [-8.554078, 40.5562593], [-8.553959, 40.5562274], [-8.5538207, 40.5561904], [-8.5536639, 40.5561484], [-8.5534789, 40.5560968], [-8.5532928, 40.5560385], [-8.5527678, 40.5558589], [-8.5524616, 40.5557269], [-8.5518398, 40.5553922], [-8.548584, 40.553469], [-8.5483791, 40.5533434], [-8.5482569, 40.553266], [-8.5481683, 40.5532099], [-8.5476872, 40.5529303], [-8.5472133, 40.5526425], [-8.5462698, 40.5520764], [-8.5454723, 40.5516005], [-8.5451603, 40.5514143], [-8.5450002, 40.5513187], [-8.5443812, 40.5509493], [-8.5439566, 40.5507019], [-8.5436402, 40.5505176], [-8.5429448, 40.5501047], [-8.541103, 40.5489991], [-8.5403508, 40.5485841], [-8.5396385, 40.5482307]]}, "properties": {"highway": "primary", "lanes": "2", "ref": "EN 235", "surface": "asphalt"}}, {"type": "Feature", "geometry": {"type": "LineString", "coordinates": [[-8.5553111, 40.5566154], [-8.5553534, 40.556617], [-8.5554085, 40.5566193], [-8.5555218, 40.5566345], [-8.5556312, 40.556651]]}, "properties": {"highway": "primary", "oneway": "yes", "ref": "EN 235"}}, {"type": "Feature", "geometry": {"type": "LineString", "coordinates": [[-8.5548877, 40.5563425], [-8.5547895, 40.5563765], [-8.5547539, 40.556377], [-8.5547109, 40.5563736], [-8.5546855, 40.5563685], [-8.5545477, 40.5563459], [-8.5544319, 40.5563261], [-8.554197, 40.5562912]]}, "properties": {"highway": "primary", "oneway": "yes", "ref": "EN 235"}}, {"type": "Feature", "geometry": {"type": "LineString", "coordinates": [[-8.5549764, 40.5563148], [-8.5549302, 40.5563252], [-8.5548877, 40.5563425], [-8.5548372, 40.5563774], [-8.5548019, 40.5564219], [-8.5547849, 40.5564721], [-8.5547874, 40.556524], [-8.5548123, 40.5565772], [-8.5548577, 40.5566221], [-8.5549192, 40.5566539], [-8.5549907, 40.5566697], [-8.5550501, 40.5566696], [-8.5551077, 40.5566582], [-8.5551597, 40.5566363], [-8.5552088, 40.5565995], [-8.5552418, 40.5565535], [-8.555256, 40.5565023], [-8.5552501, 40.5564501], [-8.55523, 40.556409], [-8.5551975, 40.5563728], [-8.5551343, 40.5563342], [-8.5550576, 40.5563141], [-8.5549764, 40.5563148]]}, "properties": {"highway": "primary", "junction": "roundabout", "ref": "EN 235", "surface": "asphalt"}}, {"type": "Feature", "geometry": {"type": "LineString", "coordinates": [[-8.532857, 40.5428231], [-8.5328109, 40.5428077], [-8.5327678, 40.542788], [-8.5327261, 40.5427637], [-8.5326769, 40.5427327], [-8.5326433, 40.5427103], [-8.5326198, 40.5426917], [-8.5314601, 40.5414453], [-8.5310256, 40.54101]]}, "properties": {"highway": "primary", "oneway": "yes", "ref": "EN 235", "source": "Bing", "surface": "asphalt"}}, {"type": "Feature", "geometry": {"type": "LineString", "coordinates": [[-8.6002644, 40.5836188], [-8.6003119, 40.5836233], [-8.6003564, 40.5836308], [-8.6003998, 40.5836417], [-8.600439, 40.5836617], [-8.6005084, 40.5837186], [-8.6005485, 40.583768]]}, "properties": {"bicycle": "no", "foot": "no", "highway": "primary", "horse": "no", "lanes": "2", "lit": "yes", "oneway": "yes", "ref": "EN 235", "smoothness": "excellent", "source": "Bing", "surface": "asphalt", "toll": "no"}}, {"type": "Feature", "geometry": {"type": "LineString", "coordinates": [[-8.6032876, 40.5839584], [-8.6025758, 40.5838147]]}, "properties": {"bicycle": "no", "foot": "no", "highway": "primary", "horse": "no", "lanes": "1", "lit": "yes", "oneway": "yes", "ref": "EN 235", "surface": "asphalt", "toll": "no"}}, {"type": "Feature", "geometry": {"type": "LineString", "coordinates": [[-8.3992684, 40.409599], [-8.3991833, 40.4095573], [-8.3991029, 40.4095005]]}, "properties": {"highway": "primary", "name": "Largo Central", "ref": "EN 235", "surface": "sett"}}, {"type": "Feature", "geometry": {"type": "LineString", "coordinates": [[-8.3996272, 40.4097728], [-8.3995561, 40.4097455]]}, "properties": {"highway": "primary", "name": "Largo J\u00falio Jos\u00e9 de Almeida", "ref": "EN 235", "surface": "sett"}}, {"type": "Feature", "geometry": {"type": "LineString", "coordinates": [[-8.3992684, 40.409599], [-8.3994341, 40.4096893], [-8.3995561, 40.4097455]]}, "properties": {"highway": "primary", "name": "Largo J\u00falio Jos\u00e9 de Almeida", "ref": "EN 235", "surface": "sett"}}, {"type": "Feature", "geometry": {"type": "LineString", "coordinates": [[-8.403436, 40.4106247], [-8.4032321, 40.4105042], [-8.40217, 40.4100386], [-8.4019688, 40.4099794], [-8.4017623, 40.4099508], [-8.4014994, 40.4099651], [-8.4010863, 40.4100161], [-8.4009013, 40.4100263], [-8.4006626, 40.4100263], [-8.4003943, 40.4099937], [-8.4000537, 40.4099324], [-8.3997023, 40.4098017], [-8.3996272, 40.4097728]]}, "properties": {"highway": "primary", "name": "Rua Francisco Gomes Porto", "ref": "EN 235"}}, {"type": "Feature", "geometry": {"type": "LineString", "coordinates": [[-8.591479, 40.5827482], [-8.5915461, 40.5827008], [-8.5916088, 40.5826853], [-8.5917223, 40.5826692]]}, "properties": {"bicycle": "no", "foot": "no", "highway": "primary", "horse": "no", "lanes": "1", "oneway": "yes", "ref": "EN 235", "surface": "asphalt", "toll": "no"}}, {"type": "Feature", "geometry": {"type": "LineString", "coordinates": [[-8.5905633, 40.5825926], [-8.5904306, 40.5825546], [-8.5902462, 40.5824766], [-8.5875086, 40.5812687]]}, "properties": {"highway": "primary", "lanes": "2", "ref": "EN 235", "smoothness": "excellent", "surface": "asphalt"}}, {"type": "Feature", "geometry": {"type": "LineString", "coordinates": [[-8.5551597, 40.5566363], [-8.5552146, 40.556625], [-8.5553111, 40.5566154]]}, "properties": {"highway": "primary", "oneway": "yes", "ref": "EN 235"}}, {"type": "Feature", "geometry": {"type": "LineString", "coordinates": [[-8.5734596, 40.5714269], [-8.5735653, 40.5714917]]}, "properties": {"highway": "primary", "lanes": "3", "lanes:backward": "1", "lanes:forward": "2", "ref": "EN 235", "surface": "asphalt", "turn:lanes:backward": "through", "turn:lanes:forward": "left|through"}}, {"type": "Feature", "geometry": {"type": "LineString", "coordinates": [[-8.5738971, 40.5717634], [-8.5738483, 40.5717124]]}, "properties": {"highway": "primary", "lanes": "3", "lanes:backward": "1", "lanes:forward": "2", "ref": "EN 235", "turn:lanes:backward": "through", "turn:lanes:forward": "left|through;right"}}, {"type": "Feature", "geometry": {"type": "LineString", "coordinates": [[-8.5726856, 40.5709311], [-8.5715664, 40.5703007], [-8.5710666, 40.5700192]]}, "properties": {"highway": "primary", "lanes": "2", "ref": "EN 235", "smoothness": "excellent", "surface": "asphalt"}}, {"type": "Feature", "geometry": {"type": "LineString", "coordinates": [[-8.5726856, 40.5709311], [-8.5730184, 40.57113]]}, "properties": {"highway": "primary", "lanes": "2", "lanes:backward": "1", "lanes:forward": "1", "ref": "EN 235", "smoothness": "excellent", "surface": "asphalt", "turn:lanes:backward": "through", "turn:lanes:forward": "left;through;right"}}, {"type": "Feature", "geometry": {"type": "LineString", "coordinates": [[-8.5730184, 40.57113], [-8.5733473, 40.571352], [-8.5734596, 40.5714269]]}, "properties": {"highway": "primary", "lanes": "3", "lanes:backward": "1", "lanes:forward": "2", "ref": "EN 235", "turn:lanes:backward": "through", "turn:lanes:forward": "left|through;right"}}, {"type": "Feature", "geometry": {"type": "LineString", "coordinates": [[-8.5742467, 40.5720758], [-8.5739575, 40.5718173], [-8.5739227, 40.5717863], [-8.5738971, 40.5717634]]}, "properties": {"highway": "primary", "lanes": "3", "lanes:backward": "1", "lanes:forward": "2", "ref": "EN 235", "surface": "asphalt", "turn:lanes:backward": "through", "turn:lanes:forward": "left|through;right"}}, {"type": "Feature", "geometry": {"type": "LineString", "coordinates": [[-8.5735653, 40.5714917], [-8.5736763, 40.5715669], [-8.5737525, 40.5716359]]}, "properties": {"highway": "primary", "lanes": "3", "lanes:backward": "1", "lanes:both_ways": "1", "lanes:forward": "1", "ref": "EN 235", "surface": "asphalt", "turn:lanes:backward": "through", "turn:lanes:forward": "through"}}, {"type": "Feature", "geometry": {"type": "LineString", "coordinates": [[-8.5738483, 40.5717124], [-8.5737525, 40.5716359]]}, "properties": {"highway": "primary", "lanes": "3", "lanes:backward": "1", "lanes:forward": "2", "ref": "EN 235", "turn:lanes:backward": "through", "turn:lanes:forward": "left|through"}}, {"type": "Feature", "geometry": {"type": "LineString", "coordinates": [[-8.5917223, 40.5826692], [-8.5914099, 40.5825734]]}, "properties": {"bicycle": "no", "foot": "no", "highway": "primary", "horse": "no", "lanes": "1", "oneway": "yes", "ref": "EN 235", "surface": "asphalt", "toll": "no"}}, {"type": "Feature", "geometry": {"type": "LineString", "coordinates": [[-8.5905633, 40.5825926], [-8.5906946, 40.5826269], [-8.5909133, 40.5826705], [-8.5909726, 40.5826991], [-8.5910525, 40.5827642]]}, "properties": {"highway": "primary", "lanes": "1", "oneway": "yes", "ref": "EN 235", "smoothness": "excellent", "surface": "asphalt"}}, {"type": "Feature", "geometry": {"type": "LineString", "coordinates": [[-8.6067212, 40.5860331], [-8.6064747, 40.5856306], [-8.606215, 40.5853104], [-8.6058417, 40.5849387], [-8.6054584, 40.5846618], [-8.605, 40.5844318], [-8.6046666, 40.5842903], [-8.6042956, 40.584165], [-8.6037742, 40.5840416], [-8.6032876, 40.5839584]]}, "properties": {"bicycle": "no", "foot": "no", "highway": "primary", "horse": "no", "lanes": "2", "oneway": "no", "overtaking": "no", "ref": "EN 235", "source": "Bing", "surface": "asphalt", "toll": "no"}}, {"type": "Feature", "geometry": {"type": "LineString", "coordinates": [[-8.6121951, 40.5949143], [-8.6119463, 40.5937728], [-8.6118677, 40.5935166], [-8.611773, 40.5932686], [-8.6116371, 40.5930049], [-8.6114744, 40.5927534], [-8.6112911, 40.5925202], [-8.6110809, 40.5923034], [-8.6101228, 40.5915282], [-8.6098146, 40.5912476], [-8.609618, 40.5910162], [-8.6094482, 40.5907847], [-8.6092598, 40.5904972], [-8.6067212, 40.5860331]]}, "properties": {"bicycle": "no", "foot": "no", "highway": "primary", "horse": "no", "lanes": "2", "oneway": "no", "overtaking": "both", "ref": "EN 235", "source": "Bing", "surface": "asphalt", "toll": "no"}}, {"type": "Feature", "geometry": {"type": "LineString", "coordinates": [[-8.6242057, 40.608665], [-8.6234794, 40.6078069], [-8.6225604, 40.6067469], [-8.6206587, 40.6045046], [-8.6198398, 40.6034999], [-8.6188063, 40.6022686], [-8.6183408, 40.6017029]]}, "properties": {"bicycle": "no", "foot": "no", "highway": "primary", "horse": "no", "lanes": "2", "oneway": "no", "overtaking": "both", "ref": "EN 235", "source": "Bing", "surface": "asphalt", "toll": "no"}}, {"type": "Feature", "geometry": {"type": "LineString", "coordinates": [[-8.6301872, 40.6110321], [-8.6296699, 40.610957]]}, "properties": {"bicycle": "no", "foot": "no", "highway": "primary", "horse": "no", "lanes": "2", "oneway": "no", "overtaking": "no", "ref": "EN 235", "surface": "asphalt", "toll": "no"}}, {"type": "Feature", "geometry": {"type": "LineString", "coordinates": [[-8.6326563, 40.6121997], [-8.6324461, 40.6120064], [-8.6322115, 40.6118224], [-8.6318324, 40.6115909]]}, "properties": {"bicycle": "no", "foot": "no", "highway": "primary", "horse": "no", "lanes": "2", "oneway": "no", "overtaking": "no", "ref": "EN 235", "surface": "asphalt", "toll": "no"}}, {"type": "Feature", "geometry": {"type": "LineString", "coordinates": [[-8.6401965, 40.6179743], [-8.6395225, 40.6176236], [-8.637558, 40.6166118], [-8.6366651, 40.6161481], [-8.6361283, 40.6158307], [-8.6358429, 40.6156359], [-8.6353927, 40.6152901], [-8.6349778, 40.6149158], [-8.6346121, 40.6145029], [-8.6339135, 40.6136809], [-8.6334793, 40.6131529], [-8.633239, 40.612853]]}, "properties": {"bicycle": "no", "foot": "no", "highway": "primary", "horse": "no", "lanes": "2", "oneway": "no", "overtaking": "both", "ref": "EN 235", "surface": "asphalt", "toll": "no"}}, {"type": "Feature", "geometry": {"type": "LineString", "coordinates": [[-8.5976047, 40.5833137], [-8.5933551, 40.5828481]]}, "properties": {"bicycle": "no", "foot": "no", "highway": "primary", "horse": "no", "lanes": "2", "maxheight": "default", "oneway": "no", "overtaking": "both", "ref": "EN 235", "smoothness": "excellent", "surface": "asphalt", "toll": "no"}}, {"type": "Feature", "geometry": {"type": "LineString", "coordinates": [[-8.5933551, 40.5828481], [-8.5930608, 40.5828159], [-8.5929074, 40.5827991], [-8.5927759, 40.5827847], [-8.5926671, 40.5827727], [-8.5925902, 40.5827643], [-8.5925131, 40.5827559], [-8.5924509, 40.582749], [-8.5923531, 40.5827383], [-8.5920177, 40.5827016]]}, "properties": {"bicycle": "no", "foot": "no", "highway": "primary", "horse": "no", "lanes": "2", "oneway": "no", "overtaking": "no", "ref": "EN 235", "smoothness": "excellent", "surface": "asphalt", "toll": "no"}}, {"type": "Feature", "geometry": {"type": "LineString", "coordinates": [[-8.5920177, 40.5827016], [-8.5917223, 40.5826692]]}, "properties": {"bicycle": "no", "foot": "no", "highway": "primary", "horse": "no", "lanes": "2", "oneway": "no", "overtaking": "no", "ref": "EN 235", "smoothness": "excellent", "surface": "asphalt", "toll": "no"}}, {"type": "Feature", "geometry": {"type": "LineString", "coordinates": [[-8.4560675, 40.4603777], [-8.4562768, 40.4603083], [-8.4563616, 40.4602897], [-8.4563796, 40.4602906], [-8.4567129, 40.4603068]]}, "properties": {"highway": "primary", "lanes": "1", "maxspeed": "70", "oneway": "yes", "ref": "EN 235", "source": "Bing", "surface": "asphalt", "toll": "no"}}, {"type": "Feature", "geometry": {"type": "LineString", "coordinates": [[-8.5293489, 40.5394645], [-8.5295846, 40.5396298]]}, "properties": {"highway": "primary", "lanes": "2", "maxspeed": "70", "oneway": "no", "ref": "EN 235", "source": "Bing", "surface": "asphalt"}}, {"type": "Feature", "geometry": {"type": "LineString", "coordinates": [[-8.5291007, 40.5393109], [-8.5293489, 40.5394645]]}, "properties": {"highway": "primary", "lanes": "2", "maxspeed": "70", "oneway": "no", "ref": "EN 235", "source": "Bing", "surface": "asphalt"}}, {"type": "Feature", "geometry": {"type": "LineString", "coordinates": [[-8.5295846, 40.5396298], [-8.5298049, 40.5397844], [-8.5302128, 40.5401473], [-8.5306105, 40.5405755], [-8.5310256, 40.54101]]}, "properties": {"highway": "primary", "lanes": "2", "maxspeed": "70", "oneway": "no", "ref": "EN 235", "source": "Bing", "surface": "asphalt"}}, {"type": "Feature", "geometry": {"type": "LineString", "coordinates": [[-8.5328463, 40.5431735], [-8.5328875, 40.5431867], [-8.5329486, 40.5432105], [-8.5329793, 40.5432272], [-8.5330175, 40.5432521], [-8.5330584, 40.5432832], [-8.5331158, 40.5433375], [-8.5332208, 40.5434524], [-8.5334911, 40.5437152], [-8.5339085, 40.5441964], [-8.5340623, 40.5443159]]}, "properties": {"highway": "primary", "lanes": "1", "oneway": "yes", "ref": "EN 235", "source": "Bing", "surface": "asphalt"}}, {"type": "Feature", "geometry": {"type": "LineString", "coordinates": [[-8.5335872, 40.5437333], [-8.5331889, 40.5433092], [-8.5331444, 40.543264], [-8.5331261, 40.543244], [-8.5330943, 40.5432093], [-8.5330739, 40.5431795], [-8.533063, 40.5431521], [-8.5330536, 40.54312], [-8.5330473, 40.5430867], [-8.5330442, 40.5430607]]}, "properties": {"highway": "primary", "lanes": "1", "oneway": "yes", "ref": "EN 235", "source": "Bing", "surface": "asphalt"}}, {"type": "Feature", "geometry": {"type": "LineString", "coordinates": [[-8.5361517, 40.5464793], [-8.5359275, 40.5463064], [-8.5355954, 40.545991], [-8.5353296, 40.5457113], [-8.5349095, 40.5452522], [-8.5342798, 40.5445613]]}, "properties": {"highway": "primary", "lanes": "2", "ref": "EN 235", "surface": "asphalt"}}, {"type": "Feature", "geometry": {"type": "LineString", "coordinates": [[-8.5383456, 40.5476359], [-8.5380457, 40.5474931], [-8.5379867, 40.5474671], [-8.5378751, 40.547418]]}, "properties": {"highway": "primary", "lanes": "2", "ref": "EN 235", "surface": "asphalt"}}, {"type": "Feature", "geometry": {"type": "LineString", "coordinates": [[-8.5377735, 40.547372], [-8.5376193, 40.5473011], [-8.5372641, 40.5471344]]}, "properties": {"highway": "primary", "lanes": "2", "ref": "EN 235", "surface": "asphalt"}}, {"type": "Feature", "geometry": {"type": "LineString", "coordinates": [[-8.5378751, 40.547418], [-8.5377735, 40.547372]]}, "properties": {"highway": "primary", "lanes": "2", "ref": "EN 235", "surface": "asphalt"}}, {"type": "Feature", "geometry": {"type": "LineString", "coordinates": [[-8.5695932, 40.5693251], [-8.5698268, 40.5694285], [-8.5705349, 40.5697932], [-8.5710666, 40.5700192]]}, "properties": {"highway": "primary", "oneway": "yes", "ref": "EN 235", "surface": "asphalt"}}, {"type": "Feature", "geometry": {"type": "LineString", "coordinates": [[-8.6507398, 40.6249137], [-8.6500815, 40.6246003], [-8.6499322, 40.6245126]]}, "properties": {"bicycle": "no", "foot": "no", "highway": "primary", "horse": "no", "lanes": "1", "maxspeed": "50", "oneway": "yes", "ref": "EN 235", "surface": "asphalt", "toll": "no"}}, {"type": "Feature", "geometry": {"type": "LineString", "coordinates": [[-8.5674532, 40.5680456], [-8.5681498, 40.5684991], [-8.5683535, 40.5686265], [-8.5684737, 40.5687233], [-8.5685345, 40.5687939], [-8.568593, 40.568884], [-8.568622, 40.5689232]]}, "properties": {"highway": "primary", "lanes": "2", "oneway": "yes", "ref": "EN 235", "surface": "asphalt"}}, {"type": "Feature", "geometry": {"type": "LineString", "coordinates": [[-8.5687338, 40.56915], [-8.5688173, 40.5691791], [-8.5688991, 40.5691853], [-8.5689082, 40.569186], [-8.5689971, 40.56917], [-8.5690743, 40.5691329], [-8.56913, 40.5690806], [-8.569161, 40.5690176], [-8.5691663, 40.5689689], [-8.5691566, 40.5689205], [-8.5691324, 40.5688752], [-8.5690733, 40.568819], [-8.5689928, 40.5687812], [-8.5689235, 40.56877], [-8.5689002, 40.5687662], [-8.5688064, 40.5687758], [-8.5687223, 40.5688089], [-8.5686595, 40.5688596], [-8.568622, 40.5689232], [-8.5686132, 40.5689852], [-8.5686289, 40.5690465], [-8.5686676, 40.5691016], [-8.5687338, 40.56915]]}, "properties": {"highway": "primary", "junction": "roundabout", "lanes": "2", "ref": "EN 235", "smoothness": "excellent", "surface": "asphalt"}}, {"type": "Feature", "geometry": {"type": "LineString", "coordinates": [[-8.5689971, 40.56917], [-8.5691211, 40.5691693], [-8.5692876, 40.5692005], [-8.5695932, 40.5693251]]}, "properties": {"highway": "primary", "lanes": "2", "oneway": "yes", "ref": "EN 235", "smoothness": "excellent", "surface": "asphalt"}}, {"type": "Feature", "geometry": {"type": "LineString", "coordinates": [[-8.5710666, 40.5700192], [-8.570563, 40.5697146], [-8.5698732, 40.5693631], [-8.5693953, 40.569114], [-8.5692259, 40.5690035], [-8.5691663, 40.5689689]]}, "properties": {"highway": "primary", "oneway": "yes", "ref": "EN 235", "surface": "asphalt"}}, {"type": "Feature", "geometry": {"type": "LineString", "coordinates": [[-8.5689002, 40.5687662], [-8.568768, 40.5687274], [-8.5686231, 40.5686725], [-8.5680132, 40.5683266], [-8.5674421, 40.5680392]]}, "properties": {"highway": "primary", "lanes": "2", "oneway": "yes", "ref": "EN 235", "surface": "asphalt"}}, {"type": "Feature", "geometry": {"type": "LineString", "coordinates": [[-8.5784589, 40.5759076], [-8.5783488, 40.5758095], [-8.5769448, 40.574573], [-8.5748445, 40.5726657], [-8.5747519, 40.5725649], [-8.5746699, 40.5724792], [-8.574538, 40.5723496], [-8.5744687, 40.5722819], [-8.5744156, 40.5722287], [-8.5743554, 40.5721742], [-8.5743064, 40.5721298], [-8.5742467, 40.5720758]]}, "properties": {"highway": "primary", "lanes": "2", "ref": "EN 235", "smoothness": "excellent", "surface": "asphalt"}}, {"type": "Feature", "geometry": {"type": "LineString", "coordinates": [[-8.579107, 40.5764892], [-8.5790028, 40.5763434], [-8.5789546, 40.5762621], [-8.5789275, 40.5762214]]}, "properties": {"highway": "primary", "lanes": "1", "oneway": "yes", "ref": "EN 235", "smoothness": "excellent", "surface": "asphalt"}}, {"type": "Feature", "geometry": {"type": "LineString", "coordinates": [[-8.5787712, 40.5760603], [-8.5784589, 40.5759076]]}, "properties": {"destination": "Lisboa;Porto;Anadia;Oliveira do Bairro;\u00c1gueda", "highway": "primary", "lanes": "1", "oneway": "yes", "ref": "EN 235", "smoothness": "excellent", "surface": "asphalt"}}, {"type": "Feature", "geometry": {"type": "LineString", "coordinates": [[-8.578762, 40.576307], [-8.5788551, 40.5763358], [-8.5789289, 40.5763716], [-8.579107, 40.5764892]]}, "properties": {"highway": "primary", "lanes": "1", "oneway": "yes", "ref": "EN 235", "smoothness": "excellent", "surface": "asphalt"}}, {"type": "Feature", "geometry": {"type": "LineString", "coordinates": [[-8.5784589, 40.5759076], [-8.5785832, 40.5761014], [-8.5786145, 40.5761549]]}, "properties": {"highway": "primary", "lanes": "1", "oneway": "yes", "ref": "EN 235", "smoothness": "excellent", "surface": "asphalt"}}, {"type": "Feature", "geometry": {"type": "LineString", "coordinates": [[-8.5788154, 40.5763029], [-8.5788641, 40.5762858], [-8.5789029, 40.5762577], [-8.5789275, 40.5762214], [-8.5789348, 40.5761928], [-8.5789331, 40.5761637], [-8.5789199, 40.5761313], [-8.5788955, 40.5761029], [-8.5788619, 40.5760805], [-8.5788216, 40.576066], [-8.5787712, 40.5760603], [-8.5787184, 40.5760674], [-8.5786714, 40.5760871], [-8.5786355, 40.5761174], [-8.5786145, 40.5761549], [-8.5786111, 40.5761977], [-8.578627, 40.5762387], [-8.5786604, 40.5762731], [-8.5787073, 40.5762968], [-8.578762, 40.576307], [-8.5788154, 40.5763029]]}, "properties": {"highway": "primary", "junction": "roundabout", "lanes": "1", "ref": "EN 235", "smoothness": "excellent", "surface": "asphalt"}}, {"type": "Feature", "geometry": {"type": "LineString", "coordinates": [[-8.5875086, 40.5812687], [-8.5871201, 40.5810987], [-8.5858613, 40.5805427], [-8.5848812, 40.5801131], [-8.5845684, 40.579976], [-8.5823573, 40.5790053], [-8.5822135, 40.5789394], [-8.582073, 40.5788704], [-8.5819528, 40.5788071], [-8.5818307, 40.5787385], [-8.5816899, 40.5786573], [-8.5815536, 40.578572], [-8.5814243, 40.5784884], [-8.5812988, 40.5783998], [-8.5811566, 40.5782975], [-8.5810675, 40.5782291], [-8.5808737, 40.5780758], [-8.5806881, 40.5779204], [-8.58049, 40.5777465], [-8.5799432, 40.5772568], [-8.579107, 40.5764892]]}, "properties": {"highway": "primary", "lanes": "2", "ref": "EN 235", "smoothness": "excellent", "surface": "asphalt"}}, {"type": "Feature", "geometry": {"type": "LineString", "coordinates": [[-8.4816123, 40.4936139], [-8.4815592, 40.4934143], [-8.4814752, 40.4930055], [-8.4814473, 40.4926371], [-8.4814684, 40.4908595], [-8.4815306, 40.4902962], [-8.4816441, 40.4897995], [-8.4819935, 40.4887264], [-8.4820914, 40.4883591], [-8.4821177, 40.4879436], [-8.4820958, 40.4875555], [-8.481965, 40.4870683], [-8.4817011, 40.4864811], [-8.4814865, 40.4859952], [-8.4813101, 40.4854882]]}, "properties": {"highway": "primary", "lanes": "2", "maxheight:signed": "no", "maxspeed": "70", "oneway": "no", "ref": "EN 235", "source": "Bing", "surface": "asphalt", "toll": "no"}}, {"type": "Feature", "geometry": {"type": "LineString", "coordinates": [[-8.4816418, 40.4937249], [-8.4816123, 40.4936139]]}, "properties": {"bridge": "yes", "highway": "primary", "lanes": "2", "layer": "1", "maxspeed": "70", "maxweight:signed": "no", "oneway": "no", "ref": "EN 235", "source": "Bing", "surface": "asphalt", "toll": "no"}}, {"type": "Feature", "geometry": {"type": "LineString", "coordinates": [[-8.4364702, 40.4573318], [-8.436344, 40.4572599], [-8.4362984, 40.4572313]]}, "properties": {"highway": "primary", "ref": "EN 235"}}, {"type": "Feature", "geometry": {"type": "LineString", "coordinates": [[-8.4545277, 40.4602292], [-8.452766, 40.4601954], [-8.4517657, 40.4601929], [-8.4506308, 40.4601538], [-8.4500642, 40.4601085], [-8.4493192, 40.4600191], [-8.4459252, 40.4593905], [-8.4387582, 40.458063], [-8.4384711, 40.4580053]]}, "properties": {"highway": "primary", "lanes": "2", "ref": "EN 235", "surface": "asphalt"}}, {"type": "Feature", "geometry": {"type": "LineString", "coordinates": [[-8.4384711, 40.4580053], [-8.4381562, 40.45793], [-8.4377201, 40.4578257], [-8.437012, 40.4575808], [-8.4367114, 40.4574522], [-8.4364702, 40.4573318]]}, "properties": {"highway": "primary", "ref": "EN 235"}}, {"type": "Feature", "geometry": {"type": "LineString", "coordinates": [[-8.6005485, 40.583768], [-8.6005546, 40.5838381], [-8.600576, 40.5839416], [-8.6006296, 40.5840464], [-8.6007391, 40.5841524], [-8.6008699, 40.5842375], [-8.6010219, 40.5843025], [-8.6011875, 40.5843436], [-8.6013589, 40.5843594], [-8.601534, 40.5843494], [-8.601699, 40.5843145], [-8.6018551, 40.5842548], [-8.6019929, 40.5841731], [-8.6021077, 40.5840715]]}, "properties": {"bicycle": "no", "foot": "no", "highway": "primary", "horse": "no", "junction": "roundabout", "lanes": "2", "lit": "yes", "maxspeed": "40", "ref": "EN 235", "source": "Bing", "surface": "asphalt", "toll": "no"}}, {"type": "Feature", "geometry": {"type": "LineString", "coordinates": [[-8.6022654, 40.5836494], [-8.6022542, 40.5835669], [-8.6022379, 40.5835025]]}, "properties": {"bicycle": "no", "foot": "no", "highway": "primary", "horse": "no", "junction": "roundabout", "lanes": "2", "lit": "yes", "maxspeed": "40", "ref": "EN 235", "smoothness": "excellent", "source": "Bing", "surface": "asphalt", "toll": "no"}}, {"type": "Feature", "geometry": {"type": "LineString", "coordinates": [[-8.6021077, 40.5840715], [-8.602192, 40.5839579], [-8.6022466, 40.5838321], [-8.6022654, 40.5836494]]}, "properties": {"bicycle": "no", "foot": "no", "highway": "primary", "horse": "no", "junction": "roundabout", "lanes": "2", "lit": "yes", "maxspeed": "40", "ref": "EN 235", "smoothness": "excellent", "source": "Bing", "surface": "asphalt", "toll": "no"}}, {"type": "Feature", "geometry": {"type": "LineString", "coordinates": [[-8.6007775, 40.5832478], [-8.6007294, 40.5832959], [-8.6006874, 40.5833477], [-8.6006456, 40.5834075], [-8.6006181, 40.5834625], [-8.6005936, 40.5835235], [-8.6005773, 40.5835833], [-8.6005652, 40.5836479], [-8.6005561, 40.5837055], [-8.6005485, 40.583768]]}, "properties": {"bicycle": "no", "foot": "no", "highway": "primary", "horse": "no", "junction": "roundabout", "lanes": "2", "lit": "yes", "maxspeed": "40", "ref": "EN 235", "source": "Bing", "surface": "asphalt", "toll": "no"}}, {"type": "Feature", "geometry": {"type": "LineString", "coordinates": [[-8.6012312, 40.5830355], [-8.6010676, 40.5830807], [-8.6009296, 40.5831403], [-8.6008365, 40.5831995], [-8.6007775, 40.5832478]]}, "properties": {"bicycle": "no", "foot": "no", "highway": "primary", "horse": "no", "junction": "roundabout", "lanes": "2", "lit": "yes", "maxspeed": "40", "ref": "EN 235", "source": "Bing", "surface": "asphalt", "toll": "no"}}, {"type": "Feature", "geometry": {"type": "LineString", "coordinates": [[-8.3805677, 40.3875407], [-8.3807289, 40.3877007], [-8.3808503, 40.3877732]]}, "properties": {"highway": "primary", "oneway": "yes", "ref": "EN 235"}}, {"type": "Feature", "geometry": {"type": "LineString", "coordinates": [[-8.5396385, 40.5482307], [-8.53882, 40.5478539]]}, "properties": {"highway": "primary", "lanes": "2", "maxspeed": "50", "maxspeed:type": "sign", "ref": "EN 235", "surface": "asphalt", "traffic_calming:forward": "rumble_strip"}}, {"type": "Feature", "geometry": {"type": "LineString", "coordinates": [[-8.53882, 40.5478539], [-8.5383456, 40.5476359]]}, "properties": {"highway": "primary", "lanes": "2", "ref": "EN 235", "surface": "asphalt"}}, {"type": "Feature", "geometry": {"type": "LineString", "coordinates": [[-8.5370473, 40.547028], [-8.5366027, 40.5467754], [-8.5361517, 40.5464793]]}, "properties": {"highway": "primary", "lanes": "2", "ref": "EN 235", "surface": "asphalt", "traffic_calming:backward": "rumble_strip"}}, {"type": "Feature", "geometry": {"type": "LineString", "coordinates": [[-8.5372641, 40.5471344], [-8.5370473, 40.547028]]}, "properties": {"highway": "primary", "lanes": "2", "ref": "EN 235", "surface": "asphalt"}}, {"type": "Feature", "geometry": {"type": "LineString", "coordinates": [[-8.5342798, 40.5445613], [-8.5340623, 40.5443159]]}, "properties": {"highway": "primary", "lanes": "2", "ref": "EN 235", "surface": "asphalt", "traffic_calming:forward": "rumble_strip"}}, {"type": "Feature", "geometry": {"type": "LineString", "coordinates": [[-8.5310256, 40.54101], [-8.531328, 40.5413586]]}, "properties": {"highway": "primary", "oneway": "yes", "ref": "EN 235", "source": "Bing", "surface": "asphalt"}}, {"type": "Feature", "geometry": {"type": "LineString", "coordinates": [[-8.531328, 40.5413586], [-8.5314222, 40.5414673], [-8.5320285, 40.5421341]]}, "properties": {"highway": "primary", "oneway": "yes", "ref": "EN 235", "source": "Bing", "surface": "asphalt", "traffic_calming": "rumble_strip"}}, {"type": "Feature", "geometry": {"type": "LineString", "coordinates": [[-8.3851762, 40.389966], [-8.3851961, 40.3900096], [-8.3852195, 40.3900415], [-8.3852562, 40.3900645], [-8.3853016, 40.3900786], [-8.3853513, 40.3900796], [-8.3854034, 40.3900731], [-8.3854614, 40.390061], [-8.3859506, 40.3899317], [-8.3859876, 40.3899231], [-8.3860287, 40.3899207]]}, "properties": {"highway": "primary", "lanes": "2", "maxspeed": "30", "maxspeed:type": "sign", "oneway": "no", "ref": "EN 235", "surface": "asphalt"}}, {"type": "Feature", "geometry": {"type": "LineString", "coordinates": [[-8.3860287, 40.3899207], [-8.3860697, 40.3899283], [-8.3861043, 40.3899493], [-8.3861417, 40.389994], [-8.3861723, 40.3900484]]}, "properties": {"highway": "primary", "lanes": "2", "layer": "-1", "oneway": "no", "ref": "EN 235", "surface": "asphalt", "tunnel": "yes"}}, {"type": "Feature", "geometry": {"type": "LineString", "coordinates": [[-8.3861723, 40.3900484], [-8.3862093, 40.3901217]]}, "properties": {"highway": "primary", "lanes": "2", "oneway": "no", "ref": "EN 235", "surface": "asphalt"}}, {"type": "Feature", "geometry": {"type": "LineString", "coordinates": [[-8.4221679, 40.4416474], [-8.4222037, 40.4417605], [-8.4222362, 40.4418604], [-8.4222501, 40.4419031], [-8.4222554, 40.4419497]]}, "properties": {"highway": "primary", "oneway": "yes", "ref": "EN 235"}}, {"type": "Feature", "geometry": {"type": "LineString", "coordinates": [[-8.4224339, 40.4419015], [-8.4223744, 40.4418493], [-8.422346, 40.4418223], [-8.422268, 40.4417481], [-8.4221679, 40.4416474]]}, "properties": {"highway": "primary", "oneway": "yes", "ref": "EN 235"}}, {"type": "Feature", "geometry": {"type": "LineString", "coordinates": [[-8.4226741, 40.4424918], [-8.4226415, 40.4423857], [-8.4226237, 40.442304], [-8.4226099, 40.4422041], [-8.4225965, 40.4421192]]}, "properties": {"highway": "primary", "oneway": "yes", "ref": "EN 235", "surface": "asphalt"}}, {"type": "Feature", "geometry": {"type": "LineString", "coordinates": [[-8.4223986, 40.4422141], [-8.4224845, 40.4422902], [-8.4225748, 40.4423842], [-8.4226741, 40.4424918]]}, "properties": {"highway": "primary", "oneway": "yes", "ref": "EN 235", "surface": "asphalt"}}, {"type": "Feature", "geometry": {"type": "LineString", "coordinates": [[-8.5327557, 40.5431665], [-8.5328286, 40.5431756], [-8.5328463, 40.5431735], [-8.5329017, 40.5431668], [-8.5329674, 40.5431412], [-8.5330222, 40.5430979], [-8.5330442, 40.5430607], [-8.5330547, 40.5430431], [-8.5330562, 40.5430294], [-8.5330613, 40.5429833], [-8.5330411, 40.5429252], [-8.5329966, 40.5428757], [-8.5329327, 40.5428403], [-8.532857, 40.5428231], [-8.5327781, 40.5428263], [-8.5327051, 40.5428493], [-8.5326464, 40.5428895], [-8.5326267, 40.5429165], [-8.5326106, 40.5429386], [-8.5326026, 40.5429708], [-8.5325968, 40.5429938], [-8.5326066, 40.5430495], [-8.5326388, 40.5431001], [-8.5326645, 40.5431203], [-8.5326902, 40.5431404], [-8.5327557, 40.5431665]]}, "properties": {"highway": "primary", "junction": "roundabout", "ref": "EN 235;EN 333", "surface": "asphalt"}}, {"type": "Feature", "geometry": {"type": "LineString", "coordinates": [[-8.4235339, 40.4439294], [-8.4226741, 40.4424918]]}, "properties": {"highway": "primary", "lanes": "2", "ref": "EN 235", "surface": "asphalt"}}, {"type": "Feature", "geometry": {"type": "LineString", "coordinates": [[-8.4235879, 40.4440197], [-8.4235339, 40.4439294]]}, "properties": {"bridge": "yes", "highway": "primary", "lanes": "2", "layer": "1", "ref": "EN 235", "surface": "asphalt"}}, {"type": "Feature", "geometry": {"type": "MultiPolygon", "coordinates": [[[[-8.4561039, 40.4602552], [-8.4560945, 40.4602134], [-8.4560746, 40.4601738], [-8.4560446, 40.4601376], [-8.4560058, 40.4601065], [-8.4559602, 40.4600821], [-8.4559092, 40.4600648], [-8.4558547, 40.4600555], [-8.455799, 40.4600544], [-8.455744, 40.4600616], [-8.4556919, 40.4600769], [-8.4556447, 40.4600995], [-8.4556042, 40.4601287], [-8.4555719, 40.4601635], [-8.4555492, 40.4602024], [-8.4555368, 40.4602439], [-8.4555354, 40.4602865], [-8.4555449, 40.4603285], [-8.4555651, 40.4603682], [-8.4555953, 40.4604044], [-8.4556342, 40.4604354], [-8.4556805, 40.4604599], [-8.4557321, 40.4604771], [-8.4557864, 40.4604861], [-8.4558419, 40.4604869], [-8.4558966, 40.4604795], [-8.4559483, 40.4604642], [-8.4559952, 40.4604415], [-8.4560354, 40.4604124], [-8.4560675, 40.4603777], [-8.4560901, 40.460339], [-8.4561024, 40.4602976], [-8.4561039, 40.4602552]]]]}, "properties": {"highway": "primary", "junction": "roundabout", "lanes": "2", "maxspeed": "50", "ref": "IC2;EN 1;EN 235", "surface": "asphalt"}}, {"type": "Feature", "geometry": {"type": "MultiPolygon", "coordinates": [[[[-8.422612, 40.44207], [-8.4226063, 40.4420196], [-8.4225828, 40.4419764], [-8.4225593, 40.4419548], [-8.4225436, 40.4419404], [-8.4224926, 40.4419148], [-8.4224339, 40.4419015], [-8.4223727, 40.4419018], [-8.4223143, 40.4419157], [-8.4222625, 40.4419428], [-8.4222554, 40.4419497], [-8.4222238, 40.4419804], [-8.4222015, 40.442025], [-8.4222005, 40.4420375], [-8.4221978, 40.4420727], [-8.422213, 40.4421191], [-8.4222509, 40.4421644], [-8.4222797, 40.4421815], [-8.4223065, 40.4421975], [-8.4223736, 40.4422145], [-8.4223986, 40.4422141], [-8.4224442, 40.4422134], [-8.4225102, 40.4421944], [-8.4225614, 40.4421621], [-8.4225965, 40.4421192], [-8.4226055, 40.4420907], [-8.422612, 40.44207]]]]}, "properties": {"highway": "primary", "junction": "roundabout", "ref": "EN 235", "source": "Bing"}}, {"type": "Feature", "geometry": {"type": "MultiPolygon", "coordinates": [[[[-8.5914864, 40.5827167], [-8.591486, 40.5826847], [-8.5914777, 40.5826532], [-8.5914619, 40.5826236], [-8.591439, 40.5825966], [-8.5914099, 40.5825734], [-8.5913719, 40.5825532], [-8.5913293, 40.5825393], [-8.5912839, 40.5825323], [-8.5912375, 40.5825326], [-8.5911922, 40.58254], [-8.5911499, 40.5825544], [-8.5911123, 40.582575], [-8.5910817, 40.5826004], [-8.5910585, 40.58263], [-8.5910435, 40.5826625], [-8.5910374, 40.5826966], [-8.5910404, 40.582731], [-8.5910525, 40.5827642], [-8.5910674, 40.5827879], [-8.591087, 40.5828095], [-8.5911179, 40.5828335], [-8.5911544, 40.5828524], [-8.5911951, 40.5828655], [-8.5912363, 40.5828721], [-8.5912785, 40.5828728], [-8.5913201, 40.5828675], [-8.5913567, 40.5828575], [-8.5913905, 40.5828428], [-8.5914204, 40.5828239], [-8.5914456, 40.5828014], [-8.5914653, 40.5827759], [-8.591479, 40.5827482], [-8.5914864, 40.5827167]]]]}, "properties": {"highway": "primary", "junction": "roundabout", "lanes": "1", "ref": "EN 235", "smoothness": "excellent", "surface": "asphalt"}}, {"type": "Feature", "geometry": {"type": "MultiPolygon", "coordinates": [[[[-8.555256, 40.5565023], [-8.5552501, 40.5564501], [-8.55523, 40.556409], [-8.5551975, 40.5563728], [-8.5551343, 40.5563342], [-8.5550576, 40.5563141], [-8.5549764, 40.5563148], [-8.5549302, 40.5563252], [-8.5548877, 40.5563425], [-8.5548372, 40.5563774], [-8.5548019, 40.5564219], [-8.5547849, 40.5564721], [-8.5547874, 40.556524], [-8.5548123, 40.5565772], [-8.5548577, 40.5566221], [-8.5549192, 40.5566539], [-8.5549907, 40.5566697], [-8.5550501, 40.5566696], [-8.5551077, 40.5566582], [-8.5551597, 40.5566363], [-8.5552088, 40.5565995], [-8.5552418, 40.5565535], [-8.555256, 40.5565023]]]]}, "properties": {"highway": "primary", "junction": "roundabout", "ref": "EN 235", "surface": "asphalt"}}, {"type": "Feature", "geometry": {"type": "MultiPolygon", "coordinates": [[[[-8.5691663, 40.5689689], [-8.5691566, 40.5689205], [-8.5691324, 40.5688752], [-8.5690733, 40.568819], [-8.5689928, 40.5687812], [-8.5689235, 40.56877], [-8.5689002, 40.5687662], [-8.5688064, 40.5687758], [-8.5687223, 40.5688089], [-8.5686595, 40.5688596], [-8.568622, 40.5689232], [-8.5686132, 40.5689852], [-8.5686289, 40.5690465], [-8.5686676, 40.5691016], [-8.5687338, 40.56915], [-8.5688173, 40.5691791], [-8.5688991, 40.5691853], [-8.5689082, 40.569186], [-8.5689971, 40.56917], [-8.5690743, 40.5691329], [-8.56913, 40.5690806], [-8.569161, 40.5690176], [-8.5691663, 40.5689689]]]]}, "properties": {"highway": "primary", "junction": "roundabout", "lanes": "2", "ref": "EN 235", "smoothness": "excellent", "surface": "asphalt"}}, {"type": "Feature", "geometry": {"type": "MultiPolygon", "coordinates": [[[[-8.5789348, 40.5761928], [-8.5789331, 40.5761637], [-8.5789199, 40.5761313], [-8.5788955, 40.5761029], [-8.5788619, 40.5760805], [-8.5788216, 40.576066], [-8.5787712, 40.5760603], [-8.5787184, 40.5760674], [-8.5786714, 40.5760871], [-8.5786355, 40.5761174], [-8.5786145, 40.5761549], [-8.5786111, 40.5761977], [-8.578627, 40.5762387], [-8.5786604, 40.5762731], [-8.5787073, 40.5762968], [-8.578762, 40.576307], [-8.5788154, 40.5763029], [-8.5788641, 40.5762858], [-8.5789029, 40.5762577], [-8.5789275, 40.5762214], [-8.5789348, 40.5761928]]]]}, "properties": {"highway": "primary", "junction": "roundabout", "lanes": "1", "ref": "EN 235", "smoothness": "excellent", "surface": "asphalt"}}, {"type": "Feature", "geometry": {"type": "MultiPolygon", "coordinates": [[[[-8.5330613, 40.5429833], [-8.5330411, 40.5429252], [-8.5329966, 40.5428757], [-8.5329327, 40.5428403], [-8.532857, 40.5428231], [-8.5327781, 40.5428263], [-8.5327051, 40.5428493], [-8.5326464, 40.5428895], [-8.5326267, 40.5429165], [-8.5326106, 40.5429386], [-8.5326026, 40.5429708], [-8.5325968, 40.5429938], [-8.5326066, 40.5430495], [-8.5326388, 40.5431001], [-8.5326645, 40.5431203], [-8.5326902, 40.5431404], [-8.5327557, 40.5431665], [-8.5328286, 40.5431756], [-8.5328463, 40.5431735], [-8.5329017, 40.5431668], [-8.5329674, 40.5431412], [-8.5330222, 40.5430979], [-8.5330442, 40.5430607], [-8.5330547, 40.5430431], [-8.5330562, 40.5430294], [-8.5330613, 40.5429833]]]]}, "properties": {"highway": "primary", "junction": "roundabout", "ref": "EN 235;EN 333", "surface": "asphalt"}}]}