{"type": "FeatureCollection", "features": [{"type": "Feature", "geometry": {"type": "LineString", "coordinates": [[-7.2349514, 38.1117634], [-7.235364, 38.111844]]}, "properties": {"highway": "primary", "ref": "EN 258"}}, {"type": "Feature", "geometry": {"type": "LineString", "coordinates": [[-7.2235217, 38.1091012], [-7.2245838, 38.1095086], [-7.2247835, 38.1095862], [-7.2249689, 38.1096496], [-7.2250955, 38.1096841], [-7.2252432, 38.1097191], [-7.2272826, 38.1101472], [-7.2274493, 38.1101822], [-7.2344567, 38.1116533]]}, "properties": {"highway": "primary", "ref": "EN 258"}}, {"type": "Feature", "geometry": {"type": "LineString", "coordinates": [[-6.9806314, 38.1334007], [-6.9803315, 38.1336256], [-6.9801836, 38.1337544], [-6.9800818, 38.133883], [-6.980013, 38.1339594]]}, "properties": {"highway": "primary", "ref": "EN 258"}}, {"type": "Feature", "geometry": {"type": "LineString", "coordinates": [[-7.400307, 38.136416], [-7.4009861, 38.1363948], [-7.4011317, 38.1363951], [-7.4012984, 38.1364109], [-7.4015359, 38.1364429], [-7.4018698, 38.1364938], [-7.4020895, 38.1365351], [-7.4021858, 38.1365644], [-7.4022587, 38.1365958], [-7.4023135, 38.1366245], [-7.4023671, 38.1366583], [-7.4024262, 38.1367071], [-7.4025558, 38.136829], [-7.4027485, 38.1369956], [-7.4028466, 38.1370661], [-7.4029246, 38.1371126], [-7.4029753, 38.1371396], [-7.4030211, 38.1371573], [-7.4030877, 38.1371752], [-7.4031519, 38.1371891], [-7.4032421, 38.137195], [-7.4033286, 38.1371963], [-7.4035727, 38.1371729], [-7.4049973, 38.1369754], [-7.4143985, 38.135672], [-7.4147826, 38.1356199], [-7.4149906, 38.1355876], [-7.4151565, 38.1355533], [-7.4153371, 38.1355103], [-7.4154802, 38.1354665], [-7.415607, 38.1354152], [-7.4157029, 38.1353673], [-7.4158515, 38.1352914], [-7.4165784, 38.1348608], [-7.4166567, 38.134819], [-7.4167439, 38.1347792], [-7.4168614, 38.1347377], [-7.417465, 38.1345717], [-7.4177184, 38.1345179], [-7.4178194, 38.134502], [-7.4179029, 38.1344944], [-7.4180085, 38.134491], [-7.4183572, 38.1344795], [-7.4190924, 38.1344833], [-7.4192753, 38.1344987], [-7.4193995, 38.1345183], [-7.4195576, 38.1345477], [-7.4207594, 38.1347656], [-7.421209, 38.1348496], [-7.4213542, 38.1348745], [-7.4214971, 38.1348942], [-7.4216877, 38.1349076], [-7.4223443, 38.1349168], [-7.4229515, 38.134926], [-7.4230958, 38.1349173], [-7.4232067, 38.1348991], [-7.4233158, 38.1348727], [-7.4233473, 38.134865], [-7.4236204, 38.1347927]]}, "properties": {"highway": "primary", "ref": "EN 258"}}, {"type": "Feature", "geometry": {"type": "LineString", "coordinates": [[-6.9806314, 38.1334007], [-6.9807796, 38.1332857], [-6.9809121, 38.1332005], [-6.9810324, 38.1331268], [-6.9811824, 38.1330552], [-6.981298, 38.1330191], [-6.9814497, 38.1329953], [-6.981659, 38.1329818], [-6.981898, 38.1329862], [-6.9821061, 38.1330035], [-6.9822071, 38.1330294], [-6.9822842, 38.133055], [-6.9823543, 38.1330873], [-6.9823801, 38.1331021], [-6.9824414, 38.1331372], [-6.9829134, 38.1333744], [-6.9830218, 38.1334139], [-6.9831393, 38.133443], [-6.9832017, 38.1334493], [-6.9832681, 38.1334524], [-6.9833686, 38.1334496], [-6.9834765, 38.1334311], [-6.9835496, 38.1334137], [-6.9836386, 38.133385], [-6.983755, 38.1333336], [-6.9839536, 38.1332525], [-6.9843846, 38.133124], [-6.9844929, 38.1330908], [-6.9845887, 38.1330503], [-6.9847394, 38.1329743], [-6.9848876, 38.1328942], [-6.9850395, 38.1328105], [-6.9851746, 38.1327249], [-6.9852843, 38.1326412], [-6.9854142, 38.1325376], [-6.9855151, 38.1324486], [-6.9856646, 38.1322985]]}, "properties": {"highway": "primary", "ref": "EN 258"}}, {"type": "Feature", "geometry": {"type": "LineString", "coordinates": [[-7.9903789, 38.2534451], [-7.990209, 38.2530088], [-7.9901974, 38.2529791]]}, "properties": {"highway": "primary", "maxspeed": "50", "name": "Largo dos Cadeir\u00f5es", "postal_code": "7920-025", "ref": "EN 258"}}, {"type": "Feature", "geometry": {"type": "LineString", "coordinates": [[-7.937599, 38.2459259], [-7.9374401, 38.2457842], [-7.9373581, 38.2457262], [-7.9372703, 38.2456728], [-7.937181, 38.2456364], [-7.9370879, 38.2456085], [-7.9369807, 38.245581], [-7.9368749, 38.2455609], [-7.9366673, 38.2455573], [-7.9356521, 38.2456068], [-7.9350638, 38.245629], [-7.9346464, 38.24566]]}, "properties": {"highway": "primary", "name": "Rua de Beja", "postal_code": "7940-461", "ref": "EN 258"}}, {"type": "Feature", "geometry": {"type": "LineString", "coordinates": [[-7.1540536, 38.0765387], [-7.1540269, 38.0768339]]}, "properties": {"bridge": "yes", "highway": "primary", "layer": "1", "ref": "EN 258"}}, {"type": "Feature", "geometry": {"type": "LineString", "coordinates": [[-7.1540536, 38.0765387], [-7.1540803, 38.0764703], [-7.154119, 38.0764214], [-7.1541545, 38.0763903], [-7.154194, 38.0763664], [-7.1542538, 38.0763366], [-7.1543103, 38.0763203], [-7.1543717, 38.0763114], [-7.1544464, 38.0763091], [-7.1545384, 38.0763141], [-7.1546471, 38.0763271], [-7.1548712, 38.0763626], [-7.1550496, 38.0763856], [-7.1551719, 38.0763974], [-7.1553184, 38.0764055], [-7.1565654, 38.0764195], [-7.1568356, 38.0764179], [-7.1569736, 38.0764097], [-7.1570786, 38.076396], [-7.1571816, 38.0763751], [-7.1572534, 38.0763501], [-7.1573412, 38.0763119], [-7.1574419, 38.0762495], [-7.1575193, 38.0761842], [-7.1576356, 38.0760658], [-7.1578648, 38.0758098], [-7.1581741, 38.0754365], [-7.1582535, 38.0753484], [-7.1583327, 38.0752777], [-7.1584486, 38.0751885], [-7.1585353, 38.0751369], [-7.1586424, 38.0750828], [-7.1587664, 38.0750339], [-7.1589316, 38.0749867], [-7.1595538, 38.074849], [-7.1596681, 38.0748325], [-7.1597858, 38.0748247], [-7.1598835, 38.0748263], [-7.1599902, 38.074836], [-7.1602707, 38.0748983], [-7.160669, 38.0749969], [-7.1613567, 38.0751689], [-7.1620727, 38.075348], [-7.1623971, 38.0754257], [-7.1625955, 38.0754785], [-7.1627354, 38.0755314], [-7.1628407, 38.0755908], [-7.1629302, 38.075644], [-7.1630902, 38.0757676], [-7.1632173, 38.075862], [-7.1636361, 38.076173], [-7.1651466, 38.0773494], [-7.1683437, 38.0797828], [-7.1698667, 38.0809497], [-7.1699697, 38.0810305], [-7.1700523, 38.0810917], [-7.1701958, 38.081183], [-7.1703056, 38.0812431], [-7.1703936, 38.0812788], [-7.1705324, 38.0813154], [-7.1707991, 38.0813628], [-7.171115, 38.0814138], [-7.171772, 38.0815109], [-7.1742358, 38.0819094], [-7.1745756, 38.0819612], [-7.1747454, 38.0819868], [-7.174837, 38.0820077], [-7.1749088, 38.0820313], [-7.1750098, 38.0820697], [-7.1750841, 38.0821079], [-7.1752036, 38.0821783], [-7.1776352, 38.083712], [-7.180026, 38.0852194], [-7.1822137, 38.086597], [-7.182688, 38.0868933], [-7.182769, 38.0869439], [-7.1840558, 38.0877311], [-7.184295, 38.0878798], [-7.1844656, 38.0879767], [-7.1846009, 38.088041], [-7.1847191, 38.0880918], [-7.1848684, 38.0881467], [-7.1850447, 38.0882033], [-7.1854178, 38.0883265], [-7.1856886, 38.0884143], [-7.185814, 38.0884529], [-7.1859164, 38.0884778], [-7.1860465, 38.0885032], [-7.1861502, 38.0885108], [-7.1862817, 38.0885071], [-7.1863956, 38.0884859], [-7.1864896, 38.0884503], [-7.186583, 38.0884004], [-7.1870546, 38.0881012], [-7.1871533, 38.0880576], [-7.1872386, 38.0880381], [-7.1873136, 38.0880279], [-7.1873891, 38.0880254], [-7.1874888, 38.0880307], [-7.1877672, 38.0880948], [-7.1886681, 38.0883121], [-7.1901692, 38.0886628], [-7.1909549, 38.0888464], [-7.1915722, 38.0889988], [-7.1918897, 38.0890727], [-7.1920178, 38.089104], [-7.1921158, 38.0891278], [-7.1921984, 38.0891505], [-7.1922789, 38.0891774], [-7.1923644, 38.0892096], [-7.1924389, 38.0892432], [-7.1925276, 38.0892917], [-7.1942462, 38.0903265], [-7.1945006, 38.0904739], [-7.1945677, 38.090515], [-7.1950103, 38.090786], [-7.1953311, 38.0909902], [-7.195432, 38.0910586], [-7.1954826, 38.0910987], [-7.1955145, 38.0911305], [-7.1955446, 38.0911653], [-7.195579, 38.0912057], [-7.1956108, 38.0912537], [-7.1956884, 38.091371], [-7.1957627, 38.0914862], [-7.1958113, 38.0915431], [-7.1958578, 38.0915888], [-7.1959073, 38.0916232], [-7.195957, 38.0916505], [-7.1960612, 38.0916971], [-7.1961525, 38.0917253], [-7.1962579, 38.0917471], [-7.1963361, 38.0917584], [-7.1964502, 38.0917668], [-7.1965963, 38.0917699], [-7.1967512, 38.0917658], [-7.1971003, 38.0917524], [-7.1974935, 38.0917408], [-7.1978658, 38.091737], [-7.1982419, 38.0917463], [-7.1983527, 38.091757], [-7.1984325, 38.0917724], [-7.1984983, 38.0917917], [-7.1986257, 38.0918372], [-7.1987094, 38.0918745], [-7.1988184, 38.0919409], [-7.1989437, 38.0920252], [-7.200084, 38.0928414], [-7.2008346, 38.093404], [-7.2009396, 38.093487], [-7.2010237, 38.093563], [-7.2010725, 38.0936118], [-7.201127, 38.0936744], [-7.2013972, 38.0940362], [-7.2015186, 38.094193], [-7.2015799, 38.0942634], [-7.2016168, 38.0943013], [-7.2016564, 38.0943386], [-7.2017076, 38.0943888], [-7.201764, 38.0944363], [-7.2018516, 38.0945091], [-7.201919, 38.0945606], [-7.2019823, 38.0946048], [-7.2020497, 38.0946511], [-7.202103, 38.0946804], [-7.2021653, 38.0947083], [-7.2022326, 38.0947272], [-7.2022818, 38.0947377], [-7.2023492, 38.0947441], [-7.2024561, 38.0947471], [-7.202589, 38.0947334], [-7.2027454, 38.0947117], [-7.2034889, 38.0946076], [-7.2035708, 38.0946038], [-7.2036356, 38.0946065], [-7.2036871, 38.0946118], [-7.2037528, 38.0946229], [-7.2038037, 38.0946374], [-7.2038591, 38.0946585]]}, "properties": {"highway": "primary", "ref": "EN 258"}}, {"type": "Feature", "geometry": {"type": "LineString", "coordinates": [[-7.3739894, 38.1379857], [-7.3746243, 38.1380057]]}, "properties": {"bridge": "yes", "highway": "primary", "layer": "1", "ref": "EN 258"}}, {"type": "Feature", "geometry": {"type": "LineString", "coordinates": [[-7.1026623, 38.0893319], [-7.1027309, 38.0893395], [-7.1027871, 38.0893359], [-7.102881, 38.0893261], [-7.1029799, 38.0893026], [-7.1031066, 38.0892587], [-7.1034213, 38.0891317], [-7.1037293, 38.0890133], [-7.1040388, 38.0889044], [-7.1043717, 38.0887988], [-7.1074678, 38.0877822], [-7.1077005, 38.0877139], [-7.1078081, 38.0876893], [-7.1079274, 38.0876712], [-7.1080672, 38.0876525], [-7.1082257, 38.0876351], [-7.108575, 38.0876018], [-7.1088988, 38.0875737], [-7.1090607, 38.0875549], [-7.1091881, 38.0875337], [-7.1092807, 38.0875152], [-7.1093884, 38.0874838], [-7.1095201, 38.0874365], [-7.1097442, 38.0873511], [-7.1098554, 38.0873063], [-7.1099891, 38.0872648], [-7.1100877, 38.0872451], [-7.1101696, 38.0872324], [-7.1102786, 38.0872158], [-7.1103962, 38.0872075], [-7.1105425, 38.0872101], [-7.1106715, 38.0871972], [-7.1107523, 38.087181], [-7.1108173, 38.087152], [-7.110862, 38.0871228], [-7.1108976, 38.0870972], [-7.1109342, 38.0870696], [-7.1109585, 38.0870348], [-7.1109771, 38.0869903], [-7.1110113, 38.0869089], [-7.1110314, 38.0868068], [-7.1110517, 38.086694], [-7.1110834, 38.0866017], [-7.111117, 38.0865305], [-7.1111569, 38.0864703], [-7.1112208, 38.0863813], [-7.1113199, 38.0862525], [-7.1114079, 38.0861646], [-7.1114767, 38.0861113], [-7.1115299, 38.0860809], [-7.1116036, 38.0860438], [-7.1116937, 38.0860138], [-7.1119589, 38.0859434], [-7.1121297, 38.0859005], [-7.1122203, 38.085873], [-7.1122905, 38.0858413], [-7.1123385, 38.085814], [-7.1124277, 38.0857632], [-7.1124939, 38.0857095], [-7.1125637, 38.0856309], [-7.1127909, 38.0853206], [-7.1128312, 38.085257], [-7.1128749, 38.0851753], [-7.1129281, 38.0850313], [-7.11295, 38.0849123], [-7.1129606, 38.0847631], [-7.1129679, 38.0846058], [-7.1129878, 38.0844716], [-7.1130253, 38.0843925], [-7.1130602, 38.0843323], [-7.1131192, 38.084271], [-7.1131858, 38.0842285], [-7.1132766, 38.0841849], [-7.1133835, 38.0841437], [-7.1141596, 38.0839491], [-7.114262, 38.0839271], [-7.1143845, 38.0839063], [-7.1144683, 38.0839007], [-7.1145448, 38.0839054], [-7.1146297, 38.0839182], [-7.1146923, 38.0839334], [-7.1159754, 38.0843353], [-7.1164674, 38.0844895], [-7.1167358, 38.0845699], [-7.1168855, 38.0846014], [-7.1170023, 38.0846166], [-7.1171218, 38.0846191], [-7.1172185, 38.084609], [-7.1173311, 38.0845885], [-7.1175194, 38.0845436], [-7.1179303, 38.0844491], [-7.1180908, 38.0844101], [-7.118195, 38.0843781], [-7.1182618, 38.0843497], [-7.11832, 38.0843223], [-7.118392, 38.084283], [-7.118447, 38.0842444], [-7.1185029, 38.0842005], [-7.1185435, 38.0841613], [-7.118649, 38.0840343], [-7.1187706, 38.0838852], [-7.1188021, 38.0838521], [-7.1188442, 38.0838195], [-7.1189026, 38.0837857], [-7.1189419, 38.0837672], [-7.1189847, 38.0837521], [-7.1190402, 38.0837365], [-7.1190839, 38.0837282], [-7.1191723, 38.0837235], [-7.1192479, 38.0837268], [-7.1193261, 38.0837382], [-7.1193786, 38.0837528], [-7.1194203, 38.0837652], [-7.1208842, 38.0843105], [-7.1229588, 38.0850674], [-7.1231169, 38.0851219], [-7.1232067, 38.0851475], [-7.1233281, 38.0851694], [-7.123501, 38.0851905], [-7.1238601, 38.0852117], [-7.1240269, 38.0852111], [-7.1241419, 38.085204], [-7.1242273, 38.085195], [-7.1243285, 38.0851827], [-7.1244214, 38.0851667], [-7.1245742, 38.0851324], [-7.1251822, 38.0849799], [-7.1254243, 38.0849246], [-7.1271055, 38.0845515], [-7.1275307, 38.0844557], [-7.1276773, 38.0844327], [-7.1277846, 38.0844256], [-7.1278663, 38.0844289], [-7.1279621, 38.0844421], [-7.1282617, 38.0845063], [-7.1284212, 38.0845386], [-7.1285163, 38.0845502], [-7.1286335, 38.0845585], [-7.1288805, 38.0845492], [-7.1291048, 38.0845334], [-7.1292554, 38.0845108], [-7.1293493, 38.08449], [-7.1294701, 38.0844468], [-7.1295392, 38.084415], [-7.1295889, 38.0843858], [-7.1296405, 38.0843432], [-7.1297524, 38.0842527], [-7.1299825, 38.084069], [-7.1300541, 38.0840164], [-7.1301258, 38.0839808], [-7.1301786, 38.083963], [-7.1302624, 38.0839499], [-7.1303436, 38.0839458], [-7.1304253, 38.0839451], [-7.1305286, 38.0839591], [-7.1306663, 38.0839902], [-7.1307747, 38.0840301], [-7.1308765, 38.0840868], [-7.1309604, 38.084138], [-7.131053, 38.084206], [-7.1314359, 38.084561], [-7.1315354, 38.0846472], [-7.1316348, 38.084722], [-7.1317056, 38.084767], [-7.1317949, 38.0848137], [-7.1318899, 38.0848574], [-7.1319957, 38.0848952], [-7.1321101, 38.0849278], [-7.1322986, 38.084959], [-7.132592, 38.0850051], [-7.1327281, 38.085034], [-7.1328146, 38.0850549], [-7.132908, 38.085086], [-7.1329923, 38.0851209], [-7.1330682, 38.0851627], [-7.1331593, 38.0852273], [-7.1332569, 38.0853074], [-7.1337897, 38.0857975], [-7.1339544, 38.0859482], [-7.1341034, 38.086079], [-7.134179, 38.0861344], [-7.1342398, 38.0861719], [-7.1342947, 38.0862006], [-7.1343396, 38.0862178], [-7.134392, 38.086238], [-7.1344607, 38.0862591], [-7.1345252, 38.0862711], [-7.1345804, 38.086279], [-7.1346441, 38.0862869], [-7.1347104, 38.0862902], [-7.1347842, 38.0862914], [-7.1350176, 38.086284], [-7.1352756, 38.0862674], [-7.1361038, 38.086183], [-7.1363989, 38.0861516], [-7.1373289, 38.0860526], [-7.1376276, 38.0859942], [-7.1377746, 38.0859497], [-7.1378653, 38.0859101], [-7.1379599, 38.0858565], [-7.1380698, 38.0857666], [-7.138168, 38.0856719], [-7.1384698, 38.0853152], [-7.1386799, 38.085067], [-7.1387627, 38.0849857], [-7.1388306, 38.0849331], [-7.1389121, 38.084886], [-7.1390224, 38.0848379], [-7.1391584, 38.0847926], [-7.1392796, 38.0847641], [-7.1394375, 38.0847466], [-7.1396065, 38.084752], [-7.1397237, 38.0847665], [-7.1398662, 38.0848026], [-7.1400407, 38.0848566], [-7.1402548, 38.0849303], [-7.1403727, 38.0849656], [-7.1404593, 38.0849812], [-7.1405786, 38.0849868], [-7.1406924, 38.0849778], [-7.1407761, 38.0849596], [-7.1408774, 38.0849219], [-7.1412421, 38.0847244], [-7.1418076, 38.0844293], [-7.1418917, 38.084376], [-7.141951, 38.0843348], [-7.1422494, 38.0841173], [-7.1430764, 38.0834826], [-7.1433922, 38.0832662], [-7.143479, 38.0832037], [-7.1435751, 38.083138], [-7.1437226, 38.0830525], [-7.1438126, 38.0830075], [-7.1438964, 38.0829685], [-7.1440667, 38.0828987], [-7.1442351, 38.0828382], [-7.145166, 38.082524], [-7.1457511, 38.0823266], [-7.1458487, 38.082295], [-7.145963, 38.0822717], [-7.1460823, 38.0822647], [-7.1462167, 38.0822658], [-7.1463903, 38.0822592], [-7.1465317, 38.0822456], [-7.1466756, 38.0822205], [-7.1468406, 38.0821782], [-7.1469757, 38.082131], [-7.1471364, 38.0820704], [-7.1475095, 38.0819122], [-7.1481769, 38.0816286], [-7.1482969, 38.081563], [-7.1483794, 38.0814985], [-7.1484398, 38.0814398], [-7.14849, 38.081377], [-7.1485249, 38.0813147], [-7.1485527, 38.0812646], [-7.1485722, 38.0812096], [-7.1485887, 38.0811183], [-7.1486061, 38.0809961], [-7.1486184, 38.0809343], [-7.1486449, 38.0808592], [-7.1486788, 38.0807974], [-7.1487333, 38.0807416], [-7.1487832, 38.080703], [-7.1488475, 38.0806777], [-7.1489488, 38.0806613], [-7.1490457, 38.0806635], [-7.1491356, 38.0806844], [-7.1492519, 38.0807264], [-7.1495211, 38.0808665], [-7.1497831, 38.0809965], [-7.1499001, 38.0810414], [-7.1500289, 38.0810712], [-7.150124, 38.0810814], [-7.1502294, 38.081084], [-7.1503283, 38.0810764], [-7.1504119, 38.0810556], [-7.1505012, 38.0810173], [-7.1505797, 38.0809763], [-7.1506656, 38.0809165], [-7.1508598, 38.0807715], [-7.151019, 38.0806483], [-7.1512277, 38.0804867], [-7.1515474, 38.0802527], [-7.1517191, 38.0801331], [-7.1518801, 38.0800355], [-7.1523226, 38.0797911], [-7.1528204, 38.0795141], [-7.1529518, 38.0794386], [-7.1530599, 38.0793656], [-7.1532524, 38.0792219], [-7.1535825, 38.0789805], [-7.153689, 38.0788947], [-7.1537487, 38.0788356], [-7.1537891, 38.0787839], [-7.1538136, 38.0787343], [-7.1538489, 38.0786405], [-7.1538714, 38.0785281], [-7.1540117, 38.0770368], [-7.1540269, 38.0768339]]}, "properties": {"highway": "primary", "ref": "EN 258"}}, {"type": "Feature", "geometry": {"type": "LineString", "coordinates": [[-7.1020426, 38.0891824], [-7.1023456, 38.0892662], [-7.1025169, 38.0893053], [-7.1026623, 38.0893319]]}, "properties": {"bridge": "yes", "highway": "primary", "layer": "1", "ref": "EN 258"}}, {"type": "Feature", "geometry": {"type": "LineString", "coordinates": [[-6.979402, 38.1342411], [-6.9793981, 38.1342807], [-6.9794111, 38.1343191], [-6.9794306, 38.1343439], [-6.9794652, 38.1343686], [-6.9795077, 38.1343838], [-6.9795541, 38.1343879], [-6.9795999, 38.1343806], [-6.9796406, 38.1343626], [-6.9796479, 38.1343569], [-6.9796642, 38.1343442], [-6.9796821, 38.1343222], [-6.9796956, 38.1342892], [-6.9796964, 38.1342546], [-6.9796843, 38.1342213], [-6.9796604, 38.1341921], [-6.9796269, 38.1341697], [-6.9795865, 38.1341559], [-6.9795427, 38.134152], [-6.9794975, 38.1341587], [-6.979457, 38.1341758], [-6.9794224, 38.1342048], [-6.979402, 38.1342411]]}, "properties": {"highway": "primary", "junction": "roundabout", "ref": "EN 258"}}, {"type": "Feature", "geometry": {"type": "LineString", "coordinates": [[-6.9794603, 38.1345953], [-6.979556, 38.1344736], [-6.9796406, 38.1343626]]}, "properties": {"highway": "primary", "oneway": "yes", "ref": "EN 258"}}, {"type": "Feature", "geometry": {"type": "LineString", "coordinates": [[-6.9794306, 38.1343439], [-6.9794647, 38.1344174], [-6.9794754, 38.1344955], [-6.9794603, 38.1345953]]}, "properties": {"highway": "primary", "oneway": "yes", "ref": "EN 258"}}, {"type": "Feature", "geometry": {"type": "LineString", "coordinates": [[-6.9796821, 38.1343222], [-6.979833, 38.1341399], [-6.9798903, 38.1340824], [-6.980013, 38.1339594]]}, "properties": {"highway": "primary", "oneway": "yes", "ref": "EN 258"}}, {"type": "Feature", "geometry": {"type": "LineString", "coordinates": [[-6.980013, 38.1339594], [-6.9798617, 38.1340377], [-6.9797249, 38.1341094], [-6.9795427, 38.134152]]}, "properties": {"highway": "primary", "oneway": "yes", "ref": "EN 258"}}, {"type": "Feature", "geometry": {"type": "LineString", "coordinates": [[-6.9794603, 38.1345953], [-6.9793433, 38.134739], [-6.9790425, 38.1350919], [-6.9788555, 38.1352711], [-6.9786897, 38.1354115], [-6.9784163, 38.1355957], [-6.9781362, 38.1357366], [-6.9778988, 38.1358376], [-6.9775932, 38.1359469], [-6.9772091, 38.1360467], [-6.9766187, 38.1361294], [-6.9764506, 38.1361467], [-6.9760157, 38.1361914], [-6.9754089, 38.1362803], [-6.9747755, 38.1363923], [-6.9745181, 38.1363898], [-6.9739398, 38.1363399], [-6.9737406, 38.136315], [-6.9735948, 38.1362853], [-6.9734221, 38.136204], [-6.9732769, 38.1360919], [-6.9729508, 38.1357934], [-6.9727601, 38.1356621], [-6.9713291, 38.1348372], [-6.971216, 38.134772], [-6.970893, 38.1345833], [-6.969128, 38.1335523], [-6.968909, 38.1334525], [-6.9686874, 38.1333841], [-6.9679465, 38.1332451], [-6.9675381, 38.1331534], [-6.9672724, 38.1330826], [-6.9671395, 38.1330711], [-6.9670387, 38.133077], [-6.9669272, 38.1331162], [-6.9668237, 38.1331881], [-6.9666483, 38.1334096]]}, "properties": {"highway": "primary", "ref": "EN 258"}}, {"type": "Feature", "geometry": {"type": "LineString", "coordinates": [[-7.9815256, 38.2386331], [-7.9814409, 38.238565], [-7.9805967, 38.2378844]]}, "properties": {"bridge": "yes", "highway": "primary", "layer": "1", "ref": "EN 258"}}, {"type": "Feature", "geometry": {"type": "LineString", "coordinates": [[-7.9805967, 38.2378844], [-7.9798795, 38.2373241], [-7.9798027, 38.2372798], [-7.9797294, 38.2372434], [-7.9796272, 38.2372056], [-7.9795191, 38.2371783], [-7.9794141, 38.2371717], [-7.9793254, 38.2371716], [-7.9792317, 38.2371741], [-7.979051, 38.2371979], [-7.9771797, 38.2374935], [-7.9770346, 38.2375021], [-7.9769291, 38.2375004], [-7.9768556, 38.2374938], [-7.9767558, 38.237475], [-7.9766443, 38.2374316], [-7.9765018, 38.2373699], [-7.974887, 38.2365514], [-7.9746598, 38.2364498], [-7.9744566, 38.2363669], [-7.9742321, 38.2362959], [-7.9739427, 38.236215], [-7.972176, 38.2357439], [-7.9721365, 38.2357328], [-7.9716549, 38.2355981], [-7.9710332, 38.2354242], [-7.968933, 38.2348727], [-7.9675505, 38.2345078], [-7.9673626, 38.2344587], [-7.9672075, 38.2344248], [-7.9671461, 38.234414], [-7.9670728, 38.2344031], [-7.9667755, 38.2343794], [-7.9640328, 38.2342818], [-7.9624464, 38.2342492], [-7.9623863, 38.2342498], [-7.962222, 38.2342522], [-7.9620854, 38.2342597], [-7.9620037, 38.2342802], [-7.9619337, 38.2343056], [-7.9618447, 38.2343446], [-7.9617527, 38.2344035], [-7.9616178, 38.2345109], [-7.9615545, 38.23457], [-7.9614981, 38.2346345], [-7.9614446, 38.234716], [-7.961234, 38.2350877], [-7.9609287, 38.2356652], [-7.9608217, 38.2358386], [-7.9607225, 38.2359783], [-7.9606234, 38.2361004], [-7.959558, 38.2371726], [-7.9575319, 38.2391921], [-7.9574115, 38.2393035], [-7.9573, 38.2393839], [-7.9572151, 38.2394269], [-7.9571382, 38.2394578], [-7.9570564, 38.2394899], [-7.956983, 38.2395154], [-7.9569078, 38.2395335], [-7.9558232, 38.2397352], [-7.9547474, 38.2399519], [-7.9546292, 38.2399769], [-7.9545799, 38.2399919], [-7.9545313, 38.240012], [-7.9544698, 38.2400421], [-7.9543733, 38.240096], [-7.9535419, 38.2405944], [-7.952146, 38.2414431], [-7.9520925, 38.2414769], [-7.9520498, 38.2414984], [-7.952002, 38.2415158], [-7.9519425, 38.2415291], [-7.9515269, 38.2415949], [-7.9514851, 38.2416038], [-7.9514407, 38.2416198], [-7.9513898, 38.2416423], [-7.9512633, 38.2417363], [-7.950887, 38.2420196], [-7.9506485, 38.2422068], [-7.950379, 38.2423716], [-7.9473543, 38.2442211], [-7.9472712, 38.244275], [-7.9472063, 38.2443098], [-7.9471491, 38.2443285], [-7.9470954, 38.2443432], [-7.9470033, 38.2443647], [-7.9467639, 38.2444006], [-7.9455012, 38.2445697], [-7.945098, 38.2446254], [-7.944527, 38.2447077], [-7.9439709, 38.244781], [-7.9438599, 38.24479], [-7.9438096, 38.2447879], [-7.9437566, 38.2447853], [-7.9436843, 38.2447776], [-7.9436357, 38.2447715], [-7.9435815, 38.2447619], [-7.9434653, 38.2447275], [-7.943246, 38.2446492], [-7.9427771, 38.2444809], [-7.9426457, 38.2444451], [-7.9425477, 38.24442], [-7.9424222, 38.2444026], [-7.9423525, 38.2443935], [-7.9422714, 38.2443866], [-7.9420899, 38.2443823], [-7.9418639, 38.2443975], [-7.9392624, 38.2446752], [-7.9391558, 38.2446909], [-7.9391166, 38.2446982], [-7.9390715, 38.2447085], [-7.939021, 38.244729], [-7.9389705, 38.2447572], [-7.9389441, 38.2447813], [-7.938914, 38.2448112], [-7.9388954, 38.2448343], [-7.9388791, 38.2448612], [-7.9388632, 38.2448938], [-7.9388491, 38.2449311], [-7.9388396, 38.244962], [-7.9388305, 38.2450023], [-7.9387598, 38.2455888], [-7.9387409, 38.2456917], [-7.9387258, 38.2457486], [-7.9387044, 38.2457946], [-7.9386667, 38.2458373], [-7.9386316, 38.2458694], [-7.9385813, 38.2459084], [-7.9385289, 38.2459395], [-7.9384771, 38.2459688], [-7.9384141, 38.2459998], [-7.9383413, 38.2460284], [-7.9382597, 38.2460549], [-7.938198, 38.2460652], [-7.9381252, 38.2460668], [-7.938065, 38.2460656], [-7.9379884, 38.2460531], [-7.9379167, 38.2460331], [-7.9378264, 38.2460033], [-7.9376443, 38.2459407], [-7.937599, 38.2459259]]}, "properties": {"highway": "primary", "ref": "EN 258"}}, {"type": "Feature", "geometry": {"type": "LineString", "coordinates": [[-7.01218, 38.1276922], [-7.0163369, 38.1257389], [-7.017627, 38.1251138], [-7.0177143, 38.1250684], [-7.0177813, 38.1250274], [-7.0178669, 38.1249634], [-7.0179226, 38.1249157], [-7.0179797, 38.1248571], [-7.0180975, 38.1247294], [-7.0192094, 38.1234342], [-7.0193306, 38.1233007], [-7.0193919, 38.1232364], [-7.0194574, 38.1231859], [-7.0195271, 38.1231502], [-7.0196013, 38.1231241], [-7.0197145, 38.1231015], [-7.0207145, 38.1230236], [-7.0209231, 38.1229926], [-7.0210665, 38.1229456], [-7.0211935, 38.1228742], [-7.0212831, 38.1228033], [-7.0214103, 38.1226764], [-7.0220149, 38.1217253], [-7.0221359, 38.1215839], [-7.0222301, 38.1214878], [-7.0223291, 38.1214136], [-7.0224633, 38.1213491], [-7.0225928, 38.1213166], [-7.0227565, 38.1212939], [-7.0229663, 38.1212821], [-7.0239315, 38.1212754], [-7.0246262, 38.1212686], [-7.02486, 38.1212526], [-7.025015, 38.1212292], [-7.0251962, 38.1211798], [-7.0254936, 38.1210749], [-7.0272744, 38.1204459], [-7.0275404, 38.1203589], [-7.0277036, 38.1203193], [-7.0278364, 38.1202953], [-7.0280736, 38.1202817], [-7.0291851, 38.1202404], [-7.0347368, 38.1200043], [-7.0349351, 38.1199855], [-7.0350648, 38.1199611], [-7.035176, 38.1199299], [-7.0352964, 38.1198896], [-7.035793, 38.1196701], [-7.0368502, 38.1192206], [-7.0376328, 38.1188879], [-7.0377374, 38.1188362], [-7.0378165, 38.1187872], [-7.0378864, 38.1187288], [-7.0379598, 38.1186486], [-7.0381133, 38.1184238], [-7.0392574, 38.1167413], [-7.0398247, 38.1159132], [-7.0399767, 38.1157126], [-7.0400908, 38.115598], [-7.0401648, 38.1155382], [-7.0402473, 38.1154852], [-7.0403829, 38.1154165], [-7.0405109, 38.1153622], [-7.0425944, 38.1146018], [-7.0437172, 38.1141873], [-7.0447164, 38.1138035], [-7.0463688, 38.1130224], [-7.0477122, 38.1124022], [-7.0495036, 38.1115645], [-7.0495979, 38.1115303], [-7.0496706, 38.1115094], [-7.0497269, 38.1114999], [-7.0497745, 38.1114941], [-7.0498751, 38.1114952], [-7.0499456, 38.1115019], [-7.0500234, 38.1115143], [-7.0505626, 38.1116185], [-7.0506751, 38.111632], [-7.0507634, 38.1116244], [-7.0508231, 38.1116142], [-7.0508953, 38.1115943], [-7.0509686, 38.1115604], [-7.0510522, 38.1115072], [-7.0513934, 38.1111839], [-7.0522558, 38.1103466], [-7.0525818, 38.1100381], [-7.0526775, 38.1099528], [-7.0527687, 38.1098904], [-7.0528606, 38.1098366], [-7.052954, 38.1097886], [-7.0530465, 38.1097504], [-7.0532254, 38.1096896], [-7.0546899, 38.1091591], [-7.055777, 38.1087964], [-7.0560219, 38.1087085], [-7.056099, 38.1086769], [-7.0561598, 38.1086452], [-7.0562076, 38.1086151], [-7.0562914, 38.1085536], [-7.056357, 38.1084883], [-7.056413, 38.1084181], [-7.0565847, 38.1081626], [-7.0566576, 38.1080755], [-7.056737, 38.1079982], [-7.0568335, 38.1079252], [-7.0572644, 38.1076478], [-7.0588213, 38.106696], [-7.0595644, 38.1062368], [-7.0598383, 38.1060785], [-7.0599112, 38.1060477], [-7.0599796, 38.1060226], [-7.0600317, 38.106011], [-7.0600931, 38.1060027], [-7.0601688, 38.1060008], [-7.0602377, 38.1060088], [-7.0603284, 38.1060271], [-7.0604724, 38.1060629], [-7.0610983, 38.1062132], [-7.0624101, 38.1065502], [-7.0625807, 38.106583], [-7.0627681, 38.1066033], [-7.0629293, 38.106609], [-7.0631054, 38.1066063], [-7.0634025, 38.1065851], [-7.0636753, 38.1065754], [-7.0638182, 38.1065794], [-7.0639134, 38.1065884], [-7.0639898, 38.1065998], [-7.0640899, 38.1066223], [-7.0642042, 38.106661], [-7.0648393, 38.1069445], [-7.0649336, 38.1069834], [-7.065017, 38.107012], [-7.0650814, 38.10703], [-7.065146, 38.1070431], [-7.0652428, 38.1070517], [-7.0653126, 38.1070523], [-7.065394, 38.1070497], [-7.0663038, 38.1069438], [-7.0689409, 38.106659], [-7.0692899, 38.1066217], [-7.0693659, 38.1066089], [-7.0694248, 38.1065947], [-7.0694795, 38.1065784], [-7.0695359, 38.1065592], [-7.0695925, 38.1065296], [-7.0696389, 38.1065005], [-7.0696883, 38.106462], [-7.0697371, 38.1064193], [-7.0697726, 38.10638], [-7.0698078, 38.1063315], [-7.0702337, 38.1056621], [-7.0702836, 38.1055917], [-7.0703235, 38.105541], [-7.0703468, 38.105513], [-7.070375, 38.105486], [-7.0704244, 38.1054464], [-7.070475, 38.10542], [-7.0705252, 38.1053976], [-7.0705794, 38.1053813], [-7.0706477, 38.1053657], [-7.0707982, 38.1053405], [-7.0708798, 38.1053228], [-7.0709479, 38.1053037], [-7.0710261, 38.1052696], [-7.0711016, 38.1052272], [-7.0711687, 38.1051781], [-7.0712286, 38.1051164], [-7.0712595, 38.1050754], [-7.0712892, 38.1050239], [-7.071331, 38.1049217], [-7.0714478, 38.1045331], [-7.0714873, 38.1043949], [-7.0715263, 38.1042876], [-7.0715522, 38.1042344], [-7.0715837, 38.1041967], [-7.0716286, 38.1041554], [-7.0716823, 38.1041195], [-7.0717795, 38.1040822], [-7.0719195, 38.1040478], [-7.0720286, 38.1040163], [-7.0720872, 38.1039874], [-7.0721302, 38.1039555], [-7.0721662, 38.1039197], [-7.0722045, 38.1038755], [-7.0722307, 38.10383], [-7.0722638, 38.1037538], [-7.0727154, 38.1022431], [-7.0727499, 38.1021764], [-7.0727744, 38.1021336], [-7.0728055, 38.1020962], [-7.0728634, 38.1020396], [-7.0729228, 38.1019924], [-7.0730114, 38.1019403], [-7.0732149, 38.1018498], [-7.0732656, 38.1018273], [-7.0733188, 38.1017955], [-7.07337, 38.1017546], [-7.0734171, 38.1017077], [-7.0734624, 38.1016362], [-7.0734939, 38.1015725], [-7.0735265, 38.101486], [-7.0735573, 38.1014278], [-7.0735971, 38.1013784], [-7.0736541, 38.101325], [-7.0737056, 38.1012906], [-7.0737639, 38.1012616], [-7.0738463, 38.1012369], [-7.0740215, 38.1012222], [-7.0740891, 38.1012228], [-7.074235, 38.1012242], [-7.0743942, 38.1012242], [-7.0745235, 38.1012142], [-7.0746108, 38.1011952], [-7.0746672, 38.1011783], [-7.0747235, 38.1011531], [-7.0747837, 38.1011228], [-7.0748284, 38.1010896], [-7.0748813, 38.1010437], [-7.0749286, 38.1009923], [-7.0749772, 38.1009228], [-7.0750174, 38.1008316], [-7.0750727, 38.1006789], [-7.0751115, 38.1006025], [-7.0751529, 38.1005438], [-7.0751909, 38.1005011], [-7.0752438, 38.1004655], [-7.0753043, 38.1004308], [-7.075354, 38.1004084], [-7.0754072, 38.1003906], [-7.0754855, 38.1003733], [-7.0755588, 38.1003686], [-7.0756472, 38.1003734], [-7.0757321, 38.1003876], [-7.0758455, 38.100421], [-7.0788287, 38.1014053], [-7.0789575, 38.1014455], [-7.0790253, 38.1014649], [-7.0791138, 38.1014802], [-7.0792055, 38.10148], [-7.0792771, 38.1014699], [-7.0793454, 38.1014543], [-7.0794281, 38.101431], [-7.0795437, 38.1013916], [-7.0796481, 38.1013521], [-7.079801, 38.1012882], [-7.0798879, 38.1012467], [-7.0799446, 38.1012136], [-7.079991, 38.1011817], [-7.0800332, 38.1011404], [-7.0800739, 38.101095], [-7.0801252, 38.1010132], [-7.0805162, 38.0999482], [-7.0813529, 38.0977201], [-7.0814235, 38.0975377], [-7.0814553, 38.09746], [-7.0814885, 38.0974011], [-7.0815269, 38.0973301], [-7.0815824, 38.0972607], [-7.0816395, 38.0971967], [-7.0817158, 38.0971299], [-7.0817909, 38.0970824], [-7.0818886, 38.0970281], [-7.0821373, 38.0968985], [-7.0825899, 38.0966612], [-7.0836909, 38.0960831], [-7.0850821, 38.0953586], [-7.0868598, 38.0944304], [-7.0885213, 38.0935707], [-7.0907619, 38.0924052], [-7.0915674, 38.0919887], [-7.0919361, 38.0917903], [-7.0921881, 38.0916607], [-7.0922737, 38.0916251], [-7.0923443, 38.0915991], [-7.0924668, 38.0915677], [-7.0925708, 38.0915552], [-7.0927312, 38.0915472], [-7.0932172, 38.0915757], [-7.0937912, 38.0916134], [-7.0964712, 38.0918035], [-7.0970677, 38.0918437], [-7.0972009, 38.0918462], [-7.0973092, 38.0918396], [-7.097366, 38.0918255], [-7.0974075, 38.0918102], [-7.0974868, 38.0917746], [-7.0975373, 38.0917456], [-7.0975933, 38.0917016], [-7.0976423, 38.0916598], [-7.0977078, 38.0915829], [-7.0981031, 38.091044], [-7.0983388, 38.0907816], [-7.0985156, 38.0905696], [-7.098592, 38.090449], [-7.0986571, 38.0903175], [-7.0987466, 38.0901029], [-7.0987765, 38.0900323], [-7.0988184, 38.0899574], [-7.0988793, 38.0898718], [-7.0989163, 38.0898372], [-7.0989584, 38.089808], [-7.0990321, 38.0897643], [-7.0991364, 38.0897302], [-7.0992184, 38.0897121], [-7.0993239, 38.0897052], [-7.1000187, 38.0896734], [-7.1001613, 38.089658], [-7.1003222, 38.089633], [-7.1004776, 38.0895954], [-7.1010066, 38.0894696], [-7.1011316, 38.0894344], [-7.1012274, 38.0893976], [-7.1013522, 38.0893438], [-7.1016142, 38.0892082], [-7.1016763, 38.0891836], [-7.1017259, 38.0891679], [-7.1018007, 38.0891575], [-7.1019013, 38.0891587], [-7.101976, 38.0891688], [-7.1020426, 38.0891824]]}, "properties": {"highway": "primary", "ref": "EN 258"}}, {"type": "Feature", "geometry": {"type": "LineString", "coordinates": [[-7.4420988, 38.1373535], [-7.4435124, 38.1373158], [-7.4445684, 38.1372903], [-7.4447229, 38.1372866], [-7.4465706, 38.137242], [-7.4467674, 38.1372373]]}, "properties": {"highway": "primary", "name": "Avenida 1\u00ba de Maio", "postal_code": "7860-001", "ref": "EN 258", "surface": "asphalt"}}, {"type": "Feature", "geometry": {"type": "LineString", "coordinates": [[-7.4477269, 38.1371969], [-7.4480791, 38.1371544], [-7.448468, 38.137061], [-7.4494171, 38.1368518], [-7.450223, 38.1366907]]}, "properties": {"highway": "primary", "name": "Rua das For\u00e7as Armadas", "postal_code": "7860-034", "ref": "EN 258", "surface": "asphalt"}}, {"type": "Feature", "geometry": {"type": "LineString", "coordinates": [[-6.9856646, 38.1322985], [-6.9857701, 38.1321993]]}, "properties": {"bridge": "yes", "highway": "primary", "layer": "1", "ref": "EN 258"}}, {"type": "Feature", "geometry": {"type": "LineString", "coordinates": [[-6.995378, 38.1289495], [-6.9954209, 38.1289257], [-6.9954957, 38.1289011], [-6.9955867, 38.1288883], [-6.9956752, 38.1288878], [-6.9957512, 38.1288983], [-6.9958551, 38.1289272], [-6.9959328, 38.1289656], [-6.9960223, 38.1290135], [-6.9963735, 38.1292039], [-6.9964817, 38.1292547], [-6.996568, 38.1292918], [-6.9971298, 38.1295138], [-6.9973498, 38.129598], [-6.9975161, 38.1296506], [-6.9976075, 38.1296704], [-6.9976993, 38.129678], [-6.9977724, 38.1296747], [-6.9978443, 38.1296633], [-6.9979206, 38.1296365], [-6.9979815, 38.1296014], [-6.9980366, 38.1295549], [-6.9980887, 38.1294948], [-6.9981203, 38.1294293], [-6.998135, 38.1293608], [-6.9981379, 38.1292842], [-6.9981237, 38.1292087], [-6.9980834, 38.1290631], [-6.9980542, 38.1289686], [-6.9980368, 38.1288837], [-6.998034, 38.128801], [-6.9980392, 38.1287291], [-6.998061, 38.1286412], [-6.9980855, 38.1285977], [-6.9981229, 38.1285566], [-6.9981753, 38.1285193], [-6.9982426, 38.1284883], [-6.9983275, 38.128475], [-6.998424, 38.1284805], [-6.9985076, 38.1284969], [-6.9985752, 38.1285298], [-6.9986409, 38.1285789], [-6.9986878, 38.1286305], [-6.9987486, 38.1287476], [-6.9990788, 38.1293797], [-6.9991508, 38.1295158], [-6.9992024, 38.1295903], [-6.9992544, 38.1296446], [-6.9993084, 38.1296847], [-6.9993859, 38.1297279], [-6.9994709, 38.1297543], [-6.9995438, 38.1297577], [-6.9996212, 38.1297538], [-6.9997008, 38.1297323], [-6.9997728, 38.129698], [-6.9998226, 38.1296615], [-6.9998677, 38.1296196], [-6.9999145, 38.1295649], [-6.9999721, 38.1294767], [-7.0000874, 38.1292855], [-7.0003305, 38.1288899], [-7.0003997, 38.1288003], [-7.0004629, 38.1287276], [-7.0005763, 38.1286054], [-7.0008478, 38.1283225], [-7.0008939, 38.1282731], [-7.0009364, 38.1282245], [-7.0009868, 38.1281564], [-7.0010418, 38.1280688], [-7.0010959, 38.1280019], [-7.001138, 38.1279594], [-7.0011767, 38.1279309], [-7.0012254, 38.127905], [-7.0012693, 38.1278874], [-7.0013231, 38.1278772], [-7.0013972, 38.1278726], [-7.001669, 38.1278937], [-7.0017365, 38.1279], [-7.0017995, 38.1278992], [-7.0018771, 38.1278887], [-7.0019917, 38.1278701], [-7.0020932, 38.1278469], [-7.0021993, 38.127813], [-7.0022768, 38.127801], [-7.0023357, 38.1277982], [-7.0023969, 38.1278028], [-7.0024609, 38.1278178], [-7.0025664, 38.1278528], [-7.0026772, 38.1279091], [-7.0029221, 38.1280822], [-7.0029755, 38.1281123], [-7.0030472, 38.1281399], [-7.0031324, 38.1281578], [-7.0033924, 38.1281569], [-7.0035181, 38.1281565], [-7.0037976, 38.1281491], [-7.0040555, 38.1281728], [-7.0042482, 38.1282066], [-7.0043349, 38.1282209], [-7.0044355, 38.1282314], [-7.0045101, 38.1282266], [-7.0045801, 38.1282165], [-7.0046484, 38.1281926], [-7.0047225, 38.1281493], [-7.0047793, 38.1281095], [-7.0048401, 38.128052], [-7.0054989, 38.1273724], [-7.0055764, 38.1273115], [-7.0056297, 38.1272811], [-7.0057015, 38.1272502], [-7.0057768, 38.1272341], [-7.0058825, 38.1272284], [-7.0059614, 38.1272351], [-7.0062735, 38.1272947], [-7.0063751, 38.127303], [-7.0064892, 38.1273028], [-7.0065932, 38.1272935], [-7.0072185, 38.1271978], [-7.0073097, 38.1272004], [-7.0073828, 38.1272091], [-7.0074714, 38.127226], [-7.0078593, 38.1273219], [-7.0079936, 38.1273428], [-7.0081477, 38.1273558], [-7.0093401, 38.1273637], [-7.0095616, 38.1273744], [-7.0096843, 38.1273923], [-7.0098327, 38.1274227], [-7.0111573, 38.1278642], [-7.0112644, 38.1278959], [-7.0113503, 38.1279167], [-7.0114239, 38.1279297], [-7.0115016, 38.127932], [-7.0115618, 38.1279297], [-7.0116602, 38.1279191]]}, "properties": {"highway": "primary", "ref": "EN 258"}}, {"type": "Feature", "geometry": {"type": "LineString", "coordinates": [[-7.4239587, 38.1347006], [-7.4240806, 38.1346825], [-7.4241857, 38.1346736], [-7.4242952, 38.1346744], [-7.4244602, 38.1346926], [-7.4245878, 38.1347111], [-7.4246762, 38.1347224], [-7.4247397, 38.134725], [-7.4248328, 38.1347287], [-7.4249248, 38.1347226], [-7.425047, 38.1347076], [-7.4264243, 38.134437], [-7.427823, 38.1341548], [-7.4282412, 38.1340808], [-7.4283879, 38.1340602], [-7.428485, 38.1340513], [-7.4286079, 38.1340466], [-7.4287558, 38.1340529], [-7.4288892, 38.1340677], [-7.4289649, 38.1340838], [-7.4290294, 38.1341057], [-7.4291044, 38.1341422], [-7.4291666, 38.1341832], [-7.4292375, 38.1342441], [-7.4293394, 38.1343415], [-7.4301717, 38.1351841], [-7.4302428, 38.1352434], [-7.4303105, 38.1352889], [-7.43039, 38.1353404], [-7.4305018, 38.1354016], [-7.4306024, 38.1354485], [-7.432001, 38.1359869], [-7.4321067, 38.1360196], [-7.4321989, 38.1360402], [-7.4323061, 38.1360475], [-7.4324154, 38.1360391], [-7.432513, 38.1360269], [-7.4326052, 38.1359969], [-7.4340067, 38.1355966], [-7.4341729, 38.1355676], [-7.4342649, 38.1355515], [-7.4343769, 38.1355422], [-7.434491, 38.1355421], [-7.4346119, 38.1355568], [-7.4358149, 38.1357785], [-7.4360086, 38.1358189], [-7.4361526, 38.135857], [-7.4363031, 38.135901], [-7.4372211, 38.1362233], [-7.4373697, 38.1362591], [-7.4375004, 38.1362778], [-7.4376425, 38.1362938], [-7.4395642, 38.1365291], [-7.439705, 38.1365529], [-7.4398158, 38.1365798], [-7.4399183, 38.1366146], [-7.441239, 38.1372328], [-7.4413855, 38.1372873], [-7.441501, 38.1373229], [-7.4416234, 38.1373479], [-7.4417416, 38.1373599], [-7.4418673, 38.1373569], [-7.4420988, 38.1373535]]}, "properties": {"highway": "primary", "ref": "EN 258"}}, {"type": "Feature", "geometry": {"type": "LineString", "coordinates": [[-7.4236204, 38.1347927], [-7.4239587, 38.1347006]]}, "properties": {"bridge": "yes", "highway": "primary", "layer": "1", "ref": "EN 258"}}, {"type": "Feature", "geometry": {"type": "LineString", "coordinates": [[-7.9903789, 38.2534451], [-7.9903964, 38.2535075], [-7.9903995, 38.2536128], [-7.9903326, 38.2540161], [-7.9903337, 38.2541023], [-7.9903463, 38.2541749], [-7.9903666, 38.2542374], [-7.9904648, 38.2544705], [-7.9905315, 38.2545982]]}, "properties": {"highway": "primary", "maxspeed": "50", "ref": "EN 258"}}, {"type": "Feature", "geometry": {"type": "LineString", "coordinates": [[-6.9666483, 38.1334096], [-6.9665422, 38.1335384], [-6.9664503, 38.1336048], [-6.9663585, 38.1336586], [-6.9662264, 38.1337069], [-6.9661312, 38.1337207], [-6.9660361, 38.1337187], [-6.9658954, 38.1336856], [-6.9653114, 38.1334344], [-6.9649589, 38.1332955], [-6.9647321, 38.1332148], [-6.9644737, 38.1331515], [-6.9643228, 38.1331101], [-6.9642214, 38.133058], [-6.9641347, 38.1329916], [-6.9640951, 38.132952]]}, "properties": {"highway": "primary", "ref": "EN 258"}}, {"type": "Feature", "geometry": {"type": "LineString", "coordinates": [[-7.2344567, 38.1116533], [-7.2348643, 38.111744], [-7.2349514, 38.1117634]]}, "properties": {"highway": "primary", "ref": "EN 258"}}, {"type": "Feature", "geometry": {"type": "LineString", "coordinates": [[-7.235364, 38.111844], [-7.246007, 38.1140853], [-7.2590793, 38.1168256], [-7.2671915, 38.1184994], [-7.2683254, 38.1187332], [-7.2779671, 38.1207204], [-7.2808068, 38.1212921], [-7.2895978, 38.1230456], [-7.2905232, 38.1232251], [-7.2927709, 38.1236851], [-7.2945047, 38.1240207], [-7.2961522, 38.124356], [-7.2974701, 38.1246197], [-7.2992031, 38.1249637], [-7.3006753, 38.1252674], [-7.3017267, 38.1254888], [-7.3058751, 38.1263168], [-7.3092808, 38.1270156], [-7.3113245, 38.1274292], [-7.3115072, 38.1274652], [-7.3117384, 38.1275145], [-7.3143573, 38.1280642], [-7.3154801, 38.1282936], [-7.3205388, 38.1293223], [-7.3230527, 38.1298404], [-7.323789, 38.1299922], [-7.3295908, 38.1311882], [-7.3310236, 38.1314779], [-7.3397308, 38.1332657], [-7.342548, 38.1338442], [-7.3439607, 38.134133], [-7.3463016, 38.134616], [-7.348276, 38.1350167], [-7.3504268, 38.1354579], [-7.3520578, 38.1357936], [-7.3544917, 38.1362954], [-7.356166, 38.1366325], [-7.3580174, 38.1370142], [-7.3601602, 38.1374561], [-7.3613223, 38.1376985], [-7.3614447, 38.1377321], [-7.3615329, 38.137761], [-7.3615939, 38.1377856], [-7.3616671, 38.1378225], [-7.3627359, 38.1384801], [-7.3628919, 38.1385705], [-7.3630205, 38.1386409], [-7.36309, 38.138673], [-7.3631409, 38.1386915], [-7.3631832, 38.1387039], [-7.3632436, 38.1387204], [-7.3633014, 38.1387315], [-7.3633701, 38.138738], [-7.3634392, 38.1387405], [-7.363498, 38.1387395], [-7.3635729, 38.1387323], [-7.3636566, 38.1387177], [-7.3637368, 38.1387007], [-7.3638691, 38.138664], [-7.3649764, 38.1383267], [-7.3667568, 38.1377809], [-7.3669382, 38.1377264], [-7.3672064, 38.1376488], [-7.3673208, 38.1376166], [-7.3674222, 38.1375919], [-7.3678338, 38.1375217], [-7.3688747, 38.137363], [-7.3694888, 38.1372669], [-7.3698844, 38.1372116], [-7.3700515, 38.1371945], [-7.3702721, 38.1371906], [-7.3704218, 38.1372013], [-7.3705017, 38.1372123], [-7.3705696, 38.1372316], [-7.3706285, 38.1372556], [-7.3706738, 38.1372833], [-7.3707068, 38.1373064], [-7.3707434, 38.1373378], [-7.3707834, 38.1373849], [-7.3708104, 38.137416], [-7.3708359, 38.1374608], [-7.3710082, 38.1378993], [-7.3710237, 38.1379406], [-7.3710421, 38.137973], [-7.3710689, 38.1380149], [-7.3710941, 38.1380439], [-7.3711346, 38.1380825], [-7.3711854, 38.1381152], [-7.3712389, 38.1381394], [-7.3712973, 38.1381576], [-7.3713594, 38.1381687], [-7.3714434, 38.138174], [-7.371539, 38.1381719], [-7.3716379, 38.1381625], [-7.3717911, 38.138137], [-7.3718913, 38.138111], [-7.3720208, 38.1380683], [-7.3725573, 38.137868], [-7.3726681, 38.1378356], [-7.3727415, 38.1378172], [-7.3727996, 38.1378035], [-7.3728594, 38.1377941], [-7.3729428, 38.1377869], [-7.3730313, 38.1377848], [-7.3731128, 38.1377919], [-7.3731904, 38.1378033], [-7.3732456, 38.1378165], [-7.3733043, 38.1378379], [-7.3734803, 38.1379059], [-7.373556, 38.1379328], [-7.3736044, 38.1379492], [-7.373654, 38.1379609], [-7.3737318, 38.1379723], [-7.373822, 38.1379809], [-7.3739894, 38.1379857]]}, "properties": {"highway": "primary", "ref": "EN 258"}}, {"type": "Feature", "geometry": {"type": "LineString", "coordinates": [[-7.2042467, 38.0948662], [-7.2042855, 38.0948914], [-7.2043108, 38.0949131], [-7.2043383, 38.0949426], [-7.2043711, 38.0949882], [-7.2043936, 38.0950274], [-7.2044093, 38.0950618], [-7.2044158, 38.0951094], [-7.2044421, 38.0954911], [-7.2044468, 38.095557], [-7.2044543, 38.0956035], [-7.2044641, 38.0956419], [-7.2044788, 38.0956844], [-7.2044971, 38.0957249], [-7.2045287, 38.0957803], [-7.2045805, 38.0958567], [-7.2046408, 38.0959332], [-7.204703, 38.0959901], [-7.2047988, 38.0960542], [-7.2048955, 38.096114], [-7.2053825, 38.096364], [-7.2061506, 38.0967595], [-7.2091641, 38.0983144], [-7.2101857, 38.098851], [-7.210453, 38.0989915], [-7.2132836, 38.1004783], [-7.2145065, 38.1011107], [-7.2151204, 38.1014275], [-7.2154264, 38.1015886], [-7.2155937, 38.1016841], [-7.2157258, 38.101769], [-7.2170192, 38.1026275], [-7.2171944, 38.102746], [-7.2174319, 38.1029102], [-7.2175601, 38.1030054], [-7.2176367, 38.1030714], [-7.2176897, 38.103122], [-7.2177232, 38.103164], [-7.2177584, 38.1032127], [-7.2177856, 38.1032501], [-7.2178492, 38.103382], [-7.2179156, 38.1035859], [-7.2179314, 38.1036515], [-7.2180282, 38.1039994], [-7.2182099, 38.1047207], [-7.218284, 38.1050096], [-7.2184076, 38.1054367]]}, "properties": {"highway": "primary", "ref": "EN 258"}}, {"type": "Feature", "geometry": {"type": "LineString", "coordinates": [[-7.2038591, 38.0946585], [-7.2042467, 38.0948662]]}, "properties": {"bridge": "yes", "highway": "primary", "layer": "1", "ref": "EN 258"}}, {"type": "Feature", "geometry": {"type": "LineString", "coordinates": [[-7.9901974, 38.2529791], [-7.990075, 38.2526648]]}, "properties": {"highway": "primary", "maxspeed": "50", "ref": "EN 258"}}, {"type": "Feature", "geometry": {"type": "LineString", "coordinates": [[-7.990075, 38.2526648], [-7.9898069, 38.2520758], [-7.9896833, 38.2517908], [-7.9896119, 38.2516455], [-7.989544, 38.2515109], [-7.9892482, 38.251021], [-7.98777, 38.2486024], [-7.9874598, 38.2480855], [-7.9873442, 38.2478916], [-7.9872763, 38.2477544], [-7.9872253, 38.247644], [-7.987177, 38.2475139], [-7.987017, 38.2469159], [-7.9867817, 38.2459209], [-7.9867175, 38.2457389], [-7.9866615, 38.2455869], [-7.9866242, 38.2455075], [-7.9865718, 38.2454091], [-7.9865445, 38.2453645], [-7.9864533, 38.2452265], [-7.9863487, 38.2450835], [-7.9862366, 38.2449519], [-7.9853097, 38.2439428], [-7.9847848, 38.2433798], [-7.9840037, 38.242519], [-7.9837929, 38.2422922], [-7.9836125, 38.2420918], [-7.9834935, 38.2419542], [-7.9834187, 38.2418425], [-7.9833303, 38.2416998], [-7.9830665, 38.241292], [-7.9829915, 38.2411698], [-7.9824652, 38.2402905], [-7.9823734, 38.2401223], [-7.9822698, 38.2399191], [-7.9820206, 38.2394063], [-7.9819686, 38.2393021]]}, "properties": {"highway": "primary", "ref": "EN 258"}}, {"type": "Feature", "geometry": {"type": "LineString", "coordinates": [[-7.9819686, 38.2393021], [-7.9817686, 38.2389203], [-7.9817025, 38.2388168], [-7.9816346, 38.2387316], [-7.981592, 38.2386903], [-7.9815256, 38.2386331]]}, "properties": {"highway": "primary", "ref": "EN 258"}}, {"type": "Feature", "geometry": {"type": "LineString", "coordinates": [[-7.2184076, 38.1054367], [-7.2186533, 38.1060297], [-7.2188146, 38.1063921], [-7.2189048, 38.1065517], [-7.2190422, 38.1067249], [-7.2191618, 38.1068622], [-7.2193533, 38.1070609], [-7.2197076, 38.1074294], [-7.2197224, 38.1074472], [-7.219798, 38.1075378], [-7.2198942, 38.1076328], [-7.2199866, 38.1077033], [-7.2200982, 38.1077687], [-7.2202723, 38.1078464], [-7.2208193, 38.1080547], [-7.221102, 38.1081633], [-7.2214879, 38.1083176], [-7.2215786, 38.1083539], [-7.2216381, 38.1083777], [-7.2224592, 38.1086872], [-7.2235217, 38.1091012]]}, "properties": {"highway": "primary", "maxspeed": "50", "name": "Rua de Moura", "postal_code": "7875-064", "ref": "EN 258"}}, {"type": "Feature", "geometry": {"type": "LineString", "coordinates": [[-6.995125, 38.1292321], [-6.9952861, 38.1290322], [-6.9953315, 38.1289867], [-6.995378, 38.1289495]]}, "properties": {"bridge": "yes", "highway": "primary", "layer": "1", "ref": "EN 258"}}, {"type": "Feature", "geometry": {"type": "LineString", "coordinates": [[-6.9857701, 38.1321993], [-6.9858622, 38.1321106], [-6.9859452, 38.1320102], [-6.9860074, 38.1319294], [-6.9860445, 38.13187], [-6.9860761, 38.1318044], [-6.9861189, 38.1316981], [-6.986237, 38.1313058], [-6.9862694, 38.1312037], [-6.9863029, 38.1311341], [-6.9863523, 38.1310336], [-6.9864045, 38.1309468], [-6.9865038, 38.1308123], [-6.9868198, 38.1304129], [-6.9869163, 38.1302737], [-6.9870877, 38.1300145], [-6.987132, 38.1299399], [-6.9872085, 38.1298384], [-6.9872964, 38.1297461], [-6.9874118, 38.1296501], [-6.9877152, 38.1294101], [-6.9877845, 38.1293693], [-6.9878466, 38.1293368], [-6.9878995, 38.1293139], [-6.9879645, 38.1292944], [-6.9880796, 38.1292713], [-6.9887041, 38.1291657], [-6.9888334, 38.1291468], [-6.9889289, 38.1291397], [-6.9890107, 38.1291435], [-6.9890801, 38.1291573], [-6.9891446, 38.1291788], [-6.9892297, 38.1292194], [-6.9892781, 38.1292386], [-6.9893452, 38.1292556], [-6.9894259, 38.1292575], [-6.989501, 38.1292447], [-6.9895609, 38.1292279], [-6.9896017, 38.1292041], [-6.9896572, 38.1291683], [-6.9897101, 38.1291131], [-6.9897735, 38.1290066], [-6.9899442, 38.1286768], [-6.9900176, 38.1285605], [-6.9900675, 38.1285119], [-6.990122, 38.128476], [-6.9901774, 38.1284511], [-6.9902529, 38.1284321], [-6.990314, 38.1284282], [-6.9903884, 38.1284347], [-6.9904652, 38.1284526], [-6.9905333, 38.1284889], [-6.9907397, 38.1286481], [-6.9908943, 38.1287768], [-6.9909971, 38.1288411], [-6.9910778, 38.1288712], [-6.9911412, 38.1288841], [-6.9912109, 38.1288875], [-6.9912942, 38.1288823], [-6.9917323, 38.1288309], [-6.9918384, 38.1288317], [-6.9919097, 38.1288419], [-6.9919741, 38.12886], [-6.9920519, 38.1288921], [-6.9931343, 38.129391], [-6.9932928, 38.1294618], [-6.9933604, 38.1294934], [-6.9934282, 38.1295169], [-6.9934893, 38.1295296], [-6.9935742, 38.1295412], [-6.9937546, 38.1295457], [-6.9939642, 38.1295396], [-6.9944464, 38.1295255], [-6.9946286, 38.1295138], [-6.9947224, 38.1295053], [-6.9948078, 38.1294873], [-6.9948797, 38.1294611], [-6.9949381, 38.129428], [-6.9949898, 38.1293858], [-6.9950487, 38.1293242], [-6.995125, 38.1292321]]}, "properties": {"highway": "primary", "ref": "EN 258"}}, {"type": "Feature", "geometry": {"type": "LineString", "coordinates": [[-7.0116602, 38.1279191], [-7.0117086, 38.1279055], [-7.0117574, 38.127891], [-7.0118692, 38.1278445], [-7.01218, 38.1276922]]}, "properties": {"highway": "primary", "ref": "EN 258"}}, {"type": "Feature", "geometry": {"type": "LineString", "coordinates": [[-7.4467674, 38.1372373], [-7.4469855, 38.1372281], [-7.4471691, 38.1372204], [-7.4473628, 38.1372122], [-7.4477269, 38.1371969]]}, "properties": {"highway": "primary", "name": "Largo Jos\u00e9 Maria Santos", "postal_code": "7860-008", "ref": "EN 258", "surface": "asphalt"}}, {"type": "Feature", "geometry": {"type": "LineString", "coordinates": [[-6.9640951, 38.132952], [-6.9640568, 38.1328884]]}, "properties": {"bridge": "yes", "highway": "primary", "lanes": "1", "layer": "1", "oneway": "no", "priority": "forward", "ref": "EN 258", "surface": "asphalt"}}, {"type": "Feature", "geometry": {"type": "LineString", "coordinates": [[-7.3746243, 38.1380057], [-7.3747991, 38.1380128], [-7.3748902, 38.1380188], [-7.374965, 38.138028], [-7.3750398, 38.1380379], [-7.375108, 38.1380515], [-7.3751757, 38.1380704], [-7.3752465, 38.1380967], [-7.3753037, 38.138127], [-7.3753451, 38.1381569], [-7.3753817, 38.1381905], [-7.3756008, 38.1384348], [-7.3756819, 38.1385235], [-7.3757169, 38.1385535], [-7.3757588, 38.1385832], [-7.3758019, 38.1386077], [-7.3758519, 38.1386309], [-7.3759172, 38.1386562], [-7.3766886, 38.1389062], [-7.3769483, 38.1389896], [-7.3771837, 38.1390595], [-7.3772726, 38.1390832], [-7.3773507, 38.1390948], [-7.3774325, 38.139103], [-7.3775354, 38.1391051], [-7.3778234, 38.1391167], [-7.3779158, 38.1391317], [-7.3779756, 38.1391501], [-7.3780396, 38.1391836], [-7.3781005, 38.139223], [-7.3781662, 38.139277], [-7.3785772, 38.1397256], [-7.3786235, 38.1397758], [-7.3786649, 38.1398123], [-7.3787038, 38.1398408], [-7.3787359, 38.1398575], [-7.3787766, 38.1398783], [-7.3788165, 38.1398927], [-7.3788835, 38.1399099], [-7.3789652, 38.1399212], [-7.3790673, 38.1399286], [-7.3792073, 38.1399313], [-7.3792937, 38.1399307], [-7.3793543, 38.1399257], [-7.3794313, 38.1399116], [-7.3795079, 38.1398877], [-7.3795688, 38.1398588], [-7.3796997, 38.1397777], [-7.3798035, 38.1397073], [-7.3798919, 38.1396562], [-7.3799729, 38.1396277], [-7.3800583, 38.1396127], [-7.380117, 38.1396112], [-7.3801723, 38.1396129], [-7.3802891, 38.1396251], [-7.3804104, 38.139648], [-7.3805443, 38.1396812], [-7.3807467, 38.1397309], [-7.380833, 38.1397464], [-7.3809695, 38.1397565], [-7.3811258, 38.1397605], [-7.3817664, 38.139763], [-7.3819231, 38.1397653], [-7.3820541, 38.1397729], [-7.3821, 38.1397779], [-7.3821494, 38.1397856], [-7.3822275, 38.1398036], [-7.3823498, 38.139841], [-7.3838056, 38.1402597], [-7.3839628, 38.1403015], [-7.3840868, 38.1403305], [-7.3841735, 38.1403459], [-7.3842993, 38.140362], [-7.3844371, 38.1403772], [-7.3845383, 38.1403967], [-7.3846155, 38.1404173], [-7.38468, 38.1404406], [-7.3847263, 38.1404619], [-7.384785, 38.1404991], [-7.3848445, 38.1405484], [-7.3850513, 38.1406979], [-7.3851096, 38.1407271], [-7.3852007, 38.1407641], [-7.3855567, 38.1408733], [-7.3856901, 38.1409177], [-7.3857936, 38.1409574], [-7.3858919, 38.1410011], [-7.3860234, 38.1410616], [-7.3868215, 38.1414937], [-7.3870116, 38.1415825], [-7.3872254, 38.1416682], [-7.3873472, 38.1417028], [-7.3874224, 38.1417129], [-7.3875093, 38.1417136], [-7.3875929, 38.1417005], [-7.387655, 38.141682], [-7.3877843, 38.1416331], [-7.3879468, 38.1415629], [-7.3886725, 38.1411966], [-7.3895433, 38.1407787], [-7.3908496, 38.1401666], [-7.3911831, 38.1400171], [-7.3920558, 38.1395217], [-7.3931782, 38.1388738], [-7.393901, 38.1384573], [-7.3941477, 38.138315]]}, "properties": {"highway": "primary", "ref": "EN 258"}}, {"type": "Feature", "geometry": {"type": "LineString", "coordinates": [[-7.3941477, 38.138315], [-7.3942129, 38.1382832]]}, "properties": {"bridge": "yes", "highway": "primary", "layer": "1", "ref": "EN 258"}}, {"type": "Feature", "geometry": {"type": "LineString", "coordinates": [[-7.3942129, 38.1382832], [-7.3942675, 38.1382566], [-7.3943787, 38.1382048], [-7.3946404, 38.1380978], [-7.3956879, 38.1376551], [-7.3962308, 38.1374342], [-7.3978279, 38.1366925], [-7.3980885, 38.1365799], [-7.3982304, 38.1365263], [-7.3983261, 38.1364959], [-7.3984148, 38.1364803], [-7.3984991, 38.1364765], [-7.3987726, 38.136468], [-7.3993969, 38.1364443], [-7.4002032, 38.1364192]]}, "properties": {"highway": "primary", "ref": "EN 258"}}, {"type": "Feature", "geometry": {"type": "LineString", "coordinates": [[-7.4002032, 38.1364192], [-7.400307, 38.136416]]}, "properties": {"bridge": "yes", "highway": "primary", "layer": "1", "ref": "EN 258"}}, {"type": "Feature", "geometry": {"type": "MultiPolygon", "coordinates": [[[[-6.9796964, 38.1342546], [-6.9796843, 38.1342213], [-6.9796604, 38.1341921], [-6.9796269, 38.1341697], [-6.9795865, 38.1341559], [-6.9795427, 38.134152], [-6.9794975, 38.1341587], [-6.979457, 38.1341758], [-6.9794224, 38.1342048], [-6.979402, 38.1342411], [-6.9793981, 38.1342807], [-6.9794111, 38.1343191], [-6.9794306, 38.1343439], [-6.9794652, 38.1343686], [-6.9795077, 38.1343838], [-6.9795541, 38.1343879], [-6.9795999, 38.1343806], [-6.9796406, 38.1343626], [-6.9796479, 38.1343569], [-6.9796642, 38.1343442], [-6.9796821, 38.1343222], [-6.9796956, 38.1342892], [-6.9796964, 38.1342546]]]]}, "properties": {"highway": "primary", "junction": "roundabout", "ref": "EN 258"}}]}