{"type": "FeatureCollection", "features": [{"type": "Feature", "geometry": {"type": "LineString", "coordinates": [[-7.643956, 37.9714265], [-7.6437148, 37.9713262], [-7.6434386, 37.9712134], [-7.6430033, 37.9710554], [-7.6427521, 37.9709698], [-7.6424706, 37.9708826], [-7.6422095, 37.9708048], [-7.6419234, 37.9707253], [-7.6416226, 37.9706571], [-7.641285, 37.9705831], [-7.6406638, 37.970461], [-7.6386634, 37.9700744], [-7.6376589, 37.9698765], [-7.6367033, 37.9696795], [-7.6364984, 37.9696295], [-7.6363153, 37.969583], [-7.635968, 37.9694827], [-7.6357235, 37.9694057], [-7.6355014, 37.9693348], [-7.63532, 37.9692722], [-7.635117, 37.9692], [-7.6349489, 37.9691347], [-7.6348032, 37.9690763], [-7.6345606, 37.9689741], [-7.6342989, 37.9688574], [-7.6340816, 37.9687545], [-7.633853, 37.9686432], [-7.6336306, 37.9685244], [-7.633467, 37.9684371], [-7.6332842, 37.9683341], [-7.6329716, 37.9681472], [-7.6325953, 37.9679068], [-7.6313873, 37.9671605], [-7.62811, 37.965116], [-7.6277081, 37.9648684], [-7.6272817, 37.9646178], [-7.6270557, 37.964497], [-7.6268162, 37.9643791], [-7.6265498, 37.9642473], [-7.626342, 37.9641511], [-7.6261506, 37.9640695], [-7.6258302, 37.9639378], [-7.6255932, 37.9638466], [-7.6253357, 37.9637526], [-7.6248534, 37.9635888], [-7.6208299, 37.9622917], [-7.6181136, 37.9614269], [-7.6177504, 37.9613113], [-7.6174739, 37.9612302], [-7.6171959, 37.961151], [-7.6168279, 37.9610606], [-7.6165904, 37.961003], [-7.6163682, 37.960955], [-7.6159764, 37.9608753], [-7.6155261, 37.960777]]}, "properties": {"highway": "primary", "ref": "IP 8;EN 260"}}, {"type": "Feature", "geometry": {"type": "LineString", "coordinates": [[-7.6553309, 37.9828009], [-7.6531991, 37.9790963]]}, "properties": {"bridge": "yes", "highway": "primary", "layer": "1", "ref": "IP 8;EN 260"}}, {"type": "Feature", "geometry": {"type": "LineString", "coordinates": [[-7.8483796, 38.020603], [-7.8579954, 38.0241387]]}, "properties": {"highway": "primary", "lanes": "2", "ref": "IP 8;EN 260", "surface": "asphalt"}}, {"type": "Feature", "geometry": {"type": "LineString", "coordinates": [[-7.8478391, 38.020245], [-7.8478189, 38.0202151], [-7.8477911, 38.0201893], [-7.8477571, 38.0201686], [-7.8477184, 38.0201541], [-7.8476767, 38.0201462], [-7.8476339, 38.0201455], [-7.8475891, 38.0201526], [-7.8475475, 38.0201674], [-7.8475111, 38.0201891], [-7.8474813, 38.0202173], [-7.8474603, 38.0202501], [-7.8474494, 38.0202858], [-7.8474489, 38.0203226], [-7.8474591, 38.0203584], [-7.8474792, 38.0203916], [-7.8475084, 38.0204202]]}, "properties": {"highway": "primary", "junction": "roundabout", "lanes": "2", "ref": "IP 8;EN 260", "source": "bing", "surface": "asphalt"}}, {"type": "Feature", "geometry": {"type": "LineString", "coordinates": [[-7.5871487, 37.9457224], [-7.5871098, 37.9455948], [-7.5870646, 37.9454364], [-7.5870363, 37.945318], [-7.5870089, 37.9451995], [-7.5869827, 37.9450676], [-7.5869697, 37.9449814], [-7.5869576, 37.9448973], [-7.5869469, 37.9448064], [-7.586937, 37.9445878], [-7.5869286, 37.944343], [-7.5869109, 37.9438602], [-7.5868851, 37.9430203], [-7.5867837, 37.9397126], [-7.5867131, 37.9374111], [-7.5866469, 37.9347863], [-7.5865802, 37.9330749], [-7.5865679, 37.9329552], [-7.5865583, 37.9328825], [-7.5865453, 37.9328085], [-7.5865109, 37.9326368], [-7.5864869, 37.9325459], [-7.5864577, 37.9324495], [-7.5863456, 37.9321294]]}, "properties": {"highway": "primary", "lanes": "2", "maxspeed": "90", "ref": "IP 8;EN 260", "surface": "asphalt"}}, {"type": "Feature", "geometry": {"type": "LineString", "coordinates": [[-7.5871805, 37.9458155], [-7.5871487, 37.9457224]]}, "properties": {"bridge": "yes", "highway": "primary", "layer": "1", "ref": "IP 8;EN 260"}}, {"type": "Feature", "geometry": {"type": "LineString", "coordinates": [[-7.7243778, 38.0184658], [-7.7239664, 38.018166]]}, "properties": {"highway": "primary", "ref": "IP 8;EN 260"}}, {"type": "Feature", "geometry": {"type": "LineString", "coordinates": [[-7.725037, 38.0189971], [-7.7247116, 38.0187378]]}, "properties": {"highway": "primary", "ref": "IP 8;EN 260"}}, {"type": "Feature", "geometry": {"type": "LineString", "coordinates": [[-7.7352092, 38.0257699], [-7.7355876, 38.0257927], [-7.7359854, 38.0258021], [-7.7367898, 38.0258148], [-7.7385133, 38.0258396], [-7.7391659, 38.0258517], [-7.7392663, 38.0258517], [-7.7394984, 38.0258553], [-7.7401588, 38.0258658], [-7.7431194, 38.025908], [-7.7440851, 38.025922], [-7.7446598, 38.0259239], [-7.745088, 38.0259028], [-7.7527522, 38.0252334], [-7.7621969, 38.0244125], [-7.7626875, 38.0243788], [-7.7632895, 38.0243565], [-7.7636704, 38.0243604], [-7.7643417, 38.024378], [-7.7713709, 38.0245313], [-7.7719375, 38.0245437], [-7.7725607, 38.024568], [-7.7728813, 38.0246042], [-7.7731586, 38.0246486], [-7.7734962, 38.0247298], [-7.773782, 38.0248087], [-7.7742089, 38.0249591], [-7.7754254, 38.0255307], [-7.7762557, 38.0259208], [-7.7788867, 38.0271586], [-7.7792833, 38.0273418], [-7.7795039, 38.027434], [-7.7797398, 38.0275288], [-7.7799198, 38.0275937], [-7.7801523, 38.0276672], [-7.7802746, 38.0276985], [-7.7803961, 38.027729], [-7.780492, 38.0277503], [-7.7805956, 38.0277721], [-7.7807877, 38.0278008], [-7.7809151, 38.0278175], [-7.7809891, 38.0278247], [-7.7810921, 38.0278341], [-7.7812533, 38.027844], [-7.7814029, 38.0278499], [-7.7815534, 38.0278535], [-7.7816869, 38.0278534], [-7.7818479, 38.0278477], [-7.7820803, 38.0278317], [-7.7823103, 38.0278177], [-7.7864947, 38.0274943], [-7.7868612, 38.0274653], [-7.7870941, 38.0274449], [-7.7872146, 38.0274317], [-7.7873637, 38.0274128], [-7.7875553, 38.0273853], [-7.7877679, 38.0273466], [-7.7886906, 38.027133], [-7.7897652, 38.0268805], [-7.7899281, 38.0268475], [-7.7900604, 38.0268235], [-7.7902191, 38.0267972], [-7.7904007, 38.0267759], [-7.7906171, 38.0267621], [-7.790821, 38.0267569], [-7.7913368, 38.02677], [-7.7921099, 38.02681], [-7.7928408, 38.0268479], [-7.7942791, 38.0269142], [-7.7944354, 38.0269157], [-7.7945876, 38.026912], [-7.7947143, 38.0269084], [-7.7948575, 38.0268986], [-7.7951795, 38.0268724], [-7.7953207, 38.0268577], [-7.7954831, 38.026838], [-7.7956567, 38.026813], [-7.795835, 38.0267809], [-7.7961537, 38.0267081], [-7.7966348, 38.0265725], [-7.7969608, 38.0264589], [-7.7972844, 38.0263219], [-7.7975451, 38.0262037], [-7.7978098, 38.02607], [-7.7992518, 38.0253089], [-7.800291, 38.0247642], [-7.8005329, 38.0246412], [-7.8006998, 38.024565], [-7.8008566, 38.0245009], [-7.8010593, 38.0244181], [-7.8012381, 38.0243487], [-7.801437, 38.0242826], [-7.8016706, 38.0242141], [-7.8019208, 38.0241448], [-7.802074, 38.0241116], [-7.8022643, 38.0240715], [-7.8025641, 38.0240269], [-7.8028579, 38.0239925], [-7.80307, 38.0239749], [-7.8033686, 38.0239592], [-7.8037087, 38.0239481], [-7.8044145, 38.0239433], [-7.8069614, 38.023937], [-7.8075803, 38.023936], [-7.808138, 38.0239268], [-7.8082034, 38.0239239], [-7.8082263, 38.0239228], [-7.8087026, 38.0239015], [-7.8097468, 38.0238318], [-7.8123853, 38.0237146], [-7.8127241, 38.0236897], [-7.8130134, 38.0236715], [-7.8130658, 38.023669], [-7.8131174, 38.0236669], [-7.8134003, 38.0236541], [-7.8139951, 38.023612], [-7.814536, 38.023565], [-7.8155054, 38.0235031], [-7.8158705, 38.0234828], [-7.818003, 38.0233644], [-7.8191798, 38.0232994], [-7.820769, 38.0232115], [-7.8213149, 38.0231783], [-7.8216261, 38.023159], [-7.821933, 38.0231371], [-7.8222656, 38.0231042], [-7.8224817, 38.0230738], [-7.8226603, 38.0230487], [-7.8229309, 38.022997], [-7.823079, 38.0229651], [-7.8232202, 38.0229319], [-7.823433, 38.0228739], [-7.8235513, 38.0228386], [-7.8239506, 38.0226984], [-7.8243694, 38.0225341], [-7.8249296, 38.0222965], [-7.8276347, 38.0211493], [-7.8290698, 38.0205469], [-7.8295609, 38.0203499], [-7.8301537, 38.0201346], [-7.830697, 38.0200162], [-7.8310062, 38.0199627], [-7.8313682, 38.0199268], [-7.8319372, 38.0198795], [-7.8331336, 38.0197874], [-7.8340043, 38.019721], [-7.8350071, 38.019647], [-7.8362949, 38.0195606], [-7.8367627, 38.0195464], [-7.8369426, 38.0195458], [-7.8372014, 38.0195449], [-7.8375618, 38.0195485], [-7.8378956, 38.0195561], [-7.8381279, 38.0195674], [-7.8383003, 38.0195719], [-7.8387559, 38.0196187], [-7.8391843, 38.0196763], [-7.8395757, 38.0197452], [-7.8399545, 38.0198261], [-7.8402774, 38.0198979], [-7.8408362, 38.0200367], [-7.841738, 38.0202502], [-7.8420713, 38.0203219], [-7.8423462, 38.0203728], [-7.8424873, 38.0203946], [-7.8426932, 38.0204203], [-7.8430022, 38.0204443], [-7.8432966, 38.0204627], [-7.8435615, 38.0204672], [-7.8438252, 38.0204633], [-7.8440461, 38.020455], [-7.8442855, 38.0204362], [-7.8452486, 38.020349], [-7.8461705, 38.0202749], [-7.8464526, 38.0202658], [-7.8467685, 38.0202758]]}, "properties": {"highway": "primary", "ref": "IP 8;EN 260"}}, {"type": "Feature", "geometry": {"type": "LineString", "coordinates": [[-7.7239664, 38.018166], [-7.7234875, 38.0178399]]}, "properties": {"highway": "primary", "ref": "IP 8;EN 260"}}, {"type": "Feature", "geometry": {"type": "LineString", "coordinates": [[-7.7253651, 38.0192621], [-7.725037, 38.0189971]]}, "properties": {"highway": "primary", "ref": "IP 8;EN 260"}}, {"type": "Feature", "geometry": {"type": "LineString", "coordinates": [[-7.7247116, 38.0187378], [-7.7243778, 38.0184658]]}, "properties": {"highway": "primary", "ref": "IP 8;EN 260"}}, {"type": "Feature", "geometry": {"type": "LineString", "coordinates": [[-7.5979484, 37.9514339], [-7.5973626, 37.9512112]]}, "properties": {"highway": "primary", "ref": "IP 8;EN 260"}}, {"type": "Feature", "geometry": {"type": "LineString", "coordinates": [[-7.6007794, 37.9524869], [-7.6004875, 37.9523758], [-7.6000052, 37.9521963]]}, "properties": {"highway": "primary", "ref": "IP 8;EN 260"}}, {"type": "Feature", "geometry": {"type": "LineString", "coordinates": [[-7.5994331, 37.9519844], [-7.5979484, 37.9514339]]}, "properties": {"highway": "primary", "ref": "IP 8;EN 260"}}, {"type": "Feature", "geometry": {"type": "LineString", "coordinates": [[-7.5973626, 37.9512112], [-7.5959954, 37.9506979]]}, "properties": {"highway": "primary", "ref": "IP 8;EN 260"}}, {"type": "Feature", "geometry": {"type": "LineString", "coordinates": [[-7.6000052, 37.9521963], [-7.5994331, 37.9519844]]}, "properties": {"highway": "primary", "ref": "IP 8;EN 260"}}, {"type": "Feature", "geometry": {"type": "LineString", "coordinates": [[-7.5959954, 37.9506979], [-7.5935287, 37.9497648], [-7.5916136, 37.9490402], [-7.5908049, 37.9487343], [-7.5902485, 37.9485237], [-7.5897946, 37.9483463], [-7.5896253, 37.9482701], [-7.5894194, 37.9481709], [-7.5892337, 37.9480737], [-7.5890726, 37.947978], [-7.5889025, 37.9478688], [-7.5887498, 37.9477641], [-7.5886067, 37.9476591], [-7.5884836, 37.9475596], [-7.5883626, 37.9474525], [-7.588233, 37.9473323], [-7.5881242, 37.9472215], [-7.5880053, 37.9470907], [-7.5878724, 37.9469372], [-7.5877411, 37.9467752], [-7.5876201, 37.9466099], [-7.5875083, 37.9464475], [-7.5874245, 37.946305], [-7.58735, 37.9461794], [-7.587256, 37.9459942], [-7.5871805, 37.9458155]]}, "properties": {"highway": "primary", "ref": "IP 8;EN 260"}}, {"type": "Feature", "geometry": {"type": "LineString", "coordinates": [[-7.8475111, 38.0201891], [-7.8472772, 38.020244], [-7.8467685, 38.0202758]]}, "properties": {"highway": "primary", "lanes": "1", "oneway": "yes", "ref": "IP 8;EN 260", "surface": "asphalt"}}, {"type": "Feature", "geometry": {"type": "LineString", "coordinates": [[-7.8477325, 38.0204529], [-7.8483796, 38.020603]]}, "properties": {"highway": "primary", "lanes": "1", "oneway": "yes", "ref": "IP 8;EN 260", "source": "bing", "surface": "asphalt"}}, {"type": "Feature", "geometry": {"type": "LineString", "coordinates": [[-7.8483796, 38.020603], [-7.8478524, 38.0203267]]}, "properties": {"highway": "primary", "lanes": "1", "oneway": "yes", "ref": "IP 8;EN 260", "source": "bing", "surface": "asphalt"}}, {"type": "Feature", "geometry": {"type": "LineString", "coordinates": [[-7.8595282, 38.0247109], [-7.8608091, 38.0251805]]}, "properties": {"bridge": "yes", "highway": "primary", "lanes": "2", "layer": "1", "ref": "IP 8;EN 260", "surface": "asphalt"}}, {"type": "Feature", "geometry": {"type": "LineString", "coordinates": [[-7.8742469, 38.0257359], [-7.8745421, 38.0257602], [-7.8747512, 38.0257937]]}, "properties": {"highway": "primary", "lane_markings": "yes", "lanes": "1", "oneway": "yes", "ref": "IP 8;EN 260", "source": "bing", "surface": "asphalt"}}, {"type": "Feature", "geometry": {"type": "LineString", "coordinates": [[-7.874723, 38.0255554], [-7.8745099, 38.0256553], [-7.8742469, 38.0257359]]}, "properties": {"highway": "primary", "lane_markings": "yes", "lanes": "1", "oneway": "yes", "ref": "IP 8;EN 260", "source": "bing", "surface": "asphalt"}}, {"type": "Feature", "geometry": {"type": "LineString", "coordinates": [[-7.8467685, 38.0202758], [-7.8472574, 38.0203461], [-7.8475084, 38.0204202]]}, "properties": {"highway": "primary", "lanes": "1", "oneway": "yes", "ref": "IP 8;EN 260", "surface": "asphalt"}}, {"type": "Feature", "geometry": {"type": "LineString", "coordinates": [[-7.8608091, 38.0251805], [-7.8613883, 38.0254252], [-7.8618192, 38.0255755], [-7.8621365, 38.0256967], [-7.862793, 38.025924], [-7.8634361, 38.0260771]]}, "properties": {"highway": "primary", "oneway": "yes", "ref": "IP 8;EN 260", "source": "bing", "surface": "asphalt"}}, {"type": "Feature", "geometry": {"type": "LineString", "coordinates": [[-7.8634361, 38.0260771], [-7.8628126, 38.0258552], [-7.8626269, 38.0257826], [-7.8621254, 38.0255963], [-7.8617752, 38.0254787], [-7.8614198, 38.0253485], [-7.8608091, 38.0251805]]}, "properties": {"highway": "primary", "oneway": "yes", "ref": "IP 8;EN 260", "source": "bing", "surface": "asphalt"}}, {"type": "Feature", "geometry": {"type": "LineString", "coordinates": [[-7.8634361, 38.0260771], [-7.86435, 38.0262728], [-7.8652538, 38.0264086], [-7.8661581, 38.0264802], [-7.8670252, 38.0264907], [-7.8679851, 38.0264565], [-7.8710427, 38.026112], [-7.8742469, 38.0257359]]}, "properties": {"highway": "primary", "lanes": "2", "ref": "IP 8;EN 260", "surface": "asphalt"}}, {"type": "Feature", "geometry": {"type": "LineString", "coordinates": [[-7.6553309, 37.9828009], [-7.6555223, 37.9831218], [-7.655683, 37.9833695], [-7.6558559, 37.9836165], [-7.6560451, 37.9838703], [-7.6561837, 37.984045], [-7.6563386, 37.984231], [-7.6565274, 37.9844442], [-7.6567364, 37.9846581], [-7.656947, 37.9848647], [-7.6571198, 37.9850274], [-7.6573018, 37.9851929], [-7.6574865, 37.9853471], [-7.6577004, 37.985522], [-7.6578955, 37.9856694], [-7.6580824, 37.9858043], [-7.6582782, 37.985944], [-7.6585261, 37.986109], [-7.6587226, 37.9862328], [-7.6589142, 37.9863533], [-7.6592396, 37.9865574], [-7.6595748, 37.9867618], [-7.6602308, 37.9871614], [-7.6690317, 37.992564], [-7.6717008, 37.9941777], [-7.6720077, 37.9943472], [-7.6721941, 37.9944475], [-7.6723631, 37.9945329], [-7.6725872, 37.9946373], [-7.6731736, 37.9948992], [-7.673989, 37.9952427], [-7.6756506, 37.9959412], [-7.6793748, 37.9975058], [-7.6857983, 38.0001974], [-7.689101, 38.0015872], [-7.689891, 38.0019238], [-7.6902657, 38.0020825], [-7.6905115, 38.0021884], [-7.6907472, 38.0022875], [-7.6910931, 38.00243], [-7.6913067, 38.0025196], [-7.6914848, 38.0025928], [-7.6918222, 38.0027367], [-7.6920103, 38.0028221], [-7.6922081, 38.0029163], [-7.6925831, 38.0031161], [-7.6929282, 38.0033135], [-7.7030037, 38.0092114], [-7.7038093, 38.0096836], [-7.7042277, 38.0099285], [-7.7045971, 38.0101424], [-7.7049512, 38.0103508], [-7.7051511, 38.0104645], [-7.7053663, 38.0105796], [-7.7055866, 38.0106961], [-7.7057748, 38.0107883], [-7.7059596, 38.010879], [-7.7061461, 38.0109631], [-7.7063512, 38.0110552], [-7.7067193, 38.0112033], [-7.7070666, 38.0113392], [-7.7106407, 38.0127107], [-7.7135894, 38.0138521], [-7.713771, 38.0139221], [-7.7139078, 38.0139748], [-7.7177587, 38.0154607], [-7.7191739, 38.0160063], [-7.7215733, 38.0169313], [-7.7220285, 38.0171152], [-7.7223542, 38.0172535], [-7.7226373, 38.0173823], [-7.7229798, 38.017557], [-7.7231883, 38.0176707], [-7.7234127, 38.0178016], [-7.7234875, 38.0178399]]}, "properties": {"highway": "primary", "ref": "IP 8;EN 260"}}, {"type": "Feature", "geometry": {"type": "LineString", "coordinates": [[-7.584505, 37.930253], [-7.5842674, 37.9301393], [-7.5841121, 37.9300749]]}, "properties": {"highway": "primary", "lanes": "2", "maxspeed": "90", "ref": "IP 8;EN 260", "surface": "asphalt"}}, {"type": "Feature", "geometry": {"type": "LineString", "coordinates": [[-7.4717979, 37.9207353], [-7.4716834, 37.9207749], [-7.4716029, 37.9208027], [-7.4714048, 37.9208669], [-7.4713097, 37.9208951], [-7.47123, 37.9209183], [-7.4711522, 37.9209387], [-7.4710598, 37.9209624], [-7.4709629, 37.9209848], [-7.4707652, 37.9210252], [-7.4705802, 37.9210593], [-7.470383, 37.9210891], [-7.4702266, 37.9211097], [-7.470009, 37.9211341], [-7.4698524, 37.9211455], [-7.4697128, 37.9211557], [-7.4692728, 37.9211836], [-7.4675896, 37.9212905], [-7.4671278, 37.9213198], [-7.4649869, 37.9214557], [-7.4645336, 37.9214797], [-7.4642516, 37.9214942], [-7.4639326, 37.9215061], [-7.4635911, 37.9215066], [-7.4632541, 37.9214985], [-7.4628918, 37.9214784], [-7.4624998, 37.9214533], [-7.4621163, 37.9214323], [-7.4617583, 37.9214177], [-7.4614627, 37.9214165], [-7.4611846, 37.9214246], [-7.459223, 37.9215099], [-7.4591549, 37.9215128], [-7.4583165, 37.9215491], [-7.458081, 37.9215531], [-7.4578688, 37.921548], [-7.4576821, 37.9215361], [-7.457461, 37.9215186], [-7.4573021, 37.9215016], [-7.4571258, 37.9214777], [-7.4568623, 37.921432], [-7.4565986, 37.9213787], [-7.453848, 37.9208361], [-7.4496982, 37.9200273], [-7.449379, 37.9199805], [-7.4491682, 37.9199603], [-7.4489144, 37.9199399], [-7.4485188, 37.9199299], [-7.4482567, 37.9199362], [-7.4479759, 37.9199491], [-7.446356, 37.9200968], [-7.4461515, 37.9201028], [-7.4459834, 37.9201032], [-7.4457769, 37.9201001], [-7.4456745, 37.920096], [-7.4455455, 37.9200898], [-7.4452335, 37.920057], [-7.4422928, 37.9196403], [-7.4414826, 37.9195384], [-7.4412366, 37.9195199], [-7.4410208, 37.9195108], [-7.4408157, 37.9195066], [-7.44059, 37.919511], [-7.440318, 37.9195239], [-7.4400664, 37.9195436], [-7.439815, 37.9195774], [-7.4395458, 37.9196207], [-7.4392384, 37.9196843], [-7.4388946, 37.9197619], [-7.4383671, 37.9198889], [-7.4363363, 37.9203893], [-7.4357902, 37.9205346], [-7.4353281, 37.9206741], [-7.4351963, 37.9207149], [-7.4350395, 37.9207704], [-7.4348486, 37.9208567], [-7.4346682, 37.9209445], [-7.4336398, 37.92144], [-7.4334379, 37.9215451], [-7.4332896, 37.9216087], [-7.4331199, 37.9216737], [-7.4329318, 37.9217371], [-7.4327257, 37.9218031], [-7.4323597, 37.9219072], [-7.4315978, 37.9221271], [-7.4302972, 37.9224859], [-7.425936, 37.9237407], [-7.4220909, 37.9248513], [-7.4218837, 37.9249002], [-7.421648, 37.9249529], [-7.4214329, 37.9249862], [-7.4212404, 37.9250102], [-7.4211066, 37.9250232], [-7.420952, 37.925029], [-7.4207209, 37.9250334], [-7.4205072, 37.9250263], [-7.4202667, 37.9250107], [-7.4200687, 37.9249793], [-7.4198729, 37.9249418], [-7.4196835, 37.9248934], [-7.4195309, 37.9248483], [-7.419374, 37.9247956], [-7.4191484, 37.9247128], [-7.4188814, 37.9246057], [-7.4178809, 37.9241566], [-7.4153194, 37.9230488], [-7.4152722, 37.9230279], [-7.4126291, 37.9218441], [-7.4120458, 37.9216151], [-7.4115745, 37.9214754], [-7.4114236, 37.9214307], [-7.410217, 37.9211684], [-7.4093551, 37.9210237], [-7.4086575, 37.9209267], [-7.4086142, 37.9209227], [-7.4083228, 37.9209012], [-7.4080238, 37.9208849], [-7.4076078, 37.9208734], [-7.4070487, 37.9208767], [-7.4061626, 37.9209481], [-7.4054099, 37.9210505], [-7.4051758, 37.9210823], [-7.4051428, 37.9210868], [-7.4051168, 37.9210903], [-7.4050883, 37.9210942], [-7.4050347, 37.9211071], [-7.4048501, 37.9211516], [-7.4048172, 37.9211596], [-7.4040602, 37.9213421], [-7.4032035, 37.9215657], [-7.4026297, 37.9217483], [-7.4006448, 37.9223797], [-7.40002, 37.9225784], [-7.395317, 37.9240621], [-7.3934232, 37.9246537], [-7.3927333, 37.9248693], [-7.387616, 37.9264677], [-7.3874014, 37.9265347], [-7.3871034, 37.926635], [-7.3862811, 37.9268975], [-7.3857321, 37.9270419], [-7.3852224, 37.9271409], [-7.3847558, 37.9272013], [-7.3843165, 37.9272266], [-7.3840078, 37.9272344], [-7.3838206, 37.9272391], [-7.3830431, 37.9272482], [-7.3821474, 37.9272586], [-7.3814925, 37.9272983], [-7.3808619, 37.9273756], [-7.3802412, 37.9275167], [-7.3795933, 37.9277434], [-7.3764844, 37.9290607], [-7.3745491, 37.9298976], [-7.3728383, 37.9306491], [-7.3720575, 37.9309637], [-7.3717142, 37.9310764], [-7.3712828, 37.9312004], [-7.3708403, 37.9312922], [-7.3703333, 37.9313744], [-7.3698005, 37.9314271], [-7.3684604, 37.9314573], [-7.3643396, 37.9315218], [-7.363666, 37.9315712], [-7.3632839, 37.9316408], [-7.3630928, 37.9316756], [-7.3623678, 37.9318754], [-7.3617682, 37.9321108], [-7.359927, 37.93294], [-7.3590897, 37.9332771], [-7.3585801, 37.9334202], [-7.3578997, 37.9335438], [-7.3573633, 37.9335937], [-7.3570737, 37.9336162], [-7.3555894, 37.9337315], [-7.354947, 37.9337875], [-7.354347, 37.9338703], [-7.3538752, 37.9339792], [-7.353502, 37.9340763], [-7.3521346, 37.9344917], [-7.3502089, 37.9350945], [-7.3491508, 37.9354117], [-7.3480948, 37.9356868], [-7.3464245, 37.9360309], [-7.3396466, 37.9374268], [-7.3388362, 37.9376629], [-7.3381954, 37.9378852], [-7.3375263, 37.9381614], [-7.3366691, 37.9385153], [-7.333615, 37.9397631], [-7.3327983, 37.9400966], [-7.3306013, 37.9409936], [-7.3301098, 37.9411937], [-7.329254, 37.9414565], [-7.3285593, 37.9415939], [-7.3276674, 37.9416931], [-7.3248274, 37.9419273], [-7.3237957, 37.9420259], [-7.3234348, 37.9420688], [-7.322961, 37.9421458], [-7.3225076, 37.9422358], [-7.3219166, 37.9424008], [-7.3213136, 37.9425874], [-7.3202568, 37.943038], [-7.318233, 37.943967], [-7.3178864, 37.9441247], [-7.3169314, 37.9445591], [-7.3160319, 37.9448749], [-7.3123902, 37.9459199], [-7.3121692, 37.9459833], [-7.3114796, 37.9462111], [-7.3102123, 37.9466968], [-7.3069705, 37.9480849]]}, "properties": {"highway": "primary", "lanes": "2", "maxspeed": "90", "ref": "IP 8;EN 260", "surface": "asphalt"}}, {"type": "Feature", "geometry": {"type": "LineString", "coordinates": [[-7.8579954, 38.0241387], [-7.8587893, 38.0244369], [-7.8595282, 38.0247109]]}, "properties": {"highway": "primary", "lanes": "2", "ref": "IP 8;EN 260", "surface": "asphalt"}}, {"type": "Feature", "geometry": {"type": "LineString", "coordinates": [[-7.2875949, 37.9525739], [-7.2809428, 37.9538152], [-7.2781056, 37.9543445], [-7.2753446, 37.9551874], [-7.2751982, 37.9552146], [-7.2750645, 37.9552305], [-7.2748973, 37.9552326], [-7.2747191, 37.9552151], [-7.2742785, 37.9551401], [-7.2734169, 37.9550146], [-7.2731575, 37.9550144], [-7.2729339, 37.9550622], [-7.2726848, 37.9551626], [-7.2722404, 37.9553961], [-7.2716895, 37.955731], [-7.2715119, 37.9558157], [-7.2713481, 37.9558737], [-7.2711641, 37.95591], [-7.2709535, 37.9559166], [-7.2695856, 37.9557487], [-7.2694709, 37.9557456], [-7.2693553, 37.9557488], [-7.2692328, 37.9557668], [-7.2691286, 37.9557905], [-7.2686873, 37.9559322], [-7.2659554, 37.9569773], [-7.2655783, 37.9571252], [-7.2653675, 37.9571773], [-7.2651494, 37.9572027], [-7.2647554, 37.9571918], [-7.2644769, 37.9571789], [-7.2641519, 37.9572124], [-7.2620974, 37.9577705], [-7.2557384, 37.959473], [-7.2552633, 37.9596001], [-7.2550649, 37.9596496], [-7.2548729, 37.9596933], [-7.2545362, 37.9597467], [-7.2535045, 37.9598641], [-7.2518566, 37.9600286]]}, "properties": {"highway": "primary", "lanes": "2", "maxspeed": "90", "postal_code": "7830-644", "ref": "IP 8;EN 260", "surface": "asphalt"}}, {"type": "Feature", "geometry": {"type": "LineString", "coordinates": [[-7.2880217, 37.9524942], [-7.2875949, 37.9525739]]}, "properties": {"bridge": "yes", "highway": "primary", "lanes": "2", "maxspeed": "90", "ref": "IP 8;EN 260", "surface": "asphalt"}}, {"type": "Feature", "geometry": {"type": "LineString", "coordinates": [[-7.6441612, 37.9715223], [-7.643956, 37.9714265]]}, "properties": {"bridge": "yes", "highway": "primary", "layer": "1", "ref": "IP 8;EN 260"}}, {"type": "Feature", "geometry": {"type": "LineString", "coordinates": [[-7.6531991, 37.9790963], [-7.6529354, 37.9786461], [-7.6527437, 37.9783372], [-7.6525467, 37.9780554], [-7.6523277, 37.9777655], [-7.6520176, 37.9773834], [-7.6516956, 37.9770281], [-7.651491, 37.9768284], [-7.6512833, 37.9766326], [-7.6509306, 37.9763213], [-7.6506801, 37.976119], [-7.6504028, 37.9759067], [-7.6499007, 37.9755267], [-7.6489216, 37.9747838], [-7.6479491, 37.9740488], [-7.6472253, 37.9735131], [-7.6464364, 37.9729112], [-7.6460526, 37.9726271], [-7.6458479, 37.9724824], [-7.6456314, 37.9723352], [-7.6454605, 37.9722266], [-7.6452676, 37.9721128], [-7.6450882, 37.9720058], [-7.6448788, 37.9718859], [-7.6445329, 37.9717049], [-7.6441612, 37.9715223]]}, "properties": {"highway": "primary", "ref": "IP 8;EN 260"}}, {"type": "Feature", "geometry": {"type": "LineString", "coordinates": [[-7.2917738, 37.9517628], [-7.2905508, 37.9520289], [-7.2891233, 37.9523065], [-7.2880217, 37.9524942]]}, "properties": {"highway": "primary", "lanes": "2", "maxspeed": "90", "postal_code": "7830-644", "ref": "IP 8;EN 260", "surface": "asphalt"}}, {"type": "Feature", "geometry": {"type": "LineString", "coordinates": [[-7.6034622, 37.9535069], [-7.603025, 37.9533414], [-7.6022122, 37.9530339], [-7.6015522, 37.9527796], [-7.6011906, 37.9526418], [-7.6007794, 37.9524869]]}, "properties": {"highway": "primary", "ref": "IP 8;EN 260"}}, {"type": "Feature", "geometry": {"type": "LineString", "coordinates": [[-7.615417, 37.9607596], [-7.6142608, 37.9605219], [-7.6135726, 37.9603858], [-7.61285, 37.9602359], [-7.6125481, 37.960158], [-7.6122785, 37.9600842], [-7.6118782, 37.959961], [-7.611521, 37.9598267], [-7.6111868, 37.9596925], [-7.6109807, 37.9595943], [-7.6107708, 37.9594938], [-7.610478, 37.9593405], [-7.6102107, 37.959186], [-7.6099208, 37.9590049], [-7.6090722, 37.9584427], [-7.6087616, 37.9582421], [-7.6084387, 37.9580187], [-7.6081666, 37.9578144], [-7.6080231, 37.9576981], [-7.6078677, 37.9575636], [-7.6076973, 37.9574075], [-7.6075522, 37.9572629], [-7.6073364, 37.9570427], [-7.6071527, 37.9568334], [-7.6069406, 37.9565594], [-7.6067219, 37.9562599], [-7.6057595, 37.9548711], [-7.6056475, 37.9547207], [-7.6055397, 37.9546021], [-7.605428, 37.954495], [-7.6053153, 37.9543985], [-7.60519, 37.9542992], [-7.6050523, 37.9542053], [-7.6049144, 37.954116], [-7.6047955, 37.9540477], [-7.6046319, 37.9539635], [-7.6043378, 37.9538338], [-7.6034622, 37.9535069]]}, "properties": {"highway": "primary", "ref": "IP 8;EN 260"}}, {"type": "Feature", "geometry": {"type": "LineString", "coordinates": [[-7.6155261, 37.960777], [-7.615417, 37.9607596]]}, "properties": {"bridge": "yes", "highway": "primary", "layer": "1", "ref": "IP 8;EN 260"}}, {"type": "Feature", "geometry": {"type": "LineString", "coordinates": [[-7.8475084, 38.0204202], [-7.8475402, 38.0204404], [-7.8475947, 38.0204601], [-7.8476542, 38.0204664], [-7.8476942, 38.0204628], [-7.8477157, 38.0204572], [-7.8477325, 38.0204529], [-7.8477687, 38.0204367], [-7.8478001, 38.0204149], [-7.8478251, 38.0203886], [-7.8478428, 38.0203587], [-7.8478524, 38.0203267], [-7.8478525, 38.0202851], [-7.8478391, 38.020245]]}, "properties": {"highway": "primary", "junction": "roundabout", "lanes": "2", "ref": "IP 8;EN 260", "source": "bing", "surface": "asphalt"}}, {"type": "Feature", "geometry": {"type": "LineString", "coordinates": [[-7.7253651, 38.0192621], [-7.725457, 38.0193375], [-7.7269484, 38.0205158], [-7.7277525, 38.0211755], [-7.728534, 38.0218027], [-7.7297572, 38.0227781], [-7.7302934, 38.0232057], [-7.7313531, 38.0240567], [-7.7316917, 38.0243282], [-7.7320257, 38.0245888], [-7.7321861, 38.0247051], [-7.7323437, 38.0248133], [-7.732514, 38.0249174], [-7.7326911, 38.0250202], [-7.7328793, 38.0251164], [-7.7329878, 38.0251692], [-7.73311, 38.0252261], [-7.7332881, 38.0253007], [-7.7334813, 38.0253741], [-7.7337768, 38.0254772], [-7.7339839, 38.0255424], [-7.7342222, 38.0256074], [-7.7344984, 38.0256652], [-7.7346428, 38.0256913], [-7.73479, 38.0257158], [-7.7349741, 38.0257422], [-7.7350845, 38.0257573], [-7.7352092, 38.0257699]]}, "properties": {"highway": "primary", "ref": "IP 8;EN 260"}}, {"type": "Feature", "geometry": {"type": "LineString", "coordinates": [[-7.5863456, 37.9321294], [-7.5862873, 37.9319962], [-7.5861848, 37.9317941], [-7.5861084, 37.9316744], [-7.5860043, 37.9315199], [-7.5859121, 37.9313953], [-7.5858168, 37.9312821], [-7.5856781, 37.9311239], [-7.5855337, 37.9309851], [-7.5854015, 37.930863], [-7.5852328, 37.930715], [-7.5851273, 37.9306391], [-7.5850122, 37.9305588], [-7.584752, 37.9303869], [-7.584505, 37.930253]]}, "properties": {"highway": "primary", "lanes": "2", "maxspeed": "90", "ref": "IP 8;EN 260", "surface": "asphalt"}}, {"type": "Feature", "geometry": {"type": "LineString", "coordinates": [[-7.5841121, 37.9300749], [-7.5839187, 37.930006], [-7.5837404, 37.9299513], [-7.5834435, 37.9298598], [-7.5828576, 37.9296819], [-7.5817383, 37.9293497], [-7.581418, 37.9292357], [-7.5811658, 37.929131], [-7.5809052, 37.9290114], [-7.5805364, 37.9288281], [-7.5801355, 37.9286204], [-7.5797059, 37.9284005], [-7.5793962, 37.9282578], [-7.5791829, 37.9281708], [-7.5789447, 37.9280885], [-7.5788496, 37.9280534], [-7.578546, 37.9279606], [-7.5783765, 37.9279154], [-7.5781766, 37.9278702], [-7.5779566, 37.9278292], [-7.5755569, 37.9274138], [-7.5749862, 37.9273156], [-7.5671703, 37.9259782], [-7.565998, 37.9257776], [-7.5617774, 37.9250677], [-7.5614558, 37.9250247], [-7.5610905, 37.924989], [-7.5608653, 37.9249761], [-7.5606226, 37.9249642], [-7.5603407, 37.9249642], [-7.5600809, 37.924971], [-7.5596689, 37.9249857], [-7.5579788, 37.925049], [-7.5557104, 37.9251503], [-7.5553539, 37.9251604], [-7.5549583, 37.9251598], [-7.5547308, 37.9251519], [-7.554539, 37.9251416], [-7.5543282, 37.9251257], [-7.5540996, 37.9250991], [-7.5538893, 37.9250698], [-7.553657, 37.9250296], [-7.5534366, 37.9249869], [-7.5530522, 37.9249025], [-7.5468434, 37.9234097], [-7.546627, 37.9233586], [-7.5464186, 37.9233153], [-7.5461774, 37.9232766], [-7.5459413, 37.9232417], [-7.5457362, 37.9232173], [-7.5455969, 37.9232062], [-7.5454076, 37.9231911], [-7.5452178, 37.923179], [-7.5450092, 37.9231709], [-7.5447761, 37.9231696], [-7.5438372, 37.9231819], [-7.5403247, 37.9232533], [-7.5400407, 37.9232546], [-7.5397418, 37.9232465], [-7.5394832, 37.9232316], [-7.5392351, 37.9232067], [-7.5390073, 37.9231797], [-7.5387575, 37.9231417], [-7.5385176, 37.9230966], [-7.5382678, 37.9230425], [-7.5379931, 37.9229728], [-7.5377648, 37.9229081], [-7.5370718, 37.9227035], [-7.5364761, 37.9225269], [-7.5361824, 37.9224412], [-7.5359894, 37.92239], [-7.535866, 37.9223598], [-7.5357245, 37.9223232], [-7.5354877, 37.9222702], [-7.535266, 37.9222313], [-7.5350489, 37.922195], [-7.5347975, 37.9221627], [-7.5345232, 37.9221382], [-7.5342368, 37.9221187], [-7.5285373, 37.9218735], [-7.5209156, 37.9215562], [-7.5203461, 37.9215549], [-7.5198261, 37.9215688], [-7.5193983, 37.9215903], [-7.5189306, 37.9216191], [-7.5134687, 37.9221474], [-7.5086231, 37.922635], [-7.5075067, 37.9227473], [-7.5073929, 37.9227588], [-7.5010229, 37.9234003], [-7.5008005, 37.923421], [-7.5005171, 37.9234486], [-7.5003761, 37.9234573], [-7.5002165, 37.9234655], [-7.4999855, 37.92347], [-7.4997817, 37.9234689], [-7.4995397, 37.9234594], [-7.4993032, 37.9234408], [-7.499086, 37.9234194], [-7.4988453, 37.9233893], [-7.4973338, 37.9231609], [-7.4936985, 37.9226025], [-7.4932733, 37.9225218], [-7.4928767, 37.9224362], [-7.4921107, 37.9222653], [-7.490521, 37.921895], [-7.4894692, 37.9216608], [-7.4879931, 37.9212751], [-7.4874008, 37.9210909], [-7.4867608, 37.9208856], [-7.4856604, 37.9205137], [-7.4833298, 37.9197244], [-7.4827617, 37.9195376]]}, "properties": {"highway": "primary", "lanes": "2", "maxspeed": "90", "ref": "IP 8;EN 260", "surface": "asphalt"}}, {"type": "Feature", "geometry": {"type": "LineString", "coordinates": [[-7.4741246, 37.9195395], [-7.4740497, 37.9195768]]}, "properties": {"highway": "primary", "lanes": "2", "maxspeed": "90", "ref": "IP 8;EN 260", "surface": "asphalt"}}, {"type": "Feature", "geometry": {"type": "LineString", "coordinates": [[-7.4740497, 37.9195768], [-7.4735949, 37.9198261], [-7.4735737, 37.9198376], [-7.473502, 37.9198802], [-7.473076, 37.9201116], [-7.472256, 37.9205483], [-7.4720637, 37.9206352], [-7.4719257, 37.9206882], [-7.4717979, 37.9207353]]}, "properties": {"highway": "primary", "lanes": "2", "maxspeed": "50", "ref": "IP 8;EN 260", "surface": "asphalt"}}, {"type": "Feature", "geometry": {"type": "LineString", "coordinates": [[-7.4827617, 37.9195376], [-7.4822451, 37.9193744], [-7.4820681, 37.9193224], [-7.481868, 37.919269], [-7.4817316, 37.9192407], [-7.4814919, 37.9191928], [-7.4812427, 37.9191497], [-7.4807942, 37.919081], [-7.4804994, 37.9190558], [-7.4799704, 37.9190351], [-7.479388, 37.9190325], [-7.4765628, 37.9190844], [-7.4753405, 37.9191167], [-7.4751238, 37.9191399], [-7.4749384, 37.9191752], [-7.4747938, 37.9192147], [-7.474681, 37.9192572], [-7.4745211, 37.9193275], [-7.4743813, 37.9193994], [-7.4741246, 37.9195395]]}, "properties": {"highway": "primary", "lanes": "2", "maxspeed": "50", "ref": "IP 8;EN 260", "surface": "asphalt"}}, {"type": "Feature", "geometry": {"type": "LineString", "coordinates": [[-7.2937877, 37.9512228], [-7.2917738, 37.9517628]]}, "properties": {"highway": "primary", "lanes": "2", "maxspeed": "50", "postal_code": "7830-644", "ref": "IP 8;EN 260", "surface": "asphalt"}}, {"type": "Feature", "geometry": {"type": "LineString", "coordinates": [[-7.3069705, 37.9480849], [-7.3051751, 37.9488785]]}, "properties": {"highway": "primary", "lanes": "2", "maxspeed": "70", "postal_code": "7830-644", "ref": "IP 8;EN 260", "surface": "asphalt"}}, {"type": "Feature", "geometry": {"type": "LineString", "coordinates": [[-7.3051751, 37.9488785], [-7.3048682, 37.9490083], [-7.3045828, 37.9491192], [-7.3044234, 37.9491686], [-7.3042547, 37.9492162], [-7.3040954, 37.9492584], [-7.3039338, 37.9492967], [-7.3037148, 37.9493431], [-7.3034952, 37.949388], [-7.3033318, 37.9494178], [-7.3031722, 37.9494446], [-7.3030544, 37.9494642], [-7.3029479, 37.9494787], [-7.3028576, 37.9494885], [-7.3027409, 37.9494984], [-7.30258, 37.949512], [-7.3022673, 37.9495313], [-7.3017047, 37.949565], [-7.3011252, 37.9495945], [-7.3004964, 37.9496321], [-7.300036, 37.9496713], [-7.2997249, 37.9497108], [-7.2994316, 37.9497553], [-7.2990998, 37.9498061], [-7.2988875, 37.9498531], [-7.2985673, 37.949924], [-7.2937877, 37.9512228]]}, "properties": {"highway": "primary", "lanes": "2", "maxspeed": "50", "name": "Estrada Nacional 260", "postal_code": "7830-644", "ref": "IP 8;EN 260", "surface": "asphalt"}}]}