{"type": "FeatureCollection", "features": [{"type": "Feature", "geometry": {"type": "LineString", "coordinates": [[-6.9149146, 40.3901652], [-6.9148127, 40.3900232], [-6.9146007, 40.3898018], [-6.9145563, 40.3897794], [-6.9143674, 40.3896729], [-6.9140496, 40.389584], [-6.9136298, 40.3895615], [-6.9133938, 40.3895615], [-6.9131309, 40.3895615], [-6.9128617, 40.3895603], [-6.9127769, 40.3895594], [-6.9124443, 40.3895574], [-6.9122404, 40.3895366], [-6.9120527, 40.3894716], [-6.9119137, 40.3893955], [-6.9117955, 40.3893308], [-6.9117094, 40.3892837], [-6.9115979, 40.3892232], [-6.9112938, 40.389065], [-6.9112249, 40.3890288], [-6.9110006, 40.3888999], [-6.9107532, 40.3887668], [-6.9106622, 40.3887202], [-6.9103728, 40.3885616], [-6.9099499, 40.3883245], [-6.9082966, 40.3871956], [-6.9081045, 40.3870855], [-6.9074725, 40.3866819], [-6.9073092, 40.3866067], [-6.9071281, 40.3865502], [-6.9069757, 40.3865183], [-6.9068437, 40.3864975], [-6.9065932, 40.3864743], [-6.9043065, 40.3864971], [-6.9038177, 40.3865045], [-6.9033634, 40.3865114], [-6.9029999, 40.3865169], [-6.9026864, 40.3865216], [-6.9025614, 40.3865248], [-6.9020534, 40.3865379], [-6.901415, 40.3866605], [-6.9009631, 40.3868162], [-6.9004886, 40.3870736], [-6.8964835, 40.390252], [-6.894344, 40.3919459], [-6.8941374, 40.3921094], [-6.8933485, 40.3927339], [-6.8890243, 40.3961572], [-6.8866786, 40.3981659], [-6.8862302, 40.3985269], [-6.8839528, 40.4000137], [-6.8806732, 40.40451], [-6.8796929, 40.4053238]]}, "properties": {"highway": "primary", "ref": "EN 233-3"}}, {"type": "Feature", "geometry": {"type": "LineString", "coordinates": [[-7.0919987, 40.3539002], [-7.0924893, 40.3543459], [-7.0925288, 40.3543818]]}, "properties": {"bridge": "yes", "highway": "primary", "layer": "1", "name": "Rua da Ponte Rainha Santa Isabel", "postal_code": "6320-343", "ref": "EN 233-3", "surface": "asphalt"}}, {"type": "Feature", "geometry": {"type": "LineString", "coordinates": [[-7.0925288, 40.3543818], [-7.0925708, 40.354411], [-7.0926062, 40.3544333], [-7.0927038, 40.354478], [-7.0928445, 40.3545315], [-7.0932593, 40.354668], [-7.0933751, 40.3547011], [-7.0937835, 40.354818]]}, "properties": {"highway": "primary", "name": "Rua da Ponte Rainha Santa Isabel", "postal_code": "6320-343", "ref": "EN 233-3", "surface": "asphalt"}}, {"type": "Feature", "geometry": {"type": "LineString", "coordinates": [[-7.0917695, 40.3537954], [-7.0919987, 40.3539002]]}, "properties": {"highway": "primary", "oneway": "yes", "ref": "EN 233-3", "surface": "asphalt"}}, {"type": "Feature", "geometry": {"type": "LineString", "coordinates": [[-7.0755388, 40.354519], [-7.07522, 40.354678], [-7.0747281, 40.3549381], [-7.0746024, 40.3549892], [-7.0739052, 40.3551311], [-7.073118, 40.3555256], [-7.0725389, 40.3558159], [-7.0724132, 40.3558789], [-7.0712597, 40.3568214], [-7.0688325, 40.3575808], [-7.068565, 40.3576812], [-7.0684293, 40.3577846], [-7.0681966, 40.3583519], [-7.0682005, 40.3590728], [-7.0681094, 40.3592737], [-7.0677217, 40.3597701], [-7.0676558, 40.3599355], [-7.0676868, 40.3602989], [-7.0675976, 40.3605619], [-7.0671788, 40.3610937], [-7.0669733, 40.3612089], [-7.066004, 40.3614955], [-7.063856, 40.36289], [-7.0634164, 40.3631147], [-7.0629757, 40.3632998], [-7.0626718, 40.3634774], [-7.0623622, 40.3636757], [-7.0619513, 40.3637713], [-7.061556, 40.3637756], [-7.0609924, 40.3635588], [-7.0604946, 40.3633959], [-7.0601341, 40.3633354], [-7.0596382, 40.3634868], [-7.0592002, 40.3636726], [-7.0587146, 40.3641101], [-7.0583332, 40.3643074], [-7.0581781, 40.3643876], [-7.0579385, 40.3645115], [-7.057249, 40.36489], [-7.0569815, 40.3650821], [-7.0568101, 40.3652667], [-7.0567449, 40.3654248], [-7.0567331, 40.3657238], [-7.0573382, 40.3669491], [-7.0575437, 40.3682785], [-7.0575243, 40.3684971], [-7.057249, 40.3688989], [-7.056789, 40.3693729], [-7.0563688, 40.3698058], [-7.0550987, 40.3709341], [-7.0542906, 40.371652], [-7.0539843, 40.3729281], [-7.0537594, 40.3735987], [-7.0536702, 40.3744317], [-7.0533949, 40.3749929], [-7.0532243, 40.3751672], [-7.0525836, 40.3755784], [-7.0515997, 40.3762099], [-7.0515296, 40.3762288], [-7.0514136, 40.3762601], [-7.0512314, 40.3762483], [-7.050642, 40.3760061], [-7.0504249, 40.3759913], [-7.050262, 40.3760385], [-7.0498743, 40.3763162], [-7.0496378, 40.3765584], [-7.0490213, 40.3773677], [-7.0488042, 40.3775745], [-7.0485289, 40.3777517], [-7.0479667, 40.3780087], [-7.0474324, 40.3784227], [-7.0472881, 40.3785345], [-7.0471559, 40.3786148], [-7.0466809, 40.378922], [-7.04608, 40.3790533], [-7.0454343, 40.379235], [-7.0451052, 40.3793231], [-7.0445895, 40.3795712], [-7.0438665, 40.3796645], [-7.0431626, 40.3797307], [-7.042077, 40.3799552], [-7.0409022, 40.3800733], [-7.0406172, 40.3800703], [-7.0398068, 40.3798665], [-7.0394423, 40.379837], [-7.0386172, 40.380021], [-7.0385237, 40.3799902], [-7.0376433, 40.3799522], [-7.0374106, 40.3800083], [-7.0368988, 40.3803066], [-7.0366352, 40.3803628], [-7.0360613, 40.3803185], [-7.0354215, 40.3804071], [-7.0348089, 40.3806758], [-7.0342235, 40.381045], [-7.0338746, 40.3811663], [-7.0334247, 40.3813227], [-7.0325329, 40.3815278], [-7.0321917, 40.3816062], [-7.0307571, 40.3818218], [-7.0299855, 40.3818454], [-7.0295939, 40.38181], [-7.0289429, 40.3815955], [-7.0279115, 40.381055], [-7.0276653, 40.3809857], [-7.0276617, 40.3809847], [-7.0274462, 40.380996], [-7.0271864, 40.3810491]]}, "properties": {"highway": "primary", "ref": "EN 233-3"}}, {"type": "Feature", "geometry": {"type": "LineString", "coordinates": [[-7.0270174, 40.3811087], [-7.0257208, 40.381566], [-7.0239707, 40.3818436], [-7.023691, 40.3818879], [-7.0235932, 40.3819222], [-7.0234043, 40.3819885], [-7.022807, 40.382198], [-7.0181328, 40.3840469], [-7.0176792, 40.3841739], [-7.017562, 40.3841642], [-7.0142206, 40.3838874], [-7.0135421, 40.3837457], [-7.0133017, 40.38366], [-7.0129256, 40.3834178], [-7.0122199, 40.382517], [-7.0119989, 40.3823782], [-7.0113669, 40.3822719], [-7.0113347, 40.3822698], [-7.0106031, 40.3822217], [-7.0102464, 40.3822305], [-7.0100137, 40.3822837], [-7.0098065, 40.3823544], [-7.009087, 40.3825997], [-7.0079666, 40.3830082], [-7.0069197, 40.3834867], [-7.0066195, 40.3834959], [-7.0062928, 40.3834442], [-7.0055394, 40.3829728], [-7.0053843, 40.3829049], [-7.005307, 40.3828833], [-7.0052215, 40.382893], [-7.0047866, 40.3831077], [-7.0046089, 40.3831704], [-7.0043878, 40.3832179], [-7.0037485, 40.3832293], [-7.0033092, 40.3833433], [-7.0031083, 40.3833892], [-7.002612, 40.3833951], [-7.0021408, 40.3833525], [-7.0011406, 40.3832622], [-7.0008847, 40.3832711], [-6.998416, 40.3837355], [-6.9976665, 40.3838765], [-6.9963947, 40.3836934], [-6.9955184, 40.3835074], [-6.9940683, 40.3834453], [-6.9938202, 40.3835162], [-6.993572, 40.383655], [-6.991013, 40.38543], [-6.9908307, 40.3855098], [-6.9903984, 40.3855688], [-6.9890258, 40.3856604], [-6.9887195, 40.3857224], [-6.9865133, 40.3868093], [-6.9851563, 40.3878902], [-6.9849314, 40.3881441], [-6.9845669, 40.388785], [-6.9843808, 40.388977], [-6.9835627, 40.389541], [-6.9832061, 40.389942], [-6.9825701, 40.3906573], [-6.9823103, 40.3908552], [-6.9819768, 40.3909999], [-6.9810851, 40.3912214], [-6.9792419, 40.3919679], [-6.9788348, 40.3921687], [-6.9779004, 40.3928597], [-6.9770661, 40.3933294], [-6.9764386, 40.3936806], [-6.9760819, 40.3938224], [-6.9743022, 40.3943569], [-6.9736985, 40.3946712], [-6.9733755, 40.3948175], [-6.9727461, 40.3951925], [-6.9725382, 40.3952495], [-6.9724876, 40.3952634], [-6.9705078, 40.3954425], [-6.9695176, 40.3955321], [-6.9691266, 40.3955205], [-6.9612705, 40.395287], [-6.9608784, 40.3953079], [-6.9585199, 40.3954338], [-6.9542409, 40.3956621], [-6.9518525, 40.3956148], [-6.9494252, 40.3956473], [-6.9486692, 40.3955676], [-6.9468961, 40.3950527], [-6.9458116, 40.3947555], [-6.9450361, 40.394661], [-6.9424614, 40.3945778], [-6.9411045, 40.394534], [-6.9379212, 40.3942033], [-6.9364129, 40.3942771], [-6.936126, 40.3942565], [-6.9347138, 40.3939267], [-6.9341246, 40.393789], [-6.9335592, 40.393657], [-6.933156, 40.3936393], [-6.9316903, 40.3937279], [-6.9312801, 40.3937356], [-6.931165, 40.3937182], [-6.9310704, 40.3937039], [-6.9306964, 40.393609], [-6.9284646, 40.3929876], [-6.9279914, 40.3928558], [-6.925884, 40.3922691], [-6.9243641, 40.3917729], [-6.9218671, 40.391389], [-6.9215026, 40.3913684], [-6.9208163, 40.3914806], [-6.9203439, 40.3916559], [-6.919967, 40.3917957], [-6.9199554, 40.3918], [-6.9183369, 40.3924004]]}, "properties": {"highway": "primary", "ref": "EN 233-3"}}, {"type": "Feature", "geometry": {"type": "LineString", "coordinates": [[-7.0271864, 40.3810491], [-7.0270174, 40.3811087]]}, "properties": {"bridge": "yes", "highway": "primary", "layer": "1", "ref": "EN 233-3"}}, {"type": "Feature", "geometry": {"type": "LineString", "coordinates": [[-7.0937835, 40.354818], [-7.093932, 40.3548936], [-7.0940048, 40.3549287], [-7.0940986, 40.354974]]}, "properties": {"highway": "primary", "oneway": "yes", "ref": "EN 233-3", "surface": "asphalt"}}, {"type": "Feature", "geometry": {"type": "LineString", "coordinates": [[-7.094153, 40.3548033], [-7.0939592, 40.3548097], [-7.0937835, 40.354818]]}, "properties": {"highway": "primary", "oneway": "yes", "ref": "EN 233-3", "surface": "asphalt"}}, {"type": "Feature", "geometry": {"type": "LineString", "coordinates": [[-7.091562, 40.3535517], [-7.0912696, 40.3535796]]}, "properties": {"highway": "primary", "name": "Avenida Infante Dom Henrique", "oneway": "yes", "ref": "EN 233-3", "surface": "asphalt"}}, {"type": "Feature", "geometry": {"type": "LineString", "coordinates": [[-7.0854263, 40.3514852], [-7.0852198, 40.3514566], [-7.0849102, 40.3514447], [-7.0846834, 40.3514482], [-7.0845017, 40.3514921], [-7.0843818, 40.3515447], [-7.0843265, 40.351569], [-7.0826379, 40.352736], [-7.0824672, 40.3528313], [-7.0823129, 40.3529041], [-7.0820069, 40.352981], [-7.0817488, 40.353025], [-7.0805533, 40.353229], [-7.0801841, 40.3532688], [-7.0799216, 40.3532866], [-7.079664, 40.353304], [-7.0796406, 40.3533056], [-7.0792211, 40.353334], [-7.0787628, 40.3533651], [-7.0783158, 40.3533953], [-7.0779516, 40.3534566], [-7.077586, 40.3535386], [-7.0774527, 40.3535831], [-7.0773733, 40.3536096], [-7.0771402, 40.3537203], [-7.0757983, 40.3543878], [-7.0755388, 40.354519]]}, "properties": {"highway": "primary", "name": "Rua do Emigrante", "oneway": "no", "ref": "EN 233-3", "surface": "asphalt"}}, {"type": "Feature", "geometry": {"type": "LineString", "coordinates": [[-7.0919987, 40.3539002], [-7.0919398, 40.3537624], [-7.0919165, 40.353706]]}, "properties": {"highway": "primary", "oneway": "yes", "ref": "EN 233-3", "surface": "asphalt"}}, {"type": "Feature", "geometry": {"type": "LineString", "coordinates": [[-7.0912696, 40.3535796], [-7.0914735, 40.3536564], [-7.0915294, 40.3536769]]}, "properties": {"highway": "primary", "name": "Avenida Infante Dom Henrique", "oneway": "yes", "ref": "EN 233-3", "surface": "asphalt"}}, {"type": "Feature", "geometry": {"type": "LineString", "coordinates": [[-7.0912696, 40.3535796], [-7.0906495, 40.3535034], [-7.0901912, 40.3533759], [-7.0898011, 40.3532211]]}, "properties": {"highway": "primary", "name": "Avenida Infante Dom Henrique", "oneway": "no", "ref": "EN 233-3", "surface": "asphalt"}}, {"type": "Feature", "geometry": {"type": "LineString", "coordinates": [[-7.0883234, 40.3526348], [-7.0874518, 40.352289], [-7.0873382, 40.3522439], [-7.0866857, 40.351985], [-7.0856005, 40.3515544], [-7.0854263, 40.3514852]]}, "properties": {"highway": "primary", "name": "Avenida Infante Dom Henrique", "oneway": "no", "ref": "EN 233-3", "surface": "asphalt"}}, {"type": "Feature", "geometry": {"type": "LineString", "coordinates": [[-6.8791633, 40.4057485], [-6.8787491, 40.406083], [-6.8780916, 40.4064852], [-6.8773299, 40.4069315], [-6.8768938, 40.4074163], [-6.8758223, 40.4086276], [-6.8743223, 40.4103232], [-6.8741032, 40.4105759], [-6.8740361, 40.4106533], [-6.8737681, 40.4109623], [-6.8737326, 40.4110033]]}, "properties": {"highway": "primary", "ref": "EN 233-3"}}, {"type": "Feature", "geometry": {"type": "LineString", "coordinates": [[-6.8737326, 40.4110033], [-6.8735388, 40.4112268]]}, "properties": {"bridge": "yes", "highway": "primary", "layer": "1", "ref": "EN 233-3"}}, {"type": "Feature", "geometry": {"type": "LineString", "coordinates": [[-6.872292, 40.4126483], [-6.871899, 40.4131006], [-6.8713879, 40.4136888], [-6.8705652, 40.4146293], [-6.8702199, 40.4151654]]}, "properties": {"highway": "primary", "ref": "EN 233-3"}}, {"type": "Feature", "geometry": {"type": "LineString", "coordinates": [[-6.9183369, 40.3924004], [-6.9180824, 40.3924948]]}, "properties": {"bridge": "yes", "highway": "primary", "layer": "1", "ref": "EN 233-3"}}, {"type": "Feature", "geometry": {"type": "LineString", "coordinates": [[-6.9180824, 40.3924948], [-6.9178948, 40.3925644], [-6.9176001, 40.3926293], [-6.9175547, 40.3926327], [-6.9174457, 40.392641], [-6.917193, 40.3926028], [-6.9170185, 40.3925201], [-6.915843, 40.3914015], [-6.9157, 40.3912562], [-6.9155696, 40.3911041], [-6.9154521, 40.390946], [-6.9149146, 40.3901652]]}, "properties": {"highway": "primary", "ref": "EN 233-3"}}, {"type": "Feature", "geometry": {"type": "LineString", "coordinates": [[-7.0898011, 40.3532211], [-7.0886448, 40.3527623], [-7.0884086, 40.3526686], [-7.0883234, 40.3526348]]}, "properties": {"highway": "primary", "name": "Avenida Infante Dom Henrique", "oneway": "no", "ref": "EN 233-3", "surface": "asphalt"}}, {"type": "Feature", "geometry": {"type": "LineString", "coordinates": [[-6.8735388, 40.4112268], [-6.8729473, 40.411909], [-6.872292, 40.4126483]]}, "properties": {"highway": "primary", "ref": "EN 233-3"}}]}