{"type": "FeatureCollection", "features": [{"type": "Feature", "geometry": {"type": "LineString", "coordinates": [[-8.0708733, 40.6507477], [-8.0710587, 40.6505759], [-8.0714501, 40.6500869]]}, "properties": {"highway": "primary", "lanes": "2", "ref": "EN 228", "source": "Bing", "surface": "asphalt"}}, {"type": "Feature", "geometry": {"type": "LineString", "coordinates": [[-8.0703772, 40.6512797], [-8.0704569, 40.6512732], [-8.0705304, 40.651249], [-8.0705921, 40.6512081], [-8.0706343, 40.6511548], [-8.070653, 40.6510943], [-8.0706464, 40.6510324], [-8.0706139, 40.6509733], [-8.0705584, 40.650925], [-8.0704857, 40.6508924], [-8.0704258, 40.6508806], [-8.0703639, 40.6508796], [-8.0703033, 40.6508895], [-8.0702392, 40.6509141], [-8.0701861, 40.6509509], [-8.070148, 40.6509971], [-8.0701278, 40.6510494], [-8.0701276, 40.6511079], [-8.0701495, 40.6511639], [-8.070183, 40.6512048], [-8.0702284, 40.6512385], [-8.0702987, 40.6512678], [-8.0703772, 40.6512797]]}, "properties": {"highway": "primary", "junction": "roundabout", "lanes": "2", "ref": "EN 228", "source": "Bing", "surface": "asphalt"}}, {"type": "Feature", "geometry": {"type": "LineString", "coordinates": [[-8.0714501, 40.6500869], [-8.0716022, 40.6499375], [-8.0721734, 40.6492335], [-8.0724581, 40.6488614], [-8.072526, 40.6487305]]}, "properties": {"highway": "primary", "lanes": "1", "oneway": "yes", "ref": "EN 228", "source": "Bing", "surface": "asphalt"}}, {"type": "Feature", "geometry": {"type": "LineString", "coordinates": [[-8.0702284, 40.6512385], [-8.0702837, 40.6513519], [-8.0702869, 40.6514285], [-8.0702632, 40.6515859]]}, "properties": {"highway": "primary", "lanes": "1", "oneway": "yes", "ref": "EN 228", "surface": "asphalt"}}, {"type": "Feature", "geometry": {"type": "LineString", "coordinates": [[-8.0708733, 40.6507477], [-8.0707061, 40.6508364], [-8.0705838, 40.6508743], [-8.0704857, 40.6508924]]}, "properties": {"highway": "primary", "lanes": "1", "oneway": "yes", "ref": "EN 228", "surface": "asphalt"}}, {"type": "Feature", "geometry": {"type": "LineString", "coordinates": [[-8.0706464, 40.6510324], [-8.0707319, 40.6508964], [-8.0708733, 40.6507477]]}, "properties": {"highway": "primary", "lanes": "1", "oneway": "yes", "ref": "EN 228", "source": "Bing", "surface": "asphalt"}}, {"type": "Feature", "geometry": {"type": "LineString", "coordinates": [[-8.072526, 40.6487305], [-8.0724069, 40.6488439], [-8.0720692, 40.6492659], [-8.0718128, 40.6495879], [-8.07155, 40.6499081], [-8.0714501, 40.6500869]]}, "properties": {"highway": "primary", "lanes": "1", "oneway": "yes", "ref": "EN 228", "surface": "asphalt"}}, {"type": "Feature", "geometry": {"type": "LineString", "coordinates": [[-8.0702632, 40.6515859], [-8.0703524, 40.6514946], [-8.0704287, 40.6513584], [-8.0705304, 40.651249]]}, "properties": {"highway": "primary", "lanes": "1", "oneway": "yes", "ref": "EN 228", "surface": "asphalt"}}, {"type": "Feature", "geometry": {"type": "LineString", "coordinates": [[-8.0700006, 40.6879942], [-8.0702932, 40.6884154], [-8.0703163, 40.688465], [-8.0703812, 40.688604], [-8.0704221, 40.6887743], [-8.0704312, 40.6889641], [-8.0703979, 40.6891723], [-8.0703296, 40.689361], [-8.069926, 40.6901536], [-8.0698456, 40.6904332], [-8.069457, 40.6956591], [-8.0694025, 40.6960372], [-8.0693556, 40.6962233], [-8.0692162, 40.6967765], [-8.0690828, 40.6973061], [-8.0690532, 40.6975531], [-8.0690236, 40.6983115], [-8.0690071, 40.6984597], [-8.0689856, 40.6986517], [-8.0689084, 40.6992439], [-8.0689099, 40.699444], [-8.0689511, 40.6996569], [-8.0692112, 40.7006317], [-8.069282, 40.7007691], [-8.0695882, 40.7011854], [-8.0696354, 40.7012871], [-8.0696547, 40.7013831], [-8.0696419, 40.7015124], [-8.0694992, 40.7019418], [-8.0694874, 40.7020866], [-8.0695131, 40.7021955], [-8.0695947, 40.7023118], [-8.0696848, 40.7023834], [-8.0701364, 40.7026697], [-8.0702244, 40.7027901], [-8.0702737, 40.7028885], [-8.0703005, 40.7029926], [-8.070307, 40.7033626], [-8.0703381, 40.7034781], [-8.0704025, 40.7035993], [-8.0704936, 40.7037025], [-8.070749, 40.7039482], [-8.0708166, 40.7040742], [-8.0708466, 40.7041718], [-8.0708487, 40.7042572], [-8.0708187, 40.7043434], [-8.0707297, 40.7044768], [-8.0702217, 40.7049594], [-8.0701367, 40.7050825], [-8.0700768, 40.7051981], [-8.0700374, 40.7053608], [-8.0700396, 40.7055431], [-8.0700557, 40.7056066], [-8.0700768, 40.7056903], [-8.0701701, 40.7058646], [-8.0702634, 40.7059761], [-8.0704106, 40.7060963], [-8.0709203, 40.7064279], [-8.0710235, 40.7065314], [-8.0710857, 40.706651], [-8.071116, 40.7068074], [-8.0711054, 40.7075768], [-8.0711327, 40.7077344], [-8.0711881, 40.7078667], [-8.0718887, 40.7087985], [-8.0719691, 40.708948], [-8.0719949, 40.7090573], [-8.0719904, 40.7091723], [-8.0718462, 40.7095771], [-8.0717613, 40.7097128], [-8.0716596, 40.7098117], [-8.0710391, 40.710236], [-8.0709086, 40.7103648], [-8.0708267, 40.7104982], [-8.0706568, 40.710972], [-8.0706416, 40.7111124], [-8.0706689, 40.7112366], [-8.0707235, 40.711332], [-8.0708222, 40.7114091], [-8.0709921, 40.7114838], [-8.071913, 40.7117253], [-8.072045, 40.7118012], [-8.0721648, 40.7119036], [-8.0722179, 40.7120094], [-8.0724342, 40.7131399], [-8.0724281, 40.7132837], [-8.072054, 40.7145027], [-8.0720218, 40.7146604], [-8.0720164, 40.7148475], [-8.0721808, 40.7161238], [-8.0722443, 40.7166171], [-8.0722829, 40.7167472], [-8.0723215, 40.7168093]]}, "properties": {"highway": "primary", "ref": "EN 228", "source": "Bing"}}, {"type": "Feature", "geometry": {"type": "LineString", "coordinates": [[-8.1070514, 40.7229216], [-8.1069221, 40.722861], [-8.1068173, 40.7227874], [-8.1064118, 40.722397], [-8.1062117, 40.7222833], [-8.1059947, 40.7222354], [-8.1057616, 40.7222557], [-8.1055206, 40.7223487], [-8.1046203, 40.7228519], [-8.104545, 40.7229306], [-8.1045066, 40.723], [-8.1043128, 40.7235418], [-8.1042611, 40.7236479], [-8.104186, 40.7237404], [-8.1035959, 40.7242737], [-8.1035063, 40.7243474], [-8.1033993, 40.724394], [-8.1032562, 40.7244163], [-8.1029225, 40.7244228], [-8.102606, 40.7244439], [-8.1018557, 40.7245714], [-8.1016263, 40.7245875], [-8.1013828, 40.7245818], [-8.1002438, 40.7243371], [-8.0997209, 40.7243095], [-8.0992844, 40.7243509], [-8.097713, 40.7248205], [-8.097117, 40.7249431]]}, "properties": {"highway": "primary", "ref": "EN 228", "source": "Bing"}}, {"type": "Feature", "geometry": {"type": "LineString", "coordinates": [[-8.1363109, 40.5468574], [-8.136277, 40.5469598], [-8.1361595, 40.5471168], [-8.136009, 40.5472328], [-8.1346948, 40.5480236], [-8.133352, 40.5487978], [-8.1331971, 40.5489337], [-8.133076, 40.549073], [-8.1329684, 40.5492645], [-8.1325769, 40.5502055], [-8.1322927, 40.5510124], [-8.1322688, 40.5512282]]}, "properties": {"highway": "primary", "lanes": "2", "ref": "EN 228", "source": "Bing", "surface": "asphalt"}}, {"type": "Feature", "geometry": {"type": "LineString", "coordinates": [[-8.2239302, 40.4026756], [-8.223761, 40.4030034], [-8.223401, 40.4036709], [-8.2233251, 40.4038417], [-8.2232787, 40.404017], [-8.2232745, 40.4041193], [-8.2231526, 40.4057651], [-8.2230738, 40.4068222], [-8.2231244, 40.4080239], [-8.2231275, 40.4080966], [-8.2231552, 40.4082321], [-8.2232133, 40.4083662], [-8.2236751, 40.4089117], [-8.2244364, 40.4097959], [-8.2247904, 40.4103024], [-8.2255329, 40.4111196], [-8.2259133, 40.4115445], [-8.2259579, 40.4116127], [-8.226325, 40.4123312], [-8.2264004, 40.4125945], [-8.2266027, 40.4134681], [-8.2266592, 40.4135815], [-8.226758, 40.4137499], [-8.2268718, 40.4138967], [-8.2270929, 40.4141644], [-8.2274644, 40.4146084], [-8.2280351, 40.4157467], [-8.22817, 40.4159388], [-8.2285254, 40.4164013], [-8.2295074, 40.4176414], [-8.2296469, 40.4178482], [-8.2308307, 40.420354], [-8.2308509, 40.4204537], [-8.2308623, 40.4205399], [-8.2306966, 40.4226367], [-8.2306569, 40.4230486], [-8.2305317, 40.4237021], [-8.2304077, 40.4241352], [-8.2303033, 40.4244999], [-8.2302314, 40.4247513], [-8.2300797, 40.4252829], [-8.2300602, 40.425385], [-8.2300072, 40.4256625], [-8.2299597, 40.4259111], [-8.2299063, 40.4261904], [-8.2298059, 40.426716], [-8.2295648, 40.4279781], [-8.2295137, 40.428207], [-8.2294183, 40.4284359], [-8.229285, 40.4286722], [-8.2287728, 40.4295803], [-8.22856, 40.430014], [-8.228437, 40.4303688], [-8.2283846, 40.4305588], [-8.227911, 40.4329155], [-8.2278491, 40.4332249], [-8.2278053, 40.433458], [-8.2277865, 40.4336376], [-8.2278132, 40.4338398], [-8.2279097, 40.4341729], [-8.228223, 40.4351358], [-8.2282933, 40.4352588], [-8.2282479, 40.4353513], [-8.2281861, 40.435456], [-8.2280868, 40.4355608], [-8.2273643, 40.4361579], [-8.2270399, 40.43638], [-8.2269184, 40.436463], [-8.2264165, 40.4367907]]}, "properties": {"highway": "primary", "ref": "EN 228", "source": "Bing"}}, {"type": "Feature", "geometry": {"type": "LineString", "coordinates": [[-8.2120297, 40.3977775], [-8.2119072, 40.3976749], [-8.2111862, 40.39707]]}, "properties": {"highway": "primary", "lanes": "2", "maxspeed": "70", "maxspeed:type": "sign", "ref": "EN 228", "surface": "asphalt"}}, {"type": "Feature", "geometry": {"type": "LineString", "coordinates": [[-8.1094089, 40.7208916], [-8.1092512, 40.7208916], [-8.1090754, 40.7208916], [-8.1087658, 40.7209747], [-8.1085419, 40.721101], [-8.1084371, 40.7212225], [-8.1083799, 40.7212888], [-8.108356, 40.7213354], [-8.1082432, 40.7215549], [-8.1082276, 40.7216001], [-8.1081782, 40.7217431], [-8.1080895, 40.7220164], [-8.1078944, 40.7225898], [-8.1078176, 40.7227466], [-8.1076846, 40.7228608], [-8.1075398, 40.7229303]]}, "properties": {"highway": "primary", "name": "Avenida Jo\u00e3o Ramalho", "ref": "EN 228", "source": "Bing", "surface": "paved"}}, {"type": "Feature", "geometry": {"type": "LineString", "coordinates": [[-8.0572676, 40.7615137], [-8.0572932, 40.7613841], [-8.0573638, 40.7612147], [-8.0574462, 40.7609427], [-8.0574918, 40.7606652], [-8.0575831, 40.7595632], [-8.0576171, 40.7594967], [-8.0576542, 40.7594654]]}, "properties": {"highway": "primary", "lanes": "1", "oneway": "yes", "ref": "EN 228", "source": "Bing", "surface": "asphalt"}}, {"type": "Feature", "geometry": {"type": "LineString", "coordinates": [[-8.2018687, 40.3508783], [-8.2020471, 40.350819], [-8.2022422, 40.3507317]]}, "properties": {"highway": "primary", "lanes": "1", "oneway": "yes", "ref": "EN 228", "source": "Bing"}}, {"type": "Feature", "geometry": {"type": "LineString", "coordinates": [[-8.2027174, 40.3505566], [-8.2024617, 40.3505832], [-8.2022011, 40.3506479], [-8.201992, 40.3507376], [-8.2018687, 40.3508783]]}, "properties": {"destination": "Coimbra;Mort\u00e1gua;Laborat\u00f3rio Basi;FHC Farmac\u00eautica", "highway": "primary", "lanes": "1", "oneway": "yes", "ref": "EN 228", "source": "Bing"}}, {"type": "Feature", "geometry": {"type": "LineString", "coordinates": [[-8.2229727, 40.4407921], [-8.2228084, 40.4408024], [-8.2226423, 40.4408734], [-8.2224852, 40.4410353], [-8.2224174, 40.4411367], [-8.2223979, 40.441238], [-8.2223858, 40.4413255], [-8.2223989, 40.441519], [-8.222559, 40.4434826], [-8.2225508, 40.4436631], [-8.2224851, 40.4438498], [-8.2224382, 40.443955], [-8.2223496, 40.4440795], [-8.2222262, 40.4442122], [-8.2219795, 40.4443918], [-8.2215289, 40.4445878], [-8.2212821, 40.4447511], [-8.2211324, 40.4448872], [-8.2210646, 40.4449985], [-8.2210236, 40.4451262], [-8.2210086, 40.4452389], [-8.2210249, 40.4454186], [-8.2210375, 40.4456278], [-8.2210461, 40.4457574], [-8.2210452, 40.4458305], [-8.2210556, 40.4459466], [-8.2210601, 40.4461214], [-8.2210312, 40.4462263], [-8.220983, 40.4463933], [-8.2208208, 40.4466208], [-8.220625, 40.4468208], [-8.2204452, 40.4470617], [-8.2203446, 40.4472857], [-8.2201958, 40.447918], [-8.2199196, 40.4486395], [-8.2194475, 40.4496254], [-8.2193764, 40.4497759], [-8.2192839, 40.4499265], [-8.2191591, 40.4500668], [-8.2190237, 40.4501949], [-8.2189544, 40.4502432], [-8.2179669, 40.4509317], [-8.217527, 40.4512419], [-8.2173339, 40.4513583], [-8.2171622, 40.4514297], [-8.2160089, 40.4518441], [-8.215797, 40.4519665], [-8.2156495, 40.4521237], [-8.2154134, 40.4523033], [-8.2152337, 40.4523747], [-8.2150486, 40.4524176], [-8.2137478, 40.4523992], [-8.2127473, 40.4525931], [-8.2123128, 40.4526747], [-8.2121491, 40.4527217], [-8.2119909, 40.4527931], [-8.2118915, 40.4528356], [-8.2117277, 40.4529435], [-8.2115767, 40.4530845], [-8.2114545, 40.4532748], [-8.2112935, 40.4535924], [-8.2110352, 40.4540743], [-8.2107555, 40.4544695], [-8.2106609, 40.4546032], [-8.2103227, 40.4550517], [-8.2099741, 40.4554535], [-8.2097028, 40.4557068], [-8.2093327, 40.4560133], [-8.2091063, 40.4562198], [-8.2089164, 40.4564335], [-8.2088045, 40.4565893], [-8.2087279, 40.456725], [-8.2086982, 40.4568558], [-8.2087057, 40.4571279], [-8.2087543, 40.4573541], [-8.2089149, 40.4578717], [-8.2090723, 40.4584456], [-8.2090996, 40.4586715], [-8.2090903, 40.4588457], [-8.2090607, 40.4590136], [-8.2089954, 40.4592196], [-8.208865, 40.4595121], [-8.2080374, 40.4610199], [-8.2078067, 40.4612827], [-8.2075063, 40.461525], [-8.2070074, 40.4618642], [-8.2068626, 40.4619831], [-8.2067231, 40.4621464], [-8.206656, 40.4622443], [-8.2066158, 40.4623504], [-8.2065836, 40.4624785], [-8.2065836, 40.4626269], [-8.206597, 40.4627815], [-8.2066372, 40.4629524], [-8.2068706, 40.4635259], [-8.2072166, 40.4643687], [-8.2072702, 40.4645177], [-8.2072863, 40.4647115], [-8.2072541, 40.4648789], [-8.2071951, 40.4650217], [-8.2071475, 40.4651232], [-8.2068424, 40.4655472], [-8.2067042, 40.465742], [-8.2065956, 40.4659002], [-8.2065299, 40.4660665], [-8.2062248, 40.4671867], [-8.2062081, 40.4673153], [-8.2062123, 40.4674077], [-8.2063399, 40.4680867]]}, "properties": {"highway": "primary", "lanes": "2", "ref": "EN 228", "source": "Bing", "surface": "asphalt"}}, {"type": "Feature", "geometry": {"type": "LineString", "coordinates": [[-8.2232957, 40.4408072], [-8.2229727, 40.4407921]]}, "properties": {"bridge": "yes", "highway": "primary", "layer": "1", "ref": "EN 228", "source": "Bing"}}, {"type": "Feature", "geometry": {"type": "LineString", "coordinates": [[-8.2111862, 40.39707], [-8.2110445, 40.3969524]]}, "properties": {"bridge": "yes", "highway": "primary", "lanes": "2", "layer": "1", "maxspeed": "70", "maxspeed:type": "sign", "maxweight:signed": "no", "ref": "EN 228", "surface": "asphalt"}}, {"type": "Feature", "geometry": {"type": "LineString", "coordinates": [[-8.2110445, 40.3969524], [-8.2086969, 40.3949914], [-8.207785, 40.394256], [-8.2073773, 40.3939537], [-8.2067988, 40.3936684], [-8.2067136, 40.3936345], [-8.2046021, 40.3928773], [-8.2041476, 40.3927273], [-8.2036141, 40.3925517], [-8.2022381, 40.3920988], [-8.2020708, 40.3920221], [-8.201909, 40.391948], [-8.2017145, 40.3918337], [-8.2016365, 40.3917871], [-8.2015741, 40.391745], [-8.2015189, 40.3917075], [-8.2014156, 40.3916307], [-8.2012128, 40.3914488], [-8.2011336, 40.3913711], [-8.2010615, 40.3912833], [-8.2009109, 40.391062], [-8.2008017, 40.3908837], [-8.2007489, 40.3907795], [-8.2006937, 40.3906744], [-8.2005898, 40.3904282], [-8.2005717, 40.3903587], [-8.2005525, 40.3902609], [-8.1998623, 40.3866359], [-8.1996362, 40.3854636], [-8.199608, 40.3853419], [-8.1993669, 40.3840861], [-8.1993159, 40.3838859], [-8.1992462, 40.3836754], [-8.1991711, 40.3834814], [-8.1990839, 40.3833144], [-8.1989431, 40.3830564], [-8.1988277, 40.3828807], [-8.1986547, 40.3826606], [-8.1969528, 40.3808162], [-8.1969359, 40.380789], [-8.1963179, 40.380128], [-8.1960154, 40.3798002], [-8.1957056, 40.3794543], [-8.1955152, 40.3792275], [-8.1953838, 40.3790415], [-8.1953318, 40.3789594]]}, "properties": {"highway": "primary", "lanes": "2", "maxspeed": "90", "maxspeed:type": "sign", "ref": "EN 228", "surface": "asphalt"}}, {"type": "Feature", "geometry": {"type": "LineString", "coordinates": [[-8.1248658, 40.5860954], [-8.1247518, 40.5861662], [-8.1247086, 40.5861856], [-8.1246794, 40.5861987], [-8.1245873, 40.5862262]]}, "properties": {"highway": "primary", "lanes": "1", "oneway": "yes", "ref": "EN 228", "source": "Bing", "surface": "asphalt"}}, {"type": "Feature", "geometry": {"type": "LineString", "coordinates": [[-8.1364353, 40.5462148], [-8.1364758, 40.5461199], [-8.1365388, 40.546032], [-8.1366513, 40.5459107]]}, "properties": {"highway": "primary", "oneway": "yes", "ref": "EN 228", "source": "bing", "surface": "asphalt"}}, {"type": "Feature", "geometry": {"type": "LineString", "coordinates": [[-8.1366513, 40.5459107], [-8.1362558, 40.5461203]]}, "properties": {"highway": "primary", "oneway": "yes", "ref": "EN 228", "source": "bing", "surface": "asphalt"}}, {"type": "Feature", "geometry": {"type": "LineString", "coordinates": [[-8.1364248, 40.5463271], [-8.1364458, 40.5462632]]}, "properties": {"highway": "primary", "junction": "roundabout", "ref": "EN 228", "source": "bing", "surface": "asphalt"}}, {"type": "Feature", "geometry": {"type": "LineString", "coordinates": [[-8.1363109, 40.5468574], [-8.1363525, 40.5466456]]}, "properties": {"highway": "primary", "oneway": "yes", "ref": "EN 228", "source": "bing", "surface": "asphalt"}}, {"type": "Feature", "geometry": {"type": "LineString", "coordinates": [[-8.1361339, 40.5463661], [-8.1362069, 40.5465058], [-8.1362692, 40.5466763], [-8.1363109, 40.5468574]]}, "properties": {"highway": "primary", "oneway": "yes", "ref": "EN 228", "source": "bing", "surface": "asphalt"}}, {"type": "Feature", "geometry": {"type": "LineString", "coordinates": [[-8.0955379, 40.6181119], [-8.0955952, 40.6181048], [-8.0956467, 40.6180846], [-8.0956873, 40.6180531], [-8.0957131, 40.6180136], [-8.0957213, 40.61797], [-8.0957112, 40.6179267]]}, "properties": {"highway": "primary", "junction": "roundabout", "name": "EN 228", "ref": "EN 228", "source": "Bing"}}, {"type": "Feature", "geometry": {"type": "LineString", "coordinates": [[-8.1252166, 40.5857913], [-8.1253203, 40.5857014], [-8.1255272, 40.585522], [-8.1256247, 40.5854372], [-8.1257092, 40.5853167], [-8.1257317, 40.5852448], [-8.1257429, 40.585209], [-8.1257801, 40.5848142], [-8.1258172, 40.5846911], [-8.1258608, 40.5845654], [-8.1259083, 40.5844654], [-8.1259725, 40.5843731], [-8.1260704, 40.5842629], [-8.1261784, 40.5841449], [-8.1262257, 40.584068], [-8.1262774, 40.5839423], [-8.1263725, 40.5837108], [-8.1264437, 40.5836244], [-8.1264988, 40.5835806], [-8.1266003, 40.5835275], [-8.1267269, 40.5835062]]}, "properties": {"highway": "primary", "lanes": "2", "name": "Rua Padre Jos\u00e9 J. Sousa J\u00fanior", "old_ref": "EN 228", "ref": "EN 228", "source": "Bing", "surface": "asphalt"}}, {"type": "Feature", "geometry": {"type": "LineString", "coordinates": [[-8.0992539, 40.6135524], [-8.0993988, 40.6134198], [-8.099778, 40.6131213], [-8.09987, 40.6130564], [-8.1000185, 40.6129516], [-8.1003896, 40.6126897], [-8.1005561, 40.6125616], [-8.1005785, 40.6125444], [-8.1006361, 40.6125001], [-8.1036562, 40.6102042], [-8.1040663, 40.6099015], [-8.1041423, 40.6098534], [-8.1042406, 40.6097893], [-8.105121, 40.6092689], [-8.1064299, 40.608601], [-8.1080392, 40.6077376], [-8.1082967, 40.6075718], [-8.1085542, 40.6073874], [-8.1089593, 40.607046], [-8.1095026, 40.6065317], [-8.1110526, 40.6050463], [-8.1113974, 40.6046994], [-8.1115549, 40.6044773], [-8.111639, 40.6043231], [-8.11173, 40.6040803], [-8.1117673, 40.6038333], [-8.1117547, 40.6035466], [-8.1116978, 40.6032495], [-8.1116013, 40.6030456], [-8.1115047, 40.6028911], [-8.1113517, 40.6026974], [-8.1111418, 40.6024976], [-8.1089083, 40.6008465], [-8.1086282, 40.6006026], [-8.1084607, 40.6004056], [-8.1083216, 40.6001777], [-8.1082253, 40.5999327], [-8.1081836, 40.5996227], [-8.1082117, 40.5992845], [-8.1083008, 40.5990204], [-8.1084448, 40.5987885], [-8.108636, 40.5985345], [-8.1088272, 40.5983176], [-8.1095351, 40.5975932]]}, "properties": {"highway": "primary", "lanes": "2", "oneway": "no", "ref": "EN 228", "source": "Bing", "surface": "asphalt"}}, {"type": "Feature", "geometry": {"type": "LineString", "coordinates": [[-8.1244221, 40.5864463], [-8.1244266, 40.5864733], [-8.1244353, 40.5865185], [-8.124438, 40.586598], [-8.1244192, 40.5867243]]}, "properties": {"highway": "primary", "lanes": "1", "name": "EN 228", "oneway": "yes", "ref": "EN 228", "source": "Bing", "surface": "asphalt"}}, {"type": "Feature", "geometry": {"type": "LineString", "coordinates": [[-8.1247532, 40.5863242], [-8.1247786, 40.5862537], [-8.1248242, 40.5861784], [-8.1248658, 40.5860954]]}, "properties": {"highway": "primary", "lanes": "1", "oneway": "yes", "ref": "EN 228", "source": "Bing", "surface": "asphalt"}}, {"type": "Feature", "geometry": {"type": "LineString", "coordinates": [[-8.1244192, 40.5867243], [-8.1244796, 40.5866372], [-8.1245547, 40.5865557], [-8.124598, 40.5865074]]}, "properties": {"highway": "primary", "lanes": "1", "name": "EN 228", "oneway": "yes", "ref": "EN 228", "source": "Bing", "surface": "asphalt"}}, {"type": "Feature", "geometry": {"type": "LineString", "coordinates": [[-8.195822, 40.3563225], [-8.1957137, 40.3564505], [-8.1955919, 40.3566217], [-8.1954122, 40.3569282], [-8.1953451, 40.3571674]]}, "properties": {"highway": "primary", "lanes": "1", "oneway": "yes", "ref": "EN 228", "surface": "asphalt"}}, {"type": "Feature", "geometry": {"type": "LineString", "coordinates": [[-8.1975764, 40.354837], [-8.1981547, 40.3542895], [-8.1990709, 40.3533267], [-8.1999259, 40.352469], [-8.200668, 40.3518095], [-8.2011267, 40.3514452], [-8.2018687, 40.3508783]]}, "properties": {"highway": "primary", "ref": "EN 228", "source": "Bing"}}, {"type": "Feature", "geometry": {"type": "LineString", "coordinates": [[-8.1953451, 40.3571674], [-8.1955151, 40.3569495], [-8.1956844, 40.3566585]]}, "properties": {"highway": "primary", "lanes": "1", "oneway": "yes", "ref": "EN 228", "source": "Bing", "surface": "asphalt", "turn": "left;through;right"}}, {"type": "Feature", "geometry": {"type": "LineString", "coordinates": [[-8.0570258, 40.7618701], [-8.0571304, 40.7617581], [-8.0572142, 40.7616927]]}, "properties": {"highway": "primary", "oneway": "yes", "ref": "EN 228", "source": "Bing"}}, {"type": "Feature", "geometry": {"type": "LineString", "coordinates": [[-8.0570585, 40.7616527], [-8.0570442, 40.7617478], [-8.0570258, 40.7618701]]}, "properties": {"highway": "primary", "oneway": "yes", "ref": "EN 228", "source": "Bing"}}, {"type": "Feature", "geometry": {"type": "LineString", "coordinates": [[-8.0575334, 40.7593809], [-8.0575176, 40.7595593], [-8.0574269, 40.7606607], [-8.0573819, 40.7609341], [-8.057301, 40.7612011], [-8.0572329, 40.7613703], [-8.0571598, 40.761486]]}, "properties": {"highway": "primary", "lanes": "1", "oneway": "yes", "ref": "EN 228", "source": "Bing", "surface": "asphalt"}}, {"type": "Feature", "geometry": {"type": "LineString", "coordinates": [[-8.1325947, 40.5527257], [-8.1325711, 40.5528198], [-8.1325114, 40.552892], [-8.132435, 40.5529636]]}, "properties": {"highway": "primary", "lanes": "1", "name": "Rua do Areal", "oneway": "yes", "ref": "EN 228", "surface": "asphalt"}}, {"type": "Feature", "geometry": {"type": "LineString", "coordinates": [[-8.1803026, 40.5057484], [-8.1802621, 40.5056792], [-8.1802384, 40.5056222], [-8.1802363, 40.5056066], [-8.1802258, 40.5055316], [-8.1802442, 40.5054646], [-8.180271, 40.5054218], [-8.1802998, 40.505376], [-8.1804172, 40.5052992], [-8.1806029, 40.5052385], [-8.1806958, 40.5052065], [-8.1807577, 40.5051778]]}, "properties": {"highway": "primary", "oneway": "yes", "ref": "EN 228", "source": "Bing"}}, {"type": "Feature", "geometry": {"type": "LineString", "coordinates": [[-8.1804391, 40.5059954], [-8.1806522, 40.5062865], [-8.1807149, 40.5064003], [-8.1807593, 40.5065638], [-8.1807845, 40.507032], [-8.1807862, 40.5071914], [-8.1807758, 40.5072892], [-8.1807588, 40.5073564], [-8.1802737, 40.5090246], [-8.1802061, 40.5091697], [-8.1801614, 40.5092284], [-8.180073, 40.5093092], [-8.1796908, 40.5095591], [-8.179543, 40.5096568], [-8.1793746, 40.509768], [-8.1793393, 40.5097913], [-8.1780788, 40.5105543], [-8.1767611, 40.5113817], [-8.1762311, 40.5117096], [-8.1758678, 40.5118899], [-8.1754304, 40.5120325], [-8.1753218, 40.5120648]]}, "properties": {"highway": "primary", "ref": "EN 228", "source": "Bing"}}, {"type": "Feature", "geometry": {"type": "LineString", "coordinates": [[-8.1807577, 40.5051778], [-8.18058, 40.5052143], [-8.1804342, 40.5052479], [-8.1803524, 40.5052714], [-8.1802861, 40.5053067], [-8.1802243, 40.5053537], [-8.1801823, 40.5054125], [-8.1801509, 40.5054746], [-8.1801536, 40.5054914], [-8.1801492, 40.5055754], [-8.1801649, 40.505642]]}, "properties": {"highway": "primary", "oneway": "yes", "ref": "EN 228"}}, {"type": "Feature", "geometry": {"type": "LineString", "coordinates": [[-8.2239302, 40.4026756], [-8.224058, 40.4025691], [-8.2241143, 40.4025405], [-8.224182, 40.4025065]]}, "properties": {"highway": "primary", "oneway": "yes", "ref": "EN 228", "surface": "asphalt"}}, {"type": "Feature", "geometry": {"type": "LineString", "coordinates": [[-8.223944, 40.4023691], [-8.2239308, 40.402474], [-8.2239281, 40.4025923], [-8.2239302, 40.4026756]]}, "properties": {"highway": "primary", "lanes": "1", "oneway": "yes", "ref": "EN 228", "surface": "asphalt"}}, {"type": "Feature", "geometry": {"type": "LineString", "coordinates": [[-8.1324872, 40.5530232], [-8.1325847, 40.55296], [-8.1326068, 40.552908], [-8.1326156, 40.5528643], [-8.1326156, 40.5527955], [-8.1325947, 40.5527257]]}, "properties": {"highway": "primary", "lanes": "1", "name": "Rua do Areal", "oneway": "yes", "ref": "EN 228", "surface": "asphalt"}}, {"type": "Feature", "geometry": {"type": "LineString", "coordinates": [[-8.0736751, 40.6473244], [-8.0735287, 40.6475045]]}, "properties": {"highway": "primary", "lanes": "2", "oneway": "no", "ref": "EN 228", "source": "Bing", "surface": "asphalt"}}, {"type": "Feature", "geometry": {"type": "LineString", "coordinates": [[-8.0735287, 40.6475045], [-8.072526, 40.6487305]]}, "properties": {"highway": "primary", "lanes": "2", "oneway": "no", "ref": "EN 228", "source": "Bing", "surface": "asphalt"}}, {"type": "Feature", "geometry": {"type": "LineString", "coordinates": [[-8.0737937, 40.6471723], [-8.0736751, 40.6473244]]}, "properties": {"highway": "primary", "lanes": "2", "oneway": "no", "ref": "EN 228", "source": "Bing", "surface": "asphalt"}}, {"type": "Feature", "geometry": {"type": "LineString", "coordinates": [[-8.0747699, 40.6459343], [-8.0737937, 40.6471723]]}, "properties": {"highway": "primary", "lanes": "2", "oneway": "no", "ref": "EN 228", "source": "Bing", "surface": "asphalt"}}, {"type": "Feature", "geometry": {"type": "LineString", "coordinates": [[-8.0748849, 40.6457855], [-8.0747699, 40.6459343]]}, "properties": {"highway": "primary", "lanes": "2", "oneway": "no", "ref": "EN 228", "source": "Bing", "surface": "asphalt"}}, {"type": "Feature", "geometry": {"type": "LineString", "coordinates": [[-8.0750338, 40.6455964], [-8.0748849, 40.6457855]]}, "properties": {"highway": "primary", "lanes": "2", "oneway": "no", "ref": "EN 228", "source": "Bing", "surface": "asphalt"}}, {"type": "Feature", "geometry": {"type": "LineString", "coordinates": [[-8.0897013, 40.6252936], [-8.0896812, 40.6253459], [-8.0895003, 40.6258181], [-8.0891256, 40.6267988], [-8.0883242, 40.6288358], [-8.0879465, 40.6297118], [-8.0875791, 40.6303453], [-8.0872308, 40.6308274], [-8.0865491, 40.6316644], [-8.0863814, 40.6318565], [-8.0848434, 40.6336094], [-8.0815199, 40.6374291], [-8.0814422, 40.6375184], [-8.0811096, 40.6378685], [-8.0808426, 40.6380773], [-8.080604, 40.6382198], [-8.0790497, 40.6390327], [-8.0788458, 40.6392037], [-8.0786741, 40.6394479], [-8.0785454, 40.6397084], [-8.07847, 40.6401406], [-8.077967, 40.643023], [-8.0779272, 40.6431741], [-8.0778497, 40.6433051], [-8.0777148, 40.6434713], [-8.0775315, 40.6436094], [-8.0761285, 40.6443731], [-8.0758954, 40.6445384], [-8.0757277, 40.6447285], [-8.075647, 40.6448294], [-8.0750338, 40.6455964]]}, "properties": {"highway": "primary", "lanes": "2", "oneway": "no", "ref": "EN 228", "source": "Bing", "surface": "asphalt"}}, {"type": "Feature", "geometry": {"type": "LineString", "coordinates": [[-8.0896608, 40.62512], [-8.0896719, 40.6252031]]}, "properties": {"highway": "primary", "oneway": "yes", "ref": "EN 228", "surface": "asphalt"}}, {"type": "Feature", "geometry": {"type": "LineString", "coordinates": [[-8.0896123, 40.6250881], [-8.0896343, 40.625106], [-8.0896608, 40.62512], [-8.0896996, 40.6251313], [-8.089741, 40.6251344], [-8.0897819, 40.6251289]]}, "properties": {"highway": "primary", "junction": "roundabout", "ref": "EN 228", "surface": "asphalt"}}, {"type": "Feature", "geometry": {"type": "LineString", "coordinates": [[-8.0896719, 40.6252031], [-8.0897013, 40.6252936]]}, "properties": {"highway": "primary", "oneway": "yes", "ref": "EN 228", "surface": "asphalt"}}, {"type": "Feature", "geometry": {"type": "LineString", "coordinates": [[-8.0899449, 40.6246904], [-8.0898133, 40.6248214], [-8.0897445, 40.6248718], [-8.0896932, 40.6249054]]}, "properties": {"highway": "primary", "lanes": "1", "oneway": "yes", "ref": "EN 228", "surface": "asphalt"}}, {"type": "Feature", "geometry": {"type": "LineString", "coordinates": [[-8.0899021, 40.6248727], [-8.0899449, 40.6246904]]}, "properties": {"highway": "primary", "lanes": "1", "oneway": "yes", "ref": "EN 228", "surface": "asphalt"}}, {"type": "Feature", "geometry": {"type": "LineString", "coordinates": [[-8.0897013, 40.6252936], [-8.0897641, 40.6251629], [-8.0897819, 40.6251289]]}, "properties": {"highway": "primary", "oneway": "yes", "ref": "EN 228", "surface": "asphalt"}}, {"type": "Feature", "geometry": {"type": "LineString", "coordinates": [[-8.1366825, 40.5695164], [-8.1366921, 40.5693933]]}, "properties": {"bridge": "yes", "highway": "primary", "lanes": "2", "layer": "1", "name": "Ponte do Bat\u00f4co", "old_ref": "EN 228", "ref": "EN 228", "source": "Bing", "surface": "asphalt"}}, {"type": "Feature", "geometry": {"type": "LineString", "coordinates": [[-8.1366921, 40.5693933], [-8.1366631, 40.5692949], [-8.1366218, 40.5692527], [-8.1365567, 40.5692134], [-8.1364474, 40.5691979], [-8.136338, 40.5692065], [-8.1361028, 40.5692775], [-8.1358758, 40.5693737], [-8.1357528, 40.5693751], [-8.1355691, 40.5693546], [-8.1354254, 40.5692775], [-8.1353119, 40.5691676], [-8.1352719, 40.5691077], [-8.1349859, 40.5686797], [-8.1349471, 40.5686216], [-8.1348935, 40.5684667], [-8.13499, 40.5680266]]}, "properties": {"highway": "primary", "lanes": "2", "name": "Rua do Batoco", "old_ref": "EN 228", "ref": "EN 228", "source": "Bing", "surface": "asphalt"}}, {"type": "Feature", "geometry": {"type": "LineString", "coordinates": [[-8.1358184, 40.557464], [-8.1358349, 40.5574126], [-8.1358433, 40.5573944], [-8.1358566, 40.5573738], [-8.13589, 40.557333]]}, "properties": {"highway": "primary", "lanes": "1", "name": "Avenida de Santa Eul\u00e1lia", "oneway": "yes", "ref": "EN 228", "surface": "asphalt"}}, {"type": "Feature", "geometry": {"type": "LineString", "coordinates": [[-8.13589, 40.557333], [-8.1359149, 40.5572982], [-8.1359336, 40.5572624], [-8.1359433, 40.5572376], [-8.135947, 40.5572123]]}, "properties": {"highway": "primary", "lanes": "1", "oneway": "yes", "ref": "EN 228", "surface": "asphalt"}}, {"type": "Feature", "geometry": {"type": "LineString", "coordinates": [[-8.1356872, 40.5570245], [-8.1357211, 40.5571267], [-8.1357727, 40.557327]]}, "properties": {"highway": "primary", "name": "Avenida de Santa Eul\u00e1lia", "oneway": "yes", "ref": "EN 228"}}, {"type": "Feature", "geometry": {"type": "LineString", "coordinates": [[-8.135947, 40.5572123], [-8.1358831, 40.5572141], [-8.1358367, 40.5572291], [-8.1358144, 40.5572455], [-8.1357956, 40.5572645], [-8.1357832, 40.5572902], [-8.1357727, 40.557327]]}, "properties": {"highway": "primary", "name": "Avenida de Santa Eul\u00e1lia", "oneway": "yes", "ref": "EN 228"}}, {"type": "Feature", "geometry": {"type": "LineString", "coordinates": [[-8.13589, 40.557333], [-8.1359615, 40.5573148], [-8.1360067, 40.5573046], [-8.1360789, 40.5572902]]}, "properties": {"highway": "primary", "lanes": "1", "oneway": "yes", "ref": "EN 228", "surface": "asphalt"}}, {"type": "Feature", "geometry": {"type": "LineString", "coordinates": [[-8.1357727, 40.557327], [-8.1358184, 40.557464]]}, "properties": {"highway": "primary", "lanes": "1", "name": "Avenida de Santa Eul\u00e1lia", "oneway": "yes", "ref": "EN 228", "surface": "asphalt"}}, {"type": "Feature", "geometry": {"type": "LineString", "coordinates": [[-8.1894802, 40.48909], [-8.1892994, 40.489105], [-8.1891481, 40.4891641], [-8.1890858, 40.4892203], [-8.1890024, 40.4892974], [-8.1889033, 40.4894318], [-8.1888594, 40.4895802], [-8.1888853, 40.4897099], [-8.1890621, 40.490069], [-8.1891848, 40.4902983], [-8.1893031, 40.4905178], [-8.1893538, 40.4905867], [-8.189403, 40.4907286], [-8.1894128, 40.4908081], [-8.1894189, 40.4908578], [-8.1893783, 40.4909663], [-8.1893392, 40.491048], [-8.1891145, 40.4912944], [-8.1890353, 40.4913856], [-8.1889801, 40.4915725], [-8.1889403, 40.4916822], [-8.188868, 40.4917675], [-8.1885175, 40.4921738], [-8.1884685, 40.4922332], [-8.188383, 40.4923978], [-8.1882422, 40.4926373], [-8.1881313, 40.492762], [-8.1878976, 40.4929782], [-8.1878158, 40.4930489], [-8.1877639, 40.4930973], [-8.1877051, 40.493152], [-8.1876468, 40.4932657], [-8.1876339, 40.4933382], [-8.1876882, 40.4938111], [-8.1876895, 40.4938942], [-8.1876789, 40.4939701], [-8.1875169, 40.4943896]]}, "properties": {"highway": "primary", "lanes": "2", "maxspeed": "50", "name": "Rua In\u00e1cio Pereira Viegas", "ref": "EN 228", "source": "Bing", "surface": "asphalt"}}, {"type": "Feature", "geometry": {"type": "LineString", "coordinates": [[-8.1943819, 40.4906073], [-8.1941209, 40.4904731], [-8.1940127, 40.4903539], [-8.1939574, 40.4902601], [-8.193945, 40.4901195], [-8.1940028, 40.4899502], [-8.1943694, 40.4891007], [-8.1943936, 40.4889746], [-8.1943779, 40.4888552], [-8.1943273, 40.4887476], [-8.1942281, 40.4886502], [-8.1941327, 40.4885813], [-8.1940284, 40.488536], [-8.1937449, 40.4884252], [-8.1932551, 40.4882726], [-8.1929817, 40.4881887], [-8.1927349, 40.4881419], [-8.1907797, 40.4879223], [-8.1906547, 40.4879277], [-8.1905254, 40.4879532], [-8.1903832, 40.4880246], [-8.1902698, 40.4881011], [-8.1901838, 40.4881687]]}, "properties": {"highway": "primary", "lanes": "2", "maxspeed": "90", "name": "Rua Portela do Mo\u00ednho", "ref": "EN 228", "source": "Bing", "surface": "asphalt"}}, {"type": "Feature", "geometry": {"type": "LineString", "coordinates": [[-8.1882253, 40.4961757], [-8.1882122, 40.4964691], [-8.1882048, 40.496515], [-8.188193, 40.4965676], [-8.1881657, 40.4966439], [-8.1881185, 40.4967217], [-8.1878173, 40.4971081], [-8.1877369, 40.4972113], [-8.1872116, 40.497921]]}, "properties": {"highway": "primary", "lanes": "2", "maxspeed": "90", "name": "Rua Deputado Lu\u00eds Martins", "ref": "EN 228", "source": "Bing", "surface": "asphalt"}}, {"type": "Feature", "geometry": {"type": "LineString", "coordinates": [[-8.1872116, 40.497921], [-8.1864799, 40.4988571], [-8.1861881, 40.4993037], [-8.1860486, 40.4996219], [-8.1859282, 40.5001974], [-8.1858675, 40.5004872], [-8.1856731, 40.5014163], [-8.1855369, 40.5020937], [-8.1854929, 40.5022244], [-8.1853922, 40.5024413], [-8.1852723, 40.5026205], [-8.1851126, 40.5027796], [-8.1849781, 40.5028835], [-8.1848258, 40.5029807], [-8.1845479, 40.5031213], [-8.1835324, 40.5034893], [-8.1825081, 40.5038473], [-8.1824326, 40.5038876], [-8.1820038, 40.5041165], [-8.1817416, 40.5042902], [-8.1814352, 40.5045244], [-8.1813052, 40.5046343], [-8.1809631, 40.5050465], [-8.1808747, 40.5051197], [-8.1807577, 40.5051778]]}, "properties": {"highway": "primary", "lanes": "2", "ref": "EN 228", "source": "Bing", "surface": "asphalt"}}, {"type": "Feature", "geometry": {"type": "LineString", "coordinates": [[-8.2011283, 40.496015], [-8.2009413, 40.4958507], [-8.2006408, 40.4955983], [-8.2004591, 40.4954397], [-8.2003463, 40.4952913], [-8.2001267, 40.4948843], [-8.1999318, 40.4945288], [-8.1998399, 40.4943841], [-8.1997355, 40.4942655], [-8.1990849, 40.4935631], [-8.1989249, 40.4934396], [-8.1987037, 40.4933449], [-8.1981928, 40.4931573], [-8.1980532, 40.4930843], [-8.197921, 40.4929981], [-8.1978153, 40.4929151], [-8.1966746, 40.491707], [-8.1964848, 40.4915532], [-8.1962366, 40.4914149], [-8.1950926, 40.4909294], [-8.1946202, 40.4907111], [-8.1943819, 40.4906073]]}, "properties": {"highway": "primary", "lanes": "2", "maxspeed": "90", "name": "Rua da Ribeira", "ref": "EN 228", "source": "Bing", "surface": "asphalt"}}, {"type": "Feature", "geometry": {"type": "LineString", "coordinates": [[-8.175075, 40.5121291], [-8.1748424, 40.5121675]]}, "properties": {"highway": "primary", "ref": "EN 228", "source": "Bing"}}, {"type": "Feature", "geometry": {"type": "LineString", "coordinates": [[-8.1656237, 40.5182878], [-8.1628296, 40.5196867], [-8.161996, 40.5201007], [-8.1616918, 40.5202564], [-8.1615332, 40.5203567], [-8.1614151, 40.5204504], [-8.1613411, 40.5205406], [-8.1613044, 40.5206162], [-8.1607291, 40.5221021], [-8.1606533, 40.5222289], [-8.1605689, 40.5223335], [-8.1604853, 40.5224085], [-8.1603708, 40.5224752], [-8.1600342, 40.522589], [-8.1595557, 40.5227254], [-8.1592837, 40.5228143], [-8.1591062, 40.5228755], [-8.1589179, 40.5229589], [-8.1587223, 40.5230644], [-8.1585523, 40.5231795], [-8.1584745, 40.5232565], [-8.1584259, 40.5233334], [-8.1580203, 40.5240923], [-8.1579605, 40.5241735], [-8.1578535, 40.5243026], [-8.1577101, 40.5244041], [-8.1567911, 40.5248015], [-8.1562653, 40.5251277]]}, "properties": {"highway": "primary", "ref": "EN 228", "source": "Bing"}}, {"type": "Feature", "geometry": {"type": "LineString", "coordinates": [[-8.1753218, 40.5120648], [-8.175075, 40.5121291]]}, "properties": {"highway": "primary", "ref": "EN 228", "source": "Bing"}}, {"type": "Feature", "geometry": {"type": "LineString", "coordinates": [[-8.1363992, 40.54644], [-8.1364248, 40.5463271]]}, "properties": {"highway": "primary", "oneway": "yes", "ref": "EN 228", "source": "bing", "surface": "asphalt"}}, {"type": "Feature", "geometry": {"type": "LineString", "coordinates": [[-8.1361423, 40.5461519], [-8.1361042, 40.5461809], [-8.1360799, 40.5462248], [-8.1360741, 40.5462738], [-8.1360806, 40.5463006], [-8.1361089, 40.5463448]]}, "properties": {"highway": "primary", "junction": "roundabout", "ref": "EN 228", "source": "bing", "surface": "asphalt"}}, {"type": "Feature", "geometry": {"type": "LineString", "coordinates": [[-8.1363525, 40.5466456], [-8.1363992, 40.54644]]}, "properties": {"highway": "primary", "oneway": "yes", "ref": "EN 228", "source": "bing", "surface": "asphalt"}}, {"type": "Feature", "geometry": {"type": "LineString", "coordinates": [[-8.1361339, 40.5463661], [-8.1361884, 40.5463925], [-8.1362489, 40.546403]]}, "properties": {"highway": "primary", "junction": "roundabout", "ref": "EN 228", "source": "bing", "surface": "asphalt"}}, {"type": "Feature", "geometry": {"type": "LineString", "coordinates": [[-8.1364353, 40.5462148], [-8.1364154, 40.5461843], [-8.1363712, 40.5461485], [-8.1363197, 40.5461278], [-8.1362558, 40.5461203]]}, "properties": {"highway": "primary", "junction": "roundabout", "ref": "EN 228", "source": "bing", "surface": "asphalt"}}, {"type": "Feature", "geometry": {"type": "LineString", "coordinates": [[-8.1362489, 40.546403], [-8.1363131, 40.5463973], [-8.1363612, 40.5463766], [-8.1363854, 40.5463661], [-8.1364248, 40.5463271]]}, "properties": {"highway": "primary", "junction": "roundabout", "ref": "EN 228", "source": "bing", "surface": "asphalt"}}, {"type": "Feature", "geometry": {"type": "LineString", "coordinates": [[-8.1478922, 40.5312992], [-8.1478679, 40.5314533], [-8.1478215, 40.5316108], [-8.1477451, 40.5317431], [-8.1476511, 40.5318585], [-8.1472309, 40.5323364], [-8.147001, 40.5325585], [-8.1467269, 40.5327336], [-8.1465485, 40.5327768], [-8.1463156, 40.5327901], [-8.146039, 40.5327376], [-8.1457623, 40.5326784], [-8.1454746, 40.5326074], [-8.1453308, 40.5325862], [-8.1452002, 40.5325919], [-8.1450777, 40.5326145], [-8.1449686, 40.5326607], [-8.1448922, 40.5327017], [-8.1448335, 40.5327562], [-8.144694, 40.5328584], [-8.1431341, 40.5346077], [-8.1427199, 40.5350722], [-8.141014, 40.5368212], [-8.1409208, 40.5370354], [-8.1409007, 40.5371168], [-8.140896, 40.5371981], [-8.1408986, 40.5372468], [-8.1409872, 40.5388923], [-8.1409443, 40.5390961], [-8.1398421, 40.5413034], [-8.1398167, 40.5414276], [-8.1398277, 40.5415517], [-8.1400721, 40.5419074], [-8.1401128, 40.5419865], [-8.1401276, 40.5421699], [-8.1400987, 40.5422643], [-8.1400624, 40.5423366], [-8.1399621, 40.5424844], [-8.1394011, 40.5431273], [-8.1392913, 40.5432131], [-8.1391597, 40.5432877], [-8.1380394, 40.5436738], [-8.1378651, 40.5437557], [-8.1377481, 40.5438783], [-8.137726, 40.5439617], [-8.1377257, 40.5440451], [-8.13779, 40.5445669], [-8.1377625, 40.5447327], [-8.137727, 40.5448294], [-8.1376696, 40.5449096], [-8.137227, 40.5455342], [-8.1370283, 40.5457164], [-8.1366513, 40.5459107]]}, "properties": {"highway": "primary", "ref": "EN 228", "source": "Bing"}}, {"type": "Feature", "geometry": {"type": "LineString", "coordinates": [[-8.1549351, 40.5263877], [-8.1548529, 40.5264762], [-8.154767, 40.5266572], [-8.1547425, 40.5268398], [-8.1546668, 40.5271583], [-8.154588, 40.5272509], [-8.1545165, 40.5273214], [-8.1542354, 40.5274354], [-8.1540916, 40.5274937], [-8.1531943, 40.5278574], [-8.1530374, 40.527921], [-8.1527089, 40.5280542], [-8.1525854, 40.5281043], [-8.1520633, 40.5283736], [-8.152021, 40.5283954], [-8.1516655, 40.5286186], [-8.1515386, 40.5286982], [-8.1512755, 40.5288634], [-8.1510611, 40.5290047], [-8.1508687, 40.5290991], [-8.1505778, 40.5292236], [-8.1504235, 40.5292783], [-8.1502913, 40.5293531], [-8.1502099, 40.5294017], [-8.1501636, 40.5294853], [-8.1500332, 40.5298021]]}, "properties": {"highway": "primary", "name": "Rua Principal", "ref": "EN 228", "source": "Bing"}}, {"type": "Feature", "geometry": {"type": "LineString", "coordinates": [[-8.1354282, 40.5644705], [-8.1353829, 40.5643805], [-8.1353119, 40.564302], [-8.1351912, 40.5642216], [-8.1349578, 40.5641471], [-8.134881, 40.5641024], [-8.1348078, 40.5640574], [-8.134644, 40.5638853], [-8.1344836, 40.563647], [-8.1344592, 40.563549], [-8.1344557, 40.5634351], [-8.1344557, 40.5632313], [-8.1344801, 40.5630035], [-8.1345287, 40.5628593], [-8.1346728, 40.5625225], [-8.1346846, 40.5623889], [-8.1346361, 40.5622102], [-8.1346225, 40.5621598], [-8.134592, 40.5620276], [-8.1346036, 40.5618945], [-8.1346544, 40.5617828], [-8.1347157, 40.5617217], [-8.1353017, 40.5613464], [-8.1356445, 40.5609928], [-8.1359999, 40.5605788], [-8.1362553, 40.5602813], [-8.1363031, 40.5601754], [-8.1363375, 40.5600835], [-8.1363749, 40.5597872], [-8.1363791, 40.559699], [-8.1363775, 40.5595841], [-8.1363623, 40.5594992], [-8.1362818, 40.5593643], [-8.1360549, 40.5591492], [-8.1359887, 40.559038], [-8.1359663, 40.5589388], [-8.1360372, 40.5585696], [-8.1360341, 40.5583976], [-8.135841, 40.557548], [-8.1358184, 40.557464]]}, "properties": {"highway": "primary", "lanes": "2", "name": "Avenida de Santa Eul\u00e1lia", "old_ref": "EN 228", "ref": "EN 228", "source": "Bing", "surface": "asphalt"}}, {"type": "Feature", "geometry": {"type": "LineString", "coordinates": [[-8.1322688, 40.5512282], [-8.1322733, 40.5514322], [-8.1322969, 40.5515413], [-8.1325851, 40.5526876], [-8.1325947, 40.5527257]]}, "properties": {"highway": "primary", "lanes": "2", "name": "Rua do Areal", "ref": "EN 228", "source": "Bing", "surface": "asphalt"}}, {"type": "Feature", "geometry": {"type": "LineString", "coordinates": [[-8.0934618, 40.6205539], [-8.0933024, 40.6207269]]}, "properties": {"highway": "primary", "lanes": "2", "oneway": "no", "ref": "EN 228", "source": "Bing", "surface": "asphalt"}}, {"type": "Feature", "geometry": {"type": "LineString", "coordinates": [[-8.0933024, 40.6207269], [-8.0930101, 40.6210442], [-8.0911195, 40.6229089], [-8.0906345, 40.6234194], [-8.090578, 40.6234916], [-8.0903815, 40.6237427], [-8.0901111, 40.6242464], [-8.0899449, 40.6246904]]}, "properties": {"highway": "primary", "lanes": "2", "oneway": "no", "ref": "EN 228", "source": "Bing", "surface": "asphalt"}}, {"type": "Feature", "geometry": {"type": "LineString", "coordinates": [[-8.0936213, 40.6203778], [-8.0934618, 40.6205539]]}, "properties": {"highway": "primary", "lanes": "2", "oneway": "no", "ref": "EN 228", "source": "Bing", "surface": "asphalt"}}, {"type": "Feature", "geometry": {"type": "LineString", "coordinates": [[-8.0952679, 40.6183103], [-8.0949882, 40.618683], [-8.0940593, 40.619831], [-8.0936213, 40.6203778]]}, "properties": {"highway": "primary", "lanes": "2", "oneway": "no", "ref": "EN 228", "source": "Bing", "surface": "asphalt"}}, {"type": "Feature", "geometry": {"type": "LineString", "coordinates": [[-8.0953663, 40.6180233], [-8.095332, 40.6181431], [-8.0952679, 40.6183103]]}, "properties": {"highway": "primary", "lanes": "1", "oneway": "yes", "ref": "EN 228", "surface": "asphalt"}}, {"type": "Feature", "geometry": {"type": "LineString", "coordinates": [[-8.0952679, 40.6183103], [-8.0954084, 40.6182056], [-8.0955379, 40.6181119]]}, "properties": {"highway": "primary", "lanes": "1", "oneway": "yes", "ref": "EN 228", "surface": "asphalt"}}, {"type": "Feature", "geometry": {"type": "LineString", "coordinates": [[-8.0957112, 40.6179267], [-8.0957375, 40.6178242], [-8.0958024, 40.6176454]]}, "properties": {"highway": "primary", "lanes": "1", "oneway": "yes", "ref": "EN 228", "surface": "asphalt"}}, {"type": "Feature", "geometry": {"type": "LineString", "coordinates": [[-8.0958024, 40.6176454], [-8.0956787, 40.6177662], [-8.0955366, 40.6178328]]}, "properties": {"highway": "primary", "lanes": "1", "oneway": "yes", "ref": "EN 228", "surface": "asphalt"}}, {"type": "Feature", "geometry": {"type": "LineString", "coordinates": [[-8.1349425, 40.5677871], [-8.1348935, 40.5677332], [-8.1347283, 40.5676038], [-8.1346715, 40.5675518], [-8.1346247, 40.5675035], [-8.134593, 40.567448], [-8.1345846, 40.5673714], [-8.134608, 40.567294], [-8.1346574, 40.567179], [-8.1347451, 40.5670031], [-8.1347751, 40.5669333], [-8.1347869, 40.5668647], [-8.1347919, 40.5667885], [-8.1347685, 40.5667225], [-8.1347451, 40.5666856], [-8.1347111, 40.5666574], [-8.1344993, 40.5664951], [-8.1344257, 40.5664316], [-8.1344007, 40.566391], [-8.1343785, 40.5663314], [-8.1343856, 40.5662665], [-8.1344068, 40.5661944], [-8.1345306, 40.5659901], [-8.1349143, 40.5653894], [-8.1351691, 40.5649905], [-8.1353829, 40.5646559], [-8.1354247, 40.5645685], [-8.1354282, 40.5644705]]}, "properties": {"highway": "primary", "lanes": "2", "name": "Avenida de Fermentelos", "old_ref": "EN 228", "ref": "EN 228", "source": "Bing", "surface": "asphalt"}}, {"type": "Feature", "geometry": {"type": "LineString", "coordinates": [[-8.13499, 40.5680266], [-8.1349793, 40.5678473], [-8.1349425, 40.5677871]]}, "properties": {"highway": "primary", "lanes": "2", "old_ref": "EN 228", "ref": "EN 228", "source": "Bing", "surface": "asphalt"}}, {"type": "Feature", "geometry": {"type": "LineString", "coordinates": [[-8.1307949, 40.5727961], [-8.1310931, 40.5727166], [-8.1314107, 40.5726665], [-8.1315928, 40.5726577], [-8.1318019, 40.5726665], [-8.1319607, 40.5726901], [-8.1321147, 40.5727372], [-8.1322783, 40.5728195], [-8.132379, 40.5728842], [-8.132437, 40.5729607], [-8.1324603, 40.5730431], [-8.1324913, 40.5731899], [-8.1325029, 40.5732902], [-8.1325416, 40.5733608], [-8.1326191, 40.5734138], [-8.1327314, 40.5734549], [-8.1328872, 40.5734706], [-8.133018, 40.5734549], [-8.1331419, 40.5734196], [-8.1332891, 40.573352], [-8.1334616, 40.5732476], [-8.133612, 40.5731565], [-8.1337149, 40.5731373], [-8.1338933, 40.5731404], [-8.1339635, 40.5731416], [-8.1340853, 40.573126], [-8.1342309, 40.5730908], [-8.1343045, 40.5730527], [-8.1343727, 40.5729817], [-8.1343952, 40.5728775], [-8.1343766, 40.5727942], [-8.1341532, 40.5721178], [-8.1341697, 40.5719957], [-8.1342015, 40.5718794], [-8.1343578, 40.5716265], [-8.1343774, 40.57147], [-8.1343507, 40.5712929], [-8.1343463, 40.5711562], [-8.1344076, 40.5709455], [-8.1346574, 40.5706346], [-8.1347928, 40.5705599], [-8.1349436, 40.5705349], [-8.135181, 40.5705514], [-8.1352953, 40.57053], [-8.1354651, 40.570425], [-8.1356123, 40.5703292], [-8.1357518, 40.5702597], [-8.1360948, 40.5701346], [-8.1362882, 40.5700641], [-8.1363906, 40.5700251], [-8.1364931, 40.5699394], [-8.1365787, 40.5698205], [-8.1366693, 40.5695841], [-8.1366825, 40.5695164]]}, "properties": {"highway": "primary", "lanes": "2", "maxspeed": "50", "name": "Rua Doutor Valentim Marques", "old_ref": "EN 228", "ref": "EN 228", "source": "Bing", "surface": "asphalt"}}, {"type": "Feature", "geometry": {"type": "LineString", "coordinates": [[-8.1290952, 40.5751823], [-8.1290248, 40.5750923], [-8.1289945, 40.5750468], [-8.1285742, 40.5744159], [-8.1285164, 40.5742524], [-8.1284776, 40.5740818], [-8.1284952, 40.5739466], [-8.12856, 40.5738474], [-8.1288744, 40.5734004], [-8.1289441, 40.5732933], [-8.1290605, 40.5732088], [-8.1292138, 40.5731432], [-8.1294442, 40.5730725], [-8.1307949, 40.5727961]]}, "properties": {"highway": "primary", "lanes": "2", "name": "Rua Doutor Joaquim Fernandes", "old_ref": "EN 228", "ref": "EN 228", "source": "Bing", "surface": "asphalt"}}, {"type": "Feature", "geometry": {"type": "LineString", "coordinates": [[-8.131171, 40.5808848], [-8.1313217, 40.5808265]]}, "properties": {"bridge": "yes", "highway": "primary", "lanes": "2", "layer": "1", "old_ref": "EN 228", "ref": "EN 228", "source": "Bing", "surface": "asphalt"}}, {"type": "Feature", "geometry": {"type": "LineString", "coordinates": [[-8.1314486, 40.5804405], [-8.131226, 40.5794505], [-8.1311706, 40.5792971], [-8.1310967, 40.5791505], [-8.1310628, 40.5790892], [-8.1309665, 40.5789734], [-8.1308724, 40.5789094], [-8.1307307, 40.5788408], [-8.1306505, 40.5787533], [-8.1306394, 40.578736], [-8.1306019, 40.5786778], [-8.1305708, 40.578538], [-8.1305714, 40.5784102], [-8.1305648, 40.5779157], [-8.1305618, 40.577695], [-8.1305528, 40.5776234], [-8.1304407, 40.5774565], [-8.1303644, 40.5773815], [-8.1301873, 40.5772587], [-8.1301042, 40.5771941], [-8.1300459, 40.5771192], [-8.1296691, 40.576298], [-8.1293145, 40.5755324], [-8.1292611, 40.5754121], [-8.1292429, 40.5753712], [-8.1290952, 40.5751823]]}, "properties": {"highway": "primary", "lanes": "2", "name": "Rua Padre Ant\u00f3nio Vieira", "old_ref": "EN 228", "ref": "EN 228", "source": "Bing", "surface": "asphalt"}}, {"type": "Feature", "geometry": {"type": "LineString", "coordinates": [[-8.1267269, 40.5835062], [-8.1269112, 40.5835098], [-8.1272596, 40.5834948], [-8.1273165, 40.5834876], [-8.1274059, 40.5834763], [-8.1275747, 40.5834221], [-8.1276843, 40.5833689], [-8.1278256, 40.5833004], [-8.1281665, 40.583135], [-8.128209, 40.5831106], [-8.128263, 40.5829476], [-8.1281992, 40.5819475], [-8.128179, 40.5817295], [-8.128181, 40.5816959], [-8.1281879, 40.5815787], [-8.1286441, 40.5805852], [-8.1287487, 40.5803857], [-8.1288508, 40.580191], [-8.128969, 40.5800423], [-8.1290703, 40.5799884], [-8.1291964, 40.5799572], [-8.1293574, 40.5799816], [-8.1295092, 40.5800372], [-8.1295758, 40.5800758], [-8.129624, 40.5801038], [-8.1297692, 40.5801961], [-8.1300156, 40.5803936], [-8.1304748, 40.5807475], [-8.130677, 40.5809105], [-8.1308487, 40.5809513], [-8.1310203, 40.5809431], [-8.131171, 40.5808848]]}, "properties": {"highway": "primary", "lanes": "2", "name": "Rua Doutor Jos\u00e9 Ant\u00f3nio Correia Teles", "old_ref": "EN 228", "ref": "EN 228", "source": "Bing", "surface": "asphalt"}}, {"type": "Feature", "geometry": {"type": "LineString", "coordinates": [[-8.1250444, 40.5881049], [-8.1245724, 40.5875346], [-8.1244436, 40.5872657], [-8.12439, 40.5870213], [-8.1244027, 40.5867959], [-8.1244192, 40.5867243]]}, "properties": {"highway": "primary", "lanes": "2", "maxspeed": "50", "name": "Rua Padre Jos\u00e9 J. Sousa J\u00fanior", "oneway": "no", "ref": "EN 228", "source": "Bing", "surface": "asphalt"}}, {"type": "Feature", "geometry": {"type": "LineString", "coordinates": [[-8.1251655, 40.5888213], [-8.1252161, 40.58861], [-8.1251839, 40.5883493], [-8.1250444, 40.5881049]]}, "properties": {"highway": "primary", "lanes": "2", "oneway": "no", "ref": "EN 228", "source": "Bing", "surface": "asphalt"}}, {"type": "Feature", "geometry": {"type": "LineString", "coordinates": [[-8.1110806, 40.5959689], [-8.1118829, 40.5951409], [-8.1138186, 40.59311], [-8.1140903, 40.5928629], [-8.1142817, 40.592691]]}, "properties": {"highway": "primary", "lanes": "2", "maxspeed": "50", "name": "Rua Alfredo Marques", "oneway": "no", "ref": "EN 228", "source": "Bing", "surface": "asphalt"}}, {"type": "Feature", "geometry": {"type": "LineString", "coordinates": [[-8.114521, 40.5925459], [-8.1145731, 40.5925207], [-8.1146613, 40.5924851]]}, "properties": {"highway": "primary", "lanes": "2", "maxspeed": "50", "name": "Rua Alfredo Marques", "oneway": "no", "ref": "EN 228", "source": "Bing", "surface": "asphalt"}}, {"type": "Feature", "geometry": {"type": "LineString", "coordinates": [[-8.1146613, 40.5924851], [-8.1150774, 40.5923171], [-8.1155387, 40.5922193], [-8.1159571, 40.5921948], [-8.1161847, 40.59222], [-8.1164721, 40.5922519], [-8.1167509, 40.5923188], [-8.1171354, 40.5924536], [-8.1184999, 40.5930992], [-8.1200877, 40.5938242], [-8.1203006, 40.5938947], [-8.1205502, 40.5939374], [-8.120799, 40.5939412], [-8.1210477, 40.593911], [-8.1213039, 40.593843], [-8.1215281, 40.5937507], [-8.1216646, 40.5936613], [-8.1218092, 40.5935472], [-8.1219747, 40.5933659], [-8.1221077, 40.5931661], [-8.1222694, 40.5927247], [-8.1224529, 40.5921868], [-8.1225409, 40.5919752], [-8.1226948, 40.5916653], [-8.1229416, 40.5912512], [-8.123217, 40.5908859], [-8.1242838, 40.5898346], [-8.1243356, 40.5897825], [-8.124391, 40.5897268], [-8.1249908, 40.5891233], [-8.1251517, 40.5888789], [-8.1251655, 40.5888213]]}, "properties": {"highway": "primary", "lanes": "2", "maxspeed": "50", "name": "Rua Alfredo Marques", "oneway": "no", "ref": "EN 228", "source": "Bing", "surface": "asphalt"}}, {"type": "Feature", "geometry": {"type": "LineString", "coordinates": [[-8.1142817, 40.592691], [-8.1143981, 40.5926185], [-8.114521, 40.5925459]]}, "properties": {"highway": "primary", "lanes": "2", "maxspeed": "50", "name": "Rua Alfredo Marques", "oneway": "no", "ref": "EN 228", "source": "Bing", "surface": "asphalt"}}, {"type": "Feature", "geometry": {"type": "LineString", "coordinates": [[-8.0003423, 40.8172534], [-8.0005213, 40.8170946]]}, "properties": {"bridge": "yes", "highway": "primary", "layer": "1", "ref": "EN 228"}}, {"type": "Feature", "geometry": {"type": "LineString", "coordinates": [[-8.0702632, 40.6515859], [-8.0700886, 40.6518096], [-8.0700215, 40.6519642], [-8.0699947, 40.6521574], [-8.0700081, 40.6523222], [-8.0700537, 40.6524808], [-8.0701261, 40.6526456], [-8.070236, 40.6528775], [-8.070346, 40.6530951], [-8.0703686, 40.6531406], [-8.0703915, 40.6531766], [-8.0704236, 40.6532228], [-8.0704561, 40.6532589], [-8.0704876, 40.6532836], [-8.0705172, 40.6533061], [-8.0705463, 40.6533255], [-8.0705928, 40.6533482], [-8.0706383, 40.6533665]]}, "properties": {"highway": "primary", "ref": "EN 228", "source": "Bing"}}, {"type": "Feature", "geometry": {"type": "LineString", "coordinates": [[-8.071391, 40.6543202], [-8.0712301, 40.6543658], [-8.0710943, 40.6544072], [-8.0709901, 40.6544422], [-8.0709503, 40.6544587], [-8.0708937, 40.6544823], [-8.0707958, 40.6545333], [-8.0706746, 40.6546104], [-8.0705261, 40.6547053], [-8.070286, 40.6548745], [-8.0701827, 40.6549531], [-8.0700975, 40.6550286], [-8.0700424, 40.655084], [-8.0699718, 40.6551673], [-8.0699146, 40.6552434], [-8.0698507, 40.6553333], [-8.0696788, 40.6556165], [-8.0695018, 40.6559039], [-8.0694231, 40.6560626], [-8.0693632, 40.6562098], [-8.0693018, 40.6563813], [-8.0691283, 40.6568925], [-8.0691261, 40.6570443], [-8.0691578, 40.6571526], [-8.0694844, 40.6576222], [-8.0695262, 40.6577434], [-8.069537, 40.6578655], [-8.0695198, 40.6579884], [-8.0694694, 40.6580828], [-8.0693267, 40.6582293], [-8.0689501, 40.6585157], [-8.0688536, 40.658637], [-8.0687774, 40.6587705], [-8.0685078, 40.6596546], [-8.0684517, 40.6597616], [-8.0683698, 40.6598663], [-8.0682362, 40.6599527], [-8.0674534, 40.6603037], [-8.067326, 40.6603865], [-8.0672243, 40.6604821], [-8.0671606, 40.6606121], [-8.0670195, 40.6613003], [-8.0669459, 40.6617507], [-8.0669459, 40.6621006], [-8.0669824, 40.6623838], [-8.0670746, 40.6627224], [-8.0672077, 40.6630658], [-8.0680204, 40.6649775]]}, "properties": {"highway": "primary", "ref": "EN 228", "source": "Bing"}}, {"type": "Feature", "geometry": {"type": "LineString", "coordinates": [[-8.0680204, 40.6649775], [-8.0680537, 40.6650559]]}, "properties": {"bridge": "yes", "highway": "primary", "layer": "1", "ref": "EN 228", "source": "Bing"}}, {"type": "Feature", "geometry": {"type": "LineString", "coordinates": [[-8.0686226, 40.6669544], [-8.0685444, 40.6689162]]}, "properties": {"highway": "primary", "ref": "EN 228", "source": "Bing"}}, {"type": "Feature", "geometry": {"type": "LineString", "coordinates": [[-8.0685444, 40.6689162], [-8.0685413, 40.6689976]]}, "properties": {"bridge": "yes", "highway": "primary", "layer": "1", "ref": "EN 228", "source": "Bing"}}, {"type": "Feature", "geometry": {"type": "LineString", "coordinates": [[-8.0686559, 40.6707017], [-8.0692297, 40.6725433], [-8.0697189, 40.6740697], [-8.0697576, 40.6742747], [-8.0697885, 40.6747655]]}, "properties": {"highway": "primary", "ref": "EN 228", "source": "Bing"}}, {"type": "Feature", "geometry": {"type": "LineString", "coordinates": [[-8.0697885, 40.6747655], [-8.0697936, 40.674848]]}, "properties": {"bridge": "yes", "highway": "primary", "layer": "1", "ref": "EN 228", "source": "Bing"}}, {"type": "Feature", "geometry": {"type": "LineString", "coordinates": [[-8.0697936, 40.674848], [-8.0698032, 40.6750002], [-8.0698155, 40.6751957], [-8.0698584, 40.6753894], [-8.06997, 40.6756253], [-8.0703798, 40.6764454], [-8.0704162, 40.6765919], [-8.0704184, 40.6767595], [-8.0703884, 40.6769222], [-8.0701995, 40.6775975], [-8.0701867, 40.6777879], [-8.0702124, 40.6779571], [-8.0707917, 40.679363], [-8.0708211, 40.6795137], [-8.0708211, 40.6796422], [-8.0707857, 40.6797748], [-8.0704853, 40.6803842], [-8.0704145, 40.680616], [-8.0703942, 40.6807877], [-8.0703988, 40.6817123], [-8.0703581, 40.6818994], [-8.0702819, 40.6820589], [-8.0694076, 40.6833597], [-8.0693402, 40.6835235], [-8.0693037, 40.6836813], [-8.0692951, 40.6838603], [-8.0693024, 40.684016], [-8.0694393, 40.6869459], [-8.0694954, 40.6872139], [-8.069588, 40.6874003], [-8.0699499, 40.6879212]]}, "properties": {"highway": "primary", "ref": "EN 228", "source": "Bing"}}, {"type": "Feature", "geometry": {"type": "LineString", "coordinates": [[-8.0699499, 40.6879212], [-8.0700006, 40.6879942]]}, "properties": {"bridge": "yes", "highway": "primary", "layer": "1", "ref": "EN 228", "source": "Bing"}}, {"type": "Feature", "geometry": {"type": "LineString", "coordinates": [[-8.2263347, 40.4368441], [-8.226047, 40.437032], [-8.2253205, 40.4375319], [-8.2243913, 40.4384466], [-8.2243164, 40.4385248], [-8.2242461, 40.4386354], [-8.2238991, 40.4392676], [-8.2236103, 40.4398356], [-8.2235072, 40.4406714], [-8.2234229, 40.4407552], [-8.2232957, 40.4408072]]}, "properties": {"highway": "primary", "ref": "EN 228", "source": "Bing"}}, {"type": "Feature", "geometry": {"type": "LineString", "coordinates": [[-8.2264165, 40.4367907], [-8.2263347, 40.4368441]]}, "properties": {"bridge": "yes", "highway": "primary", "layer": "1", "ref": "EN 228", "source": "Bing"}}, {"type": "Feature", "geometry": {"type": "LineString", "coordinates": [[-8.2063634, 40.4682988], [-8.2064598, 40.4688505], [-8.2064627, 40.4689093], [-8.2064441, 40.4689886], [-8.2064092, 40.4690845], [-8.2063368, 40.4691845], [-8.2061866, 40.4693824], [-8.2059935, 40.4695681], [-8.2058996, 40.469717], [-8.2058742, 40.4697894], [-8.2058648, 40.4698945], [-8.2059439, 40.4701853], [-8.20597, 40.4702879], [-8.2059855, 40.4704231], [-8.2059707, 40.4706301], [-8.205972, 40.4708821], [-8.206074, 40.4714168], [-8.2060686, 40.4715463], [-8.2059774, 40.4717086], [-8.2055644, 40.4722329], [-8.2055188, 40.472341], [-8.2055214, 40.4724859], [-8.2057119, 40.4728736], [-8.2057374, 40.4729776], [-8.2057146, 40.4731021], [-8.2055912, 40.4733245], [-8.2050699, 40.4740803], [-8.2045486, 40.4748586], [-8.2044037, 40.4750934], [-8.2043198, 40.475273], [-8.2041071, 40.4757812], [-8.2039564, 40.4761299], [-8.2037593, 40.476436], [-8.2036895, 40.4765768], [-8.2036412, 40.4767584], [-8.2035915, 40.4770116], [-8.2035579, 40.47733], [-8.2035124, 40.4788752], [-8.2035223, 40.4790192], [-8.2035408, 40.4791794], [-8.203618, 40.4794114], [-8.2037022, 40.4795647], [-8.2038263, 40.4797208], [-8.2041322, 40.4800077], [-8.2042742, 40.4801706], [-8.204358, 40.4803279], [-8.2043936, 40.4804747], [-8.2044074, 40.4806713], [-8.2043516, 40.4817197], [-8.2043485, 40.4818175], [-8.2042945, 40.481943], [-8.2042155, 40.4820261], [-8.2040929, 40.4821149], [-8.2031852, 40.482571], [-8.2024147, 40.4829493], [-8.2023166, 40.4830235], [-8.2022486, 40.4831113], [-8.202197, 40.4832486], [-8.2019768, 40.4840906], [-8.2017125, 40.4852395], [-8.2017088, 40.4853726], [-8.2017416, 40.4855278], [-8.2030109, 40.4894477], [-8.2030662, 40.4895413], [-8.2031796, 40.4896847], [-8.203955, 40.4904562], [-8.2040533, 40.4906028], [-8.2041371, 40.4908435], [-8.2043307, 40.4920609], [-8.2043128, 40.4922177], [-8.204233, 40.4924216], [-8.2039335, 40.4929685], [-8.2038741, 40.493077]]}, "properties": {"highway": "primary", "lanes": "2", "ref": "EN 228", "source": "Bing", "surface": "asphalt"}}, {"type": "Feature", "geometry": {"type": "LineString", "coordinates": [[-8.2029672, 40.4947882], [-8.2022516, 40.4958428], [-8.2021056, 40.4960372], [-8.2019559, 40.4961516], [-8.2018128, 40.4962051], [-8.2017006, 40.4962175], [-8.2016261, 40.4962181]]}, "properties": {"highway": "primary", "lanes": "2", "ref": "EN 228", "source": "Bing", "surface": "asphalt"}}, {"type": "Feature", "geometry": {"type": "LineString", "coordinates": [[-8.2038741, 40.493077], [-8.2038281, 40.4931611]]}, "properties": {"bridge": "yes", "highway": "primary", "lanes": "2", "layer": "1", "ref": "EN 228", "source": "Bing", "surface": "asphalt"}}, {"type": "Feature", "geometry": {"type": "LineString", "coordinates": [[-8.2015, 40.4962045], [-8.201376, 40.4961676], [-8.2012337, 40.4960937], [-8.2011283, 40.496015]]}, "properties": {"highway": "primary", "lanes": "2", "ref": "EN 228", "source": "Bing", "surface": "asphalt"}}, {"type": "Feature", "geometry": {"type": "LineString", "coordinates": [[-8.2016261, 40.4962181], [-8.2015, 40.4962045]]}, "properties": {"bridge": "yes", "highway": "primary", "lanes": "2", "layer": "1", "ref": "EN 228", "source": "Bing", "surface": "asphalt"}}, {"type": "Feature", "geometry": {"type": "LineString", "coordinates": [[-8.2139486, 40.3993848], [-8.2141148, 40.3995683], [-8.2141439, 40.3996251], [-8.2141511, 40.3996699], [-8.2141584, 40.3997147]]}, "properties": {"highway": "primary", "lanes": "1", "oneway": "yes", "ref": "EN 228", "surface": "asphalt"}}, {"type": "Feature", "geometry": {"type": "LineString", "coordinates": [[-8.2143718, 40.3996564], [-8.2142278, 40.3995639], [-8.2139486, 40.3993848]]}, "properties": {"highway": "primary", "lanes": "1", "oneway": "yes", "ref": "EN 228", "surface": "asphalt"}}, {"type": "Feature", "geometry": {"type": "LineString", "coordinates": [[-8.1953318, 40.3789594], [-8.1953087, 40.378923], [-8.1952362, 40.3787882], [-8.1951571, 40.3786233], [-8.1950828, 40.3784666]]}, "properties": {"highway": "primary", "lanes": "2", "maxspeed": "70", "maxspeed:type": "sign", "ref": "EN 228", "surface": "asphalt"}}, {"type": "Feature", "geometry": {"type": "LineString", "coordinates": [[-8.1950828, 40.3784666], [-8.1950512, 40.3783673], [-8.1950109, 40.3782304], [-8.1949439, 40.3779729], [-8.194909, 40.3778115], [-8.1948795, 40.3776317], [-8.1948189, 40.3771634], [-8.1946822, 40.3761477], [-8.1945174, 40.3748855], [-8.1941581, 40.3722377], [-8.1941151, 40.3719205], [-8.1941017, 40.3717672], [-8.194099, 40.3716262], [-8.1941044, 40.3714811], [-8.1941124, 40.3713544], [-8.1941258, 40.3712257], [-8.1941419, 40.3711174], [-8.1941634, 40.371005], [-8.1942009, 40.3708681], [-8.1942546, 40.3707291], [-8.1943431, 40.3705248], [-8.1944584, 40.370302], [-8.1949633, 40.3695089], [-8.1952002, 40.3691223], [-8.195312, 40.368945], [-8.1953368, 40.3689057], [-8.1957194, 40.3682992], [-8.1967249, 40.3667054], [-8.1968322, 40.3665235], [-8.1969153, 40.3663518], [-8.1970146, 40.3661045], [-8.1970843, 40.3658736], [-8.1971138, 40.3657224], [-8.1971433, 40.3655201], [-8.1971527, 40.3653817], [-8.197146, 40.3651951], [-8.1971406, 40.3650725], [-8.1971272, 40.364956], [-8.1971107, 40.3648589], [-8.1971004, 40.3647986], [-8.1970655, 40.3646433], [-8.1970119, 40.3644696], [-8.1969368, 40.3642734], [-8.1968804, 40.364161], [-8.1968188, 40.3640404], [-8.196741, 40.3639076], [-8.1966444, 40.3637543], [-8.1965733, 40.3636486], [-8.1955566, 40.3623148], [-8.1954947, 40.3622336], [-8.1950216, 40.3616129], [-8.1948681, 40.3614106], [-8.1946837, 40.3611772], [-8.1945791, 40.3610259], [-8.1945056, 40.3609043], [-8.1944611, 40.3608215], [-8.1944316, 40.3607602], [-8.1943914, 40.3606683], [-8.1943538, 40.3605722], [-8.1943216, 40.3604802], [-8.1942948, 40.3603842], [-8.1942546, 40.3602043], [-8.1942251, 40.3600265], [-8.1942063, 40.3598753], [-8.1942036, 40.3597792], [-8.194209, 40.3596688], [-8.1942251, 40.3595401], [-8.1942465, 40.3594154], [-8.194268, 40.3593112], [-8.1942867, 40.3592192], [-8.1943216, 40.3590904], [-8.1943672, 40.3589596], [-8.1944235, 40.3588309], [-8.1945254, 40.358632], [-8.1949009, 40.3579793], [-8.1953451, 40.3571674]]}, "properties": {"highway": "primary", "lanes": "2", "maxspeed": "90", "maxspeed:type": "sign", "ref": "EN 228", "surface": "asphalt"}}, {"type": "Feature", "geometry": {"type": "LineString", "coordinates": [[-8.2139486, 40.3993848], [-8.2120297, 40.3977775]]}, "properties": {"highway": "primary", "lanes": "2", "lit": "yes", "maxspeed": "50", "maxspeed:type": "sign", "ref": "EN 228", "surface": "asphalt"}}, {"type": "Feature", "geometry": {"type": "LineString", "coordinates": [[-8.1875169, 40.4943896], [-8.1875466, 40.4945109], [-8.1876741, 40.4946977], [-8.1880355, 40.4951244], [-8.1881407, 40.4953141], [-8.1882052, 40.4954581], [-8.1882388, 40.4956592], [-8.1882289, 40.4959461], [-8.1882248, 40.4960666], [-8.1882253, 40.4961757]]}, "properties": {"highway": "primary", "lanes": "2", "maxspeed": "90", "name": "Rua In\u00e1cio Pereira Viegas", "ref": "EN 228", "source": "Bing", "surface": "asphalt"}}, {"type": "Feature", "geometry": {"type": "LineString", "coordinates": [[-8.1901838, 40.4881687], [-8.1901499, 40.4882583], [-8.1901477, 40.4883606], [-8.1901737, 40.4884919], [-8.1902281, 40.4887663], [-8.190215, 40.4888464], [-8.1901577, 40.4889499], [-8.1900829, 40.4890056], [-8.1899861, 40.4890479], [-8.1898958, 40.4890687], [-8.1897315, 40.4890796], [-8.1896425, 40.4890809], [-8.1895536, 40.4890822], [-8.1894802, 40.48909]]}, "properties": {"highway": "primary", "lanes": "2", "maxspeed": "90", "name": "Rua In\u00e1cio Pereira Viegas", "ref": "EN 228", "source": "Bing", "surface": "asphalt"}}, {"type": "Feature", "geometry": {"type": "LineString", "coordinates": [[-8.2022422, 40.3507317], [-8.2024675, 40.3506617], [-8.202727, 40.3506297]]}, "properties": {"highway": "primary", "lanes": "2", "oneway": "yes", "ref": "EN 228", "source": "Bing", "turn:lanes": "left|through;right"}}, {"type": "Feature", "geometry": {"type": "LineString", "coordinates": [[-8.1969429, 40.355383], [-8.1975764, 40.354837]]}, "properties": {"cutting": "yes", "highway": "primary", "ref": "EN 228", "source": "Bing"}}, {"type": "Feature", "geometry": {"type": "LineString", "coordinates": [[-8.1956844, 40.3566585], [-8.195903, 40.3563713], [-8.1960908, 40.3561965]]}, "properties": {"highway": "primary", "lanes": "2", "oneway": "yes", "placement": "middle_of:2", "ref": "EN 228", "source": "Bing", "surface": "asphalt", "turn:lanes": "left|through;right"}}, {"type": "Feature", "geometry": {"type": "LineString", "coordinates": [[-8.1963428, 40.3558284], [-8.1962048, 40.3559512]]}, "properties": {"cutting": "right", "highway": "primary", "lanes": "3", "oneway": "yes", "ref": "EN 228", "surface": "asphalt", "turn:lanes": "left|through|right"}}, {"type": "Feature", "geometry": {"type": "LineString", "coordinates": [[-8.1959969, 40.3561413], [-8.195822, 40.3563225]]}, "properties": {"highway": "primary", "lanes": "1", "oneway": "yes", "ref": "EN 228", "surface": "asphalt"}}, {"type": "Feature", "geometry": {"type": "LineString", "coordinates": [[-8.196706, 40.3556178], [-8.1969429, 40.355383]]}, "properties": {"cutting": "right", "highway": "primary", "lanes": "1", "oneway": "yes", "ref": "EN 228", "source": "Bing", "surface": "asphalt"}}, {"type": "Feature", "geometry": {"type": "LineString", "coordinates": [[-8.1960908, 40.3561965], [-8.1962883, 40.3559962], [-8.196706, 40.3556178]]}, "properties": {"cutting": "right", "destination": "Viseu;Guarda;Barragem da Aguieira", "highway": "primary", "lanes": "1", "oneway": "yes", "ref": "EN 228", "source": "Bing", "surface": "asphalt"}}, {"type": "Feature", "geometry": {"type": "LineString", "coordinates": [[-8.1962048, 40.3559512], [-8.1959969, 40.3561413]]}, "properties": {"destination": "Mort\u00e1gua", "highway": "primary", "lanes": "2", "oneway": "yes", "placement": "middle_of:2", "ref": "EN 228", "surface": "asphalt", "turn:lanes": "left|through"}}, {"type": "Feature", "geometry": {"type": "LineString", "coordinates": [[-8.1969429, 40.355383], [-8.1966286, 40.3555741], [-8.1963428, 40.3558284]]}, "properties": {"cutting": "right", "highway": "primary", "lanes": "1", "oneway": "yes", "ref": "EN 228", "surface": "asphalt", "turn": "left;through;right"}}, {"type": "Feature", "geometry": {"type": "LineString", "coordinates": [[-8.0898545, 40.6249443], [-8.0899021, 40.6248727]]}, "properties": {"highway": "primary", "lanes": "1", "oneway": "yes", "ref": "EN 228", "surface": "asphalt"}}, {"type": "Feature", "geometry": {"type": "LineString", "coordinates": [[-8.0955366, 40.6178328], [-8.0955025, 40.6178353], [-8.0954696, 40.6178426], [-8.0954191, 40.6178655], [-8.0953808, 40.6178993], [-8.0953584, 40.6179406], [-8.0953541, 40.6179824], [-8.0953663, 40.6180233]]}, "properties": {"highway": "primary", "junction": "roundabout", "name": "EN 228", "ref": "EN 228", "source": "Bing"}}, {"type": "Feature", "geometry": {"type": "LineString", "coordinates": [[-8.0957112, 40.6179267], [-8.0956845, 40.6178886], [-8.0956437, 40.6178585], [-8.0955928, 40.6178393], [-8.0955366, 40.6178328]]}, "properties": {"highway": "primary", "junction": "roundabout", "name": "EN 228", "ref": "EN 228", "source": "Bing"}}, {"type": "Feature", "geometry": {"type": "LineString", "coordinates": [[-8.0958024, 40.6176454], [-8.0958788, 40.6175506], [-8.0983833, 40.6144407], [-8.0986426, 40.6141518], [-8.0987685, 40.6140223], [-8.0990449, 40.6137389]]}, "properties": {"highway": "primary", "lanes": "2", "oneway": "no", "ref": "EN 228", "source": "Bing", "surface": "asphalt"}}, {"type": "Feature", "geometry": {"type": "LineString", "coordinates": [[-8.0990449, 40.6137389], [-8.0992539, 40.6135524]]}, "properties": {"highway": "primary", "lanes": "2", "oneway": "no", "ref": "EN 228", "source": "Bing", "surface": "asphalt"}}, {"type": "Feature", "geometry": {"type": "LineString", "coordinates": [[-8.0953663, 40.6180233], [-8.0953938, 40.6180594], [-8.0954341, 40.6180877], [-8.0954836, 40.6181058], [-8.0955379, 40.6181119]]}, "properties": {"highway": "primary", "junction": "roundabout", "name": "EN 228", "ref": "EN 228", "source": "Bing"}}, {"type": "Feature", "geometry": {"type": "LineString", "coordinates": [[-8.0898444, 40.6250997], [-8.0898696, 40.6250741], [-8.0898846, 40.6250443], [-8.0898885, 40.6250125], [-8.0898809, 40.6249812], [-8.0898624, 40.6249525]]}, "properties": {"highway": "primary", "junction": "roundabout", "ref": "EN 228", "surface": "asphalt"}}, {"type": "Feature", "geometry": {"type": "LineString", "coordinates": [[-8.0897819, 40.6251289], [-8.0898155, 40.6251172], [-8.0898444, 40.6250997]]}, "properties": {"highway": "primary", "junction": "roundabout", "ref": "EN 228", "surface": "asphalt"}}, {"type": "Feature", "geometry": {"type": "LineString", "coordinates": [[-8.1361089, 40.5463448], [-8.1361339, 40.5463661]]}, "properties": {"highway": "primary", "junction": "roundabout", "ref": "EN 228", "source": "bing", "surface": "asphalt"}}, {"type": "Feature", "geometry": {"type": "LineString", "coordinates": [[-8.1364458, 40.5462632], [-8.1364353, 40.5462148]]}, "properties": {"highway": "primary", "junction": "roundabout", "ref": "EN 228", "source": "bing", "surface": "asphalt"}}, {"type": "Feature", "geometry": {"type": "LineString", "coordinates": [[-8.1500332, 40.5298021], [-8.1498035, 40.5299523], [-8.1495481, 40.5300735], [-8.1492574, 40.5301342], [-8.1491025, 40.5301696], [-8.1489431, 40.5301881], [-8.1486688, 40.5302725], [-8.1485564, 40.5303264], [-8.1482936, 40.5304895], [-8.1481165, 40.5306689], [-8.1480133, 40.5308478], [-8.1479824, 40.5309013], [-8.1479233, 40.5311618], [-8.1478922, 40.5312992]]}, "properties": {"highway": "primary", "name": "Rua Principal", "ref": "EN 228", "source": "Bing"}}, {"type": "Feature", "geometry": {"type": "LineString", "coordinates": [[-8.1562653, 40.5251277], [-8.1555244, 40.5257551], [-8.1550182, 40.5262967], [-8.1549351, 40.5263877]]}, "properties": {"highway": "primary", "ref": "EN 228", "source": "Bing"}}, {"type": "Feature", "geometry": {"type": "LineString", "coordinates": [[-8.1313217, 40.5808265], [-8.1314388, 40.5807557], [-8.1314703, 40.5806687], [-8.1314817, 40.5805765], [-8.1314486, 40.5804405]]}, "properties": {"highway": "primary", "lanes": "2", "name": "Rua Padre Ant\u00f3nio Vieira", "old_ref": "EN 228", "ref": "EN 228", "source": "Bing", "surface": "asphalt"}}, {"type": "Feature", "geometry": {"type": "LineString", "coordinates": [[-8.1748424, 40.5121675], [-8.174428, 40.5122358], [-8.1741125, 40.5123429], [-8.1738749, 40.5124766], [-8.173621, 40.5126407], [-8.1719176, 40.5139904], [-8.1717334, 40.5141363], [-8.171583, 40.5142814], [-8.1714398, 40.5144598], [-8.1713883, 40.5145592], [-8.170699, 40.5160603], [-8.1703843, 40.5167455], [-8.1703393, 40.5168132], [-8.1702791, 40.5169038], [-8.1701582, 40.5169997], [-8.1701012, 40.5170346], [-8.169596, 40.5172777], [-8.1690761, 40.5175042], [-8.1689399, 40.5175501], [-8.1686326, 40.5176209], [-8.167136, 40.5178381]]}, "properties": {"highway": "primary", "ref": "EN 228", "source": "Bing"}}, {"type": "Feature", "geometry": {"type": "LineString", "coordinates": [[-8.1804391, 40.5059954], [-8.18039, 40.5058918], [-8.180321, 40.5057799], [-8.1803026, 40.5057484]]}, "properties": {"highway": "primary", "oneway": "yes", "ref": "EN 228", "source": "Bing"}}, {"type": "Feature", "geometry": {"type": "LineString", "coordinates": [[-8.2038281, 40.4931611], [-8.2034712, 40.4938128], [-8.2029672, 40.4947882]]}, "properties": {"highway": "primary", "lanes": "2", "ref": "EN 228", "source": "Bing", "surface": "asphalt"}}, {"type": "Feature", "geometry": {"type": "LineString", "coordinates": [[-8.1095351, 40.5975932], [-8.1100563, 40.5970259], [-8.1109359, 40.5961182], [-8.1109631, 40.5960901]]}, "properties": {"highway": "primary", "lanes": "2", "maxspeed": "50", "name": "Rua Alfredo Marques", "oneway": "no", "ref": "EN 228", "source": "Bing", "surface": "asphalt"}}, {"type": "Feature", "geometry": {"type": "LineString", "coordinates": [[-8.1248658, 40.5860954], [-8.1249396, 40.5860315], [-8.1250768, 40.5859125], [-8.1252166, 40.5857913]]}, "properties": {"highway": "primary", "lanes": "2", "name": "Rua Padre Jos\u00e9 J. Sousa J\u00fanior", "old_ref": "EN 228", "ref": "EN 228", "source": "Bing", "surface": "asphalt"}}, {"type": "Feature", "geometry": {"type": "LineString", "coordinates": [[-8.1109631, 40.5960901], [-8.1110806, 40.5959689]]}, "properties": {"highway": "primary", "lanes": "2", "maxspeed": "50", "name": "Rua Alfredo Marques", "oneway": "no", "ref": "EN 228", "source": "Bing", "surface": "asphalt"}}, {"type": "Feature", "geometry": {"type": "LineString", "coordinates": [[-8.1801649, 40.505642], [-8.1801691, 40.5056594], [-8.1802044, 40.5057266], [-8.1802641, 40.5058122], [-8.1803392, 40.5059029], [-8.1804391, 40.5059954]]}, "properties": {"highway": "primary", "oneway": "yes", "ref": "EN 228"}}, {"type": "Feature", "geometry": {"type": "LineString", "coordinates": [[-8.1362558, 40.5461203], [-8.1361988, 40.546128], [-8.1361423, 40.5461519]]}, "properties": {"highway": "primary", "junction": "roundabout", "ref": "EN 228", "source": "bing", "surface": "asphalt"}}, {"type": "Feature", "geometry": {"type": "LineString", "coordinates": [[-8.167136, 40.5178381], [-8.166408, 40.5179562], [-8.1661608, 40.5180141], [-8.1659428, 40.5181217], [-8.1656237, 40.5182878]]}, "properties": {"highway": "primary", "ref": "EN 228", "source": "Bing"}}, {"type": "Feature", "geometry": {"type": "LineString", "coordinates": [[-8.1075398, 40.7229303], [-8.1073772, 40.7229616], [-8.1073286, 40.7229638], [-8.107277, 40.7229662], [-8.1071641, 40.722955], [-8.1070514, 40.7229216]]}, "properties": {"highway": "primary", "name": "Avenida Jo\u00e3o Ramalho", "ref": "EN 228", "source": "Bing", "surface": "paved"}}, {"type": "Feature", "geometry": {"type": "LineString", "coordinates": [[-8.097117, 40.7249431], [-8.0967923, 40.7250296], [-8.0956923, 40.7253226], [-8.0938928, 40.7256439], [-8.0936228, 40.7256737], [-8.0933233, 40.725659], [-8.0928084, 40.7256129], [-8.0924912, 40.7255845], [-8.0910817, 40.725393]]}, "properties": {"highway": "primary", "ref": "EN 228", "source": "Bing"}}, {"type": "Feature", "geometry": {"type": "LineString", "coordinates": [[-8.0794008, 40.7255868], [-8.0794329, 40.7257792], [-8.0794654, 40.7262937], [-8.0794886, 40.7264039], [-8.0795458, 40.7265], [-8.0799928, 40.7270883], [-8.0800964, 40.7271704], [-8.0802155, 40.7272091], [-8.0803237, 40.7272266], [-8.0807972, 40.7271934], [-8.0808743, 40.727188], [-8.0812455, 40.7271821], [-8.0818378, 40.7272067], [-8.0819584, 40.727216], [-8.0822182, 40.727236], [-8.0823713, 40.7272325], [-8.082492, 40.7272055], [-8.0825894, 40.7271704], [-8.0826806, 40.7271141], [-8.0827363, 40.7270497], [-8.0827657, 40.7269641], [-8.0826865, 40.7260058], [-8.0826988, 40.7259127], [-8.0827344, 40.7258488], [-8.0827847, 40.7257896], [-8.0828829, 40.7257316], [-8.0830027, 40.7256976], [-8.0841856, 40.7256354], [-8.0843, 40.7256425], [-8.0844129, 40.7256788], [-8.0844879, 40.7257357], [-8.0845305, 40.7257913], [-8.0846393, 40.7260499], [-8.0846989, 40.7261285], [-8.0847847, 40.7261824], [-8.0848968, 40.7262169], [-8.0850329, 40.7262228], [-8.0853085, 40.7262109], [-8.0856194, 40.7261745]]}, "properties": {"highway": "primary", "ref": "EN 228", "source": "Bing"}}, {"type": "Feature", "geometry": {"type": "LineString", "coordinates": [[-8.0898624, 40.6249525], [-8.0898545, 40.6249443], [-8.0898289, 40.6249254], [-8.0897982, 40.6249114], [-8.0897642, 40.6249032], [-8.0897285, 40.6249011], [-8.0896932, 40.6249054]]}, "properties": {"highway": "primary", "junction": "roundabout", "ref": "EN 228", "surface": "asphalt"}}, {"type": "Feature", "geometry": {"type": "LineString", "coordinates": [[-8.0896932, 40.6249054], [-8.089654, 40.6249185], [-8.089621, 40.6249394], [-8.0895969, 40.6249663], [-8.0895836, 40.6249972]]}, "properties": {"highway": "primary", "junction": "roundabout", "ref": "EN 228", "surface": "asphalt"}}, {"type": "Feature", "geometry": {"type": "LineString", "coordinates": [[-8.0895836, 40.6249972], [-8.0895819, 40.6250291], [-8.0895917, 40.6250602], [-8.0896123, 40.6250881]]}, "properties": {"highway": "primary", "junction": "roundabout", "ref": "EN 228", "surface": "asphalt"}}, {"type": "Feature", "geometry": {"type": "LineString", "coordinates": [[-8.0723215, 40.7168093], [-8.0723448, 40.7168469], [-8.0724924, 40.7170259], [-8.0730719, 40.7177071], [-8.0732204, 40.7178266], [-8.0733503, 40.7178993], [-8.0734044, 40.7179261], [-8.0739203, 40.7181821], [-8.0740548, 40.7182488], [-8.0742577, 40.7183495], [-8.0743756, 40.718408], [-8.0745442, 40.7184701], [-8.074705, 40.7184959], [-8.075251, 40.7185522], [-8.0755154, 40.7186049], [-8.0758501, 40.7187081], [-8.0768841, 40.7190269], [-8.0770511, 40.7191031], [-8.0771841, 40.7191863], [-8.077314, 40.7193188], [-8.0773991, 40.7194641], [-8.0774161, 40.7195696], [-8.0774161, 40.7196481], [-8.0773496, 40.7197782], [-8.0770728, 40.7201346], [-8.0770155, 40.7202459], [-8.07698, 40.7203526], [-8.0768761, 40.7213611], [-8.0768848, 40.721473], [-8.0769143, 40.7215517], [-8.0773977, 40.7223013], [-8.0776651, 40.7227159], [-8.0779288, 40.7231247], [-8.0792289, 40.7251406], [-8.0793279, 40.725334], [-8.0794008, 40.7255868]]}, "properties": {"highway": "primary", "ref": "EN 228", "source": "Bing"}}, {"type": "Feature", "geometry": {"type": "LineString", "coordinates": [[-8.0685413, 40.6689976], [-8.06851, 40.6698001], [-8.0685186, 40.6701289], [-8.0685615, 40.6703665], [-8.0686559, 40.6707017]]}, "properties": {"highway": "primary", "ref": "EN 228", "source": "Bing"}}, {"type": "Feature", "geometry": {"type": "LineString", "coordinates": [[-8.0680537, 40.6650559], [-8.0684227, 40.665921], [-8.0684267, 40.6659302]]}, "properties": {"highway": "primary", "ref": "EN 228", "source": "Bing"}}, {"type": "Feature", "geometry": {"type": "LineString", "coordinates": [[-8.0684267, 40.6659302], [-8.0684392, 40.6659627], [-8.0684792, 40.6660732], [-8.0685358, 40.6662296], [-8.0685937, 40.6665177], [-8.0686215, 40.6668714], [-8.0686226, 40.6669544]]}, "properties": {"highway": "primary", "ref": "EN 228", "source": "Bing"}}, {"type": "Feature", "geometry": {"type": "LineString", "coordinates": [[-8.0856194, 40.7261745], [-8.0860855, 40.726068], [-8.087268, 40.7257514], [-8.0874644, 40.7256834], [-8.0894206, 40.7250062], [-8.0895365, 40.7249811], [-8.0896961, 40.7249704], [-8.0898285, 40.7249795], [-8.0899837, 40.7250076], [-8.0908487, 40.7253309], [-8.0910817, 40.725393]]}, "properties": {"highway": "primary", "ref": "EN 228", "source": "Bing"}}, {"type": "Feature", "geometry": {"type": "MultiPolygon", "coordinates": [[[[-8.070653, 40.6510943], [-8.0706464, 40.6510324], [-8.0706139, 40.6509733], [-8.0705584, 40.650925], [-8.0704857, 40.6508924], [-8.0704258, 40.6508806], [-8.0703639, 40.6508796], [-8.0703033, 40.6508895], [-8.0702392, 40.6509141], [-8.0701861, 40.6509509], [-8.070148, 40.6509971], [-8.0701278, 40.6510494], [-8.0701276, 40.6511079], [-8.0701495, 40.6511639], [-8.070183, 40.6512048], [-8.0702284, 40.6512385], [-8.0702987, 40.6512678], [-8.0703772, 40.6512797], [-8.0704569, 40.6512732], [-8.0705304, 40.651249], [-8.0705921, 40.6512081], [-8.0706343, 40.6511548], [-8.070653, 40.6510943]]]]}, "properties": {"highway": "primary", "junction": "roundabout", "lanes": "2", "ref": "EN 228", "source": "Bing", "surface": "asphalt"}}]}