{"type": "FeatureCollection", "features": [{"type": "Feature", "geometry": {"type": "LineString", "coordinates": [[-8.5778221, 38.1776993], [-8.5778639, 38.1777293], [-8.5779368, 38.1777496], [-8.5779886, 38.1777478], [-8.5780373, 38.1777338], [-8.5780784, 38.1777089], [-8.5781079, 38.1776753], [-8.5781238, 38.1776319], [-8.578123, 38.1775981], [-8.5781114, 38.1775655], [-8.5780898, 38.1775363], [-8.5780595, 38.1775123], [-8.5780224, 38.1774951], [-8.5779792, 38.1774855], [-8.5779307, 38.1774857], [-8.5778842, 38.1774966], [-8.5778435, 38.1775175], [-8.5778121, 38.1775465], [-8.5777924, 38.1775814], [-8.5777862, 38.1776162], [-8.5777952, 38.1776601], [-8.5778221, 38.1776993]]}, "properties": {"highway": "primary", "junction": "roundabout", "ref": "EN 261-1"}}, {"type": "Feature", "geometry": {"type": "LineString", "coordinates": [[-8.6130086, 38.1981802], [-8.6131202, 38.1982878], [-8.6132273, 38.1983887], [-8.6133466, 38.1984946], [-8.613452, 38.1985876], [-8.6135603, 38.1986723], [-8.6136909, 38.1987742], [-8.6138208, 38.1988676], [-8.6139311, 38.1989452], [-8.6140445, 38.1990237], [-8.6141677, 38.1991006], [-8.6143151, 38.1991923], [-8.6143878, 38.1992346], [-8.6144504, 38.199271], [-8.6145845, 38.1993442], [-8.6146269, 38.1993674], [-8.6146973, 38.199406], [-8.614802, 38.1994609], [-8.6149021, 38.1995114], [-8.6150062, 38.199561], [-8.615159, 38.1996288], [-8.6153167, 38.1996979], [-8.6154136, 38.1997377], [-8.6155087, 38.1997774], [-8.6156016, 38.1998135], [-8.6157058, 38.1998522], [-8.6158348, 38.1998965], [-8.6159334, 38.1999272], [-8.6161262, 38.1999879], [-8.616307, 38.2000405], [-8.6165106, 38.2000955], [-8.6166419, 38.2001298], [-8.61676, 38.200157], [-8.6168946, 38.2001856], [-8.6170385, 38.2002135], [-8.6176078, 38.2003032], [-8.6191098, 38.2005399], [-8.6218061, 38.2009316], [-8.6229695, 38.2012913], [-8.6239518, 38.201681], [-8.625182, 38.202333], [-8.6260975, 38.2030299], [-8.6283251, 38.205218], [-8.6313234, 38.2081631], [-8.6323343, 38.2090548], [-8.6387457, 38.2134951], [-8.6406119, 38.2148394], [-8.6411502, 38.2153173], [-8.6415655, 38.2156861], [-8.6423475, 38.2165702], [-8.6593294, 38.2389301], [-8.6657627, 38.2473933], [-8.6674726, 38.2496272], [-8.6686702, 38.251189], [-8.668976, 38.2515724], [-8.6696573, 38.2523086], [-8.6740099, 38.2570192], [-8.6745228, 38.2575742], [-8.6750472, 38.2581407], [-8.6760891, 38.2592675], [-8.6766391, 38.2598667], [-8.677263, 38.2604705], [-8.6781727, 38.2615235], [-8.678403, 38.261775], [-8.6786295, 38.2620245], [-8.680287, 38.2637129], [-8.6812725, 38.2645711], [-8.6823148, 38.26533], [-8.6863272, 38.2682513], [-8.6866164, 38.2684403]]}, "properties": {"highway": "primary", "oneway": "no", "ref": "EN 261-1"}}, {"type": "Feature", "geometry": {"type": "LineString", "coordinates": [[-8.6127944, 38.1979575], [-8.6128969, 38.1980661], [-8.6130086, 38.1981802]]}, "properties": {"bridge": "viaduct", "highway": "primary", "layer": "1", "oneway": "no", "ref": "EN 261-1"}}, {"type": "Feature", "geometry": {"type": "LineString", "coordinates": [[-8.5745779, 38.177037], [-8.5745914, 38.1770828], [-8.5746059, 38.1771042], [-8.574649, 38.1771396], [-8.5746937, 38.1771579], [-8.5747806, 38.1771631], [-8.5748395, 38.1771456], [-8.5748917, 38.1771068], [-8.5749193, 38.1770549], [-8.5749138, 38.1769878], [-8.5748871, 38.1769478], [-8.5748585, 38.1769246], [-8.5747869, 38.1768975], [-8.5747221, 38.1768961], [-8.574646, 38.1769218], [-8.5746053, 38.1769562], [-8.574591, 38.1769775], [-8.5745779, 38.177037]]}, "properties": {"highway": "primary", "junction": "roundabout", "ref": "EN 261-1"}}, {"type": "Feature", "geometry": {"type": "LineString", "coordinates": [[-8.5779792, 38.1774855], [-8.5776911, 38.1772829], [-8.5774872, 38.1770974], [-8.5772673, 38.1769476], [-8.5771486, 38.176889], [-8.576973, 38.1768598], [-8.5767581, 38.1768814], [-8.5765189, 38.1769352]]}, "properties": {"highway": "primary", "layer": "1", "oneway": "yes", "ref": "EN 261-1"}}, {"type": "Feature", "geometry": {"type": "LineString", "coordinates": [[-8.5785193, 38.1781884], [-8.5788399, 38.1784808], [-8.5790697, 38.1786692], [-8.5793168, 38.1788551], [-8.5794449, 38.1789409], [-8.5797456, 38.1791014], [-8.5800487, 38.1792501], [-8.5803504, 38.1793724], [-8.5806575, 38.1794799], [-8.5811884, 38.1795998], [-8.5815775, 38.179676], [-8.5820818, 38.1797392], [-8.5835221, 38.1797983], [-8.5843188, 38.1798278], [-8.5851744, 38.1798573], [-8.5855457, 38.1798831], [-8.5858984, 38.1799325], [-8.5862621, 38.1800025], [-8.5866405, 38.1801118], [-8.5869301, 38.1802125], [-8.587258, 38.1803562], [-8.587572, 38.1805224], [-8.5877782, 38.1806449], [-8.5880179, 38.1808153], [-8.5882408, 38.1809979], [-8.5887537, 38.1814948], [-8.5898004, 38.1825808], [-8.5903697, 38.1831732], [-8.5910124, 38.1838231], [-8.5915817, 38.1843414], [-8.5920653, 38.1847462], [-8.5927037, 38.1852097], [-8.593338, 38.1856215], [-8.5941399, 38.1860821], [-8.5948996, 38.1864491], [-8.5957834, 38.1868255], [-8.5982771, 38.1877062], [-8.5987224, 38.1878542], [-8.5990369, 38.1879721], [-8.6005625, 38.1885438], [-8.6013595, 38.1888425], [-8.6038967, 38.1899122], [-8.605214, 38.1904675], [-8.6069113, 38.191159], [-8.6079745, 38.1915376], [-8.6093749, 38.1922885], [-8.6098454, 38.1926306], [-8.610293, 38.1930541], [-8.6105785, 38.1934339], [-8.6108982, 38.1939484], [-8.6110371, 38.1942845], [-8.6113448, 38.1951522], [-8.6116181, 38.1959319], [-8.6116932, 38.1961363], [-8.6117601, 38.1963205], [-8.6118547, 38.1965476], [-8.6118898, 38.1966211], [-8.6119322, 38.1967109], [-8.6119897, 38.1968221], [-8.6120277, 38.1968904], [-8.612035, 38.1969035], [-8.6120729, 38.1969709], [-8.6121194, 38.197051], [-8.6122085, 38.197191], [-8.6123091, 38.1973407], [-8.6123684, 38.197428], [-8.6124541, 38.1975442], [-8.612514, 38.1976249], [-8.6125826, 38.1977134], [-8.6126317, 38.1977734], [-8.6126808, 38.1978314], [-8.6127364, 38.1978947], [-8.6127944, 38.1979575]]}, "properties": {"highway": "primary", "ref": "EN 261-1", "surface": "asphalt"}}, {"type": "Feature", "geometry": {"type": "LineString", "coordinates": [[-8.5779368, 38.1777496], [-8.5780827, 38.1778543], [-8.5782145, 38.1779493], [-8.5785193, 38.1781884]]}, "properties": {"highway": "primary", "oneway": "yes", "ref": "EN 261-1", "surface": "asphalt"}}, {"type": "Feature", "geometry": {"type": "LineString", "coordinates": [[-8.5765189, 38.1769352], [-8.576054, 38.1770692], [-8.5757565, 38.1771521]]}, "properties": {"bridge": "viaduct", "highway": "primary", "layer": "1", "oneway": "yes", "ref": "EN 261-1"}}, {"type": "Feature", "geometry": {"type": "LineString", "coordinates": [[-8.5785193, 38.1781884], [-8.5783697, 38.1780103], [-8.5782007, 38.17781], [-8.5781079, 38.1776753]]}, "properties": {"highway": "primary", "oneway": "yes", "ref": "EN 261-1"}}, {"type": "Feature", "geometry": {"type": "LineString", "coordinates": [[-8.5757894, 38.1771838], [-8.576527, 38.1769708]]}, "properties": {"bridge": "viaduct", "highway": "primary", "layer": "1", "oneway": "yes", "ref": "EN 261-1"}}, {"type": "Feature", "geometry": {"type": "LineString", "coordinates": [[-8.5748917, 38.1771068], [-8.5749874, 38.1771016], [-8.5751698, 38.1771353], [-8.5754765, 38.1772082], [-8.5756301, 38.1772096], [-8.5757894, 38.1771838]]}, "properties": {"highway": "primary", "oneway": "yes", "ref": "EN 261-1"}}, {"type": "Feature", "geometry": {"type": "LineString", "coordinates": [[-8.5757565, 38.1771521], [-8.5755095, 38.1771694], [-8.575313, 38.1771291], [-8.5750762, 38.1770575], [-8.5749138, 38.1769878]]}, "properties": {"highway": "primary", "layer": "1", "oneway": "yes", "ref": "EN 261-1"}}, {"type": "Feature", "geometry": {"type": "LineString", "coordinates": [[-8.576527, 38.1769708], [-8.5767442, 38.1769245], [-8.5769293, 38.1769055], [-8.5771063, 38.1769245], [-8.577286, 38.1770004], [-8.5775114, 38.1771943], [-8.5776616, 38.177363], [-8.577778, 38.1775259], [-8.5777924, 38.1775814]]}, "properties": {"highway": "primary", "oneway": "yes", "ref": "EN 261-1"}}, {"type": "Feature", "geometry": {"type": "LineString", "coordinates": [[-8.7246445, 38.2971], [-8.7247306, 38.2972012]]}, "properties": {"highway": "primary", "lanes": "2", "oneway": "no", "ref": "EN 261-1", "surface": "asphalt"}}, {"type": "Feature", "geometry": {"type": "LineString", "coordinates": [[-8.6873855, 38.268695], [-8.6873687, 38.2686446], [-8.6873197, 38.2685965], [-8.6872606, 38.268558], [-8.6871885, 38.2685258], [-8.6870727, 38.268505], [-8.686989, 38.2684991], [-8.686901, 38.2685126], [-8.6868081, 38.2685486], [-8.6867674, 38.2685908], [-8.6867456, 38.2686371], [-8.6867448, 38.268678], [-8.6867595, 38.2687421], [-8.6868003, 38.2687975], [-8.6869064, 38.2688692], [-8.6869753, 38.2688855], [-8.6870111, 38.2688936], [-8.6871192, 38.2689058], [-8.6872009, 38.2689029], [-8.6872751, 38.2688887], [-8.6873244, 38.2688554], [-8.6873648, 38.2688195], [-8.6873907, 38.2687481], [-8.6873855, 38.268695]]}, "properties": {"highway": "primary", "junction": "roundabout", "ref": "EN 261-1"}}, {"type": "Feature", "geometry": {"type": "LineString", "coordinates": [[-8.6875636, 38.2689969], [-8.6880797, 38.2693572], [-8.6890187, 38.2700326], [-8.6891515, 38.2701295], [-8.6892643, 38.2702118], [-8.6892798, 38.2702228], [-8.6896173, 38.2704636], [-8.6903898, 38.2710244], [-8.6906647, 38.2712615], [-8.6908075, 38.2713847], [-8.6912067, 38.2717332], [-8.6919044, 38.2722507], [-8.6929806, 38.2730219], [-8.6937262, 38.2735634], [-8.6946547, 38.274224], [-8.6955795, 38.2748585], [-8.696706, 38.2756639], [-8.6981906, 38.2767388], [-8.6982442, 38.2767798], [-8.6993292, 38.2775547], [-8.7000668, 38.2780843], [-8.7006421, 38.2784991], [-8.7012054, 38.2788981], [-8.7019953, 38.2794771], [-8.7030881, 38.2802704], [-8.705334, 38.2818795], [-8.7068515, 38.2829711], [-8.708277, 38.283999], [-8.7115287, 38.2863715], [-8.7180203, 38.2910384], [-8.7214365, 38.2934942], [-8.7219099, 38.2939312], [-8.7226421, 38.2947458], [-8.7244717, 38.2968966], [-8.7246445, 38.2971]]}, "properties": {"highway": "primary", "ref": "EN 261-1", "surface": "asphalt"}}, {"type": "Feature", "geometry": {"type": "LineString", "coordinates": [[-8.6872751, 38.2688887], [-8.6873959, 38.2689306], [-8.6874552, 38.2689511], [-8.6875636, 38.2689969]]}, "properties": {"highway": "primary", "oneway": "yes", "ref": "EN 261-1", "surface": "asphalt"}}, {"type": "Feature", "geometry": {"type": "LineString", "coordinates": [[-8.6875636, 38.2689969], [-8.687465, 38.2688712], [-8.6874231, 38.2688179], [-8.6873907, 38.2687481]]}, "properties": {"highway": "primary", "oneway": "yes", "ref": "EN 261-1", "surface": "asphalt"}}, {"type": "Feature", "geometry": {"type": "LineString", "coordinates": [[-8.6866164, 38.2684403], [-8.6866522, 38.2684909], [-8.6866806, 38.2685321], [-8.6866922, 38.268549], [-8.6867138, 38.2685798], [-8.6867456, 38.2686371]]}, "properties": {"highway": "primary", "oneway": "yes", "ref": "EN 261-1"}}, {"type": "Feature", "geometry": {"type": "LineString", "coordinates": [[-8.686901, 38.2685126], [-8.6868123, 38.2685035], [-8.6867432, 38.2684743], [-8.6866838, 38.2684492], [-8.6866164, 38.2684403]]}, "properties": {"highway": "primary", "oneway": "yes", "ref": "EN 261-1"}}, {"type": "Feature", "geometry": {"type": "MultiPolygon", "coordinates": [[[[-8.5781238, 38.1776319], [-8.578123, 38.1775981], [-8.5781114, 38.1775655], [-8.5780898, 38.1775363], [-8.5780595, 38.1775123], [-8.5780224, 38.1774951], [-8.5779792, 38.1774855], [-8.5779307, 38.1774857], [-8.5778842, 38.1774966], [-8.5778435, 38.1775175], [-8.5778121, 38.1775465], [-8.5777924, 38.1775814], [-8.5777862, 38.1776162], [-8.5777952, 38.1776601], [-8.5778221, 38.1776993], [-8.5778639, 38.1777293], [-8.5779368, 38.1777496], [-8.5779886, 38.1777478], [-8.5780373, 38.1777338], [-8.5780784, 38.1777089], [-8.5781079, 38.1776753], [-8.5781238, 38.1776319]]]]}, "properties": {"highway": "primary", "junction": "roundabout", "ref": "EN 261-1"}}, {"type": "Feature", "geometry": {"type": "MultiPolygon", "coordinates": [[[[-8.5749193, 38.1770549], [-8.5749138, 38.1769878], [-8.5748871, 38.1769478], [-8.5748585, 38.1769246], [-8.5747869, 38.1768975], [-8.5747221, 38.1768961], [-8.574646, 38.1769218], [-8.5746053, 38.1769562], [-8.574591, 38.1769775], [-8.5745779, 38.177037], [-8.5745914, 38.1770828], [-8.5746059, 38.1771042], [-8.574649, 38.1771396], [-8.5746937, 38.1771579], [-8.5747806, 38.1771631], [-8.5748395, 38.1771456], [-8.5748917, 38.1771068], [-8.5749193, 38.1770549]]]]}, "properties": {"highway": "primary", "junction": "roundabout", "ref": "EN 261-1"}}, {"type": "Feature", "geometry": {"type": "MultiPolygon", "coordinates": [[[[-8.6873907, 38.2687481], [-8.6873855, 38.268695], [-8.6873687, 38.2686446], [-8.6873197, 38.2685965], [-8.6872606, 38.268558], [-8.6871885, 38.2685258], [-8.6870727, 38.268505], [-8.686989, 38.2684991], [-8.686901, 38.2685126], [-8.6868081, 38.2685486], [-8.6867674, 38.2685908], [-8.6867456, 38.2686371], [-8.6867448, 38.268678], [-8.6867595, 38.2687421], [-8.6868003, 38.2687975], [-8.6869064, 38.2688692], [-8.6869753, 38.2688855], [-8.6870111, 38.2688936], [-8.6871192, 38.2689058], [-8.6872009, 38.2689029], [-8.6872751, 38.2688887], [-8.6873244, 38.2688554], [-8.6873648, 38.2688195], [-8.6873907, 38.2687481]]]]}, "properties": {"highway": "primary", "junction": "roundabout", "ref": "EN 261-1"}}]}