{"type": "FeatureCollection", "features": [{"type": "Feature", "geometry": {"type": "LineString", "coordinates": [[-8.0119832, 37.1465188], [-8.0120489, 37.1464749], [-8.0120954, 37.1464174], [-8.0121184, 37.1463516], [-8.0121159, 37.1462833], [-8.0121078, 37.1462535], [-8.012042, 37.1461707], [-8.0120155, 37.1461456]]}, "properties": {"highway": "primary", "junction": "roundabout", "lanes": "2", "maxspeed": "50", "name": "Rotunda de Queren\u00e7a e Ameixial", "ref": "EN 270", "surface": "asphalt"}}, {"type": "Feature", "geometry": {"type": "LineString", "coordinates": [[-8.209142, 37.1762742], [-8.2089614, 37.1762401], [-8.2080441, 37.1760905], [-8.2078402, 37.1760564], [-8.2076643, 37.176007], [-8.2074769, 37.1759308]]}, "properties": {"highway": "primary", "lanes": "2", "maxspeed": "50", "oneway": "no", "ref": "EN 270", "surface": "asphalt"}}, {"type": "Feature", "geometry": {"type": "LineString", "coordinates": [[-8.192313, 37.1735617], [-8.1923032, 37.1732283], [-8.192269, 37.1731007], [-8.1917777, 37.1723869], [-8.191612, 37.1721404], [-8.1915485, 37.1720328], [-8.1912565, 37.1715751], [-8.1910586, 37.1708894], [-8.1907973, 37.1701238], [-8.1906763, 37.1692762], [-8.1905021, 37.1688597], [-8.1904426, 37.1686619], [-8.1903613, 37.1682118], [-8.1903094, 37.1680064], [-8.1902303, 37.167693], [-8.1901971, 37.1675615], [-8.1899178, 37.1665951], [-8.1897762, 37.1664556], [-8.1895032, 37.1662948], [-8.1892091, 37.1661811], [-8.1890662, 37.1660564], [-8.1889558, 37.1659111], [-8.1887316, 37.1656944], [-8.1885784, 37.1656075], [-8.1883722, 37.1655705], [-8.1881189, 37.1656107], [-8.1878799, 37.1656891], [-8.1877044, 37.1657256], [-8.1875911, 37.1657094], [-8.1874903, 37.1656735], [-8.1873733, 37.1655717], [-8.1872759, 37.1654489], [-8.1872396, 37.1654114], [-8.1871185, 37.1652866], [-8.1870263, 37.1652188], [-8.186932, 37.1652026], [-8.186781, 37.1652026], [-8.1865037, 37.1652396], [-8.1863657, 37.1652234], [-8.1862408, 37.1651723], [-8.1861436, 37.1650638], [-8.186075, 37.1649499], [-8.1859397, 37.1647268], [-8.1858428, 37.1646158], [-8.1857891, 37.1645712], [-8.1854547, 37.1642932], [-8.1850511, 37.1640003], [-8.1849017, 37.1639498], [-8.1847001, 37.1639483], [-8.1834964, 37.1640309], [-8.1833308, 37.1639995], [-8.1831181, 37.1638842], [-8.1828949, 37.1636846], [-8.1828553, 37.1636491], [-8.182775, 37.1635001], [-8.1827457, 37.1633243], [-8.1829005, 37.1624413], [-8.1830003, 37.161542], [-8.1830213, 37.161229], [-8.1829834, 37.1609416], [-8.1828403, 37.1605202], [-8.1825431, 37.1601023], [-8.182148, 37.1596426], [-8.181986, 37.1593066], [-8.1819079, 37.1590675], [-8.1818939, 37.1587458]]}, "properties": {"highway": "primary", "lanes": "2", "ref": "EN 270", "smoothness": "excellent", "surface": "asphalt"}}, {"type": "Feature", "geometry": {"type": "LineString", "coordinates": [[-8.1818939, 37.1587458], [-8.1819096, 37.1586161], [-8.1819376, 37.1584863]]}, "properties": {"highway": "primary", "lanes": "2", "layer": "-1", "maxheight": "default", "ref": "EN 270", "shoulder": "no", "smoothness": "excellent", "surface": "asphalt", "tunnel": "yes"}}, {"type": "Feature", "geometry": {"type": "LineString", "coordinates": [[-8.1683583, 37.1445616], [-8.1681525, 37.1444186], [-8.1681079, 37.1443886], [-8.1678629, 37.1442174], [-8.1665395, 37.1435934], [-8.1661177, 37.1433067], [-8.1657701, 37.1430466], [-8.1656013, 37.1429], [-8.1654894, 37.1427398], [-8.1654162, 37.1425354], [-8.165357, 37.1424112], [-8.165299, 37.14234], [-8.1652239, 37.1422937], [-8.1651302, 37.1422613], [-8.1650366, 37.1422424], [-8.1648919, 37.142232], [-8.1638152, 37.1421311], [-8.1635019, 37.1420685], [-8.1631827, 37.1419251], [-8.1629046, 37.1417766], [-8.162774, 37.1416934], [-8.1626598, 37.141592], [-8.1625788, 37.1415007], [-8.1625367, 37.1414133], [-8.162524, 37.1413104], [-8.1625366, 37.1412255], [-8.1625895, 37.1411055], [-8.1626701, 37.1409774], [-8.1627122, 37.1408668], [-8.1627425, 37.1407894], [-8.1627502, 37.1407179], [-8.1627383, 37.140658], [-8.1626814, 37.1405772], [-8.162491, 37.1403661], [-8.1623724, 37.1401154], [-8.1622838, 37.1399903], [-8.1620566, 37.1398504], [-8.1616417, 37.1396152], [-8.1615618, 37.1395575], [-8.1614595, 37.1394459], [-8.1614046, 37.139365], [-8.1613797, 37.13929], [-8.1613587, 37.1392116], [-8.1613675, 37.1391293], [-8.1613987, 37.1390286], [-8.1615412, 37.138642], [-8.1616909, 37.1381616], [-8.1619406, 37.1374798], [-8.1619577, 37.137395], [-8.1619501, 37.1372944], [-8.1618761, 37.1371365]]}, "properties": {"highway": "primary", "lanes": "2", "ref": "EN 270", "smoothness": "excellent", "surface": "asphalt"}}, {"type": "Feature", "geometry": {"type": "LineString", "coordinates": [[-8.249597, 37.2440724], [-8.2496398, 37.2438669], [-8.249655, 37.2437689], [-8.2497401, 37.2432189], [-8.2497546, 37.2431257], [-8.2497925, 37.2428806], [-8.2498956, 37.2422147], [-8.249917, 37.2419143], [-8.2499177, 37.2418373], [-8.2498822, 37.2416592], [-8.2497913, 37.2414206], [-8.2495522, 37.2410989], [-8.248154, 37.2399118], [-8.2478521, 37.2395444], [-8.2474302, 37.2388242], [-8.2471952, 37.2384741], [-8.2470492, 37.2383019], [-8.2469409, 37.2381742], [-8.2450394, 37.2360078], [-8.2441171, 37.2347935], [-8.2436668, 37.2342015], [-8.2433545, 37.2337278], [-8.2430551, 37.2329406], [-8.2427552, 37.2321232], [-8.2422324, 37.230772], [-8.2418636, 37.2302416], [-8.2414622, 37.2296654], [-8.2410885, 37.2291069], [-8.2409759, 37.2288921], [-8.240918, 37.2286554], [-8.2408558, 37.2281152], [-8.2406459, 37.2274817], [-8.2405772, 37.2272487], [-8.2404773, 37.227057], [-8.2402658, 37.2267685], [-8.2400086, 37.2265636], [-8.2394953, 37.2261866], [-8.2392166, 37.2259701], [-8.2386531, 37.2255392], [-8.238104, 37.2250668], [-8.2378468, 37.2248032], [-8.2375551, 37.2244483], [-8.2372355, 37.2238255], [-8.2369919, 37.2234001], [-8.2369225, 37.223279], [-8.2366406, 37.2226996], [-8.2364356, 37.2221376], [-8.2362925, 37.2217454], [-8.2360557, 37.2211885], [-8.2358319, 37.2205006], [-8.2356407, 37.2189864], [-8.2355227, 37.2186959], [-8.2352828, 37.2183967], [-8.2342315, 37.2174095], [-8.2339756, 37.2170379], [-8.2338881, 37.2166585], [-8.2334161, 37.2148991], [-8.2330355, 37.2137572], [-8.2329902, 37.2136212], [-8.2329226, 37.2134184], [-8.2327396, 37.2131195], [-8.232461, 37.2128543], [-8.231957, 37.2123241], [-8.2316566, 37.2120757], [-8.231416, 37.2118768], [-8.2277854, 37.2088745], [-8.2262604, 37.2076134], [-8.2248789, 37.2064908], [-8.2241385, 37.2058629], [-8.2238465, 37.2055432], [-8.2226443, 37.2038913], [-8.2216394, 37.2029668], [-8.2215778, 37.2029101], [-8.220031, 37.2015541], [-8.2197689, 37.2012901], [-8.2195836, 37.2009185], [-8.2191208, 37.1998786], [-8.2177908, 37.198459], [-8.2173634, 37.1980633], [-8.2170617, 37.1978563], [-8.2167033, 37.1976167], [-8.2160381, 37.1971659], [-8.2157136, 37.1969373], [-8.2155473, 37.1968112], [-8.2154309, 37.1966983], [-8.215329, 37.1965637], [-8.2152415, 37.1964266], [-8.214182, 37.1948349], [-8.2141026, 37.1947161], [-8.2140399, 37.1946191], [-8.2139798, 37.1944997], [-8.2139698, 37.194476], [-8.2139129, 37.1943409], [-8.2136241, 37.1935956], [-8.2135847, 37.1934954], [-8.2130314, 37.1920893], [-8.2129767, 37.1919571], [-8.2128812, 37.1916213], [-8.2127165, 37.1910447], [-8.2126843, 37.190893], [-8.212672, 37.1907538], [-8.2126773, 37.1906384], [-8.2126988, 37.1904974], [-8.2128195, 37.1898286], [-8.2128517, 37.1896684], [-8.2128667, 37.1895298], [-8.2128785, 37.1894055], [-8.2128678, 37.1892795], [-8.2128587, 37.1892448], [-8.2128372, 37.1891623], [-8.2127513, 37.1889742], [-8.2126175, 37.1887165], [-8.2125904, 37.1886644], [-8.2125577, 37.1886045], [-8.2122669, 37.1880722], [-8.2121961, 37.1879443], [-8.2121371, 37.1878118], [-8.2120953, 37.1876833], [-8.2120604, 37.1875188], [-8.2120255, 37.1873265], [-8.2119987, 37.1871683], [-8.2119601, 37.1870292]]}, "properties": {"highway": "primary", "ref": "EN 270"}}, {"type": "Feature", "geometry": {"type": "LineString", "coordinates": [[-8.0119832, 37.1465188], [-8.0121379, 37.1464551], [-8.012244, 37.1464273], [-8.012357, 37.1464184], [-8.0125852, 37.1464276], [-8.012823, 37.1464338], [-8.013109, 37.1464333], [-8.0134989, 37.146433], [-8.0138804, 37.1464189]]}, "properties": {"highway": "primary", "lanes": "2", "name": "Circular de Loul\u00e9", "oneway": "yes", "ref": "EN 270", "surface": "asphalt"}}, {"type": "Feature", "geometry": {"type": "LineString", "coordinates": [[-8.209142, 37.1762742], [-8.2096366, 37.1764398]]}, "properties": {"bridge": "yes", "highway": "primary", "layer": "1", "maxspeed": "30", "name": "Ponte Romana de Purgat\u00f3rio", "ref": "EN 270", "surface": "asphalt"}}, {"type": "Feature", "geometry": {"type": "LineString", "coordinates": [[-8.2104911, 37.17674], [-8.2103823, 37.1767417], [-8.2103569, 37.1767541], [-8.2103389, 37.1767763], [-8.2103266, 37.1768145]]}, "properties": {"highway": "primary", "maxspeed": "50", "oneway": "yes", "ref": "EN 270", "surface": "asphalt"}}, {"type": "Feature", "geometry": {"type": "LineString", "coordinates": [[-8.2108711, 37.1784542], [-8.210899, 37.178129], [-8.2109006, 37.177905], [-8.2108899, 37.177766], [-8.2108738, 37.1776442], [-8.210847, 37.1775267], [-8.2108014, 37.177407], [-8.2107477, 37.1773044], [-8.2107343, 37.1772845], [-8.2107139, 37.1772541], [-8.210686, 37.1772125], [-8.21056, 37.1770544], [-8.2104473, 37.1769219], [-8.2103266, 37.1768145]]}, "properties": {"highway": "primary", "maxspeed": "50", "oneway": "yes", "ref": "EN 270", "surface": "asphalt"}}, {"type": "Feature", "geometry": {"type": "LineString", "coordinates": [[-8.249597, 37.2440724], [-8.2495494, 37.2443122]]}, "properties": {"highway": "primary", "oneway": "yes", "ref": "EN 270", "source": "bing"}}, {"type": "Feature", "geometry": {"type": "LineString", "coordinates": [[-8.209729, 37.1764789], [-8.2100021, 37.1766569], [-8.2100209, 37.1766706], [-8.2101898, 37.1767937], [-8.2103167, 37.1769027]]}, "properties": {"highway": "primary", "maxspeed": "50", "oneway": "yes", "ref": "EN 270", "surface": "asphalt"}}, {"type": "Feature", "geometry": {"type": "LineString", "coordinates": [[-8.1945433, 37.1760215], [-8.1939319, 37.1757361], [-8.193664, 37.175574], [-8.1935047, 37.175374], [-8.1933291, 37.1751644], [-8.1930915, 37.1749379], [-8.1925275, 37.1744386], [-8.1924067, 37.1743317]]}, "properties": {"highway": "primary", "lanes": "2", "ref": "EN 270", "surface": "asphalt"}}, {"type": "Feature", "geometry": {"type": "LineString", "coordinates": [[-7.6942829, 37.1345667], [-7.6942396, 37.1346474], [-7.694231, 37.1347348], [-7.6942603, 37.1348244], [-7.6943257, 37.1349008], [-7.6944197, 37.1349553], [-7.6945311, 37.1349813], [-7.694647, 37.1349759], [-7.6947196, 37.1349552], [-7.6948125, 37.1349015], [-7.6948777, 37.1348262], [-7.6949077, 37.1347379], [-7.6948992, 37.1346467], [-7.6948583, 37.1345696], [-7.6948016, 37.1345144], [-7.6947095, 37.1344654], [-7.6946026, 37.1344426], [-7.6944921, 37.1344485], [-7.6943899, 37.1344823], [-7.6943562, 37.1345014], [-7.6942829, 37.1345667]]}, "properties": {"foot": "yes", "highway": "primary", "junction": "roundabout", "lanes": "2", "lit": "yes", "maxspeed": "50", "name": "Migra\u00e7\u00e3o", "ref": "EN 270", "sidewalk": "no", "smoothness": "excellent", "source": "BING", "surface": "asphalt"}}, {"type": "Feature", "geometry": {"type": "LineString", "coordinates": [[-7.6946933, 37.133538], [-7.694704, 37.1332673], [-7.6945815, 37.132512], [-7.6943396, 37.1319937], [-7.6938994, 37.1314266], [-7.6931414, 37.1308618], [-7.6851333, 37.1267874], [-7.6842179, 37.1263528], [-7.6836269, 37.126095], [-7.6830577, 37.125946], [-7.6825592, 37.1258321], [-7.6815418, 37.125695], [-7.6805098, 37.1256857], [-7.6682018, 37.1267316], [-7.66668, 37.1268502], [-7.66596, 37.1268502], [-7.6651991, 37.1267293], [-7.6632867, 37.1261482], [-7.6626745, 37.1258554], [-7.6609633, 37.1246374], [-7.660561, 37.1244886], [-7.6603819, 37.1244606]]}, "properties": {"highway": "primary", "lanes": "2", "maxheight": "default", "maxspeed": "90", "ref": "EN 270", "shoulder": "yes", "smoothness": "excellent", "source": "BING", "surface": "asphalt"}}, {"type": "Feature", "geometry": {"type": "LineString", "coordinates": [[-7.6948016, 37.1345144], [-7.6947354, 37.1344001], [-7.6947003, 37.1342949], [-7.6946942, 37.1341306], [-7.6947045, 37.1337312], [-7.6946933, 37.133538]]}, "properties": {"destination": "Tavira", "highway": "primary", "lanes": "1", "maxspeed": "90", "oneway": "yes", "ref": "EN 270", "smoothness": "excellent", "source": "BING", "surface": "asphalt", "width": "3"}}, {"type": "Feature", "geometry": {"type": "LineString", "coordinates": [[-7.6946933, 37.133538], [-7.6946571, 37.1337937], [-7.6946138, 37.1340632], [-7.6945746, 37.1342325], [-7.6945334, 37.1343311]]}, "properties": {"highway": "primary", "lanes": "1", "maxspeed": "70", "oneway": "yes", "ref": "EN 270", "shoulder": "yes", "smoothness": "excellent", "source": "BING", "surface": "asphalt", "width": "4"}}, {"type": "Feature", "geometry": {"type": "LineString", "coordinates": [[-8.2497059, 37.2442836], [-8.249597, 37.2440724]]}, "properties": {"highway": "primary", "oneway": "yes", "ref": "EN 270", "source": "bing"}}, {"type": "Feature", "geometry": {"type": "LineString", "coordinates": [[-8.2058956, 37.1755456], [-8.2054256, 37.1757023]]}, "properties": {"highway": "primary", "lanes": "2", "ref": "EN 270", "surface": "asphalt"}}, {"type": "Feature", "geometry": {"type": "LineString", "coordinates": [[-8.2058956, 37.1755456], [-8.206129, 37.1755028], [-8.2063677, 37.1754857], [-8.2065273, 37.1755058]]}, "properties": {"highway": "primary", "lanes": "1", "oneway": "yes", "ref": "EN 270", "surface": "asphalt"}}, {"type": "Feature", "geometry": {"type": "LineString", "coordinates": [[-8.2070246, 37.1756768], [-8.2068693, 37.1755605], [-8.2068194, 37.1755371]]}, "properties": {"highway": "primary", "lanes": "1", "oneway": "yes", "ref": "EN 270", "surface": "asphalt"}}, {"type": "Feature", "geometry": {"type": "LineString", "coordinates": [[-7.6603819, 37.1244606], [-7.6602084, 37.1244085], [-7.6599731, 37.1243117]]}, "properties": {"highway": "primary", "lanes": "1", "maxspeed": "50", "oneway": "yes", "ref": "EN 270", "source": "BING", "surface": "asphalt", "width": "3"}}, {"type": "Feature", "geometry": {"type": "LineString", "coordinates": [[-7.6600003, 37.1245912], [-7.660119, 37.1245202], [-7.6602882, 37.1244778], [-7.6603819, 37.1244606]]}, "properties": {"destination": "Faro;Espanha;S\u00e3o Br\u00e1s de Alportel", "highway": "primary", "lanes": "1", "maxspeed": "90", "oneway": "yes", "ref": "EN 270", "shoulder": "yes", "source": "BING", "surface": "asphalt", "width": "3"}}, {"type": "Feature", "geometry": {"type": "LineString", "coordinates": [[-8.2098653, 37.1765265], [-8.209729, 37.1764789]]}, "properties": {"highway": "primary", "maxspeed": "50", "oneway": "yes", "ref": "EN 270", "surface": "asphalt"}}, {"type": "Feature", "geometry": {"type": "LineString", "coordinates": [[-8.2119601, 37.1870292], [-8.2118528, 37.1867665], [-8.2115186, 37.1860828], [-8.2112182, 37.1854802], [-8.2111163, 37.1852772], [-8.2110465, 37.1851276], [-8.2109956, 37.1849652], [-8.2109741, 37.1848221], [-8.2109714, 37.1846597], [-8.2109875, 37.1845015], [-8.2110304, 37.1843028], [-8.2111855, 37.1836305], [-8.2111969, 37.1835812]]}, "properties": {"highway": "primary", "ref": "EN 270"}}, {"type": "Feature", "geometry": {"type": "LineString", "coordinates": [[-8.2111969, 37.1835812], [-8.2112718, 37.1832984], [-8.2113148, 37.183089], [-8.2113255, 37.1829288], [-8.2112987, 37.1827471], [-8.2112853, 37.1826125], [-8.2112949, 37.1824418], [-8.2113351, 37.182194], [-8.2115041, 37.1812516], [-8.2115159, 37.1810675], [-8.2115095, 37.1809396], [-8.2114784, 37.180826], [-8.2114156, 37.1806682], [-8.2110604, 37.1799444], [-8.2109489, 37.1797172], [-8.210891, 37.1795908], [-8.2108507, 37.1794775], [-8.2108336, 37.1793389], [-8.2108416, 37.1791573], [-8.2108711, 37.1784542]]}, "properties": {"highway": "primary", "lanes": "2", "ref": "EN 270", "surface": "asphalt"}}, {"type": "Feature", "geometry": {"type": "LineString", "coordinates": [[-8.2022398, 37.1762192], [-8.2019665, 37.1761962], [-8.2012998, 37.1761403], [-8.2009262, 37.1761047], [-8.2008824, 37.1761107], [-8.2008543, 37.176115], [-8.2008228, 37.1761211]]}, "properties": {"highway": "primary", "lanes": "2", "ref": "EN 270", "surface": "asphalt"}}, {"type": "Feature", "geometry": {"type": "LineString", "coordinates": [[-8.1924067, 37.1743317], [-8.1923243, 37.1742086], [-8.1923009, 37.1740597], [-8.1923012, 37.1739392], [-8.192313, 37.1735617]]}, "properties": {"highway": "primary", "lanes": "2", "ref": "EN 270", "surface": "asphalt"}}, {"type": "Feature", "geometry": {"type": "LineString", "coordinates": [[-8.2054256, 37.1757023], [-8.2048102, 37.1759106], [-8.2045984, 37.1759823], [-8.2043838, 37.1760287], [-8.2041797, 37.1760301]]}, "properties": {"highway": "primary", "lanes": "2", "ref": "EN 270", "surface": "asphalt"}}, {"type": "Feature", "geometry": {"type": "LineString", "coordinates": [[-8.207337, 37.1758594], [-8.2070246, 37.1756768]]}, "properties": {"highway": "primary", "lanes": "2", "maxspeed": "50", "oneway": "no", "ref": "EN 270", "surface": "asphalt"}}, {"type": "Feature", "geometry": {"type": "LineString", "coordinates": [[-8.2074335, 37.1759097], [-8.207337, 37.1758594]]}, "properties": {"bridge": "yes", "highway": "primary", "layer": "1", "maxspeed": "50", "oneway": "no", "ref": "EN 270", "surface": "asphalt"}}, {"type": "Feature", "geometry": {"type": "LineString", "coordinates": [[-7.6945334, 37.1343311], [-7.6944942, 37.1343869], [-7.6943899, 37.1344823]]}, "properties": {"foot": "yes", "highway": "primary", "lanes": "1", "lit": "yes", "maxspeed": "50", "oneway": "yes", "ref": "EN 270", "shoulder": "yes", "sidewalk": "no", "smoothness": "excellent", "source": "BING", "surface": "asphalt", "width": "4"}}, {"type": "Feature", "geometry": {"type": "LineString", "coordinates": [[-8.0213143, 37.1461033], [-8.021298, 37.1460523], [-8.0212695, 37.1460049], [-8.02123, 37.1459627], [-8.0211948, 37.1459362], [-8.0211552, 37.1459139], [-8.0210966, 37.1458916], [-8.0210338, 37.1458787], [-8.020969, 37.1458756], [-8.0209047, 37.1458825], [-8.0208432, 37.1458991], [-8.0207869, 37.1459249], [-8.0207378, 37.1459587], [-8.0207057, 37.1459899], [-8.0206799, 37.1460247], [-8.0206562, 37.146075], [-8.0206455, 37.146128], [-8.0206483, 37.1461817], [-8.0206645, 37.1462339], [-8.0206934, 37.1462825], [-8.0207339, 37.1463254], [-8.0207742, 37.1463551], [-8.0208201, 37.1463792], [-8.0208703, 37.146397], [-8.0209234, 37.146408], [-8.0209871, 37.146412], [-8.0210506, 37.1464063], [-8.0211116, 37.1463912], [-8.0211679, 37.1463671], [-8.0212175, 37.1463351], [-8.0212586, 37.1462961], [-8.0212864, 37.1462575], [-8.0213083, 37.1462079], [-8.0213178, 37.1461558], [-8.0213143, 37.1461033]]}, "properties": {"highway": "primary", "junction": "roundabout", "lanes": "2", "maxspeed": "50", "name": "Rotunda de Salir", "ref": "EN 270", "surface": "asphalt"}}, {"type": "Feature", "geometry": {"type": "LineString", "coordinates": [[-8.0341274, 37.1447048], [-8.0343944, 37.1447314], [-8.0347093, 37.1447675], [-8.0349844, 37.1448031], [-8.0354633, 37.1448768], [-8.0359204, 37.1449527], [-8.0365171, 37.1450511], [-8.0371434, 37.1451505], [-8.0375873, 37.1452232], [-8.0378716, 37.1452724], [-8.0382069, 37.1453279], [-8.0386334, 37.1453964]]}, "properties": {"highway": "primary", "lanes": "2", "maxspeed": "80", "name": "Circular de Loul\u00e9", "oneway": "yes", "ref": "EN 270", "surface": "asphalt"}}, {"type": "Feature", "geometry": {"type": "LineString", "coordinates": [[-8.0328041, 37.1446631], [-8.0331271, 37.1446669], [-8.0335047, 37.1446748], [-8.0338191, 37.1446867], [-8.0341274, 37.1447048]]}, "properties": {"bridge": "yes", "highway": "primary", "lanes": "2", "layer": "1", "maxspeed": "80", "name": "Circular de Loul\u00e9", "oneway": "yes", "ref": "EN 270", "surface": "asphalt"}}, {"type": "Feature", "geometry": {"type": "LineString", "coordinates": [[-8.0212864, 37.1462575], [-8.0214124, 37.1461853], [-8.0214669, 37.1461556], [-8.0215157, 37.1461386], [-8.0215575, 37.1461275], [-8.0216749, 37.1461077], [-8.0226052, 37.1459798], [-8.0233771, 37.1458725], [-8.0246018, 37.1457019], [-8.0254038, 37.1455876], [-8.0264754, 37.1454368], [-8.0275307, 37.1452871], [-8.028719, 37.1451204], [-8.0294386, 37.1450188], [-8.0303354, 37.1448971], [-8.0311427, 37.144786], [-8.0315688, 37.1447363], [-8.0318962, 37.1447068], [-8.0321869, 37.1446853], [-8.0324997, 37.1446706], [-8.0328041, 37.1446631]]}, "properties": {"highway": "primary", "lanes": "2", "maxspeed": "80", "name": "Circular de Loul\u00e9", "oneway": "yes", "ref": "EN 270", "surface": "asphalt"}}, {"type": "Feature", "geometry": {"type": "LineString", "coordinates": [[-8.0424847, 37.1443207], [-8.0425208, 37.1442694], [-8.0425389, 37.1442125], [-8.0425378, 37.1441537], [-8.0425177, 37.1440972], [-8.0424869, 37.144054], [-8.0424405, 37.1440144], [-8.0423836, 37.1439847], [-8.0423194, 37.1439668], [-8.0422517, 37.1439616], [-8.0421845, 37.1439696], [-8.0421331, 37.1439852], [-8.0420865, 37.1440086], [-8.0420362, 37.1440487]]}, "properties": {"highway": "primary", "junction": "roundabout", "lanes": "2", "maxspeed": "50", "name": "Rotunda da Nossa Senhora da Piedade", "old_ref": "EN 270", "oneway": "yes", "ref": "EN 270", "surface": "asphalt"}}, {"type": "Feature", "geometry": {"type": "LineString", "coordinates": [[-8.042016, 37.1442999], [-8.04205, 37.1444034], [-8.042044, 37.1444655], [-8.0420219, 37.1445254], [-8.0419524, 37.1446453], [-8.0418419, 37.1447722], [-8.041744, 37.1448765], [-8.041657, 37.1449521], [-8.0415538, 37.1450277], [-8.0414125, 37.1451247], [-8.0412814, 37.145198], [-8.0411657, 37.1452547], [-8.0411006, 37.1452845], [-8.0410302, 37.1453143], [-8.0408792, 37.1453664], [-8.0407262, 37.1454105], [-8.0405787, 37.145444], [-8.0404104, 37.1454721], [-8.0402503, 37.1454874], [-8.0400839, 37.1454939], [-8.0399431, 37.1454928], [-8.0397763, 37.1454849], [-8.0396113, 37.1454709], [-8.0394992, 37.145454], [-8.0393226, 37.1454269], [-8.0390138, 37.1453772], [-8.0385873, 37.1453056], [-8.0365917, 37.1449764], [-8.0361649, 37.144906], [-8.035695, 37.1448334], [-8.0353633, 37.1447797], [-8.0350847, 37.1447342], [-8.0347478, 37.1446883], [-8.0344993, 37.1446588], [-8.0341456, 37.1446258]]}, "properties": {"destination": "S\u00e3o Br\u00e1s de Alportel", "highway": "primary", "lanes": "2", "maxspeed": "80", "name": "Circular de Loul\u00e9", "oneway": "yes", "ref": "EN 270", "surface": "asphalt"}}, {"type": "Feature", "geometry": {"type": "LineString", "coordinates": [[-8.0341456, 37.1446258], [-8.0338777, 37.1446087], [-8.0336227, 37.1445995], [-8.0334701, 37.1445943], [-8.0331159, 37.1445866], [-8.0327981, 37.144584]]}, "properties": {"bridge": "yes", "highway": "primary", "lanes": "2", "layer": "1", "maxspeed": "80", "name": "Circular de Loul\u00e9", "oneway": "yes", "ref": "EN 270", "surface": "asphalt"}}, {"type": "Feature", "geometry": {"type": "LineString", "coordinates": [[-8.0327981, 37.144584], [-8.0324386, 37.144591], [-8.0321744, 37.1446031], [-8.0319877, 37.1446141], [-8.0316786, 37.1446447], [-8.0312609, 37.1446899], [-8.0306554, 37.1447702], [-8.0300313, 37.1448536], [-8.0295807, 37.1449167], [-8.0291057, 37.1449839], [-8.0286528, 37.1450481], [-8.0282152, 37.145107], [-8.0277639, 37.1451736], [-8.0274199, 37.1452214], [-8.0270041, 37.1452799], [-8.026405, 37.145367], [-8.0259588, 37.1454299], [-8.025669, 37.1454765], [-8.0253514, 37.1455202], [-8.0245747, 37.1456242], [-8.0239801, 37.1457061]]}, "properties": {"highway": "primary", "lanes": "2", "maxspeed": "80", "name": "Circular de Loul\u00e9", "oneway": "yes", "ref": "EN 270", "surface": "asphalt"}}, {"type": "Feature", "geometry": {"type": "LineString", "coordinates": [[-8.0206799, 37.1460247], [-8.0205587, 37.1460902], [-8.0204197, 37.146141], [-8.0202867, 37.1461565], [-8.0201347, 37.1461626], [-8.0199773, 37.1461709], [-8.0196648, 37.146179], [-8.019357, 37.146191], [-8.0185812, 37.1462077], [-8.0179178, 37.1462281], [-8.0174912, 37.1462399], [-8.0171826, 37.1462497], [-8.0167184, 37.1462613], [-8.0160897, 37.1462788], [-8.0155893, 37.146292], [-8.014924, 37.1463104], [-8.0140968, 37.1463318], [-8.0132907, 37.1463522], [-8.0130491, 37.1463545], [-8.0128344, 37.1463549], [-8.012577, 37.1463473], [-8.0124994, 37.1463439], [-8.0124128, 37.1463394], [-8.0123615, 37.1463357]]}, "properties": {"destination": "S\u00e3o Br\u00e1s de Alportel", "highway": "primary", "lanes": "2", "name": "Circular de Loul\u00e9", "oneway": "yes", "ref": "EN 270", "surface": "asphalt"}}, {"type": "Feature", "geometry": {"type": "LineString", "coordinates": [[-8.2041797, 37.1760301], [-8.2041266, 37.1760286], [-8.2038987, 37.1760223], [-8.2038025, 37.1760267]]}, "properties": {"highway": "primary", "lanes": "2", "ref": "EN 270", "surface": "asphalt"}}, {"type": "Feature", "geometry": {"type": "LineString", "coordinates": [[-8.1996228, 37.1760242], [-8.1993322, 37.1759942], [-8.1991231, 37.1760235], [-8.1984953, 37.176126], [-8.1976525, 37.1762638], [-8.1974216, 37.1762991], [-8.1972469, 37.1762895]]}, "properties": {"highway": "primary", "lanes": "2", "ref": "EN 270", "surface": "asphalt"}}, {"type": "Feature", "geometry": {"type": "LineString", "coordinates": [[-8.2008228, 37.1761211], [-8.2007741, 37.1761286], [-8.2003919, 37.1761348], [-8.2001153, 37.1761047], [-8.1996228, 37.1760242]]}, "properties": {"highway": "primary", "lanes": "2", "ref": "EN 270", "surface": "asphalt"}}, {"type": "Feature", "geometry": {"type": "LineString", "coordinates": [[-8.2074769, 37.1759308], [-8.2074335, 37.1759097]]}, "properties": {"highway": "primary", "lanes": "2", "maxspeed": "50", "oneway": "no", "ref": "EN 270", "surface": "asphalt"}}, {"type": "Feature", "geometry": {"type": "LineString", "coordinates": [[-8.0138804, 37.1464189], [-8.0143705, 37.1464052], [-8.0166306, 37.1463454], [-8.018335, 37.146296], [-8.0191176, 37.1462733], [-8.0200205, 37.1462485], [-8.0203637, 37.146234]]}, "properties": {"highway": "primary", "lanes": "2", "name": "Circular de Loul\u00e9", "oneway": "yes", "ref": "EN 270", "surface": "asphalt"}}, {"type": "Feature", "geometry": {"type": "LineString", "coordinates": [[-8.0420362, 37.1440487], [-8.0420001, 37.1440975], [-8.0419805, 37.1441519], [-8.0419786, 37.1442085], [-8.0419946, 37.1442637], [-8.042016, 37.1442999], [-8.0420523, 37.1443389], [-8.0420983, 37.1443707], [-8.0421518, 37.1443939], [-8.0422104, 37.1444074], [-8.0423005, 37.144407]]}, "properties": {"highway": "primary", "junction": "roundabout", "lanes": "2", "maxspeed": "50", "name": "Rotunda da Nossa Senhora da Piedade", "old_ref": "EN 270", "oneway": "yes", "ref": "EN 270", "surface": "asphalt"}}, {"type": "Feature", "geometry": {"type": "LineString", "coordinates": [[-8.0423005, 37.144407], [-8.042332, 37.1444031], [-8.0423668, 37.1443937], [-8.0424182, 37.1443715], [-8.0424487, 37.1443507], [-8.0424847, 37.1443207]]}, "properties": {"highway": "primary", "junction": "roundabout", "lanes": "2", "maxspeed": "50", "name": "Rotunda da Nossa Senhora da Piedade", "old_ref": "EN 270", "oneway": "yes", "ref": "EN 270", "surface": "asphalt"}}, {"type": "Feature", "geometry": {"type": "LineString", "coordinates": [[-8.2066622, 37.1754753], [-8.2066079, 37.1754613], [-8.2065457, 37.1754506]]}, "properties": {"highway": "primary", "lanes": "1", "oneway": "yes", "ref": "EN 270", "surface": "asphalt"}}, {"type": "Feature", "geometry": {"type": "LineString", "coordinates": [[-8.2065457, 37.1754506], [-8.2064938, 37.175443], [-8.206357, 37.1754366], [-8.2062148, 37.1754494], [-8.2058956, 37.1755456]]}, "properties": {"highway": "primary", "lanes": "1", "oneway": "yes", "ref": "EN 270", "surface": "asphalt"}}, {"type": "Feature", "geometry": {"type": "LineString", "coordinates": [[-8.2068194, 37.1755371], [-8.2067512, 37.175505], [-8.2066622, 37.1754753]]}, "properties": {"highway": "primary", "lanes": "1", "oneway": "yes", "ref": "EN 270", "surface": "asphalt"}}, {"type": "Feature", "geometry": {"type": "LineString", "coordinates": [[-8.2065273, 37.1755058], [-8.2065715, 37.1755114], [-8.2066445, 37.175528]]}, "properties": {"highway": "primary", "lanes": "1", "oneway": "yes", "ref": "EN 270", "surface": "asphalt"}}, {"type": "Feature", "geometry": {"type": "LineString", "coordinates": [[-8.2066445, 37.175528], [-8.2066868, 37.1755393], [-8.2067566, 37.1755563], [-8.2070246, 37.1756768]]}, "properties": {"highway": "primary", "lanes": "1", "oneway": "yes", "ref": "EN 270", "surface": "asphalt"}}, {"type": "Feature", "geometry": {"type": "LineString", "coordinates": [[-8.2103266, 37.1768145], [-8.2101979, 37.1767167], [-8.2100584, 37.1766291], [-8.2098653, 37.1765265]]}, "properties": {"highway": "primary", "maxspeed": "50", "oneway": "yes", "ref": "EN 270", "surface": "asphalt"}}, {"type": "Feature", "geometry": {"type": "LineString", "coordinates": [[-8.2103266, 37.1768145], [-8.2103159, 37.1768622], [-8.2103167, 37.1769027]]}, "properties": {"highway": "primary", "maxspeed": "50", "oneway": "yes", "ref": "EN 270"}}, {"type": "Feature", "geometry": {"type": "LineString", "coordinates": [[-8.2103167, 37.1769027], [-8.2104173, 37.1770075], [-8.2104876, 37.17708], [-8.2106244, 37.177251], [-8.2107157, 37.1773913], [-8.2107943, 37.1775742], [-8.2108255, 37.1777148], [-8.2108497, 37.1778601], [-8.2108604, 37.1780845], [-8.2108711, 37.1784542]]}, "properties": {"highway": "primary", "maxspeed": "50", "oneway": "yes", "ref": "EN 270", "surface": "asphalt"}}, {"type": "Feature", "geometry": {"type": "LineString", "coordinates": [[-8.2096366, 37.1764398], [-8.209729, 37.1764789]]}, "properties": {"highway": "primary", "lanes": "2", "maxspeed": "50", "ref": "EN 270", "surface": "asphalt"}}, {"type": "Feature", "geometry": {"type": "LineString", "coordinates": [[-8.1693187, 37.1452047], [-8.1692298, 37.1451736], [-8.1691297, 37.1451167], [-8.1683583, 37.1445616]]}, "properties": {"highway": "primary", "lanes": "2", "maxspeed": "50", "ref": "EN 270", "smoothness": "excellent", "surface": "asphalt"}}, {"type": "Feature", "geometry": {"type": "LineString", "coordinates": [[-8.1719815, 37.1459419], [-8.1714239, 37.1458209], [-8.1711723, 37.145761], [-8.1699657, 37.1454191], [-8.1693187, 37.1452047]]}, "properties": {"highway": "primary", "lanes": "2", "maxspeed": "50", "ref": "EN 270", "smoothness": "excellent", "surface": "asphalt"}}, {"type": "Feature", "geometry": {"type": "LineString", "coordinates": [[-8.1786265, 37.1498616], [-8.1777145, 37.1487392], [-8.1775461, 37.1485974], [-8.1773495, 37.1484819], [-8.1771332, 37.1483702], [-8.176918, 37.1482729]]}, "properties": {"highway": "primary", "lanes": "2", "maxspeed": "50", "ref": "EN 270", "smoothness": "excellent", "surface": "asphalt"}}, {"type": "Feature", "geometry": {"type": "LineString", "coordinates": [[-8.1754013, 37.1478869], [-8.1753067, 37.1478337], [-8.1752234, 37.1477532], [-8.1751651, 37.1476641], [-8.1750983, 37.1474661], [-8.1750388, 37.1471854], [-8.1749225, 37.1468996], [-8.1748003, 37.1467096], [-8.1746439, 37.1465468], [-8.1742144, 37.1462988], [-8.1740507, 37.1462479], [-8.1737576, 37.1462208], [-8.1733061, 37.1462085], [-8.1730475, 37.1461644], [-8.1719815, 37.1459419]]}, "properties": {"highway": "primary", "lanes": "2", "maxspeed": "50", "ref": "EN 270", "smoothness": "excellent", "surface": "asphalt"}}, {"type": "Feature", "geometry": {"type": "LineString", "coordinates": [[-8.1763614, 37.1481344], [-8.1761502, 37.148096], [-8.175609, 37.1479511], [-8.1754013, 37.1478869]]}, "properties": {"highway": "primary", "lanes": "2", "maxspeed": "50", "ref": "EN 270", "smoothness": "excellent", "surface": "asphalt"}}, {"type": "Feature", "geometry": {"type": "LineString", "coordinates": [[-8.176918, 37.1482729], [-8.1766884, 37.1481939], [-8.1765149, 37.1481623]]}, "properties": {"highway": "primary", "lanes": "2", "lanes:backward": "1", "lanes:forward": "1", "maxspeed": "50", "ref": "EN 270", "smoothness": "excellent", "surface": "asphalt", "turn:lanes:backward": "through", "turn:lanes:forward": "through;right"}}, {"type": "Feature", "geometry": {"type": "LineString", "coordinates": [[-8.1765149, 37.1481623], [-8.1763614, 37.1481344]]}, "properties": {"highway": "primary", "lanes": "2", "lanes:backward": "1", "lanes:forward": "1", "maxspeed": "50", "ref": "EN 270", "smoothness": "excellent", "surface": "asphalt", "turn:lanes:backward": "left;through", "turn:lanes:forward": "through"}}, {"type": "Feature", "geometry": {"type": "LineString", "coordinates": [[-8.1819376, 37.1584863], [-8.182055, 37.1581381], [-8.1821803, 37.1579323], [-8.1823467, 37.1576326], [-8.1824295, 37.1574737], [-8.1825192, 37.1572095], [-8.1825336, 37.1570288], [-8.1825278, 37.1567716], [-8.1824911, 37.156581], [-8.1824498, 37.1564337], [-8.1821664, 37.1554733], [-8.1820401, 37.1550328], [-8.1819026, 37.1546287], [-8.1818647, 37.154525], [-8.1817227, 37.1542971], [-8.1815594, 37.1540717], [-8.1812309, 37.1536373], [-8.1811209, 37.1534361], [-8.1810972, 37.1532348], [-8.1811486, 37.1530256], [-8.1812309, 37.152822], [-8.1814212, 37.1523265], [-8.1814481, 37.1521046], [-8.1814253, 37.151925], [-8.1813255, 37.1517294], [-8.181188, 37.151556], [-8.1809187, 37.1513055], [-8.1802654, 37.1506976], [-8.1800843, 37.1505723], [-8.179657, 37.1503743], [-8.1790209, 37.1500968], [-8.1788225, 37.1500032], [-8.1786265, 37.1498616]]}, "properties": {"highway": "primary", "lanes": "2", "ref": "EN 270", "smoothness": "excellent", "surface": "asphalt"}}, {"type": "Feature", "geometry": {"type": "LineString", "coordinates": [[-8.0116773, 37.1461331], [-8.0116256, 37.1461677], [-8.0115854, 37.1462109], [-8.0115592, 37.1462605], [-8.0115482, 37.1463136], [-8.0115531, 37.1463673], [-8.0115737, 37.1464185], [-8.0116087, 37.1464645], [-8.0116682, 37.1465098], [-8.0117413, 37.1465398], [-8.0118221, 37.1465519], [-8.011904, 37.1465452], [-8.0119832, 37.1465188]]}, "properties": {"highway": "primary", "junction": "roundabout", "lanes": "2", "maxspeed": "50", "name": "Rotunda de Queren\u00e7a e Ameixial", "ref": "EN 270", "surface": "asphalt"}}, {"type": "Feature", "geometry": {"type": "LineString", "coordinates": [[-8.1972469, 37.1762895], [-8.1954359, 37.1761894], [-8.1950908, 37.1761715], [-8.1949425, 37.1761557], [-8.1947887, 37.1761225], [-8.1945433, 37.1760215]]}, "properties": {"highway": "primary", "lanes": "2", "ref": "EN 270", "surface": "asphalt"}}, {"type": "Feature", "geometry": {"type": "LineString", "coordinates": [[-8.2038025, 37.1760267], [-8.2036651, 37.1760331], [-8.2035123, 37.1760531]]}, "properties": {"highway": "primary", "lanes": "2", "ref": "EN 270", "surface": "asphalt"}}, {"type": "Feature", "geometry": {"type": "LineString", "coordinates": [[-8.2035123, 37.1760531], [-8.2033255, 37.1760804], [-8.2027963, 37.1762163], [-8.2024997, 37.1762371], [-8.2022712, 37.1762218], [-8.2022398, 37.1762192]]}, "properties": {"highway": "primary", "lanes": "2", "ref": "EN 270", "surface": "asphalt"}}, {"type": "Feature", "geometry": {"type": "LineString", "coordinates": [[-8.0120155, 37.1461456], [-8.0119324, 37.1461096], [-8.0118456, 37.1460959], [-8.0117578, 37.146104], [-8.0116773, 37.1461331]]}, "properties": {"highway": "primary", "junction": "roundabout", "lanes": "2", "maxspeed": "50", "name": "Rotunda de Queren\u00e7a e Ameixial", "ref": "EN 270", "surface": "asphalt"}}, {"type": "Feature", "geometry": {"type": "LineString", "coordinates": [[-8.0421181, 37.1445602], [-8.0421712, 37.1445059], [-8.0422483, 37.1444454], [-8.0423005, 37.144407]]}, "properties": {"highway": "primary", "lanes": "2", "maxspeed": "40", "name": "Circular de Loul\u00e9", "oneway": "yes", "ref": "EN 270", "surface": "asphalt"}}, {"type": "Feature", "geometry": {"type": "LineString", "coordinates": [[-8.0215383, 37.1460407], [-8.0214724, 37.146036], [-8.0214062, 37.1460265], [-8.02134, 37.1460114], [-8.02123, 37.1459627]]}, "properties": {"highway": "primary", "lanes": "2", "maxspeed": "40", "name": "Circular de Loul\u00e9", "oneway": "yes", "ref": "EN 270", "surface": "asphalt"}}, {"type": "Feature", "geometry": {"type": "LineString", "coordinates": [[-8.0203637, 37.146234], [-8.0204659, 37.1462362], [-8.0205442, 37.1462507], [-8.0206274, 37.1462767], [-8.0207339, 37.1463254]]}, "properties": {"highway": "primary", "lanes": "2", "name": "Circular de Loul\u00e9", "oneway": "yes", "ref": "EN 270", "surface": "asphalt"}}, {"type": "Feature", "geometry": {"type": "LineString", "coordinates": [[-8.0123615, 37.1463357], [-8.0122411, 37.1463117], [-8.0121159, 37.1462833]]}, "properties": {"highway": "primary", "lanes": "2", "name": "Circular de Loul\u00e9", "oneway": "yes", "ref": "EN 270", "surface": "asphalt"}}, {"type": "Feature", "geometry": {"type": "LineString", "coordinates": [[-8.0386334, 37.1453964], [-8.038974, 37.1454541], [-8.0394206, 37.1455226], [-8.0397345, 37.1455578], [-8.040008, 37.1455685], [-8.0402024, 37.1455674], [-8.0403559, 37.1455573], [-8.0404989, 37.1455385], [-8.040653, 37.1455136], [-8.0408006, 37.1454777], [-8.040934, 37.1454365], [-8.0410514, 37.1453932]]}, "properties": {"highway": "primary", "lanes": "2", "maxspeed": "60", "name": "Circular de Loul\u00e9", "oneway": "yes", "ref": "EN 270", "surface": "asphalt"}}, {"type": "Feature", "geometry": {"type": "LineString", "coordinates": [[-8.0410514, 37.1453932], [-8.0411935, 37.1453344], [-8.0413408, 37.1452638], [-8.0414725, 37.1451943], [-8.0416764, 37.145049], [-8.0418063, 37.1449443], [-8.0418856, 37.1448693], [-8.0419822, 37.1447582], [-8.0420828, 37.1446128], [-8.0421181, 37.1445602]]}, "properties": {"highway": "primary", "lanes": "2", "maxspeed": "40", "name": "Circular de Loul\u00e9", "oneway": "yes", "ref": "EN 270", "surface": "asphalt"}}, {"type": "Feature", "geometry": {"type": "LineString", "coordinates": [[-8.0226344, 37.1458929], [-8.0216978, 37.1460229], [-8.021599, 37.1460363], [-8.0215383, 37.1460407]]}, "properties": {"highway": "primary", "lanes": "2", "maxspeed": "40", "name": "Circular de Loul\u00e9", "oneway": "yes", "ref": "EN 270", "surface": "asphalt"}}, {"type": "Feature", "geometry": {"type": "LineString", "coordinates": [[-8.0239801, 37.1457061], [-8.0236964, 37.1457436], [-8.0233356, 37.1457947], [-8.0226344, 37.1458929]]}, "properties": {"highway": "primary", "lanes": "2", "maxspeed": "60", "name": "Circular de Loul\u00e9", "oneway": "yes", "ref": "EN 270", "surface": "asphalt"}}, {"type": "Feature", "geometry": {"type": "MultiPolygon", "coordinates": [[[[-7.6949077, 37.1347379], [-7.6948992, 37.1346467], [-7.6948583, 37.1345696], [-7.6948016, 37.1345144], [-7.6947095, 37.1344654], [-7.6946026, 37.1344426], [-7.6944921, 37.1344485], [-7.6943899, 37.1344823], [-7.6943562, 37.1345014], [-7.6942829, 37.1345667], [-7.6942396, 37.1346474], [-7.694231, 37.1347348], [-7.6942603, 37.1348244], [-7.6943257, 37.1349008], [-7.6944197, 37.1349553], [-7.6945311, 37.1349813], [-7.694647, 37.1349759], [-7.6947196, 37.1349552], [-7.6948125, 37.1349015], [-7.6948777, 37.1348262], [-7.6949077, 37.1347379]]]]}, "properties": {"foot": "yes", "highway": "primary", "junction": "roundabout", "lanes": "2", "lit": "yes", "maxspeed": "50", "name": "Migra\u00e7\u00e3o", "ref": "EN 270", "sidewalk": "no", "smoothness": "excellent", "source": "BING", "surface": "asphalt"}}, {"type": "Feature", "geometry": {"type": "MultiPolygon", "coordinates": [[[[-8.0213178, 37.1461558], [-8.0213143, 37.1461033], [-8.021298, 37.1460523], [-8.0212695, 37.1460049], [-8.02123, 37.1459627], [-8.0211948, 37.1459362], [-8.0211552, 37.1459139], [-8.0210966, 37.1458916], [-8.0210338, 37.1458787], [-8.020969, 37.1458756], [-8.0209047, 37.1458825], [-8.0208432, 37.1458991], [-8.0207869, 37.1459249], [-8.0207378, 37.1459587], [-8.0207057, 37.1459899], [-8.0206799, 37.1460247], [-8.0206562, 37.146075], [-8.0206455, 37.146128], [-8.0206483, 37.1461817], [-8.0206645, 37.1462339], [-8.0206934, 37.1462825], [-8.0207339, 37.1463254], [-8.0207742, 37.1463551], [-8.0208201, 37.1463792], [-8.0208703, 37.146397], [-8.0209234, 37.146408], [-8.0209871, 37.146412], [-8.0210506, 37.1464063], [-8.0211116, 37.1463912], [-8.0211679, 37.1463671], [-8.0212175, 37.1463351], [-8.0212586, 37.1462961], [-8.0212864, 37.1462575], [-8.0213083, 37.1462079], [-8.0213178, 37.1461558]]]]}, "properties": {"highway": "primary", "junction": "roundabout", "lanes": "2", "maxspeed": "50", "name": "Rotunda de Salir", "ref": "EN 270", "surface": "asphalt"}}]}