{"type": "FeatureCollection", "features": [{"type": "Feature", "geometry": {"type": "LineString", "coordinates": [[-8.5554944, 37.3181903], [-8.555649, 37.3181498], [-8.5558023, 37.3180978]]}, "properties": {"highway": "primary", "name": "Largo de 5 de Outubro", "oneway": "no", "ref": "EN 266;ER 266", "surface": "asphalt"}}, {"type": "Feature", "geometry": {"type": "LineString", "coordinates": [[-8.5293644, 37.2005874], [-8.529513, 37.2005928], [-8.5296257, 37.2005992], [-8.5297547, 37.2006163], [-8.5298647, 37.2006398], [-8.5299797, 37.2006804], [-8.5301202, 37.2007488], [-8.5308658, 37.2012155]]}, "properties": {"destination": "Caldas de Monchique", "highway": "primary", "lanes": "1", "official_ref": "ER 266", "old_ref": "EN 266", "oneway": "yes", "ref": "EN 266;ER 266"}}, {"type": "Feature", "geometry": {"type": "LineString", "coordinates": [[-8.5533201, 37.2791685], [-8.553134, 37.2791899], [-8.5528943, 37.2792223], [-8.5527567, 37.2792274], [-8.5525898, 37.2792073], [-8.552439, 37.2791742]]}, "properties": {"highway": "primary", "lanes:backward": "1", "lanes:forward": "1", "official_ref": "ER 266", "old_ref": "EN 266", "ref": "EN 266;ER 266"}}, {"type": "Feature", "geometry": {"type": "LineString", "coordinates": [[-8.5555071, 37.3124236], [-8.5556134, 37.3122378]]}, "properties": {"highway": "primary", "lanes": "1", "name": "Rua Serpa Pinto", "official_ref": "ER 266", "old_ref": "EN 266", "oneway": "yes", "ref": "EN 266;ER 266"}}, {"type": "Feature", "geometry": {"type": "LineString", "coordinates": [[-8.5554944, 37.3181903], [-8.5553667, 37.3182734], [-8.5552107, 37.3183754], [-8.5550877, 37.3184831], [-8.5549979, 37.3186128], [-8.5549957, 37.3186207], [-8.5549818, 37.3186709], [-8.5549767, 37.3186892], [-8.5549315, 37.3188043], [-8.5548942, 37.318948], [-8.5548894, 37.3192334], [-8.5548735, 37.3193356], [-8.5548716, 37.3193479], [-8.5548245, 37.319427]]}, "properties": {"highway": "primary", "name": "Rua Dom Francisco Gomes do Avelar", "official_ref": "ER 266", "old_ref": "EN 266", "ref": "EN 266;ER 266", "surface": "asphalt"}}, {"type": "Feature", "geometry": {"type": "LineString", "coordinates": [[-8.5564721, 37.3178756], [-8.5564523, 37.317852], [-8.5564327, 37.3178229], [-8.5564024, 37.3178012], [-8.5563611, 37.317781], [-8.556027, 37.3176138], [-8.5558911, 37.3175211], [-8.5557296, 37.3173495], [-8.5556651, 37.3172362], [-8.5555981, 37.3170695], [-8.5555633, 37.316983]]}, "properties": {"highway": "primary", "name": "Rua Engenheiro Duarte Pacheco", "oneway": "yes", "ref": "EN 266;ER 266", "surface": "asphalt"}}, {"type": "Feature", "geometry": {"type": "LineString", "coordinates": [[-8.5538796, 37.3169739], [-8.5539213, 37.3170324], [-8.5539686, 37.3170859], [-8.5540226, 37.3171284], [-8.5541082, 37.317184], [-8.5542741, 37.3172537], [-8.555301, 37.3175634], [-8.555428, 37.3176087], [-8.5555004, 37.3176413], [-8.5555626, 37.3177117], [-8.5555931, 37.3177725], [-8.5556116, 37.3178241]]}, "properties": {"highway": "primary", "name": "Rua Serpa Pinto", "official_ref": "ER 266", "old_ref": "EN 266", "oneway": "yes", "ref": "EN 266;ER 266", "surface": "asphalt"}}, {"type": "Feature", "geometry": {"type": "LineString", "coordinates": [[-8.5523056, 37.3206342], [-8.5524625, 37.3204859], [-8.5525606, 37.3204106], [-8.5527105, 37.3203117], [-8.5529251, 37.3201904], [-8.5537025, 37.3197716], [-8.5538278, 37.3197007], [-8.5539643, 37.319637], [-8.554311, 37.3195771]]}, "properties": {"highway": "primary", "name": "Estrada de Sab\u00f3ia", "official_ref": "ER 266", "old_ref": "EN 266", "ref": "EN 266;ER 266", "surface": "asphalt"}}, {"type": "Feature", "geometry": {"type": "LineString", "coordinates": [[-8.5542868, 37.2797876], [-8.5542926, 37.2797624], [-8.5542899, 37.2797368], [-8.5542718, 37.2797029], [-8.5542392, 37.2796767], [-8.5541968, 37.2796619]]}, "properties": {"highway": "primary", "junction": "roundabout", "lanes": "1", "maxspeed": "50", "official_ref": "ER 266", "old_ref": "EN 266", "ref": "EN 266;ER 266", "width": "5"}}, {"type": "Feature", "geometry": {"type": "LineString", "coordinates": [[-8.555485, 37.3163228], [-8.5553972, 37.3162354], [-8.5553466, 37.3161295], [-8.5553206, 37.3159917], [-8.5553216, 37.3159376]]}, "properties": {"highway": "primary", "name": "Estrada Velha", "oneway": "yes", "ref": "EN 266;ER 266", "source": "GPS"}}, {"type": "Feature", "geometry": {"type": "LineString", "coordinates": [[-8.5112494, 37.3812707], [-8.5112366, 37.3810834], [-8.511155, 37.3809535], [-8.5110007, 37.3808495], [-8.5107894, 37.3807695], [-8.5103864, 37.3806356], [-8.5100933, 37.3804844], [-8.5099169, 37.3803598], [-8.509845, 37.3802655], [-8.5098392, 37.3801859], [-8.509868, 37.3801037], [-8.5099666, 37.3799691], [-8.5103985, 37.3795439], [-8.5108477, 37.3791692], [-8.5110492, 37.3790713], [-8.5113711, 37.3789628], [-8.511719, 37.3788258], [-8.5118281, 37.3787339], [-8.5118689, 37.3786404], [-8.5118513, 37.3785508], [-8.5117757, 37.3784616], [-8.5116734, 37.3783992], [-8.5111129, 37.3781951], [-8.5109147, 37.3780609], [-8.5107748, 37.3779304], [-8.5106924, 37.3777645], [-8.5106852, 37.3775652], [-8.5107195, 37.3772106], [-8.510778, 37.3769888], [-8.5108799, 37.3767991], [-8.5109782, 37.376649], [-8.511176, 37.3764611], [-8.5112772, 37.3763803], [-8.511427, 37.3762939], [-8.5115524, 37.3762559], [-8.5116933, 37.3762546], [-8.5122645, 37.3763735], [-8.5124654, 37.3764819], [-8.512677, 37.3766669], [-8.5128598, 37.3767571], [-8.5131634, 37.3768452], [-8.5133449, 37.376886], [-8.5135326, 37.3769078], [-8.5137364, 37.376895], [-8.5139164, 37.3768521], [-8.5140751, 37.376772], [-8.5145054, 37.3763863], [-8.5147153, 37.376237], [-8.5149101, 37.3762225], [-8.5151245, 37.3762623], [-8.5152769, 37.3763345], [-8.5154189, 37.3764394], [-8.515514, 37.3764888], [-8.5156529, 37.3765105], [-8.5158447, 37.3764731], [-8.5160394, 37.3764069], [-8.5162539, 37.3762719], [-8.5164939, 37.3760719], [-8.5167869, 37.3756381], [-8.5169605, 37.3754513], [-8.5171462, 37.3753236], [-8.5173712, 37.3752416], [-8.5176339, 37.3751874], [-8.5180914, 37.3750211], [-8.5193205, 37.3747789], [-8.5196799, 37.3747656], [-8.5201645, 37.3746825], [-8.5205042, 37.374415], [-8.5210992, 37.3741089], [-8.5212441, 37.3740884], [-8.521463, 37.3740174], [-8.5216322, 37.3739209], [-8.5217183, 37.3736823], [-8.52175, 37.3733979], [-8.5217183, 37.3732847], [-8.5222236, 37.3725411], [-8.5222433, 37.3725121], [-8.5222433, 37.3724098], [-8.5221548, 37.3723258], [-8.5216463, 37.3722965], [-8.5209203, 37.3721306], [-8.5207803, 37.3720672], [-8.5201676, 37.3719691], [-8.5197705, 37.3718348], [-8.5196854, 37.3717246], [-8.5196514, 37.3715676], [-8.5197119, 37.3712582], [-8.5195454, 37.3709413], [-8.5193961, 37.3707722], [-8.5193469, 37.3704115], [-8.5192675, 37.3701911], [-8.5191615, 37.369998], [-8.5190822, 37.3699104], [-8.5190197, 37.3697716], [-8.5190235, 37.3696146], [-8.519101, 37.369186], [-8.5190632, 37.3689611], [-8.5191143, 37.3687679], [-8.5192202, 37.3686335], [-8.5194376, 37.3685068], [-8.5196589, 37.3683483], [-8.5197629, 37.3681777], [-8.5198385, 37.3679513], [-8.5199312, 37.3678381], [-8.5203946, 37.3676721], [-8.5208938, 37.3674034], [-8.5210772, 37.3672388], [-8.521204, 37.367017], [-8.5216106, 37.3655423], [-8.5217202, 37.3653416], [-8.5219528, 37.3652389], [-8.522193, 37.3651831], [-8.5223234, 37.365165], [-8.5225296, 37.3650819], [-8.522713, 37.3649189], [-8.5229929, 37.364531], [-8.5233598, 37.364291], [-8.5236661, 37.3641975], [-8.5239574, 37.3641476], [-8.5241238, 37.3641476], [-8.524485, 37.3641099], [-8.5246722, 37.3640797], [-8.526117, 37.3637883], [-8.526569, 37.3636042], [-8.5268054, 37.363414], [-8.5270021, 37.363165], [-8.5271401, 37.3628465], [-8.5272082, 37.3624706], [-8.5271836, 37.3621883], [-8.5270436, 37.3612464], [-8.5270436, 37.3611468], [-8.5274578, 37.3607242], [-8.5277471, 37.36038], [-8.528235, 37.3601565], [-8.5283618, 37.3601173], [-8.5287324, 37.360143], [-8.5291503, 37.3602064], [-8.5298614, 37.3601671], [-8.5303833, 37.3601218], [-8.5315974, 37.3602033], [-8.531745, 37.360223], [-8.5320721, 37.3604072], [-8.5324598, 37.360534], [-8.5326318, 37.3605218], [-8.5326867, 37.3604841], [-8.5329117, 37.3602155], [-8.5330252, 37.3601234], [-8.5331027, 37.3600962], [-8.5334336, 37.3601656], [-8.5336134, 37.3602306], [-8.5341258, 37.3605687], [-8.5352643, 37.3613808], [-8.5358751, 37.3619076], [-8.5360605, 37.3619468], [-8.5362931, 37.3619664], [-8.5369228, 37.3619499], [-8.5374107, 37.3620298], [-8.5385207, 37.3619559], [-8.5388668, 37.3618638], [-8.5392186, 37.3617144], [-8.5396233, 37.3614668], [-8.5397575, 37.3613838], [-8.5398672, 37.3613611], [-8.5401339, 37.3614095], [-8.540306, 37.3614804], [-8.5405253, 37.3616283], [-8.5407863, 37.3617748], [-8.541034, 37.361894], [-8.5411966, 37.3619106], [-8.5415238, 37.3617898], [-8.5417678, 37.3617023], [-8.5419909, 37.3615619], [-8.5421422, 37.3613098], [-8.542284, 37.3611091], [-8.5424656, 37.3609581], [-8.5426944, 37.360789], [-8.5427909, 37.3607347], [-8.5428646, 37.3606321], [-8.54291, 37.3604524], [-8.5429648, 37.3602879], [-8.5430726, 37.3601354], [-8.5438013, 37.3596082], [-8.5443037, 37.3592448], [-8.5445401, 37.3591497], [-8.5447463, 37.3590727], [-8.5450507, 37.3590169], [-8.545185, 37.3589791], [-8.5453779, 37.3588659], [-8.5454459, 37.3586365], [-8.5454081, 37.3584433], [-8.5452606, 37.3580296], [-8.5452512, 37.3578455], [-8.545289, 37.3576371], [-8.5454044, 37.3573911], [-8.5457202, 37.3569956], [-8.545775, 37.3568552], [-8.5457732, 37.3567586], [-8.5457315, 37.3566227], [-8.5452852, 37.3559389], [-8.5452512, 37.3557788], [-8.5453079, 37.3555887], [-8.545705, 37.3551705], [-8.5464615, 37.3545409], [-8.5466336, 37.3543598], [-8.5466468, 37.3542284], [-8.5466033, 37.354088], [-8.5465031, 37.3539945], [-8.5460484, 37.3537001], [-8.5458513, 37.3535985], [-8.5457696, 37.3534584], [-8.5457286, 37.3532196], [-8.5455349, 37.3521462], [-8.5454195, 37.3517255], [-8.5452501, 37.3512746], [-8.5451795, 37.3510904], [-8.5451539, 37.3509753], [-8.5451941, 37.3508643], [-8.545262, 37.3507553], [-8.545352, 37.3506447], [-8.5454306, 37.3505144], [-8.5454754, 37.3503643], [-8.5454962, 37.3502312], [-8.5454748, 37.3501006], [-8.5453889, 37.3499298], [-8.5451351, 37.3496213], [-8.5449474, 37.3494947], [-8.5447096, 37.3494011], [-8.5445107, 37.3493072], [-8.5443696, 37.3491922], [-8.5442823, 37.3490349], [-8.5442599, 37.3486645], [-8.544259, 37.3485859], [-8.544288, 37.3485208], [-8.5443369, 37.3484641], [-8.5444184, 37.3484157], [-8.5445276, 37.3483895], [-8.5447937, 37.3483808], [-8.5453154, 37.3483808], [-8.5454296, 37.3483746], [-8.545714, 37.3482993], [-8.5459004, 37.3482789], [-8.5464931, 37.3482826], [-8.5466732, 37.3482927], [-8.5468194, 37.3482846], [-8.5469593, 37.3482425], [-8.5470501, 37.3481398], [-8.5470776, 37.3480017], [-8.547023, 37.3478569], [-8.5467522, 37.3474396], [-8.5466869, 37.3473077], [-8.5466452, 37.3471707], [-8.5466224, 37.3470259], [-8.5466484, 37.3468859], [-8.5466782, 37.3467806], [-8.5467364, 37.3466794], [-8.5468728, 37.3465815], [-8.5471359, 37.3464616], [-8.547395, 37.3463131], [-8.5476173, 37.3462219], [-8.5477931, 37.3461865], [-8.5481038, 37.3461863], [-8.5483983, 37.3462291], [-8.54881, 37.3463542], [-8.5490399, 37.346394], [-8.5493198, 37.3464414], [-8.5495657, 37.3465299], [-8.5497425, 37.3465634], [-8.5498896, 37.3465351], [-8.5499886, 37.3464757], [-8.5500857, 37.346394], [-8.5504912, 37.3460229], [-8.5505553, 37.3459744], [-8.5506487, 37.345915], [-8.550799, 37.3458529], [-8.5509024, 37.3458261], [-8.5510874, 37.345829], [-8.5512747, 37.3458717], [-8.5513833, 37.345915], [-8.5515235, 37.3459754], [-8.5516454, 37.3459895], [-8.5518024, 37.3459621], [-8.5519524, 37.3458849], [-8.5521141, 37.3457836], [-8.5522341, 37.3456701], [-8.5523668, 37.3455323], [-8.5524667, 37.3454612], [-8.5527132, 37.3453735], [-8.5529362, 37.3453039], [-8.5531046, 37.34528], [-8.5533017, 37.3453018], [-8.5538368, 37.3454055], [-8.5540245, 37.3454115], [-8.5541534, 37.3453609], [-8.5542691, 37.3452769], [-8.5547384, 37.3448914], [-8.5554126, 37.3442499], [-8.5555404, 37.3441255], [-8.5556273, 37.3439876], [-8.5556934, 37.3438581], [-8.5557804, 37.343784], [-8.5559418, 37.3437145], [-8.5561309, 37.3436664], [-8.5562322, 37.3436509], [-8.5563513, 37.343661], [-8.5564677, 37.3436724], [-8.5566021, 37.3436633], [-8.5567259, 37.3436127], [-8.5568263, 37.3435324], [-8.5569456, 37.3434389], [-8.5570537, 37.3433855], [-8.557189, 37.3433441], [-8.5576169, 37.3433537], [-8.5578126, 37.3433634], [-8.5579515, 37.3433668], [-8.5580551, 37.3433463], [-8.558132, 37.3432938], [-8.5582018, 37.3432237], [-8.558418, 37.3429085], [-8.5584583, 37.3428038], [-8.5584488, 37.3426751], [-8.5583527, 37.3422964], [-8.5582989, 37.3422027], [-8.5582216, 37.3421108], [-8.5581461, 37.3420206], [-8.5580769, 37.3419314], [-8.5580787, 37.3418381], [-8.5581079, 37.3417534], [-8.5581818, 37.3416726], [-8.5582845, 37.3416214], [-8.5591029, 37.3414148], [-8.5592488, 37.341371], [-8.5593535, 37.3413043], [-8.5593979, 37.3412145], [-8.5593652, 37.3411106], [-8.559195, 37.3408987], [-8.5591212, 37.3407668], [-8.5591363, 37.3406429], [-8.5591752, 37.3405678], [-8.5592806, 37.340478], [-8.5593665, 37.3403946], [-8.5594225, 37.340299], [-8.5594377, 37.3401917], [-8.5594396, 37.3400924], [-8.5594703, 37.3400398], [-8.5594654, 37.3399898], [-8.5594077, 37.3397795], [-8.5593675, 37.3396504], [-8.5593326, 37.3395006], [-8.5592697, 37.3393849], [-8.5591525, 37.3392254], [-8.5590734, 37.339126], [-8.5590335, 37.3390173], [-8.5590491, 37.3389053], [-8.559121, 37.3388269], [-8.5592283, 37.3387626], [-8.5593582, 37.3387311], [-8.559804, 37.3386333], [-8.5599291, 37.3385898], [-8.5600355, 37.3385136], [-8.5600804, 37.3384262], [-8.5600772, 37.338312], [-8.5600097, 37.3381963], [-8.5596503, 37.3379815], [-8.559537, 37.3378971], [-8.5594866, 37.3378044], [-8.5594596, 37.3376879], [-8.5594572, 37.3375697], [-8.5594286, 37.3374393], [-8.5593746, 37.3373511], [-8.5591828, 37.3372431], [-8.5588699, 37.3371547], [-8.5585633, 37.3370635], [-8.5583848, 37.3369743], [-8.5582494, 37.3368987], [-8.5581544, 37.3368242], [-8.5581009, 37.3367168], [-8.5581412, 37.3365783], [-8.5584988, 37.3361321], [-8.5585888, 37.3360183], [-8.5586234, 37.3359014], [-8.5586324, 37.3357206], [-8.5586108, 37.3355088], [-8.5585538, 37.3354363], [-8.5584864, 37.335393], [-8.5583458, 37.3353733], [-8.5581416, 37.3354033], [-8.5577737, 37.3355175], [-8.557357, 37.3356185], [-8.5572208, 37.3356309], [-8.5570782, 37.3356211], [-8.5569429, 37.335575], [-8.556323, 37.3352668], [-8.5562141, 37.3352045], [-8.556149, 37.3351377], [-8.5561172, 37.33502], [-8.556137, 37.3348844], [-8.5562389, 37.3345956], [-8.5562648, 37.3344647], [-8.5562711, 37.3343218], [-8.5562597, 37.3341816], [-8.5562176, 37.3340687], [-8.556089, 37.3339722], [-8.555944, 37.3339476], [-8.5557929, 37.3339491], [-8.5552382, 37.3340192], [-8.5550656, 37.3339986], [-8.5549355, 37.3339186], [-8.5548109, 37.3337951], [-8.5546434, 37.3335921], [-8.5545652, 37.3334406], [-8.5544726, 37.3331023], [-8.5543637, 37.3325366], [-8.5543267, 37.3324127], [-8.5542301, 37.3322925], [-8.5540815, 37.3322454], [-8.5539333, 37.3322618], [-8.5536738, 37.3322877], [-8.5534996, 37.3322831], [-8.5533009, 37.3322289], [-8.5530821, 37.3321515], [-8.5529021, 37.3320503], [-8.5528219, 37.3319551], [-8.5528079, 37.3318358], [-8.5528223, 37.3317177], [-8.5528785, 37.3315935], [-8.5529426, 37.3314859], [-8.5530377, 37.3313744], [-8.5532852, 37.3311223], [-8.5533892, 37.3310354], [-8.5535208, 37.3309679], [-8.5537301, 37.3309169], [-8.5538668, 37.3308655], [-8.5539305, 37.3307904], [-8.553982, 37.3307174], [-8.55398, 37.330631], [-8.5539337, 37.3305436], [-8.5538036, 37.3304514], [-8.5536737, 37.3303758], [-8.5533112, 37.3302502], [-8.5531366, 37.3301814], [-8.5530014, 37.3300905], [-8.5528013, 37.3299466], [-8.5526885, 37.3298592], [-8.5525964, 37.3297655], [-8.5524997, 37.32964], [-8.5523959, 37.3295249], [-8.5522788, 37.3294639], [-8.552158, 37.3294178], [-8.5520001, 37.3293641], [-8.5518644, 37.3293461], [-8.5514214, 37.3293435], [-8.5512624, 37.3293259], [-8.5511226, 37.3292844], [-8.5509861, 37.3292361], [-8.550883, 37.3291776], [-8.5507825, 37.3291143], [-8.5506927, 37.3290276], [-8.5506182, 37.3289398], [-8.5505745, 37.3287412], [-8.550506, 37.3285076], [-8.5504459, 37.3283788], [-8.5503579, 37.3282765], [-8.550252, 37.3282217], [-8.5501015, 37.3281673], [-8.5499289, 37.3281424], [-8.5497467, 37.3281142], [-8.5495847, 37.3280791], [-8.5494263, 37.3280217], [-8.5491973, 37.3279345], [-8.5490961, 37.3278763], [-8.5489695, 37.3277837], [-8.5488702, 37.3276901], [-8.5487831, 37.3276023], [-8.5486751, 37.3274627], [-8.5485796, 37.3273336], [-8.5484996, 37.3271604], [-8.5485234, 37.326969], [-8.5485885, 37.3268374], [-8.5486758, 37.3267012], [-8.5488299, 37.3266198], [-8.5489861, 37.3265878], [-8.5491304, 37.3265785], [-8.5493957, 37.326551], [-8.5496242, 37.326538], [-8.54986, 37.3265536], [-8.5503665, 37.3266179], [-8.5505489, 37.3265836], [-8.5507076, 37.3265008], [-8.5513961, 37.3260471], [-8.5515082, 37.3259646], [-8.5515922, 37.3258442], [-8.5515981, 37.3256926], [-8.5511438, 37.3246526], [-8.5510994, 37.3244917], [-8.5511364, 37.3243724], [-8.5512109, 37.3242604], [-8.5513298, 37.3240897], [-8.5516036, 37.3237714], [-8.551811, 37.3236034]]}, "properties": {"highway": "primary", "lanes": "2", "official_ref": "ER 266", "old_ref": "EN 266", "ref": "EN 266;ER 266", "source": "survey", "surface": "asphalt"}}, {"type": "Feature", "geometry": {"type": "LineString", "coordinates": [[-8.5104875, 37.3824925], [-8.5106341, 37.3823258], [-8.5110224, 37.381928], [-8.5112179, 37.3814106], [-8.5112494, 37.3812707]]}, "properties": {"highway": "primary", "official_ref": "ER 266", "old_ref": "EN 266", "ref": "EN 266;ER 266", "source": "survey"}}, {"type": "Feature", "geometry": {"type": "LineString", "coordinates": [[-8.4784729, 37.5126058], [-8.4786568, 37.511463]]}, "properties": {"bridge": "yes", "highway": "primary", "lanes": "2", "layer": "1", "name": "Ponte Engenheiro Jorge Moreira", "official_ref": "ER 266", "oneway": "no", "ref": "EN 266", "source": "survey"}}, {"type": "Feature", "geometry": {"type": "LineString", "coordinates": [[-8.4810002, 37.4934481], [-8.481138, 37.4934387]]}, "properties": {"bridge": "yes", "highway": "primary", "lanes": "2", "layer": "1", "maxspeed": "90", "official_ref": "ER 266", "old_ref": "EN 266", "ref": "EN 266;ER 266", "source": "survey", "surface": "asphalt"}}, {"type": "Feature", "geometry": {"type": "LineString", "coordinates": [[-8.481138, 37.4934387], [-8.4813883, 37.4934272]]}, "properties": {"highway": "primary", "lanes": "2", "maxspeed": "90", "official_ref": "ER 266", "old_ref": "EN 266", "ref": "EN 266;ER 266", "source": "survey", "surface": "asphalt"}}, {"type": "Feature", "geometry": {"type": "LineString", "coordinates": [[-8.5522457, 37.3208568], [-8.5523056, 37.3206342]]}, "properties": {"highway": "primary", "official_ref": "ER 266", "old_ref": "EN 266", "oneway": "yes", "ref": "EN 266;ER 266"}}, {"type": "Feature", "geometry": {"type": "LineString", "coordinates": [[-8.5523056, 37.3206342], [-8.5521448, 37.3208277]]}, "properties": {"highway": "primary", "official_ref": "ER 266", "old_ref": "EN 266", "oneway": "yes", "ref": "EN 266;ER 266"}}, {"type": "Feature", "geometry": {"type": "LineString", "coordinates": [[-8.5520408, 37.3209521], [-8.5521257, 37.3209269]]}, "properties": {"highway": "primary", "official_ref": "ER 266", "old_ref": "EN 266", "oneway": "yes", "ref": "EN 266;ER 266", "source": "survey"}}, {"type": "Feature", "geometry": {"type": "LineString", "coordinates": [[-8.5521257, 37.3209269], [-8.5521511, 37.3209391], [-8.5521803, 37.3209426], [-8.552209, 37.320937], [-8.5522329, 37.3209231], [-8.5522483, 37.3209029], [-8.5522527, 37.3208797], [-8.5522457, 37.3208568], [-8.5522282, 37.3208378], [-8.5522028, 37.3208256], [-8.5521736, 37.3208221], [-8.5521448, 37.3208277], [-8.552121, 37.3208416], [-8.5521056, 37.3208617], [-8.5521012, 37.320885], [-8.5521082, 37.3209079], [-8.5521257, 37.3209269]]}, "properties": {"highway": "primary", "junction": "roundabout", "lanes": "2", "official_ref": "ER 266", "old_ref": "EN 266", "ref": "EN 266;ER 266"}}, {"type": "Feature", "geometry": {"type": "LineString", "coordinates": [[-8.555485, 37.3163228], [-8.5554627, 37.31634], [-8.5554475, 37.3163616], [-8.5554409, 37.3163858], [-8.5554432, 37.31641], [-8.555454, 37.3164327], [-8.5554724, 37.316452], [-8.555497, 37.3164663]]}, "properties": {"highway": "primary", "junction": "roundabout", "ref": "EN 266;ER 266"}}, {"type": "Feature", "geometry": {"type": "LineString", "coordinates": [[-8.5664438, 37.2886326], [-8.566348, 37.2885181], [-8.5662008, 37.2883849], [-8.5659019, 37.2881226], [-8.5656873, 37.2879636], [-8.5655808, 37.2879099], [-8.5654741, 37.2878797], [-8.5653757, 37.2878726], [-8.5652469, 37.2878781], [-8.5642956, 37.2880462], [-8.5641392, 37.2880679], [-8.5640061, 37.2880702], [-8.5638752, 37.2880556], [-8.5637788, 37.2880301], [-8.5636778, 37.2879894], [-8.563596, 37.287928], [-8.5635316, 37.2878584], [-8.5634713, 37.2877801], [-8.5634008, 37.2876556], [-8.5632983, 37.2874121], [-8.5631228, 37.2869814]]}, "properties": {"highway": "primary", "lanes:backward": "1", "lanes:forward": "1", "official_ref": "ER 266", "old_ref": "EN 266", "ref": "EN 266;ER 266"}}, {"type": "Feature", "geometry": {"type": "LineString", "coordinates": [[-8.5559023, 37.2860409], [-8.5558946, 37.2862371], [-8.5559022, 37.2863568], [-8.5559526, 37.2867789]]}, "properties": {"highway": "primary", "official_ref": "ER 266", "old_ref": "EN 266", "ref": "EN 266;ER 266"}}, {"type": "Feature", "geometry": {"type": "LineString", "coordinates": [[-8.5543733, 37.2799862], [-8.554426, 37.2800545], [-8.5544685, 37.280137], [-8.5544975, 37.2802151], [-8.5545135, 37.2803235], [-8.5545156, 37.2804674]]}, "properties": {"highway": "primary", "lanes:backward": "1", "lanes:forward": "1", "maxspeed": "70", "official_ref": "ER 266", "old_ref": "EN 266", "ref": "EN 266;ER 266"}}, {"type": "Feature", "geometry": {"type": "LineString", "coordinates": [[-8.5502786, 37.2751671], [-8.5503252, 37.2749947], [-8.5504418, 37.2745994], [-8.5505808, 37.2741745]]}, "properties": {"highway": "primary", "lanes:backward": "1", "lanes:forward": "1", "official_ref": "ER 266", "old_ref": "EN 266", "oneway": "no", "ref": "EN 266;ER 266"}}, {"type": "Feature", "geometry": {"type": "LineString", "coordinates": [[-8.5447563, 37.2621354], [-8.5443338, 37.2613581], [-8.5438716, 37.2605028], [-8.5435759, 37.2599747], [-8.5433882, 37.2596426], [-8.5431912, 37.2593258], [-8.5429532, 37.2590065], [-8.5419458, 37.2577239], [-8.5417519, 37.2574628], [-8.5415624, 37.2571983], [-8.5412352, 37.2567091], [-8.5408307, 37.2560951], [-8.5406832, 37.2558669], [-8.540429, 37.2554735], [-8.5401163, 37.2549951], [-8.5399905, 37.2548132], [-8.5398447, 37.2546148], [-8.5397153, 37.2544605], [-8.5394862, 37.2541792], [-8.5393058, 37.2539646]]}, "properties": {"highway": "primary", "lanes:backward": "1", "lanes:forward": "1", "official_ref": "ER 266", "old_ref": "EN 266", "oneway": "no", "ref": "EN 266;ER 266", "surface": "asphalt"}}, {"type": "Feature", "geometry": {"type": "LineString", "coordinates": [[-8.5455813, 37.267351], [-8.5455131, 37.2672429], [-8.5454739, 37.2671358], [-8.5454675, 37.2670748], [-8.545477, 37.2670188], [-8.5455019, 37.2669043], [-8.5455649, 37.2667405], [-8.5456639, 37.2664706], [-8.5457075, 37.2663324], [-8.5457427, 37.2661531], [-8.545746, 37.2659221], [-8.5457218, 37.2656836]]}, "properties": {"highway": "primary", "lanes:backward": "1", "lanes:forward": "1", "maxspeed": "50", "official_ref": "ER 266", "old_ref": "EN 266", "ref": "EN 266;ER 266", "surface": "asphalt"}}, {"type": "Feature", "geometry": {"type": "LineString", "coordinates": [[-8.5393058, 37.2539646], [-8.5391803, 37.2538264]]}, "properties": {"bridge": "yes", "highway": "primary", "lanes:backward": "1", "lanes:forward": "1", "layer": "1", "official_ref": "ER 266", "old_ref": "EN 266", "oneway": "no", "ref": "EN 266;ER 266", "surface": "asphalt"}}, {"type": "Feature", "geometry": {"type": "LineString", "coordinates": [[-8.5439086, 37.2364419], [-8.543745, 37.2362625], [-8.5434113, 37.2358775], [-8.5432267, 37.2356539], [-8.5431404, 37.2355337], [-8.5430805, 37.2354164], [-8.5430574, 37.2353185], [-8.5430535, 37.235234], [-8.543065, 37.2351483], [-8.5430979, 37.2350486], [-8.543215, 37.2348191], [-8.5433928, 37.2344873]]}, "properties": {"highway": "primary", "lanes": "2", "lanes:backward": "1", "lanes:forward": "1", "official_ref": "ER 266", "old_ref": "EN 266", "oneway": "no", "ref": "EN 266;ER 266"}}, {"type": "Feature", "geometry": {"type": "LineString", "coordinates": [[-8.530307, 37.2008129], [-8.5302077, 37.2007445], [-8.5300897, 37.2006783], [-8.529918, 37.2005821], [-8.5297466, 37.200501], [-8.5296233, 37.2004347], [-8.5295613, 37.2003856], [-8.5294966, 37.2003326]]}, "properties": {"highway": "primary", "lanes": "1", "maxspeed": "50", "official_ref": "ER 266", "old_ref": "EN 266", "oneway": "yes", "ref": "EN 266;ER 266"}}, {"type": "Feature", "geometry": {"type": "LineString", "coordinates": [[-8.5554752, 37.3122418], [-8.5554928, 37.3123383], [-8.5555071, 37.3124236]]}, "properties": {"highway": "primary", "lanes": "1", "name": "Rua Serpa Pinto", "official_ref": "ER 266", "old_ref": "EN 266", "oneway": "yes", "ref": "EN 266;ER 266"}}, {"type": "Feature", "geometry": {"type": "LineString", "coordinates": [[-8.5555071, 37.3124236], [-8.5554892, 37.3125732]]}, "properties": {"highway": "primary", "name": "Rua Serpa Pinto", "official_ref": "ER 266", "old_ref": "EN 266", "ref": "EN 266;ER 266"}}, {"type": "Feature", "geometry": {"type": "LineString", "coordinates": [[-8.5554892, 37.3125732], [-8.5554525, 37.3127637]]}, "properties": {"highway": "primary", "name": "Rua Serpa Pinto", "official_ref": "ER 266", "old_ref": "EN 266", "ref": "EN 266;ER 266"}}, {"type": "Feature", "geometry": {"type": "LineString", "coordinates": [[-8.5553216, 37.3159376], [-8.5553298, 37.3158972], [-8.5554088, 37.3156251], [-8.5554566, 37.3155128], [-8.555483, 37.3153639], [-8.5554874, 37.3152396], [-8.5555138, 37.3147457], [-8.5557117, 37.3142865], [-8.5557411, 37.314219], [-8.5557539, 37.3141433], [-8.5557672, 37.3140102], [-8.5557753, 37.3139294], [-8.5557979, 37.3133989], [-8.5557795, 37.3132135], [-8.5557018, 37.3129114], [-8.5556452, 37.3127595]]}, "properties": {"highway": "primary", "name": "Estrada Velha", "oneway": "yes", "ref": "EN 266;ER 266", "source": "GPS"}}, {"type": "Feature", "geometry": {"type": "LineString", "coordinates": [[-8.5563495, 37.3179972], [-8.5564148, 37.3179643]]}, "properties": {"highway": "primary", "lane_markings": "no", "name": "Largo de 5 de Outubro", "oneway": "no", "ref": "EN 266;ER 266", "surface": "sett"}}, {"type": "Feature", "geometry": {"type": "LineString", "coordinates": [[-8.5521012, 37.320885], [-8.5520408, 37.3209521]]}, "properties": {"highway": "primary", "official_ref": "ER 266", "old_ref": "EN 266", "oneway": "yes", "ref": "EN 266;ER 266", "source": "survey"}}, {"type": "Feature", "geometry": {"type": "LineString", "coordinates": [[-8.5369999, 37.2058697], [-8.5367623, 37.205648], [-8.5366933, 37.2055834], [-8.5363956, 37.2053014], [-8.5361141, 37.2050365], [-8.5358378, 37.2047759], [-8.5353356, 37.2043342]]}, "properties": {"highway": "primary", "lanes": "1", "official_ref": "ER 266", "old_ref": "EN 266", "oneway": "yes", "ref": "EN 266;ER 266", "turn:lanes": "through"}}, {"type": "Feature", "geometry": {"type": "LineString", "coordinates": [[-8.5353356, 37.2043342], [-8.534958, 37.2040217], [-8.5345262, 37.2037034], [-8.5326056, 37.202396], [-8.5308658, 37.2012155]]}, "properties": {"highway": "primary", "official_ref": "ER 266", "old_ref": "EN 266", "oneway": "no", "ref": "EN 266;ER 266"}}, {"type": "Feature", "geometry": {"type": "LineString", "coordinates": [[-8.5365324, 37.2055172], [-8.5367015, 37.205703], [-8.5367969, 37.2057934], [-8.5369965, 37.2059807], [-8.5370261, 37.2060062], [-8.5371601, 37.2061217], [-8.5373077, 37.2062456], [-8.5375598, 37.2064529], [-8.5377583, 37.2066152], [-8.5380694, 37.2068822]]}, "properties": {"highway": "primary", "lanes": "1", "official_ref": "ER 266", "old_ref": "EN 266", "oneway": "yes", "ref": "EN 266;ER 266", "turn:lanes": "through"}}, {"type": "Feature", "geometry": {"type": "LineString", "coordinates": [[-8.5527528, 37.2868482], [-8.5528388, 37.2868119], [-8.5531961, 37.2866453], [-8.5533045, 37.2866141], [-8.553407, 37.2866059], [-8.553492, 37.2866208], [-8.5535753, 37.2866588], [-8.5536586, 37.2867136], [-8.5537453, 37.2868124], [-8.5538118, 37.2869198], [-8.5540608, 37.2873221], [-8.554105, 37.287416], [-8.5541373, 37.2875323], [-8.554144, 37.2875962], [-8.554145, 37.2877182], [-8.5541133, 37.2884344], [-8.5541065, 37.2887608], [-8.5541197, 37.288904], [-8.554148, 37.2889856], [-8.5542055, 37.2890482], [-8.5542864, 37.2890883], [-8.5543709, 37.2891145], [-8.5544831, 37.2891161], [-8.5545735, 37.2890968], [-8.5546691, 37.2890492], [-8.5547263, 37.2889951], [-8.5548347, 37.2888497], [-8.5549464, 37.2886418], [-8.5552456, 37.2881033], [-8.5553791, 37.28791], [-8.555587, 37.2876646], [-8.5557801, 37.287447], [-8.555882, 37.2873221], [-8.5559344, 37.2872336], [-8.5559598, 37.2871471], [-8.5559678, 37.2870521], [-8.5559639, 37.28689], [-8.5559526, 37.2867789]]}, "properties": {"highway": "primary", "lanes:backward": "1", "lanes:forward": "1", "official_ref": "ER 266", "old_ref": "EN 266", "ref": "EN 266;ER 266"}}, {"type": "Feature", "geometry": {"type": "LineString", "coordinates": [[-8.5522452, 37.2867264], [-8.5522824, 37.28678], [-8.5523487, 37.2868302], [-8.5524255, 37.2868597], [-8.5525315, 37.2868757], [-8.5526202, 37.2868767], [-8.5527528, 37.2868482]]}, "properties": {"bridge": "yes", "bridge:structure": "arch", "highway": "primary", "historic": "bridge", "lanes:backward": "1", "lanes:forward": "1", "layer": "1", "official_ref": "ER 266", "old_ref": "EN 266", "ref": "EN 266;ER 266"}}, {"type": "Feature", "geometry": {"type": "LineString", "coordinates": [[-8.4838751, 37.403463], [-8.4838582, 37.403492], [-8.4838536, 37.4035245], [-8.4838624, 37.4035564], [-8.4838838, 37.4035844], [-8.4839153, 37.4036054], [-8.4839647, 37.4036173], [-8.4839949, 37.4036187], [-8.4840344, 37.4036094], [-8.484068, 37.4035906], [-8.4840934, 37.4035623], [-8.4841051, 37.4035289], [-8.4841017, 37.4034942], [-8.4840836, 37.4034626], [-8.4840531, 37.4034378], [-8.4840171, 37.4034236], [-8.4839774, 37.403419], [-8.4839379, 37.4034247], [-8.4839026, 37.4034398], [-8.4838751, 37.403463]]}, "properties": {"highway": "primary", "junction": "roundabout", "maxspeed": "50", "official_ref": "ER 266", "old_ref": "EN 266", "ref": "EN 266;ER 266"}}, {"type": "Feature", "geometry": {"type": "LineString", "coordinates": [[-8.5631228, 37.2869814], [-8.5630888, 37.2868889]]}, "properties": {"highway": "primary", "lanes:backward": "1", "lanes:forward": "1", "official_ref": "ER 266", "old_ref": "EN 266", "ref": "EN 266;ER 266"}}, {"type": "Feature", "geometry": {"type": "LineString", "coordinates": [[-8.5584868, 37.2841583], [-8.5583288, 37.2840369], [-8.558209, 37.2839548], [-8.5580975, 37.2839129], [-8.5579954, 37.2838981], [-8.5579028, 37.2839076], [-8.5577908, 37.2839491], [-8.5576884, 37.2840122], [-8.5575908, 37.2841197], [-8.5574947, 37.2842825], [-8.5573959, 37.2844979], [-8.5573436, 37.2846135], [-8.5572684, 37.2848198], [-8.5571858, 37.2849965], [-8.5571276, 37.2850831], [-8.5570641, 37.2851659], [-8.5569528, 37.285266], [-8.5566762, 37.2854306], [-8.5565177, 37.2855072], [-8.5562821, 37.2856225], [-8.55614, 37.2857116], [-8.5560731, 37.2857595], [-8.5560082, 37.2858218], [-8.5559712, 37.2858717], [-8.5559381, 37.285931], [-8.5559023, 37.2860409]]}, "properties": {"highway": "primary", "lanes": "2", "maxspeed": "50", "official_ref": "ER 266", "old_ref": "EN 266", "ref": "EN 266;ER 266", "surface": "asphalt"}}, {"type": "Feature", "geometry": {"type": "LineString", "coordinates": [[-8.5541535, 37.279855], [-8.5542595, 37.2799173], [-8.5543733, 37.2799862]]}, "properties": {"highway": "primary", "lanes": "1", "maxspeed": "70", "official_ref": "ER 266", "old_ref": "EN 266", "oneway": "yes", "ref": "EN 266;ER 266"}}, {"type": "Feature", "geometry": {"type": "LineString", "coordinates": [[-8.5520113, 37.286141], [-8.5521973, 37.2866173], [-8.5522452, 37.2867264]]}, "properties": {"highway": "primary", "lanes:backward": "1", "lanes:forward": "1", "official_ref": "ER 266", "old_ref": "EN 266", "ref": "EN 266;ER 266"}}, {"type": "Feature", "geometry": {"type": "LineString", "coordinates": [[-8.5521983, 37.2857723], [-8.5521151, 37.2858225], [-8.5520575, 37.2858914], [-8.5520205, 37.2859637], [-8.5520044, 37.2860381], [-8.5520113, 37.286141]]}, "properties": {"highway": "primary", "lanes:backward": "1", "lanes:forward": "1", "maxspeed:backward": "70", "maxspeed:forward": "50", "official_ref": "ER 266", "old_ref": "EN 266", "ref": "EN 266;ER 266"}}, {"type": "Feature", "geometry": {"type": "LineString", "coordinates": [[-8.5493666, 37.2722396], [-8.5490428, 37.2718717], [-8.5488169, 37.2715821], [-8.5486483, 37.2713332], [-8.5478266, 37.2701004], [-8.5474432, 37.2695136], [-8.5470024, 37.268814], [-8.5468667, 37.2685885]]}, "properties": {"highway": "primary", "lanes": "3", "lanes:backward": "2", "lanes:forward": "1", "official_ref": "ER 266", "old_ref": "EN 266", "ref": "EN 266;ER 266", "surface": "asphalt"}}, {"type": "Feature", "geometry": {"type": "LineString", "coordinates": [[-8.5505808, 37.2741745], [-8.5506505, 37.2739457], [-8.5506836, 37.2738063], [-8.5506859, 37.2737642], [-8.5506785, 37.273722], [-8.5506584, 37.2736712], [-8.5506208, 37.2736217], [-8.550072, 37.2730583], [-8.5493666, 37.2722396]]}, "properties": {"highway": "primary", "lanes:backward": "1", "lanes:forward": "1", "official_ref": "ER 266", "old_ref": "EN 266", "ref": "EN 266;ER 266", "surface": "asphalt"}}, {"type": "Feature", "geometry": {"type": "LineString", "coordinates": [[-8.5541968, 37.2796619], [-8.5541145, 37.2796212], [-8.5539772, 37.2795374]]}, "properties": {"highway": "primary", "lanes": "1", "official_ref": "ER 266", "old_ref": "EN 266", "oneway": "yes", "ref": "EN 266;ER 266"}}, {"type": "Feature", "geometry": {"type": "LineString", "coordinates": [[-8.550212, 37.2798002], [-8.5501177, 37.279785], [-8.5500454, 37.2797564], [-8.5499436, 37.279704], [-8.5498603, 37.2796361], [-8.5497766, 37.2795374], [-8.5497172, 37.2794251], [-8.5496815, 37.2793042], [-8.5496723, 37.2791436], [-8.5496741, 37.279101], [-8.5496933, 37.2786366], [-8.5497006, 37.2781597], [-8.5496952, 37.2779901], [-8.5496748, 37.2778263], [-8.5496326, 37.2775377], [-8.5495652, 37.2770794], [-8.5495293, 37.2768037], [-8.5495227, 37.276679], [-8.5495224, 37.2765827], [-8.5495444, 37.2764788], [-8.5495737, 37.276401], [-8.5496088, 37.2763188], [-8.5496963, 37.2761756], [-8.5500451, 37.2756692], [-8.550112, 37.2755717], [-8.5501752, 37.2754503], [-8.5502178, 37.2753441], [-8.5502786, 37.2751671]]}, "properties": {"highway": "primary", "lanes:backward": "2", "lanes:forward": "1", "official_ref": "ER 266", "old_ref": "EN 266", "ref": "EN 266;ER 266"}}, {"type": "Feature", "geometry": {"type": "LineString", "coordinates": [[-8.5619108, 37.2859844], [-8.5609733, 37.2856903]]}, "properties": {"highway": "primary", "lanes": "3", "lanes:backward": "2", "lanes:forward": "1", "official_ref": "ER 266", "old_ref": "EN 266", "ref": "EN 266;ER 266", "turn:lanes:backward": "through|merge_to_left"}}, {"type": "Feature", "geometry": {"type": "LineString", "coordinates": [[-8.5630888, 37.2868889], [-8.5630265, 37.2867387], [-8.5629387, 37.2865286], [-8.5628745, 37.2864245], [-8.5628227, 37.2863639], [-8.5627565, 37.2863084], [-8.5627011, 37.2862685], [-8.5626115, 37.2862183], [-8.562387, 37.2861318], [-8.5619108, 37.2859844]]}, "properties": {"highway": "primary", "lanes": "2", "official_ref": "ER 266", "old_ref": "EN 266", "ref": "EN 266;ER 266"}}, {"type": "Feature", "geometry": {"type": "LineString", "coordinates": [[-8.4824661, 37.3834714], [-8.4824464, 37.3833615], [-8.4824654, 37.3832229], [-8.4825156, 37.3831129], [-8.4825519, 37.3830332], [-8.4826661, 37.3827488], [-8.4827565, 37.3825369], [-8.4829267, 37.3823302], [-8.4841833, 37.381649], [-8.4850152, 37.3811965], [-8.4857656, 37.3810579], [-8.4861431, 37.3810411], [-8.486501, 37.3811038], [-8.4870551, 37.3812507], [-8.487422, 37.3813748], [-8.4885816, 37.3819713], [-8.489394, 37.3822303], [-8.4897789, 37.3823858], [-8.4899647, 37.3825387], [-8.4901625, 37.3827617], [-8.4902788, 37.382864], [-8.4905823, 37.3829846], [-8.4909084, 37.3830496], [-8.4914474, 37.3830231], [-8.4918038, 37.3830279], [-8.4924053, 37.3831472], [-8.4929192, 37.3834546], [-8.4931111, 37.3835158], [-8.4933364, 37.3835726], [-8.4937247, 37.3836604], [-8.494281, 37.3839086], [-8.4945555, 37.3840292], [-8.4948709, 37.3840604], [-8.4952636, 37.3840435], [-8.4957982, 37.3841279], [-8.4960865, 37.3841905], [-8.4963042, 37.3842123], [-8.4964487, 37.384178], [-8.4965567, 37.3841195], [-8.4969126, 37.3838027], [-8.4971519, 37.383575], [-8.4973152, 37.3834432], [-8.4982605, 37.3833786], [-8.4989566, 37.3833822], [-8.4993508, 37.3834765], [-8.5000729, 37.3836952], [-8.5003454, 37.3837854], [-8.5006071, 37.3838173], [-8.5008143, 37.3837381], [-8.5012616, 37.3834428], [-8.5018765, 37.383252], [-8.502047, 37.3832159], [-8.5027144, 37.3832798], [-8.5028715, 37.3833099], [-8.503098, 37.3833051], [-8.5033003, 37.3832424], [-8.5036566, 37.3829942], [-8.5037985, 37.382899], [-8.5040129, 37.3828617], [-8.5042319, 37.3829292], [-8.5043437, 37.3830761], [-8.5044101, 37.3832882], [-8.5044614, 37.3834002], [-8.5048887, 37.3836966], [-8.5050065, 37.3838087], [-8.5050578, 37.3839629], [-8.5050533, 37.3842051], [-8.5050804, 37.3844364], [-8.5051439, 37.3845388], [-8.5052149, 37.3846027], [-8.5054308, 37.3846232], [-8.5056844, 37.3845895], [-8.5062843, 37.3843436], [-8.5067439, 37.3841842], [-8.5074593, 37.3841292], [-8.5084386, 37.3835918], [-8.5085548, 37.383534], [-8.5087194, 37.3833975], [-8.5087529, 37.3832869], [-8.5087176, 37.3831675], [-8.5086449, 37.3830112], [-8.5084805, 37.3827361], [-8.5084974, 37.3826302], [-8.5085757, 37.3825513], [-8.5087286, 37.3824792], [-8.5089511, 37.3824222], [-8.5091708, 37.3823773], [-8.5093457, 37.3823747], [-8.509512, 37.3824237], [-8.5097673, 37.3826075], [-8.5099953, 37.3827279], [-8.5100693, 37.3827376], [-8.5102142, 37.382693], [-8.5103576, 37.3826086], [-8.5104875, 37.3824925]]}, "properties": {"highway": "primary", "official_ref": "ER 266", "old_ref": "EN 266", "ref": "EN 266;ER 266", "source": "survey"}}, {"type": "Feature", "geometry": {"type": "LineString", "coordinates": [[-8.5656711, 37.2966086], [-8.5657337, 37.2964902], [-8.5657824, 37.2963944], [-8.5657994, 37.2963611], [-8.5658584, 37.2962182], [-8.5659393, 37.2959311]]}, "properties": {"highway": "primary", "lanes:backward": "1", "lanes:forward": "1", "maxspeed": "50", "official_ref": "ER 266", "old_ref": "EN 266", "ref": "EN 266;ER 266"}}, {"type": "Feature", "geometry": {"type": "LineString", "coordinates": [[-8.5547019, 37.3195037], [-8.5548245, 37.319427]]}, "properties": {"highway": "primary", "name": "Estrada de Sab\u00f3ia", "official_ref": "ER 266", "old_ref": "EN 266", "ref": "EN 266;ER 266", "surface": "asphalt"}}, {"type": "Feature", "geometry": {"type": "LineString", "coordinates": [[-8.5535574, 37.2833054], [-8.5535296, 37.2834751], [-8.5535024, 37.283671], [-8.5534767, 37.2838782], [-8.5534247, 37.2843495], [-8.5534033, 37.2845516], [-8.5533946, 37.284678], [-8.5534018, 37.2848172], [-8.5534357, 37.2850382], [-8.553435, 37.2851745], [-8.5534284, 37.2852213], [-8.55341, 37.2852659], [-8.5533553, 37.2853539], [-8.5533021, 37.285412]]}, "properties": {"highway": "primary", "lanes:backward": "1", "lanes:forward": "1", "maxspeed": "50", "official_ref": "ER 266", "old_ref": "EN 266", "ref": "EN 266;ER 266"}}, {"type": "Feature", "geometry": {"type": "LineString", "coordinates": [[-8.5558023, 37.3180978], [-8.5561646, 37.3180149], [-8.5562788, 37.3180016], [-8.5563495, 37.3179972]]}, "properties": {"highway": "primary", "lanes": "2", "name": "Largo de 5 de Outubro", "oneway": "no", "ref": "EN 266;ER 266", "surface": "asphalt"}}, {"type": "Feature", "geometry": {"type": "LineString", "coordinates": [[-8.5556249, 37.3179611], [-8.5555897, 37.3180783], [-8.5554944, 37.3181903]]}, "properties": {"highway": "primary", "name": "Rua Serpa Pinto", "official_ref": "ER 266", "old_ref": "EN 266", "oneway": "yes", "ref": "EN 266;ER 266", "surface": "asphalt"}}, {"type": "Feature", "geometry": {"type": "LineString", "coordinates": [[-8.5554525, 37.3127637], [-8.5553187, 37.3134529]]}, "properties": {"highway": "primary", "name": "Rua Serpa Pinto", "official_ref": "ER 266", "old_ref": "EN 266", "ref": "EN 266;ER 266"}}, {"type": "Feature", "geometry": {"type": "LineString", "coordinates": [[-8.5556452, 37.3127595], [-8.5555496, 37.3126453], [-8.5554892, 37.3125732]]}, "properties": {"highway": "primary", "name": "Estrada Velha", "oneway": "yes", "ref": "EN 266;ER 266", "source": "GPS"}}, {"type": "Feature", "geometry": {"type": "LineString", "coordinates": [[-8.5543733, 37.2799862], [-8.5543169, 37.279873], [-8.5542868, 37.2797876]]}, "properties": {"highway": "primary", "lanes": "1", "maxspeed": "50", "official_ref": "ER 266", "old_ref": "EN 266", "oneway": "yes", "ref": "EN 266;ER 266"}}, {"type": "Feature", "geometry": {"type": "LineString", "coordinates": [[-8.5544806, 37.2808298], [-8.5544404, 37.2809527], [-8.5543881, 37.2810459], [-8.5543092, 37.2811384], [-8.554218, 37.2812165], [-8.5540872, 37.2813285]]}, "properties": {"highway": "primary", "lanes:backward": "1", "lanes:forward": "1", "maxspeed:backward": "90", "maxspeed:forward": "70", "official_ref": "ER 266", "old_ref": "EN 266", "ref": "EN 266;ER 266"}}, {"type": "Feature", "geometry": {"type": "LineString", "coordinates": [[-8.5538803, 37.2815253], [-8.553833, 37.281641], [-8.5537991, 37.2818089], [-8.5537224, 37.2823365], [-8.5536456, 37.2827492]]}, "properties": {"highway": "primary", "lanes:backward": "1", "lanes:forward": "1", "maxspeed": "50", "official_ref": "ER 266", "old_ref": "EN 266", "ref": "EN 266;ER 266"}}, {"type": "Feature", "geometry": {"type": "LineString", "coordinates": [[-8.5533021, 37.285412], [-8.5531846, 37.2854931], [-8.5530592, 37.2855448], [-8.5528306, 37.2856079], [-8.5523258, 37.2857205], [-8.5521983, 37.2857723]]}, "properties": {"highway": "primary", "lanes:backward": "1", "lanes:forward": "1", "maxspeed:backward": "70", "maxspeed:forward": "50", "official_ref": "ER 266", "old_ref": "EN 266", "ref": "EN 266;ER 266"}}, {"type": "Feature", "geometry": {"type": "LineString", "coordinates": [[-8.5601303, 37.2854107], [-8.5599321, 37.2853385], [-8.5597829, 37.2852701], [-8.559674, 37.2852032], [-8.5595749, 37.2851276], [-8.5593343, 37.2849155], [-8.5586954, 37.2843599]]}, "properties": {"highway": "primary", "lanes:backward": "2", "lanes:forward": "1", "maxspeed": "70", "official_ref": "ER 266", "old_ref": "EN 266", "ref": "EN 266;ER 266"}}, {"type": "Feature", "geometry": {"type": "LineString", "coordinates": [[-8.5586954, 37.2843599], [-8.5584868, 37.2841583]]}, "properties": {"highway": "primary", "lanes:backward": "2", "lanes:forward": "1", "maxspeed": "50", "official_ref": "ER 266", "old_ref": "EN 266", "ref": "EN 266;ER 266"}}, {"type": "Feature", "geometry": {"type": "LineString", "coordinates": [[-8.4771523, 37.5134991], [-8.477232, 37.5134444]]}, "properties": {"highway": "primary", "lanes": "2", "maxspeed": "90", "official_ref": "ER 266", "old_ref": "EN 266", "ref": "EN 266", "source": "survey", "surface": "asphalt"}}, {"type": "Feature", "geometry": {"type": "LineString", "coordinates": [[-8.4819998, 37.4934237], [-8.4826295, 37.493462], [-8.4826829, 37.4934661]]}, "properties": {"highway": "primary", "lanes": "2", "maxspeed": "90", "official_ref": "ER 266", "old_ref": "EN 266", "oneway": "no", "ref": "EN 266;ER 266", "source": "survey", "surface": "asphalt"}}, {"type": "Feature", "geometry": {"type": "LineString", "coordinates": [[-8.4813883, 37.4934272], [-8.4816882, 37.4934236]]}, "properties": {"highway": "primary", "lanes": "2", "maxspeed": "90", "official_ref": "ER 266", "old_ref": "EN 266", "ref": "EN 266;ER 266", "source": "survey", "surface": "asphalt"}}, {"type": "Feature", "geometry": {"type": "LineString", "coordinates": [[-8.4771296, 37.5135158], [-8.4771523, 37.5134991]]}, "properties": {"highway": "primary", "lanes": "2", "maxspeed": "90", "official_ref": "ER 266", "old_ref": "EN 266", "ref": "EN 266", "source": "survey", "surface": "asphalt"}}, {"type": "Feature", "geometry": {"type": "LineString", "coordinates": [[-8.5652135, 37.2974863], [-8.5652634, 37.2973875]]}, "properties": {"highway": "primary", "lanes": "3", "lanes:backward": "1", "lanes:forward": "2", "maxspeed": "50", "official_ref": "ER 266", "old_ref": "EN 266", "ref": "EN 266;ER 266", "turn:lanes:backward": "through", "turn:lanes:forward": "left|through"}}, {"type": "Feature", "geometry": {"type": "LineString", "coordinates": [[-8.5651495, 37.2976175], [-8.5652135, 37.2974863]]}, "properties": {"highway": "primary", "lanes": "3", "lanes:backward": "1", "lanes:forward": "2", "maxspeed": "50", "official_ref": "ER 266", "old_ref": "EN 266", "placement": "middle_of:2", "ref": "EN 266;ER 266", "turn:lanes:backward": "through", "turn:lanes:forward": "left|through"}}, {"type": "Feature", "geometry": {"type": "LineString", "coordinates": [[-8.5443312, 37.2369531], [-8.5441462, 37.2367285]]}, "properties": {"highway": "primary", "lanes": "2", "lanes:backward": "1", "lanes:forward": "1", "official_ref": "ER 266", "old_ref": "EN 266", "oneway": "no", "ref": "EN 266;ER 266"}}, {"type": "Feature", "geometry": {"type": "LineString", "coordinates": [[-8.5441462, 37.2367285], [-8.5441231, 37.2367013], [-8.5439086, 37.2364419]]}, "properties": {"highway": "primary", "lanes": "2", "lanes:backward": "1", "lanes:forward": "1", "official_ref": "ER 266", "old_ref": "EN 266", "oneway": "no", "ref": "EN 266;ER 266"}}, {"type": "Feature", "geometry": {"type": "LineString", "coordinates": [[-8.5391803, 37.2538264], [-8.5391188, 37.2537438], [-8.5390894, 37.2536708], [-8.5390746, 37.2536047], [-8.5390739, 37.253526], [-8.5390825, 37.253467], [-8.5391188, 37.2533751], [-8.5391779, 37.2532601], [-8.5393132, 37.2530554], [-8.5404006, 37.2515009], [-8.5405775, 37.2512324], [-8.5407258, 37.2510269], [-8.5408886, 37.2508417], [-8.5410438, 37.250704], [-8.541524, 37.2503152], [-8.5417505, 37.2501408], [-8.5419061, 37.2500088], [-8.5420988, 37.2498926], [-8.5421795, 37.249859], [-8.5423347, 37.2498161], [-8.5427015, 37.2497672], [-8.5428369, 37.2497476], [-8.5429751, 37.2497138], [-8.5431019, 37.2496697], [-8.5432299, 37.249605], [-8.5444246, 37.2489272], [-8.5453181, 37.2484093], [-8.5455338, 37.2482881], [-8.5456048, 37.2482329], [-8.5456706, 37.2481734], [-8.5457219, 37.2481017], [-8.5457651, 37.2480195], [-8.5458176, 37.2478569], [-8.5458877, 37.2475162], [-8.5459313, 37.2473302], [-8.546006, 37.2471282], [-8.5462222, 37.2466014], [-8.5462951, 37.2464151], [-8.5463204, 37.2463241], [-8.5463307, 37.2462332], [-8.5463321, 37.2461484], [-8.5463343, 37.2460121], [-8.5461413, 37.2398592], [-8.546135, 37.2396236], [-8.5461234, 37.2394193], [-8.5461071, 37.2392457], [-8.5460703, 37.239106], [-8.546001, 37.2389526], [-8.5459259, 37.2388328], [-8.5458384, 37.2387322], [-8.544863, 37.2375739], [-8.5443662, 37.2369954], [-8.5443312, 37.2369531]]}, "properties": {"highway": "primary", "lanes": "2", "lanes:backward": "1", "lanes:forward": "1", "official_ref": "ER 266", "old_ref": "EN 266", "oneway": "no", "ref": "EN 266;ER 266", "surface": "asphalt"}}, {"type": "Feature", "geometry": {"type": "LineString", "coordinates": [[-8.5556116, 37.3178241], [-8.5556249, 37.3179611]]}, "properties": {"highway": "primary", "name": "Rua Serpa Pinto", "official_ref": "ER 266", "old_ref": "EN 266", "oneway": "yes", "ref": "EN 266;ER 266", "surface": "asphalt"}}, {"type": "Feature", "geometry": {"type": "LineString", "coordinates": [[-8.5564148, 37.3179643], [-8.5564656, 37.3179274], [-8.5564721, 37.3178756]]}, "properties": {"highway": "primary", "lane_markings": "no", "name": "Largo de 5 de Outubro", "oneway": "no", "ref": "EN 266;ER 266", "surface": "sett"}}, {"type": "Feature", "geometry": {"type": "LineString", "coordinates": [[-8.5527326, 37.3222715], [-8.5526911, 37.3222643], [-8.5525497, 37.322253], [-8.5523509, 37.3222763]]}, "properties": {"highway": "primary", "lanes": "2", "official_ref": "ER 266", "old_ref": "EN 266", "ref": "EN 266;ER 266", "source": "survey", "surface": "asphalt"}}, {"type": "Feature", "geometry": {"type": "LineString", "coordinates": [[-8.5523509, 37.3222763], [-8.5522347, 37.32231], [-8.5518731, 37.3224924], [-8.551707, 37.3225386], [-8.5515562, 37.322538], [-8.551427, 37.3224853], [-8.5513108, 37.3223984], [-8.5512602, 37.3222638], [-8.5512873, 37.3221122], [-8.5514117, 37.3218727], [-8.5514743, 37.3217035], [-8.5514942, 37.3216496], [-8.5516276, 37.3214566], [-8.551864, 37.3211478], [-8.5520408, 37.3209521]]}, "properties": {"highway": "primary", "lanes": "2", "official_ref": "ER 266", "old_ref": "EN 266", "ref": "EN 266;ER 266", "source": "survey", "surface": "asphalt"}}, {"type": "Feature", "geometry": {"type": "LineString", "coordinates": [[-8.554311, 37.3195771], [-8.5546072, 37.3195266], [-8.5547019, 37.3195037]]}, "properties": {"highway": "primary", "lanes": "2", "name": "Estrada de Sab\u00f3ia", "official_ref": "ER 266", "old_ref": "EN 266", "ref": "EN 266;ER 266", "surface": "asphalt"}}, {"type": "Feature", "geometry": {"type": "LineString", "coordinates": [[-8.5537131, 37.3162845], [-8.5537155, 37.3163919]]}, "properties": {"highway": "primary", "name": "Rua Serpa Pinto", "official_ref": "ER 266", "old_ref": "EN 266", "oneway": "yes", "ref": "EN 266;ER 266"}}, {"type": "Feature", "geometry": {"type": "LineString", "coordinates": [[-8.5553187, 37.3134529], [-8.5552357, 37.3138312], [-8.5551941, 37.3139655], [-8.5550961, 37.3141692], [-8.5549867, 37.3143342], [-8.5546093, 37.3148708], [-8.5538854, 37.3159253], [-8.5537615, 37.3161539], [-8.5537131, 37.3162845]]}, "properties": {"highway": "primary", "name": "Rua Serpa Pinto", "official_ref": "ER 266", "old_ref": "EN 266", "oneway": "yes", "ref": "EN 266;ER 266"}}, {"type": "Feature", "geometry": {"type": "LineString", "coordinates": [[-8.5537155, 37.3163919], [-8.5537183, 37.3165062], [-8.5537804, 37.3167013], [-8.5538796, 37.3169739]]}, "properties": {"highway": "primary", "name": "Rua Serpa Pinto", "official_ref": "ER 266", "old_ref": "EN 266", "oneway": "yes", "ref": "EN 266;ER 266"}}, {"type": "Feature", "geometry": {"type": "LineString", "coordinates": [[-8.54303, 37.213451], [-8.5428974, 37.213248]]}, "properties": {"highway": "primary", "lanes": "2", "lanes:backward": "1", "lanes:forward": "1", "official_ref": "ER 266", "old_ref": "EN 266", "oneway": "no", "ref": "EN 266;ER 266", "surface": "asphalt"}}, {"type": "Feature", "geometry": {"type": "LineString", "coordinates": [[-8.5431763, 37.2136902], [-8.54303, 37.213451]]}, "properties": {"highway": "primary", "lanes": "2", "lanes:backward": "1", "lanes:forward": "1", "official_ref": "ER 266", "old_ref": "EN 266", "oneway": "no", "ref": "EN 266;ER 266", "surface": "asphalt"}}, {"type": "Feature", "geometry": {"type": "LineString", "coordinates": [[-8.543236, 37.2138141], [-8.5431763, 37.2136902]]}, "properties": {"highway": "primary", "lanes": "2", "lanes:backward": "1", "lanes:forward": "1", "official_ref": "ER 266", "old_ref": "EN 266", "oneway": "no", "ref": "EN 266;ER 266", "surface": "asphalt"}}, {"type": "Feature", "geometry": {"type": "LineString", "coordinates": [[-8.543344, 37.2142419], [-8.5433399, 37.2142029], [-8.5433023, 37.2140213], [-8.5432487, 37.2138397], [-8.543236, 37.2138141]]}, "properties": {"highway": "primary", "lanes": "2", "lanes:backward": "1", "lanes:forward": "1", "official_ref": "ER 266", "old_ref": "EN 266", "oneway": "no", "ref": "EN 266;ER 266", "surface": "asphalt"}}, {"type": "Feature", "geometry": {"type": "LineString", "coordinates": [[-8.5433534, 37.2143887], [-8.543344, 37.2142419]]}, "properties": {"highway": "primary", "lanes": "2", "lanes:backward": "1", "lanes:forward": "1", "official_ref": "ER 266", "old_ref": "EN 266", "oneway": "no", "ref": "EN 266;ER 266", "surface": "asphalt"}}, {"type": "Feature", "geometry": {"type": "LineString", "coordinates": [[-8.5433601, 37.214488], [-8.5433534, 37.2143887]]}, "properties": {"highway": "primary", "lanes": "2", "lanes:backward": "1", "lanes:forward": "1", "official_ref": "ER 266", "old_ref": "EN 266", "oneway": "no", "ref": "EN 266;ER 266", "surface": "asphalt"}}, {"type": "Feature", "geometry": {"type": "LineString", "coordinates": [[-8.5433842, 37.2149526], [-8.5433601, 37.214488]]}, "properties": {"highway": "primary", "lanes": "2", "lanes:backward": "1", "lanes:forward": "1", "official_ref": "ER 266", "old_ref": "EN 266", "oneway": "no", "ref": "EN 266;ER 266", "surface": "asphalt"}}, {"type": "Feature", "geometry": {"type": "LineString", "coordinates": [[-8.5428974, 37.213248], [-8.5422161, 37.2122313], [-8.5412343, 37.2107531], [-8.5409947, 37.2103939], [-8.5404377, 37.2095589], [-8.5398718, 37.2087087], [-8.5396519, 37.2084289], [-8.5394615, 37.2082046], [-8.5392628, 37.208008], [-8.5390349, 37.2077987], [-8.5380694, 37.2068822]]}, "properties": {"highway": "primary", "lanes": "2", "lanes:backward": "1", "lanes:forward": "1", "official_ref": "ER 266", "old_ref": "EN 266", "oneway": "no", "ref": "EN 266;ER 266", "surface": "asphalt"}}, {"type": "Feature", "geometry": {"type": "LineString", "coordinates": [[-8.5539772, 37.2795374], [-8.5540244, 37.2796547], [-8.5540514, 37.2797286]]}, "properties": {"highway": "primary", "lanes": "1", "maxspeed": "50", "official_ref": "ER 266", "old_ref": "EN 266", "oneway": "yes", "ref": "EN 266;ER 266"}}, {"type": "Feature", "geometry": {"type": "LineString", "coordinates": [[-8.5556264, 37.3164483], [-8.5556448, 37.3164255], [-8.5556533, 37.3163993], [-8.5556509, 37.3163723]]}, "properties": {"highway": "primary", "junction": "roundabout", "ref": "EN 266;ER 266"}}, {"type": "Feature", "geometry": {"type": "LineString", "coordinates": [[-8.5652634, 37.2973875], [-8.5653479, 37.2972253], [-8.5654544, 37.2970097]]}, "properties": {"highway": "primary", "lanes": "3", "lanes:backward": "2", "lanes:forward": "1", "maxspeed": "50", "official_ref": "ER 266", "old_ref": "EN 266", "ref": "EN 266;ER 266", "turn:lanes:backward": "left|through;right", "turn:lanes:forward": "through"}}, {"type": "Feature", "geometry": {"type": "LineString", "coordinates": [[-8.5540514, 37.2797286], [-8.5540459, 37.2797567], [-8.5540507, 37.2797849], [-8.5540655, 37.2798107], [-8.5540889, 37.2798322], [-8.5541191, 37.2798473], [-8.5541535, 37.279855]]}, "properties": {"highway": "primary", "junction": "roundabout", "lanes": "1", "maxspeed": "50", "official_ref": "ER 266", "old_ref": "EN 266", "ref": "EN 266;ER 266", "width": "5"}}, {"type": "Feature", "geometry": {"type": "LineString", "coordinates": [[-8.5461937, 37.2678894], [-8.5459296, 37.2676879]]}, "properties": {"highway": "primary", "lanes:backward": "1", "lanes:forward": "1", "maxspeed": "50", "official_ref": "ER 266", "old_ref": "EN 266", "ref": "EN 266;ER 266", "surface": "asphalt"}}, {"type": "Feature", "geometry": {"type": "LineString", "coordinates": [[-8.5459296, 37.2676879], [-8.5458264, 37.2676036], [-8.54568, 37.2674685], [-8.5455813, 37.267351]]}, "properties": {"bridge": "yes", "highway": "primary", "lanes:backward": "1", "lanes:forward": "1", "layer": "1", "maxspeed": "50", "name": "Ponte de Carrasqueira", "official_ref": "ER 266", "old_ref": "EN 266", "ref": "EN 266;ER 266"}}, {"type": "Feature", "geometry": {"type": "LineString", "coordinates": [[-8.5468667, 37.2685885], [-8.5467645, 37.2684374], [-8.5466264, 37.2682713], [-8.546459, 37.2681073], [-8.5461937, 37.2678894]]}, "properties": {"highway": "primary", "lanes:backward": "1", "lanes:forward": "1", "official_ref": "ER 266", "old_ref": "EN 266", "ref": "EN 266;ER 266", "surface": "asphalt"}}, {"type": "Feature", "geometry": {"type": "LineString", "coordinates": [[-8.555497, 37.3164663], [-8.5555198, 37.3164735], [-8.555544, 37.3164763]]}, "properties": {"highway": "primary", "junction": "roundabout", "ref": "EN 266;ER 266"}}, {"type": "Feature", "geometry": {"type": "LineString", "coordinates": [[-8.5556509, 37.3163723], [-8.5556381, 37.3163474], [-8.555616, 37.3163269], [-8.555587, 37.316313]]}, "properties": {"highway": "primary", "junction": "roundabout", "ref": "EN 266;ER 266"}}, {"type": "Feature", "geometry": {"type": "LineString", "coordinates": [[-8.555544, 37.3164763], [-8.555567, 37.3164749], [-8.5555891, 37.3164695], [-8.5556092, 37.3164605], [-8.5556264, 37.3164483]]}, "properties": {"highway": "primary", "junction": "roundabout", "ref": "EN 266;ER 266"}}, {"type": "Feature", "geometry": {"type": "LineString", "coordinates": [[-8.555587, 37.316313], [-8.5555523, 37.3163069], [-8.5555169, 37.3163103], [-8.555485, 37.3163228]]}, "properties": {"highway": "primary", "junction": "roundabout", "ref": "EN 266;ER 266"}}, {"type": "Feature", "geometry": {"type": "LineString", "coordinates": [[-8.5308658, 37.2012155], [-8.530307, 37.2008129]]}, "properties": {"highway": "primary", "lanes": "1", "maxspeed": "70", "official_ref": "ER 266", "old_ref": "EN 266", "oneway": "yes", "ref": "EN 266;ER 266"}}, {"type": "Feature", "geometry": {"type": "LineString", "coordinates": [[-8.5433928, 37.2344873], [-8.5435676, 37.2341541], [-8.5437129, 37.2338936], [-8.543765, 37.2337744], [-8.5438044, 37.2336469], [-8.5438202, 37.2334721], [-8.5438139, 37.2332839], [-8.5437676, 37.2330635], [-8.5437335, 37.2329129]]}, "properties": {"highway": "primary", "lanes": "2", "lanes:backward": "1", "lanes:forward": "1", "maxspeed": "70", "official_ref": "ER 266", "old_ref": "EN 266", "oneway": "no", "ref": "EN 266;ER 266", "surface": "asphalt"}}, {"type": "Feature", "geometry": {"type": "LineString", "coordinates": [[-8.5437335, 37.2329129], [-8.5436752, 37.2326604], [-8.5436189, 37.2323978], [-8.5435813, 37.2322504], [-8.5435009, 37.231992], [-8.5434499, 37.2318382], [-8.5434016, 37.2316396], [-8.5433775, 37.2315341], [-8.5433679, 37.2314501], [-8.5433616, 37.2313829], [-8.5433636, 37.2312968], [-8.5433748, 37.2312061], [-8.5436484, 37.2304458]]}, "properties": {"highway": "primary", "lanes": "2", "lanes:backward": "1", "lanes:forward": "1", "maxspeed": "50", "official_ref": "ER 266", "old_ref": "EN 266", "oneway": "no", "ref": "EN 266;ER 266", "surface": "asphalt"}}, {"type": "Feature", "geometry": {"type": "LineString", "coordinates": [[-8.5436484, 37.2304458], [-8.543753, 37.2301703], [-8.5438174, 37.2300166], [-8.543871, 37.2298585], [-8.5439113, 37.2297155], [-8.5439488, 37.2295831], [-8.5439837, 37.2294421], [-8.5440051, 37.2293076], [-8.5440105, 37.2291687], [-8.5440132, 37.2288997], [-8.543989, 37.2285345]]}, "properties": {"highway": "primary", "lanes": "2", "lanes:backward": "1", "lanes:forward": "1", "maxspeed": "50", "official_ref": "ER 266", "old_ref": "EN 266", "oneway": "no", "ref": "EN 266;ER 266"}}, {"type": "Feature", "geometry": {"type": "LineString", "coordinates": [[-8.543989, 37.2285345], [-8.5439676, 37.2280988], [-8.5439193, 37.2274495], [-8.5439086, 37.2272381], [-8.5439032, 37.2270801], [-8.5439032, 37.2268131], [-8.5439032, 37.2264778], [-8.5438844, 37.2260934], [-8.5438469, 37.2251985], [-8.5438211, 37.2247698], [-8.5437986, 37.2242801], [-8.5437664, 37.2234536], [-8.543753, 37.2228919], [-8.543745, 37.2226996], [-8.5437181, 37.2221913], [-8.5437145, 37.2220973], [-8.5437025, 37.2217812], [-8.5436994, 37.2217001], [-8.5436564, 37.2211362], [-8.5436422, 37.2206876], [-8.5436373, 37.2205345]]}, "properties": {"highway": "primary", "lanes": "2", "lanes:backward": "1", "lanes:forward": "1", "maxspeed": "50", "official_ref": "ER 266", "old_ref": "EN 266", "oneway": "no", "ref": "EN 266;ER 266"}}, {"type": "Feature", "geometry": {"type": "LineString", "coordinates": [[-8.5436373, 37.2205345], [-8.5436334, 37.2204099], [-8.5436296, 37.2202925], [-8.543617, 37.2198824], [-8.5436126, 37.2197515]]}, "properties": {"highway": "primary", "lanes": "2", "lanes:backward": "1", "lanes:forward": "1", "maxspeed": "50", "official_ref": "ER 266", "old_ref": "EN 266", "oneway": "no", "ref": "EN 266;ER 266", "surface": "asphalt"}}, {"type": "Feature", "geometry": {"type": "LineString", "coordinates": [[-8.5436126, 37.2197515], [-8.5436055, 37.2195087], [-8.5435867, 37.219011], [-8.5435438, 37.2183467], [-8.5435143, 37.2177145], [-8.5434721, 37.2167925]]}, "properties": {"highway": "primary", "lanes": "2", "lanes:backward": "1", "lanes:forward": "1", "maxspeed": "50", "official_ref": "ER 266", "old_ref": "EN 266", "oneway": "no", "ref": "EN 266;ER 266", "surface": "asphalt"}}, {"type": "Feature", "geometry": {"type": "LineString", "coordinates": [[-8.5434721, 37.2167925], [-8.5434526, 37.2163667], [-8.5433842, 37.2149526]]}, "properties": {"highway": "primary", "lanes": "2", "lanes:backward": "1", "lanes:forward": "1", "official_ref": "ER 266", "old_ref": "EN 266", "oneway": "no", "ref": "EN 266;ER 266", "surface": "asphalt"}}, {"type": "Feature", "geometry": {"type": "LineString", "coordinates": [[-8.5372721, 37.2061233], [-8.5369999, 37.2058697]]}, "properties": {"highway": "primary", "lanes": "2", "official_ref": "ER 266", "old_ref": "EN 266", "oneway": "yes", "ref": "EN 266;ER 266", "turn:lanes": "left|through"}}, {"type": "Feature", "geometry": {"type": "LineString", "coordinates": [[-8.5380694, 37.2068822], [-8.5375946, 37.2064187], [-8.5374699, 37.2063063], [-8.5373693, 37.2062157], [-8.5372721, 37.2061233]]}, "properties": {"highway": "primary", "lanes": "1", "official_ref": "ER 266", "old_ref": "EN 266", "oneway": "yes", "ref": "EN 266;ER 266", "turn:lanes": "left;through"}}, {"type": "Feature", "geometry": {"type": "LineString", "coordinates": [[-8.5362668, 37.2052437], [-8.5365324, 37.2055172]]}, "properties": {"highway": "primary", "lanes": "2", "official_ref": "ER 266", "old_ref": "EN 266", "oneway": "yes", "ref": "EN 266;ER 266", "turn:lanes": "through|slight_right"}}, {"type": "Feature", "geometry": {"type": "LineString", "coordinates": [[-8.5353356, 37.2043342], [-8.5358162, 37.2047951], [-8.5362668, 37.2052437]]}, "properties": {"highway": "primary", "lanes": "1", "official_ref": "ER 266", "old_ref": "EN 266", "oneway": "yes", "ref": "EN 266;ER 266", "turn:lanes": "through;slight_right"}}, {"type": "Feature", "geometry": {"type": "LineString", "coordinates": [[-8.5536456, 37.2827492], [-8.5535574, 37.2833054]]}, "properties": {"highway": "primary", "lanes": "3", "lanes:backward": "1", "lanes:forward": "2", "maxspeed": "50", "official_ref": "ER 266", "old_ref": "EN 266", "ref": "EN 266;ER 266", "turn:lanes:backward": "through", "turn:lanes:forward": "left|through"}}, {"type": "Feature", "geometry": {"type": "LineString", "coordinates": [[-8.5540872, 37.2813285], [-8.5539554, 37.2814353], [-8.5538803, 37.2815253]]}, "properties": {"highway": "primary", "lanes:backward": "1", "lanes:forward": "1", "maxspeed:backward": "90", "maxspeed:forward": "50", "official_ref": "ER 266", "old_ref": "EN 266", "ref": "EN 266;ER 266"}}, {"type": "Feature", "geometry": {"type": "LineString", "coordinates": [[-8.5545156, 37.2804674], [-8.5544806, 37.2808298]]}, "properties": {"highway": "primary", "lanes:backward": "1", "lanes:forward": "1", "maxspeed:backward": "90", "maxspeed:forward": "70", "official_ref": "ER 266", "old_ref": "EN 266", "ref": "EN 266;ER 266"}}, {"type": "Feature", "geometry": {"type": "LineString", "coordinates": [[-8.5539772, 37.2795374], [-8.5539495, 37.2794996], [-8.5538811, 37.2794089], [-8.5537982, 37.2793275], [-8.5537135, 37.27926], [-8.5536316, 37.2792186], [-8.5535433, 37.2791906], [-8.5534473, 37.2791691], [-8.5533201, 37.2791685]]}, "properties": {"highway": "primary", "lanes:backward": "1", "lanes:forward": "1", "maxspeed:backward": "50", "official_ref": "ER 266", "old_ref": "EN 266", "ref": "EN 266;ER 266"}}, {"type": "Feature", "geometry": {"type": "LineString", "coordinates": [[-8.5457218, 37.2656836], [-8.5456769, 37.2652959], [-8.545665, 37.2651727], [-8.5456373, 37.2648852], [-8.5455762, 37.2640792], [-8.5455099, 37.2636403], [-8.5454574, 37.2634696], [-8.5453938, 37.263309], [-8.5453187, 37.2631502], [-8.5452101, 37.2629614], [-8.5447563, 37.2621354]]}, "properties": {"highway": "primary", "lanes:backward": "1", "lanes:forward": "1", "maxspeed": "50", "official_ref": "ER 266", "old_ref": "EN 266", "oneway": "no", "ref": "EN 266;ER 266"}}, {"type": "Feature", "geometry": {"type": "LineString", "coordinates": [[-8.5654544, 37.2970097], [-8.5655429, 37.2968382], [-8.5656711, 37.2966086]]}, "properties": {"highway": "primary", "lanes:backward": "1", "lanes:forward": "1", "maxspeed": "50", "official_ref": "ER 266", "old_ref": "EN 266", "ref": "EN 266;ER 266"}}, {"type": "Feature", "geometry": {"type": "LineString", "coordinates": [[-8.5659393, 37.2959311], [-8.5660226, 37.2955668], [-8.5660744, 37.2953116], [-8.5660951, 37.2952225], [-8.5661896, 37.2947833], [-8.5664863, 37.2934455]]}, "properties": {"highway": "primary", "lanes:backward": "1", "lanes:forward": "1", "maxspeed": "50", "official_ref": "ER 266", "old_ref": "EN 266", "ref": "EN 266;ER 266"}}, {"type": "Feature", "geometry": {"type": "LineString", "coordinates": [[-8.5664863, 37.2934455], [-8.5666714, 37.2923652], [-8.5667093, 37.2921558], [-8.5669349, 37.2909065], [-8.5669598, 37.2907434], [-8.5669931, 37.2905253], [-8.5670288, 37.2903076], [-8.5670334, 37.2901857], [-8.5670141, 37.2900558], [-8.566946, 37.2898249], [-8.5667055, 37.2892031], [-8.5666117, 37.2889606], [-8.5664438, 37.2886326]]}, "properties": {"highway": "primary", "lanes:backward": "1", "lanes:forward": "1", "maxspeed": "70", "official_ref": "ER 266", "old_ref": "EN 266", "ref": "EN 266;ER 266"}}, {"type": "Feature", "geometry": {"type": "LineString", "coordinates": [[-8.5609733, 37.2856903], [-8.5601303, 37.2854107]]}, "properties": {"highway": "primary", "lanes:backward": "2", "lanes:forward": "1", "maxspeed": "70", "official_ref": "ER 266", "old_ref": "EN 266", "ref": "EN 266;ER 266"}}, {"type": "Feature", "geometry": {"type": "LineString", "coordinates": [[-8.4779686, 37.5131362], [-8.4782407, 37.5130283], [-8.4783132, 37.5129809], [-8.4783523, 37.5129414], [-8.4783913, 37.5128939], [-8.4784189, 37.5128353], [-8.4784431, 37.5127727], [-8.4784729, 37.5126058]]}, "properties": {"highway": "primary", "lanes": "2", "maxspeed": "90", "official_ref": "ER 266", "old_ref": "EN 266", "ref": "EN 266", "source": "survey", "surface": "asphalt"}}, {"type": "Feature", "geometry": {"type": "LineString", "coordinates": [[-8.5541968, 37.2796619], [-8.5541509, 37.2796605], [-8.5541076, 37.2796726], [-8.5540728, 37.2796964], [-8.5540514, 37.2797286]]}, "properties": {"highway": "primary", "junction": "roundabout", "lanes": "1", "maxspeed": "50", "official_ref": "ER 266", "old_ref": "EN 266", "ref": "EN 266;ER 266", "width": "5"}}, {"type": "Feature", "geometry": {"type": "LineString", "coordinates": [[-8.5541535, 37.279855], [-8.5541961, 37.2798535], [-8.5542355, 37.2798405], [-8.554267, 37.2798176], [-8.5542868, 37.2797876]]}, "properties": {"highway": "primary", "junction": "roundabout", "lanes": "1", "maxspeed": "50", "official_ref": "ER 266", "old_ref": "EN 266", "ref": "EN 266;ER 266", "width": "5"}}, {"type": "Feature", "geometry": {"type": "LineString", "coordinates": [[-8.477232, 37.5134444], [-8.4773231, 37.5133853], [-8.4774376, 37.5133299], [-8.4779686, 37.5131362]]}, "properties": {"highway": "primary", "lanes": "2", "maxspeed": "90", "official_ref": "ER 266", "old_ref": "EN 266", "ref": "EN 266", "source": "survey", "surface": "asphalt"}}, {"type": "Feature", "geometry": {"type": "LineString", "coordinates": [[-8.5520374, 37.2790269], [-8.5518714, 37.2789685]]}, "properties": {"highway": "primary", "lanes:backward": "1", "lanes:forward": "1", "official_ref": "ER 266", "old_ref": "EN 266", "ref": "EN 266;ER 266"}}, {"type": "Feature", "geometry": {"type": "LineString", "coordinates": [[-8.5518714, 37.2789685], [-8.5517743, 37.278939]]}, "properties": {"highway": "primary", "lanes:backward": "1", "lanes:forward": "1", "official_ref": "ER 266", "old_ref": "EN 266", "ref": "EN 266;ER 266"}}, {"type": "Feature", "geometry": {"type": "LineString", "coordinates": [[-8.5517743, 37.278939], [-8.5516401, 37.2789043], [-8.5514671, 37.2788659], [-8.551262, 37.2788388], [-8.5511113, 37.2788255], [-8.5510464, 37.278829], [-8.5509559, 37.2788441], [-8.550878, 37.2788744], [-8.5508109, 37.2789192], [-8.5507358, 37.2789897], [-8.5506902, 37.2790733], [-8.5506558, 37.2791777], [-8.5506177, 37.2794957], [-8.5505818, 37.2795839], [-8.5505135, 37.2796865], [-8.5504236, 37.2797563], [-8.5503126, 37.279789], [-8.550212, 37.2798002]]}, "properties": {"highway": "primary", "lanes:backward": "1", "lanes:forward": "1", "official_ref": "ER 266", "old_ref": "EN 266", "ref": "EN 266;ER 266"}}, {"type": "Feature", "geometry": {"type": "LineString", "coordinates": [[-8.5522886, 37.279124], [-8.5520374, 37.2790269]]}, "properties": {"highway": "primary", "lanes:backward": "1", "lanes:forward": "1", "official_ref": "ER 266", "old_ref": "EN 266", "ref": "EN 266;ER 266"}}, {"type": "Feature", "geometry": {"type": "LineString", "coordinates": [[-8.552439, 37.2791742], [-8.5522886, 37.279124]]}, "properties": {"highway": "primary", "lanes:backward": "1", "lanes:forward": "1", "official_ref": "ER 266", "old_ref": "EN 266", "ref": "EN 266;ER 266"}}, {"type": "Feature", "geometry": {"type": "LineString", "coordinates": [[-8.481719, 37.4934202], [-8.4819998, 37.4934237]]}, "properties": {"highway": "primary", "lanes": "2", "maxspeed": "90", "official_ref": "ER 266", "old_ref": "EN 266", "ref": "EN 266;ER 266", "source": "survey", "surface": "asphalt"}}, {"type": "Feature", "geometry": {"type": "LineString", "coordinates": [[-8.4816882, 37.4934236], [-8.481719, 37.4934202]]}, "properties": {"highway": "primary", "lanes": "2", "maxspeed": "90", "official_ref": "ER 266", "old_ref": "EN 266", "ref": "EN 266;ER 266", "source": "survey", "surface": "asphalt"}}, {"type": "Feature", "geometry": {"type": "LineString", "coordinates": [[-8.5524912, 37.3230136], [-8.5527544, 37.3228002], [-8.5528858, 37.3226846], [-8.5529426, 37.3225725], [-8.5529457, 37.3224359], [-8.5528974, 37.3223447], [-8.55281, 37.322285], [-8.5527326, 37.3222715]]}, "properties": {"highway": "primary", "lanes": "2", "official_ref": "ER 266", "old_ref": "EN 266", "ref": "EN 266;ER 266", "source": "survey", "surface": "asphalt"}}, {"type": "Feature", "geometry": {"type": "LineString", "coordinates": [[-8.5555633, 37.316983], [-8.5554807, 37.3167986], [-8.555461, 37.3166747], [-8.555478, 37.3165932], [-8.555544, 37.3164763]]}, "properties": {"highway": "primary", "name": "Rua Engenheiro Duarte Pacheco", "oneway": "yes", "ref": "EN 266;ER 266"}}, {"type": "Feature", "geometry": {"type": "LineString", "coordinates": [[-8.551811, 37.3236034], [-8.5524912, 37.3230136]]}, "properties": {"highway": "primary", "lanes": "2", "official_ref": "ER 266", "old_ref": "EN 266", "ref": "EN 266;ER 266", "source": "survey", "surface": "asphalt"}}, {"type": "Feature", "geometry": {"type": "MultiPolygon", "coordinates": [[[[-8.5522527, 37.3208797], [-8.5522457, 37.3208568], [-8.5522282, 37.3208378], [-8.5522028, 37.3208256], [-8.5521736, 37.3208221], [-8.5521448, 37.3208277], [-8.552121, 37.3208416], [-8.5521056, 37.3208617], [-8.5521012, 37.320885], [-8.5521082, 37.3209079], [-8.5521257, 37.3209269], [-8.5521511, 37.3209391], [-8.5521803, 37.3209426], [-8.552209, 37.320937], [-8.5522329, 37.3209231], [-8.5522483, 37.3209029], [-8.5522527, 37.3208797]]]]}, "properties": {"highway": "primary", "junction": "roundabout", "lanes": "2", "official_ref": "ER 266", "old_ref": "EN 266", "ref": "EN 266;ER 266"}}, {"type": "Feature", "geometry": {"type": "MultiPolygon", "coordinates": [[[[-8.4841051, 37.4035289], [-8.4841017, 37.4034942], [-8.4840836, 37.4034626], [-8.4840531, 37.4034378], [-8.4840171, 37.4034236], [-8.4839774, 37.403419], [-8.4839379, 37.4034247], [-8.4839026, 37.4034398], [-8.4838751, 37.403463], [-8.4838582, 37.403492], [-8.4838536, 37.4035245], [-8.4838624, 37.4035564], [-8.4838838, 37.4035844], [-8.4839153, 37.4036054], [-8.4839647, 37.4036173], [-8.4839949, 37.4036187], [-8.4840344, 37.4036094], [-8.484068, 37.4035906], [-8.4840934, 37.4035623], [-8.4841051, 37.4035289]]]]}, "properties": {"highway": "primary", "junction": "roundabout", "maxspeed": "50", "official_ref": "ER 266", "old_ref": "EN 266", "ref": "EN 266;ER 266"}}]}