{"type": "FeatureCollection", "features": [{"type": "Feature", "geometry": {"type": "LineString", "coordinates": [[-8.3851859, 38.01172], [-8.3837688, 38.0114135]]}, "properties": {"access": "yes", "bridge": "yes", "highway": "trunk", "lanes": "2", "layer": "1", "ref": "IC1;EN 121;EN 262", "surface": "asphalt"}}, {"type": "Feature", "geometry": {"type": "LineString", "coordinates": [[-8.3804568, 37.9448023], [-8.380547, 37.9452261]]}, "properties": {"access": "yes", "highway": "trunk", "lanes": "2", "lanes:backward": "1", "lanes:forward": "1", "maxspeed": "50", "postal_code": "7565-101", "ref": "IC 1;EN 262", "surface": "asphalt", "turn:lanes:backward": "through", "turn:lanes:forward": "through;right"}}, {"type": "Feature", "geometry": {"type": "LineString", "coordinates": [[-8.3823661, 37.9921401], [-8.3822379, 37.9926374]]}, "properties": {"access": "yes", "bridge": "yes", "highway": "trunk", "lanes": "2", "layer": "1", "maxspeed": "90", "oneway": "no", "ref": "IC 1;EN 262", "surface": "asphalt"}}, {"type": "Feature", "geometry": {"type": "LineString", "coordinates": [[-8.4101779, 38.0636144], [-8.4104153, 38.0639497]]}, "properties": {"access": "yes", "bridge": "yes", "highway": "trunk", "lanes": "2", "layer": "1", "maxspeed": "90", "oneway": "no", "ref": "IC 1;EN 262", "surface": "asphalt"}}, {"type": "Feature", "geometry": {"type": "LineString", "coordinates": [[-8.4104153, 38.0639497], [-8.4109103, 38.0646345], [-8.4109955, 38.0647466], [-8.4110987, 38.0648767], [-8.4111491, 38.0649355], [-8.4112148, 38.06501], [-8.4113165, 38.0651213], [-8.411454, 38.0652606], [-8.4120388, 38.0658044], [-8.4121829, 38.0659498], [-8.4123523, 38.0661275], [-8.4124932, 38.0662973], [-8.4126177, 38.0664584], [-8.412691, 38.0665678], [-8.412787, 38.0667152], [-8.4128837, 38.0668847], [-8.4129477, 38.0670053], [-8.4130302, 38.0671666], [-8.4130917, 38.0673094], [-8.4131711, 38.0675067], [-8.4132964, 38.0678227], [-8.4134194, 38.0681288], [-8.4135303, 38.0683656], [-8.4136212, 38.0685325], [-8.4137181, 38.0686905], [-8.4139141, 38.0689835], [-8.4144928, 38.0698092], [-8.4150843, 38.070672]]}, "properties": {"access": "yes", "change:lanes:backward": "no", "change:lanes:forward": "no", "highway": "trunk", "lanes": "2", "lanes:backward": "1", "lanes:forward": "1", "maxspeed": "90", "oneway": "no", "ref": "IC 1;EN 262", "surface": "asphalt"}}, {"type": "Feature", "geometry": {"type": "LineString", "coordinates": [[-8.4023158, 38.0511797], [-8.4023245, 38.051252], [-8.4023461, 38.0514608], [-8.4023786, 38.0517285], [-8.4024036, 38.0519135], [-8.4024311, 38.0520722], [-8.402464, 38.0522211], [-8.4025019, 38.0523885], [-8.4025464, 38.0525486], [-8.4025933, 38.0526915], [-8.4026419, 38.0528262], [-8.4026881, 38.0529424], [-8.4028149, 38.0532558], [-8.4029518, 38.0535834], [-8.4029652, 38.0536161], [-8.4031242, 38.0540026], [-8.4032803, 38.0543873], [-8.4034915, 38.0548899], [-8.4036542, 38.0552828], [-8.4039939, 38.0560985], [-8.4041194, 38.0564029], [-8.4042666, 38.0567533], [-8.4043355, 38.0569167], [-8.4044049, 38.0570708], [-8.4044855, 38.0572401], [-8.4045654, 38.0573962], [-8.4046499, 38.0575422], [-8.4047313, 38.057677], [-8.404809, 38.0578001], [-8.4048901, 38.0579134], [-8.4049863, 38.0580483], [-8.405074, 38.0581605], [-8.405183, 38.0582916], [-8.405288, 38.0584093], [-8.4053866, 38.0585172], [-8.4054872, 38.0586222], [-8.4056059, 38.0587333], [-8.4057146, 38.0588333], [-8.405995, 38.0590776], [-8.4062584, 38.059298], [-8.4066754, 38.0596432], [-8.4070837, 38.0599837], [-8.4074399, 38.0602838], [-8.4076859, 38.0604898], [-8.4078249, 38.0606084], [-8.4079683, 38.060738], [-8.4080776, 38.0608381], [-8.4081918, 38.0609494], [-8.4083158, 38.0610783], [-8.408458, 38.0612375], [-8.4085762, 38.0613829], [-8.408676, 38.0615105], [-8.408934, 38.0618731], [-8.4091123, 38.0621252], [-8.4094964, 38.0626561], [-8.4099159, 38.0632445], [-8.4101779, 38.0636144]]}, "properties": {"access": "yes", "highway": "trunk", "lanes": "2", "maxspeed": "90", "ref": "IC 1;EN 262", "surface": "asphalt"}}, {"type": "Feature", "geometry": {"type": "LineString", "coordinates": [[-8.3823661, 37.9921401], [-8.3829181, 37.9899473], [-8.3829373, 37.9898519], [-8.3830331, 37.9893733], [-8.3831049, 37.9888643], [-8.3831386, 37.9882617], [-8.3828093, 37.9823003], [-8.3827133, 37.980935], [-8.3824999, 37.9769233], [-8.3813928, 37.9586704]]}, "properties": {"access": "yes", "highway": "trunk", "lanes": "2", "maxspeed": "90", "oneway": "no", "ref": "IC 1;EN 262", "surface": "asphalt"}}, {"type": "Feature", "geometry": {"type": "LineString", "coordinates": [[-8.3822379, 37.9926374], [-8.3820042, 37.9935002], [-8.3819097, 37.9937851], [-8.3817817, 37.9940548], [-8.38165, 37.9943106], [-8.3813483, 37.9948183], [-8.3809243, 37.9954482], [-8.3799863, 37.9967402], [-8.3793246, 37.997674]]}, "properties": {"access": "yes", "highway": "trunk", "lanes": "2", "maxspeed": "90", "oneway": "no", "ref": "IC 1;EN 262", "surface": "asphalt"}}, {"type": "Feature", "geometry": {"type": "LineString", "coordinates": [[-8.3920628, 38.0132789], [-8.3923934, 38.0133754], [-8.3925463, 38.0134238], [-8.3925867, 38.0134366], [-8.3928565, 38.0135221], [-8.3932729, 38.013704], [-8.393739, 38.0138955], [-8.3942301, 38.0141486]]}, "properties": {"access": "yes", "destination": "Lisboa;Gr\u00e2ndola", "highway": "trunk", "lanes": "1", "maxspeed": "90", "oneway": "yes", "ref": "IC 1;EN 262", "surface": "asphalt", "turn:lanes": "through"}}, {"type": "Feature", "geometry": {"type": "LineString", "coordinates": [[-8.3851859, 38.01172], [-8.3866223, 38.0120279], [-8.3884907, 38.0124291], [-8.3903505, 38.0128253]]}, "properties": {"access": "yes", "highway": "trunk", "lanes": "2", "maxspeed": "90", "ref": "IC1;EN 121;EN 262", "surface": "asphalt"}}, {"type": "Feature", "geometry": {"type": "LineString", "coordinates": [[-8.3785112, 38.0091096], [-8.3786883, 38.0093016], [-8.3787396, 38.0093519], [-8.3788265, 38.0094373], [-8.3789472, 38.0095546], [-8.3790453, 38.0096491], [-8.3792154, 38.0097815], [-8.3797556, 38.0101207]]}, "properties": {"access": "yes", "highway": "trunk", "lanes": "1", "maxspeed": "70", "oneway": "yes", "ref": "IC1;EN 121;EN 262", "surface": "asphalt", "turn:lanes": "through"}}, {"type": "Feature", "geometry": {"type": "LineString", "coordinates": [[-8.3815425, 38.0108762], [-8.3825506, 38.0111491], [-8.3837688, 38.0114135]]}, "properties": {"access": "yes", "highway": "trunk", "lanes": "2", "maxspeed": "90", "ref": "IC1;EN 121;EN 262", "surface": "asphalt"}}, {"type": "Feature", "geometry": {"type": "LineString", "coordinates": [[-8.3810995, 37.9535824], [-8.3809692, 37.9513417]]}, "properties": {"access": "yes", "highway": "trunk", "lanes": "2", "maxspeed": "70", "ref": "IC 1;EN 262", "surface": "asphalt"}}, {"type": "Feature", "geometry": {"type": "LineString", "coordinates": [[-8.6529532, 37.8002225], [-8.6533963, 37.8000544], [-8.6535349, 37.8000206], [-8.6535564, 37.8000169]]}, "properties": {"highway": "primary", "lanes": "2", "maxspeed": "90", "ref": "EN 262", "surface": "asphalt"}}, {"type": "Feature", "geometry": {"type": "LineString", "coordinates": [[-8.6526789, 37.8003448], [-8.6529532, 37.8002225]]}, "properties": {"highway": "primary", "lanes": "2", "maxspeed": "90", "ref": "EN 262", "surface": "asphalt"}}, {"type": "Feature", "geometry": {"type": "LineString", "coordinates": [[-8.3793222, 37.9431616], [-8.3793733, 37.9432075], [-8.3795557, 37.9433852], [-8.3797272, 37.9435662], [-8.3800448, 37.9439961], [-8.380185, 37.9442244], [-8.3802791, 37.9444447], [-8.3803888, 37.9447016], [-8.380406, 37.9447279], [-8.3804568, 37.9448023]]}, "properties": {"access": "yes", "highway": "trunk", "lanes": "1", "maxspeed": "70", "oneway": "yes", "ref": "IC 1;EN 262", "surface": "asphalt", "turn:lanes": "through"}}, {"type": "Feature", "geometry": {"type": "LineString", "coordinates": [[-8.4490775, 37.8344421], [-8.453467, 37.8314347], [-8.4588934, 37.8270518], [-8.4591493, 37.8268825], [-8.459537, 37.826626], [-8.4602227, 37.8262837], [-8.469545, 37.8225253], [-8.4751205, 37.8202774], [-8.4757228, 37.820016], [-8.4772957, 37.8193332], [-8.4790206, 37.8185845], [-8.4831717, 37.8167827], [-8.4876107, 37.8148558], [-8.4880083, 37.814714], [-8.4883232, 37.8146148], [-8.4887132, 37.8145075], [-8.4891186, 37.8144157], [-8.4896002, 37.8143325], [-8.4927237, 37.8138392], [-8.4936498, 37.813696], [-8.4946871, 37.8135318], [-8.4949677, 37.8134877], [-8.4970261, 37.8131789], [-8.4973594, 37.8131256], [-8.4975463, 37.8130965], [-8.4977056, 37.8130695], [-8.5007785, 37.8125838], [-8.5013253, 37.8124949], [-8.5049906, 37.8119248], [-8.5052698, 37.8118966], [-8.5056184, 37.81187], [-8.5059709, 37.8118514], [-8.5064948, 37.8118618], [-8.5070028, 37.8118995], [-8.5083574, 37.8120644], [-8.5088579, 37.8121368], [-8.5092347, 37.8122122], [-8.5096325, 37.8123123], [-8.510031, 37.8124518], [-8.510403, 37.8125905], [-8.5107872, 37.8127829], [-8.5113431, 37.8130797], [-8.5118667, 37.8133444], [-8.5123598, 37.8135608], [-8.5126872, 37.813682], [-8.5129734, 37.8137778], [-8.5133234, 37.8138714], [-8.5175738, 37.8148297], [-8.5180682, 37.8149289], [-8.5186044, 37.8150025], [-8.5189996, 37.8150415], [-8.5193045, 37.8150517], [-8.5227503, 37.814813], [-8.5231658, 37.8147978], [-8.5235261, 37.8148074], [-8.5251806, 37.8148791], [-8.5355585, 37.8153252], [-8.536022, 37.8153329], [-8.5363495, 37.8153239], [-8.536639, 37.8152972], [-8.5369128, 37.8152605], [-8.5372183, 37.8152024], [-8.5375063, 37.8151321], [-8.538703, 37.8146865], [-8.5402272, 37.8140811], [-8.5406672, 37.8139195], [-8.5411876, 37.8137764], [-8.5418091, 37.8136651], [-8.5465894, 37.8131862], [-8.5468944, 37.8131571], [-8.5471942, 37.8131652], [-8.5473907, 37.8131773], [-8.5475977, 37.8132059], [-8.5479307, 37.8132838], [-8.5482963, 37.8134109], [-8.548679, 37.8135719], [-8.549422, 37.813936], [-8.5503952, 37.8143445], [-8.5514226, 37.8146481], [-8.5526657, 37.8147334], [-8.5531857, 37.814694], [-8.5556903, 37.8145042], [-8.5559136, 37.8144822], [-8.5564479, 37.8144294], [-8.5571929, 37.8143558], [-8.5579522, 37.8142824], [-8.5583357, 37.8142481], [-8.5587134, 37.8142371], [-8.5591918, 37.8142574], [-8.5596723, 37.8143105], [-8.5634931, 37.8149412], [-8.5646537, 37.8151521], [-8.5651937, 37.8152013], [-8.5657257, 37.8151821], [-8.5658485, 37.8151707], [-8.5660423, 37.8151489], [-8.5662743, 37.8151149], [-8.5684878, 37.8147658], [-8.5710209, 37.814363]]}, "properties": {"highway": "primary", "lanes": "2", "maxspeed": "90", "ref": "EN 262", "surface": "asphalt"}}, {"type": "Feature", "geometry": {"type": "LineString", "coordinates": [[-8.3813928, 37.9586704], [-8.3813815, 37.9583657]]}, "properties": {"access": "yes", "highway": "trunk", "lanes": "2", "lanes:backward": "1", "lanes:forward": "1", "maxspeed": "90", "oneway": "no", "ref": "IC 1;EN 262", "surface": "asphalt", "turn:lanes:backward": "through", "turn:lanes:forward": "left;through"}}, {"type": "Feature", "geometry": {"type": "LineString", "coordinates": [[-8.3813815, 37.9583657], [-8.381371, 37.9581507]]}, "properties": {"access": "yes", "highway": "trunk", "lanes": "2", "lanes:backward": "1", "lanes:forward": "1", "maxspeed": "90", "oneway": "no", "ref": "IC 1;EN 262", "surface": "asphalt", "turn:lanes:backward": "through", "turn:lanes:forward": "through"}}, {"type": "Feature", "geometry": {"type": "LineString", "coordinates": [[-8.381348, 37.9576279], [-8.3810995, 37.9535824]]}, "properties": {"access": "yes", "highway": "trunk", "lanes": "2", "maxspeed": "90", "ref": "IC 1;EN 262", "surface": "asphalt"}}, {"type": "Feature", "geometry": {"type": "LineString", "coordinates": [[-8.381371, 37.9581507], [-8.381348, 37.9576279]]}, "properties": {"access": "yes", "highway": "trunk", "lanes": "2", "lanes:backward": "1", "lanes:forward": "1", "maxspeed": "90", "oneway": "no", "ref": "IC 1;EN 262", "surface": "asphalt", "turn:lanes:backward": "through;slight_right"}}, {"type": "Feature", "geometry": {"type": "LineString", "coordinates": [[-8.380547, 37.9452261], [-8.3805807, 37.9455162]]}, "properties": {"access": "yes", "highway": "trunk", "lanes": "2", "lanes:backward": "1", "lanes:forward": "1", "maxspeed": "50", "postal_code": "7565-101", "ref": "IC 1;EN 262", "surface": "asphalt", "turn:lanes:backward": "left;through", "turn:lanes:forward": "left;through"}}, {"type": "Feature", "geometry": {"type": "LineString", "coordinates": [[-8.3805807, 37.9455162], [-8.3806271, 37.9460058]]}, "properties": {"access": "yes", "highway": "trunk", "lanes": "2", "lanes:backward": "1", "lanes:forward": "1", "maxspeed": "50", "postal_code": "7565-101", "ref": "IC 1;EN 262", "surface": "asphalt", "turn:lanes:backward": "through;right", "turn:lanes:forward": "through;slight_right"}}, {"type": "Feature", "geometry": {"type": "LineString", "coordinates": [[-8.380668, 37.9466404], [-8.3806829, 37.9468864]]}, "properties": {"access": "yes", "highway": "trunk", "lanes": "2", "lanes:backward": "1", "lanes:forward": "1", "maxspeed": "50", "postal_code": "7565-101", "ref": "IC 1;EN 262", "surface": "asphalt", "turn:lanes:forward": "through;right"}}, {"type": "Feature", "geometry": {"type": "LineString", "coordinates": [[-8.3806271, 37.9460058], [-8.380668, 37.9466404]]}, "properties": {"access": "yes", "highway": "trunk", "lanes": "2", "lanes:backward": "1", "lanes:forward": "1", "maxspeed": "50", "postal_code": "7565-101", "ref": "IC 1;EN 262", "surface": "asphalt", "turn:lanes:backward": "left;through", "turn:lanes:forward": "through"}}, {"type": "Feature", "geometry": {"type": "LineString", "coordinates": [[-8.3806829, 37.9468864], [-8.3806943, 37.9470445], [-8.3807037, 37.9472382]]}, "properties": {"access": "yes", "highway": "trunk", "lanes": "2", "lanes:backward": "1", "lanes:forward": "1", "maxspeed": "50", "postal_code": "7565-101", "ref": "IC 1;EN 262", "surface": "asphalt", "turn:lanes:backward": "left;through", "turn:lanes:forward": "left;through"}}, {"type": "Feature", "geometry": {"type": "LineString", "coordinates": [[-8.3807037, 37.9472382], [-8.380744, 37.9478176]]}, "properties": {"access": "yes", "highway": "trunk", "lanes": "2", "lanes:backward": "1", "lanes:forward": "1", "maxspeed": "50", "postal_code": "7565-101", "ref": "IC 1;EN 262", "surface": "asphalt", "turn:lanes:backward": "through;right", "turn:lanes:forward": "left;through"}}, {"type": "Feature", "geometry": {"type": "LineString", "coordinates": [[-8.380744, 37.9478176], [-8.3807883, 37.9484849], [-8.3808089, 37.9487031]]}, "properties": {"access": "yes", "highway": "trunk", "lanes": "2", "lanes:backward": "1", "lanes:forward": "1", "maxspeed": "50", "postal_code": "7565-101", "ref": "IC 1;EN 262", "surface": "asphalt", "turn:lanes:backward": "through;right", "turn:lanes:forward": "through;slight_right"}}, {"type": "Feature", "geometry": {"type": "LineString", "coordinates": [[-8.3808089, 37.9487031], [-8.3808174, 37.9488438], [-8.380837, 37.9491702], [-8.3808537, 37.9494494], [-8.3808797, 37.9499112], [-8.3809692, 37.9513417]]}, "properties": {"access": "yes", "highway": "trunk", "lanes": "2", "lanes:backward": "1", "lanes:forward": "1", "maxspeed": "50", "ref": "IC 1;EN 262", "surface": "asphalt"}}, {"type": "Feature", "geometry": {"type": "LineString", "coordinates": [[-8.3798921, 37.9436173], [-8.3795671, 37.9432587]]}, "properties": {"access": "yes", "highway": "trunk", "lanes": "1", "maxspeed": "70", "oneway": "yes", "ref": "IC 1;EN 262", "surface": "asphalt", "turn:lanes": "through"}}, {"type": "Feature", "geometry": {"type": "LineString", "coordinates": [[-8.3801424, 37.9439485], [-8.3800109, 37.943766], [-8.3798921, 37.9436173]]}, "properties": {"highway": "trunk", "lanes": "2", "maxspeed": "70", "oneway": "yes", "ref": "IC 1;EN 262", "surface": "asphalt", "turn:lanes": "through|slight_right"}}, {"type": "Feature", "geometry": {"type": "LineString", "coordinates": [[-8.3804568, 37.9448023], [-8.3804458, 37.9446741], [-8.3803509, 37.9443959], [-8.3801424, 37.9439485]]}, "properties": {"access": "yes", "highway": "trunk", "lanes": "1", "maxspeed": "70", "oneway": "yes", "ref": "IC 1;EN 262", "surface": "asphalt"}}, {"type": "Feature", "geometry": {"type": "LineString", "coordinates": [[-8.3781288, 38.0014739], [-8.3781357, 38.001424]]}, "properties": {"access": "yes", "destination": "Faro;Ourique", "highway": "trunk", "lanes": "1", "maxspeed": "70", "oneway": "yes", "ref": "IC 1;EN 262", "surface": "asphalt", "turn:lanes": "through"}}, {"type": "Feature", "geometry": {"type": "LineString", "coordinates": [[-8.3781186, 38.0015482], [-8.3781288, 38.0014739]]}, "properties": {"highway": "trunk", "lanes": "1", "maxspeed": "70", "oneway": "yes", "ref": "IC 1;EN 262", "surface": "asphalt", "turn:lanes": "through"}}, {"type": "Feature", "geometry": {"type": "LineString", "coordinates": [[-8.3780477, 38.0014114], [-8.3780456, 38.0014424], [-8.3780419, 38.0014718]]}, "properties": {"destination": "Lisboa;Gr\u00e2ndola", "highway": "trunk", "lanes": "1", "maxspeed": "70", "oneway": "yes", "ref": "IC 1;EN 262", "surface": "asphalt", "turn:lanes": "through"}}, {"type": "Feature", "geometry": {"type": "LineString", "coordinates": [[-8.378085, 38.0017913], [-8.3781186, 38.0015482]]}, "properties": {"access": "yes", "highway": "trunk", "lanes": "2", "maxspeed": "70", "oneway": "yes", "ref": "IC 1;EN 262", "surface": "asphalt", "turn:lanes": "left|through"}}, {"type": "Feature", "geometry": {"type": "LineString", "coordinates": [[-8.3780113, 38.0026346], [-8.3780274, 38.0024042]]}, "properties": {"access": "yes", "highway": "trunk", "lanes": "1", "maxspeed": "70", "oneway": "yes", "ref": "IC 1;EN 262", "surface": "asphalt", "turn:lanes": "left;through;right"}}, {"type": "Feature", "geometry": {"type": "LineString", "coordinates": [[-8.3781357, 38.001424], [-8.3781602, 38.0012471], [-8.3782902, 38.0002621], [-8.3783586, 37.9997623], [-8.3785477, 37.9989866]]}, "properties": {"access": "yes", "destination": "Faro;Ourique", "highway": "trunk", "lanes": "1", "maxspeed": "70", "oneway": "yes", "ref": "IC 1;EN 262", "surface": "asphalt", "turn:lanes": "through"}}, {"type": "Feature", "geometry": {"type": "LineString", "coordinates": [[-8.3777913, 38.0037992], [-8.377912, 38.0032644], [-8.3780113, 38.0026346]]}, "properties": {"access": "yes", "highway": "trunk", "lanes": "1", "maxspeed": "70", "oneway": "yes", "ref": "IC 1;EN 262", "surface": "asphalt"}}, {"type": "Feature", "geometry": {"type": "LineString", "coordinates": [[-8.3780274, 38.0024042], [-8.3780462, 38.0022246], [-8.378085, 38.0017913]]}, "properties": {"access": "yes", "highway": "trunk", "lanes": "2", "maxspeed": "70", "oneway": "yes", "ref": "IC 1;EN 262", "surface": "asphalt", "turn:lanes": "left|through;right"}}, {"type": "Feature", "geometry": {"type": "LineString", "coordinates": [[-8.3780582, 38.0013295], [-8.3780477, 38.0014114]]}, "properties": {"access": "yes", "highway": "trunk", "lanes": "1", "maxspeed": "70", "oneway": "yes", "ref": "IC 1;EN 262", "surface": "asphalt", "turn:lanes": "through;right"}}, {"type": "Feature", "geometry": {"type": "LineString", "coordinates": [[-8.3782634, 37.9997834], [-8.3781855, 38.0003174]]}, "properties": {"highway": "trunk", "lanes": "1", "maxspeed": "70", "oneway": "yes", "ref": "IC 1;EN 262", "surface": "asphalt", "turn:lanes": "left;through;right"}}, {"type": "Feature", "geometry": {"type": "LineString", "coordinates": [[-8.3781855, 38.0003174], [-8.3780742, 38.0011808], [-8.3780582, 38.0013295]]}, "properties": {"access": "yes", "highway": "trunk", "lanes": "2", "maxspeed": "70", "oneway": "yes", "ref": "IC 1;EN 262", "surface": "asphalt", "turn:lanes": "left|through;right"}}, {"type": "Feature", "geometry": {"type": "LineString", "coordinates": [[-8.3785477, 37.9989866], [-8.3784268, 37.9992751], [-8.3782634, 37.9997834]]}, "properties": {"highway": "trunk", "lanes": "1", "maxspeed": "70", "oneway": "yes", "ref": "IC 1;EN 262", "surface": "asphalt"}}, {"type": "Feature", "geometry": {"type": "LineString", "coordinates": [[-8.3793246, 37.997674], [-8.3789566, 37.9981933], [-8.3788731, 37.9983192], [-8.3786649, 37.9987149], [-8.3785477, 37.9989866]]}, "properties": {"access": "yes", "highway": "trunk", "lanes": "2", "lanes:backward": "1", "lanes:forward": "1", "maxspeed": "70", "oneway": "no", "ref": "IC 1;EN 262", "surface": "asphalt"}}, {"type": "Feature", "geometry": {"type": "LineString", "coordinates": [[-8.3780419, 38.0014718], [-8.3779978, 38.0018677], [-8.3778379, 38.0031694], [-8.3777913, 38.0037992]]}, "properties": {"access": "yes", "destination": "Lisboa;Gr\u00e2ndola", "highway": "trunk", "lanes": "1", "maxspeed": "70", "oneway": "yes", "ref": "IC 1;EN 262", "surface": "asphalt", "turn:lanes": "through"}}, {"type": "Feature", "geometry": {"type": "LineString", "coordinates": [[-8.3782446, 38.0087853], [-8.3782816, 38.0088299], [-8.3784069, 38.008977], [-8.3785112, 38.0091096]]}, "properties": {"access": "yes", "highway": "trunk", "lanes": "1", "maxspeed": "70", "oneway": "yes", "ref": "IC 1;EN 262", "surface": "asphalt", "turn:lanes": "through"}}, {"type": "Feature", "geometry": {"type": "LineString", "coordinates": [[-8.3790265, 38.0094906], [-8.3788229, 38.0092969], [-8.3787677, 38.0092444]]}, "properties": {"access": "yes", "highway": "trunk", "lanes": "2", "maxspeed": "70", "oneway": "yes", "ref": "IC1;EN 121;EN 262", "surface": "asphalt", "turn:lanes": "left|through"}}, {"type": "Feature", "geometry": {"type": "LineString", "coordinates": [[-8.3794409, 38.0098583], [-8.3790265, 38.0094906]]}, "properties": {"access": "yes", "highway": "trunk", "lanes": "1", "maxspeed": "70", "oneway": "yes", "ref": "IC1;EN 121;EN 262", "surface": "asphalt", "turn:lanes": "left;through"}}, {"type": "Feature", "geometry": {"type": "LineString", "coordinates": [[-8.3797556, 38.0101207], [-8.3794409, 38.0098583]]}, "properties": {"access": "yes", "highway": "trunk", "lanes": "1", "maxspeed": "70", "oneway": "yes", "ref": "IC1;EN 121;EN 262", "surface": "asphalt"}}, {"type": "Feature", "geometry": {"type": "LineString", "coordinates": [[-8.3779649, 38.0083616], [-8.3781336, 38.0086453], [-8.3781855, 38.0087107], [-8.3782446, 38.0087853]]}, "properties": {"access": "yes", "highway": "trunk", "lanes": "2", "maxspeed": "70", "oneway": "yes", "ref": "IC 1;EN 262", "surface": "asphalt", "turn:lanes": "through|slight_right"}}, {"type": "Feature", "geometry": {"type": "LineString", "coordinates": [[-8.3776613, 38.0075273], [-8.3777289, 38.0078031], [-8.3778343, 38.0080778]]}, "properties": {"access": "yes", "highway": "trunk", "lanes": "1", "maxspeed": "70", "oneway": "yes", "ref": "IC 1;EN 262", "surface": "asphalt"}}, {"type": "Feature", "geometry": {"type": "LineString", "coordinates": [[-8.3787677, 38.0092444], [-8.3786282, 38.0090764], [-8.3785558, 38.0089918], [-8.3784584, 38.0088717], [-8.3782849, 38.0086579], [-8.3780435, 38.0082987], [-8.3778691, 38.0079964], [-8.3777887, 38.0077999], [-8.3776613, 38.0075273]]}, "properties": {"access": "yes", "highway": "trunk", "lanes": "1", "maxspeed": "70", "oneway": "yes", "ref": "IC 1;EN 262", "surface": "asphalt", "turn:lanes": "through"}}, {"type": "Feature", "geometry": {"type": "LineString", "coordinates": [[-8.3803057, 38.0104352], [-8.3809534, 38.0106903], [-8.381171, 38.010759], [-8.3815425, 38.0108762]]}, "properties": {"access": "yes", "highway": "trunk", "lanes": "2", "lanes:backward": "1", "lanes:forward": "1", "maxspeed": "70", "oneway": "no", "ref": "IC1;EN 121;EN 262", "surface": "asphalt"}}, {"type": "Feature", "geometry": {"type": "LineString", "coordinates": [[-8.3777913, 38.0037992], [-8.3776892, 38.0045113], [-8.3775793, 38.0055028], [-8.3775488, 38.0061695], [-8.3775258, 38.0066708], [-8.3775869, 38.0072482], [-8.3776613, 38.0075273]]}, "properties": {"access": "yes", "highway": "trunk", "lanes": "2", "lanes:backward": "1", "lanes:forward": "1", "maxspeed": "70", "oneway": "no", "ref": "IC 1;EN 262", "surface": "asphalt"}}, {"type": "Feature", "geometry": {"type": "LineString", "coordinates": [[-8.3797556, 38.0101207], [-8.3803057, 38.0104352]]}, "properties": {"access": "yes", "highway": "trunk", "lanes": "2", "lanes:backward": "1", "lanes:forward": "1", "maxspeed": "70", "oneway": "no", "ref": "IC1;EN 121;EN 262", "surface": "asphalt"}}, {"type": "Feature", "geometry": {"type": "LineString", "coordinates": [[-8.3936445, 38.0137742], [-8.3933664, 38.0136361], [-8.3930303, 38.0134914]]}, "properties": {"access": "yes", "highway": "trunk", "lanes": "2", "maxspeed": "90", "oneway": "yes", "ref": "IC 1;EN 262", "surface": "asphalt", "turn:lanes": "through|slight_right"}}, {"type": "Feature", "geometry": {"type": "LineString", "coordinates": [[-8.3930303, 38.0134914], [-8.3924318, 38.0132913]]}, "properties": {"access": "yes", "destination": "Faro;Ourique", "highway": "trunk", "lanes": "1", "maxspeed": "90", "oneway": "yes", "ref": "IC 1;EN 262", "surface": "asphalt", "turn:lanes": "through"}}, {"type": "Feature", "geometry": {"type": "LineString", "coordinates": [[-8.3924318, 38.0132913], [-8.3920098, 38.0131613], [-8.3912619, 38.012988], [-8.3903505, 38.0128253]]}, "properties": {"access": "yes", "destination": "Faro;Ourique", "highway": "trunk", "lanes": "1", "maxspeed": "90", "oneway": "yes", "ref": "IC1;EN 121;EN 262", "surface": "asphalt", "turn:lanes": "through"}}, {"type": "Feature", "geometry": {"type": "LineString", "coordinates": [[-8.3917428, 38.0131855], [-8.3920628, 38.0132789]]}, "properties": {"access": "yes", "highway": "trunk", "lanes": "2", "maxspeed": "90", "oneway": "yes", "ref": "IC1;EN 121;EN 262", "surface": "asphalt", "turn:lanes": "left|through"}}, {"type": "Feature", "geometry": {"type": "LineString", "coordinates": [[-8.3903505, 38.0128253], [-8.3912297, 38.0130548], [-8.3917428, 38.0131855]]}, "properties": {"access": "yes", "highway": "trunk", "lanes": "1", "maxspeed": "90", "oneway": "yes", "ref": "IC1;EN 121;EN 262", "surface": "asphalt", "turn:lanes": "left;through"}}, {"type": "Feature", "geometry": {"type": "LineString", "coordinates": [[-8.4183136, 38.1082779], [-8.4183004, 38.1078999]]}, "properties": {"highway": "trunk", "lanes": "1", "oneway": "yes", "ref": "IC 1;EN 262", "surface": "asphalt"}}, {"type": "Feature", "geometry": {"type": "LineString", "coordinates": [[-8.4182553, 38.1124507], [-8.4182817, 38.1104075], [-8.4183032, 38.1096516]]}, "properties": {"access": "yes", "highway": "trunk", "lanes": "1", "oneway": "yes", "ref": "IC 1;EN 262", "surface": "asphalt"}}, {"type": "Feature", "geometry": {"type": "LineString", "coordinates": [[-8.4183032, 38.1096516], [-8.4183105, 38.1094433], [-8.4183105, 38.108926], [-8.4183136, 38.1082779]]}, "properties": {"access": "yes", "highway": "trunk", "lanes": "2", "oneway": "yes", "placement": "middle_of:1", "ref": "IC 1;EN 262", "surface": "asphalt", "turn:lanes": "through|merge_to_left"}}, {"type": "Feature", "geometry": {"type": "LineString", "coordinates": [[-8.4182241, 38.109154], [-8.4181973, 38.1100924], [-8.4181939, 38.1104487]]}, "properties": {"access": "yes", "highway": "trunk", "lanes": "2", "oneway": "yes", "placement": "middle_of:1", "ref": "IC 1;EN 262", "surface": "asphalt", "turn:lanes": "through|slight_right"}}, {"type": "Feature", "geometry": {"type": "LineString", "coordinates": [[-8.4183004, 38.1078999], [-8.418252, 38.1084416], [-8.4182241, 38.109154]]}, "properties": {"access": "yes", "highway": "trunk", "lanes": "1", "oneway": "yes", "ref": "IC 1;EN 262", "surface": "asphalt", "turn:lanes": "through;slight_right"}}, {"type": "Feature", "geometry": {"type": "LineString", "coordinates": [[-8.41848, 38.0990636], [-8.4184686, 38.0994308], [-8.4184681, 38.0996069], [-8.418461, 38.0999377], [-8.4184528, 38.1002321], [-8.4184446, 38.1005864], [-8.4184365, 38.100903], [-8.4184294, 38.1013082], [-8.4184213, 38.1017499], [-8.4184128, 38.1022227], [-8.4184049, 38.1026504], [-8.418398, 38.1029054], [-8.418393, 38.1031779], [-8.4183878, 38.103465], [-8.4183838, 38.1036828], [-8.4183796, 38.1039309], [-8.4183756, 38.1041596], [-8.4183695, 38.1044105], [-8.4183637, 38.1046763], [-8.4183565, 38.1050141], [-8.4183507, 38.105313], [-8.418342, 38.1055944], [-8.418334, 38.1060505], [-8.4183243, 38.1066658], [-8.4183098, 38.1074142], [-8.4183004, 38.1078999]]}, "properties": {"access": "yes", "change:lanes:backward": "no", "change:lanes:forward": "no", "highway": "trunk", "lanes": "2", "lanes:backward": "1", "lanes:forward": "1", "maxspeed": "90", "oneway": "no", "ref": "IC 1;EN 262", "surface": "asphalt"}}, {"type": "Feature", "geometry": {"type": "LineString", "coordinates": [[-8.4164834, 38.0735817], [-8.4164648, 38.0733795]]}, "properties": {"access": "yes", "highway": "trunk", "lanes": "1", "maxspeed": "70", "oneway": "yes", "ref": "IC 1;EN 262", "surface": "asphalt", "turn:lanes": "through"}}, {"type": "Feature", "geometry": {"type": "LineString", "coordinates": [[-8.4165184, 38.0740267], [-8.4164892, 38.0736444]]}, "properties": {"access": "yes", "highway": "trunk", "lanes": "1", "maxspeed": "70", "oneway": "yes", "ref": "IC 1;EN 262", "surface": "asphalt", "turn:lanes": "through"}}, {"type": "Feature", "geometry": {"type": "LineString", "coordinates": [[-8.4163119, 38.0731641], [-8.4163857, 38.0737195]]}, "properties": {"access": "yes", "highway": "trunk", "lanes": "1", "maxspeed": "70", "oneway": "yes", "ref": "IC 1;EN 262", "surface": "asphalt", "turn:lanes": "through"}}, {"type": "Feature", "geometry": {"type": "LineString", "coordinates": [[-8.4161, 38.0725001], [-8.4162435, 38.0728844], [-8.4163119, 38.0731641]]}, "properties": {"access": "yes", "highway": "trunk", "lanes": "2", "maxspeed": "70", "oneway": "yes", "placement": "middle_of:2", "ref": "IC 1;EN 262", "surface": "asphalt", "turn:lanes": "slight_left|through"}}, {"type": "Feature", "geometry": {"type": "LineString", "coordinates": [[-8.4159458, 38.0721474], [-8.4161, 38.0725001]]}, "properties": {"access": "yes", "highway": "trunk", "lanes": "1", "maxspeed": "70", "oneway": "yes", "ref": "IC 1;EN 262", "surface": "asphalt", "turn:lanes": "slight_left;through"}}, {"type": "Feature", "geometry": {"type": "LineString", "coordinates": [[-8.4150843, 38.070672], [-8.415589, 38.0714654], [-8.4157835, 38.0718022], [-8.4159458, 38.0721474]]}, "properties": {"access": "yes", "highway": "trunk", "lanes": "1", "maxspeed": "70", "oneway": "yes", "ref": "IC 1;EN 262", "surface": "asphalt"}}, {"type": "Feature", "geometry": {"type": "LineString", "coordinates": [[-8.415813, 38.0716787], [-8.4155888, 38.0713359], [-8.4150843, 38.070672]]}, "properties": {"access": "yes", "highway": "trunk", "lanes": "1", "maxspeed": "70", "oneway": "yes", "ref": "IC 1;EN 262", "surface": "asphalt"}}, {"type": "Feature", "geometry": {"type": "LineString", "coordinates": [[-8.4164648, 38.0733795], [-8.4164098, 38.0730871], [-8.4163286, 38.0728083], [-8.416135, 38.0722897]]}, "properties": {"access": "yes", "highway": "trunk", "lanes": "1", "maxspeed": "70", "oneway": "yes", "ref": "IC 1;EN 262", "surface": "asphalt"}}, {"type": "Feature", "geometry": {"type": "LineString", "coordinates": [[-8.416135, 38.0722897], [-8.4159082, 38.0718457], [-8.415813, 38.0716787]]}, "properties": {"access": "yes", "highway": "trunk", "lanes": "1", "maxspeed": "70", "oneway": "yes", "ref": "IC 1;EN 262", "surface": "asphalt", "turn:lanes": "through;slight_right"}}, {"type": "Feature", "geometry": {"type": "LineString", "coordinates": [[-8.416564, 38.0746348], [-8.4165422, 38.0743716], [-8.4165184, 38.0740267]]}, "properties": {"access": "yes", "highway": "trunk", "lanes": "2", "maxspeed": "70", "oneway": "yes", "placement": "middle_of:1", "ref": "IC 1;EN 262", "surface": "asphalt", "turn:lanes": "through|slight_right"}}, {"type": "Feature", "geometry": {"type": "LineString", "coordinates": [[-8.416584, 38.0749367], [-8.416564, 38.0746348]]}, "properties": {"access": "yes", "highway": "trunk", "lanes": "1", "maxspeed": "70", "oneway": "yes", "ref": "IC 1;EN 262", "surface": "asphalt", "turn:lanes": "through;slight_right"}}, {"type": "Feature", "geometry": {"type": "LineString", "coordinates": [[-8.4166653, 38.0761595], [-8.4166953, 38.0764442], [-8.4167742, 38.0772315]]}, "properties": {"access": "yes", "change:lanes:backward": "no", "change:lanes:forward": "no", "highway": "trunk", "lanes": "2", "lanes:backward": "1", "lanes:forward": "1", "maxspeed:backward": "70", "maxspeed:forward": "90", "oneway": "no", "ref": "IC 1;EN 262", "surface": "asphalt"}}, {"type": "Feature", "geometry": {"type": "LineString", "coordinates": [[-8.4163857, 38.0737195], [-8.4164312, 38.0743867], [-8.4164742, 38.0749283], [-8.4165439, 38.0755438], [-8.4166653, 38.0761595]]}, "properties": {"access": "yes", "highway": "trunk", "lanes": "1", "maxspeed": "70", "oneway": "yes", "ref": "IC 1;EN 262", "surface": "asphalt"}}, {"type": "Feature", "geometry": {"type": "LineString", "coordinates": [[-8.4166653, 38.0761595], [-8.416584, 38.0749367]]}, "properties": {"access": "yes", "highway": "trunk", "lanes": "1", "maxspeed": "70", "oneway": "yes", "ref": "IC 1;EN 262", "surface": "asphalt"}}, {"type": "Feature", "geometry": {"type": "LineString", "coordinates": [[-8.4164892, 38.0736444], [-8.4164834, 38.0735817]]}, "properties": {"highway": "trunk", "lanes": "1", "maxspeed": "70", "oneway": "yes", "ref": "IC 1;EN 262", "surface": "asphalt", "turn:lanes": "through"}}, {"type": "Feature", "geometry": {"type": "LineString", "coordinates": [[-8.4167742, 38.0772315], [-8.4168053, 38.077532], [-8.4168425, 38.0779317], [-8.4169, 38.078512], [-8.4169267, 38.0787872], [-8.4169595, 38.0790791], [-8.4169956, 38.0794762], [-8.4170824, 38.0803454], [-8.417143, 38.0809681], [-8.4172031, 38.0815692], [-8.4172771, 38.0823264], [-8.4173411, 38.0829353], [-8.4173898, 38.0834], [-8.4174347, 38.0838707], [-8.4174892, 38.0843934], [-8.4175356, 38.0848551], [-8.4175755, 38.0852173], [-8.4175987, 38.0854879], [-8.4176467, 38.0859661], [-8.4176946, 38.086435], [-8.4177352, 38.0868334], [-8.4177939, 38.0874262], [-8.4178526, 38.0879986], [-8.4178967, 38.0884701], [-8.4179519, 38.0890054], [-8.4180201, 38.0896794], [-8.4180513, 38.0900224], [-8.4181677, 38.0911394], [-8.4181927, 38.091419], [-8.41827, 38.0921631], [-8.4183201, 38.0926688], [-8.4183613, 38.0930871], [-8.4184005, 38.093512], [-8.4184359, 38.0938598], [-8.4184625, 38.0941059], [-8.4184823, 38.094303], [-8.4184986, 38.0945093], [-8.4185161, 38.094683], [-8.4185268, 38.094859], [-8.4185375, 38.0950739], [-8.4185431, 38.0953122], [-8.4185433, 38.0956534], [-8.4185284, 38.0965664], [-8.4185137, 38.0972026], [-8.4184896, 38.098529], [-8.4184833, 38.0986973], [-8.41848, 38.0990636]]}, "properties": {"access": "yes", "highway": "trunk", "lanes": "2", "maxspeed": "90", "oneway": "no", "ref": "IC 1;EN 262", "surface": "asphalt"}}, {"type": "Feature", "geometry": {"type": "LineString", "coordinates": [[-8.4440446, 37.8394656], [-8.4453263, 37.8373286], [-8.4456026, 37.8369885], [-8.4459726, 37.8365692], [-8.4479223, 37.8352378], [-8.4488913, 37.8345696], [-8.4489441, 37.8345334], [-8.4490775, 37.8344421]]}, "properties": {"highway": "primary", "lanes": "2", "maxspeed": "50", "ref": "EN 262", "surface": "asphalt"}}, {"type": "Feature", "geometry": {"type": "LineString", "coordinates": [[-8.3913735, 37.9328034], [-8.3914733, 37.9326242], [-8.3915723, 37.9323942], [-8.3916143, 37.9322157], [-8.3916302, 37.932053], [-8.3916315, 37.931868], [-8.3915693, 37.9300906], [-8.3914835, 37.9295043], [-8.3911766, 37.9279178], [-8.3909127, 37.9266303], [-8.3907539, 37.9259071], [-8.3906359, 37.9253895], [-8.3904964, 37.9245863], [-8.390475, 37.924077], [-8.3904964, 37.9238144], [-8.3905587, 37.9235481], [-8.3910436, 37.9224624], [-8.3917451, 37.9210408], [-8.3930284, 37.9184398], [-8.3951399, 37.9141529], [-8.3952143, 37.9140001], [-8.3964636, 37.9114334], [-8.3970106, 37.9103097], [-8.4006452, 37.9028422], [-8.4026549, 37.8987129], [-8.4033893, 37.8972038], [-8.4077489, 37.889872], [-8.4131496, 37.8807863], [-8.4198905, 37.8694443], [-8.4204253, 37.8687471], [-8.4257965, 37.8636515], [-8.4275151, 37.8620246], [-8.4308304, 37.858847], [-8.4322474, 37.8570742], [-8.4375407, 37.8503079], [-8.4377744, 37.8499184]]}, "properties": {"highway": "primary", "lanes": "2", "maxspeed": "90", "ref": "EN 262", "surface": "asphalt"}}, {"type": "Feature", "geometry": {"type": "LineString", "coordinates": [[-8.4377744, 37.8499184], [-8.4388792, 37.8480765], [-8.4389988, 37.8478772]]}, "properties": {"highway": "primary", "lanes": "2", "maxspeed": "90", "ref": "EN 262", "surface": "asphalt"}}, {"type": "Feature", "geometry": {"type": "LineString", "coordinates": [[-8.4389988, 37.8478772], [-8.4391135, 37.847686], [-8.4440446, 37.8394656]]}, "properties": {"highway": "primary", "lanes": "2", "maxspeed": "90", "ref": "EN 262", "surface": "asphalt"}}, {"type": "Feature", "geometry": {"type": "LineString", "coordinates": [[-8.5710209, 37.814363], [-8.5713272, 37.8143128]]}, "properties": {"bridge": "yes", "highway": "primary", "lanes": "2", "layer": "1", "maxspeed": "90", "ref": "EN 262", "surface": "asphalt"}}, {"type": "Feature", "geometry": {"type": "LineString", "coordinates": [[-8.5713272, 37.8143128], [-8.5716288, 37.8142671], [-8.5717725, 37.8142478], [-8.5718929, 37.814238], [-8.5720047, 37.8142295], [-8.5721031, 37.814225], [-8.5722358, 37.8142248], [-8.5723769, 37.8142301], [-8.5724926, 37.8142403], [-8.5726684, 37.814261], [-8.5727883, 37.8142769], [-8.5728894, 37.8142954], [-8.5729734, 37.8143172], [-8.5731276, 37.8143621], [-8.5732656, 37.8144109], [-8.573417, 37.8144642], [-8.5735376, 37.8145107], [-8.5774223, 37.8159127], [-8.581495, 37.8174298], [-8.5840865, 37.8184166], [-8.5848327, 37.8185524], [-8.5860018, 37.8185729], [-8.5893595, 37.8184801], [-8.5907717, 37.8184521], [-8.5979599, 37.8182513], [-8.6029322, 37.818108], [-8.6048147, 37.8180538], [-8.6057255, 37.8179488], [-8.606623, 37.8176419], [-8.6070948, 37.8174194], [-8.6106829, 37.8156139], [-8.6107574, 37.8155767], [-8.6115806, 37.8151548], [-8.613976, 37.813927], [-8.6142445, 37.8137894], [-8.6151317, 37.8133181], [-8.6160449, 37.8129203], [-8.6164783, 37.8127685], [-8.6168182, 37.8126657], [-8.6175245, 37.8124984], [-8.6184266, 37.812297], [-8.6188227, 37.812242], [-8.6193004, 37.8122218], [-8.6196114, 37.8122451], [-8.6199949, 37.812329], [-8.6214071, 37.8128176], [-8.6217047, 37.8129212], [-8.6220174, 37.8130021], [-8.6223163, 37.8130441], [-8.6225946, 37.8130728], [-8.6229179, 37.8130885], [-8.6232706, 37.8130814], [-8.6235293, 37.8130625], [-8.6237967, 37.8130278], [-8.6258661, 37.812561], [-8.6264403, 37.812432], [-8.6266234, 37.8123752], [-8.6268526, 37.8122956], [-8.627041, 37.8122228], [-8.6273182, 37.8120969], [-8.6275178, 37.8119913], [-8.6277391, 37.8118622], [-8.6281201, 37.8116514], [-8.6289354, 37.8111245], [-8.6305403, 37.8100658], [-8.6317309, 37.809311], [-8.6325013, 37.8087898], [-8.6332363, 37.8083142], [-8.6337197, 37.8080311], [-8.6342705, 37.8077652], [-8.635019, 37.8074541], [-8.6366995, 37.8067555], [-8.6386293, 37.8059533], [-8.6396088, 37.8055065]]}, "properties": {"highway": "primary", "lanes": "2", "maxspeed": "90", "ref": "EN 262", "surface": "asphalt"}}, {"type": "Feature", "geometry": {"type": "LineString", "coordinates": [[-8.4181939, 38.1104487], [-8.4181876, 38.1109414], [-8.4181647, 38.1122205], [-8.4181463, 38.1128802], [-8.4181433, 38.1135418], [-8.4181539, 38.1140385], [-8.4181698, 38.114265], [-8.418221, 38.1146216], [-8.4183041, 38.1150174]]}, "properties": {"access": "yes", "highway": "trunk", "lanes": "1", "oneway": "yes", "ref": "IC 1;EN 262", "surface": "asphalt"}}, {"type": "Feature", "geometry": {"type": "LineString", "coordinates": [[-8.6399592, 37.8053608], [-8.640747, 37.8050729], [-8.64116, 37.8049012], [-8.6423117, 37.8044224], [-8.6428881, 37.8042405], [-8.6458808, 37.8036901], [-8.6462919, 37.8036145], [-8.6472016, 37.8033595], [-8.6481406, 37.802919], [-8.6524775, 37.8004487], [-8.6526789, 37.8003448]]}, "properties": {"highway": "primary", "lanes": "2", "maxspeed": "90", "ref": "EN 262", "surface": "asphalt"}}, {"type": "Feature", "geometry": {"type": "LineString", "coordinates": [[-8.6396088, 37.8055065], [-8.6399592, 37.8053608]]}, "properties": {"bridge": "yes", "highway": "primary", "lanes": "2", "layer": "1", "maxspeed": "90", "ref": "EN 262", "surface": "asphalt"}}, {"type": "Feature", "geometry": {"type": "LineString", "coordinates": [[-8.4019487, 38.0478282], [-8.4020272, 38.0485431], [-8.4020715, 38.0489422], [-8.4021349, 38.0495191], [-8.4021989, 38.0500924], [-8.4022781, 38.0508679], [-8.4023158, 38.0511797]]}, "properties": {"access": "yes", "highway": "trunk", "lanes": "2", "maxspeed": "70", "ref": "IC 1;EN 262", "surface": "asphalt"}}, {"type": "Feature", "geometry": {"type": "LineString", "coordinates": [[-8.3942301, 38.0141486], [-8.3943483, 38.0142199], [-8.3948633, 38.0146099], [-8.3952559, 38.0149797], [-8.3953216, 38.0150416], [-8.3957658, 38.0155973], [-8.3960983, 38.0160133], [-8.3962129, 38.0161901], [-8.3984833, 38.0196916], [-8.3987733, 38.0202366], [-8.3989966, 38.0207966], [-8.3991399, 38.0213716], [-8.3992116, 38.0219516], [-8.3998837, 38.0287097], [-8.4004361, 38.0339514], [-8.4006072, 38.0355067], [-8.4007967, 38.0372048], [-8.4017911, 38.0463614], [-8.4018121, 38.0465926], [-8.4019487, 38.0478282]]}, "properties": {"access": "yes", "highway": "trunk", "lanes": "2", "maxspeed": "90", "ref": "IC 1;EN 262", "surface": "asphalt"}}]}