{"type": "FeatureCollection", "features": [{"type": "Feature", "geometry": {"type": "Point", "coordinates": [-8.1999374, 41.2288089]}, "properties": {"distance": "1", "highway": "milestone", "ref": "EN 211"}}, {"type": "Feature", "geometry": {"type": "LineString", "coordinates": [[-8.1610366, 41.1959757], [-8.161225, 41.1961052], [-8.1612442, 41.1961303], [-8.1614058, 41.19628], [-8.1615393, 41.1964393], [-8.1616837, 41.196668], [-8.1617709, 41.1968426], [-8.1618294, 41.1970536], [-8.1618442, 41.1973324], [-8.1618088, 41.1975146], [-8.1615114, 41.198082], [-8.1614659, 41.198233], [-8.1614407, 41.198436]]}, "properties": {"highway": "primary", "oneway": "no", "ref": "EN 211"}}, {"type": "Feature", "geometry": {"type": "LineString", "coordinates": [[-8.1577435, 41.1946605], [-8.1578729, 41.1947042], [-8.1580361, 41.1947623], [-8.1582168, 41.1948354], [-8.1603545, 41.1956611], [-8.1606849, 41.1958025], [-8.1610366, 41.1959757]]}, "properties": {"bridge": "yes", "highway": "primary", "layer": "1", "maxweight:signed": "no", "oneway": "no", "ref": "EN 211", "surface": "asphalt"}}, {"type": "Feature", "geometry": {"type": "LineString", "coordinates": [[-8.1996137, 41.2348084], [-8.1992467, 41.2343083]]}, "properties": {"bridge": "yes", "highway": "primary", "layer": "1", "lit": "no", "name": "Variante \u00e0 EN 211", "oneway": "no", "ref": "EN 211", "surface": "asphalt"}}, {"type": "Feature", "geometry": {"type": "LineString", "coordinates": [[-8.190885, 41.223421], [-8.1908171, 41.2232749], [-8.190702, 41.2230635], [-8.1905389, 41.222844], [-8.1903244, 41.2226116], [-8.190024, 41.2224373], [-8.1897407, 41.2222888], [-8.1893974, 41.222179], [-8.1889167, 41.2220564], [-8.1884361, 41.221966], [-8.1879812, 41.2218756], [-8.1876722, 41.2217723], [-8.1873546, 41.2216497], [-8.1871057, 41.2215335], [-8.186771, 41.2213269], [-8.1865478, 41.2211461], [-8.1863332, 41.2209524], [-8.186153, 41.22072], [-8.1859733, 41.2204295], [-8.1858097, 41.2200809], [-8.1856981, 41.219842], [-8.1855779, 41.2195967], [-8.1854492, 41.219403], [-8.1852604, 41.2192351], [-8.1850629, 41.2190673], [-8.1848398, 41.2189252], [-8.1846252, 41.2188155], [-8.1843849, 41.2187251], [-8.1840845, 41.2186605], [-8.183724, 41.218583], [-8.1834064, 41.2185249], [-8.1830974, 41.2184668], [-8.1828313, 41.2184087], [-8.1825996, 41.2183313], [-8.1823921, 41.2182379], [-8.1821705, 41.2181053], [-8.1819215, 41.2178922], [-8.1816211, 41.2176533], [-8.181295, 41.2174209], [-8.1809517, 41.2172531], [-8.1806427, 41.2171304], [-8.180265, 41.2170465], [-8.179853, 41.2170013], [-8.1793552, 41.2170142], [-8.1764627, 41.2172983], [-8.1760336, 41.217337], [-8.175716, 41.217337], [-8.1754327, 41.217337], [-8.1751838, 41.2172983], [-8.1748834, 41.2172337], [-8.1746002, 41.2171627], [-8.1742757, 41.2170227], [-8.1739822, 41.2168269], [-8.1737426, 41.2166385], [-8.1735418, 41.21641], [-8.1733178, 41.2160937], [-8.1731538, 41.2158457], [-8.1729297, 41.2156184], [-8.1726783, 41.2154383], [-8.1724063, 41.2153078], [-8.1721066, 41.2152091], [-8.1717575, 41.2151393], [-8.1714159, 41.215116], [-8.170961, 41.215116], [-8.1705318, 41.2151095], [-8.1700941, 41.2150772], [-8.1698452, 41.215032], [-8.1696048, 41.2149417], [-8.1693559, 41.2147932], [-8.1691585, 41.2146576], [-8.1689268, 41.2144187], [-8.1687894, 41.2141733], [-8.1687122, 41.2139086], [-8.1686264, 41.2132952], [-8.1686178, 41.2130305], [-8.1685577, 41.2127658], [-8.1684633, 41.2125979], [-8.1683174, 41.2124171], [-8.1681286, 41.2122492], [-8.1679054, 41.2121201], [-8.1674762, 41.2119457], [-8.1671672, 41.2118489], [-8.1668239, 41.2117391], [-8.1665235, 41.2116035], [-8.1662403, 41.2114227], [-8.166045, 41.2112537], [-8.1659082, 41.2110777]]}, "properties": {"highway": "primary", "name": "Variante \u00e0 EN 211", "oneway": "no", "ref": "EN 211"}}, {"type": "Feature", "geometry": {"type": "LineString", "coordinates": [[-8.2007742, 41.2363045], [-8.2006395, 41.2361779], [-8.2005224, 41.236046], [-8.1996137, 41.2348084]]}, "properties": {"highway": "primary", "lit": "yes", "name": "Variante \u00e0 EN 211", "oneway": "no", "ref": "EN 211", "surface": "asphalt"}}, {"type": "Feature", "geometry": {"type": "LineString", "coordinates": [[-8.0890841, 41.1032336], [-8.0891599, 41.1034116]]}, "properties": {"bridge": "yes", "highway": "primary", "layer": "1", "name": "Rua de Sorrego", "old_ref": "EN 108", "oneway": "no", "ref": "ER 108;EN 211"}}, {"type": "Feature", "geometry": {"type": "LineString", "coordinates": [[-8.0951585, 41.106021], [-8.0952987, 41.1064347], [-8.0953266, 41.1065684], [-8.0952838, 41.1066874], [-8.0951938, 41.1068699], [-8.095016, 41.1070308], [-8.0948022, 41.1071376], [-8.0945883, 41.1072318], [-8.0944776, 41.1073253], [-8.0944061, 41.1074484], [-8.0943917, 41.1075036], [-8.0943321, 41.1077327], [-8.0944285, 41.1079332], [-8.0947632, 41.1082521], [-8.0948054, 41.1084161], [-8.0948448, 41.1088577], [-8.0949487, 41.1089713], [-8.0951444, 41.1090307], [-8.0955178, 41.1090177], [-8.0957114, 41.1090561], [-8.0958561, 41.1091324], [-8.0960492, 41.1094093], [-8.0962065, 41.1096998], [-8.0962442, 41.1099234], [-8.0963647, 41.110039], [-8.0967107, 41.1101671], [-8.0969233, 41.1104543], [-8.0972382, 41.1106832], [-8.0973251, 41.1108357], [-8.0973456, 41.1109891], [-8.0969424, 41.1115844], [-8.0969358, 41.1117881], [-8.0969676, 41.1119437], [-8.0972875, 41.1126003], [-8.0972965, 41.1127432], [-8.097066, 41.113163], [-8.0970464, 41.113295], [-8.097101, 41.1135539], [-8.0971446, 41.1137288], [-8.0971051, 41.1138981], [-8.0970038, 41.1140083], [-8.0964666, 41.1145668], [-8.0963686, 41.1147003], [-8.0961547, 41.1153127], [-8.096107, 41.1154493], [-8.09606, 41.1157587], [-8.0961023, 41.1163786], [-8.0964124, 41.1168294], [-8.096435, 41.1170079], [-8.0963164, 41.1173829], [-8.0962052, 41.1174964], [-8.0959645, 41.1176416], [-8.0958508, 41.1177862], [-8.0958168, 41.1183232], [-8.0956546, 41.118585], [-8.0953858, 41.11888], [-8.0952357, 41.1191143], [-8.0950759, 41.119257], [-8.0948236, 41.1194824], [-8.0946048, 41.1198404], [-8.0945534, 41.120162], [-8.0941966, 41.120553], [-8.0940587, 41.1207041], [-8.0939775, 41.1208594], [-8.093938, 41.1209674], [-8.0939686, 41.1214918], [-8.0939169, 41.121631], [-8.0937745, 41.1216988], [-8.0936113, 41.1217138], [-8.0934777, 41.1216783], [-8.0933929, 41.1215953], [-8.0933599, 41.1214636], [-8.0934844, 41.120655], [-8.0934374, 41.1205413], [-8.0931642, 41.1202294], [-8.0929912, 41.1197736], [-8.0929802, 41.1196772], [-8.0930479, 41.118892], [-8.0930689, 41.118598], [-8.0930755, 41.1185059], [-8.093065, 41.1179254], [-8.0930549, 41.1173686], [-8.0929512, 41.1171052], [-8.0928301, 41.1169927], [-8.0923505, 41.116547], [-8.0922211, 41.1164267], [-8.092049, 41.1163231], [-8.0917716, 41.1162117], [-8.09153, 41.1162156], [-8.0913521, 41.1163112], [-8.0912853, 41.1163869], [-8.090973, 41.1170156], [-8.0906986, 41.117929], [-8.0902408, 41.1188355], [-8.0902072, 41.118902], [-8.0901041, 41.1189802], [-8.0900677, 41.1190079], [-8.0898444, 41.1191774], [-8.089373, 41.1195352], [-8.0891995, 41.119595], [-8.089038, 41.1195778], [-8.0888977, 41.1195071], [-8.0888018, 41.1194029], [-8.0883776, 41.1183318], [-8.0882635, 41.1182386], [-8.0881419, 41.1182013], [-8.0875123, 41.118214], [-8.0870883, 41.1182637], [-8.0870421, 41.1182588], [-8.0869026, 41.1182438], [-8.0862246, 41.1179009], [-8.0859993, 41.1178725], [-8.0852037, 41.1179212], [-8.0850339, 41.1180007], [-8.0849741, 41.1181001], [-8.0849598, 41.1182071], [-8.0850181, 41.1183255], [-8.0852051, 41.1184254], [-8.0855705, 41.1185419], [-8.0856856, 41.1185786], [-8.0859906, 41.1186759], [-8.0860564, 41.1187021], [-8.0861222, 41.1187374], [-8.0861746, 41.1187753], [-8.0862139, 41.1188169], [-8.0862371, 41.1188654], [-8.086241, 41.118918], [-8.0862266, 41.1189715], [-8.0861952, 41.1190193], [-8.0861503, 41.1190675]]}, "properties": {"highway": "primary", "name": "Rua de Bai\u00e3o", "old_ref": "EN 108", "ref": "ER 108;EN 211"}}, {"type": "Feature", "geometry": {"type": "LineString", "coordinates": [[-8.1269922, 41.1588526], [-8.1269147, 41.1587778], [-8.126788, 41.1586579], [-8.1266484, 41.1585329], [-8.126416, 41.1583276]]}, "properties": {"highway": "primary", "name": "Variante \u00e0 EN 211", "oneway": "no", "ref": "EN 211", "surface": "asphalt"}}, {"type": "Feature", "geometry": {"type": "LineString", "coordinates": [[-8.1336165, 41.1791392], [-8.1335583, 41.1790867], [-8.1335008, 41.1790378], [-8.1334333, 41.178986], [-8.1333738, 41.1789434], [-8.133309, 41.1788997], [-8.1332254, 41.1788501], [-8.1331318, 41.1787955], [-8.1316532, 41.1779699], [-8.1311383, 41.1776888], [-8.1308773, 41.1775442], [-8.1307349, 41.1774622], [-8.1305948, 41.1773752], [-8.1305086, 41.1773141], [-8.1304303, 41.1772558], [-8.1303572, 41.177198], [-8.1302767, 41.1771268], [-8.1302355, 41.1770856], [-8.1301982, 41.1770447], [-8.1301395, 41.1769779], [-8.1300823, 41.1769075], [-8.1300351, 41.1768441]]}, "properties": {"highway": "primary", "name": "Variante \u00e0 EN 211", "oneway": "no", "ref": "EN 211"}}, {"type": "Feature", "geometry": {"type": "LineString", "coordinates": [[-8.1294791, 41.175938], [-8.129433, 41.1758616], [-8.1293768, 41.1757709], [-8.1293305, 41.1756944], [-8.1292776, 41.1756127], [-8.1292353, 41.1755462], [-8.1291918, 41.175488], [-8.129145, 41.1754254], [-8.1290932, 41.1753591], [-8.1290131, 41.1752678], [-8.1289611, 41.1752112], [-8.1288954, 41.1751482], [-8.1288312, 41.1750847], [-8.1287753, 41.1750331], [-8.1286799, 41.1749416], [-8.1285755, 41.1748434], [-8.1285078, 41.1747792], [-8.1284585, 41.1747331], [-8.1284141, 41.1746909], [-8.1283637, 41.1746432], [-8.1283169, 41.1746004], [-8.1282713, 41.1745567], [-8.128209, 41.1744986], [-8.128152, 41.1744452], [-8.1281001, 41.1743975], [-8.1280575, 41.1743572], [-8.1280095, 41.1743106], [-8.1279575, 41.1742592], [-8.1279032, 41.1742053], [-8.1278561, 41.1741549], [-8.1278079, 41.1741015], [-8.1277586, 41.1740426], [-8.1277151, 41.1739845], [-8.1276806, 41.1739343], [-8.1276482, 41.1738791], [-8.127621, 41.1738313], [-8.1275983, 41.1737846], [-8.1275821, 41.1737448], [-8.1275642, 41.1736971], [-8.1275495, 41.1736392], [-8.1275374, 41.173578], [-8.1275296, 41.1735142], [-8.1275273, 41.1734582], [-8.1275264, 41.173417], [-8.1275288, 41.1733626], [-8.1275376, 41.1733008], [-8.1275512, 41.1732418], [-8.1275747, 41.173166], [-8.1275971, 41.1731072], [-8.1276204, 41.1730599], [-8.1276445, 41.1730152], [-8.1276686, 41.1729763], [-8.1276922, 41.1729415], [-8.1277209, 41.1729], [-8.1277469, 41.1728667], [-8.1278193, 41.1727798], [-8.1278506, 41.1727462], [-8.1278902, 41.1727047], [-8.1279314, 41.1726649], [-8.1279747, 41.1726233], [-8.1280199, 41.1725827], [-8.1280601, 41.1725456], [-8.12811, 41.1725032], [-8.1281792, 41.1724427], [-8.1282864, 41.1723526], [-8.1284205, 41.1722376], [-8.12876, 41.171948], [-8.129116, 41.171644], [-8.129391, 41.1714054], [-8.1294522, 41.1713496], [-8.1295047, 41.1713007], [-8.1295504, 41.1712555], [-8.1295893, 41.1712126], [-8.12963, 41.171167], [-8.1296639, 41.1711278], [-8.1297025, 41.1710821], [-8.1297327, 41.1710442], [-8.129763, 41.1710031], [-8.1297947, 41.1709588], [-8.129828, 41.1709086], [-8.129855, 41.1708639], [-8.1298868, 41.170809], [-8.1299125, 41.1707635], [-8.1299389, 41.1707123], [-8.129974, 41.1706434], [-8.1300095, 41.1705625], [-8.1300595, 41.1704542], [-8.1301216, 41.1703156], [-8.1301762, 41.170192], [-8.1302468, 41.1700363], [-8.1303034, 41.1699078], [-8.13037, 41.1697602], [-8.130425, 41.169636], [-8.1304917, 41.1694862], [-8.1305505, 41.1693534], [-8.1306156, 41.1691929], [-8.1306344, 41.169145], [-8.1306529, 41.1690891], [-8.1306695, 41.1690395], [-8.130684, 41.1689907], [-8.1306972, 41.1689417], [-8.1307095, 41.1688944], [-8.1307217, 41.168834], [-8.1307306, 41.1687757], [-8.1307365, 41.1687198], [-8.1307401, 41.168658], [-8.1307415, 41.1686072], [-8.1307409, 41.168548], [-8.130739, 41.1684902], [-8.1307323, 41.1684273], [-8.1307221, 41.1683599], [-8.1307108, 41.1683072], [-8.1306973, 41.1682473], [-8.1306805, 41.1681856], [-8.1306598, 41.168123], [-8.130639, 41.1680705], [-8.1306137, 41.1680099], [-8.1305789, 41.16794], [-8.1305406, 41.1678704], [-8.1305038, 41.1678104], [-8.1304766, 41.1677689], [-8.1304377, 41.1677122], [-8.130392, 41.1676558], [-8.1303561, 41.1676131], [-8.1303189, 41.1675704], [-8.1302583, 41.1675073], [-8.1301873, 41.1674398], [-8.1300601, 41.1673292], [-8.1298282, 41.1671507], [-8.1296586, 41.1670277], [-8.1294522, 41.1668777], [-8.129401, 41.1668391], [-8.1293489, 41.1667972], [-8.1293016, 41.1667564], [-8.1292483, 41.1667072], [-8.1291823, 41.1666439], [-8.1291293, 41.1665856], [-8.1290821, 41.1665301], [-8.1290437, 41.1664812], [-8.1290066, 41.166429], [-8.1289715, 41.1663776], [-8.1289424, 41.1663294], [-8.1289192, 41.166287], [-8.128897, 41.1662405], [-8.1288776, 41.1661983], [-8.1288598, 41.1661577], [-8.1288427, 41.1661136], [-8.1288245, 41.1660595], [-8.1288104, 41.1660105], [-8.1287927, 41.1659376], [-8.1287807, 41.1658694], [-8.1287687, 41.1657851], [-8.1287604, 41.1657153], [-8.1287547, 41.1656352], [-8.1287489, 41.1655586], [-8.1287432, 41.1654715], [-8.1287332, 41.1653002], [-8.1287226, 41.165141], [-8.1287141, 41.1649967], [-8.1287038, 41.1648435], [-8.128685, 41.1645265], [-8.12866, 41.1640956], [-8.1286489, 41.163906], [-8.1286341, 41.1636775], [-8.1286224, 41.1635153], [-8.1286156, 41.1633774], [-8.1286072, 41.163234], [-8.1286019, 41.1631344], [-8.1285941, 41.1630218], [-8.1285857, 41.1628899], [-8.1285796, 41.1627778], [-8.1285719, 41.1626654], [-8.1285621, 41.1625173], [-8.1285542, 41.1624054], [-8.1285474, 41.1623039], [-8.1285419, 41.1622178], [-8.1285345, 41.1621215], [-8.128525, 41.1620257], [-8.1285176, 41.1619467], [-8.1285072, 41.1618405], [-8.1284967, 41.1617431], [-8.1284838, 41.16166], [-8.1284556, 41.1614857], [-8.1284305, 41.1613583], [-8.1284067, 41.1612443]]}, "properties": {"highway": "primary", "maxheight:signed": "no", "name": "Variante \u00e0 EN 211", "oneway": "no", "ref": "EN 211", "surface": "asphalt"}}, {"type": "Feature", "geometry": {"type": "LineString", "coordinates": [[-8.1300351, 41.1768441], [-8.1294791, 41.175938]]}, "properties": {"bridge": "yes", "highway": "primary", "layer": "1", "maxweight:signed": "no", "name": "Variante \u00e0 EN 211", "oneway": "no", "ref": "EN 211", "surface": "asphalt"}}, {"type": "Feature", "geometry": {"type": "LineString", "coordinates": [[-8.1402655, 41.1897236], [-8.1402132, 41.1896744], [-8.1401601, 41.1896286], [-8.1401146, 41.1895921], [-8.1400581, 41.1895501], [-8.1399892, 41.1895019], [-8.1399078, 41.1894491], [-8.1398177, 41.1893941], [-8.1395134, 41.1892137], [-8.1389911, 41.1889052], [-8.1385609, 41.1886533], [-8.1384376, 41.1885799], [-8.1383241, 41.1885132], [-8.1382155, 41.1884479], [-8.1381038, 41.1883751], [-8.1380143, 41.1883122]]}, "properties": {"bridge": "yes", "highway": "primary", "layer": "1", "maxweight:signed": "no", "name": "Variante \u00e0 EN 211", "oneway": "no", "ref": "EN 211", "surface": "asphalt"}}, {"type": "Feature", "geometry": {"type": "LineString", "coordinates": [[-8.126416, 41.1583276], [-8.1235619, 41.1558763], [-8.123496, 41.1558162], [-8.1234355, 41.1557551], [-8.1233766, 41.155687], [-8.1233157, 41.1556155], [-8.1232735, 41.1555623], [-8.1232321, 41.1555012]]}, "properties": {"bridge": "yes", "highway": "primary", "layer": "1", "maxweight:signed": "no", "name": "Variante \u00e0 EN 211", "oneway": "no", "ref": "EN 211", "surface": "asphalt"}}, {"type": "Feature", "geometry": {"type": "LineString", "coordinates": [[-8.1284067, 41.1612443], [-8.1283801, 41.1611374], [-8.1283517, 41.161036], [-8.1283184, 41.1609293], [-8.1282635, 41.1607747], [-8.1282136, 41.1606353], [-8.1281577, 41.1605093], [-8.1281256, 41.1604289], [-8.1281014, 41.1603735], [-8.1280712, 41.1603139], [-8.1280463, 41.1602642], [-8.1280086, 41.1601894], [-8.1279701, 41.1601208], [-8.1279123, 41.1600195], [-8.1278524, 41.1599157], [-8.1277752, 41.1597979], [-8.1276911, 41.1596681], [-8.1276139, 41.1595589], [-8.127519, 41.1594376], [-8.1274449, 41.159348], [-8.1273673, 41.1592533], [-8.1272777, 41.1591488], [-8.1271908, 41.1590557], [-8.1270995, 41.1589618], [-8.1269922, 41.1588526]]}, "properties": {"bridge": "yes", "highway": "primary", "layer": "1", "maxweight:signed": "no", "name": "Variante \u00e0 EN 211", "oneway": "no", "ref": "EN 211"}}, {"type": "Feature", "geometry": {"type": "LineString", "coordinates": [[-8.0786266, 41.0892527], [-8.0787767, 41.0893115], [-8.0790127, 41.0894222], [-8.079086, 41.0894829]]}, "properties": {"highway": "primary", "lanes": "2", "name": "Rua do Porto Antigo", "oneway": "no", "ref": "EN 211", "surface": "asphalt"}}, {"type": "Feature", "geometry": {"type": "LineString", "coordinates": [[-8.0777466, 41.091289], [-8.0779005, 41.0932162]]}, "properties": {"bridge": "yes", "bridge:name": "Ponte de Mosteir\u00f4", "highway": "primary", "lanes": "2", "layer": "1", "oneway": "no", "ref": "EN 211", "surface": "asphalt", "wikidata": "Q113168009"}}, {"type": "Feature", "geometry": {"type": "LineString", "coordinates": [[-8.0873111, 41.1022578], [-8.0872656, 41.1021502]]}, "properties": {"highway": "primary", "lanes": "1", "oneway": "yes", "ref": "EN 211", "surface": "asphalt"}}, {"type": "Feature", "geometry": {"type": "LineString", "coordinates": [[-8.0871024, 41.1021856], [-8.0871645, 41.1022373], [-8.0872189, 41.1022539], [-8.0873111, 41.1022578]]}, "properties": {"highway": "primary", "lanes": "1", "oneway": "yes", "ref": "EN 211", "surface": "asphalt"}}, {"type": "Feature", "geometry": {"type": "LineString", "coordinates": [[-8.0859587, 41.1014319], [-8.0859914, 41.1013893], [-8.0860094, 41.10133], [-8.0860301, 41.1003601], [-8.0860474, 41.1002368], [-8.0860902, 41.1001658], [-8.0861403, 41.1001031], [-8.0862192, 41.100037], [-8.086324, 41.0999821], [-8.0864135, 41.0999557], [-8.0865289, 41.0999376], [-8.0866179, 41.0999322], [-8.0867253, 41.0999408], [-8.0872722, 41.1000506], [-8.0874565, 41.1001077], [-8.0878089, 41.1002242], [-8.0894157, 41.1007555], [-8.0895093, 41.100808], [-8.0895804, 41.1008653], [-8.0897979, 41.1011072], [-8.0898611, 41.1011805], [-8.0900344, 41.1014208], [-8.0900587, 41.1014658], [-8.0901036, 41.1015491], [-8.0901399, 41.1016725], [-8.0901497, 41.101718], [-8.0902263, 41.102074], [-8.0902469, 41.102124], [-8.0902878, 41.102162], [-8.0903511, 41.1021958], [-8.0904514, 41.1022151], [-8.0905307, 41.1022164], [-8.090839, 41.1021846], [-8.0909204, 41.1021841], [-8.0909738, 41.1021963], [-8.0910386, 41.1022333], [-8.0910979, 41.1022958], [-8.0911113, 41.1023607], [-8.091088, 41.1024377], [-8.0910412, 41.1024853], [-8.0909678, 41.1025235], [-8.0908354, 41.1025564], [-8.0905542, 41.1026264], [-8.0903983, 41.1026491], [-8.0903237, 41.102646], [-8.0902294, 41.1026249], [-8.089988, 41.1025155], [-8.089932, 41.1024978], [-8.0898592, 41.1024885], [-8.0890862, 41.1024232], [-8.0890116, 41.1023967], [-8.0889425, 41.1023512], [-8.0889084, 41.1022795], [-8.0888939, 41.102212], [-8.0888748, 41.1020676], [-8.0888171, 41.1019963], [-8.0886842, 41.1019227], [-8.0886691, 41.1019179], [-8.0883671, 41.1018221], [-8.0878871, 41.1017299], [-8.0873745, 41.1016342], [-8.087317, 41.1016335], [-8.0872627, 41.1016448], [-8.0871967, 41.1016751], [-8.0871209, 41.1017262], [-8.0870542, 41.1018198], [-8.0870254, 41.1019039], [-8.0870212, 41.1019736], [-8.087042, 41.102033]]}, "properties": {"highway": "primary", "lanes": "2", "name": "Rua da Pala", "oneway": "no", "ref": "EN 211", "surface": "asphalt"}}, {"type": "Feature", "geometry": {"type": "LineString", "coordinates": [[-8.0824563, 41.0987081], [-8.0824851, 41.0988342], [-8.0826518, 41.0989891], [-8.0827577, 41.0990277]]}, "properties": {"bridge": "yes", "highway": "primary", "lanes": "2", "layer": "1", "name": "Rua de Santo Ant\u00f3nio de Ribadouro", "oneway": "no", "ref": "EN 211", "surface": "asphalt"}}, {"type": "Feature", "geometry": {"type": "LineString", "coordinates": [[-8.0855198, 41.1015435], [-8.0856157, 41.1015579], [-8.0857116, 41.1015576], [-8.0857743, 41.1015477], [-8.0858468, 41.1015194], [-8.0859076, 41.101483], [-8.0859587, 41.1014319]]}, "properties": {"bridge": "yes", "highway": "primary", "lanes": "2", "layer": "1", "oneway": "no", "ref": "EN 211", "surface": "asphalt"}}, {"type": "Feature", "geometry": {"type": "LineString", "coordinates": [[-8.0874023, 41.1021838], [-8.0872656, 41.1021502], [-8.0871712, 41.1021131], [-8.087042, 41.102033]]}, "properties": {"highway": "primary", "lanes": "1", "oneway": "yes", "ref": "EN 211", "surface": "asphalt"}}, {"type": "Feature", "geometry": {"type": "LineString", "coordinates": [[-8.087042, 41.102033], [-8.087059, 41.102098], [-8.0871024, 41.1021856], [-8.0871633, 41.1022962], [-8.0872475, 41.1024314]]}, "properties": {"highway": "primary", "lanes": "1", "oneway": "yes", "ref": "EN 211", "surface": "asphalt"}}, {"type": "Feature", "geometry": {"type": "LineString", "coordinates": [[-8.0827577, 41.0990277], [-8.0833126, 41.0991085], [-8.0835766, 41.0992167], [-8.0837688, 41.0993838], [-8.0841109, 41.0998532], [-8.0847676, 41.1003354], [-8.0849936, 41.1006091], [-8.0852864, 41.1012762], [-8.0853505, 41.1014223], [-8.0854376, 41.1014958], [-8.0855198, 41.1015435]]}, "properties": {"highway": "primary", "lanes": "2", "name": "Rua de Santo Ant\u00f3nio de Ribadouro", "oneway": "no", "ref": "EN 211", "surface": "asphalt"}}, {"type": "Feature", "geometry": {"type": "LineString", "coordinates": [[-8.2012036, 41.2364606], [-8.2010167, 41.2364122], [-8.2007742, 41.2363045]]}, "properties": {"highway": "primary", "name": "Variante \u00e0 EN 211", "oneway": "yes", "ref": "EN 211"}}, {"type": "Feature", "geometry": {"type": "LineString", "coordinates": [[-8.2007742, 41.2363045], [-8.2009163, 41.2364928], [-8.2009896, 41.2366438]]}, "properties": {"highway": "primary", "name": "Variante \u00e0 EN 211", "oneway": "yes", "ref": "EN 211"}}, {"type": "Feature", "geometry": {"type": "LineString", "coordinates": [[-8.1614407, 41.198436], [-8.161361, 41.1987697], [-8.1613212, 41.1991468], [-8.1612859, 41.1994643], [-8.1612478, 41.1998242], [-8.1612375, 41.1999374]]}, "properties": {"highway": "primary", "oneway": "yes", "ref": "EN 211"}}, {"type": "Feature", "geometry": {"type": "LineString", "coordinates": [[-8.1613475, 41.1999408], [-8.1613597, 41.1997614], [-8.1613899, 41.1994564], [-8.1614563, 41.1986171]]}, "properties": {"highway": "primary", "oneway": "yes", "ref": "EN 211"}}, {"type": "Feature", "geometry": {"type": "LineString", "coordinates": [[-8.1611982, 41.2008092], [-8.1613005, 41.2003989], [-8.1613346, 41.2000668], [-8.1613475, 41.1999408]]}, "properties": {"highway": "primary", "name": "Variante Estrada Nacional 211", "oneway": "yes", "ref": "EN 211"}}, {"type": "Feature", "geometry": {"type": "LineString", "coordinates": [[-8.079086, 41.0894829], [-8.079119, 41.0895082], [-8.0791475, 41.0895364], [-8.0791741, 41.0895718], [-8.0791938, 41.0896097], [-8.0792077, 41.0896499], [-8.0792152, 41.0896911], [-8.0792135, 41.0897275], [-8.0792072, 41.0897614], [-8.079177, 41.0898397], [-8.0791361, 41.0899094], [-8.0789343, 41.0901828], [-8.0787136, 41.0904764], [-8.0786593, 41.0905452], [-8.0786104, 41.0906048], [-8.0785487, 41.0906543], [-8.0784629, 41.0907084], [-8.078316, 41.0907691], [-8.0781658, 41.0908247], [-8.0780417, 41.0908752], [-8.0779532, 41.0909247], [-8.0778808, 41.0909869], [-8.0778238, 41.0910597], [-8.0777916, 41.0911121], [-8.0777708, 41.0911633], [-8.0777594, 41.0911961], [-8.0777516, 41.0912308], [-8.0777466, 41.091289]]}, "properties": {"highway": "primary", "lanes": "2", "name": "Rua do Porto Antigo", "oneway": "no", "ref": "EN 211", "surface": "asphalt"}}, {"type": "Feature", "geometry": {"type": "LineString", "coordinates": [[-8.0779005, 41.0932162], [-8.0779063, 41.0932888], [-8.077921, 41.0933361], [-8.0779372, 41.0933639], [-8.077974, 41.0934046], [-8.0780267, 41.093436], [-8.0780841, 41.0934563], [-8.0782199, 41.093475], [-8.0783206, 41.0934741], [-8.07914, 41.0932895], [-8.0795809, 41.0932857], [-8.0802533, 41.0934767], [-8.0806611, 41.093707], [-8.0808724, 41.0937813], [-8.0809755, 41.0938571], [-8.0813835, 41.0945271], [-8.0820847, 41.0951968], [-8.0821201, 41.0954489], [-8.0825774, 41.0957953], [-8.0827739, 41.0959441], [-8.0828838, 41.0966597], [-8.0827636, 41.0975216], [-8.082725, 41.0977979], [-8.0825019, 41.0982091], [-8.0824563, 41.0987081]]}, "properties": {"highway": "primary", "lanes": "2", "name": "Rua de Porto Manso", "oneway": "no", "ref": "EN 211", "surface": "asphalt"}}, {"type": "Feature", "geometry": {"type": "LineString", "coordinates": [[-8.079086, 41.0894829], [-8.0790348, 41.0894616], [-8.0789792, 41.089448], [-8.0789212, 41.0894427], [-8.078863, 41.0894459], [-8.0788066, 41.0894574], [-8.0787541, 41.0894768], [-8.0787076, 41.0895034], [-8.0786682, 41.089536]]}, "properties": {"highway": "primary", "lanes": "2", "name": "Rua do Porto Antigo", "oneway": "no", "ref": "EN 211", "surface": "asphalt"}}, {"type": "Feature", "geometry": {"type": "LineString", "coordinates": [[-8.1479899, 41.1976525], [-8.1478799, 41.1976609], [-8.147786, 41.1976673], [-8.1476818, 41.1976716], [-8.1476006, 41.1976714], [-8.1475106, 41.1976678], [-8.1474102, 41.1976608], [-8.1473083, 41.1976519], [-8.1471906, 41.1976361], [-8.1470928, 41.1976199], [-8.1469808, 41.1975971], [-8.1468717, 41.1975706], [-8.1467612, 41.1975387], [-8.1466402, 41.1974983], [-8.1465086, 41.1974497], [-8.1463893, 41.1974007], [-8.1462628, 41.197345], [-8.1458734, 41.1971633], [-8.1455474, 41.1970157], [-8.1450911, 41.1968068], [-8.1443455, 41.1964645], [-8.1435643, 41.1961079], [-8.1430706, 41.1958822], [-8.142893, 41.1957975], [-8.1427565, 41.1957272], [-8.1426328, 41.1956597], [-8.1425204, 41.1955963], [-8.1424095, 41.1955298], [-8.1422803, 41.1954481], [-8.1421373, 41.19535], [-8.1420306, 41.1952745], [-8.1419855, 41.1952423], [-8.1419037, 41.1951838], [-8.1417617, 41.1950792], [-8.1415387, 41.1949117], [-8.141436, 41.1948366], [-8.1413267, 41.1947577], [-8.1412538, 41.1947102], [-8.1411703, 41.1946601], [-8.1410838, 41.194615], [-8.1409994, 41.1945765], [-8.1409194, 41.1945436], [-8.1408207, 41.1945089], [-8.1406909, 41.1944707], [-8.1405453, 41.1944336], [-8.1403085, 41.1943802], [-8.1399856, 41.1943048], [-8.1398692, 41.1942785], [-8.1397786, 41.1942573], [-8.1396761, 41.1942277], [-8.1395867, 41.1941967], [-8.1394918, 41.194158], [-8.1393804, 41.1941061], [-8.1393112, 41.1940701], [-8.1392301, 41.194021], [-8.1391569, 41.1939698], [-8.1390832, 41.1939131], [-8.1390126, 41.1938469], [-8.1389502, 41.1937768], [-8.1388931, 41.1937044], [-8.1388555, 41.1936486], [-8.1388149, 41.1935718], [-8.1387832, 41.193496], [-8.1387583, 41.1934288], [-8.1387429, 41.1933659], [-8.1387327, 41.1932941], [-8.1387276, 41.1932086], [-8.1387278, 41.1931357], [-8.1387368, 41.193066], [-8.1387544, 41.1929853], [-8.1387728, 41.1929242], [-8.1387951, 41.1928659], [-8.138822, 41.1928059], [-8.1388578, 41.1927415], [-8.1389058, 41.1926691], [-8.138954, 41.1926063], [-8.1390078, 41.1925407], [-8.1390607, 41.1924833], [-8.1391365, 41.1924056], [-8.1392197, 41.1923269], [-8.1396345, 41.1919535], [-8.1400345, 41.1915912], [-8.1401884, 41.1914475], [-8.140274, 41.1913613], [-8.1402828, 41.1913513], [-8.14036, 41.1912631], [-8.1404313, 41.1911697], [-8.1404947, 41.1910687], [-8.1405255, 41.191008], [-8.1405523, 41.1909421], [-8.1405709, 41.1908949], [-8.1405877, 41.1908485], [-8.1406023, 41.1907999], [-8.1406124, 41.1907546], [-8.1406207, 41.1907012], [-8.1406258, 41.1906597], [-8.1406303, 41.190613], [-8.1406324, 41.1905624], [-8.140631, 41.1904935], [-8.1406262, 41.1904336], [-8.1406208, 41.1903892], [-8.1406126, 41.190334], [-8.1405994, 41.1902814], [-8.1405837, 41.1902293], [-8.140564, 41.1901758], [-8.1405392, 41.1901142], [-8.1405061, 41.1900435], [-8.1404756, 41.1899876], [-8.1404454, 41.1899407], [-8.1404029, 41.1898807], [-8.1403637, 41.1898303], [-8.1403272, 41.1897877], [-8.1402927, 41.1897514], [-8.1402655, 41.1897236]]}, "properties": {"highway": "primary", "name": "Variante \u00e0 EN 211", "oneway": "no", "ref": "EN 211", "surface": "asphalt"}}, {"type": "Feature", "geometry": {"type": "LineString", "coordinates": [[-8.1612375, 41.1999374], [-8.1611934, 41.2003742], [-8.1611982, 41.2008092]]}, "properties": {"highway": "primary", "name": "Variante Estrada Nacional 211", "oneway": "yes", "ref": "EN 211"}}, {"type": "Feature", "geometry": {"type": "LineString", "coordinates": [[-8.1356013, 41.1854299], [-8.1355157, 41.1853216]]}, "properties": {"bridge": "yes", "highway": "primary", "layer": "1", "maxweight:signed": "no", "name": "Variante \u00e0 EN 211", "oneway": "no", "ref": "EN 211"}}, {"type": "Feature", "geometry": {"type": "LineString", "coordinates": [[-8.1380143, 41.1883122], [-8.1379201, 41.1882392], [-8.1378424, 41.1881752], [-8.1377646, 41.1881045], [-8.1376973, 41.1880387], [-8.1376106, 41.187947], [-8.1375369, 41.1878625], [-8.1374553, 41.1877602], [-8.1373449, 41.1876232], [-8.1372155, 41.187453], [-8.1370874, 41.187298], [-8.136994, 41.1871797], [-8.1368949, 41.1870559], [-8.136787, 41.1869201], [-8.1366778, 41.1867832], [-8.1365177, 41.186579], [-8.1364254, 41.186464], [-8.1363446, 41.1863632], [-8.1362653, 41.186262], [-8.1361322, 41.1860947], [-8.1360354, 41.1859742], [-8.1359394, 41.1858546], [-8.1358604, 41.1857548], [-8.1357657, 41.1856336], [-8.1356856, 41.1855338], [-8.1356013, 41.1854299]]}, "properties": {"highway": "primary", "name": "Variante \u00e0 EN 211", "oneway": "no", "ref": "EN 211"}}, {"type": "Feature", "geometry": {"type": "LineString", "coordinates": [[-8.1537802, 41.1945066], [-8.1537533, 41.194592], [-8.1537473, 41.1946137], [-8.1535051, 41.1954883], [-8.1534646, 41.1955853], [-8.1534324, 41.1956491], [-8.1533939, 41.195699], [-8.153337, 41.1957582], [-8.1532731, 41.1958087], [-8.1531705, 41.1958742], [-8.152813, 41.1960814], [-8.1520057, 41.1965325], [-8.1516544, 41.1967306]]}, "properties": {"highway": "primary", "oneway": "no", "ref": "EN 211", "surface": "asphalt"}}, {"type": "Feature", "geometry": {"type": "LineString", "coordinates": [[-8.1174022, 41.1492983], [-8.1174257, 41.1493821], [-8.1174428, 41.149472], [-8.1174535, 41.1495571], [-8.1174602, 41.1496566], [-8.1174618, 41.1497211], [-8.1174659, 41.1498614], [-8.1174686, 41.1500007], [-8.1174728, 41.1500688], [-8.1174782, 41.1501402], [-8.1174852, 41.1501931], [-8.1174925, 41.1502399], [-8.1175048, 41.1502892], [-8.1175192, 41.1503414], [-8.1175384, 41.1503965], [-8.1175583, 41.150441], [-8.117582, 41.1504907], [-8.1176028, 41.1505294], [-8.1176315, 41.1505741], [-8.1176619, 41.1506175], [-8.1177033, 41.1506695], [-8.1177384, 41.1507113], [-8.1177831, 41.1507545], [-8.1178333, 41.150801], [-8.1178791, 41.1508403], [-8.1179243, 41.150874], [-8.1179764, 41.1509081], [-8.1180212, 41.150937], [-8.1180727, 41.1509655], [-8.11813, 41.1509945], [-8.118196, 41.1510252], [-8.1182596, 41.1510524], [-8.1183311, 41.1510797], [-8.1184154, 41.1511094], [-8.1185165, 41.1511416], [-8.1187027, 41.1511944], [-8.1188554, 41.1512385], [-8.1190076, 41.1512829], [-8.1191182, 41.1513187], [-8.1192323, 41.1513591], [-8.1193445, 41.151401], [-8.1194503, 41.1514456], [-8.1195532, 41.1514938], [-8.1196401, 41.1515345], [-8.1197188, 41.1515751], [-8.1198468, 41.1516467], [-8.1199985, 41.15174], [-8.1201592, 41.1518436], [-8.1202973, 41.151937], [-8.1204822, 41.1520609], [-8.1206357, 41.1521628], [-8.1207855, 41.1522617], [-8.1208966, 41.1523347], [-8.1209922, 41.1523982], [-8.1211181, 41.1524818], [-8.1213008, 41.1526059], [-8.1214533, 41.1527075], [-8.1215976, 41.1528057], [-8.1217053, 41.1528797], [-8.1218194, 41.1529605], [-8.1219196, 41.1530373], [-8.1219766, 41.1530832], [-8.1220353, 41.1531324], [-8.1221044, 41.1531921], [-8.1221658, 41.1532507], [-8.12223, 41.1533139], [-8.1222843, 41.1533697], [-8.1223541, 41.1534495], [-8.122408, 41.1535146], [-8.1224449, 41.1535603], [-8.1224874, 41.1536169], [-8.1225366, 41.1536863], [-8.1225778, 41.1537477], [-8.1226128, 41.1538071], [-8.1226612, 41.1538891], [-8.1226954, 41.1539555], [-8.1227322, 41.1540313], [-8.1227613, 41.1540984], [-8.1227968, 41.1541857], [-8.1228272, 41.1542708], [-8.1228521, 41.15435], [-8.1228804, 41.1544516], [-8.1229092, 41.1545625], [-8.122956, 41.1547509], [-8.1229839, 41.1548725], [-8.123013, 41.154994], [-8.1230324, 41.1550702], [-8.123053, 41.1551317], [-8.1230755, 41.1551911], [-8.1231029, 41.1552604], [-8.1231299, 41.155323], [-8.1231607, 41.1553823], [-8.1232014, 41.1554509], [-8.1232321, 41.1555012]]}, "properties": {"highway": "primary", "name": "Variante \u00e0 EN 211", "oneway": "no", "ref": "EN 211", "surface": "asphalt"}}, {"type": "Feature", "geometry": {"type": "LineString", "coordinates": [[-8.0860576, 41.1192687], [-8.086093, 41.1193143], [-8.0861248, 41.119371], [-8.0861503, 41.1194316], [-8.0861704, 41.1194956], [-8.0861793, 41.1195301], [-8.0862978, 41.1199887], [-8.0863256, 41.1200964], [-8.0865307, 41.1208902], [-8.0868871, 41.1222696], [-8.0869496, 41.1225098], [-8.0869919, 41.122631], [-8.0870845, 41.1227568], [-8.0872774, 41.1229229], [-8.0878464, 41.1231865], [-8.0881579, 41.1233308], [-8.0882652, 41.1234149], [-8.0883232, 41.1235159], [-8.0883439, 41.1236345], [-8.0883007, 41.1238208], [-8.0882263, 41.1240182], [-8.0881441, 41.1241375], [-8.0880368, 41.1242144], [-8.087723, 41.1243305], [-8.0876373, 41.1243623], [-8.0871776, 41.1245324], [-8.0868871, 41.1247309], [-8.0866843, 41.1249264], [-8.0860559, 41.125919], [-8.0860261, 41.1260259], [-8.0860586, 41.1261277], [-8.0861329, 41.1262173], [-8.0862613, 41.1262804], [-8.0864181, 41.1262896], [-8.0865735, 41.1262244], [-8.0867668, 41.1259903], [-8.0868979, 41.1258986], [-8.0871101, 41.1258335], [-8.0900199, 41.1253326], [-8.0903767, 41.1252186], [-8.0905322, 41.1251829], [-8.0907363, 41.1251921], [-8.0913396, 41.1253322], [-8.09228, 41.1255505], [-8.0925298, 41.1256085], [-8.0926068, 41.1256504], [-8.0926773, 41.1257002], [-8.0927175, 41.1257411], [-8.0927529, 41.1257935]]}, "properties": {"highway": "primary", "lanes": "2", "name": "Rua de Santa Leocadia", "oneway": "no", "ref": "EN 211", "surface": "asphalt"}}, {"type": "Feature", "geometry": {"type": "LineString", "coordinates": [[-8.0927529, 41.1257935], [-8.092769, 41.1258233], [-8.0927925, 41.1259172], [-8.092812, 41.1260911], [-8.0928484, 41.1261636], [-8.0928879, 41.1262142], [-8.0929682, 41.1262949], [-8.0930469, 41.1263378], [-8.0931352, 41.126371], [-8.0935056, 41.1264341], [-8.0935816, 41.1264632], [-8.0936391, 41.1264953], [-8.0936793, 41.1265274], [-8.0937122, 41.1265602], [-8.0937548, 41.1266375], [-8.093815, 41.1267112], [-8.0939413, 41.1267885], [-8.0941057, 41.126821], [-8.0954667, 41.1268648], [-8.0955635, 41.1268588], [-8.0956491, 41.1268383], [-8.0957124, 41.1268183], [-8.0957708, 41.1267935], [-8.0958748, 41.1267202], [-8.0962984, 41.1263058], [-8.096683, 41.1258915], [-8.0968466, 41.1257795], [-8.0970263, 41.1257408], [-8.0981373, 41.1256421], [-8.0982968, 41.1256604], [-8.0984401, 41.1257123], [-8.098532, 41.1257907], [-8.0985995, 41.1259027], [-8.0986044, 41.125947], [-8.0986183, 41.126073], [-8.0986204, 41.1261291], [-8.0986273, 41.1263075], [-8.0986332, 41.1264093], [-8.0986644, 41.1265523], [-8.0987563, 41.1266489], [-8.0988847, 41.1267222], [-8.0993632, 41.12688], [-8.0994108, 41.1268978], [-8.0994609, 41.1269229], [-8.0994952, 41.1269462], [-8.099527, 41.1269777], [-8.0997132, 41.12727], [-8.0998186, 41.1273473], [-8.0999619, 41.1274023], [-8.1002684, 41.1274458], [-8.1003497, 41.1274706], [-8.1004163, 41.127501], [-8.1004657, 41.1275335], [-8.1005151, 41.1275752], [-8.1005877, 41.1276833], [-8.1007487, 41.1284176], [-8.1008743, 41.128882], [-8.1009268, 41.128975], [-8.1010404, 41.1290668], [-8.1011096, 41.1290971], [-8.1011995, 41.1291163], [-8.1013688, 41.1291136], [-8.1015401, 41.1290663], [-8.1018284, 41.1289548], [-8.1019223, 41.1289448], [-8.1020029, 41.128944], [-8.1020991, 41.1289578], [-8.1022006, 41.1289966], [-8.1024582, 41.1291767], [-8.1025798, 41.1292775], [-8.1029691, 41.1298059], [-8.1030191, 41.1299158], [-8.103061, 41.1301469], [-8.1031258, 41.1302436], [-8.1032394, 41.1303189], [-8.1033975, 41.1303454], [-8.1035019, 41.13034], [-8.1036346, 41.1303087], [-8.1039038, 41.1301764], [-8.1040496, 41.130128], [-8.1046368, 41.1300273], [-8.1048761, 41.1299718], [-8.105191, 41.1298374], [-8.1053856, 41.1297998], [-8.1055843, 41.1297926], [-8.1073319, 41.1299108], [-8.1075373, 41.1299247], [-8.1075859, 41.129928], [-8.1082809, 41.1300562]]}, "properties": {"highway": "primary", "lanes": "2", "name": "Rua Central de Mesquinhata", "oneway": "no", "ref": "EN 211", "surface": "asphalt"}}, {"type": "Feature", "geometry": {"type": "LineString", "coordinates": [[-8.0891599, 41.1034116], [-8.0891774, 41.1034352], [-8.0893181, 41.1036257], [-8.0895511, 41.103715], [-8.0897148, 41.103743], [-8.0911355, 41.103902], [-8.0918017, 41.1040656], [-8.0921306, 41.1041464], [-8.092379, 41.1041631], [-8.0930828, 41.1041589], [-8.0932794, 41.1041855], [-8.0934537, 41.1042205], [-8.0937087, 41.1043017], [-8.0938464, 41.1043935], [-8.0939112, 41.1044917], [-8.0939369, 41.1046421], [-8.0939962, 41.1048088], [-8.0940358, 41.1049048], [-8.0940813, 41.1049734], [-8.0941934, 41.1050366], [-8.0948223, 41.1055259], [-8.0949941, 41.1057581], [-8.095094, 41.1059047], [-8.0951585, 41.106021]]}, "properties": {"highway": "primary", "name": "Rua de Sorrego", "old_ref": "EN 108", "oneway": "no", "ref": "ER 108;EN 211"}}, {"type": "Feature", "geometry": {"type": "LineString", "coordinates": [[-8.1572408, 41.1944808], [-8.15723, 41.1944774], [-8.1570884, 41.1944401], [-8.1570353, 41.1944275], [-8.1566699, 41.1943403], [-8.1562735, 41.1942577], [-8.1559383, 41.1941878], [-8.1552138, 41.1940344]]}, "properties": {"highway": "primary", "oneway": "yes", "ref": "EN 211", "surface": "asphalt"}}, {"type": "Feature", "geometry": {"type": "LineString", "coordinates": [[-8.1545965, 41.1939392], [-8.1545408, 41.1939395], [-8.1544637, 41.1939465], [-8.1543975, 41.1939558], [-8.1543443, 41.1939668], [-8.1542897, 41.193983], [-8.1542588, 41.1939932], [-8.154225, 41.1940045], [-8.1541649, 41.1940305], [-8.1540971, 41.19407], [-8.1540486, 41.1941007], [-8.1539931, 41.1941395], [-8.1539531, 41.1941725], [-8.153923, 41.1942009], [-8.1538984, 41.1942305], [-8.1538676, 41.1942734], [-8.1538344, 41.1943256], [-8.1538167, 41.1943603], [-8.1538005, 41.1944079], [-8.1537896, 41.1944583], [-8.1537802, 41.1945066]]}, "properties": {"highway": "primary", "oneway": "yes", "ref": "EN 211", "surface": "asphalt"}}, {"type": "Feature", "geometry": {"type": "LineString", "coordinates": [[-8.1552138, 41.1940344], [-8.1551055, 41.1940098], [-8.1550064, 41.1939911], [-8.1548435, 41.1939604], [-8.1547426, 41.1939448], [-8.1546794, 41.1939384], [-8.1546324, 41.1939366], [-8.1545965, 41.1939392]]}, "properties": {"highway": "primary", "oneway": "yes", "ref": "EN 211", "surface": "asphalt"}}, {"type": "Feature", "geometry": {"type": "LineString", "coordinates": [[-8.1547104, 41.1939944], [-8.1547828, 41.1940006], [-8.1548418, 41.1940074], [-8.1549126, 41.1940174], [-8.1550418, 41.1940427], [-8.1551691, 41.1940703], [-8.1554807, 41.1941379], [-8.1559204, 41.1942344], [-8.1562327, 41.1943023], [-8.1563575, 41.1943303], [-8.156415, 41.1943423], [-8.1565477, 41.1943676], [-8.1567627, 41.1944169], [-8.15696, 41.1944657], [-8.1570556, 41.1944894], [-8.1572451, 41.1945355], [-8.1573131, 41.194552], [-8.157462, 41.1945896]]}, "properties": {"highway": "primary", "oneway": "yes", "ref": "EN 211", "surface": "asphalt"}}, {"type": "Feature", "geometry": {"type": "LineString", "coordinates": [[-8.157462, 41.1945896], [-8.1577435, 41.1946605]]}, "properties": {"bridge": "yes", "highway": "primary", "layer": "1", "maxweight:signed": "no", "oneway": "yes", "ref": "EN 211", "surface": "asphalt"}}, {"type": "Feature", "geometry": {"type": "LineString", "coordinates": [[-8.1577435, 41.1946605], [-8.1575122, 41.1945726], [-8.1574787, 41.1945604]]}, "properties": {"bridge": "yes", "highway": "primary", "layer": "1", "maxweight:signed": "no", "oneway": "yes", "ref": "EN 211", "surface": "asphalt"}}, {"type": "Feature", "geometry": {"type": "LineString", "coordinates": [[-8.1537802, 41.1945066], [-8.1538046, 41.1944654], [-8.1538269, 41.1944279], [-8.1538634, 41.1943768], [-8.1539011, 41.1943248], [-8.1539331, 41.194281], [-8.1539677, 41.1942415], [-8.1540061, 41.1942039], [-8.1540407, 41.194174], [-8.1540784, 41.1941451], [-8.1541245, 41.1941162], [-8.1541578, 41.1940994], [-8.1542071, 41.1940767], [-8.1542474, 41.1940594], [-8.1542974, 41.1940425], [-8.1543425, 41.1940293], [-8.1543806, 41.1940196], [-8.1544306, 41.194009], [-8.1544963, 41.1939984], [-8.1545489, 41.1939929], [-8.1545931, 41.193991], [-8.1546494, 41.193991], [-8.1547104, 41.1939944]]}, "properties": {"highway": "primary", "oneway": "yes", "ref": "EN 211", "surface": "asphalt"}}, {"type": "Feature", "geometry": {"type": "LineString", "coordinates": [[-8.1355157, 41.1853216], [-8.1353206, 41.1850718], [-8.1350965, 41.1847849], [-8.1348695, 41.1844827], [-8.1347383, 41.1843042], [-8.1346588, 41.1841961], [-8.1345811, 41.1840879], [-8.1345091, 41.183985], [-8.1344241, 41.1838656], [-8.1343332, 41.1837351], [-8.1342447, 41.1836087], [-8.1341493, 41.1834737], [-8.1340663, 41.1833548], [-8.1340007, 41.1832635], [-8.1339419, 41.1831776], [-8.1338897, 41.1831036], [-8.1338336, 41.1830235], [-8.1337898, 41.1829625], [-8.133743, 41.1828973], [-8.1336669, 41.1827871], [-8.1335329, 41.1825947], [-8.1334829, 41.1825209], [-8.1334323, 41.1824388], [-8.133394, 41.1823726], [-8.1333606, 41.182303], [-8.1333373, 41.182239], [-8.133324, 41.1821929]]}, "properties": {"highway": "primary", "name": "Variante \u00e0 EN 211", "oneway": "no", "ref": "EN 211", "surface": "asphalt"}}, {"type": "Feature", "geometry": {"type": "LineString", "coordinates": [[-8.1336165, 41.1791392], [-8.1336789, 41.1792137], [-8.1337399, 41.1793081], [-8.1337932, 41.1794005], [-8.1338407, 41.1794967], [-8.133861, 41.179549], [-8.1338915, 41.1796389], [-8.1339101, 41.1797071], [-8.1339254, 41.1797766], [-8.1339364, 41.1798479], [-8.1339406, 41.1799161], [-8.1339431, 41.1799742], [-8.1339406, 41.1800322], [-8.1339355, 41.1800889], [-8.1339262, 41.1801412], [-8.1339127, 41.1801972], [-8.1338796, 41.180303], [-8.1338449, 41.1804044], [-8.1337704, 41.1805861], [-8.133717, 41.1807065], [-8.1336631, 41.1808272], [-8.1336052, 41.1809564], [-8.133592, 41.180986], [-8.1335121, 41.1811648], [-8.1334376, 41.1813388], [-8.1333681, 41.1815058], [-8.1333368, 41.1815836], [-8.1333046, 41.1816754], [-8.1332868, 41.1817397], [-8.1332758, 41.1817971], [-8.133269, 41.1818608], [-8.1332682, 41.1819074], [-8.1332702, 41.1819607], [-8.1332768, 41.1820162], [-8.1332838, 41.182056], [-8.1332996, 41.1821186], [-8.133324, 41.1821929]]}, "properties": {"highway": "primary", "name": "Variante \u00e0 EN 211", "oneway": "yes", "ref": "EN 211"}}, {"type": "Feature", "geometry": {"type": "LineString", "coordinates": [[-8.133324, 41.1821929], [-8.1333253, 41.1820696], [-8.1333293, 41.1819879], [-8.133333, 41.1819382], [-8.1333384, 41.1818796], [-8.1333453, 41.1818281], [-8.1333543, 41.1817861], [-8.1333784, 41.181705], [-8.1334051, 41.1816443], [-8.1334781, 41.1814803], [-8.1335682, 41.1812755], [-8.1336112, 41.1811815], [-8.1336952, 41.1809976], [-8.1337234, 41.180934], [-8.1338323, 41.1806873], [-8.1338517, 41.1806413], [-8.1339104, 41.180502], [-8.1339494, 41.1804056], [-8.1339784, 41.1803221], [-8.1340024, 41.1802332], [-8.1340204, 41.1801481], [-8.1340324, 41.1800607], [-8.1340352, 41.1799926], [-8.1340326, 41.1799092], [-8.1340194, 41.1798267], [-8.1340009, 41.1797447], [-8.1339824, 41.1796756], [-8.1339653, 41.1796235], [-8.1339435, 41.1795698], [-8.1339177, 41.1795112], [-8.133894, 41.179458], [-8.1338662, 41.1794088], [-8.1338365, 41.1793616], [-8.1338062, 41.1793219], [-8.1337646, 41.1792737], [-8.1337091, 41.1792225], [-8.1336165, 41.1791392]]}, "properties": {"highway": "primary", "name": "Variante \u00e0 EN 211", "oneway": "yes", "ref": "EN 211"}}, {"type": "Feature", "geometry": {"type": "LineString", "coordinates": [[-8.1574787, 41.1945604], [-8.1573839, 41.194526], [-8.1572408, 41.1944808]]}, "properties": {"highway": "primary", "oneway": "yes", "ref": "EN 211"}}, {"type": "Feature", "geometry": {"type": "LineString", "coordinates": [[-8.1513488, 41.1969029], [-8.1512399, 41.1969536], [-8.1511408, 41.1969975], [-8.1510399, 41.1970335], [-8.1509204, 41.1970687], [-8.1507966, 41.1971], [-8.150709, 41.1971193], [-8.1505196, 41.1971553], [-8.1502225, 41.1972108], [-8.1501418, 41.1972259], [-8.1496171, 41.1973231], [-8.1494922, 41.1973487], [-8.1491261, 41.1974156], [-8.1490711, 41.197426], [-8.1489252, 41.1974536], [-8.1487916, 41.1974809], [-8.1486182, 41.1975188], [-8.1484554, 41.1975541], [-8.1482714, 41.197596], [-8.1481298, 41.1976267], [-8.1479899, 41.1976525]]}, "properties": {"highway": "primary", "oneway": "yes", "ref": "EN 211", "surface": "asphalt"}}, {"type": "Feature", "geometry": {"type": "LineString", "coordinates": [[-8.1479899, 41.1976525], [-8.1482349, 41.1976288], [-8.1484555, 41.1976028], [-8.1486049, 41.1975813], [-8.1487604, 41.1975569], [-8.1488874, 41.1975355], [-8.1492452, 41.197472], [-8.1494038, 41.1974418], [-8.1496603, 41.1973931], [-8.1498408, 41.1973588], [-8.1502646, 41.1972785], [-8.150415, 41.1972494], [-8.1506041, 41.1972078], [-8.1507409, 41.1971751], [-8.1507939, 41.1971609], [-8.1508911, 41.1971307], [-8.1509756, 41.1971014], [-8.1510453, 41.1970741], [-8.1510963, 41.1970509], [-8.1511399, 41.1970282], [-8.1512264, 41.1969763], [-8.1513488, 41.1969029]]}, "properties": {"highway": "primary", "oneway": "yes", "ref": "EN 211", "surface": "asphalt"}}, {"type": "Feature", "geometry": {"type": "LineString", "coordinates": [[-8.1660117, 41.2079912], [-8.1659478, 41.2083679], [-8.1658494, 41.2090207], [-8.1658042, 41.2093205], [-8.1657296, 41.2098285], [-8.1656662, 41.2102364], [-8.1656519, 41.2104242], [-8.1656608, 41.2106158], [-8.1656994, 41.2107902], [-8.1657627, 41.2109487], [-8.1659082, 41.2110777]]}, "properties": {"highway": "primary", "name": "Variante \u00e0 EN 211", "oneway": "yes", "ref": "EN 211"}}, {"type": "Feature", "geometry": {"type": "LineString", "coordinates": [[-8.1659082, 41.2110777], [-8.1658599, 41.2108977], [-8.1658145, 41.2107817], [-8.1657655, 41.2106204], [-8.1657474, 41.2104189], [-8.1657586, 41.2102484], [-8.1658813, 41.2093828], [-8.165895, 41.209288], [-8.1660316, 41.2083665], [-8.1660117, 41.2079912]]}, "properties": {"highway": "primary", "name": "Variante \u00e0 EN 211", "oneway": "yes", "ref": "EN 211"}}, {"type": "Feature", "geometry": {"type": "LineString", "coordinates": [[-8.1660117, 41.2079912], [-8.1659753, 41.2077987], [-8.1659109, 41.2075121], [-8.1657506, 41.2071756], [-8.1654994, 41.2068677], [-8.1651814, 41.2066041], [-8.1647468, 41.20637], [-8.163837, 41.206031], [-8.1634765, 41.2058631], [-8.163262, 41.205721], [-8.163013, 41.2055402], [-8.1628414, 41.2053465], [-8.162644, 41.2050559], [-8.1625418, 41.2047854], [-8.1624723, 41.2044683], [-8.162438, 41.2040356], [-8.1624294, 41.2037579], [-8.1623789, 41.2034573], [-8.1622749, 41.2031832], [-8.1621462, 41.2029636], [-8.1618972, 41.2026601], [-8.1617599, 41.2024922], [-8.1615711, 41.2022145], [-8.161408, 41.2019304], [-8.1612964, 41.2017108], [-8.1612363, 41.2015171], [-8.1612106, 41.2012459], [-8.1611982, 41.2008092]]}, "properties": {"highway": "primary", "name": "Variante \u00e0 EN 211", "oneway": "no", "ref": "EN 211"}}, {"type": "Feature", "geometry": {"type": "LineString", "coordinates": [[-8.1992467, 41.2343083], [-8.1990335, 41.234009], [-8.1989323, 41.2338457], [-8.1988044, 41.2335016], [-8.1987529, 41.2332434], [-8.1987444, 41.2329271], [-8.1988044, 41.2326238], [-8.1988342, 41.2325375], [-8.198916, 41.232301], [-8.1991478, 41.2319589], [-8.1995168, 41.2315845], [-8.1998602, 41.2312037], [-8.2000318, 41.2309649], [-8.2001949, 41.2307002], [-8.2002979, 41.2304291], [-8.2003666, 41.2301257], [-8.2004009, 41.2298288], [-8.2003494, 41.2295383], [-8.2002464, 41.2292478], [-8.2001262, 41.2290219], [-8.1999374, 41.2288089], [-8.1997142, 41.2285894], [-8.1994568, 41.2284215], [-8.1991134, 41.2282666], [-8.1987371, 41.2281721], [-8.1983863, 41.2281087], [-8.1978775, 41.2280407], [-8.1938005, 41.2274274], [-8.1934314, 41.2273371], [-8.1931396, 41.2272596], [-8.1928135, 41.2271369], [-8.1925962, 41.2270523]]}, "properties": {"highway": "primary", "lit": "no", "name": "Variante \u00e0 EN 211", "oneway": "no", "ref": "EN 211", "surface": "asphalt"}}, {"type": "Feature", "geometry": {"type": "LineString", "coordinates": [[-8.190885, 41.223421], [-8.1908977, 41.2238069], [-8.1909264, 41.2247626], [-8.1909361, 41.2248674], [-8.1909573, 41.224992], [-8.1910345, 41.2253078]]}, "properties": {"highway": "primary", "name": "Variante \u00e0 EN 211", "oneway": "yes", "ref": "EN 211"}}, {"type": "Feature", "geometry": {"type": "LineString", "coordinates": [[-8.1925962, 41.2270523], [-8.1922325, 41.2267827], [-8.1917138, 41.22635], [-8.1915729, 41.2262029], [-8.1914199, 41.225985], [-8.1912913, 41.225761], [-8.1912185, 41.2255974], [-8.1911579, 41.2254353], [-8.1911158, 41.2253045]]}, "properties": {"highway": "primary", "name": "Variante \u00e0 EN 211", "oneway": "yes", "ref": "EN 211"}}, {"type": "Feature", "geometry": {"type": "LineString", "coordinates": [[-8.0860576, 41.1192687], [-8.0860875, 41.1192038], [-8.0861503, 41.1190675]]}, "properties": {"highway": "primary", "lanes": "1", "old_ref": "EN 108", "oneway": "yes", "ref": "ER 108;EN 211", "surface": "asphalt"}}, {"type": "Feature", "geometry": {"type": "LineString", "coordinates": [[-8.0861503, 41.1190675], [-8.0858971, 41.1191573]]}, "properties": {"highway": "primary", "lanes": "1", "old_ref": "EN 108", "oneway": "yes", "ref": "ER 108;EN 211", "surface": "asphalt"}}, {"type": "Feature", "geometry": {"type": "LineString", "coordinates": [[-8.1516544, 41.1967306], [-8.1513488, 41.1969029]]}, "properties": {"highway": "primary", "oneway": "no", "ref": "EN 211", "surface": "asphalt"}}, {"type": "Feature", "geometry": {"type": "LineString", "coordinates": [[-8.1910345, 41.2253078], [-8.1911418, 41.2256689], [-8.1912169, 41.2258382], [-8.1913262, 41.226022], [-8.1914502, 41.2262095], [-8.1915571, 41.2263432], [-8.1917051, 41.226492], [-8.1919257, 41.2266738], [-8.1921744, 41.226845], [-8.1925962, 41.2270523]]}, "properties": {"highway": "primary", "name": "Variante \u00e0 EN 211", "oneway": "yes", "ref": "EN 211"}}, {"type": "Feature", "geometry": {"type": "LineString", "coordinates": [[-8.1911158, 41.2253045], [-8.1910606, 41.2250343], [-8.1910396, 41.2248964], [-8.1910273, 41.2247731], [-8.1909839, 41.2236259], [-8.190885, 41.223421]]}, "properties": {"highway": "primary", "name": "Variante \u00e0 EN 211", "oneway": "yes", "ref": "EN 211"}}, {"type": "Feature", "geometry": {"type": "LineString", "coordinates": [[-8.0874023, 41.1021838], [-8.0873111, 41.1022578], [-8.0872681, 41.1023383], [-8.0872475, 41.1024314], [-8.087275, 41.1025214], [-8.0873135, 41.102606], [-8.0873633, 41.1027006], [-8.0874354, 41.1027925], [-8.0874647, 41.1028184], [-8.0875184, 41.1028657], [-8.087631, 41.1029363], [-8.0877248, 41.1029744], [-8.0878333, 41.103007], [-8.0878736, 41.1030086], [-8.0881096, 41.1030183], [-8.0883909, 41.1029924], [-8.0886575, 41.1029809], [-8.0887749, 41.1030086], [-8.0888924, 41.1030432], [-8.0889671, 41.1030731], [-8.0889999, 41.1031026], [-8.0890234, 41.1031321], [-8.0890841, 41.1032336]]}, "properties": {"highway": "primary", "name": "Rua de Sorrego", "old_ref": "EN 108", "oneway": "no", "ref": "ER 108;EN 211"}}, {"type": "Feature", "geometry": {"type": "LineString", "coordinates": [[-8.1614563, 41.1986171], [-8.1614407, 41.198436]]}, "properties": {"highway": "primary", "oneway": "yes", "ref": "EN 211"}}]}