{"type": "FeatureCollection", "features": [{"type": "Feature", "geometry": {"type": "LineString", "coordinates": [[-7.4061477, 38.7075942], [-7.4060101, 38.7078436], [-7.405795, 38.7083736], [-7.4055858, 38.7090376], [-7.4055859, 38.70929], [-7.4056753, 38.7095567], [-7.4057828, 38.7097357], [-7.4061431, 38.7104008], [-7.4062465, 38.7106264], [-7.4063167, 38.7108506], [-7.4063676, 38.7111693], [-7.406386, 38.7113683], [-7.4063209, 38.7198968], [-7.4063194, 38.7200997], [-7.4060832, 38.7224172], [-7.4057839, 38.7244313], [-7.4056112, 38.725593], [-7.4055083, 38.7262302], [-7.4054881, 38.7263553], [-7.4054574, 38.7264733], [-7.4054264, 38.7265673], [-7.4053534, 38.726741], [-7.4051606, 38.7271165], [-7.4048602, 38.7277601], [-7.4048355, 38.7278708], [-7.4048388, 38.7279326], [-7.4048406, 38.7279655], [-7.4048886, 38.7280752], [-7.4049554, 38.7281644], [-7.4053489, 38.728571], [-7.4054009, 38.728665], [-7.405419, 38.7287405], [-7.4054262, 38.7288141], [-7.4054205, 38.7289247], [-7.4053751, 38.7291549], [-7.4053353, 38.7293787], [-7.4053052, 38.7296602], [-7.4053333, 38.7302002], [-7.405163, 38.7307296], [-7.4043559, 38.7326792], [-7.4040234, 38.7335752], [-7.4035425, 38.7348276], [-7.4034687, 38.7350655], [-7.4034298, 38.7352571], [-7.4034297, 38.735436], [-7.4034294, 38.7358125], [-7.4034853, 38.7363885], [-7.4035558, 38.7367439], [-7.4041307, 38.7387894], [-7.4045362, 38.7398201], [-7.4046457, 38.7400984], [-7.4065554, 38.7446045], [-7.4070974, 38.745337], [-7.4075476, 38.7459454], [-7.4079723, 38.7465192], [-7.4081769, 38.7467958], [-7.4089146, 38.7477927], [-7.4090747, 38.748082], [-7.4091391, 38.7484573], [-7.4091058, 38.7487805], [-7.4090229, 38.7490032], [-7.4086895, 38.750114], [-7.4086686, 38.7503351], [-7.4086973, 38.75062], [-7.4088907, 38.7517256], [-7.4091302, 38.7530587], [-7.4091836, 38.7532467], [-7.4094604, 38.7539141], [-7.4096128, 38.754254], [-7.4098973, 38.7548886]]}, "properties": {"highway": "primary", "ref": "EN 255"}}, {"type": "Feature", "geometry": {"type": "LineString", "coordinates": [[-7.4090504, 38.7026194], [-7.4090119, 38.7030628], [-7.4089129, 38.7035363], [-7.408647, 38.7042606], [-7.4085528, 38.7044388], [-7.40843, 38.7046199], [-7.4078485, 38.7053073], [-7.4070327, 38.7062212]]}, "properties": {"highway": "primary", "maxspeed": "90", "ref": "EN 255"}}, {"type": "Feature", "geometry": {"type": "LineString", "coordinates": [[-7.5902485, 37.9485237], [-7.5901919, 37.9485371], [-7.5901419, 37.9485598], [-7.5901059, 37.9485932], [-7.5900816, 37.9486278], [-7.5900291, 37.9487424], [-7.5900092, 37.9487753], [-7.5899668, 37.9488333], [-7.5899062, 37.9489005], [-7.5897253, 37.9490851]]}, "properties": {"highway": "primary", "oneway": "yes", "ref": "EN 255"}}, {"type": "Feature", "geometry": {"type": "LineString", "coordinates": [[-7.4799458, 38.0244932], [-7.4801073, 38.0242164], [-7.4801439, 38.0241122], [-7.4801493, 38.0240166], [-7.4801506, 38.0239307], [-7.4801325, 38.0238432], [-7.4800562, 38.0237251], [-7.4800116, 38.0236752], [-7.4799237, 38.0235709], [-7.4792713, 38.0228869], [-7.4792281, 38.0228413], [-7.4788762, 38.0224704], [-7.4785676, 38.0221467], [-7.4784629, 38.0220369], [-7.4780458, 38.0215991], [-7.477899, 38.0214449], [-7.477614, 38.0211371], [-7.4775223, 38.0210473], [-7.4774763, 38.0210061], [-7.477403, 38.0209359], [-7.4770678, 38.0206148], [-7.4769685, 38.0205196], [-7.476484, 38.0200286], [-7.4761478, 38.0197163], [-7.4758964, 38.019474], [-7.4753707, 38.0189565]]}, "properties": {"highway": "primary", "maxspeed": "50", "name": "Rua Jo\u00e3o Tiago Coelho", "postal_code": "7830-257", "ref": "EN 255"}}, {"type": "Feature", "geometry": {"type": "LineString", "coordinates": [[-7.4066198, 38.7067882], [-7.4065588, 38.706872], [-7.4062842, 38.7073203], [-7.4061477, 38.7075942]]}, "properties": {"highway": "primary", "maxspeed": "90", "ref": "EN 255"}}, {"type": "Feature", "geometry": {"type": "LineString", "coordinates": [[-7.4608284, 38.064274], [-7.4611344, 38.0634452], [-7.4612848, 38.0629941], [-7.461358, 38.0627982], [-7.461411, 38.0626561], [-7.4614729, 38.062511], [-7.4615772, 38.0622964], [-7.4635502, 38.0587663], [-7.463697, 38.058513], [-7.4638005, 38.0583629], [-7.4638751, 38.0582639], [-7.4639975, 38.0581281]]}, "properties": {"highway": "primary", "lane_markings": "yes", "ref": "EN 255", "smoothness": "excellent", "surface": "asphalt"}}, {"type": "Feature", "geometry": {"type": "LineString", "coordinates": [[-7.5612396, 37.972063], [-7.5608597, 37.9722355], [-7.5607694, 37.9722811], [-7.5607087, 37.9723175], [-7.560654, 37.9723582], [-7.5605995, 37.972408], [-7.5605675, 37.9724445], [-7.5605443, 37.9724767], [-7.560512, 37.9725283], [-7.5598922, 37.9736244], [-7.5594062, 37.9743562], [-7.5593379, 37.9744513], [-7.5592848, 37.9745089], [-7.5592058, 37.9745865], [-7.5590709, 37.9746989], [-7.5589053, 37.9748091], [-7.5576209, 37.9755012], [-7.5573917, 37.9756241], [-7.5571751, 37.9757279], [-7.5570353, 37.9757905], [-7.5568986, 37.9758394], [-7.5567934, 37.9758713], [-7.5566776, 37.975903], [-7.5565141, 37.9759348], [-7.5563612, 37.9759526], [-7.5561963, 37.9759625], [-7.5559757, 37.9759598], [-7.5555882, 37.9759394], [-7.5551979, 37.9759054], [-7.5548081, 37.9758549], [-7.5545926, 37.9758215], [-7.5544166, 37.9757915], [-7.5542974, 37.9757642], [-7.5541922, 37.9757362], [-7.5540016, 37.9756801], [-7.5535625, 37.9755407], [-7.5533951, 37.9754916], [-7.5533031, 37.9754708], [-7.5532182, 37.9754597], [-7.5530961, 37.9754496], [-7.5529788, 37.9754477], [-7.5528836, 37.9754526], [-7.5527886, 37.9754636], [-7.552753, 37.9754677], [-7.5526624, 37.9754852], [-7.5525535, 37.9755102], [-7.5523815, 37.9755551], [-7.5517005, 37.9757519]]}, "properties": {"highway": "primary", "lane_markings": "yes", "ref": "EN 255", "smoothness": "excellent", "surface": "asphalt"}}, {"type": "Feature", "geometry": {"type": "LineString", "coordinates": [[-7.5514417, 37.9758282], [-7.5504645, 37.976121], [-7.5494964, 37.976411], [-7.5493375, 37.9764597], [-7.5491931, 37.9765144], [-7.5491087, 37.9765503], [-7.5490278, 37.9765895], [-7.5489373, 37.9766396], [-7.5488348, 37.976705], [-7.5487016, 37.9768017], [-7.5485458, 37.9769402], [-7.5484203, 37.9770671], [-7.5483333, 37.9771692], [-7.5482457, 37.9772858], [-7.5480874, 37.9774949], [-7.5448532, 37.9818295], [-7.5438583, 37.9831797], [-7.5437747, 37.983285], [-7.5437045, 37.9833586], [-7.543631, 37.9834147], [-7.5435438, 37.9834775], [-7.543453, 37.98354], [-7.5433935, 37.9835763], [-7.5433235, 37.9836122], [-7.5432127, 37.9836588], [-7.5427558, 37.9838407], [-7.5421744, 37.9840661], [-7.5420656, 37.9840874], [-7.5419805, 37.9841018], [-7.541864, 37.9841073], [-7.5417596, 37.9841047], [-7.5416424, 37.9840961], [-7.5415258, 37.9840775], [-7.5414354, 37.9840587], [-7.5413472, 37.9840341], [-7.5412493, 37.983996], [-7.5411813, 37.9839566], [-7.5406742, 37.9836178], [-7.5400664, 37.9831931], [-7.5395709, 37.9828755], [-7.5394437, 37.9827978], [-7.5393388, 37.9827422], [-7.5392287, 37.9826932], [-7.5390886, 37.9826538], [-7.5389964, 37.9826382], [-7.5388945, 37.9826243], [-7.5388113, 37.9826198], [-7.5387366, 37.9826189], [-7.538626, 37.9826276], [-7.5385273, 37.9826412], [-7.5382781, 37.9826887], [-7.536785, 37.9829884], [-7.5359696, 37.9831481], [-7.5357955, 37.9831909], [-7.5356098, 37.9832519], [-7.5354579, 37.9833115], [-7.5353847, 37.9833422], [-7.5353165, 37.9833781], [-7.5352294, 37.9834261], [-7.535079, 37.9835272], [-7.5307396, 37.9871252], [-7.5306743, 37.9871837], [-7.5306271, 37.9872392], [-7.5305927, 37.9872834], [-7.5305575, 37.9873297], [-7.5305255, 37.9873807], [-7.5305041, 37.9874202], [-7.5304825, 37.9874665], [-7.5304547, 37.9875363], [-7.5303853, 37.9877108], [-7.5302552, 37.9880583], [-7.5301978, 37.9881994], [-7.5301649, 37.9882732], [-7.5301322, 37.9883241], [-7.5300853, 37.9883851], [-7.530031, 37.9884339], [-7.5299746, 37.9884766], [-7.5298959, 37.9885314], [-7.529825, 37.9885679], [-7.5284257, 37.9891447], [-7.5283117, 37.9891984], [-7.5282416, 37.9892438], [-7.5281597, 37.9893004], [-7.52811, 37.9893427], [-7.5280671, 37.9893895], [-7.5280242, 37.9894364], [-7.5279727, 37.989506], [-7.5278922, 37.9896118], [-7.5255298, 37.9927292]]}, "properties": {"highway": "primary", "ref": "EN 255"}}, {"type": "Feature", "geometry": {"type": "LineString", "coordinates": [[-7.5253906, 37.9929268], [-7.5250146, 37.9934193], [-7.5247596, 37.9937585], [-7.5246641, 37.9938784], [-7.5245828, 37.993966], [-7.5244821, 37.9940629], [-7.5240961, 37.9943688], [-7.5222103, 37.9957494], [-7.5221842, 37.9957734], [-7.5221601, 37.9958015], [-7.5221335, 37.9958377], [-7.5221023, 37.9958865], [-7.5220809, 37.9959295], [-7.5220687, 37.9959664], [-7.5220589, 37.9960175], [-7.5217943, 37.9972609], [-7.5217632, 37.9973468], [-7.5217294, 37.9974233], [-7.5216974, 37.9974864], [-7.5216621, 37.997542], [-7.5216304, 37.9975761], [-7.5215927, 37.9976096], [-7.5215354, 37.997653], [-7.5214449, 37.9977144], [-7.5213179, 37.9977882], [-7.5200899, 37.9984002], [-7.5199189, 37.9984885], [-7.5198703, 37.9985132], [-7.519796, 37.9985578], [-7.5197241, 37.9986146], [-7.5196573, 37.9986754], [-7.5196231, 37.9987062], [-7.5195956, 37.9987417], [-7.5195595, 37.9987913], [-7.5192198, 37.9992837], [-7.5191656, 37.9993461], [-7.5190979, 37.9994093], [-7.519027, 37.9994556], [-7.5189587, 37.9994943], [-7.5188666, 37.9995342], [-7.5187216, 37.9995881], [-7.5165936, 38.0003101], [-7.5164069, 38.0003713], [-7.5162961, 38.0004151], [-7.5162176, 38.0004483], [-7.5161544, 38.0004897], [-7.5161057, 38.0005303], [-7.5160516, 38.0005833], [-7.5160002, 38.0006409], [-7.5159413, 38.0007206], [-7.5143942, 38.0031595], [-7.513816, 38.0040399], [-7.513769, 38.0041053], [-7.5137227, 38.0041622], [-7.5136729, 38.0042211], [-7.5136094, 38.0042833], [-7.5135213, 38.0043514], [-7.5134393, 38.0044068], [-7.5133607, 38.0044541], [-7.5132857, 38.0044934], [-7.5116361, 38.0053158], [-7.5115411, 38.0053585], [-7.5114498, 38.005397], [-7.5113748, 38.0054268], [-7.5112983, 38.0054526], [-7.5112495, 38.0054659], [-7.5112018, 38.0054757], [-7.5111286, 38.0054874], [-7.5110069, 38.0055029], [-7.5082752, 38.0057499], [-7.5079151, 38.0057864], [-7.507836, 38.0057981], [-7.507754, 38.0058142], [-7.5076818, 38.005837], [-7.5076289, 38.0058576], [-7.5075564, 38.0058894], [-7.5074524, 38.0059455], [-7.5057496, 38.0070196], [-7.5056338, 38.0070991], [-7.5055278, 38.0071732], [-7.5054695, 38.0072247], [-7.5054027, 38.0072875], [-7.5053223, 38.0073793], [-7.503392, 38.009915], [-7.5033286, 38.009998], [-7.5032669, 38.0100636], [-7.5032121, 38.0101063], [-7.5031347, 38.0101635], [-7.5030531, 38.010209], [-7.5029747, 38.0102369], [-7.502858, 38.0102731], [-7.5021281, 38.0104421], [-7.5017482, 38.0105289], [-7.5015847, 38.0105683], [-7.5014569, 38.0105999], [-7.5013274, 38.0106343], [-7.5012013, 38.0106766], [-7.5010952, 38.0107189], [-7.5009846, 38.0107736], [-7.5008924, 38.0108215], [-7.5007601, 38.010901], [-7.5005522, 38.011043], [-7.5003366, 38.0111978], [-7.4998724, 38.0115327], [-7.499631, 38.0117045], [-7.4987927, 38.0123065], [-7.4986415, 38.0124126], [-7.4984928, 38.0125073], [-7.4983955, 38.0125579], [-7.4983016, 38.0126004], [-7.4981804, 38.0126522], [-7.497936, 38.0127438], [-7.4959937, 38.0134611], [-7.4956888, 38.0135708], [-7.4954714, 38.0136423], [-7.4953879, 38.013668], [-7.4952899, 38.0136924], [-7.4952303, 38.0137048], [-7.4951682, 38.0137126], [-7.4950278, 38.0137283], [-7.4948151, 38.013753], [-7.4945786, 38.0137773], [-7.494194, 38.0138158], [-7.4921008, 38.0140251], [-7.4834041, 38.0148975], [-7.4807803, 38.015179], [-7.4795226, 38.0153104], [-7.4791727, 38.015351], [-7.4790143, 38.0153784], [-7.4789138, 38.0154007], [-7.478786, 38.0154363], [-7.478607, 38.0154891], [-7.4781702, 38.0156214], [-7.4780607, 38.015656], [-7.4780035, 38.015674], [-7.477891, 38.0157137], [-7.4777988, 38.0157616], [-7.4777303, 38.0158085], [-7.4776606, 38.0158684], [-7.477612, 38.0159301], [-7.4775758, 38.0159864], [-7.4775062, 38.0161112]]}, "properties": {"highway": "primary", "ref": "EN 255"}}, {"type": "Feature", "geometry": {"type": "LineString", "coordinates": [[-7.4762979, 38.8111408], [-7.4765306, 38.8108415], [-7.4767548, 38.810535], [-7.4770083, 38.8101782], [-7.4772428, 38.8097992], [-7.4775043, 38.8093093], [-7.4777184, 38.8087899], [-7.4778834, 38.8083063], [-7.478001, 38.8078005], [-7.4780428, 38.8072837], [-7.4780562, 38.8067595], [-7.4779865, 38.806283], [-7.4778885, 38.8057992], [-7.477743, 38.8053375], [-7.4775549, 38.8048832], [-7.4773343, 38.8044885], [-7.4770947, 38.8041234], [-7.476829, 38.8037545], [-7.4765634, 38.80343], [-7.4759003, 38.8027856], [-7.4752041, 38.8021965], [-7.4728495, 38.8005164], [-7.4681034, 38.7972443], [-7.4633992, 38.7939461], [-7.4607369, 38.7921356]]}, "properties": {"highway": "primary", "maxspeed": "90", "ref": "EN 255"}}, {"type": "Feature", "geometry": {"type": "LineString", "coordinates": [[-7.4562785, 38.7890564], [-7.4505976, 38.7850892], [-7.4366994, 38.7749026], [-7.431103, 38.770922], [-7.430087, 38.7701733], [-7.42893, 38.7692678], [-7.4279692, 38.7683935], [-7.426918, 38.767437], [-7.4232, 38.764975], [-7.413325, 38.7579215]]}, "properties": {"highway": "primary", "ref": "EN 255"}}, {"type": "Feature", "geometry": {"type": "LineString", "coordinates": [[-7.450223, 38.1366907], [-7.4501849, 38.1364915], [-7.450132, 38.1363203], [-7.4500692, 38.1361599], [-7.4499808, 38.136025], [-7.4494972, 38.1355374], [-7.4493554, 38.1353892]]}, "properties": {"highway": "primary", "ref": "EN 255"}}, {"type": "Feature", "geometry": {"type": "LineString", "coordinates": [[-7.4470595, 38.1336747], [-7.4470095, 38.1335938], [-7.446354, 38.1326172], [-7.4462265, 38.132412], [-7.4461066, 38.1321793], [-7.4460591, 38.1320456], [-7.4458386, 38.1312816], [-7.4456603, 38.1306804], [-7.4456165, 38.1305129], [-7.445575, 38.1303197], [-7.4454982, 38.1300097], [-7.4454671, 38.1298737], [-7.4454457, 38.1297179], [-7.4454458, 38.1296005], [-7.4454618, 38.129476], [-7.4454962, 38.1293644], [-7.4455164, 38.1292989], [-7.445936, 38.1280285], [-7.4463403, 38.1268045], [-7.4464751, 38.1263964], [-7.4468515, 38.1252569], [-7.4476623, 38.1217183], [-7.4477121, 38.1215101], [-7.4477746, 38.1212727], [-7.4478451, 38.1210127], [-7.4478903, 38.1209143], [-7.4479234, 38.1208418], [-7.4479809, 38.1207477], [-7.4487913, 38.1197129], [-7.4488816, 38.1195939], [-7.4489386, 38.1195095], [-7.4489749, 38.1194506], [-7.4490095, 38.1193696], [-7.4490241, 38.1192868], [-7.4490298, 38.1192196], [-7.449034, 38.1191348], [-7.4490265, 38.1190285], [-7.4489942, 38.1188035], [-7.448588, 38.1160783], [-7.4485783, 38.1159783], [-7.4485758, 38.1158814], [-7.4485799, 38.1158023], [-7.4485945, 38.1157013], [-7.4486087, 38.1156341], [-7.4486276, 38.1155551], [-7.4493273, 38.1131067], [-7.4513469, 38.1060757], [-7.45149, 38.1055808], [-7.451549, 38.1053502], [-7.4515843, 38.1052132], [-7.4516217, 38.1050305], [-7.4516653, 38.1047728], [-7.4525198, 38.0981674], [-7.4527807, 38.0962065], [-7.4528211, 38.0958746], [-7.4530119, 38.0944295], [-7.4530642, 38.0940751], [-7.4531022, 38.0938678], [-7.4531495, 38.0936209], [-7.4534664, 38.09203], [-7.4537732, 38.0904542], [-7.4547098, 38.0857285], [-7.455513, 38.0815915], [-7.4559101, 38.0795037], [-7.4562953, 38.0774979], [-7.4563336, 38.077299], [-7.4563761, 38.0771217], [-7.4564273, 38.0769203], [-7.4565028, 38.0766652], [-7.4566234, 38.0762987], [-7.4570679, 38.0750749], [-7.4580981, 38.0721248], [-7.459262, 38.0687525], [-7.4598352, 38.067096], [-7.4604382, 38.0654203], [-7.4607617, 38.0644774]]}, "properties": {"highway": "primary", "ref": "EN 255"}}, {"type": "Feature", "geometry": {"type": "LineString", "coordinates": [[-7.4471459, 38.1340273], [-7.4474614, 38.1341141]]}, "properties": {"highway": "primary", "oneway": "yes", "ref": "EN 255"}}, {"type": "Feature", "geometry": {"type": "LineString", "coordinates": [[-7.5897253, 37.9490851], [-7.5880672, 37.950473], [-7.5877239, 37.9507607], [-7.5877028, 37.9507782], [-7.5873695, 37.9510546], [-7.5869158, 37.9514308]]}, "properties": {"highway": "primary", "ref": "EN 255"}}, {"type": "Feature", "geometry": {"type": "LineString", "coordinates": [[-7.5869158, 37.9514308], [-7.5868008, 37.9515261]]}, "properties": {"bridge": "yes", "highway": "primary", "layer": "1", "ref": "EN 255"}}, {"type": "Feature", "geometry": {"type": "LineString", "coordinates": [[-7.5868008, 37.9515261], [-7.5860098, 37.952182], [-7.5847064, 37.9530851], [-7.5844195, 37.9532103], [-7.5838102, 37.9533913], [-7.5835169, 37.9534733], [-7.5834509, 37.953488], [-7.5833956, 37.9535002], [-7.5833272, 37.9535062], [-7.5832579, 37.9535096], [-7.5831784, 37.9535109], [-7.5829291, 37.9535012], [-7.5826864, 37.953494], [-7.5825327, 37.9535028], [-7.582451, 37.9535126], [-7.5823422, 37.9535309], [-7.582195, 37.9535678], [-7.5820938, 37.9536001], [-7.5820094, 37.9536295], [-7.5819272, 37.9536628], [-7.5818509, 37.9536997], [-7.5817703, 37.9537397], [-7.5812917, 37.9540688], [-7.5812313, 37.9541033], [-7.5812018, 37.9541197], [-7.5811763, 37.9541323], [-7.5811375, 37.9541507], [-7.5811042, 37.9541653], [-7.5810749, 37.9541752], [-7.5810341, 37.9541876], [-7.5806233, 37.9542803], [-7.5805179, 37.9543142], [-7.5804153, 37.9543514], [-7.5803191, 37.9543886], [-7.5802177, 37.9544318], [-7.5800939, 37.9544909], [-7.5799972, 37.9545555], [-7.5798993, 37.9546385], [-7.5798522, 37.954691], [-7.5798116, 37.9547447], [-7.578107, 37.9572586], [-7.5780113, 37.9573952], [-7.5779093, 37.9575235], [-7.5778219, 37.95762], [-7.5776396, 37.9578114], [-7.5773121, 37.9581628], [-7.5769203, 37.9586008], [-7.5766938, 37.9588905], [-7.5765645, 37.9590491], [-7.5765214, 37.9590994], [-7.5764838, 37.9591375], [-7.5764376, 37.959181], [-7.5763751, 37.9592426], [-7.576294, 37.95931], [-7.574535, 37.9605795], [-7.5744081, 37.9606798], [-7.5743627, 37.9607233], [-7.5743327, 37.9607568], [-7.5742858, 37.9608113], [-7.5742453, 37.9608626], [-7.5742127, 37.9609095], [-7.5741739, 37.96098], [-7.5741307, 37.9610813], [-7.5740874, 37.9611956], [-7.5738503, 37.9619436], [-7.5736221, 37.962614], [-7.5735721, 37.9627189], [-7.5735255, 37.9628056], [-7.5734912, 37.9628517], [-7.5734502, 37.9628905], [-7.5733812, 37.9629387], [-7.5733238, 37.9629706], [-7.5732522, 37.9630065], [-7.5731312, 37.9630584], [-7.5728807, 37.9631568], [-7.5723219, 37.963368], [-7.57193, 37.9635167], [-7.5717613, 37.9635845], [-7.5716063, 37.963647], [-7.5714511, 37.9637148], [-7.5713403, 37.9637721], [-7.5712159, 37.9638411], [-7.5704596, 37.9643059], [-7.5696146, 37.9648372], [-7.5679374, 37.9659076], [-7.5678134, 37.9659913], [-7.5677049, 37.9660762], [-7.5676245, 37.9661484], [-7.5675581, 37.9662131], [-7.5674952, 37.966281], [-7.5674471, 37.966346], [-7.567375, 37.9664418], [-7.5673243, 37.9665162], [-7.5672865, 37.9665779], [-7.5672354, 37.9666798], [-7.5671214, 37.9669497], [-7.5670789, 37.9670557], [-7.56704, 37.9671503], [-7.5670124, 37.9672055], [-7.5669806, 37.9672469], [-7.566943, 37.967283], [-7.5668968, 37.9673232], [-7.5668509, 37.9673565], [-7.5667764, 37.9674013], [-7.5666962, 37.9674473], [-7.5665938, 37.9675033], [-7.5663107, 37.9676519], [-7.5657521, 37.967939], [-7.5654693, 37.9680912], [-7.56541, 37.968125], [-7.5653545, 37.9681624], [-7.5652597, 37.9682279], [-7.5651973, 37.9682719], [-7.5651426, 37.968314], [-7.5650626, 37.9683793], [-7.5649981, 37.9684364], [-7.5649339, 37.9684986], [-7.5648723, 37.9685609], [-7.5648038, 37.9686312], [-7.5647052, 37.9687544], [-7.5646115, 37.9688898], [-7.5645109, 37.9690507], [-7.5644654, 37.9691137], [-7.5644234, 37.9691599], [-7.5643788, 37.9692023], [-7.5643575, 37.9692215], [-7.5643285, 37.9692435], [-7.5642721, 37.9692789], [-7.5641928, 37.9693236], [-7.5640529, 37.9693902], [-7.5637477, 37.9695312], [-7.5631135, 37.9698169], [-7.562914, 37.9699132], [-7.5627621, 37.9699932], [-7.5626119, 37.9700853], [-7.5625051, 37.9701655], [-7.5624298, 37.9702323], [-7.5623639, 37.9702912], [-7.5622877, 37.9703695], [-7.5622331, 37.970437], [-7.5621916, 37.9704928], [-7.5621658, 37.9705384], [-7.5621218, 37.9706209], [-7.5620829, 37.9707108], [-7.5620553, 37.9707942], [-7.5620453, 37.9708445], [-7.5620391, 37.9708868], [-7.5620308, 37.9709648], [-7.562017, 37.9714961], [-7.5619973, 37.9715672], [-7.5619765, 37.9716135], [-7.5619541, 37.9716517], [-7.5619123, 37.9717075], [-7.5618547, 37.9717628], [-7.561783, 37.9718109], [-7.5616721, 37.9718682], [-7.5614834, 37.9719546]]}, "properties": {"highway": "primary", "ref": "EN 255"}}, {"type": "Feature", "geometry": {"type": "LineString", "coordinates": [[-7.4474614, 38.1341141], [-7.447217, 38.1339119]]}, "properties": {"highway": "primary", "oneway": "yes", "ref": "EN 255"}}, {"type": "Feature", "geometry": {"type": "LineString", "coordinates": [[-7.4781199, 38.027709], [-7.4779775, 38.0279549], [-7.4778503, 38.0282096], [-7.4777421, 38.0284216], [-7.4776212, 38.0286308], [-7.4773808, 38.0290603], [-7.477336, 38.0291578], [-7.477303, 38.0292369], [-7.4772619, 38.0293585], [-7.477231, 38.0294907], [-7.4772198, 38.0296023], [-7.4772177, 38.0297492], [-7.4771801, 38.0335268], [-7.4772204, 38.0357427], [-7.4772203, 38.0362117], [-7.4771864, 38.0368431], [-7.4772101, 38.0374565], [-7.4772058, 38.0380715], [-7.4771962, 38.0386904], [-7.4771895, 38.0390193], [-7.4771705, 38.0391801], [-7.477145, 38.0393207], [-7.4770938, 38.0395243], [-7.4770518, 38.0396478], [-7.4769818, 38.0398158], [-7.4765672, 38.0408244], [-7.4764662, 38.0410412], [-7.4760325, 38.0420895], [-7.475897, 38.0424085], [-7.475475, 38.0433113], [-7.4747962, 38.0450452], [-7.4744985, 38.0457676], [-7.4744301, 38.0459566], [-7.4743871, 38.0461362], [-7.4743322, 38.0464066], [-7.474241, 38.0468353], [-7.4741203, 38.0474088], [-7.4739741, 38.0481196], [-7.4738601, 38.0486825], [-7.4737689, 38.0491165], [-7.4737193, 38.0493447], [-7.4737018, 38.0494587], [-7.4736884, 38.0495664], [-7.4736777, 38.0496763], [-7.4736804, 38.0497713], [-7.4736871, 38.0498621], [-7.4736951, 38.0499245], [-7.473722, 38.0500343], [-7.4737528, 38.050142], [-7.4737903, 38.0502413], [-7.4738427, 38.0503437], [-7.4739298, 38.0504852], [-7.4739794, 38.0505602], [-7.4740599, 38.050651], [-7.4741404, 38.0507376], [-7.4742544, 38.0508348], [-7.4744099, 38.050951], [-7.4745736, 38.0510439], [-7.4751543, 38.0513248], [-7.4753433, 38.0514283], [-7.4754694, 38.0515086], [-7.4755995, 38.0516078], [-7.4757256, 38.0517219], [-7.4758342, 38.0518381], [-7.475916, 38.0519437], [-7.4759763, 38.052045], [-7.4760461, 38.0521718], [-7.4760805, 38.0522497]]}, "properties": {"highway": "primary", "ref": "EN 255"}}, {"type": "Feature", "geometry": {"type": "LineString", "coordinates": [[-7.4746327, 38.0564836], [-7.4746214, 38.0565039], [-7.4745473, 38.056604], [-7.4744957, 38.0567015], [-7.4734742, 38.0581207], [-7.4733508, 38.0582905], [-7.4732238, 38.0584162], [-7.4730075, 38.0586069], [-7.4727921, 38.05875], [-7.4725823, 38.0588596], [-7.4723685, 38.0589413], [-7.4721469, 38.0589993], [-7.4718961, 38.059037], [-7.4717041, 38.0590559], [-7.4715646, 38.0590579], [-7.4714022, 38.05905], [-7.4711771, 38.0590207], [-7.4709903, 38.0589847], [-7.4707425, 38.058916], [-7.4702052, 38.0587607], [-7.4672649, 38.0579022], [-7.4663333, 38.0576364], [-7.4661651, 38.0575909], [-7.4659613, 38.0575548], [-7.4657642, 38.0575348], [-7.4656044, 38.0575259], [-7.4654229, 38.0575293], [-7.4651958, 38.0575558], [-7.465022, 38.0575898], [-7.4647818, 38.0576518], [-7.4645921, 38.0577299], [-7.4644412, 38.0578055], [-7.4642775, 38.057903], [-7.464144, 38.0579991], [-7.4639975, 38.0581281]]}, "properties": {"highway": "primary", "lane_markings": "yes", "ref": "EN 255", "smoothness": "excellent", "surface": "asphalt"}}, {"type": "Feature", "geometry": {"type": "LineString", "coordinates": [[-7.4761076, 38.0532112], [-7.4758236, 38.0538513], [-7.4751609, 38.0553345], [-7.4747093, 38.0563207], [-7.474705, 38.05633], [-7.4746455, 38.0564563], [-7.4746327, 38.0564836]]}, "properties": {"highway": "primary", "ref": "EN 255"}}, {"type": "Feature", "geometry": {"type": "LineString", "coordinates": [[-7.4761534, 38.0524844], [-7.4761882, 38.0526871], [-7.4761909, 38.0528645], [-7.4761587, 38.0530441], [-7.4761076, 38.0532112]]}, "properties": {"highway": "primary", "ref": "EN 255"}}, {"type": "Feature", "geometry": {"type": "LineString", "coordinates": [[-7.4760805, 38.0522497], [-7.4761534, 38.0524844]]}, "properties": {"bridge": "yes", "highway": "primary", "layer": "1", "ref": "EN 255"}}, {"type": "Feature", "geometry": {"type": "LineString", "coordinates": [[-7.4600969, 38.7916457], [-7.459729, 38.7913876], [-7.4592667, 38.7910633], [-7.4587575, 38.790706]]}, "properties": {"highway": "primary", "maxspeed": "70", "oneway": "yes", "ref": "EN 255"}}, {"type": "Feature", "geometry": {"type": "LineString", "coordinates": [[-7.4775062, 38.0161112], [-7.4774041, 38.016366], [-7.4773433, 38.0165123], [-7.477272, 38.0166316], [-7.4770403, 38.0169699], [-7.4767149, 38.0175754], [-7.4764601, 38.0180299], [-7.4763947, 38.0181257], [-7.4763312, 38.0181899], [-7.4762473, 38.0182601], [-7.4757994, 38.0186197], [-7.4753707, 38.0189565]]}, "properties": {"highway": "primary", "maxspeed": "50", "name": "Rua Dona Maria Vilhena Varela", "postal_code": "7830-270", "ref": "EN 255"}}, {"type": "Feature", "geometry": {"type": "LineString", "coordinates": [[-7.4799458, 38.0244932], [-7.4793086, 38.0256597], [-7.4786207, 38.0268845], [-7.4781199, 38.027709]]}, "properties": {"highway": "primary", "maxspeed": "50", "ref": "EN 255"}}, {"type": "Feature", "geometry": {"type": "LineString", "coordinates": [[-7.5897253, 37.9490851], [-7.5899572, 37.9489086], [-7.5900528, 37.9488373], [-7.5901422, 37.9487689], [-7.5901856, 37.94873], [-7.5902173, 37.9486935], [-7.5902411, 37.9486592], [-7.5902623, 37.9486182], [-7.5902684, 37.9485822], [-7.5902614, 37.9485522], [-7.5902485, 37.9485237]]}, "properties": {"highway": "primary", "oneway": "yes", "ref": "EN 255"}}, {"type": "Feature", "geometry": {"type": "LineString", "coordinates": [[-7.4070327, 38.7062212], [-7.4066198, 38.7067882]]}, "properties": {"highway": "primary", "maxspeed": "90", "ref": "EN 255"}}, {"type": "Feature", "geometry": {"type": "LineString", "coordinates": [[-7.4587575, 38.790706], [-7.4586775, 38.7906498]]}, "properties": {"highway": "primary", "oneway": "yes", "ref": "EN 255"}}, {"type": "Feature", "geometry": {"type": "LineString", "coordinates": [[-7.4586775, 38.7906498], [-7.4586448, 38.7906269], [-7.4585236, 38.7905428], [-7.458393, 38.7904521], [-7.4568813, 38.7894267], [-7.4562785, 38.7890564]]}, "properties": {"highway": "primary", "maxspeed": "90", "oneway": "yes", "ref": "EN 255"}}, {"type": "Feature", "geometry": {"type": "LineString", "coordinates": [[-7.4493554, 38.1353892], [-7.4490729, 38.1350996], [-7.4486765, 38.1347426], [-7.4483082, 38.1345223], [-7.4474614, 38.1341141]]}, "properties": {"highway": "primary", "ref": "EN 255"}}, {"type": "Feature", "geometry": {"type": "LineString", "coordinates": [[-7.4607369, 38.7921356], [-7.4604188, 38.7918716], [-7.4600969, 38.7916457]]}, "properties": {"highway": "primary", "oneway": "yes", "ref": "EN 255"}}, {"type": "Feature", "geometry": {"type": "LineString", "coordinates": [[-7.4755414, 38.8120513], [-7.4755914, 38.8119901], [-7.4756363, 38.8119353], [-7.4756755, 38.8118873], [-7.4757173, 38.8118362], [-7.4757703, 38.8117748], [-7.4758242, 38.8117125], [-7.4758873, 38.8116395], [-7.4759561, 38.8115598], [-7.4760289, 38.8114756], [-7.4761102, 38.8113748], [-7.4761952, 38.8112693], [-7.4762845, 38.8111586], [-7.4762979, 38.8111408]]}, "properties": {"highway": "primary", "ref": "EN 255"}}]}