{"type": "FeatureCollection", "features": [{"type": "Feature", "geometry": {"type": "LineString", "coordinates": [[-9.0650113, 38.9710465], [-9.0649722, 38.9708568], [-9.0649818, 38.9706114], [-9.0650191, 38.9699653], [-9.0650263, 38.9696667], [-9.0650089, 38.9695268], [-9.0649923, 38.9693769], [-9.0649518, 38.9692432], [-9.0649107, 38.9691041], [-9.0648641, 38.968976], [-9.0647938, 38.968818], [-9.0646504, 38.9685298], [-9.0645905, 38.9684094], [-9.0643088, 38.9677509], [-9.0641506, 38.9673413], [-9.0640967, 38.9671636], [-9.0640374, 38.9667805], [-9.0640127, 38.9665188], [-9.0639803, 38.9663532], [-9.0639307, 38.9662237], [-9.0638826, 38.9660731], [-9.0638212, 38.9659376], [-9.063693, 38.9656923], [-9.0635578, 38.9654475], [-9.0629565, 38.9648405], [-9.0625155, 38.9643768], [-9.0624535, 38.9643142]]}, "properties": {"highway": "primary", "name": "Estrada do Vale Encantado", "ref": "EN 248-3"}}, {"type": "Feature", "geometry": {"type": "LineString", "coordinates": [[-9.0614996, 38.9628353], [-9.0614748, 38.9627186], [-9.0613192, 38.9623976], [-9.0610921, 38.9619902], [-9.0609238, 38.9616821], [-9.0608375, 38.9615298], [-9.0607033, 38.9613923], [-9.0604264, 38.9610938], [-9.0596985, 38.960305], [-9.0594179, 38.960001], [-9.0593, 38.9598458]]}, "properties": {"highway": "primary", "lanes": "2", "maxspeed": "50", "name": "Estrada Nacional de A-do-Barriga", "oneway": "no", "ref": "EN 248-3", "surface": "asphalt"}}, {"type": "Feature", "geometry": {"type": "LineString", "coordinates": [[-9.0585869, 38.9583358], [-9.0585751, 38.9584607], [-9.0585832, 38.9585935], [-9.0586218, 38.9588227], [-9.0586684, 38.9589522], [-9.0587031, 38.9590692], [-9.0587682, 38.9592052], [-9.0588596, 38.9593601], [-9.0589244, 38.9594428], [-9.0589674, 38.9594976], [-9.0590893, 38.9596351], [-9.0593, 38.9598458]]}, "properties": {"highway": "primary", "maxspeed": "50", "name": "Estrada Nacional de A-do-Barriga", "oneway": "yes", "ref": "EN 248-3", "surface": "asphalt"}}, {"type": "Feature", "geometry": {"type": "LineString", "coordinates": [[-9.0344572, 38.9424242], [-9.0342915, 38.9424293], [-9.0338087, 38.9424293], [-9.0336994, 38.9424237], [-9.033576, 38.9424086], [-9.0334547, 38.9423845], [-9.0332419, 38.9423188], [-9.0325038, 38.9420832], [-9.0317662, 38.9418516], [-9.0312928, 38.9417087], [-9.0311899, 38.9416879], [-9.0310594, 38.9416722], [-9.0308891, 38.9416539], [-9.0308221, 38.9416454], [-9.0307496, 38.9416315], [-9.0306885, 38.941614], [-9.0306129, 38.9415853], [-9.0305438, 38.9415548], [-9.0302691, 38.9414283], [-9.0299195, 38.9412534], [-9.0298156, 38.9411944], [-9.0297592, 38.9411583], [-9.0295722, 38.940985], [-9.0291396, 38.940549], [-9.0289869, 38.9404146], [-9.0288907, 38.9403399], [-9.0286451, 38.9401712], [-9.0285375, 38.9400983], [-9.0284879, 38.9400551], [-9.0284393, 38.9400035], [-9.0283585, 38.9399008], [-9.0281294, 38.9395522], [-9.0280544, 38.9394496], [-9.0280098, 38.9393933], [-9.0279102, 38.9392923], [-9.0278187, 38.9392167], [-9.0276504, 38.9390914], [-9.027054, 38.9386512], [-9.0263212, 38.9381334], [-9.0257733, 38.9377648], [-9.0256974, 38.9377169], [-9.0255535, 38.937628], [-9.025404, 38.9375466], [-9.0251781, 38.9374461], [-9.0250251, 38.937374], [-9.0249162, 38.9373137], [-9.0248605, 38.9372784], [-9.0247817, 38.9372191], [-9.0247174, 38.9371575], [-9.024601, 38.9370305], [-9.0243614, 38.9367672], [-9.0239471, 38.9362661], [-9.0237919, 38.9360766], [-9.0236698, 38.935927], [-9.0236127, 38.935857], [-9.0230692, 38.9351858], [-9.022871, 38.9349505], [-9.0226615, 38.9347018], [-9.0224791, 38.9344263], [-9.0223493, 38.9341096], [-9.0223175, 38.9340475], [-9.0222796, 38.9339868], [-9.0221357, 38.9337921], [-9.0219674, 38.9336343], [-9.0218605, 38.9335379], [-9.0217897, 38.9334816], [-9.0217126, 38.9334289], [-9.0216439, 38.9333915], [-9.0215785, 38.9333624], [-9.0214984, 38.9333329], [-9.0214263, 38.9333136], [-9.0213451, 38.9332957], [-9.0212278, 38.9332779], [-9.0211197, 38.933268], [-9.0210468, 38.9332685], [-9.020971, 38.9332753], [-9.020851, 38.9332852], [-9.0206988, 38.9332913], [-9.0206129, 38.933291], [-9.0205023, 38.9332795], [-9.0203514, 38.9332486], [-9.0201683, 38.9331929], [-9.0200229, 38.9331385], [-9.0199343, 38.9330954], [-9.019831, 38.9330291], [-9.0196788, 38.9329074], [-9.0195977, 38.9328345], [-9.0194928, 38.9327319]]}, "properties": {"highway": "primary", "lanes": "2", "ref": "EN 248-3", "surface": "asphalt"}}, {"type": "Feature", "geometry": {"type": "LineString", "coordinates": [[-9.0593, 38.9598458], [-9.0590551, 38.9595234], [-9.0589833, 38.9594109], [-9.0589119, 38.9592989], [-9.0588426, 38.9591902], [-9.0587877, 38.9590794], [-9.0587292, 38.9589116], [-9.0586873, 38.9587917], [-9.0586046, 38.9584693], [-9.0585869, 38.9583358]]}, "properties": {"highway": "primary", "maxspeed": "50", "name": "Estrada Nacional de A-do-Barriga", "oneway": "yes", "ref": "EN 248-3", "surface": "asphalt"}}, {"type": "Feature", "geometry": {"type": "LineString", "coordinates": [[-9.0585869, 38.9583358], [-9.0586233, 38.9577727], [-9.0587051, 38.9566161], [-9.0587196, 38.9564032], [-9.0588014, 38.9551985], [-9.0588071, 38.9551144], [-9.0588527, 38.9545335]]}, "properties": {"highway": "primary", "lanes": "2", "maxspeed": "50", "name": "Estrada Nacional de A-do-Barriga", "oneway": "no", "ref": "EN 248-3", "surface": "asphalt"}}, {"type": "Feature", "geometry": {"type": "LineString", "coordinates": [[-9.0624535, 38.9643142], [-9.0623862, 38.9642462], [-9.0622835, 38.9641111], [-9.0621237, 38.963904], [-9.0620593, 38.963821], [-9.0620253, 38.9637822], [-9.0619643, 38.9637126]]}, "properties": {"highway": "primary", "name": "Estrada Nacional de A-do-Barriga", "ref": "EN 248-3"}}, {"type": "Feature", "geometry": {"type": "LineString", "coordinates": [[-9.0171804, 38.9311351], [-9.0171909, 38.9311541], [-9.0172086, 38.9311697], [-9.0172317, 38.9311802], [-9.0172602, 38.9311846], [-9.0172889, 38.9311813], [-9.0173145, 38.9311705], [-9.0173339, 38.9311537]]}, "properties": {"highway": "primary", "ref": "EN 248-3", "surface": "asphalt"}}, {"type": "Feature", "geometry": {"type": "LineString", "coordinates": [[-9.016622, 38.9309355], [-9.0162543, 38.9308383], [-9.0159559, 38.9307458], [-9.0144713, 38.9303355], [-9.0143439, 38.9302984], [-9.0141119, 38.9302337], [-9.0137891, 38.9301422]]}, "properties": {"highway": "primary", "ref": "EN 248-3", "surface": "asphalt"}}, {"type": "Feature", "geometry": {"type": "LineString", "coordinates": [[-9.0588527, 38.9545335], [-9.0588379, 38.9543103], [-9.0588092, 38.9541841], [-9.0587336, 38.9538519], [-9.0586408, 38.9534437], [-9.0585703, 38.9531264], [-9.0583244, 38.9521973], [-9.058174, 38.951889], [-9.0576643, 38.9512157]]}, "properties": {"highway": "primary", "ref": "EN 248-3", "surface": "asphalt"}}, {"type": "Feature", "geometry": {"type": "LineString", "coordinates": [[-9.0173339, 38.9311537], [-9.0173452, 38.9311313], [-9.0173453, 38.9311175], [-9.0173454, 38.9311072], [-9.0173344, 38.9310847], [-9.0173138, 38.9310668], [-9.0172862, 38.9310559]]}, "properties": {"highway": "primary", "ref": "EN 248-3", "surface": "asphalt"}}, {"type": "Feature", "geometry": {"type": "LineString", "coordinates": [[-9.0185018, 38.931791], [-9.0184464, 38.9317416], [-9.0183454, 38.931658], [-9.0183042, 38.9316239], [-9.0181493, 38.9315154], [-9.0179783, 38.9314161], [-9.0177421, 38.931309], [-9.0176577, 38.9312747], [-9.0175183, 38.9312181], [-9.0173896, 38.9311706], [-9.0173339, 38.9311537]]}, "properties": {"highway": "primary", "ref": "EN 248-3", "surface": "asphalt"}}, {"type": "Feature", "geometry": {"type": "LineString", "coordinates": [[-9.0426945, 38.9473691], [-9.0423422, 38.9471242], [-9.0422042, 38.9470317], [-9.0418319, 38.9467802], [-9.0407763, 38.9460743], [-9.0397426, 38.9453831], [-9.0384047, 38.9444843], [-9.0376484, 38.9439957], [-9.0373131, 38.9437768], [-9.0368778, 38.9434861], [-9.0363179, 38.9431085], [-9.0359706, 38.9428816], [-9.0355897, 38.9426713], [-9.0352765, 38.9425035], [-9.0351733, 38.9424508], [-9.0350848, 38.9424241], [-9.0349674, 38.9424102], [-9.03484, 38.9424089], [-9.0344572, 38.9424242]]}, "properties": {"highway": "primary", "lanes": "2", "ref": "EN 248-3", "surface": "asphalt"}}, {"type": "Feature", "geometry": {"type": "LineString", "coordinates": [[-9.0576643, 38.9512157], [-9.0568537, 38.9501644], [-9.0561671, 38.9492466], [-9.0556628, 38.9486041], [-9.0555198, 38.9484165], [-9.055434, 38.9483112], [-9.0553469, 38.9482282], [-9.0552972, 38.9481938], [-9.0552181, 38.9481516], [-9.055147, 38.9481212], [-9.0533352, 38.9475444], [-9.0530187, 38.9474735], [-9.0529684, 38.9474663], [-9.0527384, 38.9474532], [-9.052157, 38.9474329], [-9.0518553, 38.9474293], [-9.0515924, 38.9474397], [-9.051426, 38.9474467], [-9.0513131, 38.9474569], [-9.0511116, 38.9474872], [-9.0509306, 38.9475258], [-9.050748, 38.9475744], [-9.0499771, 38.9478198], [-9.0497015, 38.9479091], [-9.0496002, 38.9479362], [-9.0495385, 38.9479471], [-9.0494641, 38.9479512], [-9.0493903, 38.9479492], [-9.0493018, 38.9479398], [-9.0491295, 38.947911], [-9.0487915, 38.9478501], [-9.0486225, 38.9478236], [-9.0485374, 38.9478152], [-9.0484556, 38.9478093], [-9.0483195, 38.9478084], [-9.0481525, 38.9478168], [-9.0477307, 38.9478432], [-9.0475094, 38.9478637], [-9.0472734, 38.947896], [-9.0469005, 38.9479596], [-9.0467906, 38.9479783], [-9.0455032, 38.9482203], [-9.0447876, 38.9483511], [-9.044624, 38.9483805], [-9.044498, 38.9483912], [-9.0444195, 38.9483909], [-9.0443263, 38.9483784], [-9.0442378, 38.9483595], [-9.0441426, 38.9483273], [-9.0440655, 38.9482872], [-9.0439971, 38.9482479], [-9.0438133, 38.9481307], [-9.0433453, 38.9478131], [-9.0426945, 38.9473691]]}, "properties": {"highway": "primary", "lanes": "2", "ref": "EN 248-3", "surface": "asphalt"}}, {"type": "Feature", "geometry": {"type": "LineString", "coordinates": [[-9.0130265, 38.9299221], [-9.0126029, 38.9298073]]}, "properties": {"highway": "primary", "lanes": "2", "ref": "EN 248-3", "surface": "asphalt"}}, {"type": "Feature", "geometry": {"type": "LineString", "coordinates": [[-9.0126029, 38.9298073], [-9.0122053, 38.9296995], [-9.012001, 38.9296683], [-9.0118072, 38.9296305], [-9.0114606, 38.9295774], [-9.0112833, 38.929483], [-9.0111921, 38.9294228], [-9.0110721, 38.9293437], [-9.0108765, 38.9292146], [-9.0108283, 38.9291828]]}, "properties": {"highway": "primary", "lanes": "2", "ref": "EN 248-3", "surface": "asphalt"}}, {"type": "Feature", "geometry": {"type": "LineString", "coordinates": [[-9.0188562, 38.9321075], [-9.018581, 38.9318617], [-9.0185018, 38.931791]]}, "properties": {"highway": "primary", "ref": "EN 248-3", "surface": "asphalt"}}, {"type": "Feature", "geometry": {"type": "LineString", "coordinates": [[-9.0172862, 38.9310559], [-9.0172555, 38.9310534], [-9.0172256, 38.9310597], [-9.0172006, 38.9310739], [-9.017184, 38.9310942]]}, "properties": {"highway": "primary", "ref": "EN 248-3", "surface": "asphalt"}}, {"type": "Feature", "geometry": {"type": "LineString", "coordinates": [[-9.017184, 38.9310942], [-9.0171779, 38.9311144], [-9.0171804, 38.9311351]]}, "properties": {"highway": "primary", "ref": "EN 248-3", "surface": "asphalt"}}, {"type": "Feature", "geometry": {"type": "LineString", "coordinates": [[-9.017184, 38.9310942], [-9.0171019, 38.9310621], [-9.017005, 38.9310362], [-9.016713, 38.930958], [-9.016622, 38.9309355]]}, "properties": {"highway": "primary", "ref": "EN 248-3", "surface": "asphalt"}}, {"type": "Feature", "geometry": {"type": "LineString", "coordinates": [[-9.0137891, 38.9301422], [-9.0131413, 38.9299552], [-9.0130265, 38.9299221]]}, "properties": {"highway": "primary", "lanes": "2", "ref": "EN 248-3", "surface": "asphalt"}}, {"type": "Feature", "geometry": {"type": "LineString", "coordinates": [[-9.0190734, 38.9323037], [-9.0188562, 38.9321075]]}, "properties": {"highway": "primary", "lanes": "2", "ref": "EN 248-3", "surface": "asphalt"}}, {"type": "Feature", "geometry": {"type": "LineString", "coordinates": [[-9.0194928, 38.9327319], [-9.0192001, 38.9324193], [-9.0190734, 38.9323037]]}, "properties": {"highway": "primary", "lanes": "2", "ref": "EN 248-3", "surface": "asphalt"}}]}