{"type": "FeatureCollection", "features": [{"type": "Feature", "geometry": {"type": "LineString", "coordinates": [[-8.93867, 38.679813], [-8.9389268, 38.6801159], [-8.9390334, 38.6802467], [-8.9391634, 38.6804002], [-8.9392034, 38.6804474], [-8.9392509, 38.6805035], [-8.9392611, 38.6805155], [-8.9392743, 38.6805311], [-8.9392801, 38.6805379], [-8.9393287, 38.6805954], [-8.9393568, 38.6806285], [-8.9394415, 38.6807286], [-8.9395245, 38.6808223], [-8.9399722, 38.681354], [-8.9404907, 38.6819769], [-8.9405471, 38.682045], [-8.9407202, 38.6822502], [-8.9408692, 38.6824421], [-8.9409109, 38.6824969], [-8.9409636, 38.6825661], [-8.9410328, 38.6826532], [-8.9411015, 38.6827374], [-8.9411619, 38.6828089], [-8.9412627, 38.6829285], [-8.9413474, 38.6830273], [-8.9413654, 38.6830491], [-8.9413769, 38.683063], [-8.9414566, 38.6831505]]}, "properties": {"highway": "primary", "lanes": "2", "lit": "no", "maxheight": "default", "maxspeed": "50", "ref": "EN 252", "surface": "asphalt"}}, {"type": "Feature", "geometry": {"type": "LineString", "coordinates": [[-8.9182748, 38.6238209], [-8.9183197, 38.6239463], [-8.9183255, 38.6240018], [-8.9183212, 38.624054], [-8.9183099, 38.6241401], [-8.9181967, 38.6249139], [-8.9180295, 38.626078], [-8.9179606, 38.6265577], [-8.9178927, 38.6270504], [-8.9178827, 38.6270875], [-8.9178608, 38.6271534], [-8.9178415, 38.6271844], [-8.9177974, 38.6272551]]}, "properties": {"highway": "primary", "maxspeed": "50", "name": "Avenida dos Ferrovi\u00e1rios", "oneway": "yes", "postal_code": "2955-409", "ref": "EN 252", "surface": "asphalt"}}, {"type": "Feature", "geometry": {"type": "LineString", "coordinates": [[-8.9177924, 38.630524], [-8.9178193, 38.6303824], [-8.9178352, 38.6302827], [-8.9178448, 38.6302115], [-8.9178507, 38.6301434], [-8.9178531, 38.6300871], [-8.917854, 38.630015], [-8.9178522, 38.6299596], [-8.9178493, 38.6299134], [-8.9178434, 38.6298532], [-8.9178357, 38.6297914], [-8.9177883, 38.6294889]]}, "properties": {"bridge": "viaduct", "highway": "primary", "lanes": "2", "layer": "1", "lit": "yes", "maxspeed": "50", "maxweight:signed": "no", "name": "Avenida dos Ferrovi\u00e1rios", "postal_code": "2955-409", "ref": "EN 252", "sidewalk": "both", "sidewalk:both:surface": "paving_stones", "smoothness": "good", "surface": "asphalt"}}, {"type": "Feature", "geometry": {"type": "LineString", "coordinates": [[-8.918037, 38.6272743], [-8.9180077, 38.6271948], [-8.9179949, 38.6271382], [-8.9179941, 38.6270955], [-8.9179998, 38.6270275], [-8.91807, 38.6265639], [-8.918138, 38.6260889], [-8.9183047, 38.6249246], [-8.9184165, 38.6241483], [-8.9184262, 38.6240775], [-8.9184382, 38.624017], [-8.9184594, 38.6239608], [-8.9185411, 38.623852]]}, "properties": {"highway": "primary", "maxspeed": "50", "name": "Avenida dos Ferrovi\u00e1rios", "oneway": "yes", "postal_code": "2955-409", "ref": "EN 252", "surface": "asphalt"}}, {"type": "Feature", "geometry": {"type": "LineString", "coordinates": [[-8.9179676, 38.6275979], [-8.9180253, 38.6275771], [-8.9180738, 38.627545], [-8.9181094, 38.6275038], [-8.9181304, 38.6274534], [-8.9181321, 38.6274005], [-8.9181142, 38.6273493], [-8.9180821, 38.6273078], [-8.918037, 38.6272743]]}, "properties": {"highway": "primary", "junction": "roundabout", "lit": "yes", "maxspeed": "50", "name": "Avenida dos Ferrovi\u00e1rios", "postal_code": "2955-409", "ref": "EN 252", "surface": "asphalt"}}, {"type": "Feature", "geometry": {"type": "LineString", "coordinates": [[-8.9177883, 38.6294889], [-8.9177619, 38.6293326], [-8.9177475, 38.6292393], [-8.9177348, 38.6291449], [-8.9177255, 38.6290649], [-8.9177193, 38.6289999], [-8.9177147, 38.6289228], [-8.9177124, 38.6288524], [-8.9177108, 38.6287691], [-8.9177123, 38.6286937], [-8.9177175, 38.6285932], [-8.9177242, 38.6285114], [-8.917731, 38.6284416], [-8.9177382, 38.6283824], [-8.9177492, 38.6283196]]}, "properties": {"highway": "primary", "lanes": "2", "lit": "yes", "maxspeed": "50", "name": "Avenida dos Ferrovi\u00e1rios", "postal_code": "2955-409", "ref": "EN 252", "surface": "asphalt"}}, {"type": "Feature", "geometry": {"type": "LineString", "coordinates": [[-8.9176494, 38.6312492], [-8.9176177, 38.631263], [-8.9175913, 38.6312824], [-8.9175718, 38.6313062], [-8.9175604, 38.6313331]]}, "properties": {"highway": "primary", "junction": "roundabout", "lanes": "2", "lit": "yes", "maxspeed": "50", "ref": "EN 252", "surface": "asphalt"}}, {"type": "Feature", "geometry": {"type": "LineString", "coordinates": [[-8.917791, 38.6312629], [-8.9177687, 38.6311668], [-8.9177336, 38.631016]]}, "properties": {"highway": "primary", "lanes": "1", "lit": "yes", "maxspeed": "50", "name": "Avenida dos Ferrovi\u00e1rios", "oneway": "yes", "postal_code": "2955-409", "ref": "EN 252", "surface": "asphalt"}}, {"type": "Feature", "geometry": {"type": "LineString", "coordinates": [[-8.9183243, 38.6235544], [-8.9182784, 38.623581], [-8.918243, 38.623616], [-8.9182204, 38.6236564], [-8.9182119, 38.6236999], [-8.9182178, 38.6237437], [-8.918239, 38.6237866], [-8.9182748, 38.6238209]]}, "properties": {"highway": "primary", "junction": "roundabout", "lit": "yes", "maxspeed": "50", "name": "Avenida dos Ferrovi\u00e1rios", "postal_code": "2955-409", "ref": "EN 252", "surface": "asphalt"}}, {"type": "Feature", "geometry": {"type": "LineString", "coordinates": [[-8.9176866, 38.6179845], [-8.9176299, 38.6180021], [-8.9175818, 38.6180314], [-8.9175462, 38.6180701], [-8.9175258, 38.618115], [-8.9175224, 38.6181626], [-8.9175361, 38.618209]]}, "properties": {"highway": "primary", "junction": "roundabout", "maxspeed": "50", "ref": "EN 252", "surface": "asphalt"}}, {"type": "Feature", "geometry": {"type": "LineString", "coordinates": [[-8.9178345, 38.6182985], [-8.9180047, 38.6183271], [-8.9181165, 38.6183592], [-8.9183093, 38.6184628], [-8.918449, 38.6185455], [-8.9185263, 38.6185993], [-8.9187191, 38.6187877], [-8.9188396, 38.6189572], [-8.9189541, 38.6191926], [-8.9189903, 38.6193997], [-8.9189636, 38.6196119], [-8.9189541, 38.6196869], [-8.9188255, 38.6205961], [-8.918731, 38.621264], [-8.9187005, 38.6214796], [-8.9185607, 38.6224681], [-8.9184496, 38.62325], [-8.9184394, 38.6233256], [-8.9183831, 38.6234455], [-8.9183243, 38.6235544]]}, "properties": {"highway": "primary", "maxspeed": "50", "name": "Avenida dos Ferrovi\u00e1rios", "oneway": "yes", "postal_code": "2955-409", "ref": "EN 252", "surface": "asphalt"}}, {"type": "Feature", "geometry": {"type": "LineString", "coordinates": [[-8.9188282, 38.6212762], [-8.9190495, 38.6196897], [-8.9190686, 38.6194044], [-8.9190445, 38.6191737], [-8.918936, 38.6189242], [-8.9188155, 38.6187547], [-8.9187377, 38.618659], [-8.9186317, 38.6185666], [-8.9185262, 38.6184863], [-8.918398, 38.6184027], [-8.9182181, 38.6183147], [-8.9181116, 38.6182606], [-8.918079, 38.6182379], [-8.9179527, 38.6181502]]}, "properties": {"highway": "primary", "maxspeed": "50", "name": "Avenida dos Ferrovi\u00e1rios", "oneway": "yes", "postal_code": "2955-409", "ref": "EN 252", "surface": "asphalt"}}, {"type": "Feature", "geometry": {"type": "LineString", "coordinates": [[-8.9156953, 38.6204375], [-8.9157379, 38.6204616], [-8.9157879, 38.6204741], [-8.9158404, 38.6204739], [-8.9158903, 38.6204609], [-8.9159325, 38.6204365], [-8.9159629, 38.620403]]}, "properties": {"highway": "primary", "junction": "roundabout", "ref": "EN 252", "surface": "asphalt"}}, {"type": "Feature", "geometry": {"type": "LineString", "coordinates": [[-8.8902845, 38.5841283], [-8.8902856, 38.5840373], [-8.8902767, 38.5839237], [-8.8902257, 38.5836886]]}, "properties": {"highway": "primary", "lanes": "1", "lit": "yes", "maxspeed": "40", "name": "Avenida Alberto Valente", "oneway": "yes", "ref": "EN 252", "surface": "asphalt"}}, {"type": "Feature", "geometry": {"type": "LineString", "coordinates": [[-8.8902269, 38.5771291], [-8.8902121, 38.5774872], [-8.8902107, 38.577619], [-8.8902077, 38.5790269], [-8.8902078, 38.5790728], [-8.8902081, 38.5791724], [-8.8902085, 38.5793171], [-8.8902095, 38.5801329]]}, "properties": {"highway": "primary", "lanes": "2", "lit": "yes", "maxspeed": "60", "name": "Avenida Alberto Valente", "oneway": "no", "ref": "EN 252", "surface": "asphalt"}}, {"type": "Feature", "geometry": {"type": "LineString", "coordinates": [[-8.8902257, 38.5836886], [-8.8901895, 38.583914], [-8.8901462, 38.5840089], [-8.8900801, 38.5840707], [-8.8900362, 38.5840949]]}, "properties": {"highway": "primary", "lanes": "1", "lit": "yes", "maxspeed": "40", "name": "Avenida Alberto Valente", "oneway": "yes", "ref": "EN 252", "surface": "asphalt"}}, {"type": "Feature", "geometry": {"type": "LineString", "coordinates": [[-8.8909547, 38.5852109], [-8.8910111, 38.5852323], [-8.8910505, 38.5852426], [-8.89107, 38.5852448], [-8.8911018, 38.5852467], [-8.8911383, 38.5852439], [-8.891174, 38.5852395], [-8.8912025, 38.5852329], [-8.891241, 38.5852173]]}, "properties": {"highway": "primary", "junction": "roundabout", "lanes": "2", "lit": "yes", "maxspeed": "40", "ref": "EN 252", "surface": "asphalt"}}, {"type": "Feature", "geometry": {"type": "LineString", "coordinates": [[-8.9163399, 38.6314705], [-8.9164984, 38.6314658], [-8.916642, 38.6314616], [-8.9170021, 38.6314529], [-8.9170417, 38.6314506], [-8.9172308, 38.6314398], [-8.9172614, 38.6314381]]}, "properties": {"highway": "primary", "lit": "yes", "maxspeed": "50", "name": "Rua Luis de Cam\u00f5es", "postal_code": "2955-205", "ref": "EN 252", "surface": "asphalt"}}, {"type": "Feature", "geometry": {"type": "LineString", "coordinates": [[-8.934437, 38.6748091], [-8.9341294, 38.6744417], [-8.9337728, 38.6740116], [-8.9329106, 38.6729891], [-8.932722, 38.6727666], [-8.932528, 38.6725298], [-8.93229, 38.6722466], [-8.9320046, 38.6719054], [-8.9318755, 38.6717511], [-8.931715, 38.6715593]]}, "properties": {"highway": "primary", "lanes": "2", "maxspeed": "70", "ref": "EN 252", "surface": "asphalt"}}, {"type": "Feature", "geometry": {"type": "LineString", "coordinates": [[-8.9414566, 38.6831505], [-8.9415625, 38.6832864], [-8.9416312, 38.6833717], [-8.9419271, 38.6837515]]}, "properties": {"foot": "yes", "highway": "primary", "lanes": "1", "lit": "yes", "maxspeed": "50", "oneway": "yes", "ref": "EN 252", "sidewalk": "no", "surface": "asphalt"}}, {"type": "Feature", "geometry": {"type": "LineString", "coordinates": [[-8.8845215, 38.5359139], [-8.8846368, 38.5362866], [-8.8846859, 38.5364361]]}, "properties": {"highway": "primary", "lanes": "3", "maxspeed": "40", "name": "Avenida dos Ciprestes", "oneway": "yes", "postal_code": "2900-322;2900-319;2900-320;2900-314;2900-317;2900-315;2900-316", "postal_code:description": "2900-322:VV Jfv;2900-319:Impares de 1 a 23C;2900-320:Impares de 25 a 63B;2900-322:Impares de 71 a 151C;2900-314:Pares de 10 a 66;2900-317:Pares de 140 a 154;2900-315:Pares de 68 a 80;2900-316:Pares de 84 a 136;2900-322:Quinta Galroas", "ref": "EN 252", "surface": "asphalt", "turn:lanes": "left|through;left|through"}}, {"type": "Feature", "geometry": {"type": "LineString", "coordinates": [[-8.8882108, 38.5705712], [-8.8881929, 38.5704959], [-8.8881772, 38.5704296], [-8.8881108, 38.5701492], [-8.8880142, 38.5697417], [-8.8879636, 38.5694832], [-8.8879767, 38.5692462], [-8.8879819, 38.5688675], [-8.8879891, 38.5683476], [-8.8879774, 38.5678331], [-8.8879748, 38.5676543], [-8.8879672, 38.5672585], [-8.887931, 38.5669906], [-8.8878765, 38.5667176], [-8.8878391, 38.5665702], [-8.8877787, 38.5663337]]}, "properties": {"highway": "primary", "lanes": "2", "lit": "yes", "maxspeed": "50", "maxspeed:type": "sign", "name": "Avenida Antoine Velge", "ref": "EN 252", "surface": "asphalt"}}, {"type": "Feature", "geometry": {"type": "LineString", "coordinates": [[-8.9175604, 38.6313331], [-8.9174474, 38.6313728], [-8.9172614, 38.6314381]]}, "properties": {"highway": "primary", "lanes": "1", "lit": "yes", "maxspeed": "50", "oneway": "yes", "ref": "EN 252", "surface": "asphalt"}}, {"type": "Feature", "geometry": {"type": "LineString", "coordinates": [[-8.9172614, 38.6314381], [-8.9174749, 38.6314313], [-8.9175579, 38.6314307], [-8.917608, 38.6314423]]}, "properties": {"highway": "primary", "lanes": "1", "lit": "yes", "maxspeed": "50", "oneway": "yes", "ref": "EN 252", "surface": "asphalt"}}, {"type": "Feature", "geometry": {"type": "LineString", "coordinates": [[-8.9177336, 38.631016], [-8.917732, 38.6309772], [-8.9177315, 38.6309658], [-8.9177344, 38.6309031], [-8.9177451, 38.630826], [-8.9177596, 38.6307315], [-8.9177804, 38.6306096], [-8.9177924, 38.630524]]}, "properties": {"highway": "primary", "lanes": "2", "lit": "yes", "maxspeed": "50", "name": "Avenida dos Ferrovi\u00e1rios", "postal_code": "2955-409", "ref": "EN 252", "surface": "asphalt"}}, {"type": "Feature", "geometry": {"type": "LineString", "coordinates": [[-8.9177336, 38.631016], [-8.9176978, 38.6311135], [-8.9176795, 38.6311704], [-8.9176734, 38.6311892], [-8.9176494, 38.6312492]]}, "properties": {"highway": "primary", "lanes": "1", "lit": "yes", "maxspeed": "50", "name": "Avenida dos Ferrovi\u00e1rios", "oneway": "yes", "postal_code": "2955-409", "ref": "EN 252", "surface": "asphalt"}}, {"type": "Feature", "geometry": {"type": "LineString", "coordinates": [[-8.9421541, 38.6839213], [-8.9420807, 38.6838344], [-8.9418503, 38.6835616], [-8.9416062, 38.6832909], [-8.9414566, 38.6831505]]}, "properties": {"highway": "primary", "lanes": "1", "lit": "yes", "maxspeed": "50", "maxspeed:type": "sign", "oneway": "yes", "ref": "EN 252", "surface": "asphalt"}}, {"type": "Feature", "geometry": {"type": "LineString", "coordinates": [[-8.9161914, 38.6200998], [-8.9162357, 38.6200483], [-8.9166411, 38.6195768], [-8.9167551, 38.6194154], [-8.9167989, 38.619362]]}, "properties": {"highway": "primary", "lanes": "2", "maxspeed": "50", "name": "Rua das Flores", "postal_code": "2955-263", "ref": "EN 252", "surface": "asphalt"}}, {"type": "Feature", "geometry": {"type": "LineString", "coordinates": [[-8.9167989, 38.619362], [-8.9168451, 38.619327], [-8.9168884, 38.6192986], [-8.9169236, 38.6192765], [-8.9169558, 38.6192557], [-8.9169819, 38.6192365], [-8.9170008, 38.6192205], [-8.9170151, 38.6192071], [-8.9170282, 38.6191926], [-8.9170424, 38.6191762], [-8.9170596, 38.6191538], [-8.9170978, 38.6191024], [-8.9171178, 38.6190737], [-8.9171793, 38.6189855], [-8.9172095, 38.6189436], [-8.9172795, 38.6188466], [-8.9173669, 38.6187097], [-8.9174147, 38.6186338], [-8.9174621, 38.6185588], [-8.9175208, 38.6184796], [-8.9175445, 38.6184489], [-8.9175606, 38.6184305], [-8.9175785, 38.6184126], [-8.9176033, 38.6183927], [-8.9176273, 38.6183774], [-8.9176523, 38.6183638], [-8.9177564, 38.6183159]]}, "properties": {"highway": "primary", "maxspeed": "50", "name": "Rua das Flores", "oneway": "yes", "postal_code": "2955-263", "ref": "EN 252", "surface": "asphalt"}}, {"type": "Feature", "geometry": {"type": "LineString", "coordinates": [[-8.8912216, 38.5886462], [-8.8913282, 38.5888403], [-8.8914544, 38.5890344], [-8.8915015, 38.5890958], [-8.8915588, 38.5891575], [-8.8916448, 38.5892402], [-8.8917465, 38.5893317], [-8.8918403, 38.5894146], [-8.8926002, 38.5900741], [-8.892705, 38.5901772], [-8.8927886, 38.5902704], [-8.892863, 38.5903657], [-8.8929302, 38.5904582], [-8.892986, 38.59055], [-8.8930377, 38.5906417], [-8.8930673, 38.5907084], [-8.8930885, 38.5907634], [-8.8931293, 38.590857], [-8.8933677, 38.5914129]]}, "properties": {"highway": "primary", "lanes": "2", "maxspeed": "90", "ref": "EN 252", "surface": "asphalt"}}, {"type": "Feature", "geometry": {"type": "LineString", "coordinates": [[-8.9156369, 38.6201027], [-8.9156517, 38.6202266], [-8.9156556, 38.6203021]]}, "properties": {"highway": "primary", "lanes": "1", "oneway": "yes", "ref": "EN 252", "surface": "asphalt"}}, {"type": "Feature", "geometry": {"type": "LineString", "coordinates": [[-8.9146791, 38.6372033], [-8.9146669, 38.6368432], [-8.9146496, 38.636305], [-8.9146048, 38.6352506]]}, "properties": {"highway": "primary", "lanes": "2", "lit": "yes", "maxspeed": "50", "name": "Avenida Alexandre Herculano", "postal_code": "2955-112", "ref": "EN 252", "surface": "asphalt"}}, {"type": "Feature", "geometry": {"type": "LineString", "coordinates": [[-8.9147106, 38.6381414], [-8.9147009, 38.6382331], [-8.914694, 38.6382882], [-8.9146886, 38.6383364], [-8.9146841, 38.6383822], [-8.914681, 38.6384312], [-8.9146772, 38.6385017], [-8.9146721, 38.6386227], [-8.9146669, 38.6388174], [-8.9146639, 38.6389768], [-8.9146627, 38.63914], [-8.9146676, 38.6393421], [-8.9146752, 38.6395889], [-8.9146816, 38.6397983], [-8.9146899, 38.6401073], [-8.9146941, 38.6402399], [-8.9147012, 38.6403793], [-8.9147112, 38.6405154], [-8.9147208, 38.6406304], [-8.9147276, 38.6407568], [-8.9147605, 38.6408929], [-8.9147756, 38.6409652], [-8.9147876, 38.6410223], [-8.9148064, 38.6411145]]}, "properties": {"highway": "primary", "maxspeed": "50", "name": "Avenida Alexandre Herculano", "oneway": "yes", "postal_code": "2955-112", "ref": "EN 252", "surface": "asphalt"}}, {"type": "Feature", "geometry": {"type": "LineString", "coordinates": [[-8.9148064, 38.6411145], [-8.914813, 38.6410419], [-8.9148159, 38.6409998], [-8.9148172, 38.6409655], [-8.9148178, 38.6409485], [-8.9148186, 38.6409022], [-8.9148185, 38.6408592], [-8.914817, 38.6408061], [-8.9148156, 38.6407528], [-8.9148146, 38.6407129], [-8.9148127, 38.6406425], [-8.9148117, 38.6405661], [-8.9148101, 38.6404759], [-8.9148066, 38.6403888], [-8.9147984, 38.6402115], [-8.9147832, 38.6397379], [-8.9147784, 38.6395881], [-8.9147738, 38.6394373], [-8.9147612, 38.6390561], [-8.9147466, 38.6386239], [-8.9147438, 38.6385518], [-8.9147416, 38.6385105], [-8.9147392, 38.6384732], [-8.914737, 38.6384397], [-8.9147296, 38.6383648], [-8.9147231, 38.6382917], [-8.9147106, 38.6381414]]}, "properties": {"highway": "primary", "maxspeed": "50", "name": "Avenida Alexandre Herculano", "oneway": "yes", "postal_code": "2955-112", "ref": "EN 252", "surface": "asphalt"}}, {"type": "Feature", "geometry": {"type": "LineString", "coordinates": [[-8.8901851, 38.5769368], [-8.890208, 38.5770163], [-8.8902149, 38.5770401], [-8.8902269, 38.5771291]]}, "properties": {"highway": "primary", "lit": "yes", "maxspeed": "50", "name": "Avenida Alberto Valente", "oneway": "yes", "ref": "EN 252", "surface": "asphalt"}}, {"type": "Feature", "geometry": {"type": "LineString", "coordinates": [[-8.8910222, 38.5848832], [-8.8908466, 38.5847968], [-8.8907077, 38.584706], [-8.8905657, 38.5845688], [-8.8904367, 38.5844215], [-8.8903864, 38.5843319], [-8.8903338, 38.5842022], [-8.8902845, 38.5841283]]}, "properties": {"highway": "primary", "junction": "roundabout", "maxspeed": "40", "ref": "EN 252", "surface": "asphalt"}}, {"type": "Feature", "geometry": {"type": "LineString", "coordinates": [[-8.891241, 38.5852173], [-8.8912588, 38.5852011], [-8.8912824, 38.5851754], [-8.8912969, 38.5851475], [-8.8913023, 38.5851169], [-8.8913139, 38.585051], [-8.8912652, 38.584982], [-8.8911632, 38.5849356], [-8.8910222, 38.5848832]]}, "properties": {"highway": "primary", "junction": "roundabout", "lanes": "3", "lit": "yes", "maxspeed": "40", "ref": "EN 252", "surface": "asphalt"}}, {"type": "Feature", "geometry": {"type": "LineString", "coordinates": [[-8.8936382, 38.5921947], [-8.8937156, 38.5922794], [-8.8937813, 38.5923559], [-8.8940122, 38.5929242], [-8.894085, 38.5930817], [-8.8941028, 38.593123], [-8.8941689, 38.5932774], [-8.8941869, 38.5933195], [-8.8942152, 38.5933885], [-8.8942583, 38.5934938], [-8.8943042, 38.5937063], [-8.894311, 38.5937819], [-8.8943203, 38.5938857], [-8.8943162, 38.5940764], [-8.8943081, 38.5943744], [-8.8942973, 38.5946995], [-8.8942928, 38.5948375], [-8.894292, 38.59486], [-8.8942903, 38.5951063], [-8.8943006, 38.5953146], [-8.8943404, 38.5955615], [-8.8943703, 38.5957763]]}, "properties": {"highway": "primary", "maxspeed": "50", "oneway": "yes", "ref": "EN 252", "surface": "asphalt"}}, {"type": "Feature", "geometry": {"type": "LineString", "coordinates": [[-8.8859376, 38.5515163], [-8.8859967, 38.5512163], [-8.8860367, 38.5510438], [-8.8860772, 38.5508258], [-8.8860834, 38.5507788], [-8.8861076, 38.5504118], [-8.8860903, 38.5501273], [-8.8860534, 38.5499131], [-8.8859504, 38.5495372], [-8.885742, 38.5491311], [-8.8855751, 38.5488283], [-8.8854824, 38.5486651], [-8.8852908, 38.5483207], [-8.8851073, 38.5479672], [-8.885031, 38.547824], [-8.884942, 38.5476277], [-8.8848997, 38.5475073], [-8.8848353, 38.5473006], [-8.8848028, 38.5471816]]}, "properties": {"highway": "primary", "lanes": "2", "maxspeed": "50", "name": "Avenida dos Ciprestes", "postal_code": "2900-322;2900-319;2900-320;2900-314;2900-317;2900-315;2900-316", "postal_code:description": "2900-322:VV Jfv;2900-319:Impares de 1 a 23C;2900-320:Impares de 25 a 63B;2900-322:Impares de 71 a 151C;2900-314:Pares de 10 a 66;2900-317:Pares de 140 a 154;2900-315:Pares de 68 a 80;2900-316:Pares de 84 a 136;2900-322:Quinta Galroas", "ref": "EN 252", "surface": "asphalt"}}, {"type": "Feature", "geometry": {"type": "LineString", "coordinates": [[-8.8884156, 38.5635088], [-8.8884162, 38.5634087], [-8.8884084, 38.5633035], [-8.8883877, 38.5631722], [-8.8883342, 38.5629274], [-8.8883204, 38.5628641], [-8.8882995, 38.5627684], [-8.8882823, 38.5626895]]}, "properties": {"highway": "primary", "lanes": "2", "maxspeed": "50", "maxspeed:type": "sign", "name": "Avenida Antoine Velge", "ref": "EN 252", "surface": "asphalt"}}, {"type": "Feature", "geometry": {"type": "LineString", "coordinates": [[-8.8848056, 38.5368473], [-8.8849679, 38.5373819], [-8.885016, 38.5375392], [-8.8850566, 38.5376528], [-8.8851658, 38.5379872], [-8.8852236, 38.5382513], [-8.8852445, 38.5384185], [-8.8852522, 38.5384923], [-8.885258, 38.5385991], [-8.8852717, 38.538754], [-8.8852745, 38.5388045]]}, "properties": {"highway": "primary", "lanes": "1", "lit": "yes", "maxspeed": "40", "name": "Avenida dos Ciprestes", "oneway": "yes", "postal_code": "2900-322;2900-319;2900-320;2900-314;2900-317;2900-315;2900-316", "postal_code:description": "2900-322:VV Jfv;2900-319:Impares de 1 a 23C;2900-320:Impares de 25 a 63B;2900-322:Impares de 71 a 151C;2900-314:Pares de 10 a 66;2900-317:Pares de 140 a 154;2900-315:Pares de 68 a 80;2900-316:Pares de 84 a 136;2900-322:Quinta Galroas", "ref": "EN 252", "surface": "asphalt"}}, {"type": "Feature", "geometry": {"type": "LineString", "coordinates": [[-8.9156762, 38.6484681], [-8.9154581, 38.6479221], [-8.9153812, 38.6477188], [-8.9153616, 38.6476668], [-8.9152415, 38.6473695]]}, "properties": {"highway": "primary", "lanes": "2", "maxspeed": "90", "ref": "EN 252", "surface": "asphalt"}}, {"type": "Feature", "geometry": {"type": "LineString", "coordinates": [[-8.9152415, 38.6473695], [-8.9151269, 38.6470233], [-8.9150564, 38.6467695], [-8.9150526, 38.6467558], [-8.9150114, 38.6465069], [-8.9149823, 38.6459749], [-8.9149403, 38.6452063], [-8.9149383, 38.6451434], [-8.9149162, 38.644462], [-8.9148383, 38.6420502], [-8.9148342, 38.6419104], [-8.9148168, 38.6413531], [-8.9148121, 38.6412496], [-8.9148064, 38.6411145]]}, "properties": {"highway": "primary", "lanes": "2", "maxspeed": "90", "name": "Avenida Alexandre Herculano", "postal_code": "2955-112", "ref": "EN 252", "surface": "asphalt"}}, {"type": "Feature", "geometry": {"type": "LineString", "coordinates": [[-8.8853218, 38.5393438], [-8.8853286, 38.5394861], [-8.8853341, 38.5395877]]}, "properties": {"highway": "primary", "maxspeed": "40", "name": "Avenida dos Ciprestes", "oneway": "yes", "postal_code": "2900-322;2900-319;2900-320;2900-314;2900-317;2900-315;2900-316", "postal_code:description": "2900-322:VV Jfv;2900-319:Impares de 1 a 23C;2900-320:Impares de 25 a 63B;2900-322:Impares de 71 a 151C;2900-314:Pares de 10 a 66;2900-317:Pares de 140 a 154;2900-315:Pares de 68 a 80;2900-316:Pares de 84 a 136;2900-322:Quinta Galroas", "ref": "EN 252", "surface": "asphalt"}}, {"type": "Feature", "geometry": {"type": "LineString", "coordinates": [[-8.9077092, 38.6073089], [-8.9080255, 38.6078338], [-8.9085204, 38.6086306], [-8.9088004, 38.6090843], [-8.9101772, 38.6113095]]}, "properties": {"highway": "primary", "lanes": "2", "maxspeed": "90", "ref": "EN 252", "surface": "asphalt"}}, {"type": "Feature", "geometry": {"type": "LineString", "coordinates": [[-8.9067664, 38.6057998], [-8.9069335, 38.6061047], [-8.9070162, 38.6062394], [-8.9070798, 38.606343], [-8.9072724, 38.6066476], [-8.9073002, 38.6066921], [-8.9073603, 38.6067884]]}, "properties": {"highway": "primary", "maxspeed": "90", "oneway": "yes", "ref": "EN 252", "surface": "asphalt"}}, {"type": "Feature", "geometry": {"type": "LineString", "coordinates": [[-8.9077092, 38.6073089], [-8.9075655, 38.6069687], [-8.9074956, 38.6068474], [-8.9074272, 38.6067288], [-8.9073938, 38.6066726], [-8.9073899, 38.6066661]]}, "properties": {"highway": "primary", "maxspeed": "90", "oneway": "yes", "ref": "EN 252", "surface": "asphalt"}}, {"type": "Feature", "geometry": {"type": "LineString", "coordinates": [[-8.8949488, 38.5970893], [-8.8951108, 38.5972743], [-8.8952399, 38.5974228], [-8.8954547, 38.5976698], [-8.8956234, 38.5978637], [-8.8957705, 38.5980204], [-8.8958143, 38.5980625], [-8.8958973, 38.5981363], [-8.8959527, 38.5981815], [-8.8960197, 38.5982336], [-8.8960658, 38.5982672], [-8.8961471, 38.598325], [-8.8962632, 38.5984017], [-8.8963156, 38.5984382], [-8.8963501, 38.5984606], [-8.8963829, 38.5984818], [-8.8964201, 38.5985047], [-8.8965603, 38.5985938], [-8.8965698, 38.5985996], [-8.896576, 38.5986035], [-8.8966042, 38.5986209], [-8.8966184, 38.5986303], [-8.8966469, 38.5986491], [-8.8968177, 38.5987587], [-8.897117, 38.5989502]]}, "properties": {"highway": "primary", "lanes": "2", "maxspeed": "70", "ref": "EN 252", "surface": "asphalt"}}, {"type": "Feature", "geometry": {"type": "LineString", "coordinates": [[-8.9175361, 38.618209], [-8.9175395, 38.6182309], [-8.9175413, 38.6182522], [-8.9175424, 38.6182796], [-8.9175412, 38.6182993], [-8.9175384, 38.6183238], [-8.9175324, 38.6183499], [-8.9175241, 38.6183732], [-8.9175156, 38.6183902], [-8.9175045, 38.6184072], [-8.9174832, 38.6184368], [-8.9172255, 38.6187781], [-8.9171789, 38.6188397], [-8.9171538, 38.6188728], [-8.9170776, 38.6189735], [-8.9170583, 38.6189988], [-8.9169355, 38.6191597], [-8.9168874, 38.6192222], [-8.9168674, 38.61925], [-8.9168539, 38.6192714], [-8.9168363, 38.6193008], [-8.9168305, 38.6193102], [-8.9167989, 38.619362]]}, "properties": {"highway": "primary", "maxspeed": "50", "name": "Rua das Flores", "oneway": "yes", "postal_code": "2955-263", "ref": "EN 252", "surface": "asphalt"}}, {"type": "Feature", "geometry": {"type": "LineString", "coordinates": [[-8.885392, 38.5405038], [-8.8853938, 38.5404451], [-8.8853982, 38.5403004], [-8.885353, 38.5398792], [-8.8853341, 38.5395877]]}, "properties": {"highway": "primary", "lanes": "2", "maxspeed": "50", "name": "Avenida dos Ciprestes", "postal_code": "2900-322;2900-319;2900-320;2900-314;2900-317;2900-315;2900-316", "postal_code:description": "2900-322:VV Jfv;2900-319:Impares de 1 a 23C;2900-320:Impares de 25 a 63B;2900-322:Impares de 71 a 151C;2900-314:Pares de 10 a 66;2900-317:Pares de 140 a 154;2900-315:Pares de 68 a 80;2900-316:Pares de 84 a 136;2900-322:Quinta Galroas", "ref": "EN 252", "surface": "asphalt"}}, {"type": "Feature", "geometry": {"type": "LineString", "coordinates": [[-8.8909547, 38.5852109], [-8.8909829, 38.5852321], [-8.8910036, 38.5852531], [-8.8910232, 38.5852855], [-8.8910294, 38.5853137]]}, "properties": {"highway": "primary", "lanes": "2", "lit": "yes", "maxspeed": "40", "oneway": "yes", "ref": "EN 252", "surface": "asphalt"}}, {"type": "Feature", "geometry": {"type": "LineString", "coordinates": [[-8.8910294, 38.5853137], [-8.8910339, 38.5853556], [-8.8910339, 38.5854011], [-8.8910221, 38.5854503], [-8.8909769, 38.5856592], [-8.8909199, 38.5859609], [-8.8909009, 38.5860528]]}, "properties": {"bridge": "yes", "highway": "primary", "lanes": "2", "layer": "1", "maxspeed": "40", "oneway": "yes", "ref": "EN 252", "surface": "asphalt"}}, {"type": "Feature", "geometry": {"type": "LineString", "coordinates": [[-8.8909009, 38.5860528], [-8.8908841, 38.5861442], [-8.8908252, 38.5864142], [-8.8907914, 38.5867061], [-8.8907945, 38.5870163], [-8.8908266, 38.5872451], [-8.8908811, 38.5875379]]}, "properties": {"highway": "primary", "lanes": "2", "maxspeed": "70", "oneway": "yes", "ref": "EN 252", "surface": "asphalt"}}, {"type": "Feature", "geometry": {"type": "LineString", "coordinates": [[-8.8908811, 38.5875379], [-8.8909396, 38.5878607], [-8.8909483, 38.5879085], [-8.8910213, 38.5882374], [-8.8910463, 38.5883144], [-8.8910702, 38.5883918], [-8.8911091, 38.5884796], [-8.8912216, 38.5886462]]}, "properties": {"highway": "primary", "lanes": "1", "maxspeed": "70", "oneway": "yes", "ref": "EN 252", "surface": "asphalt"}}, {"type": "Feature", "geometry": {"type": "LineString", "coordinates": [[-8.891164, 38.5853237], [-8.8911785, 38.5853011], [-8.8911961, 38.5852761], [-8.8912229, 38.5852413], [-8.891241, 38.5852173]]}, "properties": {"highway": "primary", "lanes": "2", "lit": "yes", "maxspeed": "40", "oneway": "yes", "ref": "EN 252", "surface": "asphalt"}}, {"type": "Feature", "geometry": {"type": "LineString", "coordinates": [[-8.8910101, 38.5860638], [-8.8910245, 38.5859885], [-8.8910713, 38.58575], [-8.8911217, 38.585501], [-8.8911424, 38.5853968], [-8.8911514, 38.5853546], [-8.891164, 38.5853237]]}, "properties": {"bridge": "yes", "highway": "primary", "lanes": "2", "layer": "1", "maxspeed": "40", "oneway": "yes", "ref": "EN 252", "surface": "asphalt"}}, {"type": "Feature", "geometry": {"type": "LineString", "coordinates": [[-8.8912216, 38.5886462], [-8.8911538, 38.5884032], [-8.8911107, 38.5882581], [-8.8910359, 38.587849], [-8.8909798, 38.5875449], [-8.8909207, 38.5872632], [-8.8909075, 38.5871438]]}, "properties": {"highway": "primary", "lanes": "1", "maxspeed": "70", "oneway": "yes", "ref": "EN 252", "surface": "asphalt"}}, {"type": "Feature", "geometry": {"type": "LineString", "coordinates": [[-8.8902269, 38.5771291], [-8.8902835, 38.5770562], [-8.8903807, 38.5770109]]}, "properties": {"highway": "primary", "lanes": "1", "lit": "yes", "maxspeed": "50", "name": "Avenida Alberto Valente", "oneway": "yes", "ref": "EN 252", "surface": "asphalt"}}, {"type": "Feature", "geometry": {"type": "LineString", "coordinates": [[-8.9178248, 38.6278661], [-8.9178622, 38.6277814], [-8.9178856, 38.6277356], [-8.9179184, 38.6276766], [-8.9179676, 38.6275979]]}, "properties": {"highway": "primary", "lanes": "2", "maxspeed": "50", "name": "Avenida dos Ferrovi\u00e1rios", "oneway": "yes", "postal_code": "2955-409", "ref": "EN 252", "surface": "asphalt"}}, {"type": "Feature", "geometry": {"type": "LineString", "coordinates": [[-8.9146752, 38.6395889], [-8.9147784, 38.6395881]]}, "properties": {"highway": "primary", "ref": "EN 252"}}, {"type": "Feature", "geometry": {"type": "LineString", "coordinates": [[-8.8900074, 38.5844342], [-8.8901562, 38.5846685], [-8.8902286, 38.5847503], [-8.8903273, 38.5848493], [-8.8904327, 38.5849398]]}, "properties": {"highway": "primary", "junction": "roundabout", "lanes": "2", "lit": "yes", "maxspeed": "40", "ref": "EN 252", "surface": "asphalt"}}, {"type": "Feature", "geometry": {"type": "LineString", "coordinates": [[-8.9159773, 38.6203693], [-8.9159777, 38.6203226], [-8.915957, 38.6202788], [-8.9159179, 38.6202435], [-8.9158654, 38.6202212]]}, "properties": {"highway": "primary", "junction": "roundabout", "ref": "EN 252", "surface": "asphalt"}}, {"type": "Feature", "geometry": {"type": "LineString", "coordinates": [[-8.9177127, 38.6273113], [-8.9176848, 38.627348], [-8.9176685, 38.6273888], [-8.9176648, 38.6274314], [-8.9176737, 38.6274735]]}, "properties": {"highway": "primary", "junction": "roundabout", "maxspeed": "50", "name": "Avenida dos Ferrovi\u00e1rios", "postal_code": "2955-409", "ref": "EN 252", "surface": "asphalt"}}, {"type": "Feature", "geometry": {"type": "LineString", "coordinates": [[-8.9177842, 38.6314521], [-8.9178079, 38.6314372], [-8.9178271, 38.6314188], [-8.9178472, 38.6313826], [-8.9178505, 38.6313432], [-8.9178405, 38.6313125], [-8.9178202, 38.631285], [-8.917791, 38.6312629]]}, "properties": {"highway": "primary", "junction": "roundabout", "lanes": "2", "maxspeed": "50", "ref": "EN 252", "surface": "asphalt"}}, {"type": "Feature", "geometry": {"type": "LineString", "coordinates": [[-8.9175604, 38.6313331], [-8.9175578, 38.6313631], [-8.9175653, 38.6313927], [-8.9175825, 38.6314197], [-8.917608, 38.6314423]]}, "properties": {"highway": "primary", "junction": "roundabout", "lanes": "2", "ref": "EN 252", "surface": "asphalt"}}, {"type": "Feature", "geometry": {"type": "LineString", "coordinates": [[-8.917791, 38.6312629], [-8.9177467, 38.6312457], [-8.9176976, 38.631241], [-8.9176494, 38.6312492]]}, "properties": {"highway": "primary", "junction": "roundabout", "lanes": "2", "lit": "yes", "maxspeed": "50", "ref": "EN 252", "surface": "asphalt"}}, {"type": "Feature", "geometry": {"type": "LineString", "coordinates": [[-8.9177864, 38.6275833], [-8.9178437, 38.6276007], [-8.9179676, 38.6275979]]}, "properties": {"highway": "primary", "junction": "roundabout", "lit": "yes", "maxspeed": "50", "name": "Avenida dos Ferrovi\u00e1rios", "postal_code": "2955-409", "ref": "EN 252", "surface": "asphalt"}}, {"type": "Feature", "geometry": {"type": "LineString", "coordinates": [[-8.9176737, 38.6274735], [-8.9176984, 38.6275175], [-8.9177368, 38.6275549], [-8.9177864, 38.6275833]]}, "properties": {"highway": "primary", "junction": "roundabout", "lit": "yes", "maxspeed": "50", "name": "Avenida dos Ferrovi\u00e1rios", "postal_code": "2955-409", "ref": "EN 252", "surface": "asphalt"}}, {"type": "Feature", "geometry": {"type": "LineString", "coordinates": [[-8.9156464, 38.6203501], [-8.9156602, 38.6203975], [-8.9156953, 38.6204375]]}, "properties": {"highway": "primary", "junction": "roundabout", "ref": "EN 252", "surface": "asphalt"}}, {"type": "Feature", "geometry": {"type": "LineString", "coordinates": [[-8.9158366, 38.620216], [-8.915761, 38.6202212], [-8.9156962, 38.620252], [-8.9156556, 38.6203021]]}, "properties": {"highway": "primary", "junction": "roundabout", "ref": "EN 252", "surface": "asphalt"}}, {"type": "Feature", "geometry": {"type": "LineString", "coordinates": [[-8.8904327, 38.5849398], [-8.8905385, 38.5850196], [-8.8906533, 38.5850802], [-8.8908185, 38.5851548], [-8.8909547, 38.5852109]]}, "properties": {"highway": "primary", "junction": "roundabout", "lanes": "2", "lit": "yes", "maxspeed": "40", "ref": "EN 252", "surface": "asphalt"}}, {"type": "Feature", "geometry": {"type": "LineString", "coordinates": [[-8.8900362, 38.5840949], [-8.8899638, 38.5841597], [-8.8899437, 38.584241], [-8.8899498, 38.5843104], [-8.8899814, 38.5843759], [-8.8900074, 38.5844342]]}, "properties": {"highway": "primary", "junction": "roundabout", "lanes": "2", "lit": "yes", "maxspeed": "40", "ref": "EN 252", "surface": "asphalt"}}, {"type": "Feature", "geometry": {"type": "LineString", "coordinates": [[-8.8902845, 38.5841283], [-8.8902358, 38.5840914], [-8.8901475, 38.5840741], [-8.8900362, 38.5840949]]}, "properties": {"highway": "primary", "junction": "roundabout", "lanes": "2", "lit": "yes", "maxspeed": "40", "ref": "EN 252", "surface": "asphalt"}}, {"type": "Feature", "geometry": {"type": "LineString", "coordinates": [[-8.8854051, 38.5412734], [-8.8853684, 38.5412618], [-8.885329, 38.5412589], [-8.8852955, 38.5412635], [-8.8852644, 38.5412744], [-8.8852377, 38.5412909]]}, "properties": {"highway": "primary", "junction": "roundabout", "lanes": "1", "lit": "yes", "maxspeed": "50", "name": "Avenida dos Ciprestes", "postal_code": "2900-322;2900-319;2900-320;2900-314;2900-317;2900-315;2900-316", "postal_code:description": "2900-322:VV Jfv;2900-319:Impares de 1 a 23C;2900-320:Impares de 25 a 63B;2900-322:Impares de 71 a 151C;2900-314:Pares de 10 a 66;2900-317:Pares de 140 a 154;2900-315:Pares de 68 a 80;2900-316:Pares de 84 a 136;2900-322:Quinta Galroas", "ref": "EN 252", "surface": "asphalt"}}, {"type": "Feature", "geometry": {"type": "LineString", "coordinates": [[-8.8851687, 38.5417634], [-8.8852047, 38.5417618], [-8.8852389, 38.5417528], [-8.8852688, 38.541737], [-8.8852922, 38.5417156], [-8.8853142, 38.5416774], [-8.8854611, 38.541411], [-8.8854725, 38.5413785], [-8.8854712, 38.5413475], [-8.8854588, 38.5413181], [-8.8854361, 38.5412927], [-8.8854051, 38.5412734]]}, "properties": {"highway": "primary", "junction": "roundabout", "lanes": "1", "lit": "yes", "maxspeed": "50", "name": "Avenida dos Ciprestes", "postal_code": "2900-322;2900-319;2900-320;2900-314;2900-317;2900-315;2900-316", "postal_code:description": "2900-322:VV Jfv;2900-319:Impares de 1 a 23C;2900-320:Impares de 25 a 63B;2900-322:Impares de 71 a 151C;2900-314:Pares de 10 a 66;2900-317:Pares de 140 a 154;2900-315:Pares de 68 a 80;2900-316:Pares de 84 a 136;2900-322:Quinta Galroas", "ref": "EN 252", "surface": "asphalt"}}, {"type": "Feature", "geometry": {"type": "LineString", "coordinates": [[-8.8854051, 38.5412734], [-8.885384, 38.5412479], [-8.8853645, 38.5412085], [-8.8853505, 38.5411703], [-8.8853467, 38.5410778]]}, "properties": {"highway": "primary", "lanes": "1", "lit": "yes", "maxspeed": "50", "name": "Avenida dos Ciprestes", "oneway": "yes", "postal_code": "2900-322;2900-319;2900-320;2900-314;2900-317;2900-315;2900-316", "postal_code:description": "2900-322:VV Jfv;2900-319:Impares de 1 a 23C;2900-320:Impares de 25 a 63B;2900-322:Impares de 71 a 151C;2900-314:Pares de 10 a 66;2900-317:Pares de 140 a 154;2900-315:Pares de 68 a 80;2900-316:Pares de 84 a 136;2900-322:Quinta Galroas", "ref": "EN 252", "surface": "asphalt"}}, {"type": "Feature", "geometry": {"type": "LineString", "coordinates": [[-8.8853467, 38.5410778], [-8.8853235, 38.5411358], [-8.8852854, 38.54121], [-8.8852767, 38.5412332], [-8.8852673, 38.5412563], [-8.8852377, 38.5412909]]}, "properties": {"highway": "primary", "lanes": "1", "maxspeed": "50", "name": "Avenida dos Ciprestes", "oneway": "yes", "postal_code": "2900-322;2900-319;2900-320;2900-314;2900-317;2900-315;2900-316", "postal_code:description": "2900-322:VV Jfv;2900-319:Impares de 1 a 23C;2900-320:Impares de 25 a 63B;2900-322:Impares de 71 a 151C;2900-314:Pares de 10 a 66;2900-317:Pares de 140 a 154;2900-315:Pares de 68 a 80;2900-316:Pares de 84 a 136;2900-322:Quinta Galroas", "ref": "EN 252", "surface": "asphalt"}}, {"type": "Feature", "geometry": {"type": "LineString", "coordinates": [[-8.8852377, 38.5412909], [-8.885217, 38.541312], [-8.8852036, 38.5413365], [-8.8850475, 38.5416365], [-8.885045, 38.5416673], [-8.8850541, 38.5416974]]}, "properties": {"highway": "primary", "junction": "roundabout", "lanes": "1", "lit": "yes", "maxspeed": "50", "name": "Avenida dos Ciprestes", "postal_code": "2900-322;2900-319;2900-320;2900-314;2900-317;2900-315;2900-316", "postal_code:description": "2900-322:VV Jfv;2900-319:Impares de 1 a 23C;2900-320:Impares de 25 a 63B;2900-322:Impares de 71 a 151C;2900-314:Pares de 10 a 66;2900-317:Pares de 140 a 154;2900-315:Pares de 68 a 80;2900-316:Pares de 84 a 136;2900-322:Quinta Galroas", "ref": "EN 252", "surface": "asphalt"}}, {"type": "Feature", "geometry": {"type": "LineString", "coordinates": [[-8.8855687, 38.5306326], [-8.8854791, 38.5308025]]}, "properties": {"highway": "primary", "junction": "roundabout", "lanes": "2", "maxspeed": "50", "name": "Avenida dos Ciprestes", "postal_code": "2900-322;2900-319;2900-320;2900-314;2900-317;2900-315;2900-316", "postal_code:description": "2900-322:VV Jfv;2900-319:Impares de 1 a 23C;2900-320:Impares de 25 a 63B;2900-322:Impares de 71 a 151C;2900-314:Pares de 10 a 66;2900-317:Pares de 140 a 154;2900-315:Pares de 68 a 80;2900-316:Pares de 84 a 136;2900-322:Quinta Galroas", "ref": "EN 252", "surface": "asphalt"}}, {"type": "Feature", "geometry": {"type": "LineString", "coordinates": [[-8.8858433, 38.530787], [-8.8858742, 38.5307303], [-8.8858843, 38.5307019], [-8.885885, 38.5306724], [-8.8858763, 38.5306437], [-8.8858587, 38.5306176], [-8.8858295, 38.5305955]]}, "properties": {"highway": "primary", "junction": "roundabout", "maxspeed": "50", "name": "Avenida dos Ciprestes", "postal_code": "2900-322;2900-319;2900-320;2900-314;2900-317;2900-315;2900-316", "postal_code:description": "2900-322:VV Jfv;2900-319:Impares de 1 a 23C;2900-320:Impares de 25 a 63B;2900-322:Impares de 71 a 151C;2900-314:Pares de 10 a 66;2900-317:Pares de 140 a 154;2900-315:Pares de 68 a 80;2900-316:Pares de 84 a 136;2900-322:Quinta Galroas", "ref": "EN 252", "surface": "asphalt"}}, {"type": "Feature", "geometry": {"type": "LineString", "coordinates": [[-8.8854791, 38.5308025], [-8.8854782, 38.530839], [-8.8854829, 38.5308714], [-8.8854942, 38.5309005], [-8.8855156, 38.5309241], [-8.885542, 38.5309438], [-8.8855703, 38.5309576], [-8.8856131, 38.5309673], [-8.8856541, 38.5309694]]}, "properties": {"highway": "primary", "junction": "roundabout", "lanes": "2", "maxspeed": "50", "name": "Avenida dos Ciprestes", "postal_code": "2900-322;2900-319;2900-320;2900-314;2900-317;2900-315;2900-316", "postal_code:description": "2900-322:VV Jfv;2900-319:Impares de 1 a 23C;2900-320:Impares de 25 a 63B;2900-322:Impares de 71 a 151C;2900-314:Pares de 10 a 66;2900-317:Pares de 140 a 154;2900-315:Pares de 68 a 80;2900-316:Pares de 84 a 136;2900-322:Quinta Galroas", "ref": "EN 252", "surface": "asphalt"}}, {"type": "Feature", "geometry": {"type": "LineString", "coordinates": [[-8.8858017, 38.5305797], [-8.8857628, 38.5305698], [-8.8857219, 38.5305685], [-8.885682, 38.5305759], [-8.8856471, 38.5305897], [-8.88561, 38.5306066], [-8.8855687, 38.5306326]]}, "properties": {"highway": "primary", "junction": "roundabout", "lanes": "2", "maxspeed": "50", "name": "Avenida dos Ciprestes", "postal_code": "2900-322;2900-319;2900-320;2900-314;2900-317;2900-315;2900-316", "postal_code:description": "2900-322:VV Jfv;2900-319:Impares de 1 a 23C;2900-320:Impares de 25 a 63B;2900-322:Impares de 71 a 151C;2900-314:Pares de 10 a 66;2900-317:Pares de 140 a 154;2900-315:Pares de 68 a 80;2900-316:Pares de 84 a 136;2900-322:Quinta Galroas", "ref": "EN 252", "surface": "asphalt"}}, {"type": "Feature", "geometry": {"type": "LineString", "coordinates": [[-8.8868247, 38.5576155], [-8.8864195, 38.5565611], [-8.886317, 38.5562942], [-8.8862003, 38.5559903], [-8.8861202, 38.5557817], [-8.8858487, 38.5550752], [-8.8857775, 38.5548899], [-8.885554, 38.5543079], [-8.885508, 38.5541531], [-8.8854821, 38.554033], [-8.8854665, 38.5539098], [-8.8854674, 38.5537429], [-8.8854772, 38.5536507], [-8.8855134, 38.5534569], [-8.8856873, 38.5527095], [-8.8857435, 38.5524417]]}, "properties": {"highway": "primary", "lanes": "2", "maxspeed": "50", "maxspeed:type": "sign", "ref": "EN 252", "surface": "asphalt"}}, {"type": "Feature", "geometry": {"type": "LineString", "coordinates": [[-8.8856541, 38.5309694], [-8.8856943, 38.5309627], [-8.8857306, 38.5309477], [-8.8857504, 38.5309356], [-8.885766, 38.5309214], [-8.8857826, 38.5308986], [-8.8858433, 38.530787]]}, "properties": {"highway": "primary", "junction": "roundabout", "lanes": "2", "maxspeed": "50", "name": "Avenida dos Ciprestes", "postal_code": "2900-322;2900-319;2900-320;2900-314;2900-317;2900-315;2900-316", "postal_code:description": "2900-322:VV Jfv;2900-319:Impares de 1 a 23C;2900-320:Impares de 25 a 63B;2900-322:Impares de 71 a 151C;2900-314:Pares de 10 a 66;2900-317:Pares de 140 a 154;2900-315:Pares de 68 a 80;2900-316:Pares de 84 a 136;2900-322:Quinta Galroas", "ref": "EN 252", "surface": "asphalt"}}, {"type": "Feature", "geometry": {"type": "LineString", "coordinates": [[-8.8854791, 38.5308025], [-8.8854505, 38.5308562], [-8.885445, 38.5308666], [-8.8854192, 38.530927], [-8.8853975, 38.5309881], [-8.8853751, 38.5310406]]}, "properties": {"highway": "primary", "lanes": "1", "maxspeed": "50", "name": "Avenida dos Ciprestes", "oneway": "yes", "postal_code": "2900-322;2900-319;2900-320;2900-314;2900-317;2900-315;2900-316", "postal_code:description": "2900-322:VV Jfv;2900-319:Impares de 1 a 23C;2900-320:Impares de 25 a 63B;2900-322:Impares de 71 a 151C;2900-314:Pares de 10 a 66;2900-317:Pares de 140 a 154;2900-315:Pares de 68 a 80;2900-316:Pares de 84 a 136;2900-322:Quinta Galroas", "ref": "EN 252", "surface": "asphalt"}}, {"type": "Feature", "geometry": {"type": "LineString", "coordinates": [[-8.8853751, 38.5310406], [-8.8854986, 38.5309999], [-8.8855402, 38.5309873], [-8.8855919, 38.5309768], [-8.8856541, 38.5309694]]}, "properties": {"highway": "primary", "lanes": "2", "maxspeed": "50", "name": "Avenida dos Ciprestes", "oneway": "yes", "postal_code": "2900-322;2900-319;2900-320;2900-314;2900-317;2900-315;2900-316", "postal_code:description": "2900-322:VV Jfv;2900-319:Impares de 1 a 23C;2900-320:Impares de 25 a 63B;2900-322:Impares de 71 a 151C;2900-314:Pares de 10 a 66;2900-317:Pares de 140 a 154;2900-315:Pares de 68 a 80;2900-316:Pares de 84 a 136;2900-322:Quinta Galroas", "ref": "EN 252", "surface": "asphalt"}}, {"type": "Feature", "geometry": {"type": "LineString", "coordinates": [[-8.9146048, 38.6352506], [-8.9145948, 38.6350277], [-8.9145803, 38.6347063], [-8.9145788, 38.6346738], [-8.9145629, 38.6343209], [-8.9145617, 38.6342943], [-8.9145574, 38.6341999], [-8.9145552, 38.6341514]]}, "properties": {"highway": "primary", "maxspeed": "50", "name": "Avenida Alexandre Herculano", "postal_code": "2955-112", "ref": "EN 252", "surface": "asphalt"}}, {"type": "Feature", "geometry": {"type": "LineString", "coordinates": [[-8.8848028, 38.5471816], [-8.8847799, 38.5470845], [-8.8847507, 38.5469299], [-8.8847249, 38.5467997]]}, "properties": {"highway": "primary", "maxspeed": "50", "name": "Avenida dos Ciprestes", "postal_code": "2900-322;2900-319;2900-320;2900-314;2900-317;2900-315;2900-316", "postal_code:description": "2900-322:VV Jfv;2900-319:Impares de 1 a 23C;2900-320:Impares de 25 a 63B;2900-322:Impares de 71 a 151C;2900-314:Pares de 10 a 66;2900-317:Pares de 140 a 154;2900-315:Pares de 68 a 80;2900-316:Pares de 84 a 136;2900-322:Quinta Galroas", "ref": "EN 252", "surface": "asphalt"}}, {"type": "Feature", "geometry": {"type": "LineString", "coordinates": [[-8.8847249, 38.5467997], [-8.8847186, 38.5465899], [-8.8847037, 38.5464177], [-8.8846795, 38.5460861], [-8.8846201, 38.545523], [-8.8846171, 38.545477], [-8.8846106, 38.5453748], [-8.8845515, 38.5442148], [-8.8845506, 38.544196], [-8.8845465, 38.5440477], [-8.8845525, 38.5438886], [-8.8845592, 38.5438217], [-8.8845682, 38.5437312], [-8.8846091, 38.5433861], [-8.8847186, 38.5429632], [-8.8847827, 38.5427944], [-8.8849557, 38.5423196], [-8.8850339, 38.5421242], [-8.8851416, 38.541887], [-8.88516, 38.5418311], [-8.8851687, 38.5417634]]}, "properties": {"highway": "primary", "lanes": "2", "maxspeed": "50", "name": "Avenida dos Ciprestes", "postal_code": "2900-322;2900-319;2900-320;2900-314;2900-317;2900-315;2900-316", "postal_code:description": "2900-322:VV Jfv;2900-319:Impares de 1 a 23C;2900-320:Impares de 25 a 63B;2900-322:Impares de 71 a 151C;2900-314:Pares de 10 a 66;2900-317:Pares de 140 a 154;2900-315:Pares de 68 a 80;2900-316:Pares de 84 a 136;2900-322:Quinta Galroas", "ref": "EN 252", "surface": "asphalt"}}, {"type": "Feature", "geometry": {"type": "LineString", "coordinates": [[-8.9073899, 38.6066661], [-8.9073799, 38.6066493], [-8.9072722, 38.6064683], [-8.9072504, 38.6064318], [-8.9071528, 38.6062809], [-8.9070065, 38.6060791], [-8.9067664, 38.6057998]]}, "properties": {"highway": "primary", "maxspeed": "90", "oneway": "yes", "ref": "EN 252", "surface": "asphalt"}}, {"type": "Feature", "geometry": {"type": "LineString", "coordinates": [[-8.9073603, 38.6067884], [-8.9074768, 38.6069903], [-8.9077092, 38.6073089]]}, "properties": {"highway": "primary", "maxspeed": "90", "oneway": "yes", "ref": "EN 252", "surface": "asphalt"}}, {"type": "Feature", "geometry": {"type": "LineString", "coordinates": [[-8.8858295, 38.5305955], [-8.8858017, 38.5305797]]}, "properties": {"highway": "primary", "junction": "roundabout", "lanes": "2", "maxspeed": "50", "name": "Avenida dos Ciprestes", "postal_code": "2900-322;2900-319;2900-320;2900-314;2900-317;2900-315;2900-316", "postal_code:description": "2900-322:VV Jfv;2900-319:Impares de 1 a 23C;2900-320:Impares de 25 a 63B;2900-322:Impares de 71 a 151C;2900-314:Pares de 10 a 66;2900-317:Pares de 140 a 154;2900-315:Pares de 68 a 80;2900-316:Pares de 84 a 136;2900-322:Quinta Galroas", "ref": "EN 252", "surface": "asphalt"}}, {"type": "Feature", "geometry": {"type": "LineString", "coordinates": [[-8.8896104, 38.5762476], [-8.8894958, 38.5761505], [-8.8893734, 38.5760283], [-8.8891898, 38.5757256]]}, "properties": {"highway": "primary", "maxspeed": "50", "ref": "EN 252", "surface": "asphalt"}}, {"type": "Feature", "geometry": {"type": "LineString", "coordinates": [[-8.9238833, 38.6620794], [-8.9236771, 38.6618146], [-8.9236342, 38.661757], [-8.9236094, 38.6617237], [-8.9220323, 38.6596067], [-8.9219913, 38.6595519], [-8.9217207, 38.659192], [-8.9205151, 38.6575845], [-8.9204153, 38.6574515], [-8.9203763, 38.6573996], [-8.9202308, 38.6572057], [-8.9201486, 38.6570966], [-8.9201342, 38.6570775], [-8.920042, 38.6569539], [-8.9199546, 38.6568366], [-8.919879, 38.6567361], [-8.9197661, 38.6565865], [-8.919675, 38.6564645], [-8.9196233, 38.6563957], [-8.9195654, 38.6563194], [-8.9194809, 38.656207], [-8.9193878, 38.6560827], [-8.9193334, 38.6560098], [-8.9192754, 38.655932], [-8.9192128, 38.6558452], [-8.9191371, 38.6557373], [-8.9190716, 38.6556409], [-8.9190131, 38.6555486], [-8.9189574, 38.6554599], [-8.9188414, 38.6552645], [-8.918768, 38.6551292], [-8.918646, 38.6548882], [-8.9184939, 38.6545745], [-8.9183794, 38.6543172], [-8.9179663, 38.6534119]]}, "properties": {"highway": "primary", "lanes": "2", "maxspeed": "90", "ref": "EN 252", "surface": "asphalt"}}, {"type": "Feature", "geometry": {"type": "LineString", "coordinates": [[-8.9244439, 38.6627992], [-8.9243225, 38.6626433], [-8.9240895, 38.6623442], [-8.9238833, 38.6620794]]}, "properties": {"highway": "primary", "lanes": "2", "maxspeed": "70", "ref": "EN 252", "surface": "asphalt"}}, {"type": "Feature", "geometry": {"type": "LineString", "coordinates": [[-8.9291249, 38.6684635], [-8.9280246, 38.6671486], [-8.927242, 38.6662214], [-8.9269049, 38.6658213], [-8.9268543, 38.6657612], [-8.9262635, 38.6650537], [-8.9261892, 38.6649642]]}, "properties": {"highway": "primary", "lanes": "2", "maxspeed": "50", "ref": "EN 252", "surface": "asphalt"}}, {"type": "Feature", "geometry": {"type": "LineString", "coordinates": [[-8.931715, 38.6715593], [-8.9302346, 38.669791], [-8.9301663, 38.6697099], [-8.930135, 38.6696727], [-8.9300568, 38.669579], [-8.9300088, 38.6695214], [-8.9298402, 38.6693195], [-8.9294419, 38.6688437], [-8.9293398, 38.6687212], [-8.9291249, 38.6684635]]}, "properties": {"highway": "primary", "lanes": "2", "maxspeed": "90", "ref": "EN 252", "surface": "asphalt"}}, {"type": "Feature", "geometry": {"type": "LineString", "coordinates": [[-8.9372603, 38.6781338], [-8.9363425, 38.6770472], [-8.9350268, 38.6755121]]}, "properties": {"highway": "primary", "lanes": "2", "maxspeed": "90", "ref": "EN 252", "surface": "asphalt"}}, {"type": "Feature", "geometry": {"type": "LineString", "coordinates": [[-8.9372603, 38.6781338], [-8.9378879, 38.6788905], [-8.938372, 38.6794616], [-8.93867, 38.679813]]}, "properties": {"highway": "primary", "lanes": "2", "maxspeed": "90", "ref": "EN 252", "surface": "asphalt"}}, {"type": "Feature", "geometry": {"type": "LineString", "coordinates": [[-8.9140478, 38.6175312], [-8.9144336, 38.6181615], [-8.9149694, 38.6190369], [-8.9150075, 38.619098], [-8.9151071, 38.6192574], [-8.915187, 38.6193854]]}, "properties": {"highway": "primary", "lanes": "2", "maxspeed": "50", "ref": "EN 252", "surface": "asphalt"}}, {"type": "Feature", "geometry": {"type": "LineString", "coordinates": [[-8.9120563, 38.6143389], [-8.9122236, 38.6146089], [-8.9124918, 38.6150409], [-8.9127446, 38.6154502], [-8.9128427, 38.6156048], [-8.9129788, 38.6158232], [-8.9131441, 38.6160885], [-8.9132874, 38.6163206], [-8.9133148, 38.6163649], [-8.9134079, 38.6165155], [-8.9134765, 38.6166266], [-8.9136278, 38.6168698], [-8.9137244, 38.6170256], [-8.9140478, 38.6175312]]}, "properties": {"highway": "primary", "lanes": "2", "maxspeed": "70", "ref": "EN 252", "smoothness": "good", "surface": "asphalt"}}, {"type": "Feature", "geometry": {"type": "LineString", "coordinates": [[-8.9101772, 38.6113095], [-8.9105568, 38.6119239], [-8.9106863, 38.6121347], [-8.9109862, 38.6126244], [-8.9112614, 38.613061], [-8.9114811, 38.6134159], [-8.9117138, 38.613792], [-8.9117722, 38.6138851], [-8.9118936, 38.6140785], [-8.9119568, 38.6141782], [-8.9120563, 38.6143389]]}, "properties": {"highway": "primary", "lanes": "2", "maxspeed": "50", "ref": "EN 252", "surface": "asphalt"}}, {"type": "Feature", "geometry": {"type": "LineString", "coordinates": [[-8.9029244, 38.6026903], [-8.903168, 38.6028476], [-8.9033254, 38.6029482], [-8.9037869, 38.6032432], [-8.9039083, 38.6033208], [-8.904118, 38.603455], [-8.9043221, 38.6035857], [-8.9045499, 38.6037315], [-8.9046653, 38.6038053], [-8.9053422, 38.604238], [-8.9054323, 38.604298], [-8.9055682, 38.6043844], [-8.9056567, 38.6044411], [-8.9057253, 38.6044854], [-8.9057662, 38.6045128], [-8.905811, 38.6045447], [-8.9059116, 38.6046147], [-8.9059422, 38.6046369], [-8.9059685, 38.6046582], [-8.9059883, 38.6046754], [-8.9060082, 38.604693], [-8.9060363, 38.6047195], [-8.9060567, 38.6047401], [-8.9060846, 38.6047695], [-8.9061236, 38.6048142], [-8.9061424, 38.6048365], [-8.9061668, 38.6048672], [-8.9061935, 38.604903], [-8.9062288, 38.6049489], [-8.9062634, 38.6049957], [-8.9063113, 38.6050659], [-8.906398, 38.6052057], [-8.9065323, 38.6054228], [-8.9066618, 38.6056302], [-8.9067664, 38.6057998]]}, "properties": {"highway": "primary", "lanes": "2", "maxspeed": "90", "ref": "EN 252", "surface": "asphalt"}}, {"type": "Feature", "geometry": {"type": "LineString", "coordinates": [[-8.8996552, 38.600582], [-8.8999929, 38.6008], [-8.9006352, 38.6012156], [-8.9009829, 38.6014395], [-8.901461, 38.6017478], [-8.9015999, 38.6018369], [-8.90207, 38.6021397], [-8.9024695, 38.6023966], [-8.9029244, 38.6026903]]}, "properties": {"highway": "primary", "lanes": "2", "maxspeed": "70", "ref": "EN 252", "surface": "asphalt"}}, {"type": "Feature", "geometry": {"type": "LineString", "coordinates": [[-8.897117, 38.5989502], [-8.8974162, 38.5991417], [-8.8981345, 38.5996025], [-8.8983323, 38.599729], [-8.8985229, 38.599849]]}, "properties": {"highway": "primary", "lanes": "2", "maxspeed": "50", "ref": "EN 252", "surface": "asphalt"}}, {"type": "Feature", "geometry": {"type": "LineString", "coordinates": [[-8.8944079, 38.5962532], [-8.8944159, 38.5962945], [-8.8944248, 38.5963293], [-8.8944406, 38.5963752], [-8.8944591, 38.5964206], [-8.8944984, 38.5965092], [-8.8945257, 38.5965656], [-8.8945516, 38.5966115], [-8.8945806, 38.596656], [-8.8946176, 38.5967074], [-8.8946538, 38.5967536], [-8.8946912, 38.5967993], [-8.8947373, 38.5968501], [-8.8947869, 38.5969043], [-8.8949488, 38.5970893]]}, "properties": {"highway": "primary", "lanes": "2", "maxspeed": "90", "ref": "EN 252", "surface": "asphalt"}}, {"type": "Feature", "geometry": {"type": "LineString", "coordinates": [[-8.8943703, 38.5957763], [-8.8943758, 38.5959458], [-8.8943786, 38.5960126], [-8.8943816, 38.5960573], [-8.8943856, 38.5961], [-8.8943951, 38.5961767], [-8.8944079, 38.5962532]]}, "properties": {"highway": "primary", "lanes": "2", "maxspeed": "70", "ref": "EN 252", "surface": "asphalt"}}, {"type": "Feature", "geometry": {"type": "LineString", "coordinates": [[-8.8933677, 38.5914129], [-8.8936259, 38.591908]]}, "properties": {"highway": "primary", "lanes": "2", "maxspeed": "50", "ref": "EN 252", "surface": "asphalt"}}, {"type": "Feature", "geometry": {"type": "LineString", "coordinates": [[-8.8909075, 38.5871438], [-8.8909005, 38.5870811], [-8.8908969, 38.58689], [-8.8909013, 38.5867148], [-8.8909228, 38.5865183]]}, "properties": {"highway": "primary", "lanes": "2", "maxspeed": "60", "oneway": "yes", "ref": "EN 252", "surface": "asphalt"}}, {"type": "Feature", "geometry": {"type": "LineString", "coordinates": [[-8.8909228, 38.5865183], [-8.8909813, 38.5862256], [-8.8910101, 38.5860638]]}, "properties": {"highway": "primary", "lanes": "2", "maxspeed": "40", "oneway": "yes", "ref": "EN 252", "surface": "asphalt"}}, {"type": "Feature", "geometry": {"type": "LineString", "coordinates": [[-8.9158366, 38.620216], [-8.9157526, 38.6201777], [-8.9156369, 38.6201027]]}, "properties": {"highway": "primary", "lanes": "1", "maxspeed": "50", "oneway": "yes", "ref": "EN 252", "surface": "asphalt"}}, {"type": "Feature", "geometry": {"type": "LineString", "coordinates": [[-8.8890174, 38.5751854], [-8.8889902, 38.5750594], [-8.888919, 38.5738196], [-8.8888601, 38.5732219], [-8.8888344, 38.5731215], [-8.8888093, 38.5730237], [-8.8887994, 38.5729853], [-8.8887366, 38.5727646], [-8.8887007, 38.5726382]]}, "properties": {"highway": "primary", "lanes": "2", "maxspeed": "50", "maxspeed:type": "sign", "ref": "EN 252", "surface": "asphalt"}}, {"type": "Feature", "geometry": {"type": "LineString", "coordinates": [[-8.8877228, 38.5661109], [-8.8877167, 38.5660858], [-8.8876687, 38.5659003], [-8.8876437, 38.5658078], [-8.887621, 38.5657139], [-8.8875901, 38.5655473], [-8.8875812, 38.5653838], [-8.8876241, 38.5651489], [-8.8876864, 38.5649959], [-8.8877734, 38.5648364], [-8.8879951, 38.5644217], [-8.8880536, 38.5643168], [-8.8880692, 38.5642888], [-8.8881883, 38.564075], [-8.8883537, 38.563753], [-8.8884002, 38.563651], [-8.8884156, 38.5635088]]}, "properties": {"highway": "primary", "lanes": "2", "maxspeed": "50", "maxspeed:type": "sign", "name": "Avenida Antoine Velge", "ref": "EN 252", "surface": "asphalt"}}, {"type": "Feature", "geometry": {"type": "LineString", "coordinates": [[-8.8846859, 38.5364361], [-8.8847082, 38.5365628], [-8.8847277, 38.5366197], [-8.8848056, 38.5368473]]}, "properties": {"highway": "primary", "lanes": "1", "maxspeed": "40", "name": "Avenida dos Ciprestes", "oneway": "yes", "postal_code": "2900-322;2900-319;2900-320;2900-314;2900-317;2900-315;2900-316", "postal_code:description": "2900-322:VV Jfv;2900-319:Impares de 1 a 23C;2900-320:Impares de 25 a 63B;2900-322:Impares de 71 a 151C;2900-314:Pares de 10 a 66;2900-317:Pares de 140 a 154;2900-315:Pares de 68 a 80;2900-316:Pares de 84 a 136;2900-322:Quinta Galroas", "ref": "EN 252", "surface": "asphalt"}}, {"type": "Feature", "geometry": {"type": "LineString", "coordinates": [[-8.8887007, 38.5726382], [-8.8886755, 38.5725321], [-8.8884695, 38.5716634], [-8.8882242, 38.5706278], [-8.8882108, 38.5705712]]}, "properties": {"highway": "primary", "lanes": "2", "maxspeed": "50", "maxspeed:type": "sign", "name": "Avenida Antoine Velge", "ref": "EN 252", "surface": "asphalt"}}, {"type": "Feature", "geometry": {"type": "LineString", "coordinates": [[-8.8877787, 38.5663337], [-8.8877649, 38.5662794], [-8.8877405, 38.5661871], [-8.8877228, 38.5661109]]}, "properties": {"highway": "primary", "lanes": "2", "maxspeed": "50", "maxspeed:type": "sign", "name": "Avenida Antoine Velge", "ref": "EN 252", "surface": "asphalt"}}, {"type": "Feature", "geometry": {"type": "LineString", "coordinates": [[-8.8852745, 38.5388045], [-8.8853218, 38.5393438]]}, "properties": {"highway": "primary", "lanes": "1", "maxspeed": "40", "name": "Avenida dos Ciprestes", "oneway": "yes", "postal_code": "2900-322;2900-319;2900-320;2900-314;2900-317;2900-315;2900-316", "postal_code:description": "2900-322:VV Jfv;2900-319:Impares de 1 a 23C;2900-320:Impares de 25 a 63B;2900-322:Impares de 71 a 151C;2900-314:Pares de 10 a 66;2900-317:Pares de 140 a 154;2900-315:Pares de 68 a 80;2900-316:Pares de 84 a 136;2900-322:Quinta Galroas", "ref": "EN 252", "surface": "asphalt"}}, {"type": "Feature", "geometry": {"type": "LineString", "coordinates": [[-8.8850541, 38.5416974], [-8.8850726, 38.5417228], [-8.8850993, 38.5417432], [-8.8851322, 38.5417571], [-8.8851687, 38.5417634]]}, "properties": {"highway": "primary", "junction": "roundabout", "lanes": "1", "lit": "yes", "maxspeed": "50", "name": "Avenida dos Ciprestes", "postal_code": "2900-322;2900-319;2900-320;2900-314;2900-317;2900-315;2900-316", "postal_code:description": "2900-322:VV Jfv;2900-319:Impares de 1 a 23C;2900-320:Impares de 25 a 63B;2900-322:Impares de 71 a 151C;2900-314:Pares de 10 a 66;2900-317:Pares de 140 a 154;2900-315:Pares de 68 a 80;2900-316:Pares de 84 a 136;2900-322:Quinta Galroas", "ref": "EN 252", "surface": "asphalt"}}, {"type": "Feature", "geometry": {"type": "LineString", "coordinates": [[-8.8853467, 38.5410778], [-8.8853683, 38.5410075], [-8.8853695, 38.5409923], [-8.8853746, 38.5409299], [-8.8853774, 38.5408955], [-8.8853866, 38.5407654], [-8.885392, 38.5405038]]}, "properties": {"highway": "primary", "lanes": "2", "maxspeed": "50", "name": "Avenida dos Ciprestes", "postal_code": "2900-322;2900-319;2900-320;2900-314;2900-317;2900-315;2900-316", "postal_code:description": "2900-322:VV Jfv;2900-319:Impares de 1 a 23C;2900-320:Impares de 25 a 63B;2900-322:Impares de 71 a 151C;2900-314:Pares de 10 a 66;2900-317:Pares de 140 a 154;2900-315:Pares de 68 a 80;2900-316:Pares de 84 a 136;2900-322:Quinta Galroas", "ref": "EN 252", "surface": "asphalt"}}, {"type": "Feature", "geometry": {"type": "LineString", "coordinates": [[-8.914515, 38.6332593], [-8.9145116, 38.6331811], [-8.9144781, 38.632407], [-8.914474, 38.6323182], [-8.9144657, 38.6321351], [-8.9144613, 38.6320396], [-8.9144585, 38.6319737], [-8.9144568, 38.6319283], [-8.9144564, 38.6318933], [-8.9144562, 38.6318592], [-8.9144579, 38.6318322], [-8.9144593, 38.6318141], [-8.9144612, 38.6317984], [-8.9144642, 38.6317818], [-8.9144676, 38.6317691]]}, "properties": {"highway": "primary", "lanes": "2", "lit": "yes", "maxspeed": "50", "name": "Rua Luis de Cam\u00f5es", "postal_code": "2955-205", "ref": "EN 252", "surface": "asphalt"}}, {"type": "Feature", "geometry": {"type": "LineString", "coordinates": [[-8.9144676, 38.6317691], [-8.9144977, 38.631717], [-8.9145311, 38.6316751], [-8.9145982, 38.6316361]]}, "properties": {"highway": "primary", "maxspeed": "50", "name": "Rua Luis de Cam\u00f5es", "oneway": "yes", "postal_code": "2955-205", "ref": "EN 252", "surface": "asphalt"}}, {"type": "Feature", "geometry": {"type": "LineString", "coordinates": [[-8.9147031, 38.6314448], [-8.9146683, 38.6314066], [-8.9146192, 38.6313797], [-8.9145613, 38.6313672], [-8.9145015, 38.6313705], [-8.9144493, 38.6313877], [-8.9144069, 38.631417], [-8.9143785, 38.6314552]]}, "properties": {"highway": "primary", "maxspeed": "50", "name": "Rua Luis de Cam\u00f5es", "oneway": "yes", "postal_code": "2955-205", "ref": "EN 252", "surface": "asphalt"}}, {"type": "Feature", "geometry": {"type": "LineString", "coordinates": [[-8.9143975, 38.6315825], [-8.9144326, 38.6316306], [-8.9144497, 38.6316667], [-8.9144566, 38.6317078], [-8.9144676, 38.6317691]]}, "properties": {"highway": "primary", "maxspeed": "50", "name": "Rua Luis de Cam\u00f5es", "oneway": "yes", "postal_code": "2955-205", "ref": "EN 252", "surface": "asphalt"}}, {"type": "Feature", "geometry": {"type": "LineString", "coordinates": [[-8.914692, 38.6315798], [-8.9147395, 38.6315435], [-8.9147771, 38.6315264], [-8.9148422, 38.6315157]]}, "properties": {"highway": "primary", "lit": "yes", "maxspeed": "50", "name": "Rua Luis de Cam\u00f5es", "oneway": "yes", "postal_code": "2955-205", "ref": "EN 252", "surface": "asphalt"}}, {"type": "Feature", "geometry": {"type": "LineString", "coordinates": [[-8.9148422, 38.6315157], [-8.9147826, 38.6315006], [-8.9147457, 38.6314796], [-8.9147031, 38.6314448]]}, "properties": {"highway": "primary", "lit": "yes", "maxspeed": "50", "name": "Rua Luis de Cam\u00f5es", "oneway": "yes", "postal_code": "2955-205", "ref": "EN 252", "surface": "asphalt"}}, {"type": "Feature", "geometry": {"type": "LineString", "coordinates": [[-8.914692, 38.6315798], [-8.9147157, 38.6315367], [-8.9147195, 38.6314899], [-8.9147031, 38.6314448]]}, "properties": {"highway": "primary", "lit": "yes", "maxspeed": "50", "name": "Rua Luis de Cam\u00f5es", "oneway": "yes", "postal_code": "2955-205", "ref": "EN 252", "surface": "asphalt"}}, {"type": "Feature", "geometry": {"type": "LineString", "coordinates": [[-8.9145982, 38.6316361], [-8.9146513, 38.6316142], [-8.914692, 38.6315798]]}, "properties": {"highway": "primary", "lit": "yes", "maxspeed": "50", "name": "Rua Luis de Cam\u00f5es", "oneway": "yes", "postal_code": "2955-205", "ref": "EN 252", "surface": "asphalt"}}, {"type": "Feature", "geometry": {"type": "LineString", "coordinates": [[-8.9143975, 38.6315825], [-8.9144365, 38.6316146], [-8.9144864, 38.6316354], [-8.9145422, 38.6316428], [-8.9145982, 38.6316361]]}, "properties": {"highway": "primary", "maxspeed": "50", "name": "Rua Luis de Cam\u00f5es", "oneway": "yes", "postal_code": "2955-205", "ref": "EN 252", "surface": "asphalt"}}, {"type": "Feature", "geometry": {"type": "LineString", "coordinates": [[-8.9350268, 38.6755121], [-8.9347023, 38.6751253]]}, "properties": {"highway": "primary", "lanes": "2", "maxspeed": "70", "ref": "EN 252", "surface": "asphalt"}}, {"type": "Feature", "geometry": {"type": "LineString", "coordinates": [[-8.8882289, 38.5624478], [-8.8882036, 38.5623291], [-8.8882022, 38.5623226], [-8.888187, 38.5622532], [-8.8881212, 38.5619521], [-8.8880962, 38.5618373], [-8.8879861, 38.5613333], [-8.8877271, 38.5600953], [-8.8875898, 38.5595986], [-8.8873838, 38.5590214], [-8.8872231, 38.5586024], [-8.8868247, 38.5576155]]}, "properties": {"highway": "primary", "lanes": "2", "maxspeed": "50", "maxspeed:type": "sign", "name": "Avenida Antoine Velge", "ref": "EN 252", "surface": "asphalt"}}, {"type": "Feature", "geometry": {"type": "LineString", "coordinates": [[-8.8857435, 38.5524417], [-8.8858092, 38.5521282]]}, "properties": {"highway": "primary", "lanes": "2", "maxspeed": "50", "maxspeed:type": "sign", "ref": "EN 252", "surface": "asphalt"}}, {"type": "Feature", "geometry": {"type": "LineString", "coordinates": [[-8.8858092, 38.5521282], [-8.8859376, 38.5515163]]}, "properties": {"highway": "primary", "lanes": "2", "maxspeed": "50", "maxspeed:type": "sign", "ref": "EN 252", "surface": "asphalt"}}, {"type": "Feature", "geometry": {"type": "LineString", "coordinates": [[-8.9425401, 38.6843753], [-8.9423054, 38.6841005], [-8.9421541, 38.6839213]]}, "properties": {"highway": "primary", "lanes": "1", "lit": "yes", "maxspeed": "50", "maxspeed:type": "sign", "oneway": "yes", "ref": "EN 252", "surface": "asphalt"}}, {"type": "Feature", "geometry": {"type": "LineString", "coordinates": [[-8.9419271, 38.6837515], [-8.9420799, 38.6839546]]}, "properties": {"foot": "yes", "highway": "primary", "lanes": "1", "lit": "yes", "maxspeed": "50", "oneway": "yes", "ref": "EN 252", "sidewalk": "no", "surface": "asphalt"}}, {"type": "Feature", "geometry": {"type": "LineString", "coordinates": [[-8.9420799, 38.6839546], [-8.9421395, 38.6840304], [-8.9422535, 38.6841626]]}, "properties": {"foot": "yes", "highway": "primary", "lanes": "1", "lit": "yes", "maxspeed": "50", "oneway": "yes", "ref": "EN 252", "sidewalk": "no", "surface": "asphalt"}}, {"type": "Feature", "geometry": {"type": "LineString", "coordinates": [[-8.8903239, 38.5766582], [-8.8901635, 38.5766293], [-8.8900959, 38.5765974], [-8.8900396, 38.5765586], [-8.8898687, 38.5764102], [-8.8898432, 38.5763884], [-8.8896845, 38.5763038]]}, "properties": {"highway": "primary", "lit": "yes", "maxspeed": "50", "oneway": "yes", "ref": "EN 252", "surface": "asphalt"}}, {"type": "Feature", "geometry": {"type": "LineString", "coordinates": [[-8.8896845, 38.5763038], [-8.8896104, 38.5762476]]}, "properties": {"highway": "primary", "maxspeed": "50", "ref": "EN 252", "surface": "asphalt"}}, {"type": "Feature", "geometry": {"type": "LineString", "coordinates": [[-8.8985229, 38.599849], [-8.8985844, 38.599891], [-8.8991438, 38.6002519], [-8.8996552, 38.600582]]}, "properties": {"highway": "primary", "lanes": "2", "maxspeed": "50", "ref": "EN 252", "surface": "asphalt"}}, {"type": "Feature", "geometry": {"type": "LineString", "coordinates": [[-8.9159629, 38.620403], [-8.9159773, 38.6203693]]}, "properties": {"highway": "primary", "junction": "roundabout", "ref": "EN 252", "surface": "asphalt"}}, {"type": "Feature", "geometry": {"type": "LineString", "coordinates": [[-8.9179062, 38.6180438], [-8.9178619, 38.6180109], [-8.9178075, 38.617989], [-8.9177475, 38.61798]]}, "properties": {"highway": "primary", "junction": "roundabout", "maxspeed": "50", "ref": "EN 252", "surface": "asphalt"}}, {"type": "Feature", "geometry": {"type": "LineString", "coordinates": [[-8.9177564, 38.6183159], [-8.9177965, 38.6183101], [-8.9178345, 38.6182985]]}, "properties": {"highway": "primary", "junction": "roundabout", "maxspeed": "50", "ref": "EN 252", "surface": "asphalt"}}, {"type": "Feature", "geometry": {"type": "LineString", "coordinates": [[-8.918615, 38.6237969], [-8.9186415, 38.6237513], [-8.9186501, 38.6237017], [-8.9186399, 38.6236524], [-8.9186132, 38.6236089], [-8.9185721, 38.623573]]}, "properties": {"highway": "primary", "junction": "roundabout", "maxspeed": "50", "name": "Avenida dos Ferrovi\u00e1rios", "postal_code": "2955-409", "ref": "EN 252", "surface": "asphalt"}}, {"type": "Feature", "geometry": {"type": "LineString", "coordinates": [[-8.9182748, 38.6238209], [-8.9183323, 38.6238568], [-8.9184013, 38.6238736], [-8.9184735, 38.6238719], [-8.9185411, 38.623852]]}, "properties": {"highway": "primary", "junction": "roundabout", "maxspeed": "50", "name": "Avenida dos Ferrovi\u00e1rios", "postal_code": "2955-409", "ref": "EN 252", "surface": "asphalt"}}, {"type": "Feature", "geometry": {"type": "LineString", "coordinates": [[-8.9177974, 38.6272551], [-8.9177507, 38.6272806], [-8.9177127, 38.6273113]]}, "properties": {"highway": "primary", "junction": "roundabout", "lit": "yes", "maxspeed": "50", "name": "Avenida dos Ferrovi\u00e1rios", "postal_code": "2955-409", "ref": "EN 252", "surface": "asphalt"}}, {"type": "Feature", "geometry": {"type": "LineString", "coordinates": [[-8.9148422, 38.6315157], [-8.9148962, 38.6315125], [-8.9149995, 38.6315089], [-8.9150326, 38.6315078], [-8.9150623, 38.6315069], [-8.915094, 38.631506], [-8.9151298, 38.6315052], [-8.9151812, 38.6315039], [-8.9152306, 38.6315024], [-8.9153522, 38.6314988], [-8.9157487, 38.6314874], [-8.9158925, 38.6314832]]}, "properties": {"highway": "primary", "lanes": "2", "lit": "yes", "maxspeed": "50", "name": "Rua Luis de Cam\u00f5es", "postal_code": "2955-205", "ref": "EN 252", "surface": "asphalt"}}, {"type": "Feature", "geometry": {"type": "LineString", "coordinates": [[-8.918037, 38.6272743], [-8.9179814, 38.6272509], [-8.9179198, 38.62724], [-8.9178567, 38.6272423], [-8.9177974, 38.6272551]]}, "properties": {"highway": "primary", "junction": "roundabout", "lit": "yes", "maxspeed": "50", "name": "Avenida dos Ferrovi\u00e1rios", "postal_code": "2955-409", "ref": "EN 252", "surface": "asphalt"}}, {"type": "Feature", "geometry": {"type": "LineString", "coordinates": [[-8.9185721, 38.623573], [-8.9185159, 38.6235461], [-8.9184519, 38.6235336], [-8.9183861, 38.6235364], [-8.9183243, 38.6235544]]}, "properties": {"highway": "primary", "junction": "roundabout", "lit": "yes", "maxspeed": "50", "name": "Avenida dos Ferrovi\u00e1rios", "postal_code": "2955-409", "ref": "EN 252", "surface": "asphalt"}}, {"type": "Feature", "geometry": {"type": "LineString", "coordinates": [[-8.9178345, 38.6182985], [-8.9178827, 38.6182724], [-8.9179201, 38.6182372], [-8.917944, 38.6181955], [-8.9179527, 38.6181502]]}, "properties": {"highway": "primary", "junction": "roundabout", "maxspeed": "50", "ref": "EN 252", "surface": "asphalt"}}, {"type": "Feature", "geometry": {"type": "LineString", "coordinates": [[-8.9175361, 38.618209], [-8.917566, 38.6182505], [-8.917604, 38.6182806], [-8.9176504, 38.6183024], [-8.9177023, 38.6183144], [-8.9177564, 38.6183159]]}, "properties": {"highway": "primary", "junction": "roundabout", "maxspeed": "50", "ref": "EN 252", "surface": "asphalt"}}, {"type": "Feature", "geometry": {"type": "LineString", "coordinates": [[-8.9158654, 38.6202212], [-8.9158366, 38.620216]]}, "properties": {"highway": "primary", "junction": "roundabout", "ref": "EN 252", "surface": "asphalt"}}, {"type": "Feature", "geometry": {"type": "LineString", "coordinates": [[-8.9145552, 38.6341514], [-8.9145509, 38.6340558], [-8.9145498, 38.6340307], [-8.9145351, 38.6337051], [-8.914515, 38.6332593]]}, "properties": {"highway": "primary", "lit": "yes", "maxspeed": "50", "name": "Avenida Alexandre Herculano", "postal_code": "2955-112", "ref": "EN 252", "surface": "asphalt"}}, {"type": "Feature", "geometry": {"type": "LineString", "coordinates": [[-8.9147106, 38.6381414], [-8.914707, 38.6380092], [-8.9146977, 38.6377259], [-8.9146791, 38.6372033]]}, "properties": {"highway": "primary", "lanes": "2", "maxspeed": "50", "name": "Avenida Alexandre Herculano", "postal_code": "2955-112", "ref": "EN 252", "surface": "asphalt"}}, {"type": "Feature", "geometry": {"type": "LineString", "coordinates": [[-8.917608, 38.6314423], [-8.9176482, 38.6314617], [-8.9176941, 38.6314702], [-8.917741, 38.6314668], [-8.9177842, 38.6314521]]}, "properties": {"highway": "primary", "junction": "roundabout", "lanes": "2", "maxspeed": "50", "ref": "EN 252", "surface": "asphalt"}}, {"type": "Feature", "geometry": {"type": "LineString", "coordinates": [[-8.9185411, 38.623852], [-8.9185822, 38.6238278], [-8.918615, 38.6237969]]}, "properties": {"highway": "primary", "junction": "roundabout", "maxspeed": "50", "name": "Avenida dos Ferrovi\u00e1rios", "postal_code": "2955-409", "ref": "EN 252", "surface": "asphalt"}}, {"type": "Feature", "geometry": {"type": "LineString", "coordinates": [[-8.9185721, 38.623573], [-8.9185387, 38.6234591], [-8.918528, 38.6233284], [-8.9185401, 38.6232454], [-8.9186527, 38.6224759], [-8.9187966, 38.6214925], [-8.9188282, 38.6212762]]}, "properties": {"highway": "primary", "maxspeed": "50", "name": "Avenida dos Ferrovi\u00e1rios", "oneway": "yes", "postal_code": "2955-409", "ref": "EN 252", "surface": "asphalt"}}, {"type": "Feature", "geometry": {"type": "LineString", "coordinates": [[-8.9156556, 38.6203021], [-8.9156464, 38.6203501]]}, "properties": {"highway": "primary", "junction": "roundabout", "ref": "EN 252", "surface": "asphalt"}}, {"type": "Feature", "geometry": {"type": "LineString", "coordinates": [[-8.9143785, 38.6314552], [-8.9143669, 38.6314985], [-8.9143735, 38.6315424], [-8.9143975, 38.6315825]]}, "properties": {"highway": "primary", "maxspeed": "50", "name": "Rua Luis de Cam\u00f5es", "oneway": "yes", "postal_code": "2955-205", "ref": "EN 252", "surface": "asphalt"}}, {"type": "Feature", "geometry": {"type": "LineString", "coordinates": [[-8.9179527, 38.6181502], [-8.9179411, 38.6180939], [-8.9179062, 38.6180438]]}, "properties": {"highway": "primary", "junction": "roundabout", "maxspeed": "50", "ref": "EN 252", "surface": "asphalt"}}, {"type": "Feature", "geometry": {"type": "LineString", "coordinates": [[-8.9177475, 38.61798], [-8.9176866, 38.6179845]]}, "properties": {"highway": "primary", "junction": "roundabout", "maxspeed": "50", "ref": "EN 252", "surface": "asphalt"}}, {"type": "Feature", "geometry": {"type": "LineString", "coordinates": [[-8.9260387, 38.6647862], [-8.9259986, 38.6647383], [-8.925893, 38.664612], [-8.9258639, 38.6645759], [-8.9258115, 38.6645108], [-8.9256596, 38.6643223], [-8.9248859, 38.6633667], [-8.9244439, 38.6627992]]}, "properties": {"highway": "primary", "lanes": "2", "maxspeed": "50", "ref": "EN 252", "surface": "asphalt"}}, {"type": "Feature", "geometry": {"type": "LineString", "coordinates": [[-8.9347023, 38.6751253], [-8.934437, 38.6748091]]}, "properties": {"highway": "primary", "lanes": "2", "maxspeed": "70", "ref": "EN 252", "surface": "asphalt"}}, {"type": "Feature", "geometry": {"type": "LineString", "coordinates": [[-8.9261892, 38.6649642], [-8.9260387, 38.6647862]]}, "properties": {"highway": "primary", "lanes": "2", "maxspeed": "50", "ref": "EN 252", "surface": "asphalt"}}, {"type": "Feature", "geometry": {"type": "LineString", "coordinates": [[-8.8902121, 38.5811665], [-8.8902147, 38.5819863], [-8.8902152, 38.5822132], [-8.8902154, 38.5823154], [-8.8902106, 38.582457], [-8.8902257, 38.5836886]]}, "properties": {"highway": "primary", "lanes": "2", "lit": "yes", "maxspeed": "60", "name": "Avenida Alberto Valente", "oneway": "no", "ref": "EN 252", "surface": "asphalt"}}, {"type": "Feature", "geometry": {"type": "LineString", "coordinates": [[-8.8902095, 38.5801329], [-8.8902099, 38.5804746]]}, "properties": {"highway": "primary", "lanes": "2", "lit": "yes", "maxspeed": "60", "name": "Avenida Alberto Valente", "oneway": "no", "ref": "EN 252", "surface": "asphalt"}}, {"type": "Feature", "geometry": {"type": "LineString", "coordinates": [[-8.8902099, 38.5804746], [-8.8902121, 38.5811665]]}, "properties": {"highway": "primary", "lanes": "2", "lit": "yes", "maxspeed": "60", "name": "Avenida Alberto Valente", "oneway": "no", "ref": "EN 252", "surface": "asphalt"}}, {"type": "Feature", "geometry": {"type": "LineString", "coordinates": [[-8.9158925, 38.6314832], [-8.9159971, 38.6314802], [-8.9160611, 38.6314784], [-8.9163012, 38.6314716], [-8.9163399, 38.6314705]]}, "properties": {"highway": "primary", "lit": "yes", "maxspeed": "50", "name": "Rua Luis de Cam\u00f5es", "postal_code": "2955-205", "ref": "EN 252", "surface": "asphalt"}}, {"type": "Feature", "geometry": {"type": "LineString", "coordinates": [[-8.8882562, 38.5625686], [-8.8882289, 38.5624478]]}, "properties": {"highway": "primary", "lanes": "2", "maxspeed": "50", "maxspeed:type": "sign", "name": "Avenida Antoine Velge", "ref": "EN 252", "surface": "asphalt"}}, {"type": "Feature", "geometry": {"type": "LineString", "coordinates": [[-8.8882823, 38.5626895], [-8.8882562, 38.5625686]]}, "properties": {"highway": "primary", "lanes": "2", "maxspeed": "50", "maxspeed:type": "sign", "name": "Avenida Antoine Velge", "ref": "EN 252", "surface": "asphalt"}}, {"type": "Feature", "geometry": {"type": "LineString", "coordinates": [[-8.915187, 38.6193854], [-8.9152143, 38.6194291], [-8.9153704, 38.6196787], [-8.9155558, 38.619973], [-8.9156369, 38.6201027]]}, "properties": {"highway": "primary", "lanes": "2", "maxspeed": "50", "ref": "EN 252", "surface": "asphalt"}}, {"type": "Feature", "geometry": {"type": "LineString", "coordinates": [[-8.9177492, 38.6283196], [-8.917766, 38.6282164], [-8.9178089, 38.627952], [-8.9178248, 38.6278661]]}, "properties": {"highway": "primary", "lanes": "3", "lanes:backward": "1", "lanes:forward": "2", "lit": "yes", "maxspeed": "50", "name": "Avenida dos Ferrovi\u00e1rios", "postal_code": "2955-409", "ref": "EN 252", "surface": "asphalt"}}]}