{"type": "FeatureCollection", "features": [{"type": "Feature", "geometry": {"type": "LineString", "coordinates": [[-6.5571137, 41.7378215], [-6.5565062, 41.7381261]]}, "properties": {"bridge": "yes", "foot": "yes", "highway": "primary", "lanes": "2", "layer": "1", "maxspeed": "40", "ref": "EN 218-1", "surface": "asphalt"}}, {"type": "Feature", "geometry": {"type": "LineString", "coordinates": [[-6.5817605, 41.7319907], [-6.5816028, 41.7319955], [-6.5808635, 41.7322547], [-6.5802786, 41.7325438], [-6.5786802, 41.7337702], [-6.5778516, 41.7341616], [-6.5769573, 41.7344045], [-6.576172, 41.7346178], [-6.5757961, 41.7346032], [-6.5750335, 41.7344688], [-6.5747395, 41.7345093], [-6.5746079, 41.7345814], [-6.5739032, 41.7349673], [-6.573146, 41.7350983], [-6.572836, 41.7352166], [-6.5726268, 41.7353663], [-6.5719953, 41.7361235], [-6.569557, 41.7378579], [-6.5694675, 41.737905], [-6.5693775, 41.7379432], [-6.5692187, 41.7379886], [-6.5690557, 41.7380094], [-6.5688922, 41.7380091], [-6.5687125, 41.7379867], [-6.5684181, 41.737926], [-6.5680944, 41.7378625], [-6.5679534, 41.7378615], [-6.5678092, 41.7378785], [-6.5676679, 41.7379183], [-6.567547, 41.7379771], [-6.5673894, 41.7380877], [-6.5671594, 41.7382658], [-6.566671, 41.7386285], [-6.5665244, 41.7387121], [-6.5663756, 41.7387902], [-6.5660685, 41.7389458], [-6.5656339, 41.7391754], [-6.5654816, 41.7392835], [-6.5653845, 41.7393736], [-6.565294, 41.7394751], [-6.5651344, 41.7396818], [-6.5648782, 41.740009], [-6.5647939, 41.7400828], [-6.564675, 41.7401636], [-6.5645366, 41.7402272], [-6.5642519, 41.7403322], [-6.5639521, 41.7404263], [-6.5637262, 41.7404693], [-6.5635032, 41.7404841], [-6.5631489, 41.7404763], [-6.5627919, 41.7404483], [-6.5624958, 41.7404033], [-6.5621843, 41.7403244], [-6.5618279, 41.740174]]}, "properties": {"access": "yes", "destination:forward": "ESPANHA", "highway": "primary", "lanes": "2", "maxspeed": "90", "oneway": "no", "ref": "EN 218-1", "surface": "asphalt"}}, {"type": "Feature", "geometry": {"type": "LineString", "coordinates": [[-6.6163036, 41.7601912], [-6.6161503, 41.7598539], [-6.6157746, 41.7595016], [-6.6149505, 41.7590551], [-6.6131485, 41.7580155], [-6.6127399, 41.7576309], [-6.6114269, 41.7557034], [-6.6101616, 41.7538166], [-6.6092928, 41.7525296], [-6.6077869, 41.7502989], [-6.607268, 41.7497137], [-6.6067258, 41.7492019], [-6.6063159, 41.7486916], [-6.6060248, 41.7480236], [-6.6054722, 41.7467219], [-6.6054431, 41.7466535], [-6.6053494, 41.7461514], [-6.605435, 41.7455618], [-6.6054298, 41.7450989], [-6.6053508, 41.7448271], [-6.6049749, 41.7443318], [-6.6038226, 41.7427186], [-6.6037932, 41.7426625], [-6.6031052, 41.7413486], [-6.6026044, 41.7403921], [-6.6023411, 41.739986], [-6.6014631, 41.7392178], [-6.6011119, 41.7381972], [-6.6006378, 41.7370535], [-6.6003709, 41.7366078], [-6.6003049, 41.7364591], [-6.6002996, 41.736347], [-6.6003371, 41.7361949]]}, "properties": {"access": "yes", "highway": "primary", "maxspeed": "90", "oneway": "no", "ref": "EN 218-1"}}, {"type": "Feature", "geometry": {"type": "LineString", "coordinates": [[-6.6157746, 41.7595016], [-6.6160401, 41.7595276], [-6.6162866, 41.7594695], [-6.6164916, 41.7593426]]}, "properties": {"access": "yes", "highway": "primary", "maxspeed": "90", "oneway": "no", "ref": "EN 218-1", "source": "Bing"}}, {"type": "Feature", "geometry": {"type": "LineString", "coordinates": [[-6.6004127, 41.7359675], [-6.6004765, 41.7358117], [-6.6006187, 41.7354643], [-6.600626, 41.7352262], [-6.6005647, 41.7349732], [-6.6004255, 41.7347897], [-6.6001949, 41.7346316], [-6.599899, 41.7345325], [-6.5991946, 41.7344102], [-6.5989132, 41.7343624], [-6.5986955, 41.7342472], [-6.5985444, 41.7341091], [-6.5980423, 41.7332013], [-6.5978265, 41.7328561], [-6.5975153, 41.7325219], [-6.5971599, 41.7322118], [-6.596236, 41.7316065], [-6.5959626, 41.7313902], [-6.595788, 41.7311167], [-6.5956846, 41.7308444], [-6.5956249, 41.7305263], [-6.5956253, 41.7302472], [-6.5956324, 41.7299677], [-6.5955532, 41.7297626], [-6.5953286, 41.7294289], [-6.5950552, 41.7292346], [-6.5946899, 41.729089], [-6.5937809, 41.7288815], [-6.5932132, 41.7287366], [-6.5917225, 41.7281143], [-6.5913589, 41.7280332], [-6.5910562, 41.7280282], [-6.5901432, 41.7281203], [-6.5897275, 41.7281622], [-6.5893019, 41.7281574], [-6.5868723, 41.7278138], [-6.5864847, 41.7278099], [-6.5860771, 41.7279064], [-6.5857647, 41.728053], [-6.585483, 41.7282803], [-6.5852794, 41.7285274], [-6.5848936, 41.7294658], [-6.5846548, 41.7298263], [-6.5840467, 41.730394], [-6.5836167, 41.7306994], [-6.5827144, 41.7311771], [-6.5822951, 41.731511], [-6.5819414, 41.7318272], [-6.5818277, 41.7319299], [-6.5817605, 41.7319907]]}, "properties": {"access": "yes", "highway": "primary", "lanes": "2", "maxspeed": "90", "oneway": "no", "ref": "EN 218-1", "surface": "asphalt"}}, {"type": "Feature", "geometry": {"type": "LineString", "coordinates": [[-6.6004127, 41.7359675], [-6.6003371, 41.7361949]]}, "properties": {"highway": "primary", "layer": "-1", "ref": "EN 218-1", "tunnel": "yes"}}, {"type": "Feature", "geometry": {"type": "LineString", "coordinates": [[-6.5618279, 41.740174], [-6.5616629, 41.7400761], [-6.5615101, 41.7399825], [-6.5613592, 41.7398509], [-6.5612237, 41.7397185], [-6.5611412, 41.7396202], [-6.5609059, 41.7392645], [-6.5605998, 41.7388063], [-6.5603554, 41.7385662], [-6.5596173, 41.7380441], [-6.5591618, 41.7378347], [-6.5588503, 41.7377409], [-6.5586944, 41.7377134], [-6.5585476, 41.7376933], [-6.5583097, 41.737671], [-6.5581787, 41.7376673], [-6.5579839, 41.7376717], [-6.5577469, 41.7376894], [-6.5575116, 41.7377122], [-6.5573177, 41.7377504], [-6.5571137, 41.7378215]]}, "properties": {"access": "yes", "highway": "primary", "maxspeed": "90", "oneway": "no", "ref": "EN 218-1"}}]}