{"type": "FeatureCollection", "features": [{"type": "Feature", "geometry": {"type": "LineString", "coordinates": [[-9.4657081, 38.7207182], [-9.4656898, 38.7208273], [-9.4656566, 38.7209002], [-9.4655652, 38.720979]]}, "properties": {"highway": "primary", "oneway": "yes", "ref": "EN 247-6"}}, {"type": "Feature", "geometry": {"type": "LineString", "coordinates": [[-9.4657081, 38.7207182], [-9.4656781, 38.7205868], [-9.4656359, 38.7204663], [-9.4655857, 38.7203486], [-9.4655254, 38.7202286], [-9.4654614, 38.7201165], [-9.4653834, 38.7200011], [-9.4648316, 38.7192566], [-9.4638671, 38.7179656], [-9.463814, 38.7179008], [-9.4637598, 38.7178482], [-9.463695, 38.7177911], [-9.4636267, 38.7177372], [-9.463555, 38.7176861], [-9.4634749, 38.7176332], [-9.4633973, 38.717589], [-9.4633154, 38.7175502], [-9.4632336, 38.7175173], [-9.463132, 38.7174836], [-9.4630373, 38.7174618], [-9.4629423, 38.7174462], [-9.4628368, 38.7174368], [-9.4625536, 38.7174472], [-9.4620394, 38.7174536], [-9.4620053, 38.7174541], [-9.4618779, 38.7174525], [-9.4617414, 38.7174542]]}, "properties": {"highway": "primary", "name": "Rua Ivone Silva", "ref": "EN 247-6"}}, {"type": "Feature", "geometry": {"type": "LineString", "coordinates": [[-9.465792, 38.7212578], [-9.4658588, 38.7213032], [-9.4659026, 38.7213513]]}, "properties": {"highway": "primary", "oneway": "yes", "ref": "EN 247-6"}}, {"type": "Feature", "geometry": {"type": "LineString", "coordinates": [[-9.4657512, 38.7209774], [-9.4657451, 38.7209054], [-9.4657081, 38.7207182]]}, "properties": {"highway": "primary", "oneway": "yes", "ref": "EN 247-6"}}, {"type": "Feature", "geometry": {"type": "LineString", "coordinates": [[-9.4659026, 38.7213513], [-9.4658589, 38.7212214], [-9.4658419, 38.721166], [-9.4658147, 38.7210771]]}, "properties": {"highway": "primary", "oneway": "yes", "ref": "EN 247-6"}}, {"type": "Feature", "geometry": {"type": "LineString", "coordinates": [[-9.4691624, 38.7300525], [-9.4689721, 38.7297972], [-9.4688002, 38.7295445], [-9.4686808, 38.729342], [-9.4685983, 38.7291783], [-9.4685787, 38.7291331], [-9.4685192, 38.7289916], [-9.4684763, 38.7288362], [-9.4684359, 38.7286552], [-9.4683979, 38.728355], [-9.4683167, 38.7272491], [-9.4683029, 38.7271147], [-9.4682991, 38.7270864]]}, "properties": {"highway": "primary", "lanes": "2", "name": "Rua da Areia", "ref": "EN 247-6", "surface": "asphalt"}}, {"type": "Feature", "geometry": {"type": "LineString", "coordinates": [[-9.4682025, 38.7265907], [-9.4681781, 38.7265018], [-9.4681125, 38.7263257], [-9.4680396, 38.7261383], [-9.4679911, 38.7260338], [-9.4679384, 38.7259287], [-9.4677793, 38.7256283], [-9.4677232, 38.7255297], [-9.4676563, 38.7254226], [-9.4675618, 38.7252783], [-9.467476, 38.7251473], [-9.4673977, 38.7250317], [-9.4672429, 38.7247968], [-9.4670742, 38.7245388], [-9.4668929, 38.7242138], [-9.4668343, 38.7240845], [-9.4667941, 38.7239892], [-9.4667405, 38.7238533], [-9.4666811, 38.7237038], [-9.4666041, 38.7234785], [-9.4665195, 38.7232184], [-9.4660564, 38.7218186], [-9.4660526, 38.7218073], [-9.4660261, 38.7217255], [-9.4659979, 38.7216406]]}, "properties": {"highway": "primary", "name": "Rua da Areia", "ref": "EN 247-6", "surface": "asphalt"}}, {"type": "Feature", "geometry": {"type": "LineString", "coordinates": [[-9.4659979, 38.7216406], [-9.4659026, 38.7213513]]}, "properties": {"highway": "primary", "name": "Rua da Areia", "ref": "EN 247-6", "surface": "asphalt"}}, {"type": "Feature", "geometry": {"type": "LineString", "coordinates": [[-9.4656723, 38.7212015], [-9.465792, 38.7212578]]}, "properties": {"highway": "primary", "oneway": "yes", "ref": "EN 247-6"}}, {"type": "Feature", "geometry": {"type": "LineString", "coordinates": [[-9.4682991, 38.7270864], [-9.4682631, 38.7268495], [-9.4682431, 38.7267527]]}, "properties": {"highway": "primary", "lanes": "2", "name": "Rua da Areia", "ref": "EN 247-6", "surface": "asphalt"}}, {"type": "Feature", "geometry": {"type": "LineString", "coordinates": [[-9.4682431, 38.7267527], [-9.4682342, 38.7267099], [-9.4682166, 38.726641], [-9.4682025, 38.7265907]]}, "properties": {"highway": "primary", "lanes": "2", "name": "Rua da Areia", "ref": "EN 247-6", "surface": "asphalt"}}]}