{"type": "FeatureCollection", "features": [{"type": "Feature", "geometry": {"type": "LineString", "coordinates": [[-9.3510181, 38.7757257], [-9.3510004, 38.7759151]]}, "properties": {"bicycle": "yes", "highway": "primary", "lanes": "2", "name": "Avenida Am\u00e1lia Rodrigues", "oneway": "yes", "ref": "EN 249-4", "surface": "asphalt"}}, {"type": "Feature", "geometry": {"type": "LineString", "coordinates": [[-9.3502528, 38.7779866], [-9.3501882, 38.778203], [-9.3500569, 38.7785345], [-9.3497632, 38.7792925], [-9.3497057, 38.7794204]]}, "properties": {"bicycle": "yes", "highway": "primary", "name": "Estrada de Mem Martins", "oneway": "yes", "ref": "EN 249-4", "surface": "asphalt"}}, {"type": "Feature", "geometry": {"type": "LineString", "coordinates": [[-9.3504634, 38.7774386], [-9.3502528, 38.7779866]]}, "properties": {"bicycle": "yes", "bridge": "yes", "highway": "primary", "lanes": "2", "layer": "1", "name": "Estrada de Mem Martins", "oneway": "yes", "ref": "EN 249-4", "surface": "asphalt", "turn:lanes": "through|right"}}, {"type": "Feature", "geometry": {"type": "LineString", "coordinates": [[-9.3505533, 38.7774822], [-9.3509079, 38.776521], [-9.3510235, 38.7761808], [-9.3511068, 38.7759077]]}, "properties": {"bicycle": "yes", "highway": "primary", "name": "Estrada de Mem Martins", "oneway": "yes", "ref": "EN 249-4", "surface": "asphalt"}}, {"type": "Feature", "geometry": {"type": "LineString", "coordinates": [[-9.3503286, 38.7780327], [-9.3505533, 38.7774822]]}, "properties": {"bicycle": "yes", "bridge": "yes", "highway": "primary", "lanes": "2", "layer": "1", "name": "Estrada de Mem Martins", "oneway": "yes", "ref": "EN 249-4", "surface": "asphalt"}}, {"type": "Feature", "geometry": {"type": "LineString", "coordinates": [[-9.3391129, 38.7124492], [-9.3390501, 38.712323], [-9.3389973, 38.7121999], [-9.3389849, 38.7121528], [-9.3389634, 38.7120838], [-9.3387999, 38.7115115], [-9.3387959, 38.711486], [-9.3387728, 38.7113839], [-9.3387514, 38.7112797]]}, "properties": {"highway": "primary", "lanes": "2", "maxspeed": "50", "oneway": "yes", "ref": "EN 249-4", "surface": "asphalt"}}, {"type": "Feature", "geometry": {"type": "LineString", "coordinates": [[-9.3396988, 38.7383156], [-9.3396631, 38.7376899], [-9.3396407, 38.737505], [-9.3396245, 38.7374496], [-9.3396168, 38.7374232], [-9.3395918, 38.7373683], [-9.3395237, 38.7372674], [-9.3393179, 38.7370714], [-9.3392137, 38.7369812], [-9.3391849, 38.7369419], [-9.3391724, 38.7369039], [-9.3391725, 38.7368374], [-9.3391725, 38.7366576], [-9.3391725, 38.7364421], [-9.3392016, 38.736307], [-9.3393094, 38.7360594], [-9.3393144, 38.7359959]]}, "properties": {"bicycle": "yes", "highway": "primary", "lanes": "2", "oneway": "no", "ref": "EN 249-4", "surface": "asphalt"}}, {"type": "Feature", "geometry": {"type": "LineString", "coordinates": [[-9.3340976, 38.7240914], [-9.334058, 38.7241069], [-9.3340255, 38.7241305], [-9.3340029, 38.7241602], [-9.3339919, 38.7241937], [-9.3339933, 38.7242282], [-9.3340072, 38.724261]]}, "properties": {"bicycle": "yes", "highway": "primary", "junction": "roundabout", "lanes": "2", "lit": "yes", "ref": "EN 249-4", "surface": "paved"}}, {"type": "Feature", "geometry": {"type": "LineString", "coordinates": [[-9.334008, 38.7247738], [-9.3339427, 38.7249851], [-9.3339142, 38.7250508], [-9.333844, 38.7251796], [-9.3338116, 38.7253144], [-9.3338025, 38.7254353], [-9.3338018, 38.7254442]]}, "properties": {"bicycle": "yes", "highway": "primary", "lanes": "2", "ref": "EN 249-4", "surface": "asphalt"}}, {"type": "Feature", "geometry": {"type": "LineString", "coordinates": [[-9.3345681, 38.724075], [-9.3343237, 38.724084], [-9.3342905, 38.7240852], [-9.3341872, 38.7240892]]}, "properties": {"bicycle": "yes", "highway": "primary", "lanes": "1", "oneway": "yes", "ref": "EN 249-4", "surface": "asphalt"}}, {"type": "Feature", "geometry": {"type": "LineString", "coordinates": [[-9.3342994, 38.7242339], [-9.3343288, 38.7241961], [-9.3343634, 38.7241657], [-9.3344401, 38.7241192], [-9.3345681, 38.724075]]}, "properties": {"bicycle": "yes", "highway": "primary", "lanes": "1", "lit": "yes", "oneway": "yes", "ref": "EN 249-4", "surface": "asphalt"}}, {"type": "Feature", "geometry": {"type": "LineString", "coordinates": [[-9.3471969, 38.7713577], [-9.34728, 38.7714269], [-9.34733, 38.771496], [-9.3474086, 38.7716664], [-9.3476398, 38.7720485], [-9.3479313, 38.7724675], [-9.3482879, 38.772875], [-9.3484173, 38.7729845], [-9.3485394, 38.7730878], [-9.3488735, 38.7733323], [-9.3492112, 38.7735542], [-9.3495984, 38.7737962], [-9.349926, 38.774001], [-9.3502794, 38.7742549], [-9.3505139, 38.7744695], [-9.3506226, 38.7745959], [-9.350703, 38.7747003], [-9.3507794, 38.7748258], [-9.3508452, 38.774943], [-9.350936, 38.7751595], [-9.3509754, 38.7752741], [-9.3509926, 38.7753421], [-9.3510082, 38.7754462], [-9.3510202, 38.7755915], [-9.3510181, 38.7757257]]}, "properties": {"bicycle": "yes", "highway": "primary", "lanes": "2", "name": "Avenida Am\u00e1lia Rodrigues", "oneway": "yes", "ref": "EN 249-4", "surface": "asphalt"}}, {"type": "Feature", "geometry": {"type": "LineString", "coordinates": [[-9.3511068, 38.7759077], [-9.3511183, 38.775724], [-9.3511179, 38.7756069], [-9.3511068, 38.7754623], [-9.3510778, 38.7752975], [-9.3510512, 38.775192], [-9.3510105, 38.77507], [-9.3509663, 38.7749613], [-9.3509079, 38.7748415], [-9.3508304, 38.774719], [-9.3507353, 38.7745799], [-9.3505448, 38.7743641], [-9.3503553, 38.7741972], [-9.3503185, 38.7741648], [-9.3497567, 38.7737916], [-9.3493545, 38.7735389], [-9.348879, 38.7732304], [-9.348682, 38.7730857], [-9.3484068, 38.7728521], [-9.3480355, 38.7724446], [-9.3475544, 38.7717297], [-9.3474453, 38.7715306], [-9.3474215, 38.771466], [-9.3474188, 38.7713879], [-9.3474407, 38.7713034]]}, "properties": {"bicycle": "yes", "highway": "primary", "lanes": "2", "name": "Avenida Am\u00e1lia Rodrigues", "oneway": "yes", "ref": "EN 249-4", "surface": "asphalt"}}, {"type": "Feature", "geometry": {"type": "LineString", "coordinates": [[-9.3361018, 38.7234061], [-9.3359406, 38.7235328], [-9.3358655, 38.7235917], [-9.3358369, 38.7236142], [-9.3358206, 38.7236474]]}, "properties": {"bicycle": "yes", "highway": "primary", "lanes": "1", "oneway": "yes", "ref": "EN 249-4", "surface": "paved"}}, {"type": "Feature", "geometry": {"type": "LineString", "coordinates": [[-9.3391129, 38.7124492], [-9.3390713, 38.712428], [-9.3390238, 38.7124169], [-9.3389741, 38.7124168], [-9.3389266, 38.7124277], [-9.3388849, 38.7124488], [-9.3388526, 38.7124782], [-9.338833, 38.7125117], [-9.3388258, 38.712548]]}, "properties": {"highway": "primary", "junction": "roundabout", "lanes": "2", "lit": "yes", "maxspeed": "50", "ref": "EN 249-4", "sidewalk": "right", "surface": "asphalt"}}, {"type": "Feature", "geometry": {"type": "LineString", "coordinates": [[-9.335646, 38.7237829], [-9.3354969, 38.7239026], [-9.3353552, 38.7240028]]}, "properties": {"bicycle": "yes", "highway": "primary", "lanes": "1", "oneway": "yes", "ref": "EN 249-4", "source": "Bing", "surface": "asphalt"}}, {"type": "Feature", "geometry": {"type": "LineString", "coordinates": [[-9.3472546, 38.7710629], [-9.3471497, 38.7709984], [-9.3470927, 38.7709571], [-9.3469983, 38.7708615], [-9.3468852, 38.7707308], [-9.346763, 38.7705676], [-9.346702, 38.7704669], [-9.3466303, 38.7703289], [-9.346581, 38.7702301], [-9.3465331, 38.7701115], [-9.3464794, 38.7699618], [-9.3463613, 38.7694599], [-9.3462326, 38.7688744], [-9.3461157, 38.7683333]]}, "properties": {"bicycle": "yes", "highway": "primary", "lanes": "2", "name": "Avenida Professor Doutor Ern\u00e2ni Rodrigues Lopes", "oneway": "yes", "ref": "EN 249-4", "surface": "asphalt"}}, {"type": "Feature", "geometry": {"type": "LineString", "coordinates": [[-9.3436675, 38.7545512], [-9.3437353, 38.7546334], [-9.3437648, 38.7546794], [-9.3437889, 38.754784], [-9.3438077, 38.7549681], [-9.3438262, 38.7550948], [-9.343883, 38.7553552], [-9.3440322, 38.7558794], [-9.3441149, 38.7561947], [-9.3441659, 38.7564533], [-9.344182, 38.7565992], [-9.3441914, 38.7567367], [-9.3441909, 38.7569173], [-9.3441784, 38.7571607], [-9.3441452, 38.7576645], [-9.344143, 38.7578477], [-9.3441569, 38.7580654], [-9.3441776, 38.7582422], [-9.3442037, 38.7584033], [-9.3442449, 38.7585535], [-9.3442888, 38.7586869], [-9.3443604, 38.7588659], [-9.3444772, 38.7591082], [-9.3446466, 38.759437], [-9.3449599, 38.7600027], [-9.3451423, 38.7603593], [-9.3453528, 38.760902], [-9.3461677, 38.7632665], [-9.3461661, 38.7633178], [-9.3461672, 38.7633575]]}, "properties": {"bicycle": "yes", "highway": "primary", "lanes": "2", "name": "Avenida Professor Doutor Jos\u00e9 Lu\u00eds Saldanha Sanches", "oneway": "yes", "ref": "EN 249-4", "surface": "asphalt"}}, {"type": "Feature", "geometry": {"type": "LineString", "coordinates": [[-9.3460127, 38.7683404], [-9.346126, 38.7688884], [-9.3462549, 38.7694746], [-9.3463729, 38.7699213], [-9.3463999, 38.7700302], [-9.3464646, 38.7702196], [-9.3465174, 38.7703366], [-9.3465779, 38.7704562], [-9.3466728, 38.7705989], [-9.346856, 38.7708393], [-9.3469147, 38.7708998], [-9.3470076, 38.7709963], [-9.34706, 38.7710669], [-9.347076, 38.7711066], [-9.3470934, 38.7711583]]}, "properties": {"highway": "primary", "lanes": "2", "name": "Avenida Professor Doutor Ern\u00e2ni Rodrigues Lopes", "oneway": "yes", "ref": "EN 249-4", "surface": "asphalt"}}, {"type": "Feature", "geometry": {"type": "LineString", "coordinates": [[-9.3463181, 38.7633319], [-9.3462567, 38.7632457], [-9.3454745, 38.760874], [-9.3450722, 38.7600059], [-9.3447944, 38.759489], [-9.344563, 38.75906], [-9.3445026, 38.7589386], [-9.3444536, 38.7588249], [-9.3443965, 38.7586778], [-9.3443314, 38.758449], [-9.3442906, 38.7583262], [-9.3442606, 38.7581595], [-9.3442425, 38.7579352], [-9.3442432, 38.7577802], [-9.3442465, 38.7576492], [-9.3442823, 38.7571618], [-9.3442949, 38.75692], [-9.3442968, 38.7566939], [-9.3442849, 38.7565574], [-9.3442677, 38.756444], [-9.3442252, 38.7561993], [-9.3441436, 38.7558916], [-9.343993, 38.7553522], [-9.3439431, 38.7551055], [-9.3439114, 38.7549306], [-9.3438935, 38.7548154], [-9.3438801, 38.7546773], [-9.3438828, 38.7546313], [-9.3438962, 38.7545895], [-9.3439344, 38.7545351]]}, "properties": {"bicycle": "yes", "highway": "primary", "lanes": "2", "name": "Avenida Professor Doutor Jos\u00e9 Lu\u00eds Saldanha Sanches", "oneway": "yes", "ref": "EN 249-4", "surface": "asphalt"}}, {"type": "Feature", "geometry": {"type": "LineString", "coordinates": [[-9.3462037, 38.7636938], [-9.3462898, 38.7637524], [-9.346332, 38.7638092], [-9.3463536, 38.7638649], [-9.3463688, 38.763911], [-9.3464253, 38.764124], [-9.3464571, 38.7643478], [-9.3464607, 38.7644952], [-9.3464638, 38.7646069], [-9.3464665, 38.7647209], [-9.3464571, 38.7648484], [-9.3464364, 38.7649783], [-9.3464178, 38.7650882], [-9.3463979, 38.7651834], [-9.3463739, 38.7652593], [-9.3463513, 38.7653309], [-9.3462945, 38.7655087], [-9.3460485, 38.7662842], [-9.3460087, 38.7664552], [-9.3459576, 38.7666877], [-9.3459375, 38.7668207], [-9.3459234, 38.7669141], [-9.3458977, 38.7672733], [-9.3458974, 38.7673755], [-9.3458972, 38.7674776], [-9.3459047, 38.7676254], [-9.3459244, 38.7678311]]}, "properties": {"bicycle": "yes", "highway": "primary", "lanes": "2", "name": "Avenida Professor Doutor Ern\u00e2ni Rodrigues Lopes", "oneway": "yes", "ref": "EN 249-4", "surface": "asphalt"}}, {"type": "Feature", "geometry": {"type": "LineString", "coordinates": [[-9.3460331, 38.767827], [-9.346002, 38.7675835], [-9.3459964, 38.7675024], [-9.3459988, 38.76739], [-9.3460044, 38.7672392], [-9.346018, 38.7670758], [-9.3460387, 38.7668381], [-9.3460758, 38.7666307]]}, "properties": {"bicycle": "yes", "highway": "primary", "lanes": "2", "name": "Avenida Professor Doutor Ern\u00e2ni Rodrigues Lopes", "oneway": "yes", "ref": "EN 249-4", "surface": "asphalt"}}, {"type": "Feature", "geometry": {"type": "LineString", "coordinates": [[-9.3461157, 38.7683333], [-9.3460331, 38.767827]]}, "properties": {"bicycle": "yes", "bridge": "yes", "highway": "primary", "lanes": "2", "layer": "1", "name": "Avenida Professor Doutor Ern\u00e2ni Rodrigues Lopes", "oneway": "yes", "ref": "EN 249-4", "surface": "asphalt"}}, {"type": "Feature", "geometry": {"type": "LineString", "coordinates": [[-9.3459244, 38.7678311], [-9.3460127, 38.7683404]]}, "properties": {"bicycle": "yes", "bridge": "yes", "highway": "primary", "lanes": "2", "layer": "1", "name": "Avenida Professor Doutor Ern\u00e2ni Rodrigues Lopes", "oneway": "yes", "ref": "EN 249-4", "surface": "asphalt"}}, {"type": "Feature", "geometry": {"type": "LineString", "coordinates": [[-9.3390851, 38.7129486], [-9.3390611, 38.7128084], [-9.3390635, 38.7127569], [-9.3390668, 38.7127231], [-9.3390674, 38.7126741]]}, "properties": {"highway": "primary", "lanes": "1", "oneway": "yes", "ref": "EN 249-4", "surface": "asphalt"}}, {"type": "Feature", "geometry": {"type": "LineString", "coordinates": [[-9.3389328, 38.7126751], [-9.3389526, 38.712716], [-9.338979, 38.7127705], [-9.3390851, 38.7129486]]}, "properties": {"highway": "primary", "lanes": "1", "oneway": "yes", "ref": "EN 249-4", "surface": "asphalt"}}, {"type": "Feature", "geometry": {"type": "LineString", "coordinates": [[-9.3360292, 38.7237192], [-9.3360158, 38.7236306], [-9.3360237, 38.7235506], [-9.3361018, 38.7234061]]}, "properties": {"bicycle": "yes", "highway": "primary", "lanes": "1", "oneway": "yes", "ref": "EN 249-4", "surface": "paved"}}, {"type": "Feature", "geometry": {"type": "LineString", "coordinates": [[-9.3387514, 38.7112797], [-9.3387359, 38.7107281], [-9.3387309, 38.7105973], [-9.3387085, 38.710443]]}, "properties": {"bicycle": "yes", "highway": "primary", "lanes": "1", "oneway": "yes", "ref": "EN 249-4", "surface": "asphalt"}}, {"type": "Feature", "geometry": {"type": "LineString", "coordinates": [[-9.3387069, 38.7102247], [-9.3386982, 38.7096315], [-9.3386969, 38.7084541]]}, "properties": {"highway": "primary", "lanes": "2", "maxspeed": "80", "oneway": "yes", "ref": "EN 249-4", "surface": "asphalt"}}, {"type": "Feature", "geometry": {"type": "LineString", "coordinates": [[-9.3361018, 38.7234061], [-9.3364274, 38.723128], [-9.3366666, 38.7229236], [-9.3370309, 38.7226124], [-9.3372885, 38.7223923], [-9.3373413, 38.7223472], [-9.3382426, 38.721577], [-9.3383926, 38.7214488], [-9.3386299, 38.7212458], [-9.3386746, 38.7212076], [-9.3389417, 38.7209806]]}, "properties": {"bicycle": "yes", "highway": "primary", "lanes": "2", "maxspeed": "50", "oneway": "no", "ref": "EN 249-4", "sidewalk": "both", "surface": "asphalt"}}, {"type": "Feature", "geometry": {"type": "LineString", "coordinates": [[-9.3353552, 38.7240028], [-9.3354627, 38.7239837], [-9.3355058, 38.723976], [-9.3355568, 38.7239708], [-9.3356347, 38.7239628], [-9.3356924, 38.7239625], [-9.3357242, 38.7239623], [-9.3358244, 38.7239721]]}, "properties": {"bicycle": "yes", "highway": "primary", "lanes": "1", "oneway": "yes", "ref": "EN 249-4", "surface": "asphalt"}}, {"type": "Feature", "geometry": {"type": "LineString", "coordinates": [[-9.3345681, 38.724075], [-9.335183, 38.7240301], [-9.3352606, 38.7240197], [-9.3353552, 38.7240028]]}, "properties": {"highway": "primary", "lanes": "2", "oneway": "no", "ref": "EN 249-4", "surface": "asphalt"}}, {"type": "Feature", "geometry": {"type": "LineString", "coordinates": [[-9.3430964, 38.7533609], [-9.3431684, 38.753548], [-9.3432497, 38.7537277]]}, "properties": {"bicycle": "yes", "highway": "primary", "name": "Avenida de Santa Isabel", "oneway": "yes", "ref": "EN 249-4"}}, {"type": "Feature", "geometry": {"type": "LineString", "coordinates": [[-9.3435144, 38.7540668], [-9.3434545, 38.7539681], [-9.3434005, 38.7538791], [-9.3432391, 38.7536043], [-9.3430964, 38.7533609]]}, "properties": {"bicycle": "yes", "highway": "primary", "lanes": "2", "name": "Avenida de Santa Isabel", "oneway": "yes", "ref": "EN 249-4", "surface": "asphalt"}}, {"type": "Feature", "geometry": {"type": "LineString", "coordinates": [[-9.3430964, 38.7533609], [-9.3430094, 38.7531555], [-9.3429503, 38.7530125], [-9.3429247, 38.7529334], [-9.3429148, 38.7528728], [-9.3429154, 38.7528333], [-9.3429157, 38.7528112], [-9.3429442, 38.7527131], [-9.3430594, 38.7524747], [-9.3430908, 38.7523943], [-9.3431314, 38.7522901], [-9.3431794, 38.752167], [-9.3431926, 38.7520832], [-9.3432042, 38.7520093], [-9.3432847, 38.7512587], [-9.3433302, 38.7511345], [-9.3433622, 38.751085], [-9.3434243, 38.7510265], [-9.3434665, 38.7509995], [-9.3435259, 38.7509749], [-9.3435789, 38.7509622], [-9.343658, 38.7509524], [-9.3437345, 38.7509492], [-9.3439704, 38.7509531], [-9.3440374, 38.7509506], [-9.3441025, 38.7509413], [-9.3441638, 38.7509255], [-9.3442318, 38.7509006], [-9.3442915, 38.7508627], [-9.3443319, 38.7508252], [-9.3443654, 38.7507808], [-9.3443838, 38.7507267], [-9.3444055, 38.7506561], [-9.3444049, 38.7506103], [-9.3443872, 38.7505598], [-9.3443656, 38.7505183], [-9.3443286, 38.750472], [-9.344138, 38.7502918], [-9.3438252, 38.7500294], [-9.3433885, 38.7496631], [-9.3431363, 38.749465], [-9.3430548, 38.7493884], [-9.3430277, 38.7493454], [-9.3430066, 38.7493118], [-9.3429694, 38.7492305]]}, "properties": {"bicycle": "yes", "highway": "primary", "lanes": "2", "name": "Avenida de Santa Isabel", "oneway": "no", "ref": "EN 249-4", "surface": "asphalt"}}, {"type": "Feature", "geometry": {"type": "LineString", "coordinates": [[-9.3471771, 38.7713498], [-9.3471969, 38.7713577], [-9.3472633, 38.7713705], [-9.3473314, 38.771365], [-9.347393, 38.7713417], [-9.3474407, 38.7713034]]}, "properties": {"bicycle": "yes", "highway": "primary", "junction": "roundabout", "lanes": "2", "name": "Rotunda Carlos Pinto Coelho", "ref": "EN 249-4", "surface": "asphalt"}}, {"type": "Feature", "geometry": {"type": "LineString", "coordinates": [[-9.3395847, 38.7386834], [-9.3395366, 38.7386959], [-9.3394933, 38.7387208], [-9.3394623, 38.738755], [-9.3394469, 38.7387946], [-9.339448, 38.7388359], [-9.3394656, 38.7388749]]}, "properties": {"bicycle": "yes", "highway": "primary", "junction": "roundabout", "name": "Largo Jos\u00e9 Bento Pedroso", "ref": "EN 249-4", "surface": "asphalt"}}, {"type": "Feature", "geometry": {"type": "LineString", "coordinates": [[-9.335646, 38.7237829], [-9.3356457, 38.723835], [-9.3356665, 38.7238846], [-9.3357061, 38.7239266], [-9.3357605, 38.7239567], [-9.3358244, 38.7239721]]}, "properties": {"bicycle": "yes", "highway": "primary", "junction": "roundabout", "lanes": "2", "name": "Avenida Salgueiro Maia", "ref": "EN 249-4", "surface": "paved"}}, {"type": "Feature", "geometry": {"type": "LineString", "coordinates": [[-9.3337903, 38.7256209], [-9.3337939, 38.7257271], [-9.3338487, 38.7259206], [-9.3339971, 38.7261739], [-9.3340648, 38.7262885], [-9.3342856, 38.7266625], [-9.3346232, 38.7272343], [-9.3346727, 38.7273181], [-9.3348015, 38.7275442], [-9.3348384, 38.7276033], [-9.3348833, 38.7276551], [-9.3349391, 38.7276922]]}, "properties": {"bicycle": "yes", "highway": "primary", "lanes": "2", "ref": "EN 249-4", "surface": "asphalt"}}, {"type": "Feature", "geometry": {"type": "LineString", "coordinates": [[-9.3465725, 38.7647612], [-9.3465743, 38.7645755], [-9.3465653, 38.7644033], [-9.3465585, 38.7643132], [-9.3465259, 38.7641268], [-9.3464986, 38.7640009], [-9.3464424, 38.7638467], [-9.346433, 38.7637958], [-9.3464299, 38.7637791], [-9.3464298, 38.763719], [-9.3464404, 38.7636683]]}, "properties": {"bicycle": "yes", "foot": "no", "highway": "primary", "lanes": "2", "lit": "yes", "maxspeed": "40", "name": "Avenida Professor Doutor Ern\u00e2ni Rodrigues Lopes", "oneway": "yes", "ref": "EN 249-4", "shoulder": "both", "sidewalk": "no", "surface": "asphalt"}}, {"type": "Feature", "geometry": {"type": "LineString", "coordinates": [[-9.3460758, 38.7666307], [-9.3461145, 38.7664474], [-9.3462088, 38.7661175], [-9.3462396, 38.7660141], [-9.3463935, 38.7655199], [-9.3464436, 38.7653752], [-9.3464859, 38.765254], [-9.3465202, 38.7651161]]}, "properties": {"bicycle": "yes", "foot": "no", "highway": "primary", "lanes": "2", "lit": "yes", "maxspeed": "60", "name": "Avenida Professor Doutor Ern\u00e2ni Rodrigues Lopes", "oneway": "yes", "ref": "EN 249-4", "shoulder": "both", "sidewalk": "no", "surface": "asphalt"}}, {"type": "Feature", "geometry": {"type": "LineString", "coordinates": [[-9.3465202, 38.7651161], [-9.3465437, 38.7649711], [-9.3465648, 38.7648536], [-9.3465725, 38.7647612]]}, "properties": {"bicycle": "yes", "foot": "no", "highway": "primary", "lanes": "2", "lit": "yes", "maxspeed": "50", "name": "Avenida Professor Doutor Ern\u00e2ni Rodrigues Lopes", "oneway": "yes", "ref": "EN 249-4", "shoulder": "both", "sidewalk": "no", "surface": "asphalt"}}, {"type": "Feature", "geometry": {"type": "LineString", "coordinates": [[-9.3497061, 38.7797987], [-9.349701, 38.779709], [-9.3497295, 38.7795925], [-9.3498078, 38.7794012]]}, "properties": {"bicycle": "yes", "highway": "primary", "name": "Estrada de Mem Martins", "oneway": "yes", "ref": "EN 249-4", "surface": "asphalt"}}, {"type": "Feature", "geometry": {"type": "LineString", "coordinates": [[-9.3497057, 38.7794204], [-9.3496118, 38.7795971], [-9.3495577, 38.7796718], [-9.3494709, 38.7797436]]}, "properties": {"bicycle": "yes", "highway": "primary", "lanes": "2", "name": "Estrada de Mem Martins", "oneway": "yes", "ref": "EN 249-4", "surface": "asphalt"}}, {"type": "Feature", "geometry": {"type": "LineString", "coordinates": [[-9.3510004, 38.7759151], [-9.3509552, 38.7761769], [-9.3508721, 38.7764156], [-9.3505871, 38.7771519]]}, "properties": {"bicycle": "yes", "highway": "primary", "lanes": "1", "name": "Estrada de Mem Martins", "oneway": "yes", "ref": "EN 249-4", "surface": "asphalt"}}, {"type": "Feature", "geometry": {"type": "LineString", "coordinates": [[-9.3381623, 38.711051], [-9.3382093, 38.7111237], [-9.3382334, 38.7111818], [-9.3382544, 38.7112753], [-9.3382703, 38.7113649], [-9.3382803, 38.711444], [-9.3382817, 38.7115224], [-9.3382778, 38.7117649], [-9.3382809, 38.7118947], [-9.3383025, 38.7120197], [-9.3383199, 38.712077], [-9.3383507, 38.7121398], [-9.3384024, 38.7122199], [-9.338446, 38.7122795], [-9.3385398, 38.7123748], [-9.3386042, 38.7124255], [-9.3386894, 38.712481], [-9.3387446, 38.712511], [-9.3387816, 38.712525], [-9.3388258, 38.712548]]}, "properties": {"highway": "primary", "lanes": "2", "name": "Rua Jos\u00e9 Moreira", "oneway": "yes", "ref": "EN 249-4", "surface": "asphalt"}}, {"type": "Feature", "geometry": {"type": "LineString", "coordinates": [[-9.3384923, 38.710885], [-9.3385385, 38.7108197], [-9.3385955, 38.7107501], [-9.338627, 38.7107135], [-9.3386605, 38.7106591], [-9.338686, 38.7105717], [-9.3387085, 38.710443]]}, "properties": {"bicycle": "yes", "highway": "primary", "lanes": "1", "oneway": "yes", "ref": "EN 249-4", "surface": "asphalt"}}, {"type": "Feature", "geometry": {"type": "LineString", "coordinates": [[-9.3385815, 38.7078063], [-9.3385759, 38.7082438]]}, "properties": {"bridge": "yes", "highway": "primary", "lanes": "2", "layer": "1", "maxspeed": "80", "oneway": "yes", "ref": "EN 249-4"}}, {"type": "Feature", "geometry": {"type": "LineString", "coordinates": [[-9.3386969, 38.7084541], [-9.3386982, 38.7083422], [-9.3386993, 38.7082445]]}, "properties": {"highway": "primary", "lanes": "3", "oneway": "yes", "ref": "EN 249-4", "surface": "asphalt"}}, {"type": "Feature", "geometry": {"type": "LineString", "coordinates": [[-9.3385759, 38.7082438], [-9.3385802, 38.7088005], [-9.3385909, 38.7094881], [-9.3385949, 38.7099961], [-9.3385918, 38.7102255]]}, "properties": {"highway": "primary", "lanes": "2", "maxspeed": "80", "oneway": "yes", "ref": "EN 249-4", "surface": "asphalt"}}, {"type": "Feature", "geometry": {"type": "LineString", "coordinates": [[-9.3386993, 38.7082445], [-9.338708, 38.7077838], [-9.338706, 38.7076431]]}, "properties": {"bridge": "yes", "highway": "primary", "lanes": "3", "layer": "1", "oneway": "yes", "ref": "EN 249-4"}}, {"type": "Feature", "geometry": {"type": "LineString", "coordinates": [[-9.3502451, 38.7782679], [-9.3503286, 38.7780327]]}, "properties": {"bicycle": "yes", "highway": "primary", "lanes": "2", "name": "Estrada de Mem Martins", "oneway": "yes", "ref": "EN 249-4", "surface": "asphalt"}}, {"type": "Feature", "geometry": {"type": "LineString", "coordinates": [[-9.3505871, 38.7771519], [-9.3504634, 38.7774386]]}, "properties": {"bicycle": "yes", "highway": "primary", "lanes": "2", "name": "Estrada de Mem Martins", "oneway": "yes", "ref": "EN 249-4", "surface": "asphalt"}}, {"type": "Feature", "geometry": {"type": "LineString", "coordinates": [[-9.338706, 38.7076431], [-9.3387071, 38.707282]]}, "properties": {"highway": "primary", "lanes": "3", "oneway": "yes", "ref": "EN 249-4", "surface": "asphalt"}}, {"type": "Feature", "geometry": {"type": "LineString", "coordinates": [[-9.3395071, 38.7175448], [-9.3395311, 38.7173108], [-9.3395427, 38.7171982], [-9.3395665, 38.7170017], [-9.3396298, 38.7164982], [-9.3396429, 38.7163942], [-9.3396426, 38.7163365], [-9.3396318, 38.7162643], [-9.3396044, 38.7161764], [-9.339558, 38.7160932], [-9.3395125, 38.716036], [-9.3394676, 38.7159843], [-9.3393867, 38.7159059], [-9.3390846, 38.7155985], [-9.3390441, 38.7155357], [-9.3390189, 38.7154729], [-9.3390083, 38.7154218], [-9.3390049, 38.7153516], [-9.3390126, 38.7152833], [-9.3390379, 38.7151534], [-9.3391169, 38.7147623], [-9.3391595, 38.7145531], [-9.3391965, 38.7143709], [-9.3392425, 38.7141443], [-9.3392531, 38.7140895], [-9.3392627, 38.7140161], [-9.3392667, 38.7139329], [-9.3392553, 38.713794], [-9.3391779, 38.7132522], [-9.3391063, 38.7130129], [-9.3390851, 38.7129486]]}, "properties": {"bicycle": "yes", "highway": "primary", "lanes": "2", "lit": "yes", "maxspeed": "50", "oneway": "no", "ref": "EN 249-4", "sidewalk": "both", "surface": "asphalt"}}, {"type": "Feature", "geometry": {"type": "LineString", "coordinates": [[-9.3389417, 38.7209806], [-9.3391713, 38.7207705], [-9.3392479, 38.7206971]]}, "properties": {"bicycle": "yes", "highway": "primary", "lanes": "2", "maxspeed": "50", "oneway": "no", "ref": "EN 249-4", "surface": "asphalt"}}, {"type": "Feature", "geometry": {"type": "LineString", "coordinates": [[-9.335384, 38.7285277], [-9.3354838, 38.7286967], [-9.3356651, 38.7290037], [-9.3358134, 38.729255], [-9.3359122, 38.7294222], [-9.3361263, 38.7297847], [-9.3363345, 38.7301416], [-9.3363836, 38.7302257], [-9.3366753, 38.7307256], [-9.336756, 38.730864], [-9.3369867, 38.7312593], [-9.337101, 38.7314551], [-9.3372558, 38.7317166], [-9.3373496, 38.7318751], [-9.3374142, 38.7319852], [-9.3374555, 38.7320556], [-9.3377963, 38.7326424], [-9.3384179, 38.7337127], [-9.3384542, 38.7337745], [-9.3385408, 38.7339223], [-9.3387953, 38.7343157], [-9.3389351, 38.7345761], [-9.338975, 38.7347022], [-9.3390064, 38.7348348], [-9.3391477, 38.7354322], [-9.3391676, 38.7354981], [-9.3392066, 38.7356272], [-9.339284, 38.7358837], [-9.3393144, 38.7359959]]}, "properties": {"bicycle": "yes", "highway": "primary", "lanes": "2", "maxspeed": "50", "maxspeed:type": "sign", "ref": "EN 249-4", "surface": "asphalt"}}, {"type": "Feature", "geometry": {"type": "LineString", "coordinates": [[-9.3349391, 38.7276922], [-9.3350553, 38.7278119], [-9.3350869, 38.7278444]]}, "properties": {"bicycle": "yes", "highway": "primary", "oneway": "yes", "ref": "EN 249-4", "surface": "paved"}}, {"type": "Feature", "geometry": {"type": "LineString", "coordinates": [[-9.3352483, 38.7282098], [-9.3352541, 38.7282828], [-9.3352756, 38.7283403], [-9.335318, 38.7284156], [-9.335384, 38.7285277]]}, "properties": {"bicycle": "yes", "highway": "primary", "lanes": "2", "oneway": "no", "ref": "EN 249-4", "surface": "asphalt"}}, {"type": "Feature", "geometry": {"type": "LineString", "coordinates": [[-9.3395101, 38.7204593], [-9.3394824, 38.7204455], [-9.3394507, 38.7204385], [-9.3394179, 38.7204391], [-9.3393866, 38.7204471], [-9.3393597, 38.7204619]]}, "properties": {"bicycle": "yes", "highway": "primary", "junction": "roundabout", "lanes": "1", "maxspeed": "50", "ref": "EN 249-4", "surface": "asphalt"}}, {"type": "Feature", "geometry": {"type": "LineString", "coordinates": [[-9.3393703, 38.7202628], [-9.3393673, 38.7202191], [-9.3393692, 38.720161], [-9.3393798, 38.7199661], [-9.3394008, 38.7195767], [-9.3394116, 38.7193773], [-9.3394181, 38.7192584], [-9.3394225, 38.7191753]]}, "properties": {"bicycle": "yes", "highway": "primary", "lanes": "2", "lit": "yes", "maxspeed": "50", "oneway": "no", "ref": "EN 249-4", "surface": "asphalt"}}, {"type": "Feature", "geometry": {"type": "LineString", "coordinates": [[-9.3352115, 38.7280505], [-9.3352252, 38.7280985], [-9.335234, 38.7281295], [-9.3352483, 38.7282098]]}, "properties": {"bicycle": "yes", "highway": "primary", "oneway": "yes", "ref": "EN 249-4", "surface": "paved"}}, {"type": "Feature", "geometry": {"type": "LineString", "coordinates": [[-9.3411476, 38.7406979], [-9.3411335, 38.7406529], [-9.3410809, 38.7404947], [-9.3410388, 38.7404263]]}, "properties": {"bicycle": "yes", "highway": "primary", "lanes": "2", "oneway": "no", "ref": "EN 249-4", "surface": "asphalt"}}, {"type": "Feature", "geometry": {"type": "LineString", "coordinates": [[-9.3411808, 38.7408895], [-9.3411476, 38.7406979]]}, "properties": {"bicycle": "yes", "highway": "primary", "lanes": "2", "oneway": "no", "ref": "EN 249-4", "surface": "asphalt"}}, {"type": "Feature", "geometry": {"type": "LineString", "coordinates": [[-9.3410388, 38.7404263], [-9.3409779, 38.7403608], [-9.3408312, 38.7402096], [-9.3406688, 38.740042], [-9.3405813, 38.7399518], [-9.3404715, 38.7398386], [-9.3401117, 38.7394937], [-9.3398777, 38.7392694], [-9.3398596, 38.739241], [-9.3397726, 38.7390713]]}, "properties": {"bicycle": "yes", "highway": "primary", "lanes": "2", "oneway": "no", "ref": "EN 249-4", "surface": "asphalt"}}, {"type": "Feature", "geometry": {"type": "LineString", "coordinates": [[-9.3387085, 38.710443], [-9.3387064, 38.7103172], [-9.3387069, 38.7102247]]}, "properties": {"bicycle": "yes", "highway": "primary", "lanes": "2", "oneway": "yes", "ref": "EN 249-4", "surface": "asphalt"}}, {"type": "Feature", "geometry": {"type": "LineString", "coordinates": [[-9.3385918, 38.7102255], [-9.3385972, 38.7104859], [-9.3385968, 38.7105487], [-9.3385868, 38.7106062], [-9.3385673, 38.7106504], [-9.3385351, 38.7106952], [-9.338502, 38.7107289], [-9.3384651, 38.710753], [-9.3384356, 38.7107658], [-9.3383574, 38.7107914]]}, "properties": {"highway": "primary", "lanes": "2", "oneway": "yes", "ref": "EN 249-4", "surface": "asphalt"}}, {"type": "Feature", "geometry": {"type": "LineString", "coordinates": [[-9.3381623, 38.711051], [-9.3382052, 38.7110656], [-9.3382575, 38.7110698], [-9.3383514, 38.7110546], [-9.3384185, 38.7110327], [-9.338452, 38.7110128], [-9.3384771, 38.7109872], [-9.3384909, 38.7109641], [-9.3384996, 38.7109186]]}, "properties": {"highway": "primary", "junction": "roundabout", "lanes": "2", "ref": "EN 249-4", "surface": "asphalt"}}, {"type": "Feature", "geometry": {"type": "LineString", "coordinates": [[-9.3394225, 38.7191753], [-9.3394279, 38.719072], [-9.3394351, 38.7189334], [-9.3394504, 38.7185904], [-9.339465, 38.718263], [-9.3394765, 38.7180184], [-9.3395071, 38.7175448]]}, "properties": {"bicycle": "yes", "highway": "primary", "lanes": "2", "lit": "yes", "maxspeed": "50", "oneway": "no", "ref": "EN 249-4", "sidewalk": "both", "surface": "asphalt"}}, {"type": "Feature", "geometry": {"type": "LineString", "coordinates": [[-9.3340705, 38.7244405], [-9.3341108, 38.7243928], [-9.3341437, 38.724363], [-9.3342115, 38.7243179]]}, "properties": {"highway": "primary", "oneway": "yes", "ref": "EN 249-4", "surface": "paved"}}, {"type": "Feature", "geometry": {"type": "LineString", "coordinates": [[-9.3340225, 38.7242804], [-9.3340404, 38.7243175], [-9.3340545, 38.7243552], [-9.3340705, 38.7244405]]}, "properties": {"highway": "primary", "oneway": "yes", "ref": "EN 249-4", "surface": "paved"}}, {"type": "Feature", "geometry": {"type": "LineString", "coordinates": [[-9.3425322, 38.7476017], [-9.3424541, 38.7473113], [-9.3424326, 38.747231], [-9.3424259, 38.7472062]]}, "properties": {"bicycle": "yes", "highway": "primary", "lanes": "2", "name": "Avenida de Santa Isabel", "oneway": "no", "ref": "EN 249-4", "surface": "asphalt"}}, {"type": "Feature", "geometry": {"type": "LineString", "coordinates": [[-9.3424259, 38.7472062], [-9.3423557, 38.746949], [-9.3422845, 38.7466903], [-9.3422542, 38.7465804], [-9.3421276, 38.7461485], [-9.3421124, 38.7460874], [-9.3420277, 38.7457605], [-9.3420016, 38.7456569], [-9.3419429, 38.745434]]}, "properties": {"bicycle": "yes", "highway": "primary", "lanes": "2", "name": "Avenida de Santa Isabel", "oneway": "no", "ref": "EN 249-4", "surface": "asphalt"}}, {"type": "Feature", "geometry": {"type": "LineString", "coordinates": [[-9.3426382, 38.7479881], [-9.3425725, 38.7477487], [-9.3425322, 38.7476017]]}, "properties": {"bicycle": "yes", "highway": "primary", "lanes": "2", "name": "Avenida de Santa Isabel", "oneway": "no", "ref": "EN 249-4", "surface": "asphalt"}}, {"type": "Feature", "geometry": {"type": "LineString", "coordinates": [[-9.3340225, 38.7242804], [-9.3340607, 38.7243084], [-9.3341086, 38.724325], [-9.3341608, 38.7243283], [-9.3342115, 38.7243179]]}, "properties": {"bicycle": "yes", "highway": "primary", "junction": "roundabout", "lanes": "2", "lit": "yes", "ref": "EN 249-4", "surface": "asphalt"}}, {"type": "Feature", "geometry": {"type": "LineString", "coordinates": [[-9.3342994, 38.7242339], [-9.3343027, 38.7241968], [-9.3342915, 38.7241606], [-9.3342668, 38.7241287], [-9.3342309, 38.7241042], [-9.3341872, 38.7240892]]}, "properties": {"bicycle": "yes", "highway": "primary", "junction": "roundabout", "lanes": "2", "lit": "yes", "ref": "EN 249-4", "surface": "asphalt"}}, {"type": "Feature", "geometry": {"type": "LineString", "coordinates": [[-9.3358206, 38.7236474], [-9.3357583, 38.7236632], [-9.3357052, 38.7236932], [-9.3356665, 38.7237344], [-9.335646, 38.7237829]]}, "properties": {"bicycle": "yes", "highway": "primary", "junction": "roundabout", "lanes": "2", "name": "Avenida Salgueiro Maia", "ref": "EN 249-4", "surface": "paved"}}, {"type": "Feature", "geometry": {"type": "LineString", "coordinates": [[-9.3358244, 38.7239721], [-9.3358746, 38.7239728], [-9.3359237, 38.7239643], [-9.3359687, 38.7239469]]}, "properties": {"bicycle": "yes", "highway": "primary", "junction": "roundabout", "lanes": "2", "name": "Avenida Salgueiro Maia", "ref": "EN 249-4", "surface": "paved"}}, {"type": "Feature", "geometry": {"type": "LineString", "coordinates": [[-9.3342115, 38.7243179], [-9.3342423, 38.7243035], [-9.334268, 38.724284], [-9.3342806, 38.7242687], [-9.3342874, 38.7242604], [-9.3342994, 38.7242339]]}, "properties": {"bicycle": "yes", "highway": "primary", "junction": "roundabout", "lanes": "2", "lit": "yes", "ref": "EN 249-4", "surface": "asphalt"}}, {"type": "Feature", "geometry": {"type": "LineString", "coordinates": [[-9.3338018, 38.7254442], [-9.3337903, 38.7256209]]}, "properties": {"bicycle": "yes", "highway": "primary", "lanes": "2", "ref": "EN 249-4", "surface": "asphalt"}}, {"type": "Feature", "geometry": {"type": "LineString", "coordinates": [[-9.3340705, 38.7244405], [-9.334046, 38.7245833], [-9.334008, 38.7247738]]}, "properties": {"bicycle": "yes", "highway": "primary", "lanes": "2", "ref": "EN 249-4", "surface": "asphalt"}}, {"type": "Feature", "geometry": {"type": "LineString", "coordinates": [[-9.3397605, 38.7387495], [-9.3397289, 38.7387175], [-9.3396862, 38.7386945], [-9.3396366, 38.7386827], [-9.3395847, 38.7386834]]}, "properties": {"bicycle": "yes", "highway": "primary", "junction": "roundabout", "name": "Largo Jos\u00e9 Bento Pedroso", "ref": "EN 249-4", "surface": "asphalt"}}, {"type": "Feature", "geometry": {"type": "LineString", "coordinates": [[-9.3395985, 38.738943], [-9.3396581, 38.7389387], [-9.3397121, 38.7389184], [-9.3397535, 38.7388846]]}, "properties": {"bicycle": "yes", "highway": "primary", "junction": "roundabout", "name": "Largo Jos\u00e9 Bento Pedroso", "ref": "EN 249-4", "surface": "asphalt"}}, {"type": "Feature", "geometry": {"type": "LineString", "coordinates": [[-9.3397605, 38.7387495], [-9.3397327, 38.7386182], [-9.3397076, 38.738527]]}, "properties": {"highway": "primary", "oneway": "yes", "ref": "EN 249-4", "surface": "asphalt"}}, {"type": "Feature", "geometry": {"type": "LineString", "coordinates": [[-9.3397726, 38.7390713], [-9.3397582, 38.738998], [-9.3397549, 38.7389336], [-9.3397535, 38.7388846]]}, "properties": {"highway": "primary", "oneway": "yes", "ref": "EN 249-4", "surface": "asphalt"}}, {"type": "Feature", "geometry": {"type": "LineString", "coordinates": [[-9.3395985, 38.738943], [-9.3396704, 38.7389865], [-9.33971, 38.7390163], [-9.3397726, 38.7390713]]}, "properties": {"highway": "primary", "oneway": "yes", "ref": "EN 249-4", "surface": "asphalt"}}, {"type": "Feature", "geometry": {"type": "LineString", "coordinates": [[-9.3397076, 38.738527], [-9.3396798, 38.7385832], [-9.3396664, 38.7386073], [-9.3396355, 38.7386501], [-9.3395847, 38.7386834]]}, "properties": {"highway": "primary", "oneway": "yes", "ref": "EN 249-4", "surface": "asphalt"}}, {"type": "Feature", "geometry": {"type": "LineString", "coordinates": [[-9.3360292, 38.7237192], [-9.3359894, 38.7236842], [-9.3359384, 38.7236594], [-9.3358806, 38.7236468], [-9.3358206, 38.7236474]]}, "properties": {"bicycle": "yes", "highway": "primary", "junction": "roundabout", "lanes": "2", "name": "Avenida Salgueiro Maia", "ref": "EN 249-4", "surface": "paved"}}, {"type": "Feature", "geometry": {"type": "LineString", "coordinates": [[-9.339327, 38.7205416], [-9.3393376, 38.7205655], [-9.3393567, 38.720586], [-9.3393824, 38.7206013], [-9.3394127, 38.7206103], [-9.3394451, 38.7206121]]}, "properties": {"bicycle": "yes", "highway": "primary", "junction": "roundabout", "lanes": "1", "maxspeed": "50", "ref": "EN 249-4", "surface": "asphalt"}}, {"type": "Feature", "geometry": {"type": "LineString", "coordinates": [[-9.3393597, 38.7204619], [-9.3393374, 38.720485], [-9.3393359, 38.7204886], [-9.3393261, 38.7205126], [-9.339327, 38.7205416]]}, "properties": {"bicycle": "yes", "highway": "primary", "junction": "roundabout", "lanes": "1", "maxspeed": "50", "ref": "EN 249-4", "surface": "asphalt"}}, {"type": "Feature", "geometry": {"type": "LineString", "coordinates": [[-9.3389328, 38.7126751], [-9.3389773, 38.7126842], [-9.3390232, 38.7126838], [-9.3390674, 38.7126741]]}, "properties": {"highway": "primary", "junction": "roundabout", "lanes": "2", "lit": "yes", "maxspeed": "50", "ref": "EN 249-4", "sidewalk": "right", "surface": "asphalt"}}, {"type": "Feature", "geometry": {"type": "LineString", "coordinates": [[-9.3388258, 38.712548], [-9.3388343, 38.7125921], [-9.3388607, 38.7126317], [-9.3388931, 38.7126572]]}, "properties": {"highway": "primary", "junction": "roundabout", "lanes": "2", "lit": "yes", "maxspeed": "50", "ref": "EN 249-4", "sidewalk": "right", "surface": "asphalt"}}, {"type": "Feature", "geometry": {"type": "LineString", "coordinates": [[-9.3381724, 38.7108244], [-9.3381214, 38.7108569], [-9.3380953, 38.7108961], [-9.3380859, 38.7109469], [-9.3380919, 38.7109814], [-9.3381207, 38.7110222]]}, "properties": {"highway": "primary", "junction": "roundabout", "lanes": "2", "ref": "EN 249-4", "surface": "asphalt"}}, {"type": "Feature", "geometry": {"type": "LineString", "coordinates": [[-9.3391343, 38.7126338], [-9.3391583, 38.7126018], [-9.3391702, 38.712566], [-9.3391692, 38.712529], [-9.3391553, 38.7124935]]}, "properties": {"highway": "primary", "junction": "roundabout", "lanes": "2", "lit": "yes", "maxspeed": "50", "ref": "EN 249-4", "sidewalk": "right", "surface": "asphalt"}}, {"type": "Feature", "geometry": {"type": "LineString", "coordinates": [[-9.3394451, 38.7206121], [-9.3394767, 38.7206066], [-9.3395062, 38.7205935], [-9.3395292, 38.7205741], [-9.3395438, 38.7205503], [-9.3395486, 38.7205241], [-9.339543, 38.720498], [-9.3395315, 38.7204787], [-9.3395101, 38.7204593]]}, "properties": {"bicycle": "yes", "highway": "primary", "junction": "roundabout", "lanes": "1", "maxspeed": "50", "ref": "EN 249-4", "surface": "asphalt"}}, {"type": "Feature", "geometry": {"type": "LineString", "coordinates": [[-9.3360081, 38.7239209], [-9.3360442, 38.7238789], [-9.3360622, 38.7238302], [-9.3360604, 38.7237796], [-9.3360389, 38.7237319]]}, "properties": {"bicycle": "yes", "highway": "primary", "junction": "roundabout", "lanes": "2", "name": "Avenida Salgueiro Maia", "ref": "EN 249-4", "surface": "paved"}}, {"type": "Feature", "geometry": {"type": "LineString", "coordinates": [[-9.3397535, 38.7388846], [-9.339768, 38.7388634], [-9.3397804, 38.7388254], [-9.3397778, 38.7387863], [-9.3397605, 38.7387495]]}, "properties": {"bicycle": "yes", "highway": "primary", "junction": "roundabout", "name": "Largo Jos\u00e9 Bento Pedroso", "ref": "EN 249-4", "surface": "asphalt"}}, {"type": "Feature", "geometry": {"type": "LineString", "coordinates": [[-9.3498078, 38.7794012], [-9.3502451, 38.7782679]]}, "properties": {"bicycle": "yes", "highway": "primary", "name": "Estrada de Mem Martins", "oneway": "yes", "ref": "EN 249-4", "surface": "asphalt"}}, {"type": "Feature", "geometry": {"type": "LineString", "coordinates": [[-9.3474489, 38.7712933], [-9.3474721, 38.7712432], [-9.3474722, 38.7711899], [-9.347449, 38.7711398]]}, "properties": {"bicycle": "yes", "highway": "primary", "junction": "roundabout", "lanes": "2", "name": "Rotunda Carlos Pinto Coelho", "ref": "EN 249-4", "surface": "asphalt"}}, {"type": "Feature", "geometry": {"type": "LineString", "coordinates": [[-9.3470798, 38.771201], [-9.3470822, 38.771245], [-9.3471004, 38.7712866], [-9.3471329, 38.7713225], [-9.3471771, 38.7713498]]}, "properties": {"bicycle": "yes", "highway": "primary", "junction": "roundabout", "lanes": "2", "name": "Rotunda Carlos Pinto Coelho", "ref": "EN 249-4", "surface": "asphalt"}}, {"type": "Feature", "geometry": {"type": "LineString", "coordinates": [[-9.347449, 38.7711398], [-9.3474136, 38.7711045], [-9.3473666, 38.7710786], [-9.3473121, 38.7710644], [-9.3472546, 38.7710629], [-9.3472054, 38.7710724], [-9.3471608, 38.7710913], [-9.3471239, 38.7711184], [-9.3470934, 38.7711583], [-9.3470798, 38.771201]]}, "properties": {"bicycle": "yes", "highway": "primary", "junction": "roundabout", "lanes": "2", "name": "Rotunda Carlos Pinto Coelho", "ref": "EN 249-4", "surface": "asphalt"}}, {"type": "Feature", "geometry": {"type": "LineString", "coordinates": [[-9.3390674, 38.7126741], [-9.3391041, 38.7126572], [-9.3391343, 38.7126338]]}, "properties": {"highway": "primary", "junction": "roundabout", "lanes": "2", "lit": "yes", "maxspeed": "50", "ref": "EN 249-4", "sidewalk": "right", "surface": "asphalt"}}, {"type": "Feature", "geometry": {"type": "LineString", "coordinates": [[-9.3391553, 38.7124935], [-9.339137, 38.7124696], [-9.3391129, 38.7124492]]}, "properties": {"highway": "primary", "junction": "roundabout", "lanes": "2", "lit": "yes", "maxspeed": "50", "ref": "EN 249-4", "sidewalk": "right", "sidewalk:right:surface": "sett", "surface": "asphalt"}}, {"type": "Feature", "geometry": {"type": "LineString", "coordinates": [[-9.3359687, 38.7239469], [-9.3360081, 38.7239209]]}, "properties": {"bicycle": "yes", "highway": "primary", "junction": "roundabout", "lanes": "2", "name": "Avenida Salgueiro Maia", "ref": "EN 249-4", "surface": "paved"}}, {"type": "Feature", "geometry": {"type": "LineString", "coordinates": [[-9.3340072, 38.724261], [-9.3340225, 38.7242804]]}, "properties": {"bicycle": "yes", "highway": "primary", "junction": "roundabout", "lanes": "2", "lit": "yes", "ref": "EN 249-4", "surface": "paved"}}, {"type": "Feature", "geometry": {"type": "LineString", "coordinates": [[-9.3341872, 38.7240892], [-9.3341422, 38.7240852], [-9.3340976, 38.7240914]]}, "properties": {"bicycle": "yes", "highway": "primary", "junction": "roundabout", "lanes": "2", "lit": "yes", "ref": "EN 249-4", "surface": "asphalt"}}, {"type": "Feature", "geometry": {"type": "LineString", "coordinates": [[-9.3360389, 38.7237319], [-9.3360292, 38.7237192]]}, "properties": {"bicycle": "yes", "highway": "primary", "junction": "roundabout", "lanes": "2", "name": "Avenida Salgueiro Maia", "ref": "EN 249-4", "surface": "paved"}}, {"type": "Feature", "geometry": {"type": "LineString", "coordinates": [[-9.3388931, 38.7126572], [-9.3389328, 38.7126751]]}, "properties": {"highway": "primary", "junction": "roundabout", "lanes": "2", "lit": "yes", "maxspeed": "50", "ref": "EN 249-4", "sidewalk": "right", "surface": "asphalt"}}, {"type": "Feature", "geometry": {"type": "LineString", "coordinates": [[-9.3383574, 38.7107914], [-9.3383018, 38.7107904], [-9.3382213, 38.7108051], [-9.3381724, 38.7108244]]}, "properties": {"highway": "primary", "junction": "roundabout", "lanes": "2", "ref": "EN 249-4", "surface": "asphalt"}}, {"type": "Feature", "geometry": {"type": "LineString", "coordinates": [[-9.3384923, 38.710885], [-9.3384815, 38.7108621], [-9.3384621, 38.7108406], [-9.3384312, 38.7108187], [-9.3383957, 38.7108014], [-9.3383574, 38.7107914]]}, "properties": {"highway": "primary", "junction": "roundabout", "lanes": "2", "ref": "EN 249-4", "surface": "asphalt"}}, {"type": "Feature", "geometry": {"type": "LineString", "coordinates": [[-9.3384996, 38.7109186], [-9.3384923, 38.710885]]}, "properties": {"highway": "primary", "junction": "roundabout", "lanes": "2", "ref": "EN 249-4", "surface": "asphalt"}}, {"type": "Feature", "geometry": {"type": "LineString", "coordinates": [[-9.3381207, 38.7110222], [-9.3381623, 38.711051]]}, "properties": {"highway": "primary", "junction": "roundabout", "lanes": "2", "ref": "EN 249-4", "surface": "asphalt"}}, {"type": "Feature", "geometry": {"type": "LineString", "coordinates": [[-9.3397036, 38.7384], [-9.3396988, 38.7383156]]}, "properties": {"bicycle": "yes", "highway": "primary", "lanes": "2", "name": "Estrada Nacional 249-4", "oneway": "no", "ref": "EN 249-4", "surface": "asphalt"}}, {"type": "Feature", "geometry": {"type": "LineString", "coordinates": [[-9.3397076, 38.738527], [-9.3397074, 38.7384659], [-9.3397048, 38.7384203], [-9.3397036, 38.7384]]}, "properties": {"bicycle": "yes", "highway": "primary", "lanes": "2", "oneway": "no", "ref": "EN 249-4", "surface": "asphalt"}}, {"type": "Feature", "geometry": {"type": "LineString", "coordinates": [[-9.341735, 38.7443911], [-9.3417218, 38.7443087], [-9.3417089, 38.7442296]]}, "properties": {"bicycle": "yes", "highway": "primary", "lanes": "2", "name": "Estrada Nacional 249-4", "oneway": "no", "ref": "EN 249-4", "surface": "asphalt"}}, {"type": "Feature", "geometry": {"type": "LineString", "coordinates": [[-9.3417089, 38.7442296], [-9.3416312, 38.7437816], [-9.3415834, 38.7434461], [-9.3414836, 38.7428065], [-9.3413668, 38.7420763], [-9.3413262, 38.7418118], [-9.3413034, 38.7416631], [-9.34127, 38.7414454], [-9.3412558, 38.7413525], [-9.3412033, 38.7410287], [-9.3411818, 38.7409029], [-9.3411808, 38.7408895]]}, "properties": {"bicycle": "yes", "highway": "primary", "lanes": "2", "oneway": "no", "ref": "EN 249-4", "surface": "asphalt"}}, {"type": "Feature", "geometry": {"type": "LineString", "coordinates": [[-9.3437523, 38.7541723], [-9.343645, 38.7541573], [-9.3435841, 38.7541232], [-9.3435144, 38.7540668]]}, "properties": {"bicycle": "yes", "highway": "primary", "lanes": "2", "name": "Avenida de Santa Isabel", "oneway": "yes", "ref": "EN 249-4", "surface": "asphalt"}}, {"type": "Feature", "geometry": {"type": "LineString", "coordinates": [[-9.3434329, 38.754091], [-9.3434648, 38.7541306], [-9.3434889, 38.7541703], [-9.3435051, 38.7542142], [-9.343509, 38.7542592], [-9.34353, 38.7543369]]}, "properties": {"bicycle": "yes", "highway": "primary", "name": "Avenida de Santa Isabel", "oneway": "yes", "ref": "EN 249-4"}}, {"type": "Feature", "geometry": {"type": "LineString", "coordinates": [[-9.3429694, 38.7492305], [-9.3429253, 38.7490598], [-9.3428098, 38.748613], [-9.3427695, 38.7484671], [-9.3427191, 38.7482853], [-9.3426382, 38.7479881]]}, "properties": {"bicycle": "yes", "highway": "primary", "lanes": "2", "name": "Avenida de Santa Isabel", "oneway": "no", "ref": "EN 249-4", "surface": "asphalt"}}, {"type": "Feature", "geometry": {"type": "LineString", "coordinates": [[-9.3394656, 38.7388749], [-9.3394955, 38.7389059], [-9.3395357, 38.7389287], [-9.3395827, 38.7389413]]}, "properties": {"bicycle": "yes", "highway": "primary", "junction": "roundabout", "name": "Largo Jos\u00e9 Bento Pedroso", "ref": "EN 249-4", "surface": "asphalt"}}, {"type": "Feature", "geometry": {"type": "LineString", "coordinates": [[-9.3395827, 38.7389413], [-9.3395985, 38.738943]]}, "properties": {"bicycle": "yes", "highway": "primary", "junction": "roundabout", "name": "Largo Jos\u00e9 Bento Pedroso", "ref": "EN 249-4", "surface": "asphalt"}}, {"type": "Feature", "geometry": {"type": "LineString", "coordinates": [[-9.3474407, 38.7713034], [-9.3474489, 38.7712933]]}, "properties": {"bicycle": "yes", "highway": "primary", "junction": "roundabout", "lanes": "2", "name": "Rotunda Carlos Pinto Coelho", "ref": "EN 249-4", "surface": "asphalt"}}, {"type": "Feature", "geometry": {"type": "LineString", "coordinates": [[-9.3419429, 38.745434], [-9.341928, 38.7453727], [-9.3418765, 38.7451603], [-9.3418356, 38.7449835], [-9.34178, 38.7446713], [-9.341735, 38.7443911]]}, "properties": {"bicycle": "yes", "highway": "primary", "lanes": "2", "oneway": "no", "ref": "EN 249-4", "surface": "asphalt"}}, {"type": "Feature", "geometry": {"type": "LineString", "coordinates": [[-9.3433071, 38.7538589], [-9.3434329, 38.754091]]}, "properties": {"bicycle": "yes", "highway": "primary", "name": "Avenida de Santa Isabel", "oneway": "yes", "ref": "EN 249-4"}}, {"type": "Feature", "geometry": {"type": "LineString", "coordinates": [[-9.3432497, 38.7537277], [-9.3432999, 38.7538388], [-9.3433071, 38.7538589]]}, "properties": {"bicycle": "yes", "highway": "primary", "name": "Avenida de Santa Isabel", "oneway": "yes", "ref": "EN 249-4"}}]}