{"type": "FeatureCollection", "features": [{"type": "Feature", "geometry": {"type": "LineString", "coordinates": [[-8.9896569, 38.9538099], [-8.9900176, 38.9540359], [-8.9906242, 38.9544367]]}, "properties": {"highway": "primary", "name": "Rua Jacinto Nunes", "ref": "EN 248"}}, {"type": "Feature", "geometry": {"type": "LineString", "coordinates": [[-8.9941851, 38.9532776], [-8.9942266, 38.9533159], [-8.9942703, 38.9533643], [-8.9942978, 38.9533982], [-8.9943208, 38.9534331], [-8.9943608, 38.953515], [-8.9945014, 38.9538668], [-8.9945599, 38.9539971], [-8.9946064, 38.9540734], [-8.9946481, 38.9541269], [-8.9946947, 38.954171], [-8.9947611, 38.9542176], [-8.9948435, 38.9542639], [-8.995032, 38.9543547], [-8.9958766, 38.9547615], [-8.9959711, 38.9548014], [-8.9960138, 38.9548158], [-8.9960456, 38.9548265], [-8.9961481, 38.9548546], [-8.9962506, 38.9548741], [-8.9963745, 38.9548833], [-8.9964811, 38.9548863], [-8.9974121, 38.9548519], [-8.9975278, 38.9548472], [-8.997754, 38.9548379], [-8.9978934, 38.9548323], [-8.9983211, 38.9548152]]}, "properties": {"highway": "primary", "name": "Rua General Humberto Delgado", "oneway": "no", "ref": "EN 248"}}, {"type": "Feature", "geometry": {"type": "LineString", "coordinates": [[-8.9906242, 38.9544367], [-8.9907335, 38.9544773], [-8.9910349, 38.9544437], [-8.9911787, 38.9543543], [-8.991716, 38.9540201], [-8.9920859, 38.9537931], [-8.992176, 38.9537333], [-8.992346, 38.9536339], [-8.9925386, 38.9535212], [-8.9929753, 38.9533033], [-8.9930438, 38.9532052], [-8.9930854, 38.9531255], [-8.9931028, 38.9530399], [-8.9931002, 38.9529528], [-8.9930724, 38.9528191], [-8.9930385, 38.9527015], [-8.9930299, 38.9526193], [-8.9930425, 38.9525675], [-8.99307, 38.9525195], [-8.993093, 38.9524922]]}, "properties": {"highway": "primary", "name": "Rua Professor Reynaldo dos Santos", "ref": "EN 248", "source": "Bing"}}, {"type": "Feature", "geometry": {"type": "LineString", "coordinates": [[-9.0116887, 38.9529929], [-9.0117717, 38.9529878], [-9.0118298, 38.9529936], [-9.0119158, 38.9530186], [-9.0120085, 38.9530593], [-9.0122257, 38.9532079], [-9.0124563, 38.9533924], [-9.0125917, 38.9535104], [-9.0128104, 38.9537184], [-9.0130923, 38.9540162], [-9.0132985, 38.9542419], [-9.0134387, 38.9543818], [-9.0137173, 38.9546263], [-9.0142212, 38.9550554], [-9.0145458, 38.9553239], [-9.0147672, 38.9554768], [-9.0149531, 38.9555847], [-9.0150648, 38.9556342], [-9.015187, 38.9556792], [-9.0153311, 38.9557198], [-9.0162932, 38.9559684], [-9.0169229, 38.9561363], [-9.0170983, 38.956194], [-9.0172206, 38.9562401], [-9.0174074, 38.9563224], [-9.0176106, 38.9564249], [-9.0176947, 38.9564669], [-9.0177457, 38.95649], [-9.0178201, 38.9565162], [-9.0178808, 38.9565336], [-9.0179515, 38.9565482], [-9.0180272, 38.9565528], [-9.0180977, 38.9565482], [-9.0181676, 38.9565341], [-9.0184531, 38.956456], [-9.0185776, 38.9564273], [-9.018795, 38.956396], [-9.0189261, 38.9563755], [-9.0190586, 38.9563397], [-9.0191844, 38.9562847], [-9.0198713, 38.9558845], [-9.0200448, 38.9558079], [-9.0202501, 38.9557364], [-9.0205905, 38.9556317], [-9.0207768, 38.9555812], [-9.0208382, 38.9555742], [-9.0209106, 38.9555705], [-9.0210073, 38.9555816], [-9.0210669, 38.955594], [-9.0211359, 38.955619], [-9.021236, 38.955674], [-9.0213203, 38.9557807], [-9.0213858, 38.9558888], [-9.0214318, 38.9559838]]}, "properties": {"highway": "primary", "name": "Rua Ricardo Borges Viegas", "ref": "EN 248", "surface": "asphalt"}}, {"type": "Feature", "geometry": {"type": "LineString", "coordinates": [[-9.0802564, 38.9935617], [-9.0806705, 38.9938953], [-9.0808406, 38.994019], [-9.0808524, 38.9940282], [-9.0809375, 38.9940964], [-9.0811245, 38.9942703], [-9.0821782, 38.9951106], [-9.0828301, 38.9956305], [-9.0830243, 38.9957879]]}, "properties": {"highway": "primary", "name": "Estrada da Fresca (EN 248)", "oneway": "no", "ref": "EN 248"}}, {"type": "Feature", "geometry": {"type": "LineString", "coordinates": [[-9.0895436, 38.9999416], [-9.089717, 38.9999698], [-9.0898798, 38.9999987], [-9.0922557, 39.0004218], [-9.0939729, 39.0006753], [-9.0963731, 39.0010114], [-9.0967619, 39.0010559], [-9.0971169, 39.0011005], [-9.0978142, 39.0012462], [-9.0985725, 39.0014118], [-9.0992945, 39.001558], [-9.0994745, 39.001567], [-9.0996848, 39.0015514], [-9.1004215, 39.0014049], [-9.1011426, 39.0012547], [-9.1014761, 39.0011776], [-9.1018979, 39.0011558], [-9.1023418, 39.0011718], [-9.1041009, 39.0011754], [-9.1055826, 39.0012921], [-9.1060451, 39.0013177], [-9.1064029, 39.0012866], [-9.1066261, 39.0012452], [-9.1083827, 39.0008802], [-9.1087799, 39.000846], [-9.1089957, 39.0008258], [-9.1091296, 39.0008224], [-9.1093551, 39.0008527], [-9.1101545, 39.0010954], [-9.1107878, 39.0012648], [-9.1112754, 39.0013782], [-9.1115704, 39.0014438], [-9.1119532, 39.0015368], [-9.1122507, 39.0016058], [-9.1126178, 39.0016906], [-9.1127745, 39.0017254], [-9.112911, 39.0017269], [-9.1130459, 39.0017148], [-9.1131965, 39.0017071], [-9.1133639, 39.0017189]]}, "properties": {"highway": "primary", "oneway": "no", "ref": "EN 248", "surface": "asphalt"}}, {"type": "Feature", "geometry": {"type": "LineString", "coordinates": [[-9.0790403, 38.9925333], [-9.0788204, 38.9924234]]}, "properties": {"highway": "primary", "oneway": "yes", "ref": "EN 248"}}, {"type": "Feature", "geometry": {"type": "LineString", "coordinates": [[-9.0775568, 38.980298], [-9.0775262, 38.980276], [-9.0775007, 38.9802516], [-9.0774625, 38.9801859], [-9.0770114, 38.9794102], [-9.0768977, 38.9792694]]}, "properties": {"highway": "primary", "name": "Estrada Nacional do Alcambar", "oneway": "yes", "ref": "EN 248"}}, {"type": "Feature", "geometry": {"type": "LineString", "coordinates": [[-9.0686613, 38.9774808], [-9.0684657, 38.9773182], [-9.0682985, 38.9771506], [-9.068069, 38.9768906], [-9.0680034, 38.9767573], [-9.0678048, 38.976353], [-9.0675734, 38.9757845], [-9.0669736, 38.9743105], [-9.0668545, 38.9741428], [-9.0667051, 38.9739854], [-9.0666137, 38.973824], [-9.0665482, 38.9731834], [-9.0664645, 38.9729088], [-9.0662779, 38.9726581], [-9.0657291, 38.9721043], [-9.065415, 38.9717714], [-9.0652468, 38.9715531], [-9.0651565, 38.97139], [-9.0650766, 38.971222], [-9.0650113, 38.9710465]]}, "properties": {"highway": "primary", "lanes": "2", "name": "Estrada da Ponte da Lage", "ref": "EN 248", "surface": "asphalt"}}, {"type": "Feature", "geometry": {"type": "LineString", "coordinates": [[-9.1133639, 39.0017189], [-9.113523, 39.0017685], [-9.1136893, 39.001864], [-9.1137795, 39.0019459], [-9.113917, 39.0021662], [-9.1142709, 39.0027819], [-9.1143521, 39.0029164], [-9.1148143, 39.0036982], [-9.1152069, 39.0043624], [-9.1153054, 39.0045341], [-9.1155611, 39.0050135], [-9.116063, 39.0057564], [-9.1165775, 39.0066649]]}, "properties": {"highway": "primary", "oneway": "no", "ref": "EN 248"}}, {"type": "Feature", "geometry": {"type": "LineString", "coordinates": [[-9.1830451, 39.039721], [-9.1829289, 39.0394589], [-9.1826655, 39.0384365], [-9.1826339, 39.038336], [-9.1825519, 39.037517], [-9.1824971, 39.0373443], [-9.1824429, 39.037256], [-9.1824045, 39.0371933], [-9.1823082, 39.0370916], [-9.1822513, 39.0369221], [-9.1822028, 39.0368742], [-9.1820699, 39.0368744], [-9.1815301, 39.0369923], [-9.181353, 39.0370259], [-9.181129, 39.0370446], [-9.180969, 39.0370565], [-9.1808206, 39.0370759], [-9.1805229, 39.0370821], [-9.1802721, 39.037053], [-9.1801782, 39.0370363], [-9.1799918, 39.0369644], [-9.1794648, 39.0367516], [-9.1791751, 39.0366933], [-9.1778984, 39.0366433], [-9.177083, 39.0365683], [-9.176114, 39.0364122], [-9.1757664, 39.0364218], [-9.175518, 39.0364678], [-9.1750781, 39.0365569], [-9.1743411, 39.0365142], [-9.173999, 39.0365017], [-9.1738393, 39.0365236], [-9.1736589, 39.0365679], [-9.1734271, 39.036634], [-9.1731049, 39.0367215], [-9.1728387, 39.0367743], [-9.1726985, 39.0367862], [-9.1725326, 39.0367924], [-9.1723239, 39.0367906], [-9.1721578, 39.036781], [-9.1720428, 39.03677], [-9.1719599, 39.036762], [-9.1711949, 39.0366356], [-9.1693053, 39.0363185], [-9.1690457, 39.036267], [-9.16877, 39.0362132], [-9.1686156, 39.0361648], [-9.1684556, 39.0360984], [-9.1681701, 39.0359509], [-9.1679336, 39.0358434], [-9.167755, 39.0357914], [-9.167549, 39.0357618], [-9.1672566, 39.0357503], [-9.1661186, 39.0357454], [-9.1657124, 39.0357336], [-9.1653343, 39.0357], [-9.1648172, 39.0356374], [-9.1645477, 39.0356002], [-9.1643633, 39.0355545], [-9.1641707, 39.0354337], [-9.1639828, 39.0353239], [-9.1631819, 39.0348575], [-9.1625978, 39.034553], [-9.1621557, 39.0342095], [-9.1618171, 39.0340643], [-9.1616669, 39.0339622], [-9.1615824, 39.0338664], [-9.1614578, 39.0337327], [-9.1611751, 39.0335183], [-9.1610071, 39.0334247], [-9.1608284, 39.0333423], [-9.1603741, 39.0332684], [-9.1599138, 39.0332096], [-9.1594023, 39.0331521], [-9.1592144, 39.0330994], [-9.1590431, 39.0330257], [-9.1582685, 39.0326925], [-9.1579622, 39.0326067], [-9.1577645, 39.0325629], [-9.1575544, 39.0325493], [-9.157262, 39.0325487], [-9.1561995, 39.0326465], [-9.1560001, 39.0326515], [-9.1558932, 39.0326542], [-9.1556137, 39.0326702], [-9.1552567, 39.032717], [-9.1548538, 39.0328155], [-9.1545353, 39.0328767], [-9.1543729, 39.0328906], [-9.1542702, 39.0328927], [-9.1541695, 39.0328723], [-9.1540822, 39.0328261], [-9.1540219, 39.0327686], [-9.1539773, 39.0326938], [-9.153954, 39.032639], [-9.1539502, 39.0325637], [-9.1539669, 39.0325038], [-9.153998, 39.0324249], [-9.1540533, 39.0323502], [-9.1545092, 39.0319969], [-9.154663, 39.0318688], [-9.1547708, 39.0317345], [-9.1548237, 39.0315726], [-9.1548085, 39.0314748], [-9.1547285, 39.0313769], [-9.154659, 39.0312996], [-9.1544286, 39.0310429], [-9.1536446, 39.0301731], [-9.1535734, 39.0300098], [-9.1535489, 39.0298309], [-9.1535749, 39.0294405], [-9.1536658, 39.0290167], [-9.153803, 39.0288635], [-9.154024, 39.0287544], [-9.1541947, 39.0286206], [-9.1542439, 39.02847], [-9.1542453, 39.0283075], [-9.1542332, 39.027998], [-9.1542371, 39.0279071], [-9.1542922, 39.0278251], [-9.154364, 39.0277259], [-9.154946, 39.0274053], [-9.1550727, 39.0273209], [-9.155141, 39.0272236], [-9.155141, 39.0270169], [-9.1550465, 39.0268169], [-9.1548835, 39.0266835], [-9.1546162, 39.0265412], [-9.1545456, 39.0264953], [-9.1543942, 39.0263968], [-9.1543419, 39.0261653], [-9.1544199, 39.0258209], [-9.1544261, 39.0258056], [-9.1546244, 39.0253194], [-9.1546968, 39.0251419], [-9.1548263, 39.0246555], [-9.154814, 39.0243296]]}, "properties": {"highway": "primary", "ref": "EN 248"}}, {"type": "Feature", "geometry": {"type": "LineString", "coordinates": [[-9.2102657, 39.0772528], [-9.2102729, 39.0767121], [-9.2102469, 39.07563], [-9.2102115, 39.0753411], [-9.209586, 39.0735936], [-9.2094225, 39.0731919], [-9.2093805, 39.0730888], [-9.2091964, 39.0726063], [-9.209036, 39.0723122], [-9.2087186, 39.0718405], [-9.2077704, 39.0704317], [-9.2076004, 39.0701559], [-9.2074676, 39.0699491], [-9.2074147, 39.0698034], [-9.2074629, 39.069694], [-9.2076735, 39.069567]]}, "properties": {"highway": "primary", "lanes": "2", "ref": "EN 248", "surface": "asphalt"}}, {"type": "Feature", "geometry": {"type": "LineString", "coordinates": [[-9.1165775, 39.0066649], [-9.1168486, 39.007152]]}, "properties": {"bridge": "yes", "highway": "primary", "layer": "1", "oneway": "no", "ref": "EN 248"}}, {"type": "Feature", "geometry": {"type": "LineString", "coordinates": [[-9.0788204, 38.9924234], [-9.078377, 38.992073], [-9.0774341, 38.9913679], [-9.0773562, 38.9912938], [-9.0772713, 38.9911992], [-9.0771817, 38.9910531], [-9.0771732, 38.9910395], [-9.0770769, 38.9908831], [-9.0768939, 38.9905856], [-9.0768368, 38.9905073], [-9.0767673, 38.9904314]]}, "properties": {"highway": "primary", "lanes": "2", "maxspeed": "50", "name": "Rua Engenheiro Tom\u00e1s Corr\u00eaa", "ref": "EN 248", "surface": "asphalt"}}, {"type": "Feature", "geometry": {"type": "LineString", "coordinates": [[-9.1488592, 39.0179273], [-9.1491281, 39.0180641], [-9.1505975, 39.0187702]]}, "properties": {"highway": "primary", "lanes": "2", "lit": "yes", "maxspeed:type": "PT:urban", "name": "Rua Miguel Bombarda", "ref": "EN 248", "sidewalk": "both", "surface": "asphalt"}}, {"type": "Feature", "geometry": {"type": "LineString", "coordinates": [[-9.146268, 39.0178082], [-9.1463511, 39.0177832], [-9.1463999, 39.0177562], [-9.1464302, 39.0177354], [-9.1464697, 39.0177083], [-9.1465147, 39.0176623], [-9.1466166, 39.0174852], [-9.1467567, 39.0172832]]}, "properties": {"highway": "primary", "lanes": "2", "maxspeed:type": "PT:urban", "ref": "EN 248", "surface": "asphalt"}}, {"type": "Feature", "geometry": {"type": "LineString", "coordinates": [[-9.1550543, 39.0237578], [-9.1551523, 39.0236767], [-9.1552279, 39.0236009], [-9.1553327, 39.0234303], [-9.1553784, 39.0230976], [-9.1553783, 39.0230047], [-9.1553753, 39.022983], [-9.1553036, 39.0224651], [-9.1552604, 39.0222637], [-9.1551926, 39.0220925], [-9.1551272, 39.0219811], [-9.1551007, 39.0219372], [-9.1549964, 39.0218133], [-9.1549038, 39.0217287], [-9.1546762, 39.0215529], [-9.1545608, 39.0214697], [-9.1542271, 39.0212336], [-9.1541042, 39.021148], [-9.1538417, 39.0209652], [-9.1536446, 39.0208265], [-9.1534375, 39.0206823], [-9.1533172, 39.0205985], [-9.1530766, 39.0204287], [-9.1530322, 39.0203974], [-9.1529318, 39.0203261], [-9.1524858, 39.0200058], [-9.1522551, 39.0198401], [-9.1520873, 39.01971], [-9.152049, 39.0196803], [-9.151927, 39.0195857], [-9.1517454, 39.0194818], [-9.1516986, 39.0194501], [-9.1510128, 39.0189856], [-9.1508336, 39.0188711], [-9.150766, 39.0188203], [-9.1506635, 39.0187492]]}, "properties": {"highway": "primary", "lanes": "2", "lit": "yes", "maxspeed:type": "PT:urban", "name": "Avenida Marqu\u00eas de Pombal", "ref": "EN 248", "sidewalk": "both", "sidewalk:both:surface": "sett", "smoothness": "excellent", "surface": "asphalt"}}, {"type": "Feature", "geometry": {"type": "LineString", "coordinates": [[-9.2087621, 39.0673139], [-9.2087623, 39.0670566], [-9.2087623, 39.0669733], [-9.2087571, 39.0668631]]}, "properties": {"highway": "primary", "ref": "EN 248"}}, {"type": "Feature", "geometry": {"type": "LineString", "coordinates": [[-9.2087571, 39.0668631], [-9.2087421, 39.0665425], [-9.2087315, 39.0663158], [-9.2087415, 39.0661605], [-9.2087613, 39.0659369], [-9.208764, 39.0659024], [-9.2087993, 39.0656333], [-9.2088641, 39.0654142], [-9.2089484, 39.065203], [-9.2090443, 39.0649626], [-9.2090838, 39.064876], [-9.2094134, 39.0641526], [-9.2098435, 39.0630076], [-9.2099362, 39.0626734], [-9.2099163, 39.0623521], [-9.2098701, 39.0621168], [-9.2098522, 39.0620259], [-9.2096212, 39.0608497], [-9.209474, 39.0601663], [-9.2092835, 39.0592814], [-9.2090614, 39.058404], [-9.2089288, 39.05813], [-9.208891, 39.0580548], [-9.2088254, 39.0579065], [-9.2087646, 39.0577581], [-9.2087224, 39.0576242], [-9.2086788, 39.0574248], [-9.208651, 39.0572564], [-9.2086353, 39.0569592], [-9.208641, 39.0566411], [-9.2086799, 39.0561649], [-9.2086812, 39.055997], [-9.2086675, 39.0558705], [-9.2086364, 39.0557608], [-9.2085752, 39.0556643], [-9.20816, 39.0551513], [-9.2077624, 39.0546622], [-9.2075041, 39.0543444], [-9.2067702, 39.0534114], [-9.206592, 39.0532775], [-9.2063675, 39.0531088], [-9.2061079, 39.0529991], [-9.2060565, 39.0529774], [-9.2059259, 39.0529222], [-9.2057376, 39.0528717], [-9.2052583, 39.0526947], [-9.2049438, 39.0525255], [-9.2046233, 39.0523355], [-9.2043504, 39.0521583], [-9.204229, 39.0520795], [-9.2040028, 39.0518629], [-9.2038544, 39.0516323], [-9.2037006, 39.0511889], [-9.2035089, 39.0505773], [-9.2034472, 39.0502269], [-9.2034388, 39.0501207], [-9.203424, 39.0498542], [-9.2033668, 39.0493849], [-9.2033282, 39.0491093], [-9.2032554, 39.0489141], [-9.2031853, 39.048726], [-9.2030954, 39.0485197], [-9.2028996, 39.0480704], [-9.2024709, 39.0474197], [-9.2019416, 39.0468874], [-9.20166, 39.0466098], [-9.2014538, 39.0463606], [-9.201198, 39.0459419], [-9.2009331, 39.0456401], [-9.2006265, 39.0453871], [-9.2003055, 39.04521], [-9.1999159, 39.045032], [-9.1994056, 39.0446911], [-9.199385, 39.0446724], [-9.198899, 39.0442321], [-9.1978989, 39.0431375], [-9.197256, 39.0425222], [-9.197056, 39.0423456], [-9.1968209, 39.0422044], [-9.1966701, 39.04215], [-9.1965744, 39.0421155], [-9.1964572, 39.0420732], [-9.1959441, 39.041816], [-9.1956259, 39.0417101], [-9.1950401, 39.0416284]]}, "properties": {"highway": "primary", "lane_markings": "yes", "lanes": "2", "ref": "EN 248", "surface": "asphalt"}}, {"type": "Feature", "geometry": {"type": "LineString", "coordinates": [[-9.1482506, 39.0176312], [-9.148661, 39.0178396], [-9.1488592, 39.0179273]]}, "properties": {"highway": "primary", "lanes": "2", "lit": "yes", "maxspeed:type": "PT:urban", "ref": "EN 248", "surface": "asphalt"}}, {"type": "Feature", "geometry": {"type": "LineString", "coordinates": [[-9.1467567, 39.0172832], [-9.1468071, 39.0172039], [-9.1469578, 39.0171352], [-9.1470249, 39.0171081], [-9.1471053, 39.0171039], [-9.1473301, 39.0171476], [-9.1476037, 39.0172726], [-9.1479637, 39.0174561], [-9.1482506, 39.0176312]]}, "properties": {"highway": "primary", "lanes": "2", "lit": "yes", "maxspeed:type": "PT:urban", "ref": "EN 248", "surface": "asphalt"}}, {"type": "Feature", "geometry": {"type": "LineString", "coordinates": [[-9.1850467, 39.0407478], [-9.1860694, 39.0411594], [-9.1864836, 39.0412818], [-9.1883916, 39.0416973], [-9.1893345, 39.0419027], [-9.1908267, 39.0423452], [-9.1912229, 39.0424564], [-9.1915159, 39.0424986], [-9.19178, 39.0425049], [-9.1927578, 39.0423148], [-9.1929232, 39.0422826], [-9.1930899, 39.0422469], [-9.1933134, 39.0421541], [-9.1934723, 39.0421036], [-9.1936356, 39.0420451], [-9.1937294, 39.0420098], [-9.1938631, 39.0419245], [-9.1939107, 39.0418544], [-9.1939835, 39.0417472], [-9.1941295, 39.0416494], [-9.1942791, 39.0415828], [-9.1944085, 39.0415739], [-9.1948953, 39.0416159], [-9.1950401, 39.0416284]]}, "properties": {"highway": "primary", "ref": "EN 248"}}, {"type": "Feature", "geometry": {"type": "LineString", "coordinates": [[-9.1300214, 39.0088643], [-9.1301231, 39.0088589], [-9.130538, 39.0087605], [-9.1308916, 39.0086965], [-9.131655, 39.0086291], [-9.1326905, 39.0085737], [-9.133126, 39.008558], [-9.1334141, 39.0085903], [-9.1336913, 39.008666], [-9.1337637, 39.0087017], [-9.1337878, 39.0087136], [-9.134778, 39.0092017], [-9.1368641, 39.009848], [-9.1378405, 39.0111068], [-9.1397717, 39.0121238], [-9.1407624, 39.0132136], [-9.1420642, 39.0147859], [-9.1425997, 39.0155227], [-9.1429045, 39.0163253], [-9.1436833, 39.0168793], [-9.1439191, 39.0173757], [-9.1439666, 39.0174756], [-9.1443314, 39.0178841], [-9.1444172, 39.0181675], [-9.1447391, 39.0182592], [-9.146268, 39.0178082]]}, "properties": {"highway": "primary", "oneway": "no", "ref": "EN 248"}}, {"type": "Feature", "geometry": {"type": "LineString", "coordinates": [[-9.2079109, 39.0694264], [-9.2076735, 39.069567]]}, "properties": {"bridge": "yes", "highway": "primary", "layer": "1", "ref": "EN 248"}}, {"type": "Feature", "geometry": {"type": "LineString", "coordinates": [[-9.2079109, 39.0694264], [-9.2082003, 39.0692556], [-9.2085074, 39.0690666], [-9.2086535, 39.0689439], [-9.2087381, 39.0688125], [-9.2087644, 39.0686636], [-9.2087936, 39.0684416], [-9.2087673, 39.0679977], [-9.2087621, 39.0673139]]}, "properties": {"highway": "primary", "ref": "EN 248"}}, {"type": "Feature", "geometry": {"type": "LineString", "coordinates": [[-9.0830243, 38.9957879], [-9.0830908, 38.9958417], [-9.0831996, 38.9959302]]}, "properties": {"bridge": "yes", "highway": "primary", "layer": "1", "name": "Estrada da Fresca (EN 248)", "oneway": "no", "ref": "EN 248"}}, {"type": "Feature", "geometry": {"type": "LineString", "coordinates": [[-9.0831996, 38.9959302], [-9.0832991, 38.9960076], [-9.0836392, 38.9962789], [-9.0842506, 38.9967666], [-9.084533, 38.9969918], [-9.0852724, 38.9975922], [-9.085379, 38.997678], [-9.0854637, 38.9977461], [-9.0855973, 38.9978527], [-9.0856521, 38.9978954], [-9.0864863, 38.9985581], [-9.0866071, 38.998654], [-9.0873754, 38.9992638], [-9.0874133, 38.9992869], [-9.0875305, 38.9993569], [-9.0876548, 38.9994243]]}, "properties": {"highway": "primary", "name": "Estrada da Fresca (EN 248)", "oneway": "no", "ref": "EN 248"}}, {"type": "Feature", "geometry": {"type": "LineString", "coordinates": [[-9.0768977, 38.9792694], [-9.0769694, 38.9794469], [-9.077172, 38.9798151], [-9.0774001, 38.9802029], [-9.0774493, 38.9802621], [-9.0774546, 38.9802943], [-9.0774565, 38.9803282]]}, "properties": {"highway": "primary", "name": "Estrada Nacional do Alcambar", "oneway": "yes", "ref": "EN 248"}}, {"type": "Feature", "geometry": {"type": "LineString", "coordinates": [[-9.0788204, 38.9924234], [-9.0789591, 38.9925923]]}, "properties": {"highway": "primary", "oneway": "yes", "ref": "EN 248"}}, {"type": "Feature", "geometry": {"type": "LineString", "coordinates": [[-9.076305, 38.9780023], [-9.0764767, 38.9783844], [-9.0767245, 38.9789358], [-9.0767442, 38.9789821], [-9.0767682, 38.9790114], [-9.0767853, 38.979042], [-9.0768977, 38.9792694]]}, "properties": {"highway": "primary", "name": "Estrada Nacional do Alcambar", "ref": "EN 248"}}, {"type": "Feature", "geometry": {"type": "LineString", "coordinates": [[-9.1168486, 39.007152], [-9.117098, 39.0073095], [-9.1174789, 39.0073533], [-9.118306, 39.0072439], [-9.1189868, 39.0072774], [-9.1194015, 39.007271], [-9.1199038, 39.0072436], [-9.1202314, 39.0072125]]}, "properties": {"highway": "primary", "oneway": "no", "ref": "EN 248"}}, {"type": "Feature", "geometry": {"type": "LineString", "coordinates": [[-9.1202314, 39.0072125], [-9.1207709, 39.0071968]]}, "properties": {"bridge": "yes", "highway": "primary", "layer": "1", "oneway": "no", "ref": "EN 248"}}, {"type": "Feature", "geometry": {"type": "LineString", "coordinates": [[-9.1207709, 39.0071968], [-9.1209134, 39.0072385], [-9.1217097, 39.0075741], [-9.122525, 39.0079582], [-9.1230049, 39.0081452], [-9.1235951, 39.0083316], [-9.1243271, 39.0085555], [-9.1245582, 39.008597], [-9.1248007, 39.0086157], [-9.1250246, 39.008609], [-9.1252949, 39.0085739], [-9.1256579, 39.0084854], [-9.1262906, 39.008363], [-9.1264983, 39.0083339], [-9.1266918, 39.0083322], [-9.1268518, 39.0083568], [-9.1271822, 39.0084594], [-9.1280601, 39.0088679], [-9.1282096, 39.008912], [-9.1284224, 39.0089182], [-9.1294641, 39.0088935]]}, "properties": {"highway": "primary", "oneway": "no", "ref": "EN 248"}}, {"type": "Feature", "geometry": {"type": "LineString", "coordinates": [[-9.1294641, 39.0088935], [-9.1300214, 39.0088643]]}, "properties": {"bridge": "yes", "highway": "primary", "layer": "1", "oneway": "no", "ref": "EN 248"}}, {"type": "Feature", "geometry": {"type": "LineString", "coordinates": [[-9.0793423, 38.9928332], [-9.0801214, 38.9934536], [-9.0801845, 38.9935041], [-9.0801987, 38.9935155], [-9.0802564, 38.9935617]]}, "properties": {"highway": "primary", "name": "Estrada da Fresca (EN 248)", "oneway": "no", "ref": "EN 248"}}, {"type": "Feature", "geometry": {"type": "LineString", "coordinates": [[-9.0699757, 38.9849299], [-9.0702037, 38.9845994], [-9.0703195, 38.9844179], [-9.0704255, 38.984221], [-9.0705108, 38.9840229], [-9.0705673, 38.9838235], [-9.0705972, 38.9836651], [-9.0706183, 38.9835052], [-9.0708215, 38.9817327], [-9.0709561, 38.9809532], [-9.0709892, 38.9807551], [-9.0710367, 38.9805735], [-9.0711114, 38.9803801], [-9.0711867, 38.9802158], [-9.0713404, 38.9799074], [-9.0715186, 38.9795582], [-9.0717214, 38.9791716]]}, "properties": {"highway": "primary", "lanes": "2", "name": "Variante Externa de Arruda dos Vinhos", "oneway": "no", "ref": "EN 248", "surface": "asphalt"}}, {"type": "Feature", "geometry": {"type": "LineString", "coordinates": [[-9.0700962, 38.9971677], [-9.0685671, 38.9959917]]}, "properties": {"highway": "primary", "lanes": "2", "name": "Variante Externa de Arruda dos Vinhos", "oneway": "no", "ref": "EN 248", "surface": "asphalt"}}, {"type": "Feature", "geometry": {"type": "LineString", "coordinates": [[-9.0678951, 38.9953206], [-9.0678068, 38.9951859], [-9.0677343, 38.9950512], [-9.067662, 38.9948639], [-9.0676202, 38.9946716], [-9.0675992, 38.9944649], [-9.0675942, 38.9914107]]}, "properties": {"highway": "primary", "lanes": "2", "name": "Variante Externa de Arruda dos Vinhos", "oneway": "no", "ref": "EN 248", "surface": "asphalt"}}, {"type": "Feature", "geometry": {"type": "LineString", "coordinates": [[-9.0682433, 38.9872089], [-9.0699757, 38.9849299]]}, "properties": {"bridge": "yes", "highway": "primary", "lanes": "2", "layer": "1", "name": "Variante Externa de Arruda dos Vinhos", "oneway": "no", "ref": "EN 248", "surface": "asphalt"}}, {"type": "Feature", "geometry": {"type": "LineString", "coordinates": [[-9.0678242, 38.9881955], [-9.0678125, 38.9881139], [-9.0678041, 38.9880327], [-9.0678069, 38.9879463], [-9.0678238, 38.9878639], [-9.0678711, 38.9877271], [-9.0679432, 38.9876095], [-9.06807, 38.987437], [-9.0682433, 38.9872089]]}, "properties": {"highway": "primary", "lanes": "2", "name": "Variante Externa de Arruda dos Vinhos", "oneway": "no", "ref": "EN 248", "surface": "asphalt"}}, {"type": "Feature", "geometry": {"type": "LineString", "coordinates": [[-9.076305, 38.9780023], [-9.0761993, 38.9777887], [-9.0760986, 38.9776755], [-9.0760219, 38.9776102], [-9.0759808, 38.9775753], [-9.0759029, 38.9775381], [-9.0758482, 38.9775119], [-9.0757989, 38.9774905], [-9.0756788, 38.9774384]]}, "properties": {"highway": "primary", "lanes": "2", "name": "Estrada Nacional do Alcambar", "ref": "EN 248", "surface": "asphalt"}}, {"type": "Feature", "geometry": {"type": "LineString", "coordinates": [[-9.0756788, 38.9774384], [-9.0752806, 38.9772739], [-9.075119, 38.9772166], [-9.074971, 38.9771834], [-9.0748054, 38.9771657], [-9.0746386, 38.977185], [-9.0745038, 38.9771978], [-9.0743395, 38.9772087], [-9.0741978, 38.9772102], [-9.0740596, 38.9771818], [-9.0738156, 38.9770838], [-9.0735717, 38.9769226], [-9.0734863, 38.9768783], [-9.0733522, 38.9768594], [-9.0732081, 38.9768654], [-9.0730391, 38.9769226], [-9.0728481, 38.9770964], [-9.0727224, 38.9774055], [-9.0726252, 38.9776445], [-9.0723966, 38.9782259], [-9.0723645, 38.978293], [-9.0723244, 38.9783602], [-9.0722558, 38.9784308]]}, "properties": {"highway": "primary", "lanes": "2", "ref": "EN 248", "surface": "asphalt"}}, {"type": "Feature", "geometry": {"type": "LineString", "coordinates": [[-9.071404, 38.9786172], [-9.0696753, 38.9781067], [-9.0695372, 38.97806], [-9.0693562, 38.9779939], [-9.0692162, 38.9779234], [-9.0690665, 38.9778165], [-9.0686613, 38.9774808]]}, "properties": {"highway": "primary", "lanes": "2", "name": "Estrada da Capelinha", "ref": "EN 248", "surface": "asphalt"}}, {"type": "Feature", "geometry": {"type": "LineString", "coordinates": [[-9.0545379, 38.9741858], [-9.0547579, 38.9741441], [-9.0550046, 38.9741774], [-9.0558495, 38.9743839], [-9.0560158, 38.9743755], [-9.0562438, 38.9743004], [-9.0563382, 38.9741401], [-9.0564184, 38.9740448], [-9.0564906, 38.9739897], [-9.056699, 38.9738898], [-9.0573997, 38.9737192], [-9.0576545, 38.9737522], [-9.0578881, 38.9738595], [-9.0580299, 38.9739503], [-9.0584824, 38.9742414], [-9.0588601, 38.9744762], [-9.0589676, 38.9745281], [-9.0591943, 38.9745757], [-9.0592667, 38.9745965], [-9.0616002, 38.9750803], [-9.0618148, 38.9750636], [-9.0619945, 38.9750073], [-9.06226, 38.9748343], [-9.0624263, 38.9746612], [-9.0625982, 38.9745032], [-9.0629268, 38.9741571], [-9.0630996, 38.973873], [-9.0632256, 38.9736207], [-9.0633919, 38.9733558], [-9.0636521, 38.9730159], [-9.0638801, 38.9727136], [-9.0639766, 38.9725468], [-9.0641858, 38.9721818], [-9.0642432, 38.9719714], [-9.0642003, 38.9716845], [-9.0641636, 38.9714514], [-9.0642409, 38.9713123], [-9.064375, 38.9712459], [-9.0645864, 38.9711606], [-9.0650113, 38.9710465]]}, "properties": {"highway": "primary", "lanes": "2", "name": "Estrada Nacional do Carrasqueiro", "ref": "EN 248", "surface": "asphalt"}}, {"type": "Feature", "geometry": {"type": "LineString", "coordinates": [[-9.04712, 38.9655584], [-9.0471457, 38.9658254], [-9.0470685, 38.9662658], [-9.0469226, 38.9669198], [-9.0467509, 38.9675071], [-9.0467423, 38.9679342], [-9.0467252, 38.968408], [-9.0467423, 38.9687817], [-9.0469483, 38.9693489], [-9.0471457, 38.9697693], [-9.0471715, 38.9699495], [-9.0470342, 38.9703699], [-9.0469998, 38.9706101], [-9.0470857, 38.9709238], [-9.0473432, 38.9714042], [-9.047635, 38.9717846], [-9.0478238, 38.9720382], [-9.0479268, 38.9721182], [-9.0481001, 38.9721869], [-9.0482135, 38.9722026], [-9.0483052, 38.9722059], [-9.0486599, 38.9722252], [-9.0490986, 38.972219], [-9.049481, 38.9722174], [-9.0498258, 38.9722075], [-9.0501075, 38.9722075], [-9.0503279, 38.9722544], [-9.0504786, 38.9723513], [-9.0505318, 38.972464], [-9.050558, 38.972563], [-9.0504931, 38.9730791], [-9.0505103, 38.973306], [-9.0505618, 38.9735529], [-9.0506219, 38.9741201], [-9.0506991, 38.9743336], [-9.0508021, 38.9744604], [-9.0510645, 38.9746549], [-9.0511262, 38.9746925], [-9.0516277, 38.9749594], [-9.0518691, 38.9750032], [-9.0520703, 38.974951], [-9.0529715, 38.9744422], [-9.0532371, 38.9744026], [-9.0536635, 38.9743985], [-9.0539908, 38.9743734], [-9.054267, 38.9743004], [-9.0545379, 38.9741858]]}, "properties": {"highway": "primary", "ref": "EN 248", "surface": "asphalt"}}, {"type": "Feature", "geometry": {"type": "LineString", "coordinates": [[-9.0426916, 38.9624226], [-9.042849, 38.9624588], [-9.0430173, 38.9624952], [-9.0431261, 38.9625375], [-9.0433091, 38.9626087], [-9.0458235, 38.9638999], [-9.0459548, 38.9639825], [-9.0460387, 38.9640469], [-9.0460918, 38.9640944], [-9.0462355, 38.9642267], [-9.0463282, 38.964311], [-9.0468024, 38.9647376], [-9.0469226, 38.9649378], [-9.047017, 38.9651847], [-9.04712, 38.9655584]]}, "properties": {"highway": "primary", "name": "Rua Baixa do Linh\u00f4", "ref": "EN 248", "surface": "asphalt"}}, {"type": "Feature", "geometry": {"type": "LineString", "coordinates": [[-9.0677965, 38.9886224], [-9.0678072, 38.9886738], [-9.0678337, 38.9887216], [-9.0678745, 38.9887628], [-9.0679232, 38.9887933], [-9.0679796, 38.9888143], [-9.0680406, 38.9888247], [-9.068103, 38.9888241], [-9.0681636, 38.9888124], [-9.0682054, 38.9887969], [-9.0682431, 38.9887762], [-9.0682829, 38.9887442], [-9.068313, 38.9887063], [-9.0683323, 38.9886644], [-9.0683399, 38.9886203], [-9.0683384, 38.9885914], [-9.0683319, 38.9885631], [-9.0683171, 38.9885294], [-9.0682952, 38.9884983], [-9.0682668, 38.9884702], [-9.0682328, 38.9884464], [-9.068197, 38.9884284], [-9.0681579, 38.988415], [-9.0680942, 38.9884042], [-9.0680289, 38.9884054], [-9.0679659, 38.9884187], [-9.0679089, 38.9884432], [-9.067861, 38.9884777], [-9.0678242, 38.9885213], [-9.0678022, 38.9885704], [-9.0677965, 38.9886224]]}, "properties": {"highway": "primary", "junction": "roundabout", "name": "Variante Externa de Arruda dos Vinhos", "oneway": "yes", "ref": "EN 248", "surface": "asphalt"}}, {"type": "Feature", "geometry": {"type": "LineString", "coordinates": [[-9.0679262, 38.9956921], [-9.0679392, 38.9957324], [-9.0679633, 38.9957696], [-9.0679974, 38.9958016], [-9.0680397, 38.9958271], [-9.0680883, 38.9958446], [-9.0681279, 38.9958521], [-9.0681686, 38.9958543], [-9.068227, 38.9958481], [-9.0682817, 38.9958309], [-9.0683295, 38.995804], [-9.0683673, 38.9957689], [-9.0683931, 38.9957276], [-9.0684044, 38.9956889], [-9.068405, 38.9956492], [-9.068392, 38.995604], [-9.0683652, 38.9955626], [-9.0683261, 38.9955277], [-9.0682772, 38.9955012], [-9.0682131, 38.9954835], [-9.0681452, 38.9954804], [-9.0680879, 38.9954896], [-9.0680352, 38.9955093], [-9.0679901, 38.9955382], [-9.0679553, 38.9955748], [-9.0679329, 38.9956168], [-9.0679246, 38.9956542], [-9.0679262, 38.9956921]]}, "properties": {"highway": "primary", "junction": "roundabout", "name": "Variante Externa de Arruda dos Vinhos", "oneway": "yes", "ref": "EN 248", "surface": "asphalt"}}, {"type": "Feature", "geometry": {"type": "LineString", "coordinates": [[-9.0717113, 38.9787605], [-9.0717162, 38.9788023], [-9.0717288, 38.9788322], [-9.0717486, 38.9788598], [-9.0717783, 38.9788865], [-9.0718148, 38.9789076], [-9.0718563, 38.9789221], [-9.0719008, 38.9789294], [-9.0719463, 38.978929], [-9.0719906, 38.9789211], [-9.0720359, 38.9789038], [-9.0720608, 38.9788891], [-9.0720992, 38.978854], [-9.0721234, 38.978812], [-9.0721317, 38.9787664], [-9.0721285, 38.9787383], [-9.0721037, 38.9786853], [-9.0720573, 38.978642], [-9.0719947, 38.9786135], [-9.0719234, 38.9786032], [-9.0718698, 38.9786082], [-9.0718195, 38.9786237], [-9.0717761, 38.9786485], [-9.0717423, 38.9786811], [-9.0717202, 38.9787192], [-9.0717113, 38.9787605]]}, "properties": {"highway": "primary", "junction": "roundabout", "ref": "EN 248", "surface": "asphalt"}}, {"type": "Feature", "geometry": {"type": "LineString", "coordinates": [[-9.0722558, 38.9784308], [-9.0721035, 38.9785337], [-9.0720263, 38.9785672], [-9.0719234, 38.9786032]]}, "properties": {"highway": "primary", "oneway": "yes", "ref": "EN 248", "surface": "asphalt"}}, {"type": "Feature", "geometry": {"type": "LineString", "coordinates": [[-9.0721285, 38.9787383], [-9.0721515, 38.9786597], [-9.0721792, 38.978585], [-9.0722558, 38.9784308]]}, "properties": {"highway": "primary", "oneway": "yes", "ref": "EN 248", "surface": "asphalt"}}, {"type": "Feature", "geometry": {"type": "LineString", "coordinates": [[-9.0718195, 38.9786237], [-9.0717073, 38.9786319], [-9.0716033, 38.9786288], [-9.0715052, 38.9786176], [-9.071404, 38.9786172]]}, "properties": {"highway": "primary", "name": "Estrada da Capelinha", "oneway": "yes", "ref": "EN 248", "surface": "asphalt"}}, {"type": "Feature", "geometry": {"type": "LineString", "coordinates": [[-9.071404, 38.9786172], [-9.071505, 38.9786556], [-9.0716258, 38.9787224], [-9.0717162, 38.9788023]]}, "properties": {"highway": "primary", "name": "Estrada da Capelinha", "oneway": "yes", "ref": "EN 248", "surface": "asphalt"}}, {"type": "Feature", "geometry": {"type": "LineString", "coordinates": [[-9.0717214, 38.9791716], [-9.0718371, 38.979036], [-9.0718945, 38.9789919], [-9.0719906, 38.9789211]]}, "properties": {"highway": "primary", "name": "Variante Externa de Arruda dos Vinhos", "oneway": "yes", "ref": "EN 248", "surface": "asphalt"}}, {"type": "Feature", "geometry": {"type": "LineString", "coordinates": [[-9.0717486, 38.9788598], [-9.0717522, 38.9789538], [-9.071744, 38.9790351], [-9.0717214, 38.9791716]]}, "properties": {"highway": "primary", "name": "Variante Externa de Arruda dos Vinhos", "oneway": "yes", "ref": "EN 248", "surface": "asphalt"}}, {"type": "Feature", "geometry": {"type": "LineString", "coordinates": [[-9.0679148, 38.9891275], [-9.0680538, 38.9889037], [-9.0680988, 38.9888599], [-9.0681636, 38.9888124]]}, "properties": {"highway": "primary", "name": "Variante Externa de Arruda dos Vinhos", "oneway": "yes", "ref": "EN 248", "surface": "asphalt"}}, {"type": "Feature", "geometry": {"type": "LineString", "coordinates": [[-9.0680942, 38.9884042], [-9.0680037, 38.9883424], [-9.0679342, 38.9882919], [-9.0678242, 38.9881955]]}, "properties": {"highway": "primary", "name": "Variante Externa de Arruda dos Vinhos", "oneway": "yes", "ref": "EN 248", "surface": "asphalt"}}, {"type": "Feature", "geometry": {"type": "LineString", "coordinates": [[-9.0678745, 38.9887628], [-9.0679092, 38.9888261], [-9.0679284, 38.988881], [-9.0679272, 38.988943], [-9.0679148, 38.9891275]]}, "properties": {"highway": "primary", "name": "Variante Externa de Arruda dos Vinhos", "oneway": "yes", "ref": "EN 248", "surface": "asphalt"}}, {"type": "Feature", "geometry": {"type": "LineString", "coordinates": [[-9.0678242, 38.9881955], [-9.0678383, 38.9883085], [-9.0678457, 38.9883675], [-9.0678534, 38.9884226], [-9.067861, 38.9884777]]}, "properties": {"highway": "primary", "name": "Variante Externa de Arruda dos Vinhos", "oneway": "yes", "ref": "EN 248", "surface": "asphalt"}}, {"type": "Feature", "geometry": {"type": "LineString", "coordinates": [[-9.0681452, 38.9954804], [-9.0680667, 38.9954447], [-9.0680194, 38.9954155], [-9.0679846, 38.9953915], [-9.0678951, 38.9953206]]}, "properties": {"highway": "primary", "name": "Variante Externa de Arruda dos Vinhos", "oneway": "yes", "ref": "EN 248", "surface": "asphalt"}}, {"type": "Feature", "geometry": {"type": "LineString", "coordinates": [[-9.0678951, 38.9953206], [-9.0679226, 38.9953816], [-9.0679488, 38.9954474], [-9.0679575, 38.9954941], [-9.0679561, 38.9955323], [-9.0679329, 38.9956168]]}, "properties": {"highway": "primary", "name": "Variante Externa de Arruda dos Vinhos", "oneway": "yes", "ref": "EN 248", "surface": "asphalt"}}, {"type": "Feature", "geometry": {"type": "LineString", "coordinates": [[-9.0685671, 38.9959917], [-9.0684809, 38.9958923], [-9.0684397, 38.9958376], [-9.0684104, 38.9957849], [-9.0683931, 38.9957276]]}, "properties": {"highway": "primary", "name": "Variante Externa de Arruda dos Vinhos", "oneway": "yes", "ref": "EN 248", "surface": "asphalt"}}, {"type": "Feature", "geometry": {"type": "LineString", "coordinates": [[-9.0681686, 38.9958543], [-9.0683134, 38.9958902], [-9.0684042, 38.9959161], [-9.0684819, 38.9959486], [-9.0685671, 38.9959917]]}, "properties": {"highway": "primary", "name": "Variante Externa de Arruda dos Vinhos", "oneway": "yes", "ref": "EN 248", "surface": "asphalt"}}, {"type": "Feature", "geometry": {"type": "LineString", "coordinates": [[-9.0703755, 38.997259], [-9.0702935, 38.997245], [-9.0702443, 38.9972308], [-9.0701929, 38.9972088], [-9.0700962, 38.9971677]]}, "properties": {"highway": "primary", "name": "Variante Externa de Arruda dos Vinhos", "oneway": "yes", "ref": "EN 248", "surface": "asphalt"}}, {"type": "Feature", "geometry": {"type": "LineString", "coordinates": [[-9.0700962, 38.9971677], [-9.0701505, 38.9972392], [-9.0701858, 38.9972852], [-9.0702392, 38.9973764]]}, "properties": {"highway": "primary", "name": "Variante Externa de Arruda dos Vinhos", "oneway": "yes", "ref": "EN 248", "surface": "asphalt"}}, {"type": "Feature", "geometry": {"type": "LineString", "coordinates": [[-9.0675942, 38.9914107], [-9.0675929, 38.9906361], [-9.0676028, 38.9904098], [-9.0676283, 38.9901949], [-9.0676833, 38.989891], [-9.0677577, 38.9896201], [-9.0679148, 38.9891275]]}, "properties": {"highway": "primary", "lanes": "2", "name": "Variante Externa de Arruda dos Vinhos", "oneway": "no", "ref": "EN 248", "surface": "asphalt"}}, {"type": "Feature", "geometry": {"type": "LineString", "coordinates": [[-9.0876548, 38.9994243], [-9.087718, 38.9994543], [-9.0879368, 38.9995405], [-9.088174, 38.9996279], [-9.0884377, 38.9997198], [-9.0889189, 38.999835], [-9.0891879, 38.9998804], [-9.0892993, 38.9999002], [-9.0894601, 38.9999285], [-9.0895436, 38.9999416]]}, "properties": {"highway": "primary", "name": "Estrada da Fresca (EN 248)", "oneway": "no", "ref": "EN 248", "surface": "asphalt"}}, {"type": "Feature", "geometry": {"type": "LineString", "coordinates": [[-8.993093, 38.9524922], [-8.9931719, 38.9524303], [-8.9932277, 38.952409], [-8.9932993, 38.9524001], [-8.9933759, 38.9523989], [-8.9934515, 38.9524064], [-8.9935105, 38.952422], [-8.9935596, 38.9524471], [-8.9936131, 38.9524929], [-8.993666, 38.9525671], [-8.993705, 38.9526462], [-8.9937251, 38.9526958], [-8.9937729, 38.9528456], [-8.9938015, 38.9529064], [-8.9938378, 38.9529669], [-8.9939004, 38.9530478], [-8.9939638, 38.9531093], [-8.9940628, 38.9531879], [-8.9941851, 38.9532776]]}, "properties": {"highway": "primary", "name": "Rua General Humberto Delgado", "oneway": "no", "ref": "EN 248"}}, {"type": "Feature", "geometry": {"type": "LineString", "coordinates": [[-9.0215709, 38.9579088], [-9.0215926, 38.9579634], [-9.0216234, 38.9580223], [-9.0216833, 38.9580967], [-9.0217347, 38.9581412], [-9.021834, 38.9582147], [-9.0220577, 38.958357], [-9.0222598, 38.9584874], [-9.022815, 38.9588423], [-9.0233535, 38.9591856], [-9.0235216, 38.9592878], [-9.0236264, 38.9593426], [-9.023741, 38.9593916], [-9.0239535, 38.9594639], [-9.0243962, 38.959608], [-9.0246322, 38.9596977], [-9.0247404, 38.9597521], [-9.025107, 38.9599641], [-9.0251894, 38.9600105], [-9.0253011, 38.9600615], [-9.0253946, 38.9600913], [-9.0254952, 38.9601122], [-9.0255852, 38.9601215], [-9.0257058, 38.9601242], [-9.0258888, 38.9601148], [-9.0263253, 38.9600872], [-9.0271159, 38.9600355], [-9.0280715, 38.9599677], [-9.0283702, 38.9599563], [-9.0284946, 38.9599568], [-9.0286041, 38.959961], [-9.0287171, 38.9599744], [-9.0289143, 38.9600016], [-9.0295118, 38.9600971], [-9.0302136, 38.9602102], [-9.0306685, 38.9602837], [-9.0311133, 38.960351], [-9.031205, 38.9603682], [-9.0312908, 38.9603864], [-9.0313827, 38.9604146], [-9.0314677, 38.9604432], [-9.0321832, 38.9607884], [-9.0323241, 38.9608552], [-9.0324019, 38.9608833], [-9.0324633, 38.9609007], [-9.0325347, 38.9609162], [-9.032593, 38.9609231], [-9.0326453, 38.9609235], [-9.032705, 38.9609214], [-9.0327787, 38.960911], [-9.0328656, 38.9608871], [-9.032988, 38.9608437], [-9.0336726, 38.9605783], [-9.033831, 38.9605238], [-9.0339046, 38.9605032], [-9.0339763, 38.9604918], [-9.0340427, 38.9604845], [-9.0341105, 38.9604834], [-9.0341871, 38.9604931], [-9.0342365, 38.9605022], [-9.0342915, 38.9605199], [-9.0343747, 38.9605554], [-9.0344895, 38.9606182], [-9.0351268, 38.9610418], [-9.0352155, 38.9610877], [-9.0352931, 38.9611249], [-9.0353704, 38.9611482], [-9.0354536, 38.9611685], [-9.0356085, 38.9611951], [-9.0359323, 38.9612504], [-9.0365752, 38.9613549], [-9.036666, 38.9613715], [-9.0367484, 38.9613907], [-9.0368333, 38.9614151]]}, "properties": {"highway": "primary", "name": "Avenida Dom Pedro V", "ref": "EN 248", "surface": "asphalt"}}, {"type": "Feature", "geometry": {"type": "LineString", "coordinates": [[-9.0029274, 38.9562772], [-9.0035145, 38.9565811], [-9.0040134, 38.9568653], [-9.0041003, 38.9569077], [-9.0042152, 38.9569461], [-9.0043223, 38.956966], [-9.0044234, 38.9569738], [-9.0044928, 38.9569743], [-9.0045664, 38.9569669], [-9.0047836, 38.9569322], [-9.0048812, 38.9569143], [-9.005449, 38.95681], [-9.0056115, 38.9567776], [-9.0057327, 38.9567464], [-9.0058601, 38.9567052], [-9.0061086, 38.956607], [-9.006195, 38.9565783], [-9.0062738, 38.9565628], [-9.0063365, 38.9565635], [-9.0063959, 38.9565764], [-9.0064482, 38.9565931], [-9.0065163, 38.956632], [-9.0065528, 38.9566656], [-9.006591, 38.9567182], [-9.0066111, 38.9567693], [-9.0066201, 38.9568516], [-9.0066171, 38.956943], [-9.0065923, 38.9571583], [-9.0065937, 38.9572454], [-9.0066079, 38.9573285], [-9.0066352, 38.9574237], [-9.0066799, 38.9575178], [-9.0067425, 38.9576052], [-9.0068276, 38.9576974], [-9.0069625, 38.9578148], [-9.0071167, 38.9579386], [-9.0073125, 38.9580828], [-9.0077249, 38.9583482], [-9.0078086, 38.9584131], [-9.0079585, 38.9585443]]}, "properties": {"highway": "primary", "name": "Rua Jos\u00e9 Fidalgo Gon\u00e7alves", "ref": "EN 248", "surface": "asphalt"}}, {"type": "Feature", "geometry": {"type": "LineString", "coordinates": [[-8.9983211, 38.9548152], [-8.9985403, 38.9548064], [-8.9986552, 38.9548041], [-8.9987308, 38.9548058], [-8.998818, 38.9548144], [-8.9988847, 38.9548251], [-8.9989485, 38.9548429], [-8.9990379, 38.9548817], [-8.9991532, 38.9549495], [-8.9992738, 38.9550324], [-8.999454, 38.955157], [-8.9995752, 38.9552345], [-8.9996863, 38.9552921], [-8.99985, 38.9553578], [-9.0002333, 38.9554201], [-9.0004917, 38.9554521], [-9.0005576, 38.9554623], [-9.0006522, 38.9554769], [-9.0008155, 38.9555106], [-9.0009864, 38.9555642], [-9.0016289, 38.9557705], [-9.001758, 38.9558125], [-9.0020971, 38.9559228]]}, "properties": {"highway": "primary", "name": "Rua General Humberto Delgado", "oneway": "no", "ref": "EN 248", "surface": "asphalt"}}, {"type": "Feature", "geometry": {"type": "LineString", "coordinates": [[-9.0024221, 38.9560386], [-9.0029274, 38.9562772]]}, "properties": {"addr:city": "vila franca de xira", "addr:housenumber": "35", "addr:postcode": "2600-154", "addr:street": "Rua General Humberto Delgado", "highway": "primary", "name": "Rua General Humberto Delgado", "oneway": "no", "ref": "EN 248"}}, {"type": "Feature", "geometry": {"type": "LineString", "coordinates": [[-9.0020971, 38.9559228], [-9.0024221, 38.9560386]]}, "properties": {"addr:city": "vila franca de xira", "addr:housenumber": "35", "addr:postcode": "2600-154", "addr:street": "Rua General Humberto Delgado", "highway": "primary", "name": "Rua General Humberto Delgado", "oneway": "no", "ref": "EN 248"}}, {"type": "Feature", "geometry": {"type": "LineString", "coordinates": [[-9.0214318, 38.9559838], [-9.0214773, 38.956129], [-9.0215022, 38.9562876], [-9.0215067, 38.9564309], [-9.0215228, 38.9569435], [-9.0215268, 38.9570404], [-9.021543, 38.9576406], [-9.021549, 38.957783], [-9.0215591, 38.9578591], [-9.0215709, 38.9579088]]}, "properties": {"highway": "primary", "name": "Rua Al\u00edpio Ant\u00f3nio Diogo da Silva", "ref": "EN 248", "surface": "asphalt"}}, {"type": "Feature", "geometry": {"type": "LineString", "coordinates": [[-9.0368333, 38.9614151], [-9.0369154, 38.961448], [-9.0370046, 38.9614961], [-9.0371809, 38.9616196], [-9.0373881, 38.9617708], [-9.0374786, 38.9618233], [-9.0375698, 38.9618625], [-9.0376395, 38.9618829], [-9.0377073, 38.9618949], [-9.0378005, 38.9619016], [-9.0379473, 38.9618959], [-9.0389485, 38.9618005], [-9.0390779, 38.9617948], [-9.0392072, 38.9617989], [-9.0392978, 38.9618094], [-9.0393716, 38.9618219], [-9.0394571, 38.9618404], [-9.0395736, 38.9618747], [-9.0404995, 38.9621798], [-9.0406091, 38.9622108], [-9.0406937, 38.9622311], [-9.0408465, 38.9622586], [-9.0410192, 38.962277], [-9.0415891, 38.9623115], [-9.0419563, 38.9623382], [-9.0423034, 38.9623714], [-9.0424997, 38.9623936], [-9.0425472, 38.9624001]]}, "properties": {"highway": "primary", "name": "Avenida Dom Pedro V", "ref": "EN 248", "surface": "asphalt"}}, {"type": "Feature", "geometry": {"type": "LineString", "coordinates": [[-9.0425472, 38.9624001], [-9.0426916, 38.9624226]]}, "properties": {"highway": "primary", "name": "Rua Baixa do Linh\u00f4", "ref": "EN 248", "surface": "asphalt"}}, {"type": "Feature", "geometry": {"type": "LineString", "coordinates": [[-9.076142, 38.9901844], [-9.0760772, 38.9901406], [-9.0760124, 38.9900967]]}, "properties": {"highway": "primary", "oneway": "yes", "ref": "EN 248"}}, {"type": "Feature", "geometry": {"type": "LineString", "coordinates": [[-9.0767673, 38.9904314], [-9.0764699, 38.9902975], [-9.076142, 38.9901844]]}, "properties": {"highway": "primary", "name": "Estrada das Corredouras", "ref": "EN 248"}}, {"type": "Feature", "geometry": {"type": "LineString", "coordinates": [[-9.0079585, 38.9585443], [-9.0083358, 38.958896], [-9.0084223, 38.9589724], [-9.0084826, 38.9590089], [-9.0085668, 38.9590479], [-9.0086275, 38.9590588], [-9.0086771, 38.9590631], [-9.0087239, 38.9590598], [-9.0087743, 38.9590475], [-9.0088266, 38.9590273], [-9.0088769, 38.959], [-9.0089159, 38.9589715], [-9.008948, 38.9589437], [-9.0089767, 38.9589003], [-9.0089976, 38.9588535], [-9.0090107, 38.9587978], [-9.0090224, 38.9587263], [-9.0090264, 38.9586522], [-9.0090231, 38.9585888], [-9.0090097, 38.9585166], [-9.0089857, 38.9584592], [-9.008952, 38.9584103], [-9.0089037, 38.9583618], [-9.0088336, 38.9583071], [-9.008775, 38.9582695], [-9.008555, 38.958148], [-9.0084317, 38.9580797], [-9.0083653, 38.9580354], [-9.0083097, 38.9579962], [-9.0082084, 38.9579014], [-9.0081382, 38.9578227], [-9.0080816, 38.957747], [-9.0080501, 38.9576938], [-9.0080227, 38.9576429], [-9.0079958, 38.9575781], [-9.0079857, 38.9575165], [-9.0079883, 38.9574295], [-9.0080951, 38.9567848], [-9.0081091, 38.9567146], [-9.0081306, 38.9566515], [-9.008148, 38.9566093], [-9.0081722, 38.9565701], [-9.008203, 38.9565295], [-9.0082485, 38.9564875], [-9.008481, 38.956349], [-9.0085638, 38.9562995], [-9.0086399, 38.9562344], [-9.008718, 38.9561514], [-9.0088062, 38.9560215], [-9.0089111, 38.9558323], [-9.0090224, 38.955643], [-9.009135, 38.9554797], [-9.0096259, 38.9548968], [-9.0101918, 38.9542281], [-9.0103964, 38.95399], [-9.0105183, 38.9538642], [-9.0107005, 38.9537058], [-9.0114364, 38.9531065], [-9.0115471, 38.9530379], [-9.0116235, 38.9530086], [-9.0116887, 38.9529929]]}, "properties": {"highway": "primary", "name": "Rua Jos\u00e9 Fidalgo Gon\u00e7alves", "ref": "EN 248", "surface": "asphalt"}}, {"type": "Feature", "geometry": {"type": "LineString", "coordinates": [[-9.0759274, 38.9902003], [-9.0760229, 38.9901932], [-9.076142, 38.9901844]]}, "properties": {"highway": "primary", "name": "Estrada das Corredouras", "oneway": "yes", "ref": "EN 248"}}, {"type": "Feature", "geometry": {"type": "MultiPolygon", "coordinates": [[[[-9.0683399, 38.9886203], [-9.0683384, 38.9885914], [-9.0683319, 38.9885631], [-9.0683171, 38.9885294], [-9.0682952, 38.9884983], [-9.0682668, 38.9884702], [-9.0682328, 38.9884464], [-9.068197, 38.9884284], [-9.0681579, 38.988415], [-9.0680942, 38.9884042], [-9.0680289, 38.9884054], [-9.0679659, 38.9884187], [-9.0679089, 38.9884432], [-9.067861, 38.9884777], [-9.0678242, 38.9885213], [-9.0678022, 38.9885704], [-9.0677965, 38.9886224], [-9.0678072, 38.9886738], [-9.0678337, 38.9887216], [-9.0678745, 38.9887628], [-9.0679232, 38.9887933], [-9.0679796, 38.9888143], [-9.0680406, 38.9888247], [-9.068103, 38.9888241], [-9.0681636, 38.9888124], [-9.0682054, 38.9887969], [-9.0682431, 38.9887762], [-9.0682829, 38.9887442], [-9.068313, 38.9887063], [-9.0683323, 38.9886644], [-9.0683399, 38.9886203]]]]}, "properties": {"highway": "primary", "junction": "roundabout", "name": "Variante Externa de Arruda dos Vinhos", "oneway": "yes", "ref": "EN 248", "surface": "asphalt"}}, {"type": "Feature", "geometry": {"type": "MultiPolygon", "coordinates": [[[[-9.068405, 38.9956492], [-9.068392, 38.995604], [-9.0683652, 38.9955626], [-9.0683261, 38.9955277], [-9.0682772, 38.9955012], [-9.0682131, 38.9954835], [-9.0681452, 38.9954804], [-9.0680879, 38.9954896], [-9.0680352, 38.9955093], [-9.0679901, 38.9955382], [-9.0679553, 38.9955748], [-9.0679329, 38.9956168], [-9.0679246, 38.9956542], [-9.0679262, 38.9956921], [-9.0679392, 38.9957324], [-9.0679633, 38.9957696], [-9.0679974, 38.9958016], [-9.0680397, 38.9958271], [-9.0680883, 38.9958446], [-9.0681279, 38.9958521], [-9.0681686, 38.9958543], [-9.068227, 38.9958481], [-9.0682817, 38.9958309], [-9.0683295, 38.995804], [-9.0683673, 38.9957689], [-9.0683931, 38.9957276], [-9.0684044, 38.9956889], [-9.068405, 38.9956492]]]]}, "properties": {"highway": "primary", "junction": "roundabout", "name": "Variante Externa de Arruda dos Vinhos", "oneway": "yes", "ref": "EN 248", "surface": "asphalt"}}, {"type": "Feature", "geometry": {"type": "MultiPolygon", "coordinates": [[[[-9.0721317, 38.9787664], [-9.0721285, 38.9787383], [-9.0721037, 38.9786853], [-9.0720573, 38.978642], [-9.0719947, 38.9786135], [-9.0719234, 38.9786032], [-9.0718698, 38.9786082], [-9.0718195, 38.9786237], [-9.0717761, 38.9786485], [-9.0717423, 38.9786811], [-9.0717202, 38.9787192], [-9.0717113, 38.9787605], [-9.0717162, 38.9788023], [-9.0717288, 38.9788322], [-9.0717486, 38.9788598], [-9.0717783, 38.9788865], [-9.0718148, 38.9789076], [-9.0718563, 38.9789221], [-9.0719008, 38.9789294], [-9.0719463, 38.978929], [-9.0719906, 38.9789211], [-9.0720359, 38.9789038], [-9.0720608, 38.9788891], [-9.0720992, 38.978854], [-9.0721234, 38.978812], [-9.0721317, 38.9787664]]]]}, "properties": {"highway": "primary", "junction": "roundabout", "ref": "EN 248", "surface": "asphalt"}}]}