{"type": "FeatureCollection", "features": [{"type": "Feature", "geometry": {"type": "LineString", "coordinates": [[-9.1060543, 38.6055222], [-9.1057417, 38.6049405], [-9.1056007, 38.6046688], [-9.1054881, 38.6044576], [-9.1053723, 38.6042365], [-9.1053324, 38.6041604], [-9.1051352, 38.6037837], [-9.1050186, 38.603561], [-9.1049894, 38.6034986]]}, "properties": {"highway": "primary", "lanes": "2", "maxheight": "default", "name": "Avenida 23 de Julho de 1833", "ref": "EN 378", "surface": "asphalt"}}, {"type": "Feature", "geometry": {"type": "LineString", "coordinates": [[-9.100727, 38.5349059], [-9.1007679, 38.5347855], [-9.1008229, 38.5346193], [-9.1008515, 38.5345335], [-9.1008802, 38.5344304], [-9.1010837, 38.5335326], [-9.1012124, 38.532747], [-9.1013154, 38.5318541], [-9.1013326, 38.5307932], [-9.1012639, 38.5297458], [-9.1011266, 38.527013], [-9.1010065, 38.5245755], [-9.1009987, 38.5244701], [-9.1009378, 38.5236488], [-9.1009979, 38.5230848], [-9.1012983, 38.5222588], [-9.1018562, 38.5213657], [-9.1022253, 38.5206942], [-9.1029291, 38.5199555], [-9.1036844, 38.5190825], [-9.1041307, 38.5185453], [-9.1043882, 38.5181289], [-9.1044912, 38.5176588], [-9.104474, 38.516853], [-9.1041822, 38.5148853], [-9.1040449, 38.5139115], [-9.1040964, 38.513307], [-9.1043661, 38.5124968], [-9.104629, 38.5118799], [-9.1049259, 38.5111912], [-9.1050243, 38.5109619], [-9.10506, 38.5108726], [-9.1051308, 38.5107019], [-9.1051693, 38.5106074], [-9.1052066, 38.5105061], [-9.1052409, 38.5103895], [-9.1052735, 38.5102692], [-9.1052993, 38.5101484], [-9.1053139, 38.5100549], [-9.1053264, 38.5099595], [-9.1053328, 38.5098628], [-9.1053345, 38.5097788], [-9.1053357, 38.5096969], [-9.1053307, 38.5095857], [-9.1053238, 38.5094815], [-9.1053121, 38.5093403], [-9.1052955, 38.5091753], [-9.1052553, 38.5087994], [-9.10515, 38.5078312], [-9.1050502, 38.5069567], [-9.1049829, 38.5063078], [-9.1048763, 38.505281], [-9.1047835, 38.5044044], [-9.1046271, 38.5028997], [-9.1043998, 38.5007745], [-9.1043927, 38.5006942], [-9.1043496, 38.5003202], [-9.1041918, 38.4988166], [-9.1041624, 38.4985034], [-9.1041518, 38.4983546], [-9.1041443, 38.4982592], [-9.1041404, 38.4981733], [-9.10414, 38.4980846], [-9.1041435, 38.4979083], [-9.1041489, 38.497741], [-9.1041575, 38.4976009], [-9.104167, 38.4974644], [-9.1041785, 38.4973436], [-9.1041988, 38.4971876], [-9.1042145, 38.4970831], [-9.1042249, 38.4969986], [-9.10427, 38.4966832], [-9.1043431, 38.4962062], [-9.1044263, 38.4956365], [-9.1045696, 38.4946709], [-9.104677, 38.4939774], [-9.1047363, 38.4935811], [-9.1047935, 38.493187], [-9.1048472, 38.4928127], [-9.1049641, 38.4920261]]}, "properties": {"highway": "primary", "lanes": "2", "maxspeed": "70", "maxspeed:type": "sign", "oneway": "no", "ref": "EN 378", "surface": "asphalt"}}, {"type": "Feature", "geometry": {"type": "LineString", "coordinates": [[-9.1050912, 38.4899992], [-9.1050083, 38.4900552], [-9.1049591, 38.4901317], [-9.104951, 38.4902171], [-9.1049853, 38.4902986], [-9.1050567, 38.4903634]]}, "properties": {"highway": "primary", "junction": "roundabout", "lanes": "2", "ref": "EN 378"}}, {"type": "Feature", "geometry": {"type": "LineString", "coordinates": [[-9.1054718, 38.4886143], [-9.1054393, 38.4887196], [-9.1054176, 38.4888492], [-9.1053877, 38.4889863], [-9.1053562, 38.4891324], [-9.1053326, 38.4892641], [-9.1053103, 38.4894078], [-9.1052762, 38.48963], [-9.1052628, 38.4897077], [-9.1052521, 38.4897602], [-9.105236, 38.4898085], [-9.1052146, 38.4898588], [-9.1051877, 38.489905], [-9.1051577, 38.4899436], [-9.1050912, 38.4899992]]}, "properties": {"highway": "primary", "lanes": "2", "oneway": "yes", "ref": "EN 378", "surface": "asphalt"}}, {"type": "Feature", "geometry": {"type": "LineString", "coordinates": [[-9.0995384, 38.4660691], [-9.0995012, 38.4660102], [-9.0994585, 38.4659384], [-9.0993888, 38.4658691], [-9.0993137, 38.4658313], [-9.0992332, 38.4658103]]}, "properties": {"destination:forward": "Palmela;Vila Nova de Azeit\u00e3o;Set\u00fabal", "highway": "primary", "name": "Rua Jorge de Castilho", "oneway": "no", "ref": "EN 378"}}, {"type": "Feature", "geometry": {"type": "LineString", "coordinates": [[-9.1035621, 38.461233], [-9.1035713, 38.4612136], [-9.1035896, 38.4611746], [-9.1036179, 38.4611136], [-9.1036965, 38.4609194], [-9.1037489, 38.4607999], [-9.1037992, 38.4606701], [-9.1038338, 38.4605806], [-9.1038544, 38.4605362], [-9.1038767, 38.4604883], [-9.1039117, 38.4604033], [-9.1039178, 38.4603883], [-9.1039638, 38.4602926], [-9.1039968, 38.4601944], [-9.1040352, 38.4601003], [-9.1040292, 38.459996]]}, "properties": {"highway": "primary", "lanes": "2", "ref": "EN 378", "surface": "asphalt"}}, {"type": "Feature", "geometry": {"type": "LineString", "coordinates": [[-9.1024422, 38.4571946], [-9.1023544, 38.4571881], [-9.1022752, 38.457177], [-9.1021554, 38.4571463], [-9.1020497, 38.457112], [-9.1017446, 38.4569931], [-9.1010516, 38.4565894], [-9.1008613, 38.4564547], [-9.1007841, 38.456344], [-9.100752, 38.4562318], [-9.1007429, 38.4561754], [-9.1007379, 38.4561119], [-9.1007355, 38.4560418], [-9.1007315, 38.4559091], [-9.1007335, 38.4558039], [-9.1007389, 38.4557134], [-9.1007624, 38.4555406], [-9.1008217, 38.4551712], [-9.1008368, 38.4550969], [-9.1008545, 38.4550339], [-9.1008803, 38.4549737], [-9.1009149, 38.4549081], [-9.1009558, 38.454843], [-9.1010567, 38.4547107], [-9.1011429, 38.4546017], [-9.1012299, 38.4544868], [-9.1013156, 38.4543638], [-9.1013692, 38.4542627], [-9.1014032, 38.454175], [-9.1014413, 38.4540766], [-9.1015225, 38.4538713], [-9.1017058, 38.4535047], [-9.1017518, 38.4534023], [-9.1017853, 38.4533136], [-9.1018175, 38.4532014], [-9.1018399, 38.4531037], [-9.1018863, 38.4528998], [-9.1019174, 38.4527632], [-9.1019745, 38.4525128], [-9.1019925, 38.4524448], [-9.1020126, 38.4523833], [-9.1020326, 38.4523345], [-9.1020522, 38.4523043], [-9.102085, 38.4522615], [-9.1021219, 38.4522308], [-9.102175, 38.4521995], [-9.1022399, 38.4521728], [-9.102308, 38.4521544]]}, "properties": {"highway": "primary", "ref": "EN 378", "surface": "asphalt"}}, {"type": "Feature", "geometry": {"type": "LineString", "coordinates": [[-9.0973682, 38.4652365], [-9.0973986, 38.4651646], [-9.0974305, 38.4651041], [-9.0975063, 38.4649881]]}, "properties": {"destination": "Sesimbra;Cabo Espichel;Santana", "highway": "primary", "oneway": "yes", "ref": "EN 378", "surface": "asphalt"}}, {"type": "Feature", "geometry": {"type": "LineString", "coordinates": [[-9.100161, 38.4461658], [-9.1001162, 38.446673], [-9.1000814, 38.4469152], [-9.1000608, 38.4470844], [-9.100008, 38.4473773], [-9.1000008, 38.4474115], [-9.0999766, 38.4475348], [-9.0999577, 38.4476307], [-9.0999382, 38.4477149], [-9.0998949, 38.4479338], [-9.0998745, 38.4480328], [-9.099859, 38.4481138], [-9.0998429, 38.4482102], [-9.0998263, 38.448395], [-9.0998382, 38.4484641], [-9.0998783, 38.44853], [-9.0999297, 38.4485948], [-9.1000047, 38.448664], [-9.1001691, 38.4487844], [-9.1002501, 38.448835], [-9.1003318, 38.4488861], [-9.1004184, 38.4489269], [-9.1005204, 38.4489621], [-9.1006298, 38.4489828], [-9.1007214, 38.4489851], [-9.1008425, 38.4489712], [-9.1008823, 38.4489587], [-9.1009257, 38.448945], [-9.1010121, 38.448908], [-9.1010972, 38.4488521], [-9.1011334, 38.4488172], [-9.1011642, 38.4487825], [-9.101192, 38.4487455], [-9.1012136, 38.4487042], [-9.1012492, 38.4486155], [-9.101312, 38.4484414], [-9.1014085, 38.4481574], [-9.1014489, 38.4480527], [-9.1014913, 38.447945], [-9.1015252, 38.4478238], [-9.1015582, 38.4476859], [-9.1015653, 38.4476005], [-9.1015656, 38.4474792], [-9.1015501, 38.4473602], [-9.1015216, 38.4472316], [-9.101523, 38.4471837], [-9.1015306, 38.4471461], [-9.101543, 38.4471186], [-9.1015614, 38.447098], [-9.1015803, 38.4470822], [-9.1016013, 38.4470745], [-9.1016613, 38.4470702], [-9.1017035, 38.4470801], [-9.1017437, 38.4470927]]}, "properties": {"highway": "primary", "maxspeed": "50", "name": "Avenida da Liberdade", "postal_code": "2970-635", "ref": "EN 378", "surface": "asphalt"}}, {"type": "Feature", "geometry": {"type": "LineString", "coordinates": [[-9.1000039, 38.5489475], [-9.1001559, 38.5494912], [-9.1002498, 38.5498017], [-9.1003651, 38.5501939], [-9.1004, 38.5503198], [-9.1004161, 38.5503953], [-9.1004295, 38.5504645], [-9.1004376, 38.5505317], [-9.1004376, 38.5505862], [-9.1004322, 38.5506491], [-9.1004161, 38.5507142], [-9.1003705, 38.5507907]]}, "properties": {"highway": "primary", "oneway": "yes", "ref": "EN 378", "surface": "asphalt"}}, {"type": "Feature", "geometry": {"type": "LineString", "coordinates": [[-9.1008195, 38.5529373], [-9.1008617, 38.5527518], [-9.1008765, 38.5525483], [-9.1008832, 38.552456], [-9.1008908, 38.5523048], [-9.1008993, 38.5521351], [-9.1009047, 38.5519841], [-9.1009073, 38.551896], [-9.1009047, 38.5517764], [-9.1008909, 38.5516539], [-9.1008667, 38.5515134], [-9.100856, 38.5514483], [-9.1008564, 38.551403], [-9.1008671, 38.5513527], [-9.1008859, 38.5513107], [-9.1009258, 38.5512408]]}, "properties": {"highway": "primary", "name": "Avenida 23 de Julho de 1833", "oneway": "yes", "ref": "EN 378", "surface": "asphalt"}}, {"type": "Feature", "geometry": {"type": "LineString", "coordinates": [[-9.1064602, 38.6072817], [-9.1063945, 38.6068638], [-9.1063438, 38.6064185], [-9.1063223, 38.6062634]]}, "properties": {"destination": "Sesimbra;Fern\u00e3o Ferro", "destination:ref": "A 33;EN 378", "highway": "primary", "lanes": "2", "maxspeed": "70", "maxspeed:type": "sign", "name": "Avenida 23 de Julho de 1833", "oneway": "yes", "ref": "EN 378", "surface": "asphalt"}}, {"type": "Feature", "geometry": {"type": "LineString", "coordinates": [[-9.1057752, 38.618866], [-9.1057371, 38.6186699], [-9.1057311, 38.6186449], [-9.1057048, 38.6185345]]}, "properties": {"highway": "primary", "name": "Avenida da Rep\u00fablica", "oneway": "yes", "ref": "EN 378"}}, {"type": "Feature", "geometry": {"type": "LineString", "coordinates": [[-9.1068758, 38.6159791], [-9.1067005, 38.6159185], [-9.1066342, 38.6158876], [-9.1065844, 38.6158524], [-9.1065402, 38.6158051], [-9.1065112, 38.6157598], [-9.1064912, 38.6157079], [-9.1064632, 38.6155941], [-9.1064339, 38.6154777], [-9.1063361, 38.6151258], [-9.1063035, 38.615001], [-9.1062769, 38.6149041], [-9.1062484, 38.6148144], [-9.1062157, 38.6147326], [-9.1061908, 38.6146719], [-9.1061774, 38.6146426], [-9.1061087, 38.6145361]]}, "properties": {"highway": "primary", "lanes": "1", "name": "Rua Brejos da Piedade", "oneway": "yes", "ref": "EN 378", "surface": "asphalt"}}, {"type": "Feature", "geometry": {"type": "LineString", "coordinates": [[-9.1057599, 38.6166776], [-9.1059034, 38.6165166], [-9.106133, 38.6163564], [-9.1063253, 38.6161928], [-9.1063879, 38.6160792], [-9.1064101, 38.615944], [-9.1063613, 38.6156378]]}, "properties": {"bridge": "yes", "highway": "primary", "lanes": "1", "layer": "1", "name": "Rua Brejos da Piedade", "oneway": "yes", "ref": "EN 378"}}, {"type": "Feature", "geometry": {"type": "LineString", "coordinates": [[-9.1061087, 38.6145361], [-9.1057119, 38.6135459]]}, "properties": {"highway": "primary", "lanes": "1", "name": "Rua Brejos da Piedade", "oneway": "yes", "ref": "EN 378", "surface": "asphalt"}}, {"type": "Feature", "geometry": {"type": "LineString", "coordinates": [[-9.1063613, 38.6156378], [-9.1062807, 38.6151959], [-9.1062552, 38.6150722], [-9.1062445, 38.6150177], [-9.1062311, 38.6149465], [-9.1062132, 38.6148695], [-9.1061935, 38.6148019], [-9.1061667, 38.6147264], [-9.1061372, 38.6146531], [-9.1061087, 38.6145361]]}, "properties": {"highway": "primary", "lanes": "1", "name": "Rua Brejos da Piedade", "oneway": "yes", "ref": "EN 378", "surface": "asphalt"}}, {"type": "Feature", "geometry": {"type": "LineString", "coordinates": [[-9.1015065, 38.4726008], [-9.1014896, 38.4725759], [-9.1014247, 38.4724629], [-9.1013657, 38.4723428], [-9.101258, 38.4721059], [-9.101145, 38.4718552], [-9.1010258, 38.4715933], [-9.1010135, 38.4715672]]}, "properties": {"highway": "primary", "lanes": "2", "maxspeed:type": "PT:urban", "name": "Avenida Jo\u00e3o Paulo II", "ref": "EN 378", "surface": "asphalt"}}, {"type": "Feature", "geometry": {"type": "LineString", "coordinates": [[-9.1043161, 38.478528], [-9.1042961, 38.4785355], [-9.1042778, 38.4785453], [-9.1042574, 38.4785608], [-9.104241, 38.4785791], [-9.1042295, 38.4785994], [-9.104223, 38.4786211], [-9.1042234, 38.4786539], [-9.1042355, 38.4786853], [-9.1042582, 38.4787128]]}, "properties": {"highway": "primary", "junction": "roundabout", "lanes": "2", "ref": "EN 378", "surface": "asphalt"}}, {"type": "Feature", "geometry": {"type": "LineString", "coordinates": [[-9.1007474, 38.5506981], [-9.1006883, 38.5506651], [-9.100648, 38.5506285], [-9.1006151, 38.5505919], [-9.1005931, 38.5505631], [-9.1005721, 38.5505325], [-9.1005516, 38.5504947], [-9.100518, 38.5504247], [-9.1004671, 38.5502841], [-9.1003629, 38.5499808], [-9.1001924, 38.5494798], [-9.1000039, 38.5489475]]}, "properties": {"destination": "Sesimbra;Santana", "highway": "primary", "oneway": "yes", "ref": "EN 378"}}, {"type": "Feature", "geometry": {"type": "LineString", "coordinates": [[-9.1038957, 38.4823271], [-9.1038793, 38.4823494], [-9.1038711, 38.4823984], [-9.1038875, 38.4824462], [-9.1039041, 38.4824679], [-9.103926, 38.4824854], [-9.1039516, 38.4824969]]}, "properties": {"highway": "primary", "junction": "roundabout", "ref": "EN 378"}}, {"type": "Feature", "geometry": {"type": "LineString", "coordinates": [[-9.1055041, 38.6186584], [-9.1055967, 38.618711], [-9.1056373, 38.6187457], [-9.1057752, 38.618866]]}, "properties": {"highway": "primary", "name": "Avenida da Rep\u00fablica", "oneway": "yes", "ref": "EN 378"}}, {"type": "Feature", "geometry": {"type": "LineString", "coordinates": [[-9.1064347, 38.6199579], [-9.1063872, 38.6201595], [-9.1063617, 38.6202324], [-9.1063342, 38.6202709], [-9.1062218, 38.620373]]}, "properties": {"highway": "primary", "name": "Avenida da Rep\u00fablica", "oneway": "yes", "ref": "EN 378"}}, {"type": "Feature", "geometry": {"type": "LineString", "coordinates": [[-9.1068758, 38.6159791], [-9.1066371, 38.6160004], [-9.1064616, 38.6160167], [-9.1063365, 38.6160304], [-9.1062427, 38.6160451], [-9.106115, 38.6160765], [-9.10603, 38.6161059], [-9.105939, 38.6161503], [-9.1058432, 38.616232]]}, "properties": {"highway": "primary", "lanes": "2", "name": "Avenida dos Resistentes Antifascistas", "oneway": "no", "ref": "EN 378"}}, {"type": "Feature", "geometry": {"type": "LineString", "coordinates": [[-9.1057752, 38.618866], [-9.1059165, 38.6190276], [-9.1059393, 38.6190628], [-9.106295, 38.6195986], [-9.1063531, 38.6197033], [-9.1063926, 38.6198057], [-9.1064114, 38.6198689], [-9.1064347, 38.6199579]]}, "properties": {"highway": "primary", "name": "Avenida da Rep\u00fablica", "ref": "EN 378"}}, {"type": "Feature", "geometry": {"type": "LineString", "coordinates": [[-9.1066189, 38.6203901], [-9.1065551, 38.6202825], [-9.1065234, 38.6201909], [-9.1064347, 38.6199579]]}, "properties": {"highway": "primary", "name": "Avenida da Rep\u00fablica", "oneway": "yes", "ref": "EN 378"}}, {"type": "Feature", "geometry": {"type": "LineString", "coordinates": [[-9.106003, 38.6211577], [-9.106211, 38.6209014], [-9.1063498, 38.6207745], [-9.1064728, 38.620694]]}, "properties": {"highway": "primary", "name": "Avenida da Rep\u00fablica", "oneway": "yes", "ref": "EN 378"}}, {"type": "Feature", "geometry": {"type": "LineString", "coordinates": [[-9.1057008, 38.6185032], [-9.1056975, 38.6180837]]}, "properties": {"highway": "primary", "oneway": "yes", "ref": "EN 378"}}, {"type": "Feature", "geometry": {"type": "LineString", "coordinates": [[-9.1054995, 38.6313483], [-9.1055512, 38.6313028], [-9.1055823, 38.6312391], [-9.1055798, 38.6311681], [-9.1055357, 38.6310967], [-9.1054698, 38.6310527]]}, "properties": {"cycleway:right": "lane", "highway": "primary", "junction": "roundabout", "lanes": "2", "name": "Avenida da Rep\u00fablica", "ref": "EN 378", "surface": "asphalt"}}, {"type": "Feature", "geometry": {"type": "LineString", "coordinates": [[-9.1042582, 38.4787128], [-9.1042612, 38.47877], [-9.1042573, 38.4788033], [-9.1042564, 38.4788381], [-9.1042482, 38.4788783], [-9.1041915, 38.4790863], [-9.1041367, 38.479305], [-9.1040708, 38.479568], [-9.1040639, 38.4795976], [-9.1039014, 38.4802937], [-9.1038848, 38.4803664], [-9.1038225, 38.4806524], [-9.1038011, 38.4807763], [-9.1037918, 38.4808971], [-9.1037838, 38.4810756], [-9.1037862, 38.4811574], [-9.1037945, 38.4814304], [-9.1038279, 38.4817064], [-9.1038615, 38.4818924], [-9.1039233, 38.4821409], [-9.103931, 38.482178], [-9.1039302, 38.4822158], [-9.1039252, 38.4822623], [-9.1038957, 38.4823271]]}, "properties": {"destination": "Seixal;Lisboa;Almada", "highway": "primary", "lanes": "2", "oneway": "yes", "ref": "EN 378", "surface": "asphalt"}}, {"type": "Feature", "geometry": {"type": "LineString", "coordinates": [[-9.1041393, 38.4822946], [-9.1040732, 38.4822161], [-9.1040358, 38.4821249], [-9.1039754, 38.4819122], [-9.1039218, 38.4816224], [-9.1039057, 38.4814755], [-9.1039003, 38.4813348], [-9.1038949, 38.4809464], [-9.103903, 38.4808288], [-9.1039137, 38.4807238], [-9.1039405, 38.4805936], [-9.1040773, 38.4800372], [-9.1041658, 38.4796634], [-9.1041756, 38.4796205]]}, "properties": {"destination": "Sesimbra;Santana;Set\u00fabal;Vila Nova de Azeit\u00e3o;Cabo Espichel", "highway": "primary", "lanes": "2", "oneway": "yes", "ref": "EN 378", "surface": "asphalt"}}, {"type": "Feature", "geometry": {"type": "LineString", "coordinates": [[-9.1005545, 38.5513056], [-9.1006199, 38.5513518], [-9.1006633, 38.5513883], [-9.1007004, 38.5514315], [-9.1007299, 38.5514777], [-9.1007491, 38.5515331], [-9.1007594, 38.551591], [-9.100769, 38.5516574], [-9.1007925, 38.5518844], [-9.1007991, 38.5520302], [-9.1008003, 38.5521627], [-9.1007979, 38.5523035], [-9.1007946, 38.5525849], [-9.1008195, 38.5529373]]}, "properties": {"destination": "Seixal;Lisboa;Monte da Caparica", "highway": "primary", "name": "Avenida 23 de Julho de 1833", "oneway": "yes", "ref": "EN 378", "surface": "asphalt"}}, {"type": "Feature", "geometry": {"type": "LineString", "coordinates": [[-9.1101088, 38.4429748], [-9.1101517, 38.4429279], [-9.110188, 38.442896], [-9.1102383, 38.4428613], [-9.1103073, 38.4428293], [-9.1111271, 38.4424847], [-9.1111874, 38.4424592], [-9.1122727, 38.4420089], [-9.1133352, 38.4415706], [-9.1134644, 38.4415173], [-9.1136161, 38.4414548], [-9.113639, 38.4414453], [-9.1144242, 38.4411234], [-9.1146231, 38.4410415], [-9.1146971, 38.441011], [-9.1148167, 38.4409586], [-9.1150417, 38.4408218], [-9.1154373, 38.4403579], [-9.1159006, 38.4394854], [-9.1160773, 38.4390926], [-9.116152, 38.438913], [-9.1162131, 38.4386728], [-9.116212, 38.4385825], [-9.1161376, 38.4383704], [-9.1160714, 38.4382727], [-9.1159114, 38.4381265], [-9.1155484, 38.437934], [-9.1155193, 38.4379112], [-9.115486, 38.4378848], [-9.1154388, 38.4378422]]}, "properties": {"highway": "primary", "lanes": "2", "lit": "yes", "name": "Avenida dos N\u00e1ufragos", "postal_code": "2970-637", "ref": "EN 378", "sidewalk": "left", "surface": "asphalt"}}, {"type": "Feature", "geometry": {"type": "LineString", "coordinates": [[-9.1057843, 38.63728], [-9.1057984, 38.6372078], [-9.1057953, 38.6371453], [-9.1058071, 38.6369948], [-9.1057931, 38.6368745]]}, "properties": {"cycleway:right": "shared_lane", "highway": "primary", "lanes": "1", "name": "Avenida da Rep\u00fablica", "oneway": "yes", "ref": "EN 378", "source": "bing", "surface": "asphalt"}}, {"type": "Feature", "geometry": {"type": "LineString", "coordinates": [[-9.1053015, 38.5985189], [-9.1053325, 38.5984447]]}, "properties": {"highway": "primary", "name": "Avenida 23 de Julho de 1833", "ref": "EN 378", "surface": "asphalt"}}, {"type": "Feature", "geometry": {"type": "LineString", "coordinates": [[-9.1047889, 38.5995539], [-9.1049188, 38.599399], [-9.1049657, 38.5993519], [-9.1050147, 38.5993215], [-9.105126, 38.5992831]]}, "properties": {"highway": "primary", "name": "Avenida 23 de Julho de 1833", "oneway": "yes", "ref": "EN 378", "surface": "asphalt"}}, {"type": "Feature", "geometry": {"type": "LineString", "coordinates": [[-9.1053015, 38.5985189], [-9.1051662, 38.5986999], [-9.1050877, 38.5987759], [-9.1050254, 38.59881], [-9.1049575, 38.5988381]]}, "properties": {"highway": "primary", "name": "Avenida 23 de Julho de 1833", "oneway": "yes", "ref": "EN 378", "surface": "asphalt"}}, {"type": "Feature", "geometry": {"type": "LineString", "coordinates": [[-9.1058747, 38.6358213], [-9.105886, 38.635694], [-9.1059197, 38.6353547], [-9.1059252, 38.6352952], [-9.1059557, 38.6349803], [-9.1059736, 38.6347886], [-9.1059757, 38.6347662], [-9.1059822, 38.6346069], [-9.1059871, 38.634556], [-9.1060165, 38.6342505], [-9.1060244, 38.6341698], [-9.1060375, 38.6340352], [-9.1060438, 38.633958], [-9.1060466, 38.6339235], [-9.106048, 38.6338511], [-9.1060447, 38.6337771], [-9.1060391, 38.6337124], [-9.1060253, 38.6336279], [-9.1060152, 38.6335768], [-9.1060053, 38.6335304], [-9.1059835, 38.633454], [-9.105948, 38.6333521], [-9.1058892, 38.6332178], [-9.105811, 38.6330431], [-9.1057466, 38.6328995], [-9.1056068, 38.6326023], [-9.1055702, 38.6325174], [-9.1055456, 38.6324481], [-9.1055256, 38.6323848], [-9.1055049, 38.6323173], [-9.105486, 38.6322448], [-9.1054644, 38.6321432], [-9.1054433, 38.6320069], [-9.1054363, 38.631954], [-9.1054309, 38.631914], [-9.1054228, 38.6318539]]}, "properties": {"cycleway": "lane", "highway": "primary", "lanes": "2", "name": "Avenida da Rep\u00fablica", "ref": "EN 378", "surface": "asphalt"}}, {"type": "Feature", "geometry": {"type": "LineString", "coordinates": [[-9.1057931, 38.6368745], [-9.1057585, 38.6369559], [-9.1057295, 38.6370011], [-9.1057046, 38.6370225], [-9.1056807, 38.6370407], [-9.1056384, 38.6370673], [-9.1055678, 38.6371118]]}, "properties": {"cycleway:right": "shared_lane", "highway": "primary", "lanes": "1", "name": "Avenida da Rep\u00fablica", "oneway": "yes", "ref": "EN 378", "source": "bing", "surface": "asphalt"}}, {"type": "Feature", "geometry": {"type": "LineString", "coordinates": [[-9.1005038, 38.4632101], [-9.1005414, 38.4631839], [-9.1005982, 38.4631215], [-9.10066, 38.4630455], [-9.1007109, 38.4629913], [-9.1008363, 38.4629114]]}, "properties": {"destination": "Cabo Espichel;Sesimbra", "highway": "primary", "oneway": "yes", "ref": "EN 378", "surface": "asphalt"}}, {"type": "Feature", "geometry": {"type": "LineString", "coordinates": [[-9.1002603, 38.463139], [-9.0995658, 38.4633972]]}, "properties": {"destination": "Palmela;Vila Nova de Azeit\u00e3o;Set\u00fabal;Arr\u00e1bida;Lisboa", "highway": "primary", "lanes": "1", "oneway": "yes", "ref": "EN 378", "surface": "asphalt"}}, {"type": "Feature", "geometry": {"type": "LineString", "coordinates": [[-9.1069928, 38.5923843], [-9.1070356, 38.5924924], [-9.1070785, 38.5926139], [-9.1071214, 38.592746], [-9.1072476, 38.5931432], [-9.1072689, 38.5932198], [-9.107277, 38.5932617], [-9.1072797, 38.5932974], [-9.107277, 38.593333], [-9.107253, 38.5934596]]}, "properties": {"highway": "primary", "lane_markings": "no", "maxspeed": "50", "name": "Avenida 23 de Julho de 1833", "oneway": "yes", "ref": "EN 378", "surface": "asphalt"}}, {"type": "Feature", "geometry": {"type": "LineString", "coordinates": [[-9.1068343, 38.5947657], [-9.1068909, 38.594684], [-9.1071672, 38.5942019], [-9.1073576, 38.5938727], [-9.1073871, 38.5938287], [-9.1074246, 38.5937847], [-9.1074542, 38.5937574], [-9.1075843, 38.5936644]]}, "properties": {"highway": "primary", "name": "Avenida 23 de Julho de 1833", "oneway": "yes", "ref": "EN 378", "surface": "asphalt"}}, {"type": "Feature", "geometry": {"type": "LineString", "coordinates": [[-9.1075972, 38.5933548], [-9.1075289, 38.5933046], [-9.1074905, 38.5932697], [-9.1074578, 38.5932305], [-9.1074218, 38.5931758], [-9.107395, 38.5931234], [-9.1072582, 38.592811], [-9.1071645, 38.592575], [-9.10684, 38.5920174]]}, "properties": {"destination": "Sesimbra;Santana", "destination:ref": "EN 378", "highway": "primary", "lane_markings": "no", "maxspeed": "50", "name": "Avenida 23 de Julho de 1833", "oneway": "yes", "ref": "EN 378", "surface": "asphalt"}}, {"type": "Feature", "geometry": {"type": "LineString", "coordinates": [[-9.1072457, 38.5935209], [-9.1072609, 38.5936445], [-9.1072637, 38.5936826], [-9.1072637, 38.5937176], [-9.1072584, 38.5937637], [-9.1072476, 38.5938077], [-9.1072315, 38.5938497], [-9.1071511, 38.5940174], [-9.1069875, 38.5943458], [-9.1068343, 38.5947657]]}, "properties": {"highway": "primary", "name": "Avenida 23 de Julho de 1833", "oneway": "yes", "ref": "EN 378"}}, {"type": "Feature", "geometry": {"type": "LineString", "coordinates": [[-9.10684, 38.5920174], [-9.1065474, 38.5915551]]}, "properties": {"highway": "primary", "lanes": "2", "maxspeed:backward": "70", "maxspeed:forward": "50", "name": "Avenida 23 de Julho de 1833", "ref": "EN 378", "surface": "asphalt"}}, {"type": "Feature", "geometry": {"type": "LineString", "coordinates": [[-9.104446, 38.4783884], [-9.1043161, 38.478528]]}, "properties": {"highway": "primary", "lanes": "1", "name": "Avenida Jo\u00e3o Paulo II", "oneway": "yes", "ref": "EN 378", "source": "bing", "surface": "asphalt"}}, {"type": "Feature", "geometry": {"type": "LineString", "coordinates": [[-9.1044785, 38.4785563], [-9.104446, 38.4783884]]}, "properties": {"destination": "Sesimbra;Santana;Set\u00fabal;Vila Nova de Azeit\u00e3o;Cabo Espichel", "highway": "primary", "lanes": "1", "name": "Avenida Jo\u00e3o Paulo II", "oneway": "yes", "ref": "EN 378", "source": "bing", "surface": "asphalt"}}, {"type": "Feature", "geometry": {"type": "LineString", "coordinates": [[-9.1039516, 38.4824969], [-9.1039995, 38.4825359], [-9.1040391, 38.4825718], [-9.1040659, 38.4826033], [-9.1040881, 38.4826367], [-9.1041068, 38.482685], [-9.1042747, 38.483249], [-9.10431, 38.4833675], [-9.1043831, 38.4836298], [-9.1044019, 38.4837033], [-9.1044173, 38.4837791], [-9.1044427, 38.4839045], [-9.1044555, 38.4839678], [-9.1044743, 38.4840665], [-9.1044897, 38.4841339], [-9.1045037, 38.4841847], [-9.1045279, 38.4842723], [-9.1045977, 38.4845011], [-9.1046408, 38.4846421]]}, "properties": {"destination": "Seixal;Lisboa;Almada", "highway": "primary", "oneway": "yes", "ref": "EN 378", "source": "bing"}}, {"type": "Feature", "geometry": {"type": "LineString", "coordinates": [[-9.1046761, 38.4844048], [-9.1045709, 38.4840493], [-9.1043288, 38.4832192], [-9.1043258, 38.483209], [-9.1043105, 38.4831585], [-9.1042223, 38.4828685], [-9.1042176, 38.4828522], [-9.1041614, 38.48266], [-9.1041526, 38.4826216], [-9.1041444, 38.4825863], [-9.1041444, 38.4825443], [-9.1041547, 38.4824734]]}, "properties": {"highway": "primary", "oneway": "yes", "ref": "EN 378", "source": "bing", "surface": "asphalt"}}, {"type": "Feature", "geometry": {"type": "LineString", "coordinates": [[-9.1022974, 38.4622927], [-9.1021172, 38.4623871], [-9.1021093, 38.4623913], [-9.1019682, 38.4624639], [-9.101795, 38.4625385], [-9.1015845, 38.4626223], [-9.1014655, 38.4626682]]}, "properties": {"highway": "primary", "name": "Rua Doutor Alberto Leite", "oneway": "no", "ref": "EN 378", "surface": "asphalt"}}, {"type": "Feature", "geometry": {"type": "LineString", "coordinates": [[-9.1002055, 38.4456372], [-9.1001925, 38.4457934], [-9.1001739, 38.4460169], [-9.100161, 38.4461658]]}, "properties": {"highway": "primary", "name": "Avenida da Liberdade", "oneway": "yes", "postal_code": "2970-635", "ref": "EN 378", "surface": "asphalt"}}, {"type": "Feature", "geometry": {"type": "LineString", "coordinates": [[-9.1003273, 38.4442564], [-9.1003176, 38.4444166], [-9.100311, 38.4444887], [-9.1003001, 38.4446071], [-9.1002556, 38.4450919], [-9.1002449, 38.4452086], [-9.1002171, 38.4455108], [-9.1002055, 38.4456372]]}, "properties": {"highway": "primary", "lanes": "1", "name": "Avenida da Liberdade", "oneway": "yes", "postal_code": "2970-635", "ref": "EN 378", "surface": "asphalt"}}, {"type": "Feature", "geometry": {"type": "LineString", "coordinates": [[-9.1154146, 38.4369875], [-9.1154467, 38.4368321]]}, "properties": {"highway": "primary", "ref": "EN 378"}}, {"type": "Feature", "geometry": {"type": "LineString", "coordinates": [[-9.1056761, 38.616902], [-9.1056811, 38.6171495], [-9.1056896, 38.6175689], [-9.1056958, 38.6178774], [-9.1056975, 38.6180837]]}, "properties": {"highway": "primary", "lanes": "2", "name": "Avenida dos Resistentes Antifascistas", "ref": "EN 378"}}, {"type": "Feature", "geometry": {"type": "LineString", "coordinates": [[-9.1072057, 38.6116607], [-9.1070343, 38.6113324], [-9.10698, 38.6112005], [-9.1069071, 38.6110233], [-9.1068643, 38.6108668], [-9.1068117, 38.6105385], [-9.106765, 38.6100323]]}, "properties": {"destination": "Set\u00fabal;Sesimbra", "destination:ref:to": "A 2;EN 10", "highway": "primary", "lanes": "2", "name": "Avenida 23 de Julho de 1833", "oneway": "yes", "ref": "EN 378", "surface": "asphalt"}}, {"type": "Feature", "geometry": {"type": "LineString", "coordinates": [[-9.1001325, 38.4673601], [-9.1000962, 38.4672597], [-9.1000878, 38.4672391], [-9.100083, 38.4672275], [-9.1000516, 38.4671511], [-9.1000086, 38.4670543], [-9.0999525, 38.4669289], [-9.0998911, 38.4668057], [-9.0998416, 38.4667065], [-9.0996912, 38.4663895], [-9.0995679, 38.4661296], [-9.0995384, 38.4660691]]}, "properties": {"highway": "primary", "name": "Avenida Jo\u00e3o Paulo II", "ref": "EN 378"}}, {"type": "Feature", "geometry": {"type": "LineString", "coordinates": [[-9.0994535, 38.5672263], [-9.0994358, 38.5670816], [-9.0994615, 38.5665984], [-9.099527, 38.5662125], [-9.0995834, 38.5660288], [-9.0998274, 38.565424], [-9.1000849, 38.5647109], [-9.100204, 38.5643754], [-9.1002555, 38.5639065], [-9.1002774, 38.5634262], [-9.1002829, 38.5633481], [-9.100306, 38.5630184], [-9.1003257, 38.5625616], [-9.1003642, 38.561815], [-9.1003846, 38.5615376], [-9.1003862, 38.5613569], [-9.1004071, 38.5609196], [-9.1004423, 38.560301], [-9.1004441, 38.5602697], [-9.1004459, 38.5601805], [-9.1004793, 38.5596788], [-9.100488, 38.559479], [-9.1005498, 38.558137], [-9.1005772, 38.5577922], [-9.1006042, 38.5571217], [-9.1006162, 38.5568875], [-9.1006269, 38.5567172], [-9.1006429, 38.5564628], [-9.1006779, 38.5557967], [-9.1007255, 38.5548445], [-9.1007303, 38.5547491], [-9.1007329, 38.5546967], [-9.1007503, 38.5543497], [-9.1007706, 38.5539463], [-9.1007724, 38.5539105], [-9.1008163, 38.5530029], [-9.1008195, 38.5529373]]}, "properties": {"highway": "primary", "lanes": "2", "maxspeed": "70", "maxspeed:type": "sign", "name": "Avenida 23 de Julho de 1833", "ref": "EN 378", "sidewalk": "no", "surface": "asphalt"}}, {"type": "Feature", "geometry": {"type": "LineString", "coordinates": [[-9.1040219, 38.5873018], [-9.1052009, 38.5894406]]}, "properties": {"highway": "primary", "lanes": "2", "name": "Avenida 23 de Julho de 1833", "ref": "EN 378", "surface": "asphalt"}}, {"type": "Feature", "geometry": {"type": "LineString", "coordinates": [[-9.1049575, 38.5988381], [-9.1048881, 38.598872], [-9.1048331, 38.5989193], [-9.1047964, 38.5989765], [-9.104781, 38.5990393], [-9.1047878, 38.599103]]}, "properties": {"highway": "primary", "junction": "roundabout", "lanes": "2", "ref": "EN 378", "surface": "asphalt"}}, {"type": "Feature", "geometry": {"type": "LineString", "coordinates": [[-9.1053147, 38.598906], [-9.1052795, 38.5987901], [-9.1052728, 38.5986806], [-9.1053015, 38.5985189]]}, "properties": {"destination": "Sesimbra;Santana", "destination:ref": "EN 378", "highway": "primary", "name": "Avenida 23 de Julho de 1833", "oneway": "yes", "ref": "EN 378"}}, {"type": "Feature", "geometry": {"type": "LineString", "coordinates": [[-9.0995658, 38.4633972], [-9.0997615, 38.463338], [-9.0999053, 38.4633139], [-9.1000075, 38.4633073], [-9.1000814, 38.4633139], [-9.1001619, 38.4633226], [-9.1002188, 38.4633149]]}, "properties": {"highway": "primary", "oneway": "yes", "ref": "EN 378", "surface": "asphalt"}}, {"type": "Feature", "geometry": {"type": "LineString", "coordinates": [[-9.1008363, 38.4629114], [-9.100673, 38.4629751], [-9.100296, 38.4631248]]}, "properties": {"highway": "primary", "oneway": "yes", "ref": "EN 378", "surface": "asphalt"}}, {"type": "Feature", "geometry": {"type": "LineString", "coordinates": [[-9.0969996, 38.4651826], [-9.0969878, 38.4652119], [-9.0969891, 38.4652606], [-9.0970053, 38.4652988], [-9.097044, 38.4653406], [-9.097102, 38.4653708], [-9.0971311, 38.4653799]]}, "properties": {"highway": "primary", "junction": "roundabout", "name": "Rotunda do Espadarte", "ref": "EN 379;EN 378", "surface": "asphalt"}}, {"type": "Feature", "geometry": {"type": "LineString", "coordinates": [[-9.0978947, 38.4644133], [-9.0979153, 38.4642801], [-9.0979274, 38.4642079], [-9.0979433, 38.46415], [-9.0979505, 38.4641239], [-9.097988, 38.4640401], [-9.0980571, 38.4639722], [-9.0981709, 38.4638975]]}, "properties": {"highway": "primary", "lanes": "2", "name": "Avenida S\u00e9rgio Pereira de Melo", "ref": "EN 378", "surface": "asphalt"}}, {"type": "Feature", "geometry": {"type": "LineString", "coordinates": [[-9.0975675, 38.4655512], [-9.0975358, 38.4655097], [-9.0974818, 38.4654628], [-9.0974252, 38.4654075], [-9.097404, 38.4653693], [-9.0973756, 38.4653303], [-9.0973535, 38.4652908]]}, "properties": {"highway": "primary", "oneway": "yes", "ref": "EN 378"}}, {"type": "Feature", "geometry": {"type": "LineString", "coordinates": [[-9.0975063, 38.4649881], [-9.097353, 38.4650437], [-9.0972911, 38.4650652], [-9.0972158, 38.4650854]]}, "properties": {"highway": "primary", "oneway": "yes", "ref": "EN 378", "surface": "asphalt"}}, {"type": "Feature", "geometry": {"type": "LineString", "coordinates": [[-9.097172, 38.4653828], [-9.0972457, 38.4654029], [-9.0973125, 38.4654264], [-9.0973664, 38.4654449], [-9.0974174, 38.4654722], [-9.0974654, 38.465502], [-9.0975137, 38.4655356], [-9.0975675, 38.4655512]]}, "properties": {"destination": "Seixal;Cotovia;Lisboa", "highway": "primary", "oneway": "yes", "ref": "EN 378", "surface": "asphalt"}}, {"type": "Feature", "geometry": {"type": "LineString", "coordinates": [[-9.1054022, 38.4900171], [-9.1053701, 38.4899512], [-9.1053487, 38.4898987], [-9.1053379, 38.4898526], [-9.1053326, 38.4897959], [-9.1053353, 38.4897308], [-9.105346, 38.4896384], [-9.1053701, 38.4894516], [-9.1053889, 38.4893151], [-9.105405, 38.4891891], [-9.1054533, 38.4888513], [-9.1054723, 38.4887207], [-9.1054718, 38.4886143]]}, "properties": {"destination": "Sesimbra;Santana;Vila Nova de Azeit\u00e3o;Set\u00fabal;Cabo Espichel", "destination:ref": "EN 378", "highway": "primary", "oneway": "yes", "ref": "EN 378"}}, {"type": "Feature", "geometry": {"type": "LineString", "coordinates": [[-9.105531, 38.4878933], [-9.1055308, 38.4878275], [-9.1055264, 38.4877262], [-9.1055222, 38.487625], [-9.1055194, 38.4875947], [-9.1055097, 38.487492], [-9.1054969, 38.4873987]]}, "properties": {"highway": "primary", "ref": "EN 378"}}, {"type": "Feature", "geometry": {"type": "LineString", "coordinates": [[-9.1048011, 38.6261509], [-9.1049076, 38.6258328], [-9.104917, 38.6258054], [-9.1050522, 38.6254092], [-9.1051859, 38.6250141], [-9.1052644, 38.6247811], [-9.1053313, 38.6245825], [-9.1054391, 38.6242637], [-9.1054736, 38.6241557], [-9.105504, 38.6240447], [-9.1055273, 38.6238681], [-9.1055329, 38.6236988], [-9.1055209, 38.6232856], [-9.1055134, 38.6230249]]}, "properties": {"cycleway": "lane", "highway": "primary", "lanes": "2", "name": "Avenida da Rep\u00fablica", "ref": "EN 378", "surface": "asphalt"}}, {"type": "Feature", "geometry": {"type": "LineString", "coordinates": [[-9.1054698, 38.6310527], [-9.1054082, 38.6309457], [-9.1053951, 38.6308928], [-9.1053916, 38.6308789], [-9.1053889, 38.6307029], [-9.1053503, 38.6302831]]}, "properties": {"cycleway:right": "lane", "highway": "primary", "name": "Avenida da Rep\u00fablica", "oneway": "yes", "ref": "EN 378"}}, {"type": "Feature", "geometry": {"type": "LineString", "coordinates": [[-9.1052675, 38.6313735], [-9.1053218, 38.6314677], [-9.1053475, 38.6315278], [-9.1053573, 38.6315551], [-9.1054228, 38.6318539]]}, "properties": {"cycleway:right": "lane", "highway": "primary", "lanes": "1", "name": "Avenida da Rep\u00fablica", "oneway": "yes", "ref": "EN 378", "surface": "asphalt"}}, {"type": "Feature", "geometry": {"type": "LineString", "coordinates": [[-9.1054228, 38.6318539], [-9.1054184, 38.6315641], [-9.1054292, 38.6315238], [-9.1054398, 38.6314845], [-9.1054672, 38.6314066], [-9.1054995, 38.6313483]]}, "properties": {"cycleway:right": "lane", "highway": "primary", "lanes": "1", "name": "Avenida da Rep\u00fablica", "oneway": "yes", "ref": "EN 378", "surface": "asphalt"}}, {"type": "Feature", "geometry": {"type": "LineString", "coordinates": [[-9.1053503, 38.6302831], [-9.1053231, 38.6307024], [-9.1053143, 38.630866], [-9.1053093, 38.6308945], [-9.1052982, 38.6309582], [-9.1052354, 38.6310561]]}, "properties": {"cycleway:right": "lane", "highway": "primary", "name": "Avenida da Rep\u00fablica", "oneway": "yes", "ref": "EN 378"}}, {"type": "Feature", "geometry": {"type": "LineString", "coordinates": [[-9.1065324, 38.607909], [-9.1064831, 38.6075006]]}, "properties": {"change:lanes": "no|not_left|yes", "highway": "primary", "lanes": "3", "name": "Avenida 23 de Julho de 1833", "oneway": "yes", "placement": "right_of:1", "ref": "EN 378", "surface": "asphalt", "turn:lanes": "through|through;right|right"}}, {"type": "Feature", "geometry": {"type": "LineString", "coordinates": [[-9.1054894, 38.6374303], [-9.1055676, 38.6374433], [-9.1056464, 38.6374329], [-9.1057146, 38.6374004], [-9.1057627, 38.6373505]]}, "properties": {"cycleway:right": "shared_lane", "highway": "primary", "junction": "roundabout", "lanes": "1", "ref": "EN 378", "surface": "asphalt"}}, {"type": "Feature", "geometry": {"type": "LineString", "coordinates": [[-9.106746, 38.6098964], [-9.1065908, 38.6085684], [-9.1065482, 38.60821], [-9.1065324, 38.607909]]}, "properties": {"highway": "primary", "lanes": "2", "name": "Avenida 23 de Julho de 1833", "oneway": "yes", "ref": "EN 378"}}, {"type": "Feature", "geometry": {"type": "LineString", "coordinates": [[-9.106765, 38.6100323], [-9.106746, 38.6098964]]}, "properties": {"highway": "primary", "lanes": "3", "name": "Avenida 23 de Julho de 1833", "oneway": "yes", "ref": "EN 378", "surface": "asphalt", "turn:lanes": "none|none|merge_to_left"}}, {"type": "Feature", "geometry": {"type": "LineString", "coordinates": [[-9.1066596, 38.6097292], [-9.106675, 38.6099516], [-9.1067053, 38.610391]]}, "properties": {"highway": "primary", "lanes": "2", "name": "Avenida 23 de Julho de 1833", "oneway": "yes", "ref": "EN 378", "surface": "asphalt", "turn:lanes": "through|through;right"}}, {"type": "Feature", "geometry": {"type": "LineString", "coordinates": [[-9.1067053, 38.610391], [-9.1067201, 38.6106263], [-9.1067409, 38.610806], [-9.1067645, 38.6109165], [-9.1068104, 38.6110808], [-9.1068815, 38.611281], [-9.1069728, 38.6114826]]}, "properties": {"destination": "Cacilhas;Almada;Corroios", "highway": "primary", "lanes": "2", "name": "Avenida 23 de Julho de 1833", "oneway": "yes", "ref": "EN 378", "surface": "asphalt"}}, {"type": "Feature", "geometry": {"type": "LineString", "coordinates": [[-9.1063001, 38.6068387], [-9.1063171, 38.6072056], [-9.1063254, 38.6072904], [-9.1063464, 38.6075042], [-9.1064141, 38.6081727], [-9.1064735, 38.6085507]]}, "properties": {"highway": "primary", "lanes": "2", "name": "Avenida 23 de Julho de 1833", "oneway": "yes", "ref": "EN 378", "surface": "asphalt"}}, {"type": "Feature", "geometry": {"type": "LineString", "coordinates": [[-9.1063223, 38.6062634], [-9.106297, 38.6061159], [-9.1062734, 38.6060143], [-9.1062412, 38.605899], [-9.1061962, 38.6057876], [-9.1061419, 38.6056663], [-9.1060543, 38.6055222]]}, "properties": {"highway": "primary", "lanes": "1", "name": "Avenida 23 de Julho de 1833", "oneway": "yes", "ref": "EN 378", "surface": "asphalt"}}, {"type": "Feature", "geometry": {"type": "LineString", "coordinates": [[-9.1060543, 38.6055222], [-9.1061067, 38.6056744], [-9.1061639, 38.6057964], [-9.1061921, 38.6058836], [-9.1062097, 38.6059658], [-9.1062146, 38.6059999], [-9.1062358, 38.6061484], [-9.1062653, 38.6063664], [-9.1063001, 38.6068387]]}, "properties": {"highway": "primary", "lanes": "1", "name": "Avenida 23 de Julho de 1833", "oneway": "yes", "ref": "EN 378", "surface": "asphalt"}}, {"type": "Feature", "geometry": {"type": "LineString", "coordinates": [[-9.1064831, 38.6075006], [-9.1064602, 38.6072817]]}, "properties": {"change:lanes": "no|not_left|yes", "highway": "primary", "lanes": "3", "name": "Avenida 23 de Julho de 1833", "oneway": "yes", "placement": "right_of:1", "ref": "EN 378", "surface": "asphalt", "turn:lanes": "through|through|right"}}, {"type": "Feature", "geometry": {"type": "LineString", "coordinates": [[-9.1002674, 38.5510511], [-9.1002864, 38.5511099], [-9.1003194, 38.5511646], [-9.1003654, 38.5512134], [-9.1004224, 38.5512544], [-9.1004885, 38.551286]]}, "properties": {"highway": "primary", "junction": "roundabout", "ref": "EN 378"}}, {"type": "Feature", "geometry": {"type": "LineString", "coordinates": [[-9.1002188, 38.4633149], [-9.1002469, 38.463339], [-9.1002849, 38.4633578], [-9.1003282, 38.4633674], [-9.1003732, 38.4633673], [-9.1004163, 38.4633573], [-9.1004405, 38.4633466]]}, "properties": {"highway": "primary", "junction": "roundabout", "name": "Pra\u00e7a Duques de Palmela", "ref": "EN 378", "surface": "asphalt"}}, {"type": "Feature", "geometry": {"type": "LineString", "coordinates": [[-9.097604, 38.4649093], [-9.0977765, 38.4647701], [-9.097809, 38.464734], [-9.0978304, 38.4646962], [-9.0978463, 38.4646546], [-9.09786, 38.4646017], [-9.0978787, 38.4645219], [-9.0978847, 38.4644809], [-9.0978947, 38.4644133]]}, "properties": {"highway": "primary", "lanes": "2", "name": "Avenida S\u00e9rgio Pereira de Melo", "ref": "EN 378", "surface": "asphalt"}}, {"type": "Feature", "geometry": {"type": "LineString", "coordinates": [[-9.1053228, 38.5899101], [-9.1053481, 38.5899392], [-9.1053827, 38.5899617], [-9.1054238, 38.589976], [-9.1054684, 38.589981]]}, "properties": {"highway": "primary", "junction": "roundabout", "lanes": "2", "ref": "EN 378", "surface": "asphalt"}}, {"type": "Feature", "geometry": {"type": "LineString", "coordinates": [[-9.1059548, 38.5906252], [-9.1059481, 38.5906148], [-9.1057042, 38.5902376], [-9.1056476, 38.59015]]}, "properties": {"highway": "primary", "lanes": "2", "lit": "yes", "maxspeed": "50", "name": "Avenida 23 de Julho de 1833", "ref": "EN 378", "surface": "asphalt"}}, {"type": "Feature", "geometry": {"type": "LineString", "coordinates": [[-9.1054684, 38.589981], [-9.1056476, 38.59015]]}, "properties": {"highway": "primary", "maxspeed:forward": "50", "name": "Avenida 23 de Julho de 1833", "oneway": "yes", "ref": "EN 378", "surface": "asphalt"}}, {"type": "Feature", "geometry": {"type": "LineString", "coordinates": [[-9.1056476, 38.59015], [-9.1056144, 38.5899107]]}, "properties": {"highway": "primary", "lane_markings": "no", "maxspeed:forward": "50", "name": "Avenida 23 de Julho de 1833", "oneway": "yes", "ref": "EN 378", "surface": "asphalt"}}, {"type": "Feature", "geometry": {"type": "LineString", "coordinates": [[-9.1052009, 38.5894406], [-9.1053391, 38.5897767]]}, "properties": {"highway": "primary", "name": "Avenida 23 de Julho de 1833", "oneway": "yes", "ref": "EN 378", "surface": "asphalt"}}, {"type": "Feature", "geometry": {"type": "LineString", "coordinates": [[-9.1054991, 38.5897286], [-9.1052009, 38.5894406]]}, "properties": {"destination": "Sesimbra;Santana", "destination:ref": "EN 378", "highway": "primary", "lane_markings": "no", "name": "Avenida 23 de Julho de 1833", "oneway": "yes", "ref": "EN 378", "surface": "asphalt"}}, {"type": "Feature", "geometry": {"type": "LineString", "coordinates": [[-9.107253, 38.5934596], [-9.1072459, 38.5934907], [-9.1072457, 38.5935209]]}, "properties": {"highway": "primary", "junction": "roundabout", "ref": "EN 378"}}, {"type": "Feature", "geometry": {"type": "LineString", "coordinates": [[-9.1075972, 38.5933548], [-9.1075637, 38.5933412], [-9.1075304, 38.5933325], [-9.1074911, 38.5933276], [-9.1074514, 38.5933281], [-9.1074174, 38.5933328], [-9.1073832, 38.593342], [-9.107349, 38.5933563], [-9.1073111, 38.5933805], [-9.1072852, 38.5934052], [-9.1072666, 38.5934307], [-9.107253, 38.5934596]]}, "properties": {"highway": "primary", "junction": "roundabout", "ref": "EN 378"}}, {"type": "Feature", "geometry": {"type": "LineString", "coordinates": [[-9.1075843, 38.5936644], [-9.10762, 38.5936458], [-9.1076504, 38.5936223], [-9.1076741, 38.5935958], [-9.1076917, 38.5935654], [-9.1077011, 38.593537], [-9.1077044, 38.593502], [-9.1076998, 38.5934706], [-9.1076882, 38.5934403], [-9.1076688, 38.5934107], [-9.1076494, 38.5933902], [-9.107627, 38.5933723], [-9.1075972, 38.5933548]]}, "properties": {"highway": "primary", "junction": "roundabout", "ref": "EN 378"}}, {"type": "Feature", "geometry": {"type": "LineString", "coordinates": [[-9.1072457, 38.5935209], [-9.107254, 38.5935563], [-9.107266, 38.5935815], [-9.1072861, 38.5936091], [-9.1073128, 38.593634], [-9.1073457, 38.5936552], [-9.1073826, 38.5936711], [-9.1074221, 38.5936814], [-9.1074602, 38.5936858], [-9.1075022, 38.5936849], [-9.1075461, 38.5936773], [-9.1075843, 38.5936644]]}, "properties": {"highway": "primary", "junction": "roundabout", "ref": "EN 378"}}, {"type": "Feature", "geometry": {"type": "LineString", "coordinates": [[-9.1065474, 38.5915551], [-9.1064251, 38.5913648], [-9.1064211, 38.5913591], [-9.1059548, 38.5906252]]}, "properties": {"highway": "primary", "maxspeed:backward": "50", "maxspeed:forward": "50", "name": "Avenida 23 de Julho de 1833", "ref": "EN 378", "surface": "asphalt"}}, {"type": "Feature", "geometry": {"type": "LineString", "coordinates": [[-9.1056761, 38.616902], [-9.1057599, 38.6166776]]}, "properties": {"highway": "primary", "lanes": "1", "name": "Rua Brejos da Piedade", "oneway": "yes", "ref": "EN 378"}}, {"type": "Feature", "geometry": {"type": "LineString", "coordinates": [[-9.1022974, 38.4622927], [-9.1028975, 38.4619788]]}, "properties": {"highway": "primary", "lanes": "3", "lanes:backward": "1", "lanes:forward": "2", "ref": "EN 378", "surface": "asphalt", "turn:lanes:forward": "through|right"}}, {"type": "Feature", "geometry": {"type": "LineString", "coordinates": [[-9.0981709, 38.4638975], [-9.098251, 38.4638667], [-9.0986309, 38.4637397], [-9.0986988, 38.4637164], [-9.0990538, 38.4635944], [-9.0993187, 38.463499], [-9.0994079, 38.4634618], [-9.0995658, 38.4633972]]}, "properties": {"highway": "primary", "lanes": "2", "name": "Avenida S\u00e9rgio Pereira de Melo", "ref": "EN 378", "surface": "asphalt"}}, {"type": "Feature", "geometry": {"type": "LineString", "coordinates": [[-9.1055421, 38.6184021], [-9.1054959, 38.6184065]]}, "properties": {"highway": "primary", "junction": "roundabout", "name": "Pra\u00e7a das Gemina\u00e7\u00f5es", "ref": "EN 378"}}, {"type": "Feature", "geometry": {"type": "LineString", "coordinates": [[-9.1055041, 38.6186584], [-9.1055475, 38.6186611], [-9.1055903, 38.6186549], [-9.1056295, 38.6186403], [-9.1056603, 38.6186201], [-9.105684, 38.6185947], [-9.1056991, 38.6185656], [-9.1057048, 38.6185345]]}, "properties": {"highway": "primary", "junction": "roundabout", "name": "Pra\u00e7a das Gemina\u00e7\u00f5es", "ref": "EN 378"}}, {"type": "Feature", "geometry": {"type": "LineString", "coordinates": [[-9.1095267, 38.6157262], [-9.1096568, 38.6157314], [-9.1097166, 38.6157346], [-9.1097931, 38.6157445]]}, "properties": {"highway": "primary", "lanes": "1", "name": "Avenida dos Resistentes Antifascistas", "oneway": "yes", "ref": "EN 378", "surface": "asphalt"}}, {"type": "Feature", "geometry": {"type": "LineString", "coordinates": [[-9.1097249, 38.6155765], [-9.1096395, 38.6156413], [-9.1095651, 38.6156895], [-9.1095267, 38.6157262]]}, "properties": {"highway": "primary", "lanes": "1", "name": "Avenida dos Resistentes Antifascistas", "oneway": "yes", "ref": "EN 378", "surface": "asphalt"}}, {"type": "Feature", "geometry": {"type": "LineString", "coordinates": [[-9.105417, 38.6184438], [-9.1053919, 38.6184716], [-9.105377, 38.6185035], [-9.1053732, 38.6185374], [-9.1053808, 38.6185709], [-9.1053993, 38.6186017], [-9.1054274, 38.6186276], [-9.1054632, 38.618647]]}, "properties": {"highway": "primary", "junction": "roundabout", "name": "Pra\u00e7a das Gemina\u00e7\u00f5es", "ref": "EN 378"}}, {"type": "Feature", "geometry": {"type": "LineString", "coordinates": [[-9.1057008, 38.6185032], [-9.1056873, 38.6184736], [-9.1056651, 38.6184475]]}, "properties": {"highway": "primary", "junction": "roundabout", "name": "Pra\u00e7a das Gemina\u00e7\u00f5es", "ref": "EN 378"}}, {"type": "Feature", "geometry": {"type": "LineString", "coordinates": [[-9.1066296, 38.5952645], [-9.106726, 38.5950259], [-9.1067639, 38.5949347]]}, "properties": {"highway": "primary", "name": "Avenida 23 de Julho de 1833", "ref": "EN 378"}}, {"type": "Feature", "geometry": {"type": "LineString", "coordinates": [[-9.1067639, 38.5949347], [-9.1068343, 38.5947657]]}, "properties": {"highway": "primary", "name": "Avenida 23 de Julho de 1833", "ref": "EN 378"}}, {"type": "Feature", "geometry": {"type": "LineString", "coordinates": [[-9.105577, 38.6183317], [-9.1055421, 38.6184021]]}, "properties": {"highway": "primary", "lanes": "1", "name": "Avenida dos Resistentes Antifascistas", "oneway": "yes", "ref": "EN 378"}}, {"type": "Feature", "geometry": {"type": "LineString", "coordinates": [[-9.1054959, 38.6184065], [-9.105453, 38.6184208], [-9.105417, 38.6184438]]}, "properties": {"highway": "primary", "junction": "roundabout", "name": "Pra\u00e7a das Gemina\u00e7\u00f5es", "ref": "EN 378"}}, {"type": "Feature", "geometry": {"type": "LineString", "coordinates": [[-9.1056651, 38.6184475], [-9.1056302, 38.6184234], [-9.105594, 38.6184103], [-9.1055421, 38.6184021]]}, "properties": {"highway": "primary", "junction": "roundabout", "name": "Pra\u00e7a das Gemina\u00e7\u00f5es", "ref": "EN 378"}}, {"type": "Feature", "geometry": {"type": "LineString", "coordinates": [[-9.1056632, 38.6181442], [-9.1056262, 38.618239], [-9.1055947, 38.6182983], [-9.105577, 38.6183317]]}, "properties": {"highway": "primary", "lanes": "1", "name": "Avenida dos Resistentes Antifascistas", "oneway": "yes", "ref": "EN 378"}}, {"type": "Feature", "geometry": {"type": "LineString", "coordinates": [[-9.09849, 38.6439162], [-9.0984189, 38.6438914]]}, "properties": {"highway": "primary", "junction": "roundabout", "lanes": "2", "ref": "EN 378", "surface": "asphalt"}}, {"type": "Feature", "geometry": {"type": "LineString", "coordinates": [[-9.1055678, 38.6371118], [-9.1055496, 38.6371127], [-9.1054935, 38.6371236], [-9.1054432, 38.6371458], [-9.1054025, 38.6371779], [-9.1053744, 38.6372173], [-9.1053609, 38.6372612]]}, "properties": {"cycleway:right": "shared_lane", "highway": "primary", "junction": "roundabout", "ref": "EN 378"}}, {"type": "Feature", "geometry": {"type": "LineString", "coordinates": [[-9.1051969, 38.6313363], [-9.1052271, 38.6313569], [-9.1052675, 38.6313735]]}, "properties": {"cycleway:right": "shared_lane", "highway": "primary", "junction": "roundabout", "lanes": "2", "name": "Avenida da Rep\u00fablica", "ref": "EN 378", "surface": "asphalt"}}, {"type": "Feature", "geometry": {"type": "LineString", "coordinates": [[-9.1051457, 38.6311398], [-9.1051321, 38.6311901], [-9.1051347, 38.6312498], [-9.1051567, 38.6312949], [-9.1051969, 38.6313363]]}, "properties": {"cycleway:right": "shared_lane", "highway": "primary", "junction": "roundabout", "lanes": "2", "name": "Avenida da Rep\u00fablica", "ref": "EN 378", "surface": "asphalt"}}, {"type": "Feature", "geometry": {"type": "LineString", "coordinates": [[-9.1052675, 38.6313735], [-9.105369, 38.6313872], [-9.1054183, 38.6313808], [-9.1054995, 38.6313483]]}, "properties": {"cycleway:right": "shared_lane", "highway": "primary", "junction": "roundabout", "lanes": "2", "name": "Avenida da Rep\u00fablica", "ref": "EN 378", "surface": "asphalt"}}, {"type": "Feature", "geometry": {"type": "LineString", "coordinates": [[-9.1058309, 38.6363234], [-9.1058747, 38.6358213]]}, "properties": {"highway": "primary", "lanes": "2", "name": "Avenida da Rep\u00fablica", "ref": "EN 378", "surface": "asphalt"}}, {"type": "Feature", "geometry": {"type": "LineString", "coordinates": [[-9.1057931, 38.6368745], [-9.1058212, 38.6365157], [-9.1058309, 38.6363234]]}, "properties": {"highway": "primary", "lanes": "2", "name": "Avenida da Rep\u00fablica", "ref": "EN 378", "surface": "asphalt"}}, {"type": "Feature", "geometry": {"type": "LineString", "coordinates": [[-9.1057627, 38.6373505], [-9.1057785, 38.6373162], [-9.1057843, 38.63728]]}, "properties": {"cycleway:right": "shared_lane", "highway": "primary", "junction": "roundabout", "lanes": "1", "ref": "EN 378", "surface": "asphalt"}}, {"type": "Feature", "geometry": {"type": "LineString", "coordinates": [[-9.1057843, 38.63728], [-9.1057744, 38.6372276], [-9.1057439, 38.6371802], [-9.1056957, 38.6371429], [-9.105635, 38.6371193], [-9.1055678, 38.6371118]]}, "properties": {"cycleway:right": "shared_lane", "highway": "primary", "junction": "roundabout", "lanes": "1", "ref": "EN 378", "surface": "asphalt"}}, {"type": "Feature", "geometry": {"type": "LineString", "coordinates": [[-9.1095267, 38.6157262], [-9.1094235, 38.6157534], [-9.1093735, 38.6157598], [-9.109325, 38.615766], [-9.1091211, 38.6157833], [-9.1087159, 38.6158149], [-9.1086744, 38.6158186], [-9.1084686, 38.615837], [-9.1083393, 38.6158485], [-9.1081381, 38.6158665], [-9.1075324, 38.6159205], [-9.1073619, 38.6159357], [-9.1071492, 38.6159547], [-9.1069849, 38.6159694]]}, "properties": {"highway": "primary", "lanes": "2", "name": "Avenida dos Resistentes Antifascistas", "oneway": "no", "ref": "EN 378"}}, {"type": "Feature", "geometry": {"type": "LineString", "coordinates": [[-9.1004405, 38.4633466], [-9.1004499, 38.4633397], [-9.1004763, 38.4633201], [-9.1005001, 38.4632863], [-9.1005096, 38.4632484], [-9.1005058, 38.4632232], [-9.1005038, 38.4632101]]}, "properties": {"highway": "primary", "junction": "roundabout", "name": "Pra\u00e7a Duques de Palmela", "ref": "EN 378", "surface": "asphalt"}}, {"type": "Feature", "geometry": {"type": "LineString", "coordinates": [[-9.104413, 38.4787481], [-9.1044552, 38.4787323], [-9.104489, 38.478707], [-9.1045111, 38.4786747], [-9.1045193, 38.4786406], [-9.1045142, 38.4786061], [-9.1044964, 38.4785743], [-9.1044785, 38.4785563]]}, "properties": {"highway": "primary", "junction": "roundabout", "lanes": "2", "ref": "EN 378", "surface": "asphalt"}}, {"type": "Feature", "geometry": {"type": "LineString", "coordinates": [[-9.1041547, 38.4824734], [-9.1041862, 38.4824305], [-9.1041943, 38.4823814], [-9.1041778, 38.4823337], [-9.1041393, 38.4822946]]}, "properties": {"highway": "primary", "junction": "roundabout", "ref": "EN 378"}}, {"type": "Feature", "geometry": {"type": "LineString", "coordinates": [[-9.1054509, 38.4903254], [-9.1055001, 38.4902487], [-9.1055081, 38.4901632], [-9.1054736, 38.4900819]]}, "properties": {"highway": "primary", "junction": "roundabout", "lanes": "2", "ref": "EN 378"}}, {"type": "Feature", "geometry": {"type": "LineString", "coordinates": [[-9.1009258, 38.5512408], [-9.1009682, 38.5512073], [-9.1010037, 38.5511692], [-9.1010415, 38.5511071], [-9.1010611, 38.5510399], [-9.1010625, 38.5509794], [-9.1010489, 38.5509199]]}, "properties": {"highway": "primary", "junction": "roundabout", "ref": "EN 378"}}, {"type": "Feature", "geometry": {"type": "LineString", "coordinates": [[-9.1056144, 38.5899107], [-9.1056288, 38.5898774], [-9.105631, 38.5898422], [-9.1056208, 38.589808], [-9.105599, 38.5897772], [-9.1055712, 38.5897547], [-9.1055372, 38.5897382], [-9.1054991, 38.5897286]]}, "properties": {"highway": "primary", "junction": "roundabout", "lanes": "2", "ref": "EN 378", "surface": "asphalt"}}, {"type": "Feature", "geometry": {"type": "LineString", "coordinates": [[-9.1052055, 38.5992643], [-9.1052696, 38.5992331], [-9.1053217, 38.5991902], [-9.1053583, 38.5991385], [-9.1053773, 38.5990814], [-9.1053773, 38.5990223]]}, "properties": {"highway": "primary", "junction": "roundabout", "lanes": "2", "ref": "EN 378"}}, {"type": "Feature", "geometry": {"type": "LineString", "coordinates": [[-9.1047878, 38.599103], [-9.1048135, 38.5992078], [-9.1048215, 38.5992811], [-9.1048168, 38.5993493], [-9.1048034, 38.5994106], [-9.1047889, 38.5995539]]}, "properties": {"destination": "Seixal;Set\u00fabal;Fogueteiro;A 2", "destination:ref:to": "A 2", "destination:symbol": "motorway", "highway": "primary", "name": "Avenida 23 de Julho de 1833", "oneway": "yes", "ref": "EN 378", "surface": "asphalt"}}, {"type": "Feature", "geometry": {"type": "LineString", "coordinates": [[-9.1047878, 38.599103], [-9.1048085, 38.5991505], [-9.1048417, 38.5991935], [-9.1048859, 38.5992299], [-9.104939, 38.5992582], [-9.1049985, 38.599277], [-9.1050618, 38.5992854], [-9.105126, 38.5992831]]}, "properties": {"highway": "primary", "junction": "roundabout", "lanes": "2", "ref": "EN 378"}}, {"type": "Feature", "geometry": {"type": "LineString", "coordinates": [[-9.1053147, 38.598906], [-9.1052683, 38.5988695], [-9.1052129, 38.5988418], [-9.105151, 38.5988242], [-9.1050857, 38.5988176], [-9.1050202, 38.5988223], [-9.1049575, 38.5988381]]}, "properties": {"highway": "primary", "junction": "roundabout", "lanes": "2", "ref": "EN 378", "surface": "asphalt"}}, {"type": "Feature", "geometry": {"type": "LineString", "coordinates": [[-9.1054684, 38.589981], [-9.105513, 38.5899762], [-9.1055542, 38.5899621], [-9.1055889, 38.5899397], [-9.1056144, 38.5899107]]}, "properties": {"highway": "primary", "junction": "roundabout", "lanes": "2", "ref": "EN 378", "surface": "asphalt"}}, {"type": "Feature", "geometry": {"type": "LineString", "coordinates": [[-9.1054991, 38.5897286], [-9.1054542, 38.5897269], [-9.1054104, 38.5897349], [-9.105371, 38.5897519], [-9.1053391, 38.5897767]]}, "properties": {"highway": "primary", "junction": "roundabout", "lanes": "2", "ref": "EN 378", "surface": "asphalt"}}, {"type": "Feature", "geometry": {"type": "LineString", "coordinates": [[-9.1005545, 38.5513056], [-9.1006192, 38.5513155], [-9.1006852, 38.5513169], [-9.1007506, 38.5513099], [-9.1008136, 38.5512945], [-9.1008725, 38.5512713], [-9.1009258, 38.5512408]]}, "properties": {"highway": "primary", "junction": "roundabout", "ref": "EN 378"}}, {"type": "Feature", "geometry": {"type": "LineString", "coordinates": [[-9.1007474, 38.5506981], [-9.1006655, 38.5506911], [-9.1005834, 38.5506974], [-9.1005047, 38.5507168], [-9.1004327, 38.5507483], [-9.1003705, 38.5507907]]}, "properties": {"highway": "primary", "junction": "roundabout", "ref": "EN 378"}}, {"type": "Feature", "geometry": {"type": "LineString", "coordinates": [[-9.1050567, 38.4903634], [-9.1051548, 38.4904021], [-9.1052642, 38.4904083], [-9.1053681, 38.4903814]]}, "properties": {"highway": "primary", "junction": "roundabout", "lanes": "2", "ref": "EN 378"}}, {"type": "Feature", "geometry": {"type": "LineString", "coordinates": [[-9.1054022, 38.4900171], [-9.1053043, 38.4899786], [-9.1051952, 38.4899723], [-9.1050912, 38.4899992]]}, "properties": {"highway": "primary", "junction": "roundabout", "lanes": "2", "ref": "EN 378"}}, {"type": "Feature", "geometry": {"type": "LineString", "coordinates": [[-9.1039516, 38.4824969], [-9.1039809, 38.4825101], [-9.1040437, 38.4825165], [-9.1041047, 38.4825036], [-9.1041547, 38.4824734]]}, "properties": {"highway": "primary", "junction": "roundabout", "ref": "EN 378"}}, {"type": "Feature", "geometry": {"type": "LineString", "coordinates": [[-9.1041393, 38.4822946], [-9.1040845, 38.4822699], [-9.1040219, 38.4822635], [-9.1039609, 38.4822764], [-9.1039108, 38.4823065], [-9.1038957, 38.4823271]]}, "properties": {"highway": "primary", "junction": "roundabout", "ref": "EN 378"}}, {"type": "Feature", "geometry": {"type": "LineString", "coordinates": [[-9.1042582, 38.4787128], [-9.1042903, 38.4787345], [-9.104329, 38.4787483], [-9.104371, 38.4787529], [-9.104413, 38.4787481]]}, "properties": {"highway": "primary", "junction": "roundabout", "lanes": "2", "ref": "EN 378", "surface": "asphalt"}}, {"type": "Feature", "geometry": {"type": "LineString", "coordinates": [[-9.1044785, 38.4785563], [-9.1044439, 38.4785351], [-9.1044028, 38.4785227], [-9.104359, 38.4785203], [-9.1043161, 38.478528]]}, "properties": {"highway": "primary", "junction": "roundabout", "lanes": "2", "ref": "EN 378", "surface": "asphalt"}}, {"type": "Feature", "geometry": {"type": "LineString", "coordinates": [[-9.097172, 38.4653828], [-9.0972446, 38.4653731], [-9.0973128, 38.4653385], [-9.0973535, 38.4652908]]}, "properties": {"highway": "primary", "junction": "roundabout", "name": "Rotunda do Espadarte", "ref": "EN 379;EN 378", "surface": "asphalt"}}, {"type": "Feature", "geometry": {"type": "LineString", "coordinates": [[-9.100296, 38.4631248], [-9.1002603, 38.463139]]}, "properties": {"highway": "primary", "junction": "roundabout", "name": "Pra\u00e7a Duques de Palmela", "ref": "EN 378", "surface": "asphalt"}}, {"type": "Feature", "geometry": {"type": "LineString", "coordinates": [[-9.1005038, 38.4632101], [-9.10048, 38.4631698], [-9.1004405, 38.4631395], [-9.1003902, 38.4631214], [-9.100335, 38.463118], [-9.100296, 38.4631248]]}, "properties": {"highway": "primary", "junction": "roundabout", "name": "Pra\u00e7a Duques de Palmela", "ref": "EN 378", "surface": "asphalt"}}, {"type": "Feature", "geometry": {"type": "LineString", "coordinates": [[-9.1059534, 38.5969159], [-9.10602, 38.5967518]]}, "properties": {"highway": "primary", "name": "Avenida 23 de Julho de 1833", "ref": "EN 378"}}, {"type": "Feature", "geometry": {"type": "LineString", "coordinates": [[-9.10602, 38.5967518], [-9.1061204, 38.5965047], [-9.1061572, 38.5964148], [-9.1063202, 38.5960168], [-9.1066296, 38.5952645]]}, "properties": {"highway": "primary", "name": "Avenida 23 de Julho de 1833", "ref": "EN 378", "surface": "asphalt"}}, {"type": "Feature", "geometry": {"type": "LineString", "coordinates": [[-9.1057351, 38.5974536], [-9.1058204, 38.5972435]]}, "properties": {"highway": "primary", "name": "Avenida 23 de Julho de 1833", "ref": "EN 378"}}, {"type": "Feature", "geometry": {"type": "LineString", "coordinates": [[-9.1058204, 38.5972435], [-9.1059534, 38.5969159]]}, "properties": {"highway": "primary", "name": "Avenida 23 de Julho de 1833", "ref": "EN 378"}}, {"type": "Feature", "geometry": {"type": "LineString", "coordinates": [[-9.1053325, 38.5984447], [-9.1054593, 38.5981166], [-9.1055394, 38.5979354], [-9.1057351, 38.5974536]]}, "properties": {"highway": "primary", "name": "Avenida 23 de Julho de 1833", "ref": "EN 378", "surface": "asphalt"}}, {"type": "Feature", "geometry": {"type": "LineString", "coordinates": [[-9.1069849, 38.6159694], [-9.1068758, 38.6159791]]}, "properties": {"bridge": "yes", "highway": "primary", "lanes": "2", "layer": "1", "name": "Avenida dos Resistentes Antifascistas", "oneway": "no", "ref": "EN 378"}}, {"type": "Feature", "geometry": {"type": "LineString", "coordinates": [[-9.1061603, 38.6205182], [-9.1061876, 38.6206879], [-9.1061795, 38.6207565]]}, "properties": {"highway": "primary", "name": "Avenida da Rep\u00fablica", "oneway": "yes", "ref": "EN 378"}}, {"type": "Feature", "geometry": {"type": "LineString", "coordinates": [[-9.1054698, 38.6310527], [-9.1054018, 38.6310327], [-9.1053288, 38.6310305], [-9.1052354, 38.6310561], [-9.1052066, 38.631078], [-9.105165, 38.6311096]]}, "properties": {"cycleway:right": "shared_lane", "highway": "primary", "junction": "roundabout", "lanes": "2", "name": "Avenida da Rep\u00fablica", "ref": "EN 378", "surface": "asphalt"}}, {"type": "Feature", "geometry": {"type": "LineString", "coordinates": [[-9.1053609, 38.6372612], [-9.1053649, 38.6373135], [-9.1053896, 38.6373622], [-9.1054325, 38.6374025], [-9.1054894, 38.6374303]]}, "properties": {"cycleway:right": "shared_lane", "highway": "primary", "junction": "roundabout", "lanes": "1", "ref": "EN 378", "surface": "asphalt"}}, {"type": "Feature", "geometry": {"type": "LineString", "coordinates": [[-9.1000039, 38.5489475], [-9.0998376, 38.5484503], [-9.0997164, 38.5480835], [-9.0995821, 38.5476618], [-9.099442, 38.5472332], [-9.0992399, 38.5466197], [-9.0990394, 38.54601], [-9.0988195, 38.5453265], [-9.098609, 38.5446836], [-9.0985548, 38.5445165], [-9.0982982, 38.5437253], [-9.0981749, 38.5433573], [-9.0981261, 38.5432031], [-9.0980894, 38.543076], [-9.098057, 38.5429581], [-9.0980271, 38.5428276], [-9.098003, 38.5427061], [-9.0979825, 38.5425784], [-9.0979658, 38.5424589], [-9.0979519, 38.5423334], [-9.0979421, 38.542206], [-9.0979361, 38.5420858], [-9.0979349, 38.5419514], [-9.0979374, 38.5418189], [-9.097943, 38.5416867], [-9.0979519, 38.541579], [-9.0979652, 38.5414644], [-9.0979814, 38.5413253], [-9.0980035, 38.5411882], [-9.0980313, 38.5410447], [-9.0980515, 38.5409495], [-9.0980778, 38.5408433], [-9.0981124, 38.5407246], [-9.0981561, 38.5405966], [-9.0981895, 38.5405026], [-9.0982325, 38.540395], [-9.0982868, 38.5402675], [-9.098344, 38.5401412], [-9.0984752, 38.5398464], [-9.0985924, 38.5395889], [-9.0986841, 38.5393907], [-9.0988282, 38.5390762], [-9.0991616, 38.5383654], [-9.0995458, 38.5375335], [-9.0999015, 38.5367657], [-9.1002115, 38.5361051], [-9.100244, 38.5360392], [-9.100348, 38.5358253], [-9.1004093, 38.5356924], [-9.1004662, 38.5355648], [-9.1005194, 38.5354409], [-9.1005763, 38.5353049], [-9.1006314, 38.5351683], [-9.1006681, 38.5350718]]}, "properties": {"highway": "primary", "lanes": "2", "oneway": "no", "ref": "EN 378", "sidewalk": "no", "surface": "asphalt"}}, {"type": "Feature", "geometry": {"type": "LineString", "coordinates": [[-9.1006681, 38.5350718], [-9.100727, 38.5349059]]}, "properties": {"bridge": "yes", "highway": "primary", "layer": "1", "oneway": "no", "ref": "EN 378"}}, {"type": "Feature", "geometry": {"type": "LineString", "coordinates": [[-9.10684, 38.5920174], [-9.1069928, 38.5923843]]}, "properties": {"highway": "primary", "maxspeed": "70", "name": "Avenida 23 de Julho de 1833", "oneway": "yes", "ref": "EN 378"}}, {"type": "Feature", "geometry": {"type": "LineString", "coordinates": [[-9.104446, 38.4783884], [-9.1048626, 38.4768283], [-9.1049656, 38.4762219], [-9.1049846, 38.4761198], [-9.1049946, 38.47606], [-9.1050452, 38.4757561], [-9.1050451, 38.4756795], [-9.105045, 38.4756096], [-9.1050388, 38.4755891], [-9.1049874, 38.4754191], [-9.1049171, 38.4753033], [-9.1047915, 38.4751693], [-9.1046746, 38.4750669], [-9.1046116, 38.4750133]]}, "properties": {"highway": "primary", "lanes": "2", "name": "Avenida Jo\u00e3o Paulo II", "ref": "EN 378", "surface": "asphalt"}}, {"type": "Feature", "geometry": {"type": "LineString", "coordinates": [[-9.1010135, 38.4715672], [-9.1009429, 38.4714119], [-9.1007358, 38.4709299], [-9.1005721, 38.4705554], [-9.1005369, 38.4704808], [-9.1004233, 38.470247], [-9.100358, 38.4701127], [-9.1002903, 38.4699355], [-9.1002499, 38.469804], [-9.1002523, 38.4695949], [-9.1003626, 38.4688033], [-9.1003747, 38.4686725], [-9.1003749, 38.4685149], [-9.1003662, 38.4683895], [-9.1003516, 38.4682647], [-9.1003437, 38.468208], [-9.100336, 38.468153], [-9.1003123, 38.468011], [-9.1002816, 38.4678627], [-9.1002222, 38.4676386], [-9.1002057, 38.4675964], [-9.1001829, 38.4675187], [-9.1001325, 38.4673601]]}, "properties": {"highway": "primary", "lanes": "2", "name": "Avenida Jo\u00e3o Paulo II", "ref": "EN 378", "surface": "asphalt"}}, {"type": "Feature", "geometry": {"type": "LineString", "coordinates": [[-9.105126, 38.5992831], [-9.1051666, 38.5992759], [-9.1052055, 38.5992643]]}, "properties": {"highway": "primary", "junction": "roundabout", "lanes": "2", "ref": "EN 378"}}, {"type": "Feature", "geometry": {"type": "LineString", "coordinates": [[-9.1053773, 38.5990223], [-9.1053562, 38.5989608], [-9.1053147, 38.598906]]}, "properties": {"highway": "primary", "junction": "roundabout", "lanes": "2", "ref": "EN 378"}}, {"type": "Feature", "geometry": {"type": "LineString", "coordinates": [[-9.1003362, 38.4441188], [-9.1003322, 38.4441927], [-9.1003273, 38.4442564]]}, "properties": {"highway": "primary", "lane_markings": "no", "name": "Avenida da Liberdade", "oneway": "yes", "postal_code": "2970-635", "ref": "EN 378", "surface": "asphalt"}}, {"type": "Feature", "geometry": {"type": "LineString", "coordinates": [[-9.1057048, 38.6185345], [-9.1057008, 38.6185032]]}, "properties": {"highway": "primary", "junction": "roundabout", "name": "Pra\u00e7a das Gemina\u00e7\u00f5es", "ref": "EN 378"}}, {"type": "Feature", "geometry": {"type": "LineString", "coordinates": [[-9.1065241, 38.6206793], [-9.1065701, 38.6206562], [-9.1066087, 38.620626], [-9.1066381, 38.62059], [-9.1066568, 38.6205499], [-9.1066641, 38.6205085], [-9.10666, 38.6204668], [-9.1066447, 38.6204267]]}, "properties": {"highway": "primary", "junction": "roundabout", "oneway": "yes", "ref": "EN 378", "surface": "asphalt"}}, {"type": "Feature", "geometry": {"type": "LineString", "coordinates": [[-9.1061603, 38.6205182], [-9.1061705, 38.6205601], [-9.106192, 38.6205994], [-9.1062238, 38.6206341], [-9.1062644, 38.6206627], [-9.106312, 38.6206837], [-9.1063642, 38.6206963], [-9.1064187, 38.6206998], [-9.1064728, 38.620694]]}, "properties": {"highway": "primary", "junction": "roundabout", "oneway": "yes", "ref": "EN 378"}}, {"type": "Feature", "geometry": {"type": "LineString", "coordinates": [[-9.1056458, 38.6216412], [-9.1057543, 38.6214432], [-9.1057964, 38.6213822], [-9.105879, 38.6212624]]}, "properties": {"cycleway": "lane", "highway": "primary", "lanes": "2", "name": "Avenida da Rep\u00fablica", "ref": "EN 378", "surface": "asphalt"}}, {"type": "Feature", "geometry": {"type": "LineString", "coordinates": [[-9.105496, 38.6221949], [-9.1055128, 38.6220649], [-9.1055354, 38.6219538], [-9.1055595, 38.6218635], [-9.1055831, 38.6217918], [-9.1056458, 38.6216412]]}, "properties": {"cycleway": "lane", "highway": "primary", "lanes": "2", "name": "Avenida da Rep\u00fablica", "ref": "EN 378", "surface": "asphalt"}}, {"type": "Feature", "geometry": {"type": "LineString", "coordinates": [[-9.1047079, 38.6291138], [-9.1046839, 38.6290584], [-9.1046686, 38.6290145], [-9.1046359, 38.6288982], [-9.1046203, 38.6288367], [-9.1046005, 38.628732]]}, "properties": {"cycleway": "lane", "highway": "primary", "lanes": "2", "name": "Avenida da Rep\u00fablica", "ref": "EN 378", "surface": "asphalt"}}, {"type": "Feature", "geometry": {"type": "LineString", "coordinates": [[-9.1053503, 38.6302831], [-9.1053354, 38.6301804], [-9.1053127, 38.630107], [-9.1052857, 38.6300363], [-9.1052534, 38.629968], [-9.1052007, 38.6298836], [-9.1050824, 38.6297111], [-9.1048056, 38.6292937], [-9.1047712, 38.6292386], [-9.1047079, 38.6291138]]}, "properties": {"cycleway": "lane", "highway": "primary", "lanes": "2", "name": "Avenida da Rep\u00fablica", "ref": "EN 378", "surface": "asphalt"}}, {"type": "Feature", "geometry": {"type": "LineString", "coordinates": [[-9.1057403, 38.6163721], [-9.1057183, 38.6164186], [-9.1056848, 38.616548], [-9.1056761, 38.616902]]}, "properties": {"highway": "primary", "lanes": "2", "name": "Avenida dos Resistentes Antifascistas", "oneway": "no", "ref": "EN 378"}}, {"type": "Feature", "geometry": {"type": "LineString", "coordinates": [[-9.1058432, 38.616232], [-9.1058244, 38.616248], [-9.1057616, 38.6163271], [-9.1057403, 38.6163721]]}, "properties": {"highway": "primary", "lanes": "2", "name": "Avenida dos Resistentes Antifascistas", "oneway": "no", "ref": "EN 378"}}, {"type": "Feature", "geometry": {"type": "LineString", "coordinates": [[-9.1049894, 38.6034986], [-9.104949, 38.6034235], [-9.1049316, 38.6033911], [-9.1048791, 38.6032935], [-9.1048418, 38.6032214], [-9.1047578, 38.603064], [-9.1046931, 38.6029369], [-9.1046817, 38.6029146], [-9.1045094, 38.6025772], [-9.1044674, 38.6024963], [-9.1044378, 38.6024394], [-9.1043937, 38.6023363], [-9.1043874, 38.6023214], [-9.1043505, 38.6022336], [-9.1043084, 38.6021055], [-9.1042778, 38.6019738], [-9.1041994, 38.601554], [-9.1042444, 38.6012907], [-9.104279, 38.6010708], [-9.1045239, 38.6004266], [-9.1046824, 38.6000667], [-9.104737, 38.5998744], [-9.1047545, 38.5997496], [-9.1047759, 38.5996013], [-9.1047889, 38.5995539]]}, "properties": {"highway": "primary", "lanes": "2", "maxheight": "default", "name": "Avenida 23 de Julho de 1833", "ref": "EN 378", "surface": "asphalt"}}, {"type": "Feature", "geometry": {"type": "LineString", "coordinates": [[-9.0992332, 38.4658103], [-9.0990857, 38.4657893], [-9.0985588, 38.4657193], [-9.0980314, 38.4656638]]}, "properties": {"highway": "primary", "name": "Rua Jorge de Castilho", "oneway": "no", "ref": "EN 378"}}, {"type": "Feature", "geometry": {"type": "LineString", "coordinates": [[-9.0978279, 38.4656379], [-9.0977497, 38.4656273], [-9.0976419, 38.4655943], [-9.0975675, 38.4655512]]}, "properties": {"highway": "primary", "name": "Rua Jorge de Castilho", "oneway": "no", "ref": "EN 378"}}, {"type": "Feature", "geometry": {"type": "LineString", "coordinates": [[-9.0980314, 38.4656638], [-9.0979731, 38.4656577], [-9.0978279, 38.4656379]]}, "properties": {"highway": "primary", "name": "Rua Jorge de Castilho", "oneway": "no", "ref": "EN 378"}}, {"type": "Feature", "geometry": {"type": "LineString", "coordinates": [[-9.105165, 38.6311096], [-9.1051457, 38.6311398]]}, "properties": {"cycleway:right": "shared_lane", "highway": "primary", "junction": "roundabout", "lanes": "2", "name": "Avenida da Rep\u00fablica", "ref": "EN 378", "surface": "asphalt"}}, {"type": "Feature", "geometry": {"type": "LineString", "coordinates": [[-9.1062218, 38.620373], [-9.1061935, 38.620404], [-9.1061733, 38.6204385], [-9.106162, 38.6204755], [-9.1061603, 38.6205182]]}, "properties": {"highway": "primary", "junction": "roundabout", "lanes": "2", "oneway": "yes", "ref": "EN 378", "surface": "asphalt"}}, {"type": "Feature", "geometry": {"type": "LineString", "coordinates": [[-9.1066189, 38.6203901], [-9.1065839, 38.6203585], [-9.1065411, 38.6203334], [-9.1064925, 38.6203159], [-9.1064402, 38.6203068], [-9.1063916, 38.6203062], [-9.1063437, 38.6203129], [-9.1062983, 38.6203267], [-9.1062572, 38.620347], [-9.1062218, 38.620373]]}, "properties": {"highway": "primary", "junction": "roundabout", "lanes": "2", "oneway": "yes", "ref": "EN 378", "surface": "asphalt"}}, {"type": "Feature", "geometry": {"type": "LineString", "coordinates": [[-9.1054632, 38.618647], [-9.1055041, 38.6186584]]}, "properties": {"highway": "primary", "junction": "roundabout", "name": "Pra\u00e7a das Gemina\u00e7\u00f5es", "ref": "EN 378"}}, {"type": "Feature", "geometry": {"type": "LineString", "coordinates": [[-9.1002603, 38.463139], [-9.1002303, 38.4631596], [-9.1002023, 38.4631948], [-9.1001905, 38.4632353], [-9.1001968, 38.4632784], [-9.1002188, 38.4633149]]}, "properties": {"highway": "primary", "junction": "roundabout", "name": "Pra\u00e7a Duques de Palmela", "ref": "EN 378", "surface": "asphalt"}}, {"type": "Feature", "geometry": {"type": "LineString", "coordinates": [[-9.0973682, 38.4652365], [-9.0973573, 38.4651823], [-9.0973245, 38.4651368], [-9.0972743, 38.4651031], [-9.0972158, 38.4650854]]}, "properties": {"highway": "primary", "junction": "roundabout", "name": "Rotunda do Espadarte", "ref": "EN 379;EN 378", "surface": "asphalt"}}, {"type": "Feature", "geometry": {"type": "LineString", "coordinates": [[-9.0971311, 38.4653799], [-9.097172, 38.4653828]]}, "properties": {"highway": "primary", "junction": "roundabout", "name": "Rotunda do Espadarte", "ref": "EN 379;EN 378"}}, {"type": "Feature", "geometry": {"type": "LineString", "coordinates": [[-9.1003705, 38.5507907], [-9.1003029, 38.550868], [-9.1002674, 38.5509574], [-9.1002674, 38.5510511]]}, "properties": {"highway": "primary", "junction": "roundabout", "ref": "EN 378"}}, {"type": "Feature", "geometry": {"type": "LineString", "coordinates": [[-9.1004885, 38.551286], [-9.1005545, 38.5513056]]}, "properties": {"highway": "primary", "junction": "roundabout", "ref": "EN 378"}}, {"type": "Feature", "geometry": {"type": "LineString", "coordinates": [[-9.1064735, 38.6085507], [-9.1064993, 38.6086817], [-9.1065065, 38.6087229], [-9.1066091, 38.6093393], [-9.1066568, 38.6097077], [-9.1066596, 38.6097292]]}, "properties": {"highway": "primary", "lanes": "2", "name": "Avenida 23 de Julho de 1833", "oneway": "yes", "ref": "EN 378", "surface": "asphalt"}}, {"type": "Feature", "geometry": {"type": "LineString", "coordinates": [[-9.1016326, 38.472778], [-9.1015065, 38.4726008]]}, "properties": {"highway": "primary", "lanes": "2", "maxspeed:type": "PT:urban", "name": "Avenida Jo\u00e3o Paulo II", "oneway": "yes", "ref": "EN 378", "surface": "asphalt"}}, {"type": "Feature", "geometry": {"type": "LineString", "coordinates": [[-9.101931, 38.4731574], [-9.1018446, 38.4730631], [-9.1017583, 38.4729351]]}, "properties": {"highway": "primary", "lanes": "2", "maxspeed:type": "PT:urban", "name": "Avenida Jo\u00e3o Paulo II", "oneway": "yes", "ref": "EN 378", "surface": "asphalt"}}, {"type": "Feature", "geometry": {"type": "LineString", "coordinates": [[-9.1046116, 38.4750133], [-9.1042732, 38.474726], [-9.1037702, 38.4743172], [-9.1032209, 38.4740013], [-9.1024704, 38.4735802], [-9.102338, 38.4735098], [-9.1022347, 38.4734549], [-9.1021443, 38.4733686], [-9.101931, 38.4731574]]}, "properties": {"highway": "primary", "lanes": "2", "maxspeed:type": "PT:urban", "name": "Avenida Jo\u00e3o Paulo II", "ref": "EN 378", "surface": "asphalt"}}, {"type": "Feature", "geometry": {"type": "LineString", "coordinates": [[-9.0971546, 38.4650834], [-9.0970959, 38.4650965], [-9.0970519, 38.4651205], [-9.0970426, 38.4651256], [-9.0970064, 38.4651655]]}, "properties": {"highway": "primary", "junction": "roundabout", "name": "Rotunda do Espadarte", "ref": "EN 379;EN 378", "surface": "asphalt"}}, {"type": "Feature", "geometry": {"type": "LineString", "coordinates": [[-9.1154614, 38.4367336], [-9.1154776, 38.4366458], [-9.1155566, 38.4362498]]}, "properties": {"highway": "primary", "ref": "EN 378", "surface": "asphalt"}}, {"type": "Feature", "geometry": {"type": "LineString", "coordinates": [[-9.1046005, 38.628732], [-9.1045876, 38.6286437], [-9.104459, 38.6276914], [-9.104448, 38.6275993], [-9.1044438, 38.6274562], [-9.1044528, 38.6273353], [-9.1044684, 38.627228], [-9.1044922, 38.6271171], [-9.1045008, 38.6270881], [-9.1045394, 38.6269579], [-9.1046021, 38.6267465], [-9.1046184, 38.6266915], [-9.1046413, 38.6266224], [-9.104662, 38.6265598], [-9.1047421, 38.6263179], [-9.1048011, 38.6261509]]}, "properties": {"cycleway": "lane", "highway": "primary", "lanes": "2", "name": "Avenida da Rep\u00fablica", "ref": "EN 378", "surface": "asphalt"}}, {"type": "Feature", "geometry": {"type": "LineString", "coordinates": [[-9.1014254, 38.5803129], [-9.1013855, 38.5801444], [-9.1013555, 38.5800212], [-9.101312, 38.5797968]]}, "properties": {"highway": "primary", "lanes": "2", "maxspeed": "70", "maxspeed:type": "sign", "name": "Avenida 23 de Julho de 1833", "ref": "EN 378", "sidewalk": "no", "surface": "asphalt"}}, {"type": "Feature", "geometry": {"type": "LineString", "coordinates": [[-9.1040219, 38.5873018], [-9.1038732, 38.5870438], [-9.1034186, 38.586058], [-9.103341, 38.5858898], [-9.1029548, 38.5850713], [-9.1027979, 38.5846662], [-9.1022253, 38.5832061], [-9.1020174, 38.5826801], [-9.1019356, 38.5824457], [-9.1019006, 38.5823479]]}, "properties": {"highway": "primary", "lanes": "2", "maxspeed": "70", "maxspeed:type": "sign", "name": "Avenida 23 de Julho de 1833", "ref": "EN 378", "sidewalk": "no", "surface": "asphalt"}}, {"type": "Feature", "geometry": {"type": "LineString", "coordinates": [[-9.102308, 38.4521544], [-9.1024228, 38.4521236], [-9.1025734, 38.4520894], [-9.1026769, 38.4520488], [-9.1027354, 38.4520224]]}, "properties": {"destination:backward": "Lisboa;Set\u00fabal", "highway": "primary", "ref": "EN 378"}}, {"type": "Feature", "geometry": {"type": "LineString", "coordinates": [[-9.1027354, 38.4520224], [-9.1028021, 38.4519756], [-9.1029147, 38.4518669], [-9.103035, 38.451705], [-9.103086, 38.4515584], [-9.1030902, 38.4515339], [-9.1031108, 38.4514134], [-9.1030852, 38.4512655], [-9.1030497, 38.4510976], [-9.1030327, 38.4509898], [-9.1030234, 38.4509235], [-9.1030196, 38.450868], [-9.10302, 38.4507958], [-9.103037, 38.4505044], [-9.1030415, 38.4503769], [-9.1030286, 38.4502507], [-9.103016, 38.4501996], [-9.1029765, 38.4501023], [-9.1029621, 38.4500734]]}, "properties": {"destination:forward": "Sesimbra;hotel", "highway": "primary", "ref": "EN 378"}}, {"type": "Feature", "geometry": {"type": "LineString", "coordinates": [[-9.1029621, 38.4500734], [-9.1029049, 38.4499749], [-9.1027709, 38.4497675], [-9.102606, 38.4494991], [-9.1025485, 38.4494055], [-9.1024314, 38.4492334], [-9.1022062, 38.448897], [-9.1020416, 38.4486289], [-9.1019798, 38.4485038], [-9.1019407, 38.4483807], [-9.1019149, 38.4481196], [-9.1019139, 38.447684], [-9.1019054, 38.4475589], [-9.1018987, 38.4474948], [-9.1018852, 38.4474387], [-9.1018242, 38.4472185], [-9.1018051, 38.4471592], [-9.1017839, 38.4471258], [-9.1017437, 38.4470927]]}, "properties": {"highway": "primary", "ref": "EN 378"}}, {"type": "Feature", "geometry": {"type": "LineString", "coordinates": [[-9.1033341, 38.457161], [-9.1032359, 38.4571378], [-9.1030877, 38.4571357], [-9.1028386, 38.4571573], [-9.1026812, 38.4571758], [-9.1025305, 38.4571904], [-9.1024422, 38.4571946]]}, "properties": {"destination:forward": "Sesimbra", "highway": "primary", "ref": "EN 378"}}, {"type": "Feature", "geometry": {"type": "LineString", "coordinates": [[-9.1034877, 38.4572257], [-9.1033341, 38.457161]]}, "properties": {"highway": "primary", "ref": "EN 378"}}, {"type": "Feature", "geometry": {"type": "LineString", "coordinates": [[-9.1036166, 38.4573451], [-9.1036021, 38.457323], [-9.1035372, 38.4572666], [-9.1034877, 38.4572257]]}, "properties": {"destination:backward": "Lisboa;Set\u00fabal", "highway": "primary", "ref": "EN 378"}}, {"type": "Feature", "geometry": {"type": "LineString", "coordinates": [[-9.1040292, 38.459996], [-9.1040007, 38.4598832], [-9.1038391, 38.4597412], [-9.1035008, 38.4595652], [-9.1033156, 38.459463], [-9.1032987, 38.4594536], [-9.1032407, 38.4594216], [-9.1031538, 38.4593358], [-9.1031107, 38.4592927], [-9.1029779, 38.4590595], [-9.1029533, 38.4590163], [-9.102929, 38.4588419], [-9.1030166, 38.4585718], [-9.1031426, 38.4582594], [-9.1032401, 38.4580628], [-9.1034931, 38.4578518], [-9.1036275, 38.4577018], [-9.1036822, 38.457565], [-9.103674, 38.4574325], [-9.1036166, 38.4573451]]}, "properties": {"highway": "primary", "ref": "EN 378"}}, {"type": "Feature", "geometry": {"type": "LineString", "coordinates": [[-9.1028975, 38.4619788], [-9.1031063, 38.4618043], [-9.1032924, 38.4616322], [-9.1033595, 38.4615604], [-9.1034115, 38.4614964], [-9.1034766, 38.4613963], [-9.103538, 38.4612843], [-9.1035621, 38.461233]]}, "properties": {"destination:forward": "Sesimbra", "highway": "primary", "lanes": "2", "ref": "EN 378", "surface": "asphalt"}}, {"type": "Feature", "geometry": {"type": "LineString", "coordinates": [[-9.0996449, 38.5682545], [-9.0994958, 38.5675715], [-9.0994535, 38.5672263]]}, "properties": {"destination:forward": "Sesimbra", "highway": "primary", "lanes": "2", "maxspeed": "70", "maxspeed:type": "sign", "name": "Avenida 23 de Julho de 1833", "ref": "EN 378", "sidewalk": "no", "surface": "asphalt"}}, {"type": "Feature", "geometry": {"type": "LineString", "coordinates": [[-9.0999312, 38.5695666], [-9.0996449, 38.5682545]]}, "properties": {"destination:backward": "Lisboa", "highway": "primary", "lanes": "2", "maxspeed": "70", "maxspeed:type": "sign", "name": "Avenida 23 de Julho de 1833", "ref": "EN 378", "sidewalk": "no", "surface": "asphalt"}}, {"type": "Feature", "geometry": {"type": "LineString", "coordinates": [[-9.101312, 38.5797968], [-9.1011266, 38.5790462], [-9.1011092, 38.5789283], [-9.1011007, 38.5787964], [-9.1011111, 38.5786016], [-9.1011352, 38.5784087], [-9.1011635, 38.5782509], [-9.1012313, 38.5778961], [-9.101324, 38.5774022], [-9.1013632, 38.5770752], [-9.1013692, 38.5769641], [-9.1013723, 38.5766464], [-9.1013412, 38.5763622], [-9.1012339, 38.5758775], [-9.1012321, 38.5758693], [-9.101161, 38.5755482], [-9.1010959, 38.575215], [-9.1010845, 38.575169], [-9.1008331, 38.5739172], [-9.1007625, 38.5735356], [-9.1007556, 38.5734981], [-9.1006616, 38.5730521], [-9.1003657, 38.5717056], [-9.1002909, 38.571333], [-9.1001017, 38.5703888], [-9.1000784, 38.5702723], [-9.100053, 38.5701492], [-9.1000125, 38.5699434], [-9.0999312, 38.5695666]]}, "properties": {"highway": "primary", "lanes": "2", "maxspeed": "70", "maxspeed:type": "sign", "name": "Avenida 23 de Julho de 1833", "ref": "EN 378", "sidewalk": "no", "surface": "asphalt"}}, {"type": "Feature", "geometry": {"type": "LineString", "coordinates": [[-9.1053681, 38.4903814], [-9.1054509, 38.4903254]]}, "properties": {"highway": "primary", "junction": "roundabout", "lanes": "2", "ref": "EN 378"}}, {"type": "Feature", "geometry": {"type": "LineString", "coordinates": [[-9.1046408, 38.4846421], [-9.104705, 38.4848517], [-9.1048096, 38.4852024], [-9.1048726, 38.4854067], [-9.1048873, 38.4854547], [-9.1049136, 38.4855394], [-9.1049249, 38.4855761], [-9.1050885, 38.486122], [-9.1051878, 38.4864452], [-9.1052307, 38.4865649], [-9.1052702, 38.4866638], [-9.1053085, 38.486758], [-9.1053514, 38.4868693], [-9.1053889, 38.4869827], [-9.1054157, 38.4870876], [-9.1054323, 38.4871651]]}, "properties": {"destination": "Seixal;Lisboa;Almada", "highway": "primary", "oneway": "yes", "ref": "EN 378", "source": "bing"}}, {"type": "Feature", "geometry": {"type": "LineString", "coordinates": [[-9.104924, 38.4852274], [-9.1046761, 38.4844048]]}, "properties": {"highway": "primary", "lanes": "2", "oneway": "yes", "ref": "EN 378", "source": "bing", "surface": "asphalt", "turn:lanes": "left|through"}}, {"type": "Feature", "geometry": {"type": "LineString", "coordinates": [[-9.1054969, 38.4873987], [-9.1054955, 38.4872601], [-9.105458, 38.4870753], [-9.1054292, 38.4869407], [-9.105397, 38.4868168], [-9.1053675, 38.4867139], [-9.1052729, 38.4863972], [-9.1052356, 38.4862712], [-9.1050805, 38.4857482], [-9.1049785, 38.4854081], [-9.104937, 38.4852704], [-9.104924, 38.4852274]]}, "properties": {"highway": "primary", "oneway": "yes", "ref": "EN 378", "source": "bing", "surface": "asphalt"}}, {"type": "Feature", "geometry": {"type": "LineString", "coordinates": [[-9.1054736, 38.4900819], [-9.1054022, 38.4900171]]}, "properties": {"highway": "primary", "junction": "roundabout", "lanes": "2", "ref": "EN 378"}}, {"type": "Feature", "geometry": {"type": "LineString", "coordinates": [[-9.1054323, 38.4871651], [-9.1054392, 38.4871971], [-9.1054533, 38.4872556], [-9.1054969, 38.4873987]]}, "properties": {"destination": "Seixal;Lisboa;Almada", "highway": "primary", "oneway": "yes", "ref": "EN 378", "source": "bing"}}, {"type": "Feature", "geometry": {"type": "LineString", "coordinates": [[-9.1054718, 38.4886143], [-9.1054919, 38.4884714], [-9.1055262, 38.4880945], [-9.1055312, 38.4879396], [-9.1055311, 38.4879148], [-9.105531, 38.4878933]]}, "properties": {"highway": "primary", "ref": "EN 378"}}, {"type": "Feature", "geometry": {"type": "LineString", "coordinates": [[-9.0972158, 38.4650854], [-9.0971546, 38.4650834]]}, "properties": {"highway": "primary", "junction": "roundabout", "name": "Rotunda do Espadarte", "ref": "EN 379;EN 378", "surface": "asphalt"}}, {"type": "Feature", "geometry": {"type": "LineString", "coordinates": [[-9.0970064, 38.4651655], [-9.0969996, 38.4651826]]}, "properties": {"highway": "primary", "junction": "roundabout", "name": "Rotunda do Espadarte", "ref": "EN 379;EN 378", "surface": "asphalt"}}, {"type": "Feature", "geometry": {"type": "LineString", "coordinates": [[-9.0973535, 38.4652908], [-9.0973585, 38.4652721], [-9.0973682, 38.4652365]]}, "properties": {"highway": "primary", "junction": "roundabout", "name": "Rotunda do Espadarte", "ref": "EN 379;EN 378", "surface": "asphalt"}}, {"type": "Feature", "geometry": {"type": "LineString", "coordinates": [[-9.1041756, 38.4796205], [-9.1042275, 38.4793926], [-9.1043214, 38.4790146]]}, "properties": {"destination": "Sesimbra;Santana;Set\u00fabal;Vila Nova de Azeit\u00e3o;Cabo Espichel", "highway": "primary", "lanes": "2", "oneway": "yes", "ref": "EN 378", "surface": "asphalt"}}, {"type": "Feature", "geometry": {"type": "LineString", "coordinates": [[-9.1043214, 38.4790146], [-9.1043565, 38.4788941], [-9.1043708, 38.4788528], [-9.1043827, 38.4788203], [-9.1043938, 38.4787964], [-9.104413, 38.4787481]]}, "properties": {"destination": "Sesimbra;Santana;Set\u00fabal;Vila Nova de Azeit\u00e3o;Cabo Espichel", "highway": "primary", "lanes": "2", "oneway": "yes", "ref": "EN 378", "surface": "asphalt"}}, {"type": "Feature", "geometry": {"type": "LineString", "coordinates": [[-9.1008526, 38.5507283], [-9.1007474, 38.5506981]]}, "properties": {"highway": "primary", "junction": "roundabout", "ref": "EN 378"}}, {"type": "Feature", "geometry": {"type": "LineString", "coordinates": [[-9.1010489, 38.5509199], [-9.1009757, 38.5508084], [-9.1008526, 38.5507283]]}, "properties": {"highway": "primary", "junction": "roundabout", "ref": "EN 378"}}, {"type": "Feature", "geometry": {"type": "LineString", "coordinates": [[-9.1066447, 38.6204267], [-9.1066189, 38.6203901]]}, "properties": {"highway": "primary", "junction": "roundabout", "oneway": "yes", "ref": "EN 378", "surface": "asphalt"}}, {"type": "Feature", "geometry": {"type": "LineString", "coordinates": [[-9.1055006, 38.6225842], [-9.1054987, 38.6225182], [-9.1054948, 38.6223335], [-9.1054958, 38.6222876], [-9.105496, 38.6221949]]}, "properties": {"cycleway": "lane", "highway": "primary", "lanes": "2", "name": "Avenida da Rep\u00fablica", "ref": "EN 378", "surface": "asphalt"}}, {"type": "Feature", "geometry": {"type": "LineString", "coordinates": [[-9.1055134, 38.6230249], [-9.1055006, 38.6225842]]}, "properties": {"cycleway": "lane", "highway": "primary", "lanes": "2", "name": "Avenida da Rep\u00fablica", "ref": "EN 378", "surface": "asphalt"}}, {"type": "Feature", "geometry": {"type": "LineString", "coordinates": [[-9.1064728, 38.620694], [-9.1065241, 38.6206793]]}, "properties": {"highway": "primary", "junction": "roundabout", "oneway": "yes", "ref": "EN 378", "surface": "asphalt"}}, {"type": "Feature", "geometry": {"type": "LineString", "coordinates": [[-9.1153295, 38.4376237], [-9.1153255, 38.4375509], [-9.1153301, 38.4374872], [-9.1153378, 38.4374289], [-9.115347, 38.4373738], [-9.1154146, 38.4369875]]}, "properties": {"highway": "primary", "lanes": "2", "lit": "yes", "name": "Avenida dos N\u00e1ufragos", "ref": "EN 378", "sidewalk": "left", "surface": "asphalt"}}, {"type": "Feature", "geometry": {"type": "LineString", "coordinates": [[-9.1154388, 38.4378422], [-9.115413, 38.4378112], [-9.1153935, 38.4377824], [-9.115371, 38.4377422], [-9.1153514, 38.4377018], [-9.1153377, 38.4376619], [-9.1153295, 38.4376237]]}, "properties": {"highway": "primary", "lanes": "2", "lit": "yes", "name": "Avenida dos N\u00e1ufragos", "ref": "EN 378", "sidewalk": "left", "surface": "asphalt"}}, {"type": "Feature", "geometry": {"type": "LineString", "coordinates": [[-9.1154467, 38.4368321], [-9.1154614, 38.4367336]]}, "properties": {"highway": "primary", "ref": "EN 378"}}, {"type": "Feature", "geometry": {"type": "LineString", "coordinates": [[-9.0975063, 38.4649881], [-9.097604, 38.4649093]]}, "properties": {"highway": "primary", "lanes": "2", "name": "Avenida S\u00e9rgio Pereira de Melo", "ref": "EN 378", "surface": "asphalt"}}, {"type": "Feature", "geometry": {"type": "LineString", "coordinates": [[-9.1014655, 38.4626682], [-9.1013941, 38.4626957], [-9.1013116, 38.46273]]}, "properties": {"highway": "primary", "name": "Rua Doutor Alberto Leite", "oneway": "no", "ref": "EN 378", "surface": "asphalt"}}, {"type": "Feature", "geometry": {"type": "LineString", "coordinates": [[-9.1013116, 38.46273], [-9.1012397, 38.4627598], [-9.1008363, 38.4629114]]}, "properties": {"highway": "primary", "name": "Rua Doutor Alberto Leite", "oneway": "no", "ref": "EN 378", "surface": "asphalt"}}, {"type": "Feature", "geometry": {"type": "LineString", "coordinates": [[-9.1018151, 38.5814344], [-9.1017766, 38.5813908], [-9.1017263, 38.5813242], [-9.1017035, 38.5812734], [-9.1016606, 38.5811098], [-9.1015267, 38.5807688]]}, "properties": {"highway": "primary", "maxspeed": "70", "maxspeed:type": "sign", "name": "Avenida 23 de Julho de 1833", "oneway": "yes", "ref": "EN 378", "surface": "asphalt"}}, {"type": "Feature", "geometry": {"type": "LineString", "coordinates": [[-9.1015267, 38.5807688], [-9.1015895, 38.5811245], [-9.1016438, 38.5813305], [-9.1016505, 38.581364], [-9.1016505, 38.581395], [-9.1016471, 38.5814233], [-9.101644, 38.5814487]]}, "properties": {"highway": "primary", "maxspeed": "70", "maxspeed:type": "sign", "name": "Avenida 23 de Julho de 1833", "oneway": "yes", "ref": "EN 378", "surface": "asphalt"}}, {"type": "Feature", "geometry": {"type": "LineString", "coordinates": [[-9.1019006, 38.5823479], [-9.1019033, 38.5822143], [-9.1018684, 38.5820219], [-9.1018324, 38.5818755], [-9.1018092, 38.5817827], [-9.1018148, 38.5817294], [-9.1018185, 38.5816765], [-9.1018358, 38.5816092]]}, "properties": {"highway": "primary", "maxspeed": "70", "maxspeed:type": "sign", "name": "Avenida 23 de Julho de 1833", "oneway": "yes", "ref": "EN 378", "surface": "asphalt"}}, {"type": "Feature", "geometry": {"type": "LineString", "coordinates": [[-9.1016886, 38.5816308], [-9.1017169, 38.5816885], [-9.1017335, 38.5817443], [-9.1018309, 38.5822127], [-9.1018416, 38.5822442], [-9.1019006, 38.5823479]]}, "properties": {"highway": "primary", "maxspeed": "70", "maxspeed:type": "sign", "name": "Avenida 23 de Julho de 1833", "oneway": "yes", "ref": "EN 378", "surface": "asphalt"}}, {"type": "Feature", "geometry": {"type": "LineString", "coordinates": [[-9.1015267, 38.5807688], [-9.1014254, 38.5803129]]}, "properties": {"highway": "primary", "lanes": "2", "maxspeed": "70", "maxspeed:type": "sign", "name": "Avenida 23 de Julho de 1833", "ref": "EN 378", "sidewalk": "no", "surface": "asphalt"}}, {"type": "Feature", "geometry": {"type": "LineString", "coordinates": [[-9.101644, 38.5814487], [-9.1016316, 38.5814574], [-9.1016104, 38.5814842], [-9.1015996, 38.5815146], [-9.1016003, 38.5815462], [-9.1016123, 38.5815763], [-9.1016347, 38.5816026], [-9.1016617, 38.5816203], [-9.1016886, 38.5816308]]}, "properties": {"highway": "primary", "junction": "roundabout", "name": "Avenida 23 de Julho de 1833", "ref": "EN 378", "surface": "asphalt"}}, {"type": "Feature", "geometry": {"type": "LineString", "coordinates": [[-9.1018358, 38.5816092], [-9.1018491, 38.5815999], [-9.1018703, 38.5815731], [-9.1018811, 38.5815426], [-9.1018804, 38.5815111], [-9.1018684, 38.5814809], [-9.101846, 38.5814547], [-9.1018151, 38.5814344]]}, "properties": {"highway": "primary", "junction": "roundabout", "name": "Avenida 23 de Julho de 1833", "ref": "EN 378", "surface": "asphalt"}}, {"type": "Feature", "geometry": {"type": "LineString", "coordinates": [[-9.1018151, 38.5814344], [-9.1017781, 38.5814217], [-9.101738, 38.5814178], [-9.1016982, 38.5814228], [-9.1016617, 38.5814363], [-9.101644, 38.5814487]]}, "properties": {"highway": "primary", "junction": "roundabout", "name": "Avenida 23 de Julho de 1833", "ref": "EN 378", "surface": "asphalt"}}, {"type": "Feature", "geometry": {"type": "LineString", "coordinates": [[-9.1016886, 38.5816308], [-9.1017026, 38.5816355], [-9.1017426, 38.5816395], [-9.1017825, 38.5816345], [-9.101819, 38.581621], [-9.1018358, 38.5816092]]}, "properties": {"highway": "primary", "junction": "roundabout", "name": "Avenida 23 de Julho de 1833", "ref": "EN 378", "surface": "asphalt"}}, {"type": "Feature", "geometry": {"type": "LineString", "coordinates": [[-9.1053391, 38.5897767], [-9.1053171, 38.5898074], [-9.1053067, 38.5898416], [-9.1053086, 38.5898767], [-9.1053228, 38.5899101]]}, "properties": {"highway": "primary", "junction": "roundabout", "lanes": "2", "ref": "EN 378", "surface": "asphalt"}}]}