{"type": "FeatureCollection", "features": [{"type": "Feature", "geometry": {"type": "LineString", "coordinates": [[-8.3805104, 39.5141597], [-8.3805427, 39.5140788], [-8.3805889, 39.5139623], [-8.3806213, 39.5138623], [-8.3806321, 39.5138019], [-8.3806305, 39.5137458], [-8.3806178, 39.5136985], [-8.3805937, 39.5136434], [-8.3805587, 39.5135773], [-8.3805105, 39.5134889], [-8.38049, 39.513431], [-8.3804839, 39.513379], [-8.3804977, 39.5133203], [-8.3805255, 39.5132529], [-8.3805775, 39.5131681], [-8.3806573, 39.5130648], [-8.380796, 39.5129099], [-8.3809374, 39.5127416], [-8.3809737, 39.5126854], [-8.3809962, 39.5126393], [-8.3810064, 39.5125926], [-8.3810064, 39.5125424], [-8.381002, 39.5124931], [-8.3809825, 39.5124365], [-8.3809513, 39.5123837], [-8.3808988, 39.5123267], [-8.3807976, 39.5122258], [-8.3806543, 39.5120981], [-8.3805872, 39.512021], [-8.380543, 39.5119556], [-8.3805198, 39.5118922], [-8.3805112, 39.5118182], [-8.3805241, 39.51174], [-8.3805391, 39.5116925], [-8.3805814, 39.5116144], [-8.3806373, 39.511544], [-8.3806969, 39.5115014], [-8.3807459, 39.5114736], [-8.3808174, 39.5114353], [-8.3808984, 39.5114045], [-8.3809602, 39.5113886], [-8.3810401, 39.5113785], [-8.3812182, 39.5113606], [-8.3812727, 39.5113489], [-8.3813318, 39.5113304], [-8.3813944, 39.511298], [-8.3814352, 39.5112686], [-8.381482, 39.5112223], [-8.3815121, 39.5111831], [-8.3815329, 39.5111391], [-8.3815541, 39.5110812], [-8.3815583, 39.5110251], [-8.3815533, 39.5109409], [-8.381544, 39.5108633], [-8.3815395, 39.5108072], [-8.3815435, 39.5107515], [-8.3815517, 39.5107026], [-8.3815626, 39.510658], [-8.3815938, 39.5105627], [-8.3816107, 39.5104912], [-8.3816165, 39.5104354], [-8.3816094, 39.5103914], [-8.381591, 39.5103448], [-8.3815612, 39.5103065], [-8.3815075, 39.5102605], [-8.3814624, 39.5102253], [-8.3813738, 39.5101693], [-8.381309, 39.5101232], [-8.3812327, 39.5100622], [-8.3811719, 39.5100041], [-8.381086, 39.5099273], [-8.381029, 39.5098843], [-8.380949, 39.5098412], [-8.3808933, 39.5098241], [-8.3808334, 39.509814], [-8.3806841, 39.5098048], [-8.3806007, 39.509794], [-8.380533, 39.5097773], [-8.3804782, 39.5097534], [-8.3804172, 39.5097155], [-8.3803581, 39.5096742], [-8.3802604, 39.5095916], [-8.3801553, 39.5094944], [-8.3800823, 39.5094158], [-8.3800069, 39.5093275], [-8.379949, 39.5092436], [-8.3799072, 39.5091742], [-8.3798569, 39.5090868], [-8.3798042, 39.5089915], [-8.3797493, 39.5089159], [-8.3796928, 39.5088472], [-8.3796133, 39.5087718], [-8.3795288, 39.5086958], [-8.3794669, 39.5086401], [-8.3794181, 39.5085944], [-8.379372, 39.5085406], [-8.3793325, 39.5084765], [-8.3793111, 39.5084146], [-8.3792976, 39.5083468], [-8.3792927, 39.508245], [-8.3792973, 39.508107], [-8.3793015, 39.5078505], [-8.3793002, 39.5077042], [-8.3792926, 39.5076167], [-8.379282, 39.507548], [-8.3792675, 39.5074924], [-8.3792363, 39.5074341], [-8.3792056, 39.507389], [-8.3791469, 39.5073204], [-8.3790817, 39.5072512], [-8.3790401, 39.5072036], [-8.3790148, 39.5071578], [-8.3789959, 39.5071115], [-8.378987, 39.507066], [-8.378988, 39.5070213], [-8.3790049, 39.5069652], [-8.3790344, 39.5068955], [-8.3790779, 39.5068198], [-8.3791475, 39.5067062], [-8.3791835, 39.506635], [-8.3792036, 39.5065786], [-8.3792132, 39.5065156], [-8.3792076, 39.5064418], [-8.3791978, 39.5063648], [-8.3791788, 39.5062679], [-8.3790384, 39.5056751], [-8.3789994, 39.5055293], [-8.3789793, 39.5054825], [-8.3789616, 39.5054487], [-8.3789278, 39.5054076], [-8.3788855, 39.5053673], [-8.378835, 39.5053346], [-8.3787836, 39.5053098], [-8.378729, 39.5052922], [-8.3786825, 39.5052841], [-8.3785908, 39.5052742], [-8.3784067, 39.5052628], [-8.3783296, 39.505253], [-8.3782505, 39.5052319], [-8.3782042, 39.5052113], [-8.3781644, 39.5051853], [-8.3781326, 39.5051551], [-8.3781092, 39.5051175], [-8.3780924, 39.5050691], [-8.3780924, 39.5050147], [-8.378107, 39.5049576], [-8.3781293, 39.5049143], [-8.3781843, 39.5048597], [-8.3782794, 39.5047973], [-8.3783805, 39.5047327], [-8.3784557, 39.5046695], [-8.3785073, 39.5046097], [-8.3785547, 39.504527], [-8.3785853, 39.5044451], [-8.3786038, 39.5043693], [-8.3786025, 39.5043005], [-8.3785848, 39.5042159], [-8.3785413, 39.5040936], [-8.378489, 39.5039584], [-8.3784446, 39.5038459], [-8.3784234, 39.5037828], [-8.3784087, 39.5037225], [-8.3784014, 39.5036157], [-8.3784099, 39.5034945], [-8.3784327, 39.5033026], [-8.3784426, 39.5031734], [-8.3784445, 39.5030533], [-8.3784334, 39.5029483], [-8.3784111, 39.5028584], [-8.3783769, 39.5027601], [-8.3783234, 39.5026255], [-8.3782785, 39.5025328], [-8.3782045, 39.5024055], [-8.3781094, 39.5022643], [-8.3780552, 39.5021604], [-8.3780222, 39.5020871], [-8.3779914, 39.5019728], [-8.3779568, 39.5018237], [-8.3779349, 39.5017449], [-8.3779069, 39.5016719], [-8.3778719, 39.5016099], [-8.3778201, 39.5015572], [-8.3777507, 39.5015106], [-8.3776707, 39.5014703], [-8.3775241, 39.5013994], [-8.3774006, 39.5013429], [-8.377326, 39.5013015], [-8.377254, 39.5012551], [-8.3771652, 39.5011864], [-8.3770969, 39.5011273], [-8.3768484, 39.5008964], [-8.3767659, 39.5008252], [-8.3766919, 39.5007721], [-8.3766179, 39.5007323], [-8.3765267, 39.5006954], [-8.3764315, 39.5006674], [-8.3763294, 39.500643], [-8.3762578, 39.5006207], [-8.3761845, 39.5005919], [-8.3761244, 39.5005594], [-8.3760605, 39.5005146], [-8.3760101, 39.5004673], [-8.3759281, 39.5003706], [-8.3758624, 39.5002754], [-8.375816, 39.500196], [-8.3757845, 39.5001321], [-8.3757667, 39.5000419], [-8.3757627, 39.4999609], [-8.3757721, 39.4998888], [-8.3757976, 39.4997695], [-8.3758309, 39.4996467], [-8.3758579, 39.4995473], [-8.3759484, 39.4992302], [-8.3760431, 39.4988886], [-8.3760743, 39.4987668], [-8.3760853, 39.4986812], [-8.3760841, 39.4985756], [-8.3760637, 39.4984745], [-8.37603, 39.4983817], [-8.3759568, 39.4981991], [-8.3757419, 39.4976955], [-8.3756404, 39.497461]]}, "properties": {"bicycle": "yes", "foot": "yes", "highway": "primary", "ref": "EN 358-1", "surface": "asphalt"}}, {"type": "Feature", "geometry": {"type": "LineString", "coordinates": [[-8.3650468, 39.4845325], [-8.3648814, 39.4844252], [-8.3647289, 39.484325], [-8.3646006, 39.4842279], [-8.3645035, 39.4841406], [-8.3644402, 39.4840706], [-8.3643687, 39.483986], [-8.3642837, 39.4838688], [-8.3642265, 39.4837857], [-8.3641947, 39.4837309], [-8.3641455, 39.4836291], [-8.3641115, 39.4835428], [-8.3639859, 39.4831681], [-8.363945, 39.4830643], [-8.3639003, 39.4829867], [-8.3638329, 39.4829023], [-8.3637845, 39.4828424], [-8.3635955, 39.4826232], [-8.363396, 39.4823938], [-8.3632258, 39.4821984], [-8.3628245, 39.4817317], [-8.36261, 39.481503], [-8.3624961, 39.4813642], [-8.3623352, 39.4811567], [-8.362226, 39.481051], [-8.3621017, 39.4809545], [-8.361987, 39.4808892], [-8.3618806, 39.4808384], [-8.361757, 39.4807997], [-8.361629, 39.4807722], [-8.3614935, 39.4807511], [-8.3613387, 39.480745], [-8.3612164, 39.4807495], [-8.36105, 39.4807756], [-8.3609389, 39.4808083], [-8.3608361, 39.4808474], [-8.3606601, 39.4809147], [-8.360556, 39.480958], [-8.3579341, 39.4820376], [-8.3575503, 39.4821956], [-8.3568152, 39.4824718], [-8.3567108, 39.4824945], [-8.3565809, 39.4825229], [-8.3564342, 39.4825348], [-8.3563089, 39.4825329], [-8.356202, 39.482526], [-8.3561057, 39.4825141], [-8.3560168, 39.4824976], [-8.3559001, 39.4824629], [-8.3557991, 39.4824221], [-8.3557081, 39.4823795], [-8.3555975, 39.4823168], [-8.3552928, 39.4820986], [-8.3550205, 39.4818992], [-8.3547223, 39.4816711], [-8.3545652, 39.4815522], [-8.354446, 39.4814518], [-8.3543387, 39.481346], [-8.354238, 39.4812426], [-8.3541732, 39.4811783], [-8.3541216, 39.4811362], [-8.3540814, 39.4811089], [-8.3540356, 39.4810832], [-8.3539884, 39.4810597], [-8.3539279, 39.4810386], [-8.3538544, 39.4810227], [-8.3537899, 39.481018], [-8.3537361, 39.4810206], [-8.3536721, 39.4810322]]}, "properties": {"highway": "primary", "name": "Rua dos Combatentes", "oneway": "no", "ref": "EN 358-1", "surface": "asphalt"}}, {"type": "Feature", "geometry": {"type": "LineString", "coordinates": [[-8.35255, 39.4808271], [-8.3523498, 39.4807409], [-8.3522298, 39.4806855], [-8.3521255, 39.480631], [-8.3520202, 39.4805775], [-8.3518867, 39.4805016], [-8.351765, 39.4804272], [-8.351658, 39.4803534], [-8.3513499, 39.4801437], [-8.3511191, 39.479981], [-8.3508108, 39.4797704], [-8.350666, 39.4796812], [-8.3505497, 39.47962], [-8.3504347, 39.4795727], [-8.3503515, 39.4795469], [-8.3502655, 39.4795266], [-8.3501655, 39.4795082], [-8.3500191, 39.4794939], [-8.3498705, 39.4794912], [-8.3497692, 39.4795011], [-8.3496546, 39.4795204], [-8.3494917, 39.4795578], [-8.3488515, 39.4797043], [-8.3486586, 39.4797507], [-8.3484498, 39.4798044], [-8.3482868, 39.47985], [-8.3480757, 39.479923], [-8.3477847, 39.4800343], [-8.3474532, 39.4801689], [-8.3471795, 39.4802822], [-8.3468715, 39.4804056], [-8.3467283, 39.4804627], [-8.3465821, 39.4805103], [-8.3464782, 39.4805387], [-8.3463657, 39.4805592], [-8.3462457, 39.4805718], [-8.3461262, 39.4805702], [-8.3460039, 39.4805615], [-8.3458683, 39.4805424], [-8.3457562, 39.480519], [-8.3450044, 39.4802601], [-8.3447677, 39.4801748], [-8.3446595, 39.4801358], [-8.3445438, 39.4800809], [-8.3444282, 39.4800203], [-8.3443308, 39.4799526], [-8.3442446, 39.4798863], [-8.3441487, 39.479783], [-8.3440809, 39.4796876], [-8.3440443, 39.4796163], [-8.3439958, 39.4795112], [-8.3439697, 39.4794312], [-8.3439513, 39.4793467], [-8.3439281, 39.4792133], [-8.3438373, 39.478713], [-8.3437736, 39.4784558]]}, "properties": {"bicycle": "yes", "foot": "yes", "highway": "primary", "oneway": "no", "ref": "EN 358-1", "surface": "asphalt"}}, {"type": "Feature", "geometry": {"type": "LineString", "coordinates": [[-8.3664328, 39.4854591], [-8.3663587, 39.4853797], [-8.3662756, 39.4853017], [-8.3661826, 39.4852206], [-8.3660918, 39.485149], [-8.3659878, 39.4850771]]}, "properties": {"bridge": "yes", "highway": "primary", "layer": "1", "name": "N358-1", "ref": "EN 358-1"}}, {"type": "Feature", "geometry": {"type": "LineString", "coordinates": [[-8.3914959, 39.5428433], [-8.3914568, 39.542812], [-8.3913932, 39.5427636], [-8.3912918, 39.5426897], [-8.3911984, 39.5426245], [-8.3911298, 39.5425827], [-8.3909244, 39.5424676], [-8.3906613, 39.5423263], [-8.3902844, 39.5421265], [-8.3900383, 39.5419959], [-8.389882, 39.5419098], [-8.3897084, 39.5418098], [-8.3895533, 39.5417135], [-8.3894391, 39.5416417], [-8.3892644, 39.5415296], [-8.3890814, 39.5414124], [-8.3889565, 39.5413315], [-8.3888772, 39.541278], [-8.3887759, 39.5412031], [-8.3887196, 39.5411569], [-8.3886568, 39.5411002]]}, "properties": {"bicycle": "yes", "foot": "yes", "highway": "primary", "name": "Rua Doutor Oliveira Salazar", "name:etymology:wikidata": "Q151394", "name:etymology:wikimedia_commons": "File:Ant\u00f3nio_de_Oliveira_Salazar_portrait_(by_Manuel_Alves_San_Payo)_\u2013_Lisboa.jpg", "name:etymology:wikipedia": "pt:Ant\u00f3nio de Oliveira Salazar", "ref": "EN 358-1", "surface": "asphalt"}}, {"type": "Feature", "geometry": {"type": "LineString", "coordinates": [[-8.3436536, 39.4778693], [-8.3436516, 39.4779422], [-8.3436529, 39.4780147], [-8.343661, 39.4780799], [-8.343673, 39.4781472], [-8.3436972, 39.4782372], [-8.3437334, 39.47835], [-8.3437736, 39.4784558]]}, "properties": {"highway": "primary", "oneway": "yes", "ref": "EN 358-1"}}, {"type": "Feature", "geometry": {"type": "LineString", "coordinates": [[-8.3437736, 39.4784558], [-8.3437496, 39.4782119], [-8.3437391, 39.4781002], [-8.3437298, 39.4780353], [-8.3437251, 39.4779713], [-8.3437245, 39.47787]]}, "properties": {"highway": "primary", "oneway": "yes", "ref": "EN 358-1"}}, {"type": "Feature", "geometry": {"type": "LineString", "coordinates": [[-8.3534188, 39.4812005], [-8.3533682, 39.4811665], [-8.3532991, 39.4811273], [-8.3532239, 39.4810873], [-8.3531578, 39.4810535], [-8.3531204, 39.4810369], [-8.3530643, 39.481012], [-8.3529698, 39.4809759], [-8.3528417, 39.480928], [-8.3527319, 39.4808888], [-8.35255, 39.4808271]]}, "properties": {"highway": "primary", "oneway": "yes", "ref": "EN 358-1"}}, {"type": "Feature", "geometry": {"type": "LineString", "coordinates": [[-8.35255, 39.4808271], [-8.3527528, 39.480929], [-8.3528649, 39.4809866], [-8.3529723, 39.4810371]]}, "properties": {"highway": "primary", "oneway": "yes", "ref": "EN 358-1"}}, {"type": "Feature", "geometry": {"type": "LineString", "coordinates": [[-8.3841897, 39.5379844], [-8.3841445, 39.5379701], [-8.3840667, 39.5379518], [-8.3839444, 39.5379296], [-8.3838858, 39.5379144], [-8.3838686, 39.53791], [-8.3837973, 39.537881], [-8.3837354, 39.5378386], [-8.3836932, 39.5377997], [-8.3836671, 39.5377597], [-8.3836459, 39.5377143], [-8.3836307, 39.5376563], [-8.3836024, 39.5375339], [-8.3835423, 39.5372567], [-8.383539, 39.5372415], [-8.3834483, 39.5369352], [-8.3833383, 39.5366184], [-8.3832835, 39.5364731], [-8.3832245, 39.5363291], [-8.3831871, 39.5362493], [-8.383138, 39.5361678], [-8.3830861, 39.5360884], [-8.3830402, 39.5360286], [-8.3829735, 39.5359495], [-8.3829203, 39.535894], [-8.3827308, 39.5357383], [-8.382661, 39.5356738], [-8.3826171, 39.5356257], [-8.3825767, 39.5355696], [-8.3825433, 39.5355032], [-8.382522, 39.5354352], [-8.3825054, 39.5353216], [-8.3824887, 39.5352509], [-8.3824604, 39.5351964], [-8.3824113, 39.5351489], [-8.3823149, 39.5350908], [-8.3822393, 39.5350502], [-8.3821515, 39.5350145], [-8.382048, 39.5349855], [-8.3819514, 39.5349653], [-8.3818934, 39.5349461], [-8.3818364, 39.5349276], [-8.3817719, 39.534901], [-8.3817152, 39.5348764], [-8.3816705, 39.534853], [-8.3816052, 39.5348099], [-8.3815342, 39.5347595], [-8.381482, 39.5347092], [-8.381426, 39.5346482], [-8.3813831, 39.5345896], [-8.3813378, 39.5345189], [-8.3812717, 39.5344101], [-8.3812113, 39.5342834], [-8.3811544, 39.5341469], [-8.3811275, 39.5340624], [-8.3811146, 39.5339784], [-8.3811106, 39.5339093], [-8.3811241, 39.5338407], [-8.3811499, 39.5337737], [-8.3811933, 39.5337049], [-8.3812509, 39.5336373], [-8.3813059, 39.533573], [-8.381333, 39.5335097], [-8.3813414, 39.5334464], [-8.3813302, 39.5333783], [-8.381305, 39.5333038], [-8.3812456, 39.5331684], [-8.381057, 39.5327797], [-8.3810224, 39.5326915], [-8.3809949, 39.5326041], [-8.3809758, 39.5324941], [-8.3809635, 39.532404], [-8.3809651, 39.5323469], [-8.3809682, 39.5322937], [-8.3809834, 39.5322271], [-8.3809941, 39.532196], [-8.3810119, 39.532156], [-8.3810319, 39.5321267], [-8.3810586, 39.5320943]]}, "properties": {"bicycle": "yes", "foot": "yes", "highway": "primary", "name": "Rua da F\u00e1brica", "ref": "EN 358-1", "surface": "asphalt"}}, {"type": "Feature", "geometry": {"type": "LineString", "coordinates": [[-8.381416, 39.520861], [-8.3813832, 39.5205938], [-8.3813814, 39.5205795], [-8.3813728, 39.5204371], [-8.3813743, 39.5203586], [-8.3813886, 39.5202685], [-8.3814116, 39.5201978], [-8.3814513, 39.5201278], [-8.3815033, 39.5200588], [-8.381616, 39.5199411], [-8.3817054, 39.5198477], [-8.3817671, 39.5197642], [-8.3818124, 39.5196811], [-8.3819141, 39.5194575], [-8.3820365, 39.5191539], [-8.3820754, 39.5190474], [-8.382103, 39.5189428], [-8.3821191, 39.5188518], [-8.3821409, 39.5187117], [-8.3821599, 39.5184625], [-8.3821652, 39.5182368], [-8.3821525, 39.5181086], [-8.3820881, 39.5178778], [-8.3819874, 39.5176081], [-8.3818674, 39.5174154], [-8.3814242, 39.5168801], [-8.3812929, 39.5167534], [-8.3807941, 39.5164192], [-8.3806812, 39.5163303], [-8.38062, 39.5162795], [-8.3805617, 39.5162178], [-8.3804665, 39.5160697], [-8.3803881, 39.5159384], [-8.3803389, 39.5158444], [-8.3803204, 39.5157617], [-8.3803205, 39.5156871], [-8.3803342, 39.5156373], [-8.3803756, 39.5155308], [-8.3804092, 39.5154435], [-8.3804337, 39.5153764], [-8.3804463, 39.51532], [-8.3804508, 39.5152545], [-8.3804489, 39.5151734], [-8.3804357, 39.5150321], [-8.3804184, 39.5148159], [-8.3804056, 39.5146863], [-8.3804053, 39.5145794], [-8.3804076, 39.5145351], [-8.3804083, 39.5144337], [-8.3804236, 39.5143713], [-8.3804388, 39.5143018], [-8.3805104, 39.5141597]]}, "properties": {"bicycle": "yes", "foot": "yes", "highway": "primary", "name": "Rua Conde de Nova Goa", "ref": "EN 358-1", "surface": "asphalt"}}, {"type": "Feature", "geometry": {"type": "LineString", "coordinates": [[-8.3756404, 39.497461], [-8.3755737, 39.497307], [-8.3755073, 39.4971537], [-8.3753412, 39.49677], [-8.3752863, 39.496647], [-8.3752336, 39.4965269], [-8.3751892, 39.4964066], [-8.3751608, 39.4962962], [-8.3751365, 39.496166], [-8.3751053, 39.4959921], [-8.3750481, 39.4956661], [-8.3750421, 39.4956312], [-8.3750077, 39.4954327], [-8.3749708, 39.4952182], [-8.3749588, 39.4951321], [-8.3749592, 39.4950485], [-8.3749688, 39.4949654], [-8.3749966, 39.4948041], [-8.375021, 39.4946696], [-8.3750255, 39.4946008], [-8.3750196, 39.4945368], [-8.3749997, 39.4944674], [-8.3749753, 39.4944065], [-8.3749263, 39.4943124], [-8.3748425, 39.4941566], [-8.374795, 39.4940686], [-8.3747549, 39.4939854], [-8.3747223, 39.4939042], [-8.3747098, 39.4938604], [-8.3746969, 39.4937894], [-8.3746945, 39.4937235], [-8.3747015, 39.4936486], [-8.3747155, 39.4935734], [-8.3747371, 39.4934735], [-8.3747791, 39.4932961], [-8.3748261, 39.4931078], [-8.3748528, 39.4929726], [-8.3748651, 39.4928735], [-8.3748698, 39.4927533], [-8.3748603, 39.4926206], [-8.3748526, 39.4925218], [-8.3748548, 39.4924496], [-8.3748637, 39.4923829], [-8.3748645, 39.4923244], [-8.3748549, 39.4922612], [-8.3748413, 39.4922011], [-8.3748062, 39.4921066], [-8.3747299, 39.4919093], [-8.3746518, 39.491724], [-8.3746151, 39.4916544], [-8.374577, 39.4915939], [-8.3745293, 39.4915245], [-8.374049, 39.4910287], [-8.3740124, 39.4909962], [-8.3739418, 39.4909418], [-8.3738705, 39.4909006], [-8.3737848, 39.4908652], [-8.3737071, 39.4908408], [-8.3736172, 39.4908199], [-8.3734485, 39.4907947], [-8.3732855, 39.4907779], [-8.37293, 39.4907428], [-8.3727588, 39.4907211], [-8.3726269, 39.4906955], [-8.3725587, 39.4906745], [-8.3724944, 39.4906463], [-8.3723796, 39.4905874], [-8.3721518, 39.4904598], [-8.3719322, 39.4903286], [-8.3718721, 39.490286], [-8.3718226, 39.4902419], [-8.3717878, 39.4901932], [-8.3717492, 39.49013], [-8.3717056, 39.490029], [-8.3716733, 39.4899483], [-8.3716407, 39.489892], [-8.3715917, 39.4898276], [-8.3713754, 39.4896126], [-8.3712801, 39.4895327], [-8.3711905, 39.4894694], [-8.3710885, 39.4894122], [-8.370947, 39.4893409], [-8.3707679, 39.4892497], [-8.3706902, 39.4892093], [-8.3706226, 39.4891627], [-8.3705727, 39.4891207], [-8.3705131, 39.4890539], [-8.3704771, 39.4889995], [-8.3704386, 39.4889243], [-8.3704155, 39.4888486], [-8.3703918, 39.4887588], [-8.3703522, 39.4885889], [-8.3703297, 39.4885153], [-8.3702958, 39.4884547], [-8.370256, 39.4884026], [-8.3702173, 39.4883651], [-8.370171, 39.4883354], [-8.3701244, 39.4883135], [-8.3700754, 39.4882955], [-8.3700014, 39.4882796], [-8.369929, 39.4882751], [-8.369768, 39.4882716], [-8.3696861, 39.4882651], [-8.3696119, 39.4882527], [-8.36955, 39.4882342], [-8.3694963, 39.4882066], [-8.3694615, 39.4881796], [-8.369431, 39.4881445], [-8.3693996, 39.4880981], [-8.3693732, 39.4880341], [-8.36914, 39.4875314], [-8.3689904, 39.4871925], [-8.368893, 39.4870051], [-8.3686689, 39.4866269], [-8.3686189, 39.486552], [-8.3685777, 39.4864953], [-8.3685303, 39.4864473], [-8.3684885, 39.4864126], [-8.3684526, 39.4863869], [-8.3684117, 39.4863612], [-8.368337, 39.4863229], [-8.3682109, 39.4862731], [-8.3680618, 39.4862196], [-8.3677308, 39.4861147], [-8.3673616, 39.4859951], [-8.3671631, 39.485924], [-8.367043, 39.4858777], [-8.3669413, 39.4858324], [-8.3668268, 39.4857728], [-8.3667466, 39.4857239], [-8.3666422, 39.4856588], [-8.3665758, 39.4856026], [-8.3665113, 39.485545], [-8.3664328, 39.4854591]]}, "properties": {"bicycle": "yes", "foot": "yes", "highway": "primary", "name": "Rua d eCam\u00f5es", "ref": "EN 358-1", "surface": "asphalt"}}, {"type": "Feature", "geometry": {"type": "LineString", "coordinates": [[-8.3659878, 39.4850771], [-8.3658547, 39.4850049], [-8.365712, 39.4849341], [-8.365547, 39.4848492], [-8.3653852, 39.484755], [-8.3652495, 39.484667], [-8.3650468, 39.4845325]]}, "properties": {"highway": "primary", "name": "N358-1", "oneway": "no", "ref": "EN 358-1", "surface": "asphalt"}}, {"type": "Feature", "geometry": {"type": "LineString", "coordinates": [[-8.3825084, 39.5231842], [-8.3824616, 39.5231135], [-8.3823994, 39.523033], [-8.3823134, 39.5229325], [-8.3821536, 39.522771], [-8.3817985, 39.5223923], [-8.38171, 39.5222886], [-8.3816658, 39.522208], [-8.3816452, 39.5221585], [-8.3816282, 39.5221092], [-8.3815687, 39.521879], [-8.381522, 39.5216571], [-8.3814902, 39.5214724], [-8.3814683, 39.5212892], [-8.381452, 39.5211543], [-8.3814231, 39.5209188]]}, "properties": {"alt_name": "Estrada da Matrena", "bicycle": "yes", "foot": "yes", "highway": "primary", "maxspeed": "50", "name": "Rua Conde de Nova Goa", "ref": "EN 358-1", "surface": "asphalt"}}, {"type": "Feature", "geometry": {"type": "LineString", "coordinates": [[-8.3846525, 39.5272787], [-8.3845328, 39.5271309], [-8.3842594, 39.5268046], [-8.3839533, 39.5264347], [-8.3838559, 39.526317], [-8.3837723, 39.526216], [-8.3835988, 39.5260124], [-8.3832807, 39.525626], [-8.3831891, 39.5255106], [-8.3831246, 39.5253968], [-8.383078, 39.5252742], [-8.3829826, 39.5249377]]}, "properties": {"bicycle": "yes", "foot": "yes", "highway": "primary", "name": "Rua Estrada da Matrena", "ref": "EN 358-1", "surface": "asphalt"}}, {"type": "Feature", "geometry": {"type": "LineString", "coordinates": [[-8.3829826, 39.5249377], [-8.3829494, 39.524811]]}, "properties": {"alt_name": "Estrada da Matrena", "bicycle": "yes", "foot": "yes", "highway": "primary", "maxspeed": "50", "name": "Rua Estrada da Matrena", "ref": "EN 358-1", "surface": "asphalt"}}, {"type": "Feature", "geometry": {"type": "LineString", "coordinates": [[-8.3814231, 39.5209188], [-8.381416, 39.520861]]}, "properties": {"alt_name": "Estrada da Matrena", "bicycle": "yes", "foot": "yes", "highway": "primary", "maxspeed": "50", "name": "Rua Conde de Nova Goa", "ref": "EN 358-1", "surface": "asphalt"}}, {"type": "Feature", "geometry": {"type": "LineString", "coordinates": [[-8.3829494, 39.524811], [-8.3828819, 39.5245535], [-8.3827178, 39.5239313], [-8.3826561, 39.5236992], [-8.3826151, 39.5235332], [-8.3825744, 39.5233735], [-8.3825322, 39.5232422], [-8.3825084, 39.5231842]]}, "properties": {"alt_name": "Estrada da Matrena", "bicycle": "yes", "foot": "yes", "highway": "primary", "maxspeed": "50", "name": "Rua Estrada da Matrena", "ref": "EN 358-1", "surface": "asphalt"}}, {"type": "Feature", "geometry": {"type": "LineString", "coordinates": [[-8.3810586, 39.5320943], [-8.3810865, 39.5320668], [-8.3811213, 39.5320412], [-8.381191, 39.5320113], [-8.3813566, 39.5319521], [-8.3815193, 39.5319022], [-8.3815851, 39.5318723], [-8.381646, 39.531835], [-8.3817089, 39.5317749], [-8.381773, 39.5316887], [-8.3818559, 39.5315608], [-8.3819397, 39.5314305], [-8.3819966, 39.5313424], [-8.3820501, 39.5312508], [-8.3820862, 39.5311694], [-8.382115, 39.5310786], [-8.3821401, 39.5309335], [-8.3821759, 39.5307963], [-8.382209, 39.5306843], [-8.3822447, 39.5305936], [-8.3822728, 39.5305328], [-8.3823191, 39.5304672], [-8.3823747, 39.5304056], [-8.3824311, 39.5303628], [-8.3825055, 39.5303156], [-8.3826227, 39.5302585], [-8.3827828, 39.5302016], [-8.3829545, 39.5301443], [-8.3831177, 39.5301006], [-8.3832685, 39.5300703], [-8.3833808, 39.5300492], [-8.3834719, 39.5300243], [-8.3835352, 39.5299976], [-8.3835986, 39.5299565], [-8.3836521, 39.5298941], [-8.3837032, 39.529809], [-8.3837673, 39.5297073], [-8.3841418, 39.5290359], [-8.3846476, 39.528126], [-8.384787, 39.5278758], [-8.3848253, 39.5277801], [-8.3848484, 39.5277016], [-8.3848492, 39.5276205], [-8.3848352, 39.5275524], [-8.3848011, 39.5274807], [-8.3847551, 39.5274108], [-8.3846525, 39.5272787]]}, "properties": {"bicycle": "yes", "foot": "yes", "highway": "primary", "name": "Rua Estrada da Matrena", "ref": "EN 358-1", "surface": "asphalt"}}, {"type": "Feature", "geometry": {"type": "LineString", "coordinates": [[-8.3886568, 39.5411002], [-8.3885872, 39.54103], [-8.3885431, 39.5409825], [-8.3884899, 39.540919], [-8.3884262, 39.5408348], [-8.3883145, 39.5406872], [-8.3882303, 39.5405732], [-8.3881441, 39.5404701], [-8.3880574, 39.5403792], [-8.3879236, 39.5402617], [-8.3877739, 39.5401278], [-8.3875983, 39.5399755], [-8.3874477, 39.5398261], [-8.3873053, 39.5396593], [-8.3871706, 39.5394985], [-8.3869892, 39.5392763], [-8.3867998, 39.5390705], [-8.3865219, 39.5388119], [-8.3864756, 39.5387758], [-8.3863849, 39.5387294], [-8.3862915, 39.5387047], [-8.3861941, 39.5386861], [-8.3860128, 39.5386645], [-8.385813, 39.5386423], [-8.3856551, 39.5386239], [-8.3854253, 39.5386058], [-8.385313, 39.5385923], [-8.385136, 39.5385416], [-8.3847683, 39.5383346], [-8.3844233, 39.5381403], [-8.3842349, 39.5380041], [-8.3841897, 39.5379844]]}, "properties": {"bicycle": "yes", "foot": "yes", "highway": "primary", "name": "Rua Doutor Oliveira Salazar", "ref": "EN 358-1", "surface": "asphalt"}}]}