{"type": "FeatureCollection", "features": [{"type": "Feature", "geometry": {"type": "LineString", "coordinates": [[-7.2964226, 40.1713448], [-7.2952344, 40.17165], [-7.2945595, 40.1718141], [-7.2928807, 40.1719869], [-7.2924566, 40.1720305], [-7.2879591, 40.1723453], [-7.2864013, 40.1727399], [-7.2849689, 40.1729987], [-7.2834667, 40.1732701], [-7.2815128, 40.1736072], [-7.2811098, 40.1736767], [-7.2806463, 40.1736701], [-7.2803974, 40.1736373], [-7.2798739, 40.1734602], [-7.2775774, 40.172644], [-7.2770586, 40.172424], [-7.2755329, 40.1716871], [-7.2742526, 40.1710688], [-7.2737751, 40.1708383], [-7.2733851, 40.1707057], [-7.2730761, 40.170627], [-7.2709131, 40.1703909], [-7.2700541, 40.1703578], [-7.2697494, 40.1703783], [-7.2629178, 40.1712095], [-7.2626552, 40.1712056], [-7.2623875, 40.1711562], [-7.2621442, 40.1710555], [-7.2574088, 40.1673562], [-7.2571431, 40.167169], [-7.2568017, 40.1670375], [-7.2563951, 40.1669811], [-7.254783, 40.1670474], [-7.2500635, 40.1672413], [-7.2493198, 40.1672651], [-7.2490521, 40.167223], [-7.2487002, 40.1671181], [-7.2454643, 40.1652619], [-7.2447777, 40.164993], [-7.2409424, 40.1640996], [-7.2406664, 40.1640353], [-7.2398622, 40.1638913], [-7.2383711, 40.1636621], [-7.23204, 40.1627187], [-7.2226611, 40.1613205]]}, "properties": {"highway": "primary", "oneway": "no", "ref": "EN 346", "source": "Bing"}}, {"type": "Feature", "geometry": {"type": "LineString", "coordinates": [[-7.4433397, 40.2056914], [-7.4435787, 40.2059815], [-7.4440866, 40.2062771], [-7.4441195, 40.2062962], [-7.4441815, 40.2063062], [-7.4446087, 40.2063748], [-7.4451237, 40.2063617], [-7.4456387, 40.2062175], [-7.4458096, 40.2061138], [-7.4462652, 40.2058373], [-7.4466995, 40.205644], [-7.4469874, 40.2055685], [-7.4471249, 40.2055324], [-7.4477673, 40.2053784], [-7.4481255, 40.2052369], [-7.4483585, 40.2050653], [-7.4484544, 40.2049465], [-7.4485397, 40.2048409], [-7.4486084, 40.2046705], [-7.4485569, 40.2041461], [-7.4486886, 40.2037532], [-7.4490884, 40.2030249], [-7.4492115, 40.2028007], [-7.4499877, 40.2014069]]}, "properties": {"highway": "primary", "lanes": "2", "maxspeed": "90", "ref": "EN 346", "source": "Bing"}}, {"type": "Feature", "geometry": {"type": "LineString", "coordinates": [[-7.4499877, 40.2014069], [-7.4504686, 40.2010302], [-7.4517757, 40.2006473], [-7.4520152, 40.200484], [-7.4521767, 40.2001485], [-7.452332, 40.200021], [-7.4527339, 40.1998507], [-7.4531918, 40.1998719], [-7.4538188, 40.2003312], [-7.4541016, 40.200416], [-7.4544449, 40.2003504], [-7.4548875, 40.2002159], [-7.4551886, 40.2000088], [-7.4554788, 40.1997602], [-7.4557924, 40.1996293], [-7.4577034, 40.1992915], [-7.4579659, 40.1991155], [-7.4580255, 40.1990039], [-7.4581379, 40.1982671], [-7.4582022, 40.1979185], [-7.4583613, 40.1977578], [-7.4589527, 40.1975419], [-7.4593242, 40.1975087], [-7.4603367, 40.1976693], [-7.460808, 40.1978826], [-7.4610111, 40.1979296], [-7.4611409, 40.1979596], [-7.4621175, 40.198066], [-7.4625627, 40.1982983], [-7.4628999, 40.1983602], [-7.4635172, 40.1983312], [-7.464015, 40.1982132], [-7.4682391, 40.1964371], [-7.4685847, 40.1962981], [-7.4688215, 40.1962464], [-7.4691109, 40.196244], [-7.4704867, 40.1963972], [-7.4711469, 40.1964482], [-7.471651, 40.1964871], [-7.4724264, 40.1964825], [-7.4728556, 40.1964169], [-7.4732089, 40.1963067], [-7.4734722, 40.1961348], [-7.4741106, 40.1955954], [-7.4742568, 40.1955195], [-7.4744356, 40.1954778], [-7.4751355, 40.1954294], [-7.4759702, 40.1953707], [-7.4762598, 40.1953589], [-7.4765912, 40.195356], [-7.4769225, 40.1953826], [-7.47744, 40.1954696], [-7.4778277, 40.1955706], [-7.4784558, 40.1958236], [-7.4785119, 40.1958466], [-7.4800656, 40.1964829], [-7.4803102, 40.1966025], [-7.4804569, 40.1967243], [-7.4805083, 40.196767], [-7.4809669, 40.1973019], [-7.4810931, 40.197377], [-7.4814096, 40.1974707], [-7.4817571, 40.1975616], [-7.4821167, 40.1977609], [-7.4824858, 40.1980887], [-7.4829132, 40.1987742], [-7.4832153, 40.1993474], [-7.4833193, 40.1994743], [-7.4834299, 40.1995441], [-7.4835007, 40.1995796], [-7.4837303, 40.1996227], [-7.4853004, 40.1993964], [-7.4855499, 40.1993605], [-7.4861508, 40.1993998], [-7.4865198, 40.1995965], [-7.4866221, 40.1997169], [-7.4866918, 40.1997988], [-7.486949, 40.2001013], [-7.4872631, 40.2005924], [-7.4875946, 40.2008514], [-7.4879618, 40.2010106], [-7.4885256, 40.2010728], [-7.4886741, 40.2010659], [-7.4887638, 40.201052], [-7.4890451, 40.2010083], [-7.4894325, 40.2009488], [-7.4896344, 40.2009169], [-7.4898456, 40.2009099], [-7.4901685, 40.2009126], [-7.4904914, 40.2009439], [-7.4917314, 40.2010723], [-7.4919609, 40.201096], [-7.492317, 40.2011376], [-7.4933149, 40.2012541], [-7.4945021, 40.2013928], [-7.4952749, 40.2014635], [-7.49615, 40.2015435], [-7.4969423, 40.2016299], [-7.4977384, 40.2017068]]}, "properties": {"highway": "primary", "lanes": "2", "maxspeed": "90", "oneway": "no", "ref": "EN 346", "source": "Bing", "surface": "asphalt"}}, {"type": "Feature", "geometry": {"type": "LineString", "coordinates": [[-7.3615921, 40.1892562], [-7.3615861, 40.1890699], [-7.3615783, 40.1889959]]}, "properties": {"highway": "primary", "oneway": "yes", "ref": "EN 346"}}, {"type": "Feature", "geometry": {"type": "LineString", "coordinates": [[-7.3615921, 40.1892562], [-7.3617556, 40.189594]]}, "properties": {"highway": "primary", "ref": "EN 346"}}, {"type": "Feature", "geometry": {"type": "LineString", "coordinates": [[-7.3613629, 40.1889419], [-7.3614595, 40.1890903], [-7.3615104, 40.1891621]]}, "properties": {"highway": "primary", "oneway": "yes", "ref": "EN 346"}}, {"type": "Feature", "geometry": {"type": "LineString", "coordinates": [[-7.4979565, 40.2016783], [-7.4977384, 40.2017068]]}, "properties": {"highway": "primary", "oneway": "yes", "ref": "EN 346", "surface": "asphalt"}}, {"type": "Feature", "geometry": {"type": "LineString", "coordinates": [[-7.3615783, 40.1889959], [-7.3615077, 40.189074], [-7.3615104, 40.1891621], [-7.3615921, 40.1892562]]}, "properties": {"highway": "primary", "oneway": "yes", "ref": "EN 346"}}, {"type": "Feature", "geometry": {"type": "LineString", "coordinates": [[-7.4977384, 40.2017068], [-7.4979452, 40.2017669]]}, "properties": {"highway": "primary", "oneway": "yes", "ref": "EN 346", "surface": "asphalt"}}, {"type": "Feature", "geometry": {"type": "LineString", "coordinates": [[-7.3810392, 40.2042481], [-7.3812052, 40.2042225]]}, "properties": {"bridge": "yes", "highway": "primary", "layer": "1", "ref": "EN 346", "source": "Bing"}}, {"type": "Feature", "geometry": {"type": "LineString", "coordinates": [[-7.3641055, 40.1917541], [-7.3641627, 40.1917763], [-7.3644226, 40.1918861], [-7.3645129, 40.1919123], [-7.3648064, 40.1919447], [-7.3650348, 40.1919538], [-7.368459, 40.1921201], [-7.3690125, 40.1921566], [-7.3720131, 40.1926798], [-7.3725195, 40.1928634], [-7.3734636, 40.1933574], [-7.3737726, 40.1935191], [-7.3752476, 40.1946686], [-7.3754635, 40.1948369], [-7.3762016, 40.1956892], [-7.3763053, 40.1958549], [-7.3763455, 40.1959193], [-7.3764763, 40.1961284], [-7.3765192, 40.1963382], [-7.3759808, 40.1973524], [-7.3754501, 40.1981849], [-7.3754027, 40.1982999], [-7.3754978, 40.1986678], [-7.3752489, 40.1990196], [-7.3752342, 40.1991767], [-7.3756558, 40.1995899], [-7.375691, 40.1997526], [-7.3756378, 40.1998216], [-7.3752739, 40.2001411], [-7.3752318, 40.200239], [-7.3751874, 40.200438], [-7.3751748, 40.2004943], [-7.3751803, 40.200711], [-7.375189, 40.200743], [-7.3752428, 40.2009403], [-7.3752882, 40.2010045], [-7.3754028, 40.2010874], [-7.3756776, 40.201279], [-7.375849, 40.2013335], [-7.3759254, 40.201328], [-7.3762295, 40.201306], [-7.3763114, 40.2013408], [-7.3763804, 40.2013701], [-7.3764975, 40.2015003], [-7.376539, 40.2017149], [-7.3766136, 40.2021008], [-7.3767208, 40.2023106], [-7.3769312, 40.2025006], [-7.3770111, 40.2026635], [-7.3770825, 40.2034575], [-7.377185, 40.2035754], [-7.3775459, 40.2038375], [-7.3780213, 40.2041828], [-7.3785285, 40.2049438], [-7.3790929, 40.2051689], [-7.379381, 40.205207], [-7.3796389, 40.2050899], [-7.3804798, 40.2044438], [-7.380702, 40.2043325], [-7.3810392, 40.2042481]]}, "properties": {"highway": "primary", "ref": "EN 346", "source": "Bing"}}, {"type": "Feature", "geometry": {"type": "LineString", "coordinates": [[-7.3023634, 40.1703156], [-7.299469, 40.1706205], [-7.2975684, 40.1710632], [-7.2965183, 40.1713215]]}, "properties": {"highway": "primary", "oneway": "no", "ref": "EN 346", "source": "Bing"}}, {"type": "Feature", "geometry": {"type": "LineString", "coordinates": [[-7.3024574, 40.1703057], [-7.3023634, 40.1703156]]}, "properties": {"bridge": "yes", "highway": "primary", "layer": "1", "oneway": "no", "ref": "EN 346", "source": "Bing"}}, {"type": "Feature", "geometry": {"type": "LineString", "coordinates": [[-7.2965183, 40.1713215], [-7.2964226, 40.1713448]]}, "properties": {"bridge": "yes", "highway": "primary", "layer": "1", "oneway": "no", "ref": "EN 346", "source": "Bing"}}, {"type": "Feature", "geometry": {"type": "LineString", "coordinates": [[-7.3615783, 40.1889959], [-7.3614685, 40.188984], [-7.3613629, 40.1889419], [-7.361009, 40.1887405], [-7.3606595, 40.188613], [-7.3587952, 40.1879328], [-7.3577566, 40.1874017], [-7.3532333, 40.1843068], [-7.3511305, 40.1829232], [-7.3504439, 40.1824117], [-7.3493967, 40.1814543], [-7.3490963, 40.1812904], [-7.3451405, 40.1800101], [-7.3411491, 40.1777325], [-7.3406908, 40.1774682], [-7.339768, 40.1769281], [-7.3393067, 40.1767139], [-7.338848, 40.1766037], [-7.3382123, 40.1765124], [-7.3379548, 40.1765278], [-7.3377895, 40.1765144], [-7.3376222, 40.1764561], [-7.3373804, 40.1762737], [-7.3359642, 40.1753228], [-7.3350201, 40.1750539], [-7.3317928, 40.174339], [-7.331604, 40.1742276], [-7.3307028, 40.1732569], [-7.3296042, 40.1718338], [-7.3289948, 40.1712763], [-7.3281107, 40.1707385], [-7.3271322, 40.1702073], [-7.3230815, 40.1686136], [-7.3204975, 40.1675969], [-7.3192787, 40.1671968], [-7.3189869, 40.1671574], [-7.3180771, 40.1671968], [-7.316206, 40.1673673], [-7.3132448, 40.1680954], [-7.3098307, 40.1686646]]}, "properties": {"highway": "primary", "oneway": "no", "ref": "EN 346", "source": "Bing"}}, {"type": "Feature", "geometry": {"type": "LineString", "coordinates": [[-7.2001679, 40.1609196], [-7.1978369, 40.161287], [-7.1969271, 40.1615034], [-7.1930218, 40.1629203], [-7.1923437, 40.1629727], [-7.1912327, 40.1629565], [-7.1908103, 40.16296], [-7.1907153, 40.1629573], [-7.1906156, 40.1629528], [-7.1905351, 40.1629462], [-7.1904381, 40.1629371], [-7.1903552, 40.1629255], [-7.1902661, 40.1629116], [-7.1901742, 40.1628926], [-7.1900525, 40.1628631], [-7.1899583, 40.1628366], [-7.1898289, 40.1627967], [-7.1896507, 40.1627368], [-7.1892936, 40.1626139]]}, "properties": {"highway": "primary", "oneway": "no", "ref": "EN 346", "source": "Bing"}}, {"type": "Feature", "geometry": {"type": "LineString", "coordinates": [[-7.2003116, 40.160897], [-7.2001679, 40.1609196]]}, "properties": {"bridge": "yes", "highway": "primary", "layer": "1", "oneway": "no", "ref": "EN 346", "source": "Bing"}}, {"type": "Feature", "geometry": {"type": "LineString", "coordinates": [[-7.4396081, 40.2018041], [-7.4403429, 40.2026908], [-7.4417591, 40.2037724], [-7.4421887, 40.204294], [-7.4432881, 40.2056287], [-7.4433397, 40.2056914]]}, "properties": {"highway": "primary", "maxspeed": "50", "ref": "EN 346", "source": "Bing"}}, {"type": "Feature", "geometry": {"type": "LineString", "coordinates": [[-7.3962705, 40.1959782], [-7.3966791, 40.1959797], [-7.3968195, 40.1959754], [-7.3998373, 40.1958811], [-7.4000711, 40.1958629], [-7.4038633, 40.1952001], [-7.4054797, 40.194917], [-7.4061995, 40.194791], [-7.4078303, 40.1950073], [-7.4097534, 40.195428], [-7.4121829, 40.1959594], [-7.4149359, 40.1965907], [-7.4156123, 40.1966801], [-7.4195891, 40.1962137], [-7.4199999, 40.196272], [-7.4200862, 40.1962989], [-7.4211786, 40.1965773], [-7.423484, 40.1971787], [-7.4236981, 40.1973026], [-7.4238172, 40.1974369], [-7.4238987, 40.1975925], [-7.4240797, 40.1980853], [-7.4241566, 40.1982381], [-7.4243319, 40.1984286], [-7.4244872, 40.198515], [-7.4246383, 40.1985484], [-7.4248013, 40.1985298], [-7.4249591, 40.1984528], [-7.4250354, 40.1983786], [-7.4252071, 40.1981276], [-7.4253154, 40.1980916], [-7.4255021, 40.1980295], [-7.4264126, 40.1980023], [-7.4266231, 40.1980475], [-7.4267785, 40.1981473], [-7.4270053, 40.1983465], [-7.4272804, 40.1985585], [-7.4278545, 40.1986853], [-7.4283559, 40.1990168], [-7.4286319, 40.1991277], [-7.4289532, 40.1990852], [-7.4291996, 40.1989685], [-7.4299466, 40.1984905], [-7.4302516, 40.1983987], [-7.4304521, 40.1983069], [-7.4305337, 40.198174], [-7.4305768, 40.1978814], [-7.4306698, 40.1976429], [-7.4310022, 40.1973155], [-7.4311824, 40.1972881], [-7.431242, 40.197279], [-7.4332, 40.1973938], [-7.4335002, 40.1975226], [-7.4340868, 40.1977742], [-7.4342826, 40.197916], [-7.4343166, 40.1979572], [-7.4351502, 40.1989672], [-7.4351673, 40.1994457], [-7.4350901, 40.2002127], [-7.4350815, 40.200298], [-7.4352188, 40.2006913], [-7.4354506, 40.2009077], [-7.4363089, 40.2013797], [-7.4380255, 40.2014124], [-7.4389182, 40.20152], [-7.4391756, 40.2015763], [-7.4396081, 40.2018041]]}, "properties": {"highway": "primary", "ref": "EN 346", "source": "Bing"}}, {"type": "Feature", "geometry": {"type": "LineString", "coordinates": [[-7.3622578, 40.190595], [-7.3623205, 40.1907387], [-7.3624946, 40.1909078], [-7.3639519, 40.1916734], [-7.3641055, 40.1917541]]}, "properties": {"highway": "primary", "ref": "EN 346", "source": "Bing"}}, {"type": "Feature", "geometry": {"type": "LineString", "coordinates": [[-7.1870858, 40.1620081], [-7.1871501, 40.1620179], [-7.1872914, 40.1620423], [-7.187441, 40.1620729], [-7.1875116, 40.1620896], [-7.1875795, 40.1621057], [-7.1877108, 40.1621405], [-7.1878913, 40.1621941], [-7.1880901, 40.1622541], [-7.1883025, 40.1623189], [-7.1884912, 40.1623767], [-7.1886717, 40.1624296], [-7.1888467, 40.1624805], [-7.1890199, 40.16253], [-7.1892936, 40.1626139]]}, "properties": {"highway": "primary", "oneway": "yes", "ref": "EN 346"}}, {"type": "Feature", "geometry": {"type": "LineString", "coordinates": [[-7.1892936, 40.1626139], [-7.1890528, 40.1625169], [-7.188916, 40.1624591], [-7.1887656, 40.1624006], [-7.1885988, 40.1623393], [-7.1884046, 40.1622668], [-7.1882788, 40.1622208], [-7.1881886, 40.1621902], [-7.1880163, 40.1621338], [-7.1878877, 40.1620954], [-7.1877756, 40.1620648], [-7.1876434, 40.1620286], [-7.1875221, 40.1619986], [-7.1873982, 40.1619735], [-7.1872514, 40.1619463], [-7.1871094, 40.1619227]]}, "properties": {"highway": "primary", "oneway": "yes", "ref": "EN 346"}}, {"type": "Feature", "geometry": {"type": "LineString", "coordinates": [[-7.3812052, 40.2042225], [-7.3813951, 40.2041926], [-7.3816799, 40.2040546], [-7.3817923, 40.2038894], [-7.3818357, 40.2036704], [-7.3819265, 40.2030841], [-7.3826458, 40.2022571], [-7.3835043, 40.2012701], [-7.3837035, 40.2011496], [-7.3838823, 40.2010687], [-7.3840383, 40.2010651], [-7.3845894, 40.2011964], [-7.3849821, 40.2012332], [-7.3852278, 40.2011994], [-7.385581, 40.2011508], [-7.3856339, 40.2011435], [-7.3857493, 40.2011276], [-7.386158, 40.2011371], [-7.3865528, 40.2010191], [-7.3868275, 40.2008355], [-7.3869305, 40.2006389], [-7.3867245, 40.1996424], [-7.3866987, 40.1988098], [-7.3868704, 40.1985607], [-7.3873314, 40.1983568], [-7.3878644, 40.1981211], [-7.3885012, 40.1978395], [-7.388896, 40.1977215], [-7.3889917, 40.1977304], [-7.390029, 40.1978264], [-7.3906641, 40.1977412], [-7.3917736, 40.1975552], [-7.3918924, 40.1975317], [-7.395493, 40.1960614], [-7.395633, 40.1960229], [-7.3958001, 40.195988], [-7.3961504, 40.1959805]]}, "properties": {"highway": "primary", "ref": "EN 346", "source": "Bing"}}, {"type": "Feature", "geometry": {"type": "LineString", "coordinates": [[-7.3961504, 40.1959805], [-7.3962705, 40.1959782]]}, "properties": {"bridge": "yes", "highway": "primary", "layer": "1", "ref": "EN 346", "source": "Bing"}}, {"type": "Feature", "geometry": {"type": "LineString", "coordinates": [[-7.22248, 40.1612935], [-7.2212966, 40.1611171], [-7.2191675, 40.1608048], [-7.2189941, 40.1607848], [-7.2188026, 40.1607797], [-7.2186463, 40.1607946], [-7.2184883, 40.1608299], [-7.2177339, 40.1610873], [-7.217325, 40.1611896], [-7.2167588, 40.1612705], [-7.2156807, 40.1614032], [-7.2121011, 40.1618353], [-7.2120113, 40.1618443], [-7.209939, 40.1620872], [-7.2092953, 40.1620216], [-7.20781, 40.1615467], [-7.2052716, 40.1607351], [-7.2042484, 40.160408], [-7.2036648, 40.1604146], [-7.2011915, 40.1607526], [-7.2009432, 40.1607974], [-7.2003116, 40.160897]]}, "properties": {"highway": "primary", "oneway": "no", "ref": "EN 346", "source": "Bing"}}, {"type": "Feature", "geometry": {"type": "LineString", "coordinates": [[-7.2226611, 40.1613205], [-7.22248, 40.1612935]]}, "properties": {"bridge": "yes", "highway": "primary", "layer": "1", "oneway": "no", "ref": "EN 346", "source": "Bing"}}, {"type": "Feature", "geometry": {"type": "LineString", "coordinates": [[-7.3097273, 40.1686819], [-7.3054171, 40.1694005], [-7.3046446, 40.1695973], [-7.3044488, 40.1697014], [-7.303855, 40.1700171], [-7.3030159, 40.1702468], [-7.3024574, 40.1703057]]}, "properties": {"highway": "primary", "oneway": "no", "ref": "EN 346", "source": "Bing"}}, {"type": "Feature", "geometry": {"type": "LineString", "coordinates": [[-7.3098307, 40.1686646], [-7.3097273, 40.1686819]]}, "properties": {"bridge": "yes", "highway": "primary", "layer": "1", "oneway": "no", "ref": "EN 346", "source": "Bing"}}]}