{"type": "FeatureCollection", "features": [{"type": "Feature", "geometry": {"type": "LineString", "coordinates": [[-8.2893361, 38.035229], [-8.289365, 38.0351989], [-8.289384, 38.0351643], [-8.289387, 38.0350843], [-8.2893676, 38.0350443], [-8.2893351, 38.0350099], [-8.289292, 38.0349837], [-8.2892646, 38.0349734]]}, "properties": {"highway": "primary", "junction": "roundabout", "lanes": "2", "ref": "EN 121;EN 383"}}, {"type": "Feature", "geometry": {"type": "LineString", "coordinates": [[-8.2892646, 38.0349734], [-8.289214, 38.0349638], [-8.2891621, 38.0349648], [-8.2891122, 38.0349764], [-8.2890678, 38.0349977], [-8.289032, 38.0350274]]}, "properties": {"highway": "primary", "junction": "roundabout", "lanes": "2", "ref": "EN 121;EN 383"}}, {"type": "Feature", "geometry": {"type": "LineString", "coordinates": [[-8.2891464, 38.0352724], [-8.2892148, 38.0352758], [-8.2892806, 38.0352608], [-8.2893361, 38.035229]]}, "properties": {"highway": "primary", "junction": "roundabout", "lanes": "2", "ref": "EN 121;EN 383"}}, {"type": "Feature", "geometry": {"type": "LineString", "coordinates": [[-8.289032, 38.0350274], [-8.2890085, 38.0350604], [-8.2889958, 38.035097], [-8.2889956, 38.0351412], [-8.289011, 38.0351838], [-8.2890409, 38.0352213], [-8.289083, 38.0352507], [-8.2891135, 38.0352638], [-8.2891464, 38.0352724]]}, "properties": {"highway": "primary", "junction": "roundabout", "lanes": "2", "ref": "EN 121;EN 383"}}]}