{"type": "FeatureCollection", "features": [{"type": "Feature", "geometry": {"type": "LineString", "coordinates": [[-9.0222647, 38.532136], [-9.0222081, 38.532145], [-9.0221447, 38.532163], [-9.0220885, 38.5321774], [-9.0220416, 38.5321894], [-9.0219733, 38.5322023]]}, "properties": {"highway": "primary", "lanes": "1", "maxspeed": "50", "name": "Variante \u00e0 Estrada Nacional 379", "oneway": "yes", "ref": "EN 379", "surface": "asphalt"}}, {"type": "Feature", "geometry": {"type": "LineString", "coordinates": [[-8.915093, 38.5684642], [-8.9152218, 38.5684315], [-8.9164685, 38.568117], [-8.917715, 38.5678025], [-8.918237, 38.5676678], [-8.9185121, 38.5676027], [-8.9187718, 38.5675412], [-8.9189796, 38.5675008], [-8.9191508, 38.5674801], [-8.9192811, 38.567476], [-8.9193962, 38.5674901], [-8.9194934, 38.5675119], [-8.9196123, 38.5675515], [-8.9199661, 38.567686], [-8.9202553, 38.5677956], [-8.920551, 38.5679077], [-8.9206658, 38.5679421], [-8.9207891, 38.5679698]]}, "properties": {"highway": "primary", "lanes": "2", "name": "Rua Doutor Bernardo Teixeira Botelho", "oneway": "no", "ref": "EN 379", "surface": "asphalt"}}, {"type": "Feature", "geometry": {"type": "LineString", "coordinates": [[-9.0969996, 38.4651826], [-9.0968729, 38.4652832], [-9.0967064, 38.4654247]]}, "properties": {"destination": "Palmela;Vila Nova de Azeit\u00e3o;Set\u00fabal;Arr\u00e1bida", "highway": "primary", "oneway": "yes", "ref": "EN 379", "surface": "asphalt"}}, {"type": "Feature", "geometry": {"type": "LineString", "coordinates": [[-8.9043881, 38.5706262], [-8.9044896, 38.5705776], [-8.9046025, 38.5705235], [-8.9047243, 38.5704874], [-8.9048481, 38.5704765], [-8.9050336, 38.570484], [-8.9055952, 38.5705412], [-8.90586, 38.5705681], [-8.9061475, 38.5705976], [-8.9063162, 38.5706137], [-8.9063739, 38.570618], [-8.9064132, 38.5706201], [-8.9064415, 38.5706198], [-8.9064713, 38.5706182], [-8.9065096, 38.5706157], [-8.9065632, 38.5706086], [-8.9065993, 38.5706031]]}, "properties": {"highway": "primary", "maxspeed": "50", "name": "Alameda 25 de Abril", "oneway": "yes", "postal_code": "2950-772", "ref": "EN 379", "surface": "asphalt"}}, {"type": "Feature", "geometry": {"type": "LineString", "coordinates": [[-8.9058714, 38.5704943], [-8.9048898, 38.5703965]]}, "properties": {"highway": "primary", "maxspeed": "50", "name": "Alameda 25 de Abril", "oneway": "yes", "postal_code": "2950-772", "ref": "EN 379", "surface": "asphalt"}}, {"type": "Feature", "geometry": {"type": "LineString", "coordinates": [[-8.9066879, 38.5705892], [-8.9067662, 38.570575], [-8.9068393, 38.5705613], [-8.9069158, 38.5705449], [-8.9070043, 38.5705244], [-8.9073167, 38.5704443], [-8.9075665, 38.5703649]]}, "properties": {"highway": "primary", "maxspeed": "50", "name": "Rua Doutor Bernardo Teixeira Botelho", "oneway": "yes", "postal_code": "2950-298", "ref": "EN 379", "surface": "asphalt"}}, {"type": "Feature", "geometry": {"type": "LineString", "coordinates": [[-8.9075665, 38.5703649], [-8.907338, 38.5703839], [-8.9072561, 38.5703842], [-8.9072037, 38.5703836], [-8.9071647, 38.5703809], [-8.9071224, 38.5703768], [-8.9070835, 38.5703724], [-8.9070198, 38.5703647], [-8.9069463, 38.5703552], [-8.9068896, 38.5703483], [-8.9068358, 38.5703429], [-8.9066605, 38.5703276]]}, "properties": {"highway": "primary", "maxspeed": "50", "name": "Rua Doutor Bernardo Teixeira Botelho", "oneway": "yes", "postal_code": "2950-298", "ref": "EN 379", "surface": "asphalt"}}, {"type": "Feature", "geometry": {"type": "LineString", "coordinates": [[-8.9041256, 38.5705837], [-8.9041328, 38.5706135], [-8.9041504, 38.5706406]]}, "properties": {"highway": "primary", "junction": "roundabout", "maxspeed": "50", "ref": "EN 379", "surface": "asphalt"}}, {"type": "Feature", "geometry": {"type": "LineString", "coordinates": [[-8.9032994, 38.5739212], [-8.9035421, 38.57358], [-8.9035734, 38.5735361], [-8.903649, 38.5734142], [-8.9036582, 38.5733963], [-8.903688, 38.5733383], [-8.9037149, 38.5732759], [-8.9037323, 38.5732127], [-8.9037444, 38.5731281], [-8.903765, 38.5727966], [-8.9037666, 38.5727824], [-8.9037739, 38.5727171], [-8.9037953, 38.5726316], [-8.9038443, 38.5725018], [-8.9039511, 38.5722331], [-8.9040366, 38.5720184], [-8.9040694, 38.5719352], [-8.9041611, 38.5717044], [-8.904201, 38.5715967], [-8.9042198, 38.5715013], [-8.9042182, 38.5714527], [-8.904213, 38.5714209], [-8.9042021, 38.5713546], [-8.9041246, 38.5710341], [-8.9040816, 38.570834], [-8.9040815, 38.5707706], [-8.9041011, 38.5707102], [-8.9041228, 38.5706699], [-8.9041504, 38.5706406]]}, "properties": {"highway": "primary", "lanes": "2", "maxspeed": "50", "name": "Rua Jo\u00e3o Parrant\u00f3nio", "postal_code": "2950-311", "ref": "EN 379", "surface": "asphalt"}}, {"type": "Feature", "geometry": {"type": "LineString", "coordinates": [[-8.9990543, 38.5244721], [-8.9990445, 38.524514], [-8.9990204, 38.524558], [-8.9989847, 38.5246169], [-8.998923, 38.5246974]]}, "properties": {"highway": "primary", "oneway": "yes", "ref": "EN 379", "surface": "asphalt"}}, {"type": "Feature", "geometry": {"type": "LineString", "coordinates": [[-8.8736162, 38.5725516], [-8.8735929, 38.5725111], [-8.8735571, 38.5724765], [-8.8735112, 38.5724503], [-8.8734582, 38.5724341], [-8.873385, 38.5724298], [-8.8733139, 38.5724445], [-8.8732531, 38.5724767]]}, "properties": {"highway": "primary", "junction": "roundabout", "maxspeed": "50", "ref": "EN 379", "surface": "asphalt"}}, {"type": "Feature", "geometry": {"type": "LineString", "coordinates": [[-8.8845905, 38.5767011], [-8.8840745, 38.5767152], [-8.8831914, 38.5767431], [-8.8828311, 38.5767549], [-8.8803702, 38.5768358], [-8.8790837, 38.5768781], [-8.8790182, 38.5768803], [-8.8777364, 38.5769224]]}, "properties": {"highway": "primary", "maxspeed": "50", "name": "Avenida do Caminho de Ferro", "ref": "EN 379", "surface": "asphalt"}}, {"type": "Feature", "geometry": {"type": "LineString", "coordinates": [[-8.8882902, 38.5756967], [-8.8881918, 38.5757356]]}, "properties": {"highway": "primary", "maxspeed": "50", "name": "Avenida do Caminho de Ferro", "ref": "EN 379", "surface": "asphalt"}}, {"type": "Feature", "geometry": {"type": "LineString", "coordinates": [[-8.9926976, 38.5290936], [-8.9927581, 38.5290533], [-8.9934585, 38.5285875], [-8.9935881, 38.5285062], [-8.9938343, 38.5283381], [-8.9941447, 38.5281211], [-8.9944536, 38.5278756], [-8.9946479, 38.5277046], [-8.9954875, 38.5269654], [-8.9955476, 38.5269125], [-8.9958887, 38.5266187], [-8.9961519, 38.5264225], [-8.9964128, 38.5262652], [-8.9964631, 38.5262316]]}, "properties": {"highway": "primary", "name": "Rua 25 de Abril", "oneway": "no", "ref": "EN 379", "surface": "asphalt"}}, {"type": "Feature", "geometry": {"type": "LineString", "coordinates": [[-9.0292285, 38.527241], [-9.029455, 38.5269764], [-9.0296785, 38.5266224], [-9.0299251, 38.5261168], [-9.0300548, 38.5256566], [-9.0301139, 38.5251817], [-9.0301517, 38.5234264], [-9.0302086, 38.5226432], [-9.0304196, 38.5217475], [-9.0305703, 38.5213604]]}, "properties": {"highway": "primary", "lanes": "2", "maxspeed": "60", "name": "Variante \u00e0 Estrada Nacional 379", "ref": "EN 379", "surface": "asphalt"}}, {"type": "Feature", "geometry": {"type": "LineString", "coordinates": [[-9.0250478, 38.5302446], [-9.0251816, 38.530172], [-9.0253081, 38.5300948], [-9.0255698, 38.5299257], [-9.0258099, 38.5297726], [-9.0265977, 38.5292445], [-9.026686, 38.529186], [-9.0270348, 38.5289451]]}, "properties": {"highway": "primary", "maxspeed": "60", "name": "Variante \u00e0 Estrada Nacional 379", "oneway": "yes", "ref": "EN 379", "surface": "asphalt"}}, {"type": "Feature", "geometry": {"type": "LineString", "coordinates": [[-9.0292285, 38.527241], [-9.0290344, 38.527393], [-9.0286935, 38.5276743], [-9.0276688, 38.5283942], [-9.027425, 38.5285599], [-9.0273701, 38.528598]]}, "properties": {"highway": "primary", "maxheight": "5.55", "maxspeed": "60", "name": "Variante \u00e0 Estrada Nacional 379", "oneway": "yes", "ref": "EN 379", "surface": "asphalt"}}, {"type": "Feature", "geometry": {"type": "LineString", "coordinates": [[-9.0366501, 38.5112544], [-9.036275, 38.5117919], [-9.0359208, 38.5122551], [-9.0358351, 38.5123443], [-9.0356206, 38.5125673], [-9.0353948, 38.5127789], [-9.0352398, 38.5129033], [-9.0351562, 38.5129704], [-9.0350002, 38.5130956], [-9.0340422, 38.5138215], [-9.033671, 38.5142151], [-9.0335885, 38.514348], [-9.0334701, 38.5145386]]}, "properties": {"highway": "primary", "maxspeed": "60", "name": "Variante \u00e0 Estrada Nacional 379", "oneway": "yes", "ref": "EN 379", "source": "bing", "surface": "asphalt"}}, {"type": "Feature", "geometry": {"type": "LineString", "coordinates": [[-9.0375809, 38.5096069], [-9.0379318, 38.5090672], [-9.0382999, 38.5084432], [-9.0389687, 38.5072461], [-9.0391598, 38.5069424]]}, "properties": {"highway": "primary", "maxspeed": "60", "name": "Variante \u00e0 Estrada Nacional 379", "oneway": "yes", "ref": "EN 379", "source": "bing", "surface": "asphalt"}}, {"type": "Feature", "geometry": {"type": "LineString", "coordinates": [[-9.0366501, 38.5112544], [-9.0372489, 38.5101855], [-9.0375809, 38.5096069]]}, "properties": {"highway": "primary", "lanes": "2", "maxspeed": "60", "name": "Variante \u00e0 Estrada Nacional 379", "ref": "EN 379", "source": "bing", "surface": "asphalt"}}, {"type": "Feature", "geometry": {"type": "LineString", "coordinates": [[-9.0334701, 38.5145386], [-9.0341286, 38.5138822], [-9.0346369, 38.5134881], [-9.0350986, 38.5131307], [-9.0351468, 38.5130934], [-9.0352381, 38.5130196], [-9.0353176, 38.5129553], [-9.03544, 38.5128564], [-9.035488, 38.512814], [-9.0357403, 38.5125911], [-9.0360288, 38.512284], [-9.0363735, 38.511807], [-9.0366501, 38.5112544]]}, "properties": {"highway": "primary", "maxspeed": "60", "name": "Variante \u00e0 Estrada Nacional 379", "oneway": "yes", "ref": "EN 379", "source": "bing", "surface": "asphalt"}}, {"type": "Feature", "geometry": {"type": "LineString", "coordinates": [[-9.0390573, 38.5068981], [-9.0386834, 38.5075405], [-9.0381851, 38.5084026], [-9.0378596, 38.5090264], [-9.0375809, 38.5096069]]}, "properties": {"highway": "primary", "maxspeed": "60", "name": "Variante \u00e0 Estrada Nacional 379", "oneway": "yes", "ref": "EN 379", "source": "bing", "surface": "asphalt"}}, {"type": "Feature", "geometry": {"type": "LineString", "coordinates": [[-9.0222647, 38.532136], [-9.0224357, 38.5320293], [-9.0229504, 38.5316729], [-9.0239656, 38.5309837], [-9.0248671, 38.530368], [-9.0250478, 38.5302446]]}, "properties": {"highway": "primary", "lanes": "2", "maxspeed": "70", "name": "Variante \u00e0 Estrada Nacional 379", "oneway": "no", "ref": "EN 379", "surface": "asphalt"}}, {"type": "Feature", "geometry": {"type": "LineString", "coordinates": [[-8.946016, 38.5653113], [-8.9460906, 38.5653018], [-8.9461544, 38.5652708], [-8.9461983, 38.5652233]]}, "properties": {"highway": "primary", "junction": "roundabout", "lane_markings": "yes", "lanes": "2", "ref": "EN 379", "source": "bing", "surface": "asphalt"}}, {"type": "Feature", "geometry": {"type": "LineString", "coordinates": [[-8.9456359, 38.565364], [-8.9457407, 38.565334], [-8.9457882, 38.5653209], [-8.9458358, 38.5653127], [-8.945942, 38.5652975]]}, "properties": {"highway": "primary", "lane_markings": "no", "name": "Rua Ven\u00e2ncio da Costa Lima", "oneway": "yes", "postal_code": "2953-301;2950-701", "postal_code:description": "2953-301:Cacifo CTT Minipre\u00e7o Quinta do Anjo", "ref": "EN 379", "source": "bing", "surface": "asphalt"}}, {"type": "Feature", "geometry": {"type": "LineString", "coordinates": [[-8.94583, 38.5651551], [-8.9457741, 38.5652334], [-8.9457435, 38.5652696], [-8.9457123, 38.5653003], [-8.9456359, 38.565364]]}, "properties": {"highway": "primary", "lane_markings": "no", "name": "Rua Ven\u00e2ncio da Costa Lima", "oneway": "yes", "postal_code": "2953-301;2950-701", "postal_code:description": "2953-301:Cacifo CTT Minipre\u00e7o Quinta do Anjo", "ref": "EN 379", "source": "bing", "surface": "asphalt"}}, {"type": "Feature", "geometry": {"type": "LineString", "coordinates": [[-8.9463867, 38.5649702], [-8.9462802, 38.5650036], [-8.9462415, 38.5650137], [-8.9461946, 38.5650212], [-8.9461025, 38.565023]]}, "properties": {"highway": "primary", "lane_markings": "no", "name": "Rua Ven\u00e2ncio da Costa Lima", "oneway": "yes", "postal_code": "2953-301;2950-701", "postal_code:description": "2953-301:Cacifo CTT Minipre\u00e7o Quinta do Anjo", "ref": "EN 379", "source": "bing", "surface": "asphalt"}}, {"type": "Feature", "geometry": {"type": "LineString", "coordinates": [[-8.9462157, 38.5651657], [-8.9462599, 38.5650983], [-8.9462862, 38.5650676], [-8.9463263, 38.5650287], [-8.9463867, 38.5649702]]}, "properties": {"highway": "primary", "lane_markings": "no", "name": "Rua Ven\u00e2ncio da Costa Lima", "oneway": "yes", "postal_code": "2953-301;2950-701", "postal_code:description": "2953-301:Cacifo CTT Minipre\u00e7o Quinta do Anjo", "ref": "EN 379", "source": "bing", "surface": "asphalt"}}, {"type": "Feature", "geometry": {"type": "LineString", "coordinates": [[-8.9658662, 38.5568843], [-8.9659879, 38.5568528], [-8.9662273, 38.5567907], [-8.9663058, 38.5567704], [-8.9665148, 38.5567163], [-8.9668836, 38.5566207], [-8.9674186, 38.5564819], [-8.9674396, 38.5564765], [-8.9676626, 38.5564189], [-8.9677215, 38.5564036], [-8.9680698, 38.5563137], [-8.9685321, 38.5561936], [-8.9688016, 38.5561238], [-8.9689571, 38.5560835], [-8.969214, 38.5560169]]}, "properties": {"highway": "primary", "lit": "yes", "name": "Avenida Visconde Tojal", "oneway": "no", "ref": "EN 379", "surface": "asphalt"}}, {"type": "Feature", "geometry": {"type": "LineString", "coordinates": [[-8.998923, 38.5246974], [-8.9990498, 38.5246485], [-8.9991315, 38.5246262], [-8.9992644, 38.5246226]]}, "properties": {"highway": "primary", "oneway": "yes", "ref": "EN 379", "surface": "asphalt"}}, {"type": "Feature", "geometry": {"type": "LineString", "coordinates": [[-9.0220989, 38.5323466], [-9.0221171, 38.5323133], [-9.0221427, 38.5322731], [-9.0221811, 38.5322243], [-9.022208, 38.5321938], [-9.0222647, 38.532136]]}, "properties": {"highway": "primary", "lanes": "1", "maxspeed": "50", "name": "Variante \u00e0 Estrada Nacional 379", "oneway": "yes", "ref": "EN 379", "surface": "asphalt"}}, {"type": "Feature", "geometry": {"type": "LineString", "coordinates": [[-9.0779801, 38.4757444], [-9.077882, 38.4758089], [-9.0778568, 38.475826], [-9.0777304, 38.4759117], [-9.0777047, 38.4759291], [-9.077229, 38.4762614], [-9.0770594, 38.4763761], [-9.0769269, 38.4764657], [-9.0762439, 38.4769275], [-9.0754727, 38.4774489], [-9.0752393, 38.4776735], [-9.0752134, 38.4777065], [-9.0750612, 38.4779005], [-9.0743401, 38.4788309]]}, "properties": {"highway": "primary", "lanes": "2", "maxspeed": "50", "ref": "EN 379", "source": "bing", "surface": "asphalt"}}, {"type": "Feature", "geometry": {"type": "LineString", "coordinates": [[-9.0818276, 38.473624], [-9.0821048, 38.4734731], [-9.0825585, 38.4732352], [-9.0832723, 38.4728492], [-9.083587, 38.4726803], [-9.0846932, 38.4720801], [-9.0853704, 38.4717126], [-9.0854906, 38.4716473]]}, "properties": {"highway": "primary", "lanes": "2", "maxspeed": "50", "ref": "EN 379", "source": "bing", "surface": "asphalt"}}, {"type": "Feature", "geometry": {"type": "LineString", "coordinates": [[-9.0795727, 38.4748512], [-9.079843, 38.4747047], [-9.0799395, 38.4746537]]}, "properties": {"highway": "primary", "maxspeed": "50", "ref": "EN 379", "source": "bing", "surface": "asphalt"}}, {"type": "Feature", "geometry": {"type": "LineString", "coordinates": [[-9.0892487, 38.4692204], [-9.0893098, 38.4691878], [-9.0896197, 38.4690426], [-9.0901001, 38.468851], [-9.0904672, 38.4687412], [-9.0910605, 38.4685751], [-9.091412, 38.4685194], [-9.0919302, 38.4684876], [-9.0921523, 38.4684462], [-9.0923688, 38.468337], [-9.0926203, 38.4681486], [-9.0928189, 38.468008]]}, "properties": {"highway": "primary", "lanes": "2", "maxspeed": "50", "ref": "EN 379", "source": "bing", "surface": "asphalt"}}, {"type": "Feature", "geometry": {"type": "LineString", "coordinates": [[-9.0969996, 38.4651826], [-9.0969878, 38.4652119], [-9.0969891, 38.4652606], [-9.0970053, 38.4652988], [-9.097044, 38.4653406], [-9.097102, 38.4653708], [-9.0971311, 38.4653799]]}, "properties": {"highway": "primary", "junction": "roundabout", "name": "Rotunda do Espadarte", "ref": "EN 379;EN 378", "surface": "asphalt"}}, {"type": "Feature", "geometry": {"type": "LineString", "coordinates": [[-9.0967064, 38.4654247], [-9.0967861, 38.4653963], [-9.0968702, 38.4653772], [-9.0969569, 38.4653678], [-9.0970445, 38.4653684], [-9.0971311, 38.4653799]]}, "properties": {"highway": "primary", "oneway": "yes", "ref": "EN 379", "source": "bing"}}, {"type": "Feature", "geometry": {"type": "LineString", "coordinates": [[-8.8950803, 38.5770192], [-8.895054, 38.5769925], [-8.8950205, 38.5769712], [-8.8949816, 38.5769567]]}, "properties": {"highway": "primary", "junction": "roundabout", "maxspeed": "50", "ref": "EN 379", "surface": "asphalt"}}, {"type": "Feature", "geometry": {"type": "LineString", "coordinates": [[-8.896101, 38.5770253], [-8.8957839, 38.5770074], [-8.8955964, 38.577011], [-8.8953869, 38.577018], [-8.8952576, 38.577026], [-8.8950803, 38.5770192]]}, "properties": {"highway": "primary", "maxspeed": "50", "oneway": "yes", "ref": "EN 379", "surface": "asphalt"}}, {"type": "Feature", "geometry": {"type": "LineString", "coordinates": [[-8.8934493, 38.5770763], [-8.894082, 38.5771087], [-8.8943225, 38.5771127], [-8.8945666, 38.5771196], [-8.8946522, 38.5771301], [-8.894759, 38.5771607]]}, "properties": {"highway": "primary", "maxspeed": "50", "oneway": "yes", "ref": "EN 379", "surface": "asphalt"}}, {"type": "Feature", "geometry": {"type": "LineString", "coordinates": [[-8.8950842, 38.5771626], [-8.8951392, 38.5771254], [-8.8951968, 38.5771018], [-8.8952706, 38.5770857], [-8.8953434, 38.5770785], [-8.8954866, 38.5770731], [-8.8958006, 38.5770594], [-8.896101, 38.5770253]]}, "properties": {"highway": "primary", "maxspeed": "50", "oneway": "yes", "ref": "EN 379", "surface": "asphalt"}}, {"type": "Feature", "geometry": {"type": "LineString", "coordinates": [[-8.8947721, 38.5770082], [-8.8947116, 38.5770275], [-8.8946476, 38.5770424], [-8.8946025, 38.5770479], [-8.8945348, 38.5770501], [-8.8943642, 38.5770498], [-8.8941432, 38.5770486], [-8.8940821, 38.5770497], [-8.8934493, 38.5770763]]}, "properties": {"highway": "primary", "maxspeed": "50", "oneway": "yes", "ref": "EN 379", "surface": "asphalt"}}, {"type": "Feature", "geometry": {"type": "LineString", "coordinates": [[-8.8995045, 38.5783178], [-8.8995972, 38.5783144], [-8.8996838, 38.5783112], [-8.8999495, 38.5782978], [-8.9005327, 38.5782664], [-8.9010224, 38.5782419], [-8.9014566, 38.5782265], [-8.9016519, 38.5782197], [-8.9017691, 38.5782082], [-8.9018545, 38.5781806], [-8.9019426, 38.5781313], [-8.9020224, 38.5780648], [-8.9020816, 38.5779856], [-8.9022184, 38.5777176], [-8.9023067, 38.5775463], [-8.9023334, 38.5774946], [-8.9023416, 38.5774787], [-8.9023993, 38.5773668], [-8.9024893, 38.5771913], [-8.9025024, 38.5771672], [-8.9025414, 38.5770954], [-8.9025764, 38.5770309], [-8.9026427, 38.5769362], [-8.9027339, 38.576839], [-8.9029425, 38.5766731], [-8.9030845, 38.576555], [-8.9031498, 38.5764871], [-8.9031891, 38.5764287], [-8.9032301, 38.576351], [-8.9032503, 38.5762583], [-8.9032617, 38.5761913], [-8.9032645, 38.575998], [-8.9032602, 38.5757447], [-8.9032488, 38.5751448], [-8.9032471, 38.5750583], [-8.9032459, 38.5749923], [-8.9032413, 38.574751]]}, "properties": {"highway": "primary", "maxspeed": "50", "ref": "EN 379", "surface": "asphalt"}}, {"type": "Feature", "geometry": {"type": "LineString", "coordinates": [[-8.8742614, 38.5769969], [-8.8742, 38.5769471], [-8.8738418, 38.5759128], [-8.8737747, 38.5756675], [-8.8733918, 38.5739055], [-8.873178, 38.572961]]}, "properties": {"highway": "primary", "lanes": "2", "maxspeed": "50", "name": "Rua das Pereiras", "ref": "EN 379", "surface": "asphalt"}}, {"type": "Feature", "geometry": {"type": "LineString", "coordinates": [[-8.877314, 38.5769365], [-8.8769356, 38.5769473]]}, "properties": {"highway": "primary", "maxspeed": "50", "name": "Avenida do Caminho de Ferro", "ref": "EN 379", "surface": "asphalt"}}, {"type": "Feature", "geometry": {"type": "LineString", "coordinates": [[-8.8777364, 38.5769224], [-8.877314, 38.5769365]]}, "properties": {"highway": "primary", "maxspeed": "50", "name": "Avenida do Caminho de Ferro", "ref": "EN 379", "surface": "asphalt"}}, {"type": "Feature", "geometry": {"type": "LineString", "coordinates": [[-8.8907094, 38.5769924], [-8.8909272, 38.5770709], [-8.8912852, 38.5771153], [-8.8913246, 38.5771202], [-8.8930405, 38.5770892], [-8.8934493, 38.5770763]]}, "properties": {"highway": "primary", "lanes": "2", "maxspeed": "50", "ref": "EN 379", "surface": "asphalt"}}, {"type": "Feature", "geometry": {"type": "LineString", "coordinates": [[-8.8905936, 38.5768691], [-8.8905967, 38.5768106], [-8.8905753, 38.5767544], [-8.8905318, 38.5767068], [-8.8904998, 38.5766889], [-8.8904708, 38.5766727], [-8.890399, 38.5766558], [-8.8903711, 38.5766567], [-8.8903239, 38.5766582]]}, "properties": {"highway": "primary", "junction": "roundabout", "lanes": "2", "lit": "yes", "maxspeed": "50", "ref": "EN 379", "surface": "asphalt"}}, {"type": "Feature", "geometry": {"type": "LineString", "coordinates": [[-8.8904539, 38.5769986], [-8.8907094, 38.5769924]]}, "properties": {"highway": "primary", "maxspeed": "50", "oneway": "yes", "ref": "EN 379", "surface": "asphalt"}}, {"type": "Feature", "geometry": {"type": "LineString", "coordinates": [[-8.8907094, 38.5769924], [-8.8905936, 38.5768691]]}, "properties": {"highway": "primary", "maxspeed": "50", "oneway": "yes", "ref": "EN 379", "surface": "asphalt"}}, {"type": "Feature", "geometry": {"type": "LineString", "coordinates": [[-8.9349083, 38.5675924], [-8.9349681, 38.5675892], [-8.9350478, 38.567585], [-8.9355209, 38.5675571], [-8.9361072, 38.5675225], [-8.9373561, 38.5674488], [-8.9379618, 38.5674131], [-8.938293, 38.5673936], [-8.9385422, 38.5673786], [-8.9386773, 38.5673708], [-8.9388127, 38.5673629], [-8.9389553, 38.5673535], [-8.9391157, 38.5673429], [-8.9393843, 38.5673376], [-8.9398667, 38.5673445], [-8.9407599, 38.5673668], [-8.9408756, 38.5673697], [-8.9410486, 38.5673739], [-8.9411732, 38.567377], [-8.9415726, 38.5673868], [-8.9416042, 38.5673876], [-8.9417827, 38.5673798]]}, "properties": {"highway": "primary", "lanes": "2", "name": "Rua Ven\u00e2ncio da Costa Lima", "oneway": "no", "postal_code": "2953-301;2950-701", "postal_code:description": "2953-301:Cacifo CTT Minipre\u00e7o Quinta do Anjo", "ref": "EN 379", "surface": "asphalt"}}, {"type": "Feature", "geometry": {"type": "LineString", "coordinates": [[-9.0546682, 38.4957943], [-9.054784, 38.4962486], [-9.0548013, 38.4963768]]}, "properties": {"bridge": "yes", "highway": "primary", "layer": "1", "maxspeed": "50", "ref": "EN 379", "source": "bing"}}, {"type": "Feature", "geometry": {"type": "LineString", "coordinates": [[-9.0522756, 38.4977288], [-9.0517788, 38.4976893], [-9.0514479, 38.497663], [-9.0513371, 38.4976667], [-9.0512247, 38.4976924], [-9.0499017, 38.4980664], [-9.0488544, 38.4983625], [-9.0486702, 38.4984727], [-9.0485723, 38.498638], [-9.0483789, 38.4990972]]}, "properties": {"highway": "primary", "maxspeed": "60", "ref": "EN 379", "source": "bing"}}, {"type": "Feature", "geometry": {"type": "LineString", "coordinates": [[-8.9043881, 38.5706262], [-8.9044022, 38.5705801], [-8.9043897, 38.5705338], [-8.904353, 38.570496], [-8.9042992, 38.5704741]]}, "properties": {"highway": "primary", "junction": "roundabout", "maxspeed": "50", "ref": "EN 379", "surface": "asphalt"}}, {"type": "Feature", "geometry": {"type": "LineString", "coordinates": [[-8.9041504, 38.5706406], [-8.9041811, 38.5706654], [-8.9042203, 38.5706814], [-8.9042437, 38.5706844], [-8.9042639, 38.5706869], [-8.9043075, 38.5706813]]}, "properties": {"highway": "primary", "junction": "roundabout", "lane_markings": "no", "maxspeed": "50", "ref": "EN 379", "surface": "asphalt"}}, {"type": "Feature", "geometry": {"type": "LineString", "coordinates": [[-8.9032413, 38.574751], [-8.9032327, 38.5741666], [-8.9032362, 38.5741164], [-8.9032438, 38.5740652], [-8.9032574, 38.5740104], [-8.9032757, 38.5739655], [-8.9032994, 38.5739212]]}, "properties": {"highway": "primary", "maxspeed": "50", "ref": "EN 379"}}, {"type": "Feature", "geometry": {"type": "LineString", "coordinates": [[-8.9042243, 38.570475], [-8.9041833, 38.5704908], [-8.904151, 38.5705161], [-8.9041311, 38.5705482], [-8.9041256, 38.5705837]]}, "properties": {"highway": "primary", "junction": "roundabout", "maxspeed": "50", "ref": "EN 379", "surface": "asphalt"}}, {"type": "Feature", "geometry": {"type": "LineString", "coordinates": [[-8.9048452, 38.5703913], [-8.904741, 38.5703908], [-8.9045963, 38.5704054], [-8.9044643, 38.5704279], [-8.9042992, 38.5704741]]}, "properties": {"highway": "primary", "maxspeed": "50", "name": "Alameda 25 de Abril", "oneway": "yes", "postal_code": "2950-772", "ref": "EN 379", "surface": "asphalt"}}, {"type": "Feature", "geometry": {"type": "LineString", "coordinates": [[-8.9043075, 38.5706813], [-8.9043257, 38.5706732], [-8.9043549, 38.5706601], [-8.9043881, 38.5706262]]}, "properties": {"highway": "primary", "junction": "roundabout", "maxspeed": "50", "ref": "EN 379", "surface": "asphalt"}}, {"type": "Feature", "geometry": {"type": "LineString", "coordinates": [[-9.097172, 38.4653828], [-9.0972446, 38.4653731], [-9.0973128, 38.4653385], [-9.0973535, 38.4652908]]}, "properties": {"highway": "primary", "junction": "roundabout", "name": "Rotunda do Espadarte", "ref": "EN 379;EN 378", "surface": "asphalt"}}, {"type": "Feature", "geometry": {"type": "LineString", "coordinates": [[-8.8904539, 38.5769986], [-8.8905182, 38.5769685], [-8.8905665, 38.5769237], [-8.8905936, 38.5768691]]}, "properties": {"highway": "primary", "junction": "roundabout", "lit": "yes", "maxspeed": "50", "ref": "EN 379", "surface": "asphalt"}}, {"type": "Feature", "geometry": {"type": "LineString", "coordinates": [[-8.8947721, 38.5770082], [-8.8947446, 38.5770511], [-8.8947366, 38.5770987], [-8.894759, 38.5771607]]}, "properties": {"highway": "primary", "junction": "roundabout", "maxspeed": "50", "ref": "EN 379", "surface": "asphalt"}}, {"type": "Feature", "geometry": {"type": "LineString", "coordinates": [[-8.8948292, 38.5772223], [-8.8948945, 38.5772366], [-8.894909, 38.5772369], [-8.8949396, 38.5772375], [-8.8949836, 38.5772298], [-8.8950238, 38.5772141], [-8.895058, 38.5771912], [-8.8950842, 38.5771626]]}, "properties": {"highway": "primary", "junction": "roundabout", "maxspeed": "50", "ref": "EN 379", "surface": "asphalt"}}, {"type": "Feature", "geometry": {"type": "LineString", "coordinates": [[-8.8950842, 38.5771626], [-8.8951045, 38.5771154], [-8.8951032, 38.5770657], [-8.8950803, 38.5770192]]}, "properties": {"highway": "primary", "junction": "roundabout", "maxspeed": "50", "ref": "EN 379", "surface": "asphalt"}}, {"type": "Feature", "geometry": {"type": "LineString", "coordinates": [[-8.894759, 38.5771607], [-8.8947731, 38.5771799], [-8.8948079, 38.5772077], [-8.8948292, 38.5772223]]}, "properties": {"highway": "primary", "junction": "roundabout", "maxspeed": "50", "ref": "EN 379", "surface": "asphalt"}}, {"type": "Feature", "geometry": {"type": "LineString", "coordinates": [[-8.8903807, 38.5770109], [-8.8904539, 38.5769986]]}, "properties": {"highway": "primary", "junction": "roundabout", "lit": "yes", "maxspeed": "50", "ref": "EN 379", "surface": "asphalt"}}, {"type": "Feature", "geometry": {"type": "LineString", "coordinates": [[-8.8901851, 38.5769368], [-8.8902385, 38.5769782], [-8.8903063, 38.5770038], [-8.8903807, 38.5770109]]}, "properties": {"highway": "primary", "junction": "roundabout", "lit": "yes", "maxspeed": "50", "ref": "EN 379", "surface": "asphalt"}}, {"type": "Feature", "geometry": {"type": "LineString", "coordinates": [[-8.8903239, 38.5766582], [-8.8902537, 38.5766795], [-8.8901963, 38.5767175], [-8.8901578, 38.5767681], [-8.8901425, 38.5768256]]}, "properties": {"highway": "primary", "junction": "roundabout", "lit": "yes", "maxspeed": "50", "ref": "EN 379", "surface": "asphalt"}}, {"type": "Feature", "geometry": {"type": "LineString", "coordinates": [[-8.8901425, 38.5768256], [-8.8901519, 38.576884], [-8.8901851, 38.5769368]]}, "properties": {"highway": "primary", "junction": "roundabout", "lanes": "2", "lit": "yes", "maxspeed": "50", "ref": "EN 379", "surface": "asphalt"}}, {"type": "Feature", "geometry": {"type": "LineString", "coordinates": [[-8.8731947, 38.5726526], [-8.8732311, 38.5727071], [-8.8732896, 38.5727481], [-8.8733629, 38.5727705]]}, "properties": {"highway": "primary", "junction": "roundabout", "maxspeed": "50", "ref": "EN 379", "surface": "asphalt"}}, {"type": "Feature", "geometry": {"type": "LineString", "coordinates": [[-8.8732531, 38.5724767], [-8.8732056, 38.5725281], [-8.8731853, 38.5725895], [-8.8731947, 38.5726526]]}, "properties": {"highway": "primary", "junction": "roundabout", "maxspeed": "50", "ref": "EN 379", "surface": "asphalt"}}, {"type": "Feature", "geometry": {"type": "LineString", "coordinates": [[-8.8735433, 38.5727357], [-8.8735838, 38.5727024], [-8.8736116, 38.5726618], [-8.8736247, 38.572617], [-8.8736222, 38.572571]]}, "properties": {"highway": "primary", "junction": "roundabout", "maxspeed": "50", "ref": "EN 379", "surface": "asphalt"}}, {"type": "Feature", "geometry": {"type": "LineString", "coordinates": [[-9.0305703, 38.5213604], [-9.0306053, 38.5212704], [-9.0306208, 38.5212364]]}, "properties": {"highway": "primary", "lanes": "2", "maxspeed": "60", "name": "Variante \u00e0 Estrada Nacional 379", "ref": "EN 379", "surface": "asphalt"}}, {"type": "Feature", "geometry": {"type": "LineString", "coordinates": [[-9.0306634, 38.5211412], [-9.0306728, 38.5211235], [-9.0307193, 38.5210313], [-9.03079, 38.5208911], [-9.0310656, 38.5204027], [-9.0323187, 38.5187483], [-9.0325636, 38.5183352], [-9.0327256, 38.5178922], [-9.0328468, 38.5173441], [-9.0328967, 38.516205], [-9.0330079, 38.5155336], [-9.0332198, 38.5149803], [-9.0334701, 38.5145386]]}, "properties": {"highway": "primary", "lanes": "2", "maxspeed": "60", "name": "Variante \u00e0 Estrada Nacional 379", "ref": "EN 379", "surface": "asphalt"}}, {"type": "Feature", "geometry": {"type": "LineString", "coordinates": [[-9.0306208, 38.5212364], [-9.0306634, 38.5211412]]}, "properties": {"highway": "primary", "lanes": "2", "maxspeed": "60", "name": "Variante \u00e0 Estrada Nacional 379", "ref": "EN 379", "surface": "asphalt"}}, {"type": "Feature", "geometry": {"type": "LineString", "coordinates": [[-9.0854906, 38.4716473], [-9.0856725, 38.4715492], [-9.0858984, 38.4714308]]}, "properties": {"highway": "primary", "maxspeed": "50", "ref": "EN 379", "surface": "asphalt"}}, {"type": "Feature", "geometry": {"type": "LineString", "coordinates": [[-8.9521261, 38.5617358], [-8.9523282, 38.5615777], [-8.9525478, 38.5614389], [-8.9527497, 38.5613431], [-8.9529741, 38.5612558], [-8.9534489, 38.5610984], [-8.9546768, 38.5606683], [-8.9551921, 38.5604897]]}, "properties": {"highway": "primary", "oneway": "no", "ref": "EN 379", "surface": "asphalt"}}, {"type": "Feature", "geometry": {"type": "LineString", "coordinates": [[-8.9883663, 38.5343853], [-8.9884497, 38.534162], [-8.9885356, 38.5339387], [-8.9885588, 38.5338773], [-8.988769, 38.5333229], [-8.988783, 38.5332849], [-8.988982, 38.5327441], [-8.9890461, 38.5325701], [-8.9891097, 38.5323972], [-8.9891645, 38.5322559], [-8.98919, 38.5321866], [-8.9892125, 38.5321305], [-8.9892347, 38.5320689]]}, "properties": {"highway": "primary", "lanes": "2", "name": "Rua 25 de Abril", "oneway": "no", "ref": "EN 379", "surface": "asphalt"}}, {"type": "Feature", "geometry": {"type": "LineString", "coordinates": [[-9.0270348, 38.5289451], [-9.0271628, 38.528858]]}, "properties": {"highway": "primary", "maxspeed": "60", "name": "Variante \u00e0 Estrada Nacional 379", "oneway": "yes", "ref": "EN 379", "surface": "asphalt"}}, {"type": "Feature", "geometry": {"type": "LineString", "coordinates": [[-9.027294, 38.5287724], [-9.0274159, 38.5286856]]}, "properties": {"highway": "primary", "maxspeed": "60", "name": "Variante \u00e0 Estrada Nacional 379", "oneway": "yes", "ref": "EN 379", "surface": "asphalt"}}, {"type": "Feature", "geometry": {"type": "LineString", "coordinates": [[-9.0269564, 38.5288802], [-9.0267813, 38.5289997], [-9.0261607, 38.5294228], [-9.0257155, 38.5297393], [-9.0254951, 38.5298991], [-9.025274, 38.5300579], [-9.0251571, 38.5301504], [-9.0250478, 38.5302446]]}, "properties": {"highway": "primary", "maxheight": "5.55", "maxspeed": "60", "name": "Variante \u00e0 Estrada Nacional 379", "oneway": "yes", "ref": "EN 379", "surface": "asphalt"}}, {"type": "Feature", "geometry": {"type": "LineString", "coordinates": [[-9.0270836, 38.5287988], [-9.0269564, 38.5288802]]}, "properties": {"highway": "primary", "maxheight": "5.55", "maxspeed": "60", "name": "Variante \u00e0 Estrada Nacional 379", "oneway": "yes", "ref": "EN 379", "surface": "asphalt"}}, {"type": "Feature", "geometry": {"type": "LineString", "coordinates": [[-9.0273701, 38.528598], [-9.0272193, 38.5287023]]}, "properties": {"highway": "primary", "maxheight": "5.55", "maxspeed": "60", "name": "Variante \u00e0 Estrada Nacional 379", "oneway": "yes", "ref": "EN 379", "surface": "asphalt"}}, {"type": "Feature", "geometry": {"type": "LineString", "coordinates": [[-9.0274159, 38.5286856], [-9.0284618, 38.5279568], [-9.0287966, 38.5276967], [-9.0292285, 38.527241]]}, "properties": {"highway": "primary", "maxspeed": "60", "name": "Variante \u00e0 Estrada Nacional 379", "oneway": "yes", "ref": "EN 379", "surface": "asphalt"}}, {"type": "Feature", "geometry": {"type": "LineString", "coordinates": [[-8.9066879, 38.5705892], [-8.9067138, 38.5705779], [-8.9067375, 38.5705616], [-8.9067572, 38.5705435], [-8.9067609, 38.5705384], [-8.9067725, 38.5705225], [-8.9067825, 38.5705015], [-8.9067888, 38.5704766], [-8.9067891, 38.5704536], [-8.9067846, 38.570429], [-8.9067752, 38.5704072], [-8.9067604, 38.5703853], [-8.9067409, 38.5703661], [-8.9067188, 38.5703504], [-8.9066926, 38.5703377], [-8.9066605, 38.5703276]]}, "properties": {"highway": "primary", "junction": "roundabout", "maxspeed": "50", "ref": "EN 379", "surface": "asphalt"}}, {"type": "Feature", "geometry": {"type": "LineString", "coordinates": [[-8.9048898, 38.5703965], [-8.9048452, 38.5703913]]}, "properties": {"highway": "primary", "maxspeed": "50", "name": "Alameda 25 de Abril", "oneway": "yes", "postal_code": "2950-772", "ref": "EN 379"}}, {"type": "Feature", "geometry": {"type": "LineString", "coordinates": [[-8.9042992, 38.5704741], [-8.9042617, 38.5704705], [-8.9042243, 38.570475]]}, "properties": {"highway": "primary", "junction": "roundabout", "maxspeed": "50", "ref": "EN 379", "surface": "asphalt"}}, {"type": "Feature", "geometry": {"type": "LineString", "coordinates": [[-8.9064754, 38.5703682], [-8.9063229, 38.5704305], [-8.9062872, 38.5704458], [-8.9062547, 38.5704586], [-8.9062296, 38.5704674], [-8.9061948, 38.5704777], [-8.906159, 38.5704857], [-8.9061224, 38.5704914], [-8.9060914, 38.5704952], [-8.9060591, 38.5704983], [-8.9060227, 38.5705008], [-8.9059915, 38.5705014], [-8.9059624, 38.5705008], [-8.9059327, 38.5704993], [-8.9058714, 38.5704943]]}, "properties": {"highway": "primary", "maxspeed": "50", "name": "Alameda 25 de Abril", "oneway": "yes", "postal_code": "2950-772", "ref": "EN 379", "surface": "asphalt"}}, {"type": "Feature", "geometry": {"type": "LineString", "coordinates": [[-8.9064754, 38.5703682], [-8.9064586, 38.5703858], [-8.9064444, 38.5704064], [-8.9064354, 38.5704271], [-8.9064311, 38.5704502], [-8.9064301, 38.5704721], [-8.9064342, 38.5704949], [-8.9064432, 38.5705161], [-8.9064579, 38.5705378], [-8.9064735, 38.5705545], [-8.9064942, 38.570571], [-8.9065178, 38.5705835], [-8.9065409, 38.5705927]]}, "properties": {"highway": "primary", "junction": "roundabout", "maxspeed": "50", "ref": "EN 379", "surface": "asphalt"}}, {"type": "Feature", "geometry": {"type": "LineString", "coordinates": [[-8.9066605, 38.5703276], [-8.90665, 38.5703256], [-8.9066357, 38.5703229], [-8.9066044, 38.5703217], [-8.9065758, 38.5703247], [-8.9065477, 38.5703302], [-8.9065195, 38.5703402], [-8.9064974, 38.5703523]]}, "properties": {"highway": "primary", "junction": "roundabout", "maxspeed": "50", "ref": "EN 379", "surface": "asphalt"}}, {"type": "Feature", "geometry": {"type": "LineString", "coordinates": [[-8.9779973, 38.5515082], [-8.9792226, 38.5507878], [-8.980215, 38.5501998], [-8.9806118, 38.5499734], [-8.9807613, 38.5498844], [-8.9809445, 38.5497753]]}, "properties": {"highway": "primary", "name": "Avenida Visconde Tojal", "oneway": "no", "ref": "EN 379", "surface": "asphalt"}}, {"type": "Feature", "geometry": {"type": "LineString", "coordinates": [[-8.9595242, 38.5589846], [-8.9596507, 38.5589403], [-8.9598901, 38.5588564], [-8.9604491, 38.5586606], [-8.9606328, 38.5585962], [-8.9610256, 38.5584586], [-8.9619309, 38.5581414], [-8.9633279, 38.557652], [-8.9637483, 38.5575054], [-8.9638461, 38.5574712], [-8.9641585, 38.5573619], [-8.964339, 38.5572993], [-8.9643907, 38.5572814], [-8.964558, 38.5572287], [-8.9645678, 38.5572256], [-8.9646893, 38.5571918]]}, "properties": {"highway": "primary", "name": "Avenida Visconde Tojal", "oneway": "no", "ref": "EN 379", "sidewalk": "both", "surface": "asphalt"}}, {"type": "Feature", "geometry": {"type": "LineString", "coordinates": [[-8.9872014, 38.5372978], [-8.9873354, 38.5369757], [-8.987366, 38.5368827]]}, "properties": {"highway": "primary", "name": "Rua 25 de Abril", "oneway": "no", "ref": "EN 379", "surface": "asphalt"}}, {"type": "Feature", "geometry": {"type": "LineString", "coordinates": [[-8.9834056, 38.5468202], [-8.9839372, 38.5455243], [-8.9851981, 38.5423407], [-8.9864728, 38.5391374], [-8.987078, 38.5376166], [-8.9872014, 38.5372978]]}, "properties": {"highway": "primary", "lanes": "2", "name": "Rua 25 de Abril", "oneway": "no", "ref": "EN 379", "surface": "asphalt"}}, {"type": "Feature", "geometry": {"type": "LineString", "coordinates": [[-8.9830972, 38.5476538], [-8.9831517, 38.5475073], [-8.9832117, 38.5473453]]}, "properties": {"highway": "primary", "name": "Rua 25 de Abril", "oneway": "no", "ref": "EN 379", "surface": "asphalt"}}, {"type": "Feature", "geometry": {"type": "LineString", "coordinates": [[-8.9825145, 38.5487851], [-8.9826379, 38.5486471], [-8.9828202, 38.5483626], [-8.9829624, 38.5480107], [-8.9830972, 38.5476538]]}, "properties": {"highway": "primary", "lanes": "2", "maxspeed": "90", "maxspeed:type": "sign", "name": "Rua 25 de Abril", "oneway": "no", "ref": "EN 379", "surface": "asphalt"}}, {"type": "Feature", "geometry": {"type": "LineString", "coordinates": [[-8.9819634, 38.5491688], [-8.9821095, 38.5490783], [-8.9822869, 38.5489618]]}, "properties": {"highway": "primary", "name": "Avenida Visconde Tojal", "oneway": "no", "ref": "EN 379", "surface": "asphalt"}}, {"type": "Feature", "geometry": {"type": "LineString", "coordinates": [[-8.9822869, 38.5489618], [-8.9823384, 38.548928], [-8.9824264, 38.5488645], [-8.9825145, 38.5487851]]}, "properties": {"highway": "primary", "name": "Avenida Visconde Tojal", "oneway": "no", "ref": "EN 379", "surface": "asphalt"}}, {"type": "Feature", "geometry": {"type": "LineString", "coordinates": [[-8.9725772, 38.5547149], [-8.9729182, 38.5545153]]}, "properties": {"highway": "primary", "lanes": "2", "name": "Avenida Visconde Tojal", "oneway": "no", "ref": "EN 379", "smoothness": "intermediate", "surface": "asphalt"}}, {"type": "Feature", "geometry": {"type": "LineString", "coordinates": [[-8.9729182, 38.5545153], [-8.9730633, 38.5544312], [-8.9731514, 38.5543783], [-8.9735216, 38.5541588], [-8.9753771, 38.5530583], [-8.9758323, 38.5527888], [-8.9759972, 38.5526907], [-8.9760971, 38.5526318], [-8.9766639, 38.5522971], [-8.9771068, 38.5520355], [-8.9772127, 38.551973], [-8.9779973, 38.5515082]]}, "properties": {"highway": "primary", "lanes": "2", "name": "Avenida Visconde Tojal", "oneway": "no", "ref": "EN 379", "smoothness": "intermediate", "surface": "asphalt"}}, {"type": "Feature", "geometry": {"type": "LineString", "coordinates": [[-8.9649087, 38.5571324], [-8.9650993, 38.557083]]}, "properties": {"highway": "primary", "name": "Avenida Visconde Tojal", "oneway": "no", "ref": "EN 379", "surface": "asphalt"}}, {"type": "Feature", "geometry": {"type": "LineString", "coordinates": [[-8.9646893, 38.5571918], [-8.964821, 38.5571551], [-8.9649087, 38.5571324]]}, "properties": {"highway": "primary", "name": "Avenida Visconde Tojal", "oneway": "no", "ref": "EN 379", "surface": "asphalt"}}, {"type": "Feature", "geometry": {"type": "LineString", "coordinates": [[-8.9653477, 38.5570187], [-8.96551, 38.5569766], [-8.9657288, 38.5569199], [-8.9658662, 38.5568843]]}, "properties": {"highway": "primary", "name": "Avenida Visconde Tojal", "oneway": "no", "ref": "EN 379", "surface": "asphalt"}}, {"type": "Feature", "geometry": {"type": "LineString", "coordinates": [[-8.9588884, 38.5592049], [-8.9591494, 38.5591155]]}, "properties": {"highway": "primary", "name": "Avenida Visconde Tojal", "oneway": "no", "ref": "EN 379", "surface": "asphalt"}}, {"type": "Feature", "geometry": {"type": "LineString", "coordinates": [[-8.9556664, 38.5603274], [-8.9562234, 38.5601291], [-8.957231, 38.5597797], [-8.9573142, 38.5597509], [-8.9587996, 38.5592359], [-8.9588884, 38.5592049]]}, "properties": {"highway": "primary", "name": "Avenida Visconde Tojal", "oneway": "no", "ref": "EN 379", "surface": "asphalt"}}, {"type": "Feature", "geometry": {"type": "LineString", "coordinates": [[-8.9555837, 38.5603559], [-8.9556664, 38.5603274]]}, "properties": {"highway": "primary", "oneway": "no", "ref": "EN 379", "surface": "asphalt"}}, {"type": "Feature", "geometry": {"type": "LineString", "coordinates": [[-8.9551921, 38.5604897], [-8.9555837, 38.5603559]]}, "properties": {"highway": "primary", "oneway": "no", "ref": "EN 379", "surface": "asphalt"}}, {"type": "Feature", "geometry": {"type": "LineString", "coordinates": [[-8.9502676, 38.5629139], [-8.9505426, 38.5627684], [-8.950744, 38.5626617]]}, "properties": {"highway": "primary", "name": "Rua Ven\u00e2ncio da Costa Lima", "oneway": "no", "postal_code": "2953-301;2950-701", "postal_code:description": "2953-301:Cacifo CTT Minipre\u00e7o Quinta do Anjo", "ref": "EN 379", "surface": "asphalt"}}, {"type": "Feature", "geometry": {"type": "LineString", "coordinates": [[-8.9468596, 38.564727], [-8.9478404, 38.5642295], [-8.9480004, 38.5641466], [-8.9483698, 38.5639551], [-8.9498632, 38.5631297]]}, "properties": {"highway": "primary", "name": "Rua Ven\u00e2ncio da Costa Lima", "oneway": "no", "postal_code": "2953-301;2950-701", "postal_code:description": "2953-301:Cacifo CTT Minipre\u00e7o Quinta do Anjo", "ref": "EN 379", "surface": "asphalt"}}, {"type": "Feature", "geometry": {"type": "LineString", "coordinates": [[-8.9344477, 38.5676204], [-8.9345092, 38.5676167], [-8.9349083, 38.5675924]]}, "properties": {"highway": "primary", "lane_markings": "yes", "lanes": "2", "name": "Rua Ven\u00e2ncio da Costa Lima", "oneway": "no", "postal_code": "2953-301;2950-701", "postal_code:description": "2953-301:Cacifo CTT Minipre\u00e7o Quinta do Anjo", "ref": "EN 379", "surface": "asphalt"}}, {"type": "Feature", "geometry": {"type": "LineString", "coordinates": [[-8.9299784, 38.5674521], [-8.9302044, 38.5674838], [-8.9313782, 38.5676469], [-8.9313968, 38.5676494], [-8.9319959, 38.5677341], [-8.932104, 38.5677449], [-8.9322307, 38.567748], [-8.9323669, 38.5677439], [-8.932721, 38.5677219], [-8.9329919, 38.5677056], [-8.9336094, 38.5676686], [-8.9342092, 38.5676344], [-8.9343118, 38.5676285], [-8.9344477, 38.5676204]]}, "properties": {"highway": "primary", "name": "Rua Ven\u00e2ncio da Costa Lima", "oneway": "no", "postal_code": "2953-301;2950-701", "postal_code:description": "2953-301:Cacifo CTT Minipre\u00e7o Quinta do Anjo", "ref": "EN 379", "surface": "asphalt"}}, {"type": "Feature", "geometry": {"type": "LineString", "coordinates": [[-8.9259451, 38.5665526], [-8.9260518, 38.5665685], [-8.9262374, 38.5666039], [-8.9263762, 38.5666387], [-8.9264678, 38.5666699]]}, "properties": {"highway": "primary", "oneway": "no", "ref": "EN 379", "surface": "asphalt"}}, {"type": "Feature", "geometry": {"type": "LineString", "coordinates": [[-8.9264678, 38.5666699], [-8.9266946, 38.5667665], [-8.927219, 38.567033], [-8.9276261, 38.5672438], [-8.9277213, 38.5672877], [-8.9277718, 38.5673137], [-8.9280048, 38.5674345], [-8.928125, 38.5674838], [-8.9282363, 38.5675184], [-8.9283711, 38.5675435]]}, "properties": {"highway": "primary", "lanes": "2", "oneway": "no", "ref": "EN 379", "surface": "asphalt"}}, {"type": "Feature", "geometry": {"type": "LineString", "coordinates": [[-8.9064974, 38.5703523], [-8.9064754, 38.5703682]]}, "properties": {"highway": "primary", "junction": "roundabout", "maxspeed": "50", "ref": "EN 379", "surface": "asphalt"}}, {"type": "Feature", "geometry": {"type": "LineString", "coordinates": [[-8.898736, 38.5782361], [-8.8988468, 38.5782755], [-8.8989077, 38.5782927], [-8.898965, 38.5783052], [-8.8989775, 38.5783079], [-8.8990409, 38.5783153]]}, "properties": {"highway": "primary", "maxspeed": "50", "ref": "EN 379", "surface": "asphalt"}}, {"type": "Feature", "geometry": {"type": "LineString", "coordinates": [[-8.896101, 38.5770253], [-8.8963965, 38.5770221], [-8.8964322, 38.5770246], [-8.8965594, 38.5770336], [-8.8966548, 38.5770535], [-8.8967869, 38.5770927], [-8.8969275, 38.57716], [-8.8971128, 38.5772621], [-8.8972558, 38.5773398], [-8.8975835, 38.5775456], [-8.8976653, 38.5775969], [-8.8978171, 38.5776963], [-8.8980838, 38.5778709], [-8.8981645, 38.5779198], [-8.8982774, 38.5779882], [-8.8985239, 38.5781374], [-8.898736, 38.5782361]]}, "properties": {"highway": "primary", "maxspeed": "50", "ref": "EN 379", "surface": "asphalt"}}, {"type": "Feature", "geometry": {"type": "LineString", "coordinates": [[-8.8736222, 38.572571], [-8.8736162, 38.5725516]]}, "properties": {"highway": "primary", "junction": "roundabout", "maxspeed": "50", "ref": "EN 379", "surface": "asphalt"}}, {"type": "Feature", "geometry": {"type": "LineString", "coordinates": [[-8.8733629, 38.5727705], [-8.8734265, 38.5727729], [-8.8734884, 38.572761], [-8.8735433, 38.5727357]]}, "properties": {"highway": "primary", "junction": "roundabout", "maxspeed": "50", "ref": "EN 379", "surface": "asphalt"}}, {"type": "Feature", "geometry": {"type": "LineString", "coordinates": [[-8.9065993, 38.5706031], [-8.9066293, 38.5706023], [-8.906659, 38.5705975], [-8.9066879, 38.5705892]]}, "properties": {"highway": "primary", "junction": "roundabout", "maxspeed": "50", "ref": "EN 379", "surface": "asphalt"}}, {"type": "Feature", "geometry": {"type": "LineString", "coordinates": [[-8.9065409, 38.5705927], [-8.9065716, 38.5706], [-8.9065993, 38.5706031]]}, "properties": {"highway": "primary", "junction": "roundabout", "maxspeed": "50", "ref": "EN 379", "surface": "asphalt"}}, {"type": "Feature", "geometry": {"type": "LineString", "coordinates": [[-9.0973682, 38.4652365], [-9.0973573, 38.4651823], [-9.0973245, 38.4651368], [-9.0972743, 38.4651031], [-9.0972158, 38.4650854]]}, "properties": {"highway": "primary", "junction": "roundabout", "name": "Rotunda do Espadarte", "ref": "EN 379;EN 378", "surface": "asphalt"}}, {"type": "Feature", "geometry": {"type": "LineString", "coordinates": [[-9.0971311, 38.4653799], [-9.097172, 38.4653828]]}, "properties": {"highway": "primary", "junction": "roundabout", "name": "Rotunda do Espadarte", "ref": "EN 379;EN 378"}}, {"type": "Feature", "geometry": {"type": "LineString", "coordinates": [[-8.9832733, 38.5471756], [-8.9833287, 38.5470269], [-8.9834056, 38.5468202]]}, "properties": {"highway": "primary", "lanes": "2", "name": "Rua 25 de Abril", "oneway": "no", "ref": "EN 379", "surface": "asphalt"}}, {"type": "Feature", "geometry": {"type": "LineString", "coordinates": [[-8.9832117, 38.5473453], [-8.9832582, 38.5472189], [-8.9832733, 38.5471756]]}, "properties": {"highway": "primary", "lanes": "2", "name": "Rua 25 de Abril", "oneway": "no", "ref": "EN 379", "surface": "asphalt"}}, {"type": "Feature", "geometry": {"type": "LineString", "coordinates": [[-8.9650993, 38.557083], [-8.9651767, 38.557063], [-8.9653477, 38.5570187]]}, "properties": {"highway": "primary", "name": "Avenida Visconde Tojal", "oneway": "no", "ref": "EN 379", "surface": "asphalt"}}, {"type": "Feature", "geometry": {"type": "LineString", "coordinates": [[-8.9593134, 38.5590567], [-8.9595242, 38.5589846]]}, "properties": {"highway": "primary", "name": "Avenida Visconde Tojal", "oneway": "no", "ref": "EN 379", "surface": "asphalt"}}, {"type": "Feature", "geometry": {"type": "LineString", "coordinates": [[-8.9591494, 38.5591155], [-8.9593134, 38.5590567]]}, "properties": {"highway": "primary", "name": "Avenida Visconde Tojal", "oneway": "no", "ref": "EN 379", "surface": "asphalt"}}, {"type": "Feature", "geometry": {"type": "LineString", "coordinates": [[-8.9498632, 38.5631297], [-8.9502676, 38.5629139]]}, "properties": {"highway": "primary", "name": "Rua Ven\u00e2ncio da Costa Lima", "oneway": "no", "postal_code": "2953-301;2950-701", "postal_code:description": "2953-301:Cacifo CTT Minipre\u00e7o Quinta do Anjo", "ref": "EN 379", "surface": "asphalt"}}, {"type": "Feature", "geometry": {"type": "LineString", "coordinates": [[-8.9461025, 38.565023], [-8.9460295, 38.5650097], [-8.9459557, 38.565019], [-8.9458912, 38.5650501], [-8.9458472, 38.565098], [-8.94583, 38.5651551]]}, "properties": {"highway": "primary", "junction": "roundabout", "lane_markings": "yes", "lanes": "2", "ref": "EN 379", "source": "bing", "surface": "asphalt"}}, {"type": "Feature", "geometry": {"type": "LineString", "coordinates": [[-8.94583, 38.5651551], [-8.9458422, 38.5652136], [-8.9458816, 38.5652633], [-8.945942, 38.5652975]]}, "properties": {"highway": "primary", "junction": "roundabout", "lane_markings": "yes", "lanes": "2", "ref": "EN 379", "source": "bing", "surface": "asphalt"}}, {"type": "Feature", "geometry": {"type": "LineString", "coordinates": [[-8.9258494, 38.5665386], [-8.9259008, 38.5665461], [-8.9259174, 38.5665485], [-8.9259451, 38.5665526]]}, "properties": {"highway": "primary", "oneway": "no", "ref": "EN 379", "surface": "asphalt"}}, {"type": "Feature", "geometry": {"type": "LineString", "coordinates": [[-8.925314, 38.5664698], [-8.9255235, 38.5664962], [-8.9258494, 38.5665386]]}, "properties": {"highway": "primary", "oneway": "no", "ref": "EN 379", "surface": "asphalt"}}, {"type": "Feature", "geometry": {"type": "LineString", "coordinates": [[-8.9082604, 38.5701882], [-8.9084467, 38.5701407], [-8.9086388, 38.5700922], [-8.9087213, 38.570071], [-8.9091565, 38.5699616], [-8.9094753, 38.5698812], [-8.9102508, 38.5696856], [-8.9106943, 38.5695737], [-8.9109255, 38.5695154], [-8.9113122, 38.5694178], [-8.9113781, 38.5694012], [-8.9116591, 38.5693303], [-8.912065, 38.5692279], [-8.9131399, 38.5689567], [-8.9143903, 38.5686413], [-8.9144489, 38.5686265], [-8.9146654, 38.5685728]]}, "properties": {"highway": "primary", "lanes": "2", "maxspeed": "50", "name": "Rua Doutor Bernardo Teixeira Botelho", "oneway": "no", "postal_code": "2950-298", "ref": "EN 379", "surface": "asphalt"}}, {"type": "Feature", "geometry": {"type": "LineString", "coordinates": [[-8.9146654, 38.5685728], [-8.9147117, 38.568561], [-8.9150205, 38.5684826], [-8.915093, 38.5684642]]}, "properties": {"highway": "primary", "name": "Rua Doutor Bernardo Teixeira Botelho", "oneway": "no", "ref": "EN 379", "surface": "asphalt"}}, {"type": "Feature", "geometry": {"type": "LineString", "coordinates": [[-8.8991088, 38.5783211], [-8.8992859, 38.5783219], [-8.8993988, 38.5783205], [-8.8995045, 38.5783178]]}, "properties": {"highway": "primary", "maxspeed": "50", "ref": "EN 379", "surface": "asphalt"}}, {"type": "Feature", "geometry": {"type": "LineString", "coordinates": [[-8.8990409, 38.5783153], [-8.8991088, 38.5783211]]}, "properties": {"highway": "primary", "maxspeed": "50", "ref": "EN 379", "surface": "asphalt"}}, {"type": "Feature", "geometry": {"type": "LineString", "coordinates": [[-8.9462157, 38.5651657], [-8.9462036, 38.5651076], [-8.9461639, 38.5650575], [-8.9461025, 38.565023]]}, "properties": {"highway": "primary", "junction": "roundabout", "lane_markings": "yes", "lanes": "2", "ref": "EN 379", "source": "bing", "surface": "asphalt"}}, {"type": "Feature", "geometry": {"type": "LineString", "coordinates": [[-8.9892347, 38.5320689], [-8.9892515, 38.5320182], [-8.9892645, 38.5319888], [-8.989301, 38.5319387], [-8.9893489, 38.5318801], [-8.9894111, 38.5318085], [-8.9895107, 38.5316982], [-8.9895473, 38.5316645], [-8.9897259, 38.531498], [-8.9900069, 38.5312393], [-8.9902097, 38.5310442], [-8.9902692, 38.5309852], [-8.9903868, 38.5308697], [-8.9907557, 38.5305028], [-8.9910209, 38.5302478], [-8.9910992, 38.5301884], [-8.991344, 38.5300179], [-8.9914125, 38.5299714]]}, "properties": {"highway": "primary", "name": "Rua 25 de Abril", "oneway": "no", "ref": "EN 379", "surface": "asphalt"}}, {"type": "Feature", "geometry": {"type": "LineString", "coordinates": [[-8.9915516, 38.5298737], [-8.9916645, 38.5297962], [-8.9917059, 38.5297675], [-8.9917941, 38.5297081]]}, "properties": {"highway": "primary", "name": "Rua 25 de Abril", "oneway": "no", "ref": "EN 379", "surface": "asphalt"}}, {"type": "Feature", "geometry": {"type": "LineString", "coordinates": [[-8.9816597, 38.549354], [-8.9817321, 38.549312], [-8.9819634, 38.5491688]]}, "properties": {"highway": "primary", "name": "Avenida Visconde Tojal", "oneway": "no", "ref": "EN 379", "surface": "asphalt"}}, {"type": "Feature", "geometry": {"type": "LineString", "coordinates": [[-8.9809445, 38.5497753], [-8.9810768, 38.5496991], [-8.9811599, 38.5496512], [-8.9814708, 38.5494653]]}, "properties": {"highway": "primary", "name": "Avenida Visconde Tojal", "oneway": "no", "ref": "EN 379", "surface": "asphalt"}}, {"type": "Feature", "geometry": {"type": "LineString", "coordinates": [[-9.0421666, 38.5045541], [-9.0418765, 38.504743], [-9.0409453, 38.5054014], [-9.0408913, 38.5054396]]}, "properties": {"highway": "primary", "maxspeed": "60", "ref": "EN 379", "source": "bing"}}, {"type": "Feature", "geometry": {"type": "LineString", "coordinates": [[-9.0476673, 38.500198], [-9.0466642, 38.5012857], [-9.0463031, 38.5016131], [-9.045448, 38.5022233], [-9.0441408, 38.503142], [-9.0440918, 38.5031766], [-9.0421666, 38.5045541]]}, "properties": {"highway": "primary", "maxspeed": "90", "ref": "EN 379", "source": "bing"}}, {"type": "Feature", "geometry": {"type": "LineString", "coordinates": [[-9.0548013, 38.4963768], [-9.0547988, 38.496527], [-9.0547416, 38.4967478], [-9.054264, 38.4976343], [-9.0540878, 38.4978027], [-9.0539004, 38.497858], [-9.0522756, 38.4977288]]}, "properties": {"highway": "primary", "maxspeed": "50", "ref": "EN 379", "source": "bing"}}, {"type": "Feature", "geometry": {"type": "LineString", "coordinates": [[-9.0595074, 38.4901866], [-9.0582526, 38.4914464], [-9.0580756, 38.4916843], [-9.0580321, 38.4919281], [-9.0581248, 38.4928818], [-9.0580599, 38.4930527], [-9.0579079, 38.4931681], [-9.0577145, 38.4932102], [-9.0569807, 38.4932876], [-9.0562923, 38.4935829], [-9.0560976, 38.4936256], [-9.0558991, 38.4936095], [-9.0555729, 38.4935332]]}, "properties": {"highway": "primary", "maxspeed": "50", "ref": "EN 379", "source": "bing"}}, {"type": "Feature", "geometry": {"type": "LineString", "coordinates": [[-9.0620719, 38.4877717], [-9.0616426, 38.488043], [-9.0604506, 38.4892397]]}, "properties": {"highway": "primary", "maxspeed": "70", "ref": "EN 379", "source": "bing"}}, {"type": "Feature", "geometry": {"type": "LineString", "coordinates": [[-9.0715951, 38.4818583], [-9.0715042, 38.4818946], [-9.0667195, 38.4838064], [-9.0664712, 38.483936], [-9.0663238, 38.4840784], [-9.0659611, 38.4844926], [-9.0644455, 38.4862229], [-9.0641693, 38.4864263], [-9.0626108, 38.4874311]]}, "properties": {"highway": "primary", "lanes": "2", "maxspeed": "90", "ref": "EN 379", "source": "bing", "surface": "asphalt"}}, {"type": "Feature", "geometry": {"type": "LineString", "coordinates": [[-9.0743401, 38.4788309], [-9.0742385, 38.4789628], [-9.0741751, 38.479044], [-9.0740934, 38.4791484], [-9.0737648, 38.4795813], [-9.0736369, 38.4797981], [-9.0735626, 38.4800054], [-9.0734015, 38.48092], [-9.0733104, 38.4811055], [-9.0730771, 38.4812655], [-9.0717885, 38.481781], [-9.0715951, 38.4818583]]}, "properties": {"highway": "primary", "lanes": "2", "maxspeed": "70", "ref": "EN 379", "source": "bing", "surface": "asphalt"}}, {"type": "Feature", "geometry": {"type": "LineString", "coordinates": [[-9.0408913, 38.5054396], [-9.0402841, 38.5057972], [-9.0396477, 38.5062299]]}, "properties": {"highway": "primary", "maxspeed": "60", "oneway": "yes", "ref": "EN 379", "source": "bing", "surface": "asphalt"}}, {"type": "Feature", "geometry": {"type": "LineString", "coordinates": [[-9.0971546, 38.4650834], [-9.0970959, 38.4650965], [-9.0970519, 38.4651205], [-9.0970426, 38.4651256], [-9.0970064, 38.4651655]]}, "properties": {"highway": "primary", "junction": "roundabout", "name": "Rotunda do Espadarte", "ref": "EN 379;EN 378", "surface": "asphalt"}}, {"type": "Feature", "geometry": {"type": "LineString", "coordinates": [[-9.0483789, 38.4990972], [-9.0481762, 38.4995938], [-9.0479862, 38.4998521], [-9.0476673, 38.500198]]}, "properties": {"highway": "primary", "maxspeed": "60", "ref": "EN 379", "source": "bing"}}, {"type": "Feature", "geometry": {"type": "LineString", "coordinates": [[-9.0937315, 38.4673581], [-9.0941048, 38.4671099], [-9.0945994, 38.4668492], [-9.0949283, 38.4666759], [-9.0951419, 38.4665569], [-9.0953286, 38.4664615], [-9.0955836, 38.4662959], [-9.0957283, 38.4661832], [-9.0958571, 38.4660829], [-9.0967064, 38.4654247]]}, "properties": {"highway": "primary", "lanes": "2", "maxspeed": "50", "ref": "EN 379", "source": "bing", "surface": "asphalt"}}, {"type": "Feature", "geometry": {"type": "LineString", "coordinates": [[-8.8769356, 38.5769473], [-8.8759852, 38.5769748], [-8.8743616, 38.5770218], [-8.8742614, 38.5769969]]}, "properties": {"highway": "primary", "lanes": "2", "maxspeed": "50", "name": "Avenida do Caminho de Ferro", "ref": "EN 379", "surface": "asphalt"}}, {"type": "Feature", "geometry": {"type": "LineString", "coordinates": [[-8.950744, 38.5626617], [-8.9508697, 38.5625952], [-8.9512184, 38.5624061], [-8.9514723, 38.5622533], [-8.9516191, 38.5621535], [-8.9519335, 38.5619007], [-8.9521261, 38.5617358]]}, "properties": {"highway": "primary", "lane_markings": "yes", "name": "Rua Ven\u00e2ncio da Costa Lima", "oneway": "no", "postal_code": "2953-301;2950-701", "postal_code:description": "2953-301:Cacifo CTT Minipre\u00e7o Quinta do Anjo", "ref": "EN 379", "surface": "asphalt"}}, {"type": "Feature", "geometry": {"type": "LineString", "coordinates": [[-8.9283711, 38.5675435], [-8.9284904, 38.5675536], [-8.9286239, 38.5675472], [-8.9289743, 38.5675108], [-8.9290142, 38.567506], [-8.9293766, 38.5674629], [-8.9295825, 38.567443], [-8.9297954, 38.5674378], [-8.9298412, 38.5674414], [-8.9299784, 38.5674521]]}, "properties": {"highway": "primary", "lanes": "2", "oneway": "no", "ref": "EN 379", "surface": "asphalt"}}, {"type": "Feature", "geometry": {"type": "LineString", "coordinates": [[-8.8881918, 38.5757356], [-8.8880444, 38.5758199], [-8.8878639, 38.5759518], [-8.8877326, 38.5760485], [-8.887599, 38.5761266], [-8.8874318, 38.5761971], [-8.8871718, 38.5762678], [-8.886902, 38.5763394], [-8.8860854, 38.5765516], [-8.8857932, 38.5766265], [-8.8856455, 38.5766599], [-8.885557, 38.5766752], [-8.8854464, 38.5766868], [-8.8852914, 38.5766929], [-8.8852197, 38.576694], [-8.8849694, 38.5766987]]}, "properties": {"highway": "primary", "maxspeed": "50", "name": "Avenida do Caminho de Ferro", "ref": "EN 379", "surface": "asphalt"}}, {"type": "Feature", "geometry": {"type": "LineString", "coordinates": [[-9.0391598, 38.5069424], [-9.0392168, 38.5068616]]}, "properties": {"highway": "primary", "maxspeed": "60", "oneway": "yes", "ref": "EN 379", "source": "bing", "surface": "asphalt"}}, {"type": "Feature", "geometry": {"type": "LineString", "coordinates": [[-9.0929732, 38.4678998], [-9.0932256, 38.4677213]]}, "properties": {"highway": "primary", "maxspeed": "50", "ref": "EN 379", "source": "bing", "surface": "asphalt"}}, {"type": "Feature", "geometry": {"type": "LineString", "coordinates": [[-9.0604506, 38.4892397], [-9.0603319, 38.4893564]]}, "properties": {"highway": "primary", "maxspeed": "70", "ref": "EN 379", "source": "bing"}}, {"type": "Feature", "geometry": {"type": "LineString", "coordinates": [[-9.0601898, 38.4895015], [-9.0595074, 38.4901866]]}, "properties": {"highway": "primary", "maxspeed": "70", "ref": "EN 379", "source": "bing"}}, {"type": "Feature", "geometry": {"type": "LineString", "coordinates": [[-9.0392168, 38.5068616], [-9.0394157, 38.5066036], [-9.0397173, 38.5063183], [-9.0403436, 38.5058548], [-9.0408913, 38.5054396]]}, "properties": {"highway": "primary", "maxspeed": "60", "oneway": "yes", "ref": "EN 379", "source": "bing", "surface": "asphalt"}}, {"type": "Feature", "geometry": {"type": "LineString", "coordinates": [[-9.0603319, 38.4893564], [-9.0601898, 38.4895015]]}, "properties": {"highway": "primary", "maxspeed": "70", "ref": "EN 379", "source": "bing"}}, {"type": "Feature", "geometry": {"type": "LineString", "coordinates": [[-8.987366, 38.5368827], [-8.9873981, 38.5368018], [-8.9874577, 38.536653], [-8.987549, 38.5364252], [-8.9877832, 38.5358591], [-8.9878452, 38.5356855], [-8.9879211, 38.5355083], [-8.9882314, 38.5347257], [-8.9883663, 38.5343853]]}, "properties": {"highway": "primary", "lanes": "2", "name": "Rua 25 de Abril", "oneway": "no", "ref": "EN 379", "surface": "asphalt"}}, {"type": "Feature", "geometry": {"type": "LineString", "coordinates": [[-8.9964631, 38.5262316], [-8.9968477, 38.5259869], [-8.9969629, 38.5259136], [-8.9971252, 38.5258104], [-8.997462, 38.5255983], [-8.9975353, 38.5255533], [-8.9977789, 38.5254037], [-8.9985592, 38.5249225], [-8.9986164, 38.5248872], [-8.9987697, 38.5247901], [-8.998923, 38.5246974]]}, "properties": {"highway": "primary", "name": "Rua 25 de Abril", "oneway": "no", "ref": "EN 379", "surface": "asphalt"}}, {"type": "Feature", "geometry": {"type": "LineString", "coordinates": [[-8.9075665, 38.5703649], [-8.9079072, 38.5702781]]}, "properties": {"highway": "primary", "lanes": "2", "maxspeed": "50", "name": "Rua Doutor Bernardo Teixeira Botelho", "oneway": "no", "postal_code": "2950-298", "ref": "EN 379", "surface": "asphalt"}}, {"type": "Feature", "geometry": {"type": "LineString", "coordinates": [[-8.9207891, 38.5679698], [-8.9209632, 38.5679848], [-8.9210781, 38.5679866], [-8.9211715, 38.5679775], [-8.9212793, 38.5679583], [-8.9213666, 38.567937], [-8.9214209, 38.5679238], [-8.9215224, 38.5678989], [-8.9216049, 38.5678754], [-8.921629, 38.5678685], [-8.9225487, 38.5676055], [-8.9228524, 38.5675184], [-8.9229907, 38.5674752], [-8.9230871, 38.5674377], [-8.9232266, 38.5673795], [-8.9233022, 38.5673365], [-8.9233538, 38.5673071], [-8.923373, 38.5672953], [-8.9236888, 38.5671007], [-8.9241999, 38.5667847], [-8.9245328, 38.5665831], [-8.9246603, 38.5665178], [-8.9247566, 38.5664789], [-8.9248386, 38.5664599], [-8.9249285, 38.5664468], [-8.9250483, 38.5664469], [-8.9251896, 38.5664542], [-8.925314, 38.5664698]]}, "properties": {"highway": "primary", "lanes": "2", "oneway": "no", "ref": "EN 379", "surface": "asphalt"}}, {"type": "Feature", "geometry": {"type": "LineString", "coordinates": [[-8.945942, 38.5652975], [-8.946016, 38.5653113]]}, "properties": {"highway": "primary", "junction": "roundabout", "lane_markings": "yes", "lanes": "2", "ref": "EN 379", "source": "bing", "surface": "asphalt"}}, {"type": "Feature", "geometry": {"type": "LineString", "coordinates": [[-8.9461983, 38.5652233], [-8.9462157, 38.5651657]]}, "properties": {"highway": "primary", "junction": "roundabout", "lane_markings": "yes", "lanes": "2", "ref": "EN 379", "source": "bing", "surface": "asphalt"}}, {"type": "Feature", "geometry": {"type": "LineString", "coordinates": [[-8.9079072, 38.5702781], [-8.9081625, 38.5702131], [-8.9082604, 38.5701882]]}, "properties": {"highway": "primary", "lanes": "2", "maxspeed": "50", "name": "Rua Doutor Bernardo Teixeira Botelho", "oneway": "no", "postal_code": "2950-298", "ref": "EN 379", "surface": "asphalt"}}, {"type": "Feature", "geometry": {"type": "LineString", "coordinates": [[-8.9814708, 38.5494653], [-8.9815282, 38.5494304], [-8.9816597, 38.549354]]}, "properties": {"highway": "primary", "name": "Avenida Visconde Tojal", "oneway": "no", "ref": "EN 379", "surface": "asphalt"}}, {"type": "Feature", "geometry": {"type": "LineString", "coordinates": [[-8.9417827, 38.5673798], [-8.9418619, 38.5673611], [-8.9419461, 38.5673305], [-8.9421065, 38.5672422], [-8.9433689, 38.5665763], [-8.9435401, 38.5664859], [-8.9436689, 38.5664181], [-8.9437775, 38.566361], [-8.9438448, 38.5663232], [-8.9439353, 38.5662736], [-8.9441617, 38.5661496], [-8.9444932, 38.5659761], [-8.944668, 38.5658853]]}, "properties": {"highway": "primary", "lanes": "2", "name": "Rua Ven\u00e2ncio da Costa Lima", "oneway": "no", "postal_code": "2953-301;2950-701", "postal_code:description": "2953-301:Cacifo CTT Minipre\u00e7o Quinta do Anjo", "ref": "EN 379", "surface": "asphalt"}}, {"type": "Feature", "geometry": {"type": "LineString", "coordinates": [[-8.944668, 38.5658853], [-8.944716, 38.5658595], [-8.9454981, 38.5654381], [-8.9456359, 38.565364]]}, "properties": {"highway": "primary", "lanes": "2", "name": "Rua Ven\u00e2ncio da Costa Lima", "oneway": "no", "postal_code": "2953-301;2950-701", "postal_code:description": "2953-301:Cacifo CTT Minipre\u00e7o Quinta do Anjo", "ref": "EN 379", "surface": "asphalt"}}, {"type": "Feature", "geometry": {"type": "LineString", "coordinates": [[-8.9917941, 38.5297081], [-8.9917972, 38.529706], [-8.9918925, 38.5296418], [-8.9920263, 38.5295507], [-8.9926976, 38.5290936]]}, "properties": {"highway": "primary", "name": "Rua 25 de Abril", "oneway": "no", "ref": "EN 379", "surface": "asphalt"}}, {"type": "Feature", "geometry": {"type": "LineString", "coordinates": [[-8.9914125, 38.5299714], [-8.9915034, 38.5299068], [-8.9915265, 38.5298906], [-8.9915516, 38.5298737]]}, "properties": {"highway": "primary", "name": "Rua 25 de Abril", "oneway": "no", "ref": "EN 379", "surface": "asphalt"}}, {"type": "Feature", "geometry": {"type": "LineString", "coordinates": [[-8.8948324, 38.5769655], [-8.8948102, 38.5769779], [-8.8947721, 38.5770082]]}, "properties": {"highway": "primary", "junction": "roundabout", "maxspeed": "50", "ref": "EN 379", "surface": "asphalt"}}, {"type": "Feature", "geometry": {"type": "LineString", "coordinates": [[-8.8949816, 38.5769567], [-8.8949197, 38.5769488], [-8.8948324, 38.5769655]]}, "properties": {"highway": "primary", "junction": "roundabout", "maxspeed": "50", "ref": "EN 379", "surface": "asphalt"}}, {"type": "Feature", "geometry": {"type": "LineString", "coordinates": [[-8.9463867, 38.5649702], [-8.9468596, 38.564727]]}, "properties": {"highway": "primary", "lanes": "2", "name": "Rua Ven\u00e2ncio da Costa Lima", "oneway": "no", "postal_code": "2953-301;2950-701", "postal_code:description": "2953-301:Cacifo CTT Minipre\u00e7o Quinta do Anjo", "ref": "EN 379", "surface": "asphalt"}}, {"type": "Feature", "geometry": {"type": "LineString", "coordinates": [[-9.0795727, 38.4748512], [-9.07867, 38.4753423]]}, "properties": {"highway": "primary", "lanes": "2", "maxspeed": "50", "ref": "EN 379", "source": "bing", "surface": "asphalt"}}, {"type": "Feature", "geometry": {"type": "LineString", "coordinates": [[-9.07867, 38.4753423], [-9.0784679, 38.4754512], [-9.0782707, 38.4755615]]}, "properties": {"highway": "primary", "lanes": "2", "maxspeed": "50", "ref": "EN 379", "source": "bing", "surface": "asphalt"}}, {"type": "Feature", "geometry": {"type": "LineString", "coordinates": [[-9.0807582, 38.4742053], [-9.0811178, 38.474012]]}, "properties": {"highway": "primary", "lanes": "2", "maxspeed": "50", "ref": "EN 379", "source": "bing", "surface": "asphalt"}}, {"type": "Feature", "geometry": {"type": "LineString", "coordinates": [[-9.081412, 38.4738543], [-9.0816315, 38.4737373], [-9.0818276, 38.473624]]}, "properties": {"highway": "primary", "lanes": "2", "maxspeed": "50", "ref": "EN 379", "source": "bing", "surface": "asphalt"}}, {"type": "Feature", "geometry": {"type": "LineString", "coordinates": [[-9.0866452, 38.4709754], [-9.0885289, 38.4696442], [-9.088845, 38.469448]]}, "properties": {"highway": "primary", "lanes": "2", "maxspeed": "50", "ref": "EN 379", "source": "bing", "surface": "asphalt"}}, {"type": "Feature", "geometry": {"type": "LineString", "coordinates": [[-9.088845, 38.469448], [-9.0889276, 38.4693968], [-9.0892487, 38.4692204]]}, "properties": {"highway": "primary", "lanes": "2", "maxspeed": "50", "ref": "EN 379", "source": "bing", "surface": "asphalt"}}, {"type": "Feature", "geometry": {"type": "LineString", "coordinates": [[-9.0932256, 38.4677213], [-9.093338, 38.4676385]]}, "properties": {"highway": "primary", "lanes": "2", "maxspeed": "50", "ref": "EN 379", "source": "bing", "surface": "asphalt"}}, {"type": "Feature", "geometry": {"type": "LineString", "coordinates": [[-9.093338, 38.4676385], [-9.0935221, 38.4675073], [-9.0937315, 38.4673581]]}, "properties": {"highway": "primary", "lanes": "2", "maxspeed": "50", "ref": "EN 379", "source": "bing", "surface": "asphalt"}}, {"type": "Feature", "geometry": {"type": "LineString", "coordinates": [[-9.0811178, 38.474012], [-9.081412, 38.4738543]]}, "properties": {"highway": "primary", "lanes": "2", "maxspeed": "50", "ref": "EN 379", "source": "bing", "surface": "asphalt"}}, {"type": "Feature", "geometry": {"type": "LineString", "coordinates": [[-9.0804038, 38.4744039], [-9.0807582, 38.4742053]]}, "properties": {"highway": "primary", "lanes": "2", "maxspeed": "50", "ref": "EN 379", "source": "bing", "surface": "asphalt"}}, {"type": "Feature", "geometry": {"type": "LineString", "coordinates": [[-9.0626108, 38.4874311], [-9.0621985, 38.4876916]]}, "properties": {"highway": "primary", "lanes": "2", "maxspeed": "90", "ref": "EN 379", "source": "bing", "surface": "asphalt"}}, {"type": "Feature", "geometry": {"type": "LineString", "coordinates": [[-9.0621985, 38.4876916], [-9.0620719, 38.4877717]]}, "properties": {"highway": "primary", "lanes": "2", "maxspeed": "90", "ref": "EN 379", "source": "bing", "surface": "asphalt"}}, {"type": "Feature", "geometry": {"type": "LineString", "coordinates": [[-9.0550793, 38.4934429], [-9.0549935, 38.4934525], [-9.0549127, 38.4934742], [-9.0548325, 38.4935176], [-9.0547702, 38.493568], [-9.0547317, 38.4936077], [-9.0546803, 38.4936755], [-9.0546408, 38.4937417], [-9.0545254, 38.4939616], [-9.0543496, 38.4943024], [-9.0543413, 38.4945113], [-9.0546682, 38.4957943]]}, "properties": {"highway": "primary", "maxspeed": "50", "ref": "EN 379", "source": "bing"}}, {"type": "Feature", "geometry": {"type": "LineString", "coordinates": [[-9.0555729, 38.4935332], [-9.055251, 38.493452], [-9.0551812, 38.4934415], [-9.0550793, 38.4934429]]}, "properties": {"highway": "primary", "maxspeed": "50", "ref": "EN 379", "source": "bing"}}, {"type": "Feature", "geometry": {"type": "LineString", "coordinates": [[-9.0781444, 38.4756362], [-9.0779801, 38.4757444]]}, "properties": {"highway": "primary", "lanes": "2", "maxspeed": "50", "ref": "EN 379", "source": "bing", "surface": "asphalt"}}, {"type": "Feature", "geometry": {"type": "LineString", "coordinates": [[-9.0972158, 38.4650854], [-9.0971546, 38.4650834]]}, "properties": {"highway": "primary", "junction": "roundabout", "name": "Rotunda do Espadarte", "ref": "EN 379;EN 378", "surface": "asphalt"}}, {"type": "Feature", "geometry": {"type": "LineString", "coordinates": [[-9.0970064, 38.4651655], [-9.0969996, 38.4651826]]}, "properties": {"highway": "primary", "junction": "roundabout", "name": "Rotunda do Espadarte", "ref": "EN 379;EN 378", "surface": "asphalt"}}, {"type": "Feature", "geometry": {"type": "LineString", "coordinates": [[-9.0799395, 38.4746537], [-9.080168, 38.4745258], [-9.0804038, 38.4744039]]}, "properties": {"highway": "primary", "maxspeed": "50", "ref": "EN 379", "source": "bing", "surface": "asphalt"}}, {"type": "Feature", "geometry": {"type": "LineString", "coordinates": [[-9.0782707, 38.4755615], [-9.0781444, 38.4756362]]}, "properties": {"highway": "primary", "lanes": "2", "maxspeed": "50", "ref": "EN 379", "source": "bing", "surface": "asphalt"}}, {"type": "Feature", "geometry": {"type": "LineString", "coordinates": [[-9.0973535, 38.4652908], [-9.0973585, 38.4652721], [-9.0973682, 38.4652365]]}, "properties": {"highway": "primary", "junction": "roundabout", "name": "Rotunda do Espadarte", "ref": "EN 379;EN 378", "surface": "asphalt"}}, {"type": "Feature", "geometry": {"type": "LineString", "coordinates": [[-9.0928189, 38.468008], [-9.0929732, 38.4678998]]}, "properties": {"highway": "primary", "lanes": "2", "maxspeed": "50", "ref": "EN 379", "source": "bing", "surface": "asphalt"}}, {"type": "Feature", "geometry": {"type": "LineString", "coordinates": [[-9.0271628, 38.528858], [-9.027294, 38.5287724]]}, "properties": {"highway": "primary", "maxspeed": "60", "name": "Variante \u00e0 Estrada Nacional 379", "oneway": "yes", "ref": "EN 379", "surface": "asphalt"}}, {"type": "Feature", "geometry": {"type": "LineString", "coordinates": [[-9.0272193, 38.5287023], [-9.0270836, 38.5287988]]}, "properties": {"highway": "primary", "maxheight": "5.55", "maxspeed": "60", "name": "Variante \u00e0 Estrada Nacional 379", "oneway": "yes", "ref": "EN 379", "surface": "asphalt"}}, {"type": "Feature", "geometry": {"type": "LineString", "coordinates": [[-9.0396477, 38.5062299], [-9.0393467, 38.5065574], [-9.0391152, 38.5068177]]}, "properties": {"highway": "primary", "maxspeed": "60", "oneway": "yes", "ref": "EN 379", "source": "bing", "surface": "asphalt"}}, {"type": "Feature", "geometry": {"type": "LineString", "coordinates": [[-8.8845905, 38.5767011], [-8.8846056, 38.5767412], [-8.8846343, 38.5767765], [-8.8846744, 38.5768042], [-8.8847227, 38.5768221], [-8.8847755, 38.5768289], [-8.8848308, 38.5768235], [-8.8848819, 38.5768058], [-8.8849242, 38.5767774], [-8.8849542, 38.5767406], [-8.8849694, 38.5766987]]}, "properties": {"highway": "primary", "junction": "roundabout", "maxspeed": "50", "name": "Avenida do Caminho de Ferro", "ref": "EN 379", "surface": "asphalt"}}, {"type": "Feature", "geometry": {"type": "LineString", "coordinates": [[-8.8849694, 38.5766987], [-8.8849665, 38.5766473], [-8.8849545, 38.5766244], [-8.8849416, 38.5765998], [-8.8848976, 38.5765617], [-8.8848396, 38.5765374], [-8.8847746, 38.57653], [-8.8847115, 38.5765397], [-8.8846562, 38.5765653], [-8.8846148, 38.5766038], [-8.884592, 38.5766508], [-8.8845905, 38.5767011]]}, "properties": {"highway": "primary", "junction": "roundabout", "maxspeed": "50", "name": "Avenida do Caminho de Ferro", "ref": "EN 379", "surface": "asphalt"}}, {"type": "Feature", "geometry": {"type": "LineString", "coordinates": [[-8.969214, 38.5560169], [-8.9700939, 38.5557878], [-8.9705882, 38.5556591], [-8.9709854, 38.5555556], [-8.9711679, 38.5555008], [-8.9712151, 38.5554825], [-8.9713238, 38.5554414], [-8.9714286, 38.5553866], [-8.9717854, 38.5551783], [-8.9719059, 38.5551078], [-8.9720376, 38.5550307], [-8.9721424, 38.5549694], [-8.9725772, 38.5547149]]}, "properties": {"highway": "primary", "lanes": "2", "lit": "yes", "name": "Avenida Visconde Tojal", "oneway": "no", "ref": "EN 379", "sidewalk": "both", "sidewalk:both:surface": "sett", "smoothness": "good", "surface": "asphalt"}}, {"type": "Feature", "geometry": {"type": "LineString", "coordinates": [[-9.0391152, 38.5068177], [-9.0390573, 38.5068981]]}, "properties": {"highway": "primary", "maxspeed": "60", "oneway": "yes", "ref": "EN 379", "source": "bing", "surface": "asphalt"}}]}