{"type": "FeatureCollection", "features": [{"type": "Feature", "geometry": {"type": "LineString", "coordinates": [[-7.2638715, 40.7249319], [-7.263874, 40.7250411]]}, "properties": {"highway": "primary", "oneway": "yes", "ref": "EN 340"}}, {"type": "Feature", "geometry": {"type": "LineString", "coordinates": [[-6.9025943, 40.7201058], [-6.9023483, 40.7201374], [-6.9022211, 40.7201214], [-6.9020715, 40.7200703]]}, "properties": {"highway": "primary", "oneway": "yes", "ref": "EN 340", "surface": "asphalt"}}, {"type": "Feature", "geometry": {"type": "LineString", "coordinates": [[-6.902514, 40.7205671], [-6.9024945, 40.7204426], [-6.9025199, 40.7203751], [-6.9025771, 40.7202852], [-6.9027403, 40.7201679]]}, "properties": {"highway": "primary", "oneway": "yes", "ref": "EN 340", "surface": "asphalt"}}, {"type": "Feature", "geometry": {"type": "LineString", "coordinates": [[-6.9022703, 40.7203011], [-6.9023991, 40.7203044], [-6.9027403, 40.7201679], [-6.9030899, 40.7200041], [-6.9034776, 40.7198336]]}, "properties": {"highway": "primary", "maxspeed:type": "PT:urban", "oneway": "yes", "ref": "EN 340", "surface": "asphalt"}}, {"type": "Feature", "geometry": {"type": "LineString", "coordinates": [[-6.9034776, 40.7198336], [-6.9027597, 40.7200516], [-6.9025943, 40.7201058], [-6.9023697, 40.7201895], [-6.9023036, 40.7202259], [-6.9022703, 40.7203011]]}, "properties": {"highway": "primary", "maxspeed:type": "PT:urban", "oneway": "yes", "ref": "EN 340", "surface": "asphalt"}}, {"type": "Feature", "geometry": {"type": "LineString", "coordinates": [[-7.2639858, 40.7250018], [-7.2638715, 40.7249319]]}, "properties": {"highway": "primary", "oneway": "yes", "ref": "EN 340"}}, {"type": "Feature", "geometry": {"type": "LineString", "coordinates": [[-6.9699991, 40.6615516], [-6.9709721, 40.6612352], [-6.9715066, 40.6610614], [-6.9732286, 40.660512], [-6.9735156, 40.6604266], [-6.973824, 40.6603432], [-6.974103, 40.6602842], [-6.9744838, 40.6602272], [-6.974862, 40.6601885], [-6.9752536, 40.6601641], [-6.9756308, 40.660159], [-6.9778071, 40.6601885], [-6.9794486, 40.6602129], [-6.9814334, 40.6602414], [-6.9820262, 40.6602516], [-6.9832627, 40.660274], [-6.9835889, 40.6602852], [-6.9839, 40.6603055], [-6.9843077, 40.6603421], [-6.9846617, 40.6603808], [-6.9850947, 40.6604408], [-6.9851139, 40.6604441], [-6.9854235, 40.6604968], [-6.9858913, 40.6605894], [-6.9860641, 40.6606273], [-6.9867067, 40.6607684], [-6.9874845, 40.6609515]]}, "properties": {"highway": "primary", "lanes": "2", "maxspeed:type": "PT:rural", "ref": "EN 340", "surface": "asphalt"}}, {"type": "Feature", "geometry": {"type": "LineString", "coordinates": [[-6.9117821, 40.7131553], [-6.9124122, 40.712866], [-6.9128896, 40.712622], [-6.9133134, 40.712374], [-6.9137103, 40.7121015], [-6.9141073, 40.7117884], [-6.9144024, 40.7115038], [-6.9161941, 40.7095723], [-6.9164623, 40.7092632], [-6.9167037, 40.7089501], [-6.9170095, 40.7085069], [-6.917283, 40.7081206], [-6.9181896, 40.7068234], [-6.9183291, 40.7066444], [-6.9184364, 40.7065306], [-6.9185544, 40.7064289], [-6.9187153, 40.7063029], [-6.9188924, 40.7061849], [-6.919064, 40.7060914], [-6.9192411, 40.7060019], [-6.9193859, 40.7059531], [-6.91974, 40.7058474], [-6.920094, 40.7057864], [-6.9204749, 40.7057457], [-6.9209094, 40.7057295], [-6.9213064, 40.7057335], [-6.9218012, 40.7057493]]}, "properties": {"highway": "primary", "lanes": "2", "maxspeed:type": "PT:rural", "ref": "EN 340", "surface": "asphalt"}}, {"type": "Feature", "geometry": {"type": "LineString", "coordinates": [[-6.9324327, 40.7025948], [-6.932352, 40.7027127], [-6.9322529, 40.7028223], [-6.9321368, 40.7029218], [-6.9320055, 40.7030098], [-6.931861, 40.7030849], [-6.9317054, 40.703146], [-6.9315411, 40.7031922], [-6.9313705, 40.7032228], [-6.9311964, 40.7032373], [-6.9310211, 40.7032355], [-6.9308475, 40.7032174], [-6.9306781, 40.7031834]]}, "properties": {"bridge": "viaduct", "highway": "primary", "lanes": "2", "layer": "1", "ref": "EN 340", "surface": "asphalt"}}, {"type": "Feature", "geometry": {"type": "LineString", "coordinates": [[-6.9677569, 40.6622659], [-6.9682017, 40.6621514], [-6.9682557, 40.6621357], [-6.9687107, 40.6620065], [-6.9688163, 40.661977], [-6.9688568, 40.661957], [-6.9688968, 40.6619282], [-6.9689332, 40.6618875]]}, "properties": {"highway": "primary", "oneway": "yes", "ref": "EN 340"}}, {"type": "Feature", "geometry": {"type": "LineString", "coordinates": [[-6.9503762, 40.6750722], [-6.9502919, 40.675332], [-6.9502447, 40.6754997], [-6.950182, 40.6757429], [-6.9501267, 40.6760632], [-6.9501042, 40.6764224], [-6.9500891, 40.6768057], [-6.9501042, 40.6771567], [-6.9502141, 40.6785562], [-6.9502518, 40.6791319], [-6.9502657, 40.6793449], [-6.9503145, 40.6800908], [-6.9504271, 40.6815126], [-6.9504475, 40.6818656], [-6.9504459, 40.6821676], [-6.950418, 40.6824962], [-6.9503842, 40.6827941], [-6.9503187, 40.683086], [-6.9502233, 40.6833961], [-6.9501176, 40.6836474], [-6.9499862, 40.6838996], [-6.9498182, 40.6841792], [-6.9496654, 40.6844009], [-6.9494336, 40.6846908], [-6.9492255, 40.6849196], [-6.948909, 40.6852063], [-6.9486971, 40.685365], [-6.9483205, 40.6856346], [-6.9479943, 40.6858247], [-6.9477234, 40.6859609], [-6.9474955, 40.6860687], [-6.9471253, 40.6862213], [-6.946782, 40.6863494], [-6.9463662, 40.6864857], [-6.9446244, 40.6870298], [-6.9443841, 40.6871182], [-6.9441132, 40.6872219], [-6.9437967, 40.6873582], [-6.9434855, 40.6875148], [-6.9431878, 40.6876857], [-6.9428713, 40.6878931], [-6.9425993, 40.6880813], [-6.9423563, 40.6882856], [-6.9421471, 40.6884809], [-6.9420801, 40.6885561], [-6.9418655, 40.6888002], [-6.9416901, 40.6890189], [-6.9415517, 40.6892212], [-6.9414031, 40.6894603], [-6.941269, 40.6897043], [-6.940975, 40.6903072], [-6.940872, 40.6904995], [-6.9407433, 40.6906805], [-6.9406183, 40.6908319], [-6.9404815, 40.6909682], [-6.94035, 40.6910862], [-6.9401838, 40.6912143], [-6.9399708, 40.6913557], [-6.9387273, 40.692101], [-6.9378743, 40.6926269]]}, "properties": {"highway": "primary", "lanes": "2", "ref": "EN 340", "surface": "asphalt"}}, {"type": "Feature", "geometry": {"type": "LineString", "coordinates": [[-6.9689332, 40.6618875], [-6.96887, 40.6618895], [-6.9688271, 40.6618915], [-6.9687643, 40.6618966], [-6.9686608, 40.6619241], [-6.9682236, 40.6620848], [-6.9677569, 40.6622659]]}, "properties": {"highway": "primary", "lanes": "1", "maxspeed:type": "PT:rural", "oneway": "yes", "ref": "EN 340", "surface": "asphalt"}}, {"type": "Feature", "geometry": {"type": "LineString", "coordinates": [[-6.9378743, 40.6926269], [-6.9376206, 40.6927555]]}, "properties": {"highway": "primary", "lanes": "2", "maxspeed:advisory": "60", "maxspeed:type:advisory": "sign", "ref": "EN 340", "surface": "asphalt"}}, {"type": "Feature", "geometry": {"type": "LineString", "coordinates": [[-6.9332845, 40.7008288], [-6.9329005, 40.7012247], [-6.9327583, 40.7014098], [-6.9326591, 40.7015928], [-6.9326252, 40.7016913], [-6.9326041, 40.7017951], [-6.9325891, 40.701932], [-6.932569, 40.7021163], [-6.9325384, 40.7023106], [-6.9324928, 40.7024814], [-6.9324327, 40.7025948]]}, "properties": {"highway": "primary", "lanes": "2", "maxspeed:advisory": "60", "maxspeed:type:advisory": "sign", "ref": "EN 340", "surface": "asphalt"}}, {"type": "Feature", "geometry": {"type": "LineString", "coordinates": [[-6.9334621, 40.6984093], [-6.9334446, 40.6985435], [-6.9334342, 40.6987439], [-6.9335688, 40.6996578], [-6.9336149, 40.7000158], [-6.9336056, 40.700215], [-6.9335894, 40.7003249], [-6.9335572, 40.7004204], [-6.9334678, 40.7005862], [-6.9332845, 40.7008288]]}, "properties": {"highway": "primary", "lanes": "2", "maxspeed:advisory": "60", "maxspeed:type:advisory": "sign", "ref": "EN 340", "surface": "asphalt"}}, {"type": "Feature", "geometry": {"type": "LineString", "coordinates": [[-6.9376206, 40.6927555], [-6.9375203, 40.6928148], [-6.9367908, 40.693246], [-6.935859, 40.6938145], [-6.9356428, 40.6939435], [-6.9354727, 40.6940728], [-6.9353306, 40.6941968], [-6.9351857, 40.6943615], [-6.9350661, 40.6945353], [-6.9349534, 40.6947387], [-6.9348746, 40.6949371], [-6.9348209, 40.6951404], [-6.9348129, 40.6954109], [-6.934822, 40.6956477], [-6.9348156, 40.695844], [-6.9348022, 40.6960413], [-6.934763, 40.6962232], [-6.9346879, 40.6964327], [-6.934594, 40.6966137], [-6.9344615, 40.696812], [-6.9341665, 40.6971842], [-6.9337491, 40.6977403], [-6.9336767, 40.697846], [-6.9335844, 40.698022], [-6.9335067, 40.6982172], [-6.9334621, 40.6984093]]}, "properties": {"highway": "primary", "lanes": "2", "maxspeed:advisory": "60", "maxspeed:type:advisory": "sign", "ref": "EN 340", "surface": "asphalt"}}, {"type": "Feature", "geometry": {"type": "LineString", "coordinates": [[-6.9218012, 40.7057493], [-6.9236023, 40.7058067], [-6.9237901, 40.7058027], [-6.9240208, 40.7057823], [-6.9242246, 40.7057539], [-6.9244606, 40.7056969], [-6.9247181, 40.7056115], [-6.9249756, 40.7055017], [-6.9251902, 40.7053919], [-6.9254155, 40.7052496], [-6.9256033, 40.7050707], [-6.9257749, 40.7048836], [-6.9258876, 40.7047209], [-6.9259198, 40.704664], [-6.9260271, 40.7044647], [-6.9260914, 40.7042573], [-6.9264079, 40.7029397], [-6.9264669, 40.7027648], [-6.9265367, 40.7026103], [-6.9266332, 40.702468], [-6.926762, 40.7023094], [-6.9269229, 40.7021955], [-6.9269547, 40.7021784], [-6.9270892, 40.702106], [-6.9273145, 40.7020003], [-6.9274969, 40.7019515], [-6.9277007, 40.7019149], [-6.9279314, 40.7019068], [-6.9281621, 40.701923], [-6.9284089, 40.7019718], [-6.9286556, 40.7020654], [-6.9290097, 40.7022646], [-6.9303883, 40.7030739], [-6.9305224, 40.7031309], [-6.9306781, 40.7031834]]}, "properties": {"highway": "primary", "lanes": "2", "maxspeed:advisory": "60", "maxspeed:type:advisory": "sign", "ref": "EN 340", "surface": "asphalt"}}, {"type": "Feature", "geometry": {"type": "LineString", "coordinates": [[-6.9034776, 40.7198336], [-6.9038291, 40.7196886], [-6.9040024, 40.7196132], [-6.9041715, 40.7195224], [-6.9043226, 40.7194447], [-6.9045265, 40.7193349], [-6.9046874, 40.7192333], [-6.9048221, 40.7191329], [-6.9049932, 40.7190056], [-6.9051541, 40.7188674], [-6.9053204, 40.7186966], [-6.9054706, 40.7185299], [-6.9057817, 40.7180951], [-6.9063867, 40.7172244]]}, "properties": {"highway": "primary", "lanes": "2", "ref": "EN 340", "surface": "asphalt"}}, {"type": "Feature", "geometry": {"type": "LineString", "coordinates": [[-6.9063867, 40.7172244], [-6.9064147, 40.7171841], [-6.9068868, 40.7165051], [-6.9070176, 40.7163185], [-6.9075627, 40.7155414], [-6.9077827, 40.7152772], [-6.9079758, 40.7150657], [-6.9082333, 40.7148584], [-6.9084639, 40.7146998], [-6.9085437, 40.7146523], [-6.9087375, 40.7145371], [-6.9090969, 40.7143582], [-6.9114734, 40.713297], [-6.9117821, 40.7131553]]}, "properties": {"highway": "primary", "lanes": "2", "maxspeed": "70", "maxspeed:type": "sign", "ref": "EN 340", "surface": "asphalt"}}, {"type": "Feature", "geometry": {"type": "LineString", "coordinates": [[-6.9677569, 40.6622659], [-6.9666084, 40.6626366]]}, "properties": {"highway": "primary", "lanes": "2", "ref": "EN 340", "surface": "asphalt"}}, {"type": "Feature", "geometry": {"type": "LineString", "coordinates": [[-6.9666084, 40.6626366], [-6.9663523, 40.6627192], [-6.96405, 40.6634623], [-6.9631998, 40.6637268], [-6.9628511, 40.6638631], [-6.9625105, 40.6640319], [-6.9622101, 40.6641947], [-6.961856, 40.6644185]]}, "properties": {"highway": "primary", "lanes": "2", "ref": "EN 340", "surface": "asphalt"}}, {"type": "Feature", "geometry": {"type": "LineString", "coordinates": [[-6.961856, 40.6644185], [-6.9615073, 40.6646667], [-6.9605433, 40.6653697], [-6.9602789, 40.6655741], [-6.9591192, 40.6664144]]}, "properties": {"highway": "primary", "lanes": "2", "ref": "EN 340", "surface": "asphalt"}}, {"type": "Feature", "geometry": {"type": "LineString", "coordinates": [[-6.9591192, 40.6664144], [-6.9581814, 40.6670938], [-6.9562529, 40.6684915], [-6.9550233, 40.6693918], [-6.9547283, 40.6696217], [-6.9543313, 40.6699696], [-6.9539703, 40.6703245], [-6.9536527, 40.6706755], [-6.9534194, 40.670944], [-6.9524489, 40.6720837]]}, "properties": {"highway": "primary", "lanes": "2", "ref": "EN 340", "surface": "asphalt"}}, {"type": "Feature", "geometry": {"type": "LineString", "coordinates": [[-6.9524489, 40.6720837], [-6.9521089, 40.6724829], [-6.9514024, 40.6732937], [-6.9511245, 40.6736404], [-6.9509196, 40.6739304], [-6.9507517, 40.6742283], [-6.9505628, 40.6746017], [-6.9504153, 40.6749516], [-6.9503762, 40.6750722]]}, "properties": {"highway": "primary", "lanes": "2", "ref": "EN 340", "surface": "asphalt"}}]}