{"type": "FeatureCollection", "features": [{"type": "Feature", "geometry": {"type": "LineString", "coordinates": [[-7.7363249, 41.2916705], [-7.7363356, 41.2917066], [-7.7363514, 41.2917288], [-7.7363714, 41.2917498], [-7.7363964, 41.2917652], [-7.7364342, 41.2917845], [-7.7364639, 41.2917966], [-7.7365029, 41.2918062], [-7.7365414, 41.2918095], [-7.7365905, 41.291807]]}, "properties": {"highway": "primary", "junction": "roundabout", "lanes": "2", "lit": "yes", "maxspeed": "50", "name": "Pra\u00e7a da Galiza", "official_ref": "EM 313", "ref": "EN 313", "surface": "asphalt"}}, {"type": "Feature", "geometry": {"type": "LineString", "coordinates": [[-7.736176, 41.2925777], [-7.7360955, 41.2931079], [-7.7360869, 41.2931456], [-7.7360769, 41.2931781], [-7.7360668, 41.293207], [-7.7360563, 41.2932324], [-7.7360437, 41.2932583], [-7.7360204, 41.2933069], [-7.7359942, 41.2933494], [-7.7359604, 41.2933944], [-7.7358898, 41.293466], [-7.7358191, 41.2935279], [-7.7357164, 41.2936094], [-7.7356659, 41.293646], [-7.735615, 41.2936782], [-7.7355628, 41.2937039], [-7.7354727, 41.2937328]]}, "properties": {"highway": "primary", "lanes": "2", "lit": "yes", "maxspeed": "50", "name": "Avenida da Universidade", "official_ref": "EM 313", "oneway": "yes", "ref": "EN 313", "surface": "asphalt"}}, {"type": "Feature", "geometry": {"type": "LineString", "coordinates": [[-7.736059, 41.2910477], [-7.736135, 41.2910873], [-7.7361734, 41.2911096], [-7.7362051, 41.291132], [-7.7362413, 41.2911603], [-7.7362781, 41.2911938], [-7.7362977, 41.2912147], [-7.7363128, 41.2912341], [-7.7363275, 41.2912631], [-7.7363392, 41.2912949], [-7.7363603, 41.2913583]]}, "properties": {"highway": "primary", "lanes": "1", "lit": "yes", "maxspeed": "40", "official_ref": "EM 313", "oneway": "yes", "ref": "EN 313", "surface": "asphalt"}}, {"type": "Feature", "geometry": {"type": "LineString", "coordinates": [[-7.7365722, 41.291188], [-7.7363454, 41.2911258], [-7.736059, 41.2910477]]}, "properties": {"highway": "primary", "lanes": "1", "lit": "yes", "maxspeed": "50", "official_ref": "EM 313", "oneway": "yes", "ref": "EN 313", "surface": "asphalt"}}, {"type": "Feature", "geometry": {"type": "LineString", "coordinates": [[-7.7220809, 41.2810866], [-7.7220888, 41.281046], [-7.7220796, 41.2810056], [-7.7220542, 41.2809692], [-7.7220151, 41.2809406], [-7.7219661, 41.2809225]]}, "properties": {"highway": "primary", "junction": "roundabout", "lane_markings": "no", "lanes": "2", "lit": "yes", "maxspeed": "40", "official_ref": "EM 313", "ref": "EN 313", "surface": "asphalt"}}, {"type": "Feature", "geometry": {"type": "LineString", "coordinates": [[-7.7215187, 41.2811491], [-7.7214453, 41.2811513], [-7.7214106, 41.2811498], [-7.7213756, 41.2811454], [-7.7213406, 41.2811375], [-7.7213018, 41.2811268], [-7.7210734, 41.281054], [-7.7210379, 41.2810454], [-7.7209763, 41.2810383], [-7.7209291, 41.281038], [-7.7208784, 41.2810401], [-7.7208315, 41.2810451], [-7.7207878, 41.281054], [-7.7207463, 41.2810653], [-7.7207059, 41.2810822], [-7.7206613, 41.2811047], [-7.7206238, 41.2811267], [-7.7205876, 41.2811527], [-7.7205595, 41.2811769], [-7.7205362, 41.2812026], [-7.7205171, 41.2812345], [-7.7205032, 41.2812654], [-7.7204895, 41.2813004], [-7.7204819, 41.2813349], [-7.7204777, 41.2813685], [-7.7204778, 41.2813993], [-7.7204811, 41.2814254], [-7.7204879, 41.2814549], [-7.7205028, 41.2814927], [-7.7205181, 41.281523], [-7.7205338, 41.2815495], [-7.7205825, 41.2816166]]}, "properties": {"highway": "primary", "lane_markings": "yes", "lanes": "2", "lanes:backward": "1", "lanes:forward": "1", "lit": "yes", "maxspeed": "40", "name": "N\u00f3 de Acesso A4", "official_ref": "EM 313", "oneway": "no", "ref": "EN 313", "surface": "asphalt"}}, {"type": "Feature", "geometry": {"type": "LineString", "coordinates": [[-7.7356726, 41.2937944], [-7.7356505, 41.2937727], [-7.7356183, 41.2937542], [-7.7355851, 41.2937412], [-7.7355477, 41.2937326], [-7.7355116, 41.2937305], [-7.7354727, 41.2937328]]}, "properties": {"highway": "primary", "junction": "roundabout", "lanes": "2", "lit": "yes", "maxspeed": "50", "name": "Rotunda da Ford", "official_ref": "EM 313", "ref": "EN 313", "surface": "asphalt"}}, {"type": "Feature", "geometry": {"type": "LineString", "coordinates": [[-7.7208088, 41.2817048], [-7.7207155, 41.2816826], [-7.7206746, 41.2816678], [-7.7206391, 41.2816516], [-7.7205825, 41.2816166]]}, "properties": {"highway": "primary", "lanes": "1", "lit": "yes", "maxspeed": "40", "official_ref": "EM 313", "oneway": "yes", "ref": "EN 313", "surface": "asphalt"}}, {"type": "Feature", "geometry": {"type": "LineString", "coordinates": [[-7.7215187, 41.2811491], [-7.7215915, 41.281149], [-7.721674, 41.2811496], [-7.7217501, 41.2811543], [-7.7218309, 41.2811624]]}, "properties": {"highway": "primary", "lanes": "1", "lit": "yes", "maxspeed": "40", "official_ref": "EM 313", "oneway": "yes", "ref": "EN 313", "surface": "asphalt"}}, {"type": "Feature", "geometry": {"type": "LineString", "coordinates": [[-7.7205825, 41.2816166], [-7.7206002, 41.2816966], [-7.7206015, 41.2817169], [-7.7206007, 41.2817371], [-7.7205919, 41.2818005]]}, "properties": {"highway": "primary", "lanes": "1", "lit": "yes", "maxspeed": "40", "official_ref": "EM 313", "oneway": "yes", "ref": "EN 313", "surface": "asphalt"}}, {"type": "Feature", "geometry": {"type": "LineString", "coordinates": [[-7.721748, 41.2810094], [-7.7216922, 41.281063], [-7.7216674, 41.281081], [-7.7216459, 41.2810939], [-7.7216074, 41.281114], [-7.7215743, 41.2811291], [-7.7215187, 41.2811491]]}, "properties": {"highway": "primary", "lanes": "1", "lit": "yes", "maxspeed": "40", "official_ref": "EM 313", "oneway": "yes", "ref": "EN 313", "surface": "asphalt"}}, {"type": "Feature", "geometry": {"type": "LineString", "coordinates": [[-7.7331079, 41.2862586], [-7.7330147, 41.2862234], [-7.7329576, 41.2861996], [-7.7328777, 41.2861532], [-7.732819, 41.2861041], [-7.732773, 41.2860625], [-7.7320328, 41.2853802], [-7.7317691, 41.2851792], [-7.7315568, 41.2850511], [-7.7312927, 41.2849269], [-7.7310339, 41.2848417], [-7.730738, 41.2847601], [-7.7303948, 41.2847117], [-7.7301313, 41.2846778], [-7.7295775, 41.2846224], [-7.7286731, 41.2845189]]}, "properties": {"highway": "primary", "lane_markings": "yes", "lanes": "2", "lit": "no", "maxspeed": "50", "name": "Variante \u00e0 EN 313", "official_ref": "EM 313", "oneway": "yes", "ref": "EN 313", "surface": "asphalt"}}, {"type": "Feature", "geometry": {"type": "LineString", "coordinates": [[-7.7209314, 41.2819746], [-7.7209694, 41.281937], [-7.7209909, 41.2818926], [-7.720994, 41.2818455], [-7.7209783, 41.2817997], [-7.7209453, 41.2817596], [-7.7209065, 41.2817328], [-7.72086, 41.2817142], [-7.7208088, 41.2817048], [-7.7207417, 41.2817073], [-7.7206791, 41.2817255], [-7.7206274, 41.2817577], [-7.7205919, 41.2818005], [-7.7205771, 41.2818423], [-7.7205802, 41.2818944], [-7.7206057, 41.281943], [-7.720651, 41.2819826], [-7.7206913, 41.2820024], [-7.7207366, 41.2820148], [-7.7207845, 41.2820191], [-7.7208381, 41.282014], [-7.7208881, 41.2819989], [-7.7209314, 41.2819746]]}, "properties": {"highway": "primary", "junction": "roundabout", "lane_markings": "yes", "lanes": "2", "lit": "yes", "maxspeed": "40", "official_ref": "EM 313", "ref": "EN 313", "surface": "asphalt"}}, {"type": "Feature", "geometry": {"type": "LineString", "coordinates": [[-7.7270819, 41.2844636], [-7.7271385, 41.2844439], [-7.7272109, 41.2844386], [-7.7273025, 41.2844408], [-7.7275753, 41.2844688], [-7.7277546, 41.2844899], [-7.7284403, 41.2845704], [-7.7298089, 41.2847271], [-7.7304021, 41.2847909], [-7.730602, 41.2848214], [-7.7308161, 41.2848655], [-7.7311144, 41.2849508], [-7.7313407, 41.285035], [-7.7316122, 41.2851792], [-7.7318716, 41.2853612], [-7.7320742, 41.2855482]]}, "properties": {"highway": "primary", "lane_markings": "yes", "lanes": "2", "lit": "no", "maxspeed": "50", "name": "Variante \u00e0 EN 313", "official_ref": "EM 313", "oneway": "yes", "ref": "EN 313", "surface": "asphalt"}}, {"type": "Feature", "geometry": {"type": "LineString", "coordinates": [[-7.7325956, 41.2868628], [-7.7328689, 41.2866566], [-7.732893, 41.286641], [-7.7329155, 41.2866285], [-7.7329417, 41.2866159], [-7.7329746, 41.2866012], [-7.7330487, 41.2865718]]}, "properties": {"highway": "primary", "lanes": "1", "lit": "no", "maxspeed": "40", "official_ref": "EM 313", "oneway": "yes", "ref": "EN 313", "surface": "asphalt"}}, {"type": "Feature", "geometry": {"type": "LineString", "coordinates": [[-7.7268031, 41.2844943], [-7.7268596, 41.284514], [-7.7269212, 41.2845205], [-7.7269827, 41.2845132], [-7.7270387, 41.2844929], [-7.7270819, 41.2844636], [-7.7271067, 41.2844358], [-7.7271233, 41.2844048], [-7.7271309, 41.2843719], [-7.7271292, 41.2843385], [-7.7271183, 41.2843061], [-7.7270846, 41.2842614], [-7.7270336, 41.2842271], [-7.7269708, 41.2842068], [-7.7269027, 41.2842025], [-7.7268363, 41.2842148], [-7.7267857, 41.2842378], [-7.7267455, 41.2842704], [-7.7267189, 41.28431], [-7.7267079, 41.2843536], [-7.7267133, 41.2843979], [-7.72673, 41.2844324], [-7.7267567, 41.2844631], [-7.7268031, 41.2844943]]}, "properties": {"highway": "primary", "junction": "roundabout", "lane_markings": "yes", "lanes": "2", "lit": "yes", "maxspeed": "40", "official_ref": "EM 313", "ref": "EN 313", "surface": "asphalt"}}, {"type": "Feature", "geometry": {"type": "LineString", "coordinates": [[-7.7328889, 41.2864577], [-7.7328722, 41.2865203], [-7.7328609, 41.286553], [-7.7328446, 41.2865872], [-7.7328251, 41.2866151], [-7.7328029, 41.2866408], [-7.732778, 41.2866663], [-7.7327452, 41.2866993], [-7.7325956, 41.2868628]]}, "properties": {"highway": "primary", "lanes": "1", "lit": "no", "maxspeed": "50", "official_ref": "EM 313", "oneway": "yes", "ref": "EN 313", "surface": "asphalt"}}, {"type": "Feature", "geometry": {"type": "LineString", "coordinates": [[-7.7331712, 41.2862696], [-7.7331079, 41.2862586], [-7.733036, 41.2862641], [-7.7329708, 41.2862874], [-7.7329199, 41.2863259], [-7.7328893, 41.286375], [-7.7328818, 41.2864163], [-7.7328889, 41.2864577]]}, "properties": {"highway": "primary", "junction": "roundabout", "lane_markings": "yes", "lanes": "2", "lit": "no", "maxspeed": "40", "official_ref": "EM 313", "ref": "EN 313", "surface": "asphalt"}}, {"type": "Feature", "geometry": {"type": "LineString", "coordinates": [[-7.7268363, 41.2842148], [-7.7267069, 41.2842011], [-7.7266669, 41.2841914], [-7.7266268, 41.2841789], [-7.7265579, 41.2841504], [-7.7264334, 41.2840919], [-7.7256555, 41.2837016], [-7.7246783, 41.2832275], [-7.723818, 41.2827935], [-7.7234714, 41.2826174], [-7.7231659, 41.2824771], [-7.7228873, 41.2823676], [-7.7226625, 41.2822903], [-7.7221749, 41.2821347]]}, "properties": {"destination": "Porto;Bragan\u00e7a;Sabrosa;Zona Industrial;Aer\u00f3dromo", "destination:ref": "A4;", "destination:symbol": "motorway;industrial;airport", "highway": "primary", "incline": "7%", "lane_markings": "yes", "lanes": "2", "lit": "no", "maxspeed": "50", "name": "Avenida da Unesco", "official_ref": "EM 313", "oneway": "yes", "ref": "EN 313", "surface": "asphalt"}}, {"type": "Feature", "geometry": {"type": "LineString", "coordinates": [[-7.7209314, 41.2819746], [-7.7210424, 41.2819404], [-7.7211635, 41.2819322], [-7.7212469, 41.2819413], [-7.7213868, 41.2819727], [-7.7214977, 41.2820063], [-7.7220622, 41.2821899], [-7.7224156, 41.2822968], [-7.7227239, 41.282402], [-7.7231152, 41.2825535], [-7.7234568, 41.2827085], [-7.7247194, 41.2833395], [-7.7254776, 41.283707], [-7.7255798, 41.2837583]]}, "properties": {"destination": "Universidade;Vila Real;Torneiros", "destination:symbol": "centre", "highway": "primary", "incline": "-7%", "lane_markings": "yes", "lanes": "2", "lit": "no", "maxspeed": "50", "name": "Avenida da Unesco", "official_ref": "EM 313", "oneway": "yes", "ref": "EN 313", "surface": "asphalt"}}, {"type": "Feature", "geometry": {"type": "LineString", "coordinates": [[-7.7322087, 41.2873379], [-7.7321758, 41.2874232], [-7.7321456, 41.2875296], [-7.732131, 41.2876098], [-7.7321167, 41.2877638], [-7.7321214, 41.2878798], [-7.7321358, 41.2879911], [-7.7321573, 41.2880747], [-7.7321926, 41.2881884], [-7.7322408, 41.2882916], [-7.7323023, 41.288397], [-7.7323782, 41.2885014], [-7.7324802, 41.2886389], [-7.7325842, 41.2887722], [-7.7327556, 41.2889851], [-7.7332426, 41.2895491], [-7.733661, 41.2900201], [-7.7339733, 41.2903585], [-7.7340842, 41.2904567], [-7.7341621, 41.2905202], [-7.7342426, 41.2905781], [-7.7343283, 41.2906269], [-7.7344141, 41.2906697], [-7.7345034, 41.2907107], [-7.73458, 41.2907429], [-7.734726, 41.2907928], [-7.7348414, 41.2908242], [-7.7349769, 41.2908523], [-7.7350414, 41.2908647], [-7.7355361, 41.2909436]]}, "properties": {"highway": "primary", "lane_markings": "yes", "lanes": "2", "lanes:backward": "1", "lanes:forward": "1", "lit": "yes", "maxspeed": "50", "official_ref": "EM 313", "oneway": "no", "ref": "EN 313", "surface": "asphalt"}}, {"type": "Feature", "geometry": {"type": "LineString", "coordinates": [[-7.7368237, 41.29141], [-7.736825, 41.2913792], [-7.7368219, 41.2913511], [-7.7368133, 41.2913173], [-7.7367979, 41.2912876], [-7.7367791, 41.2912614], [-7.7367396, 41.2912277], [-7.7366971, 41.2912044], [-7.7366607, 41.2911934], [-7.7365722, 41.291188]]}, "properties": {"highway": "primary", "junction": "roundabout", "lanes": "2", "lit": "yes", "maxspeed": "50", "name": "Pra\u00e7a da Galiza", "official_ref": "EM 313", "ref": "EN 313", "surface": "asphalt"}}, {"type": "Feature", "geometry": {"type": "LineString", "coordinates": [[-7.7365905, 41.291807], [-7.7366247, 41.2918027], [-7.7366631, 41.2917935], [-7.7366847, 41.2917841], [-7.7367046, 41.2917717], [-7.736721, 41.291759], [-7.7367425, 41.2917416], [-7.7367592, 41.2917221], [-7.7367741, 41.2916957], [-7.7367833, 41.2916678], [-7.7367986, 41.2915597]]}, "properties": {"highway": "primary", "junction": "roundabout", "lanes": "2", "lit": "yes", "maxspeed": "50", "name": "Pra\u00e7a da Galiza", "official_ref": "EM 313", "ref": "EN 313", "surface": "asphalt"}}, {"type": "Feature", "geometry": {"type": "LineString", "coordinates": [[-7.7353188, 41.2939052], [-7.7353327, 41.2939347], [-7.7353482, 41.2939586], [-7.7353704, 41.2939806], [-7.7354027, 41.2939994], [-7.7354364, 41.2940129], [-7.7354729, 41.2940211], [-7.7355086, 41.2940238]]}, "properties": {"highway": "primary", "junction": "roundabout", "lanes": "2", "lit": "yes", "maxspeed": "50", "name": "Rotunda da Ford", "official_ref": "EM 313", "ref": "EN 313", "surface": "asphalt"}}, {"type": "Feature", "geometry": {"type": "LineString", "coordinates": [[-7.7354727, 41.2937328], [-7.7354371, 41.2937423], [-7.7354014, 41.2937551]]}, "properties": {"highway": "primary", "junction": "roundabout", "lanes": "2", "lit": "yes", "maxspeed": "50", "name": "Rotunda da Ford", "official_ref": "EM 313", "ref": "EN 313", "surface": "asphalt"}}, {"type": "Feature", "geometry": {"type": "LineString", "coordinates": [[-7.7354014, 41.2937551], [-7.7353699, 41.2937754], [-7.7353469, 41.2937967], [-7.7353279, 41.2938231], [-7.7353189, 41.2938485], [-7.7353138, 41.2938758]]}, "properties": {"highway": "primary", "junction": "roundabout", "lanes": "2", "lit": "yes", "maxspeed": "50", "name": "Rotunda da Ford", "official_ref": "EM 313", "ref": "EN 313", "surface": "asphalt"}}, {"type": "Feature", "geometry": {"type": "LineString", "coordinates": [[-7.7332848, 41.2864825], [-7.7333027, 41.2864333], [-7.7332988, 41.2863823], [-7.7332735, 41.2863348], [-7.7332295, 41.2862959], [-7.7331712, 41.2862696]]}, "properties": {"highway": "primary", "junction": "roundabout", "lane_markings": "yes", "lanes": "2", "lit": "no", "maxspeed": "40", "official_ref": "EM 313", "ref": "EN 313", "surface": "asphalt"}}, {"type": "Feature", "geometry": {"type": "LineString", "coordinates": [[-7.7328889, 41.2864577], [-7.7329114, 41.2864977], [-7.7329474, 41.2865317], [-7.7329944, 41.286557], [-7.7330487, 41.2865718]]}, "properties": {"highway": "primary", "junction": "roundabout", "lane_markings": "yes", "lanes": "2", "lit": "no", "maxspeed": "40", "official_ref": "EM 313", "ref": "EN 313", "surface": "asphalt"}}, {"type": "Feature", "geometry": {"type": "LineString", "coordinates": [[-7.7363603, 41.2913583], [-7.7363249, 41.2916705]]}, "properties": {"highway": "primary", "junction": "roundabout", "lanes": "2", "lit": "yes", "maxspeed": "50", "name": "Pra\u00e7a da Galiza", "official_ref": "EM 313", "ref": "EN 313", "surface": "asphalt"}}, {"type": "Feature", "geometry": {"type": "LineString", "coordinates": [[-7.7367986, 41.2915597], [-7.7368193, 41.2914397], [-7.7368237, 41.29141]]}, "properties": {"highway": "primary", "junction": "roundabout", "lanes": "2", "lit": "yes", "maxspeed": "50", "name": "Pra\u00e7a da Galiza", "official_ref": "EM 313", "ref": "EN 313", "surface": "asphalt"}}, {"type": "Feature", "geometry": {"type": "LineString", "coordinates": [[-7.7218626, 41.2811725], [-7.7219165, 41.2811785], [-7.7219703, 41.2811716], [-7.7220186, 41.2811526], [-7.7220567, 41.2811233], [-7.7220809, 41.2810866]]}, "properties": {"highway": "primary", "junction": "roundabout", "lane_markings": "no", "lanes": "2", "lit": "yes", "maxspeed": "40", "official_ref": "EM 313", "ref": "EN 313", "surface": "asphalt"}}, {"type": "Feature", "geometry": {"type": "LineString", "coordinates": [[-7.7219661, 41.2809225], [-7.7219157, 41.2809166], [-7.7218652, 41.280922], [-7.7218189, 41.2809382], [-7.7217809, 41.2809637]]}, "properties": {"highway": "primary", "junction": "roundabout", "lane_markings": "no", "lanes": "2", "lit": "yes", "maxspeed": "40", "official_ref": "EM 313", "ref": "EN 313", "surface": "asphalt"}}, {"type": "Feature", "geometry": {"type": "LineString", "coordinates": [[-7.7356739, 41.2939581], [-7.7356934, 41.2939309], [-7.7357029, 41.2939047], [-7.7357061, 41.2938745], [-7.7357022, 41.2938465], [-7.7356929, 41.2938213], [-7.7356726, 41.2937944]]}, "properties": {"highway": "primary", "junction": "roundabout", "lanes": "2", "lit": "yes", "maxspeed": "50", "name": "Rotunda da Ford", "official_ref": "EM 313", "ref": "EN 313", "surface": "asphalt"}}, {"type": "Feature", "geometry": {"type": "LineString", "coordinates": [[-7.721748, 41.2810094], [-7.7217404, 41.281047], [-7.7217476, 41.2810847], [-7.7217689, 41.2811192], [-7.7217953, 41.2811443], [-7.7218309, 41.2811624], [-7.7218626, 41.2811725]]}, "properties": {"highway": "primary", "junction": "roundabout", "lane_markings": "no", "lanes": "2", "lit": "yes", "maxspeed": "40", "official_ref": "EM 313", "ref": "EN 313", "surface": "asphalt"}}, {"type": "Feature", "geometry": {"type": "LineString", "coordinates": [[-7.7355086, 41.2940238], [-7.7355486, 41.2940212], [-7.7355879, 41.2940122], [-7.7356201, 41.2939989], [-7.735647, 41.2939817], [-7.7356739, 41.2939581]]}, "properties": {"highway": "primary", "junction": "roundabout", "lanes": "2", "lit": "yes", "maxspeed": "50", "name": "Rotunda da Ford", "official_ref": "EM 313", "ref": "EN 313", "surface": "asphalt"}}, {"type": "Feature", "geometry": {"type": "LineString", "coordinates": [[-7.7217809, 41.2809637], [-7.7217614, 41.2809853], [-7.721748, 41.2810094]]}, "properties": {"highway": "primary", "junction": "roundabout", "lane_markings": "no", "lanes": "2", "lit": "yes", "maxspeed": "40", "official_ref": "EM 313", "ref": "EN 313", "surface": "asphalt"}}, {"type": "Feature", "geometry": {"type": "LineString", "coordinates": [[-7.7365722, 41.291188], [-7.7365318, 41.2911931], [-7.7365012, 41.2912005], [-7.7364697, 41.2912151], [-7.7364488, 41.2912289], [-7.736427, 41.2912451], [-7.7364092, 41.2912635], [-7.7363908, 41.2912894], [-7.7363771, 41.2913133], [-7.7363603, 41.2913583]]}, "properties": {"highway": "primary", "junction": "roundabout", "lanes": "2", "lit": "yes", "maxspeed": "50", "name": "Pra\u00e7a da Galiza", "official_ref": "EM 313", "ref": "EN 313", "surface": "asphalt"}}, {"type": "Feature", "geometry": {"type": "LineString", "coordinates": [[-7.7325956, 41.2868628], [-7.7325547, 41.2868975], [-7.7325375, 41.2869121], [-7.7325169, 41.2869296], [-7.7324255, 41.287018], [-7.7323408, 41.2871139], [-7.7322906, 41.2871864], [-7.7322468, 41.2872624], [-7.7322087, 41.2873379]]}, "properties": {"highway": "primary", "lane_markings": "yes", "lanes": "2", "lanes:backward": "1", "lanes:forward": "1", "lit": "yes", "maxspeed:backward": "40", "maxspeed:forward": "50", "official_ref": "EM 313", "oneway": "no", "ref": "EN 313", "surface": "asphalt"}}, {"type": "Feature", "geometry": {"type": "LineString", "coordinates": [[-7.7355361, 41.2909436], [-7.7356523, 41.2909621], [-7.7357274, 41.2909734], [-7.7357924, 41.2909851], [-7.7358636, 41.2909995], [-7.7359398, 41.2910166], [-7.736059, 41.2910477]]}, "properties": {"highway": "primary", "lane_markings": "yes", "lanes": "2", "lanes:backward": "1", "lanes:forward": "1", "lit": "yes", "maxspeed:backward": "50", "maxspeed:forward": "40", "official_ref": "EM 313", "oneway": "no", "ref": "EN 313", "surface": "asphalt"}}, {"type": "Feature", "geometry": {"type": "LineString", "coordinates": [[-7.7255798, 41.2837583], [-7.7260015, 41.2839699], [-7.7263393, 41.2841432], [-7.7265128, 41.2842312], [-7.7265521, 41.2842555], [-7.7265902, 41.2842863], [-7.7266168, 41.284313], [-7.7267133, 41.2843979]]}, "properties": {"destination": "Universidade;Vila Real;Torneiros", "destination:symbol": "centre", "highway": "primary", "incline": "-7%", "lane_markings": "yes", "lanes": "2", "lit": "no", "maxspeed": "40", "name": "Avenida da Unesco", "official_ref": "EM 313", "oneway": "yes", "ref": "EN 313", "surface": "asphalt"}}, {"type": "Feature", "geometry": {"type": "LineString", "coordinates": [[-7.7221749, 41.2821347], [-7.7217874, 41.2820094], [-7.7214842, 41.2819141], [-7.7213061, 41.2818676], [-7.7211643, 41.281837], [-7.7210453, 41.2818014], [-7.7209453, 41.2817596]]}, "properties": {"destination": "Porto;Bragan\u00e7a;Sabrosa;Zona Industrial;Aer\u00f3dromo", "destination:ref": "A4;", "destination:symbol": "motorway;industrial;airport", "highway": "primary", "incline": "7%", "lane_markings": "yes", "lanes": "2", "lit": "yes", "maxspeed": "40", "name": "Avenida da Unesco", "official_ref": "EM 313", "oneway": "yes", "ref": "EN 313", "surface": "asphalt"}}, {"type": "Feature", "geometry": {"type": "LineString", "coordinates": [[-7.7320742, 41.2855482], [-7.7323384, 41.2857921], [-7.7326531, 41.2860755], [-7.7327904, 41.2862113], [-7.7328313, 41.2862555], [-7.7328605, 41.286306], [-7.7328893, 41.286375]]}, "properties": {"highway": "primary", "lane_markings": "yes", "lanes": "2", "lit": "no", "maxspeed": "40", "name": "Variante \u00e0 EN 313", "official_ref": "EM 313", "oneway": "yes", "ref": "EN 313", "surface": "asphalt"}}, {"type": "Feature", "geometry": {"type": "LineString", "coordinates": [[-7.7286731, 41.2845189], [-7.7280584, 41.2844486], [-7.7274085, 41.2843807], [-7.7273217, 41.2843694], [-7.7272522, 41.284358], [-7.7271814, 41.2843391], [-7.7271183, 41.2843061]]}, "properties": {"highway": "primary", "lane_markings": "yes", "lanes": "2", "lit": "no", "maxspeed": "40", "name": "Variante \u00e0 EN 313", "official_ref": "EM 313", "oneway": "yes", "ref": "EN 313", "surface": "asphalt"}}, {"type": "Feature", "geometry": {"type": "LineString", "coordinates": [[-7.7330487, 41.2865718], [-7.7331197, 41.286574], [-7.7331877, 41.2865584], [-7.7332449, 41.2865267], [-7.7332848, 41.2864825]]}, "properties": {"highway": "primary", "junction": "roundabout", "lane_markings": "yes", "lanes": "2", "lit": "no", "maxspeed": "40", "official_ref": "EM 313", "ref": "EN 313", "surface": "asphalt"}}, {"type": "Feature", "geometry": {"type": "LineString", "coordinates": [[-7.7363249, 41.2916705], [-7.7362967, 41.2918761], [-7.736272, 41.2920401], [-7.736176, 41.2925777]]}, "properties": {"highway": "primary", "lanes": "2", "lit": "yes", "maxspeed": "50", "name": "Avenida da Universidade", "official_ref": "EM 313", "oneway": "yes", "ref": "EN 313", "surface": "asphalt"}}, {"type": "Feature", "geometry": {"type": "LineString", "coordinates": [[-7.7353138, 41.2938758], [-7.7353188, 41.2939052]]}, "properties": {"highway": "primary", "junction": "roundabout", "lanes": "2", "lit": "yes", "maxspeed": "50", "name": "Rotunda da Ford", "official_ref": "EM 313", "ref": "EN 313", "surface": "asphalt"}}, {"type": "Feature", "geometry": {"type": "MultiPolygon", "coordinates": [[[[-7.720994, 41.2818455], [-7.7209783, 41.2817997], [-7.7209453, 41.2817596], [-7.7209065, 41.2817328], [-7.72086, 41.2817142], [-7.7208088, 41.2817048], [-7.7207417, 41.2817073], [-7.7206791, 41.2817255], [-7.7206274, 41.2817577], [-7.7205919, 41.2818005], [-7.7205771, 41.2818423], [-7.7205802, 41.2818944], [-7.7206057, 41.281943], [-7.720651, 41.2819826], [-7.7206913, 41.2820024], [-7.7207366, 41.2820148], [-7.7207845, 41.2820191], [-7.7208381, 41.282014], [-7.7208881, 41.2819989], [-7.7209314, 41.2819746], [-7.7209694, 41.281937], [-7.7209909, 41.2818926], [-7.720994, 41.2818455]]]]}, "properties": {"highway": "primary", "junction": "roundabout", "lane_markings": "yes", "lanes": "2", "lit": "yes", "maxspeed": "40", "official_ref": "EM 313", "ref": "EN 313", "surface": "asphalt"}}, {"type": "Feature", "geometry": {"type": "MultiPolygon", "coordinates": [[[[-7.7271309, 41.2843719], [-7.7271292, 41.2843385], [-7.7271183, 41.2843061], [-7.7270846, 41.2842614], [-7.7270336, 41.2842271], [-7.7269708, 41.2842068], [-7.7269027, 41.2842025], [-7.7268363, 41.2842148], [-7.7267857, 41.2842378], [-7.7267455, 41.2842704], [-7.7267189, 41.28431], [-7.7267079, 41.2843536], [-7.7267133, 41.2843979], [-7.72673, 41.2844324], [-7.7267567, 41.2844631], [-7.7268031, 41.2844943], [-7.7268596, 41.284514], [-7.7269212, 41.2845205], [-7.7269827, 41.2845132], [-7.7270387, 41.2844929], [-7.7270819, 41.2844636], [-7.7271067, 41.2844358], [-7.7271233, 41.2844048], [-7.7271309, 41.2843719]]]]}, "properties": {"highway": "primary", "junction": "roundabout", "lane_markings": "yes", "lanes": "2", "lit": "yes", "maxspeed": "40", "official_ref": "EM 313", "ref": "EN 313", "surface": "asphalt"}}]}