{"type": "FeatureCollection", "features": [{"type": "Feature", "geometry": {"type": "LineString", "coordinates": [[-7.9401584, 41.1232039], [-7.9405843, 41.121625], [-7.9408911, 41.1200144]]}, "properties": {"bridge": "yes", "highway": "primary", "layer": "1", "name": "Ponte da Ermida", "ref": "EN 321-2", "source": "bing", "surface": "asphalt", "wikidata": "Q132129210", "wikimedia_commons": "Category:Ponte da Ermida"}}, {"type": "Feature", "geometry": {"type": "LineString", "coordinates": [[-7.9463401, 41.1341339], [-7.9460982, 41.1341512], [-7.9456995, 41.1341156], [-7.945394, 41.1339934], [-7.9451683, 41.133799], [-7.9450169, 41.1335455], [-7.9449831, 41.1333155], [-7.9450521, 41.1330498], [-7.9453616, 41.132553], [-7.9455089, 41.1321662], [-7.9455481, 41.1318313], [-7.945417, 41.1311696], [-7.9454129, 41.1308652], [-7.9457414, 41.1299164], [-7.9458103, 41.1296293], [-7.9458319, 41.1293596], [-7.9456319, 41.1283466], [-7.9456467, 41.1281064], [-7.9457057, 41.1279548], [-7.9457929, 41.1277164], [-7.945927, 41.1274577], [-7.9459928, 41.1272911], [-7.9460115, 41.1271083], [-7.9460236, 41.1269224], [-7.9460102, 41.1267436], [-7.945864, 41.126486]]}, "properties": {"highway": "primary", "name": "Rua Nova da Ermida", "ref": "EN 321-2", "source": "bing", "surface": "asphalt"}}, {"type": "Feature", "geometry": {"type": "LineString", "coordinates": [[-7.945864, 41.126486], [-7.945105, 41.1253191]]}, "properties": {"bridge": "yes", "highway": "primary", "lanes": "2", "layer": "1", "name": "Rua Nova da Ermida", "oneway": "no", "ref": "EN 321-2", "source": "bing", "surface": "asphalt"}}, {"type": "Feature", "geometry": {"type": "LineString", "coordinates": [[-7.9399615, 41.1239023], [-7.9400312, 41.1236356], [-7.9400782, 41.1234774], [-7.9401584, 41.1232039]]}, "properties": {"highway": "primary", "name": "Rua Nova da Ermida", "ref": "EN 321-2", "source": "bing", "surface": "asphalt"}}, {"type": "Feature", "geometry": {"type": "LineString", "coordinates": [[-7.9470361, 41.1336829], [-7.9468523, 41.1338977], [-7.9466401, 41.1340382], [-7.9463401, 41.1341339]]}, "properties": {"bridge": "yes", "highway": "primary", "layer": "1", "name": "Rua Nova da Ermida", "ref": "EN 321-2", "source": "bing", "surface": "asphalt"}}, {"type": "Feature", "geometry": {"type": "LineString", "coordinates": [[-7.9408911, 41.1200144], [-7.9409254, 41.1195482], [-7.9409423, 41.1192936], [-7.9408696, 41.1190773], [-7.9406399, 41.1188724], [-7.9403206, 41.1187782], [-7.9399641, 41.1187642], [-7.9395232, 41.1188062], [-7.939192, 41.1187795], [-7.9389707, 41.1186789], [-7.9388474, 41.1185046], [-7.9388423, 41.1182958], [-7.9389825, 41.118138], [-7.9392174, 41.1180324], [-7.9395046, 41.1180158], [-7.9397766, 41.1180591], [-7.9407497, 41.1183315], [-7.9418116, 41.1187977], [-7.9431673, 41.1193929], [-7.943473, 41.1194807], [-7.9438255, 41.1195294], [-7.9440723, 41.1195496], [-7.944421, 41.1195092], [-7.9467061, 41.1190449], [-7.9470099, 41.1189604], [-7.9472116, 41.1188935], [-7.947382, 41.1188176], [-7.9475717, 41.1186747], [-7.9476773, 41.1185644], [-7.9478189, 41.1183455], [-7.9479078, 41.1180725], [-7.9481156, 41.1171465], [-7.9482322, 41.1169225], [-7.9484112, 41.1167418], [-7.9486968, 41.1165547], [-7.9490465, 41.1164172], [-7.9495905, 41.116211], [-7.9498608, 41.116029], [-7.9500821, 41.115777], [-7.9501851, 41.115511], [-7.9514471, 41.1117715], [-7.9514725, 41.1115487], [-7.9513897, 41.1113425], [-7.9513398, 41.1112678], [-7.9512829, 41.1112192]]}, "properties": {"highway": "primary", "name": "Rua da Ponte da Ermida", "ref": "EN 321-2", "source": "bing", "surface": "asphalt"}}, {"type": "Feature", "geometry": {"type": "LineString", "coordinates": [[-7.948322, 41.1311903], [-7.948192, 41.1311978], [-7.948062, 41.1312531], [-7.9478984, 41.1313803], [-7.9477889, 41.1315656], [-7.9471848, 41.1333521], [-7.9470361, 41.1336829]]}, "properties": {"highway": "primary", "name": "Rua Nova da Ermida", "ref": "EN 321-2", "source": "bing", "surface": "asphalt"}}, {"type": "Feature", "geometry": {"type": "LineString", "coordinates": [[-7.9414187, 41.1250919], [-7.9411873, 41.1250944], [-7.9409541, 41.1250728], [-7.9406777, 41.1249833], [-7.9404845, 41.1248944], [-7.9403558, 41.1247994], [-7.9402244, 41.1246944], [-7.9400822, 41.1245064], [-7.9400152, 41.1243812], [-7.9399776, 41.1242296], [-7.9399508, 41.1240599], [-7.9399615, 41.1239023]]}, "properties": {"bridge": "yes", "highway": "primary", "lanes": "2", "layer": "1", "name": "Rua Nova da Ermida", "oneway": "no", "ref": "EN 321-2", "source": "bing", "surface": "asphalt"}}, {"type": "Feature", "geometry": {"type": "LineString", "coordinates": [[-7.9439222, 41.1247342], [-7.9436227, 41.1247553], [-7.9417008, 41.1250601], [-7.9414187, 41.1250919]]}, "properties": {"highway": "primary", "lanes": "2", "name": "Rua Nova da Ermida", "oneway": "no", "ref": "EN 321-2", "source": "bing", "surface": "asphalt"}}, {"type": "Feature", "geometry": {"type": "LineString", "coordinates": [[-7.9508614, 41.1110534], [-7.9509341, 41.1110956], [-7.9509981, 41.1111198], [-7.9511106, 41.1111539], [-7.9511812, 41.1111724], [-7.9512829, 41.1112192]]}, "properties": {"highway": "primary", "oneway": "yes", "ref": "EN 321-2", "source": "bing", "surface": "asphalt"}}, {"type": "Feature", "geometry": {"type": "LineString", "coordinates": [[-7.9450766, 41.1252757], [-7.9450276, 41.1251735], [-7.944966, 41.1250806]]}, "properties": {"highway": "primary", "lanes": "1", "name": "Rua Nova da Ermida", "oneway": "yes", "ref": "EN 321-2", "surface": "asphalt"}}, {"type": "Feature", "geometry": {"type": "LineString", "coordinates": [[-7.9439222, 41.1247342], [-7.9442659, 41.1248116], [-7.9445248, 41.1248928], [-7.9446652, 41.1249565], [-7.9447348, 41.1250009], [-7.9447819, 41.1250339]]}, "properties": {"highway": "primary", "lanes": "1", "name": "Rua Nova da Ermida", "oneway": "yes", "ref": "EN 321-2", "source": "bing", "surface": "asphalt"}}, {"type": "Feature", "geometry": {"type": "LineString", "coordinates": [[-7.945105, 41.1253191], [-7.9450766, 41.1252757]]}, "properties": {"highway": "primary", "lanes": "2", "name": "Rua Nova da Ermida", "oneway": "no", "ref": "EN 321-2", "source": "bing", "surface": "asphalt"}}, {"type": "Feature", "geometry": {"type": "LineString", "coordinates": [[-7.9487058, 41.1314467], [-7.9486687, 41.1313162], [-7.9486225, 41.13123], [-7.9484722, 41.1311952]]}, "properties": {"highway": "primary", "name": "Rua Nova da Ermida", "oneway": "yes", "ref": "EN 321-2", "source": "bing", "surface": "asphalt"}}, {"type": "Feature", "geometry": {"type": "LineString", "coordinates": [[-7.9484429, 41.1312595], [-7.9484706, 41.1313729], [-7.9484389, 41.1314714], [-7.9483608, 41.1315724]]}, "properties": {"highway": "primary", "name": "Rua Nova da Ermida", "oneway": "yes", "ref": "EN 321-2", "source": "bing", "surface": "asphalt"}}, {"type": "Feature", "geometry": {"type": "LineString", "coordinates": [[-7.9489698, 41.1313506], [-7.9486225, 41.13123]]}, "properties": {"highway": "primary", "name": "Rua Nova da Ermida", "oneway": "yes", "ref": "EN 321-2", "source": "bing", "surface": "asphalt"}}, {"type": "Feature", "geometry": {"type": "LineString", "coordinates": [[-7.948322, 41.1311903], [-7.9484429, 41.1312595], [-7.948534, 41.1313072], [-7.948633, 41.1313908], [-7.9487058, 41.1314467]]}, "properties": {"highway": "primary", "name": "Rua Nova da Ermida", "oneway": "yes", "ref": "EN 321-2", "source": "bing", "surface": "asphalt"}}, {"type": "Feature", "geometry": {"type": "LineString", "coordinates": [[-7.9511917, 41.1111366], [-7.9510981, 41.1110712]]}, "properties": {"highway": "primary", "oneway": "yes", "ref": "EN 321-2", "source": "bing", "surface": "asphalt"}}, {"type": "Feature", "geometry": {"type": "LineString", "coordinates": [[-7.9510981, 41.1110712], [-7.9510111, 41.1110482], [-7.9509332, 41.1110555], [-7.9508614, 41.1110534]]}, "properties": {"highway": "primary", "oneway": "yes", "ref": "EN 321-2", "source": "bing", "surface": "asphalt"}}, {"type": "Feature", "geometry": {"type": "LineString", "coordinates": [[-7.9512829, 41.1112192], [-7.9511917, 41.1111366]]}, "properties": {"highway": "primary", "oneway": "yes", "ref": "EN 321-2", "source": "bing", "surface": "asphalt"}}, {"type": "Feature", "geometry": {"type": "LineString", "coordinates": [[-7.9484722, 41.1311952], [-7.948322, 41.1311903]]}, "properties": {"highway": "primary", "name": "Rua Nova da Ermida", "oneway": "yes", "ref": "EN 321-2", "source": "bing", "surface": "asphalt"}}, {"type": "Feature", "geometry": {"type": "LineString", "coordinates": [[-7.9447819, 41.1250339], [-7.9448877, 41.1251081], [-7.9450766, 41.1252757]]}, "properties": {"highway": "primary", "lanes": "1", "name": "Rua Nova da Ermida", "oneway": "yes", "ref": "EN 321-2", "source": "bing", "surface": "asphalt"}}, {"type": "Feature", "geometry": {"type": "LineString", "coordinates": [[-7.9448314, 41.1249629], [-7.9447899, 41.1249298]]}, "properties": {"highway": "primary", "lanes": "1", "name": "Rua Nova da Ermida", "oneway": "yes", "ref": "EN 321-2", "surface": "asphalt"}}, {"type": "Feature", "geometry": {"type": "LineString", "coordinates": [[-7.9447899, 41.1249298], [-7.9447675, 41.1249119], [-7.9446468, 41.1248523], [-7.9445435, 41.1248088]]}, "properties": {"highway": "primary", "lanes": "1", "name": "Rua Nova da Ermida", "oneway": "yes", "ref": "EN 321-2", "surface": "asphalt"}}, {"type": "Feature", "geometry": {"type": "LineString", "coordinates": [[-7.944966, 41.1250806], [-7.9449016, 41.125019], [-7.9448314, 41.1249629]]}, "properties": {"highway": "primary", "lanes": "1", "name": "Rua Nova da Ermida", "oneway": "yes", "ref": "EN 321-2", "surface": "asphalt"}}, {"type": "Feature", "geometry": {"type": "LineString", "coordinates": [[-7.9445435, 41.1248088], [-7.9444148, 41.1247694], [-7.944232, 41.1247342], [-7.9439959, 41.1247241], [-7.9439222, 41.1247342]]}, "properties": {"highway": "primary", "lanes": "1", "oneway": "yes", "ref": "EN 321-2", "surface": "asphalt"}}]}