{"type": "FeatureCollection", "features": [{"type": "Feature", "geometry": {"type": "LineString", "coordinates": [[-8.0046898, 39.5490816], [-8.0047188, 39.5491944], [-8.0047632, 39.5492587], [-8.004806, 39.5493207], [-8.0048298, 39.5493952]]}, "properties": {"highway": "primary", "oneway": "yes", "ref": "EN 3-12", "source": "Bing"}}, {"type": "Feature", "geometry": {"type": "LineString", "coordinates": [[-8.0050038, 39.549252], [-8.0048818, 39.5492319], [-8.0048342, 39.549209], [-8.0047961, 39.5491907], [-8.0047733, 39.549164], [-8.0046898, 39.5490816]]}, "properties": {"highway": "primary", "oneway": "yes", "ref": "EN 3-12", "source": "Bing"}}, {"type": "Feature", "geometry": {"type": "LineString", "coordinates": [[-8.0114467, 39.5163301], [-8.0113352, 39.5164055], [-8.0111529, 39.5165324], [-8.0110083, 39.5166357], [-8.0108579, 39.5167457], [-8.0107438, 39.5168349], [-8.0106131, 39.5169393], [-8.0105184, 39.5170195], [-8.0104117, 39.5171112], [-8.0103287, 39.5171859], [-8.0101869, 39.5173166], [-8.0100423, 39.5174565], [-8.009893, 39.5176027], [-8.0097804, 39.5177155], [-8.0095988, 39.5178954], [-8.0090828, 39.5184098], [-8.0087361, 39.5187529], [-8.0085292, 39.5189618], [-8.0073598, 39.520123], [-8.0071601, 39.5204238], [-8.0070701, 39.5206693], [-8.0070281, 39.5209538], [-8.0070701, 39.5212238], [-8.007274, 39.521679], [-8.0089477, 39.5241452], [-8.0090872, 39.524501], [-8.0092159, 39.5248817], [-8.0094233, 39.5258085], [-8.0099797, 39.5282942], [-8.0105569, 39.5308726], [-8.0105438, 39.5313079], [-8.0105157, 39.5315962], [-8.0100634, 39.534861], [-8.0099457, 39.5355416], [-8.009763, 39.5365987], [-8.0096842, 39.5367991], [-8.0096358, 39.5368785], [-8.0095349, 39.5370441], [-8.0093673, 39.5371893], [-8.0093321, 39.5372198], [-8.0089818, 39.5374534], [-8.0083829, 39.5377834], [-8.0058864, 39.5391591], [-8.0056002, 39.5393622], [-8.0047095, 39.5401944], [-8.0044844, 39.5404047], [-8.0033471, 39.54153], [-8.0031858, 39.5417781], [-8.0030873, 39.5420498], [-8.0030669, 39.5424089], [-8.0030665, 39.5424523], [-8.003066, 39.5424993], [-8.003053, 39.5438282], [-8.0030417, 39.5449792], [-8.0031041, 39.5452623], [-8.0039548, 39.5473314], [-8.0046898, 39.5490816]]}, "properties": {"highway": "primary", "ref": "EN 3-12", "source": "Bing", "surface": "asphalt"}}, {"type": "Feature", "geometry": {"type": "LineString", "coordinates": [[-8.0126061, 39.5118379], [-8.012494, 39.5121586], [-8.0124468, 39.5123043], [-8.0124037, 39.5124674], [-8.0123677, 39.5126052], [-8.0123431, 39.5127121], [-8.0123257, 39.5128158], [-8.0123039, 39.5129977], [-8.0122937, 39.5131021], [-8.0122899, 39.5132227], [-8.0122961, 39.5133176], [-8.012297, 39.5133245], [-8.0123085, 39.5134134], [-8.0123163, 39.5134742], [-8.0123271, 39.5135342], [-8.0123435, 39.513626], [-8.0123756, 39.5138201]]}, "properties": {"highway": "primary", "oneway": "yes", "ref": "EN 3-12"}}, {"type": "Feature", "geometry": {"type": "LineString", "coordinates": [[-8.0114467, 39.5163301], [-8.0117508, 39.5161497], [-8.0118846, 39.5160644], [-8.0120215, 39.5159756], [-8.0121132, 39.515912], [-8.012205, 39.51584], [-8.0122766, 39.5157776], [-8.012345, 39.515714], [-8.0124228, 39.5156264], [-8.0124882, 39.5155328], [-8.0125348, 39.5154596], [-8.0125799, 39.5153696], [-8.0126188, 39.5152604], [-8.01265, 39.5151415], [-8.0126655, 39.5150491], [-8.0126686, 39.5149615], [-8.012664, 39.5148475], [-8.0126546, 39.5147683], [-8.0126232, 39.5145826], [-8.0126183, 39.514551], [-8.0126033, 39.514461], [-8.012585, 39.5143553]]}, "properties": {"highway": "primary", "oneway": "yes", "ref": "EN 3-12"}}, {"type": "Feature", "geometry": {"type": "LineString", "coordinates": [[-8.012585, 39.5143553], [-8.0125333, 39.5140554], [-8.01248, 39.5137425]]}, "properties": {"bridge": "yes", "highway": "primary", "layer": "1", "oneway": "yes", "ref": "EN 3-12"}}, {"type": "Feature", "geometry": {"type": "LineString", "coordinates": [[-8.0124795, 39.514425], [-8.012516, 39.5146521], [-8.0125222, 39.5146844], [-8.0125438, 39.5148166], [-8.0125551, 39.5149014], [-8.0125571, 39.5150035], [-8.012553, 39.5150724], [-8.0125417, 39.5151524], [-8.0125263, 39.5152276], [-8.0125027, 39.5153068], [-8.012473, 39.5153859], [-8.0124401, 39.5154556], [-8.012397, 39.5155301], [-8.0123395, 39.5156092], [-8.0122841, 39.5156813], [-8.0122215, 39.5157486], [-8.0121599, 39.5158032], [-8.0120809, 39.5158681], [-8.0119895, 39.5159362], [-8.0118541, 39.5160289], [-8.011698, 39.5161405], [-8.0114467, 39.5163301]]}, "properties": {"highway": "primary", "oneway": "yes", "ref": "EN 3-12"}}, {"type": "Feature", "geometry": {"type": "LineString", "coordinates": [[-8.0123756, 39.5138201], [-8.0123879, 39.5138942], [-8.0124319, 39.5141618], [-8.0124593, 39.5143154], [-8.0124635, 39.5143393], [-8.0124795, 39.514425]]}, "properties": {"bridge": "yes", "highway": "primary", "layer": "1", "oneway": "yes", "ref": "EN 3-12"}}, {"type": "Feature", "geometry": {"type": "LineString", "coordinates": [[-8.01248, 39.5137425], [-8.0124734, 39.5137043], [-8.0124417, 39.5135003], [-8.0124228, 39.5133797], [-8.0124151, 39.513314], [-8.0124057, 39.5132345], [-8.0123964, 39.5131025], [-8.0123933, 39.512974], [-8.0123948, 39.512872], [-8.0124026, 39.5127916], [-8.0124166, 39.5127088], [-8.0124442, 39.5125782], [-8.0124746, 39.5124528], [-8.0125228, 39.5122487], [-8.0126061, 39.5118379]]}, "properties": {"highway": "primary", "oneway": "yes", "ref": "EN 3-12"}}]}