{"type": "FeatureCollection", "features": [{"type": "Feature", "geometry": {"type": "LineString", "coordinates": [[-27.2163937, 38.6758749], [-27.2163382, 38.6756851], [-27.2163078, 38.6755284], [-27.2162928, 38.6754225], [-27.2162944, 38.6753085], [-27.2163159, 38.6751787], [-27.2163705, 38.6749799], [-27.216391, 38.6748332], [-27.2163893, 38.6746737], [-27.2163852, 38.6745215], [-27.2162595, 38.6739956], [-27.2161897, 38.6736372], [-27.2161567, 38.673468], [-27.2159886, 38.672624], [-27.2158254, 38.6718651], [-27.215774, 38.6716243], [-27.2157401, 38.6714248], [-27.2157301, 38.6712496], [-27.2157273, 38.6709994], [-27.2156164, 38.6705435], [-27.2155186, 38.6698095], [-27.2154858, 38.6695785], [-27.2153986, 38.6689303], [-27.2153859, 38.6688348], [-27.2153711, 38.6687234], [-27.2153596, 38.6686006], [-27.2153585, 38.6685165]]}, "properties": {"highway": "primary", "lanes": "1", "lit": "yes", "maxspeed": "50", "name": "Rua Doutor An\u00edbal Bettencourt", "ref": "EN 3-1\u00aa", "surface": "asphalt"}}, {"type": "Feature", "geometry": {"type": "LineString", "coordinates": [[-27.2163937, 38.6758749], [-27.2164045, 38.6762208]]}, "properties": {"highway": "primary", "lanes": "1", "lit": "yes", "maxspeed": "50", "name": "Rua Doutor An\u00edbal Bettencourt", "oneway": "yes", "ref": "EN 3-1\u00aa", "surface": "asphalt"}}, {"type": "Feature", "geometry": {"type": "LineString", "coordinates": [[-27.2166108, 38.6761782], [-27.2163937, 38.6758749]]}, "properties": {"highway": "primary", "lanes": "1", "lit": "yes", "maxspeed": "50", "name": "Rua Doutor An\u00edbal Bettencourt", "oneway": "yes", "ref": "EN 3-1\u00aa", "surface": "asphalt"}}]}