{"type": "FeatureCollection", "features": [{"type": "Feature", "geometry": {"type": "LineString", "coordinates": [[-7.6388747, 40.2032248], [-7.6388892, 40.2031238], [-7.6387553, 40.2023659]]}, "properties": {"highway": "primary", "name": "Rua Fundo do Povo", "ref": "EN 343-1"}}, {"type": "Feature", "geometry": {"type": "LineString", "coordinates": [[-7.6022866, 40.2330735], [-7.6058977, 40.2302351], [-7.6061496, 40.2300083], [-7.606375, 40.229745], [-7.6070033, 40.22886], [-7.6074485, 40.2284725], [-7.6076125, 40.228347], [-7.6089886, 40.2272945], [-7.6094633, 40.226875], [-7.6101167, 40.22605], [-7.6103567, 40.22564], [-7.6104073, 40.2254032], [-7.6103635, 40.224913], [-7.6104259, 40.2246253], [-7.6105533, 40.2243549], [-7.611128, 40.2237409], [-7.6114047, 40.2234999], [-7.611953, 40.2231861], [-7.6138715, 40.222156], [-7.6163007, 40.2212662], [-7.6179768, 40.2206435], [-7.6186837, 40.2203877]]}, "properties": {"highway": "primary", "ref": "EN 343-1"}}, {"type": "Feature", "geometry": {"type": "LineString", "coordinates": [[-7.6389435, 40.2020909], [-7.6391869, 40.2017978], [-7.639264, 40.2017087], [-7.6394056, 40.2014809], [-7.6394467, 40.2013832], [-7.639456, 40.2013218], [-7.6394616, 40.201159], [-7.6394344, 40.2009858], [-7.6393767, 40.2007711], [-7.639248, 40.2005933], [-7.6391208, 40.2003975], [-7.6390789, 40.2003327], [-7.6388742, 40.2000158], [-7.6387287, 40.1998392], [-7.6387145, 40.1998112], [-7.6386777, 40.1997209], [-7.6386655, 40.1996647]]}, "properties": {"highway": "primary", "name": "Rua Fundo do Povo", "ref": "EN 343-1"}}, {"type": "Feature", "geometry": {"type": "LineString", "coordinates": [[-7.6388747, 40.2032248], [-7.6389268, 40.2032652]]}, "properties": {"highway": "primary", "name": "Rua da Ponte", "ref": "EN 343-1"}}, {"type": "Feature", "geometry": {"type": "LineString", "coordinates": [[-7.6365818, 40.2086203], [-7.6367768, 40.2082656], [-7.6372783, 40.2074445], [-7.6374722, 40.2070317], [-7.6375616, 40.2068253], [-7.6378227, 40.2062939], [-7.6381462, 40.2057976]]}, "properties": {"highway": "primary", "ref": "EN 343-1"}}, {"type": "Feature", "geometry": {"type": "LineString", "coordinates": [[-7.6389268, 40.2032652], [-7.6393398, 40.203558]]}, "properties": {"bridge": "yes", "highway": "primary", "layer": "1", "name": "Rua da Ponte", "ref": "EN 343-1"}}, {"type": "Feature", "geometry": {"type": "LineString", "coordinates": [[-7.5942977, 40.2403267], [-7.5943303, 40.2402136], [-7.5947517, 40.2392117], [-7.5951514, 40.238287], [-7.5952516, 40.2381019], [-7.5955367, 40.237785], [-7.5964533, 40.237115], [-7.5969417, 40.236905], [-7.5976117, 40.2367067], [-7.597855, 40.2365567], [-7.6021973, 40.2331436]]}, "properties": {"highway": "primary", "ref": "EN 343-1"}}, {"type": "Feature", "geometry": {"type": "LineString", "coordinates": [[-7.6021973, 40.2331436], [-7.6022866, 40.2330735]]}, "properties": {"bridge": "yes", "highway": "primary", "layer": "1", "ref": "EN 343-1"}}, {"type": "Feature", "geometry": {"type": "LineString", "coordinates": [[-7.5943383, 40.2406095], [-7.5943541, 40.2405268], [-7.5943426, 40.2404216], [-7.5942977, 40.2403267]]}, "properties": {"highway": "primary", "oneway": "yes", "ref": "EN 343-1"}}, {"type": "Feature", "geometry": {"type": "LineString", "coordinates": [[-7.5945783, 40.2405089], [-7.5944252, 40.2404578], [-7.5943426, 40.2404216]]}, "properties": {"highway": "primary", "oneway": "yes", "ref": "EN 343-1"}}, {"type": "Feature", "geometry": {"type": "LineString", "coordinates": [[-7.5942395, 40.2404288], [-7.5940933, 40.2406641], [-7.5940818, 40.2407169]]}, "properties": {"highway": "primary", "oneway": "yes", "ref": "EN 343-1"}}, {"type": "Feature", "geometry": {"type": "LineString", "coordinates": [[-7.5942977, 40.2403267], [-7.5942395, 40.2404288], [-7.594279, 40.2405509], [-7.5943383, 40.2406095]]}, "properties": {"highway": "primary", "oneway": "yes", "ref": "EN 343-1"}}, {"type": "Feature", "geometry": {"type": "LineString", "coordinates": [[-7.6192172, 40.2201956], [-7.6193717, 40.22014], [-7.6198382, 40.219934], [-7.620135, 40.2197685], [-7.6206946, 40.219373], [-7.6208648, 40.2192089], [-7.6215426, 40.2180328], [-7.6217671, 40.2177905], [-7.622769, 40.2171021], [-7.6229278, 40.2169906], [-7.6232111, 40.216794], [-7.6233717, 40.2166867], [-7.6234188, 40.2166599], [-7.62377, 40.21646], [-7.6241184, 40.2163982], [-7.6245296, 40.2164223], [-7.6258952, 40.2165604], [-7.6264575, 40.2166509], [-7.6266964, 40.2166364], [-7.6268632, 40.2166034], [-7.6269941, 40.2165516], [-7.627092, 40.2165046], [-7.6272326, 40.2163934], [-7.62826, 40.21552], [-7.6286977, 40.2151911], [-7.6289525, 40.2149924], [-7.6291687, 40.2148208], [-7.6293495, 40.2147069], [-7.6295296, 40.2146012], [-7.6299419, 40.2144075], [-7.631438, 40.2137045], [-7.6317782, 40.2135216], [-7.6321486, 40.2132721], [-7.6325872, 40.212971], [-7.6333362, 40.2123666], [-7.6336469, 40.2121275], [-7.6352466, 40.2110803], [-7.6356994, 40.2107594], [-7.6359262, 40.2104411], [-7.6361905, 40.2100119], [-7.6362817, 40.2097804], [-7.6363508, 40.2095346], [-7.6365818, 40.2086203]]}, "properties": {"highway": "primary", "ref": "EN 343-1"}}, {"type": "Feature", "geometry": {"type": "LineString", "coordinates": [[-7.6186837, 40.2203877], [-7.6192172, 40.2201956]]}, "properties": {"bridge": "yes", "highway": "primary", "layer": "1", "ref": "EN 343-1"}}, {"type": "Feature", "geometry": {"type": "LineString", "coordinates": [[-7.6387553, 40.2023659], [-7.6387689, 40.2022563]]}, "properties": {"highway": "primary", "name": "Largo Professor Lu\u00eds Fonseca", "ref": "EN 343-1"}}, {"type": "Feature", "geometry": {"type": "LineString", "coordinates": [[-7.6387689, 40.2022563], [-7.6389435, 40.2020909]]}, "properties": {"highway": "primary", "name": "Largo Professor Lu\u00eds Fonseca", "ref": "EN 343-1"}}, {"type": "Feature", "geometry": {"type": "LineString", "coordinates": [[-7.6381462, 40.2057976], [-7.6387693, 40.2048165], [-7.6389829, 40.2044926], [-7.6394325, 40.2037666], [-7.6394427, 40.2037001], [-7.639423, 40.2036252], [-7.6393928, 40.2035908], [-7.6393398, 40.203558]]}, "properties": {"highway": "primary", "name": "Rua da Ponte", "ref": "EN 343-1"}}]}