{"type": "FeatureCollection", "features": [{"type": "Feature", "geometry": {"type": "LineString", "coordinates": [[-6.78871, 41.8536489], [-6.7888664, 41.8538001], [-6.7895753, 41.8544623], [-6.7897167, 41.8546801], [-6.789827, 41.8550015], [-6.7901087, 41.8557017], [-6.7905754, 41.856345], [-6.7906934, 41.8564409], [-6.7916108, 41.8568085], [-6.7920828, 41.8568005], [-6.7924154, 41.8569284], [-6.7927695, 41.8573479], [-6.7942018, 41.8583627], [-6.7955482, 41.8591259], [-6.7966104, 41.8603884], [-6.7968974, 41.8606075], [-6.7972434, 41.8608718], [-6.7974741, 41.8612913], [-6.7976725, 41.861527], [-6.7978979, 41.8616748], [-6.7981178, 41.8617388], [-6.7990566, 41.8618906], [-6.7990977, 41.8619153], [-6.799196, 41.8619745], [-6.7998739, 41.8627278], [-6.7998934, 41.8627495], [-6.7999578, 41.8629373], [-6.7998827, 41.8637843], [-6.7999607, 41.8643397], [-6.8000077, 41.8646738], [-6.8000758, 41.8651586], [-6.8000352, 41.8653755], [-6.8000114, 41.8657139], [-6.8005302, 41.8664537], [-6.8005956, 41.866547], [-6.8006813, 41.8666436], [-6.8007584, 41.8667305], [-6.801256, 41.8672918], [-6.8014974, 41.8674756], [-6.8025059, 41.8678511], [-6.8029243, 41.8680548], [-6.803415, 41.8685769], [-6.8036753, 41.8688538], [-6.8037397, 41.8697047], [-6.8037215, 41.8698047]]}, "properties": {"highway": "primary", "ref": "EN 308-3", "source": "Bing"}}, {"type": "Feature", "geometry": {"type": "LineString", "coordinates": [[-6.7708494, 41.8249964], [-6.7713102, 41.8250839], [-6.7717528, 41.8251128], [-6.7718461, 41.8251451], [-6.772114, 41.8252558], [-6.7723665, 41.8254027], [-6.7724618, 41.8255338], [-6.7724687, 41.8255986], [-6.7724553, 41.8256714], [-6.7723751, 41.8258325], [-6.772358, 41.8259902], [-6.7723932, 41.8260885], [-6.7724522, 41.8261486], [-6.7726118, 41.8262144], [-6.7729426, 41.8263076], [-6.7733358, 41.8265542], [-6.7735684, 41.8266415], [-6.7738277, 41.8267033], [-6.7739674, 41.8267323], [-6.7742537, 41.8266563], [-6.7744553, 41.8266474], [-6.7747933, 41.8266794], [-6.7754048, 41.8269272], [-6.7755898, 41.826963], [-6.7759359, 41.8269272], [-6.7762202, 41.8269912], [-6.7766226, 41.827243], [-6.7768103, 41.827275], [-6.776938, 41.8272712], [-6.7770716, 41.8272278], [-6.7772852, 41.827155], [-6.7777437, 41.8270071], [-6.7785806, 41.8264955], [-6.7788756, 41.8264035], [-6.7791186, 41.8263687], [-6.7795462, 41.8263076], [-6.7796039, 41.8262861], [-6.7797608, 41.8262277], [-6.7802972, 41.8259238], [-6.7813833, 41.8254744], [-6.7817904, 41.8252417], [-6.7819998, 41.8251443], [-6.7828392, 41.82494], [-6.7836198, 41.824715], [-6.7838255, 41.82472], [-6.7840068, 41.8247597], [-6.7843864, 41.8248656], [-6.7849481, 41.8249205], [-6.7850799, 41.824968], [-6.7852134, 41.8250477], [-6.7854256, 41.8252483], [-6.785504, 41.8253327], [-6.785582, 41.8254305], [-6.7856365, 41.8256607], [-6.7856954, 41.8257646], [-6.7858208, 41.8258486], [-6.7859888, 41.8259064], [-6.7861391, 41.825983], [-6.7863647, 41.8262034], [-6.7865843, 41.8264915], [-6.7866497, 41.8265768], [-6.7867613, 41.8266437], [-6.786965, 41.8266775], [-6.787268, 41.8266302], [-6.7874616, 41.8266158], [-6.7875589, 41.8266415], [-6.7876411, 41.8266993], [-6.7876849, 41.8268021], [-6.7877584, 41.8270966], [-6.787802, 41.8274069], [-6.7878986, 41.8276027], [-6.7883063, 41.8279025], [-6.7883867, 41.8281784], [-6.7883277, 41.8283702], [-6.7880707, 41.8285649], [-6.787684, 41.8288579], [-6.7876549, 41.8289026], [-6.7876035, 41.8289818], [-6.7876089, 41.8291097], [-6.788022, 41.8298692], [-6.7882312, 41.8299651], [-6.7887032, 41.8300171], [-6.7888856, 41.830093], [-6.7891324, 41.8302649], [-6.789229, 41.8303928], [-6.7892467, 41.8306569], [-6.7892625, 41.8308928], [-6.789288, 41.8312722], [-6.7897654, 41.8318957], [-6.7900229, 41.8323994], [-6.7900443, 41.8334146], [-6.7898244, 41.8337184], [-6.7896045, 41.8338822], [-6.7893255, 41.8340101], [-6.7884189, 41.8340941], [-6.7880112, 41.8342779], [-6.787169, 41.8345057], [-6.7869598, 41.8346536], [-6.7870832, 41.8350573], [-6.7877537, 41.8355329], [-6.7878074, 41.8357008], [-6.7876786, 41.8359766], [-6.7870993, 41.8364642], [-6.7869974, 41.8366241], [-6.7870081, 41.83674], [-6.7872012, 41.8370397], [-6.7872656, 41.8373235], [-6.7877001, 41.8376472], [-6.7880327, 41.8380389], [-6.7881668, 41.8383546], [-6.7879522, 41.8387623], [-6.7875231, 41.8391819], [-6.7874641, 41.8393738], [-6.7874051, 41.8407606], [-6.7871851, 41.8409044], [-6.7866111, 41.8409164], [-6.7864931, 41.8409844]]}, "properties": {"highway": "primary", "ref": "EN 308-3", "source": "Bing"}}, {"type": "Feature", "geometry": {"type": "LineString", "coordinates": [[-6.7614364, 41.8204998], [-6.7614392, 41.8206525]]}, "properties": {"highway": "primary", "layer": "-1", "ref": "EN 308-3", "source": "Bing", "tunnel": "yes"}}, {"type": "Feature", "geometry": {"type": "LineString", "coordinates": [[-6.761687, 41.8162834], [-6.7616893, 41.8162341], [-6.7616844, 41.816209], [-6.7616487, 41.8161375], [-6.7615833, 41.8160787], [-6.7614956, 41.8160392], [-6.7613953, 41.8160235], [-6.7613229, 41.8160278], [-6.7612538, 41.8160446], [-6.761192, 41.8160731], [-6.7611308, 41.8161219], [-6.7610912, 41.8161818], [-6.7610765, 41.8162476], [-6.7610878, 41.8163138], [-6.7611244, 41.8163747], [-6.7611957, 41.8164329], [-6.7612893, 41.8164696], [-6.7613747, 41.8164805], [-6.7614607, 41.8164731], [-6.7615406, 41.8164481], [-6.7616079, 41.8164075], [-6.7616573, 41.8163545], [-6.761687, 41.8162834]]}, "properties": {"highway": "primary", "junction": "roundabout", "maxspeed": "30", "name": "Rotunda de Vale D'\u00c1lvaro", "ref": "EN 308-3", "source": "Bing"}}, {"type": "Feature", "geometry": {"type": "LineString", "coordinates": [[-6.7612893, 41.8164696], [-6.7614327, 41.8166176], [-6.7615968, 41.816881]]}, "properties": {"highway": "primary", "maxspeed": "50", "name": "Rua Doutor Ant\u00f3nio Carmona e Lima", "oneway": "yes", "ref": "EN 308-3"}}, {"type": "Feature", "geometry": {"type": "LineString", "coordinates": [[-6.7615968, 41.816881], [-6.7615914, 41.8169654], [-6.7615888, 41.8170069], [-6.761537, 41.8178109], [-6.7615271, 41.8179765], [-6.7614979, 41.8182371], [-6.7614587, 41.8185871], [-6.7614233, 41.8194717], [-6.761428, 41.8197363], [-6.7614299, 41.819845], [-6.7614364, 41.8204998]]}, "properties": {"highway": "primary", "maxspeed": "50", "name": "Rua Doutor Ant\u00f3nio Carmona e Lima", "ref": "EN 308-3", "source": "Bing"}}, {"type": "Feature", "geometry": {"type": "LineString", "coordinates": [[-6.7617487, 41.8157185], [-6.7616257, 41.8158472], [-6.7613953, 41.8160235]]}, "properties": {"highway": "primary", "oneway": "yes", "ref": "EN 308-3"}}, {"type": "Feature", "geometry": {"type": "LineString", "coordinates": [[-6.7612944, 41.8135561], [-6.7612988, 41.8130887], [-6.7613135, 41.8115088], [-6.7613043, 41.8114322], [-6.7612831, 41.8113898]]}, "properties": {"highway": "primary", "name": "Rua Cl\u00e1udio Mesquita Rosa", "ref": "EN 308-3", "source": "Bing"}}, {"type": "Feature", "geometry": {"type": "LineString", "coordinates": [[-6.7599208, 41.8113255], [-6.7599935, 41.8112756], [-6.7601241, 41.8112475], [-6.7602189, 41.8112605], [-6.7603063, 41.8112927], [-6.7603829, 41.8113182]]}, "properties": {"highway": "primary", "oneway": "yes", "ref": "EN 308-3", "source": "Bing"}}, {"type": "Feature", "geometry": {"type": "LineString", "coordinates": [[-6.7616844, 41.816209], [-6.761707, 41.8160614], [-6.7617487, 41.8157185]]}, "properties": {"highway": "primary", "oneway": "yes", "ref": "EN 308-3"}}, {"type": "Feature", "geometry": {"type": "LineString", "coordinates": [[-6.7615968, 41.816881], [-6.7616271, 41.8166514], [-6.7616527, 41.8164546], [-6.7616573, 41.8163545]]}, "properties": {"highway": "primary", "maxspeed": "50", "name": "Rua Doutor Ant\u00f3nio Carmona e Lima", "oneway": "yes", "ref": "EN 308-3"}}, {"type": "Feature", "geometry": {"type": "LineString", "coordinates": [[-6.7603829, 41.8113182], [-6.7602594, 41.811126]]}, "properties": {"highway": "primary", "oneway": "yes", "ref": "EN 308-3", "source": "Bing"}}, {"type": "Feature", "geometry": {"type": "LineString", "coordinates": [[-6.7602594, 41.811126], [-6.7602234, 41.8110555], [-6.7602141, 41.8110114], [-6.7602068, 41.8109771], [-6.7602068, 41.8108989]]}, "properties": {"highway": "primary", "oneway": "yes", "ref": "EN 308-3", "source": "Bing"}}, {"type": "Feature", "geometry": {"type": "LineString", "coordinates": [[-6.7615492, 41.8143056], [-6.7616612, 41.8146501], [-6.76179, 41.8150699], [-6.7617888, 41.815119], [-6.761786, 41.8152404], [-6.7617797, 41.8153627], [-6.7617739, 41.8155257], [-6.7617619, 41.8156178], [-6.7617545, 41.8156743], [-6.7617487, 41.8157185]]}, "properties": {"highway": "primary", "maxspeed": "50", "name": "Rua de Vale d'\u00c1lvaro", "ref": "EN 308-3", "source": "Bing", "surface": "asphalt"}}, {"type": "Feature", "geometry": {"type": "LineString", "coordinates": [[-6.7612831, 41.8113898], [-6.7612201, 41.8113583], [-6.7611408, 41.8113494], [-6.760964, 41.8113866], [-6.7608006, 41.811421], [-6.760669, 41.811436], [-6.7605857, 41.8114344], [-6.7604874, 41.8114046], [-6.7603829, 41.8113182]]}, "properties": {"highway": "primary", "maxspeed": "50", "ref": "EN 308-3", "source": "Bing"}}, {"type": "Feature", "geometry": {"type": "LineString", "coordinates": [[-6.7612944, 41.8135561], [-6.7613662, 41.8137425], [-6.7615492, 41.8143056]]}, "properties": {"highway": "primary", "maxspeed": "50", "name": "Rua de Vale d'\u00c1lvaro", "ref": "EN 308-3", "source": "Bing", "surface": "asphalt"}}, {"type": "Feature", "geometry": {"type": "LineString", "coordinates": [[-6.7864931, 41.8409844], [-6.7864663, 41.8410763], [-6.7867881, 41.8415998], [-6.7867828, 41.8417397], [-6.7865199, 41.8420155], [-6.7864555, 41.8421354], [-6.7864716, 41.8422273], [-6.7869276, 41.842507], [-6.7872334, 41.8428467], [-6.7874909, 41.8434022], [-6.7873729, 41.8438538], [-6.787448, 41.8439297], [-6.7876304, 41.8439737], [-6.7879898, 41.8439017], [-6.7881829, 41.8439297], [-6.7883653, 41.8440096], [-6.7884618, 41.8441455], [-6.7884672, 41.8445931], [-6.788553, 41.8450047], [-6.7885101, 41.8452005], [-6.7883975, 41.8452525], [-6.7877967, 41.8453484], [-6.7876035, 41.8454523], [-6.7875392, 41.8455802], [-6.7875821, 41.8457041], [-6.7877108, 41.845776], [-6.7883009, 41.8458919], [-6.7884618, 41.8459558], [-6.7885745, 41.8460637], [-6.7885852, 41.8461596], [-6.7884672, 41.8462715], [-6.7881292, 41.8464513], [-6.7881132, 41.8465393], [-6.7881722, 41.8466232], [-6.7887193, 41.8469429], [-6.7888427, 41.8471507], [-6.7888427, 41.84779], [-6.7880702, 41.8485733], [-6.7880488, 41.8487411], [-6.7881775, 41.8492766], [-6.7885477, 41.8495363], [-6.7885477, 41.8497081], [-6.788376, 41.8502116], [-6.7878664, 41.8506631], [-6.7878342, 41.850751], [-6.7877806, 41.8513984], [-6.7878288, 41.8515063], [-6.7882106, 41.8517148], [-6.7883006, 41.8518483], [-6.7883085, 41.8520062], [-6.7880399, 41.8525893], [-6.787938, 41.8527779], [-6.7879117, 41.8529034], [-6.7880003, 41.8530289], [-6.7882595, 41.853231], [-6.7886398, 41.8535811]]}, "properties": {"highway": "primary", "ref": "EN 308-3", "source": "Bing"}}, {"type": "Feature", "geometry": {"type": "LineString", "coordinates": [[-6.7886398, 41.8535811], [-6.78871, 41.8536489]]}, "properties": {"bridge": "yes", "highway": "primary", "layer": "1", "ref": "EN 308-3", "source": "Bing"}}, {"type": "Feature", "geometry": {"type": "LineString", "coordinates": [[-6.8037063, 41.8698883], [-6.8036968, 41.8699404], [-6.8035553, 41.8705148], [-6.8030692, 41.8724889], [-6.802902, 41.8729586], [-6.8025488, 41.8737232], [-6.8024898, 41.8740587]]}, "properties": {"highway": "primary", "ref": "EN 308-3", "source": "Bing"}}, {"type": "Feature", "geometry": {"type": "LineString", "coordinates": [[-6.8037215, 41.8698047], [-6.8037063, 41.8698883]]}, "properties": {"bridge": "yes", "highway": "primary", "layer": "1", "ref": "EN 308-3", "source": "Bing"}}, {"type": "Feature", "geometry": {"type": "LineString", "coordinates": [[-6.7614392, 41.8206525], [-6.7614368, 41.8207598], [-6.7614681, 41.8209349], [-6.7616675, 41.821285], [-6.7619051, 41.8216334], [-6.7623961, 41.8223221], [-6.7627126, 41.8226539], [-6.7629862, 41.8227698], [-6.7647082, 41.8232535], [-6.7651105, 41.8234414], [-6.7657811, 41.824157], [-6.766575, 41.8246926], [-6.7668915, 41.8247846], [-6.7671436, 41.8247726], [-6.7674592, 41.8246758], [-6.7676099, 41.8246212], [-6.7677606, 41.8245847], [-6.7678619, 41.8245682], [-6.7679698, 41.8245847], [-6.7689572, 41.8248328], [-6.7694339, 41.8249543], [-6.7699278, 41.8250604], [-6.7700897, 41.8250729], [-6.7702556, 41.8250697], [-6.7705671, 41.8250105], [-6.7706975, 41.8249808]]}, "properties": {"highway": "primary", "ref": "EN 308-3", "source": "Bing"}}, {"type": "Feature", "geometry": {"type": "LineString", "coordinates": [[-6.7706975, 41.8249808], [-6.7708494, 41.8249964]]}, "properties": {"bridge": "yes", "highway": "primary", "layer": "1", "ref": "EN 308-3", "source": "Bing"}}, {"type": "Feature", "geometry": {"type": "MultiPolygon", "coordinates": [[[[-6.7616893, 41.8162341], [-6.7616844, 41.816209], [-6.7616487, 41.8161375], [-6.7615833, 41.8160787], [-6.7614956, 41.8160392], [-6.7613953, 41.8160235], [-6.7613229, 41.8160278], [-6.7612538, 41.8160446], [-6.761192, 41.8160731], [-6.7611308, 41.8161219], [-6.7610912, 41.8161818], [-6.7610765, 41.8162476], [-6.7610878, 41.8163138], [-6.7611244, 41.8163747], [-6.7611957, 41.8164329], [-6.7612893, 41.8164696], [-6.7613747, 41.8164805], [-6.7614607, 41.8164731], [-6.7615406, 41.8164481], [-6.7616079, 41.8164075], [-6.7616573, 41.8163545], [-6.761687, 41.8162834], [-6.7616893, 41.8162341]]]]}, "properties": {"highway": "primary", "junction": "roundabout", "maxspeed": "30", "name": "Rotunda de Vale D'\u00c1lvaro", "ref": "EN 308-3", "source": "Bing"}}]}