{"type": "FeatureCollection", "features": [{"type": "Feature", "geometry": {"type": "LineString", "coordinates": [[-7.7975974, 37.1056602], [-7.7975162, 37.1053171], [-7.7975427, 37.1048168], [-7.7976591, 37.1043739], [-7.7977995, 37.104037], [-7.7981298, 37.1035704], [-7.7984603, 37.1031471], [-7.7990156, 37.1023625], [-7.7992726, 37.1019872], [-7.7996285, 37.101347], [-7.7998341, 37.1008518], [-7.8000358, 37.1002715], [-7.8001598, 37.0997928], [-7.8002651, 37.099196], [-7.8004866, 37.0981678], [-7.8006131, 37.0975276], [-7.8007091, 37.0970545], [-7.8007949, 37.0966437], [-7.8009494, 37.0959796], [-7.8012972, 37.0948656], [-7.8016361, 37.0937204], [-7.8019365, 37.0928304], [-7.8020652, 37.0923648], [-7.8023055, 37.0916105], [-7.8025373, 37.0907764], [-7.8026661, 37.0902082], [-7.8027919, 37.0896927], [-7.8028789, 37.0892164], [-7.802954, 37.0887874], [-7.8031241, 37.0879388], [-7.8031982, 37.0875722], [-7.8033178, 37.0870398], [-7.8035946, 37.0863711], [-7.8039106, 37.085792], [-7.8041423, 37.0854291], [-7.8045239, 37.0848601], [-7.804773, 37.0844563], [-7.8050264, 37.0838885], [-7.8053268, 37.0832448], [-7.8054384, 37.0829299], [-7.80561, 37.0824916], [-7.805713, 37.0822178], [-7.8059984, 37.0813222]]}, "properties": {"highway": "primary", "lanes": "2", "lanes:backward": "1", "lanes:forward": "1", "maxheight": "default", "maxspeed": "90", "ref": "EN 398", "surface": "asphalt"}}, {"type": "Feature", "geometry": {"type": "LineString", "coordinates": [[-7.7979049, 37.1076618], [-7.7979395, 37.1075697], [-7.797936, 37.1074736], [-7.7978984, 37.1073884], [-7.7978285, 37.1073141], [-7.7977336, 37.1072601], [-7.7976226, 37.1072318], [-7.7975302, 37.1072293], [-7.7974398, 37.1072448], [-7.7973602, 37.1072756], [-7.7972916, 37.1073202], [-7.797238, 37.1073763], [-7.7971977, 37.1074531], [-7.7971851, 37.1075357], [-7.7972014, 37.1076179], [-7.7972451, 37.1076934], [-7.797302, 37.1077485], [-7.7973735, 37.1077914], [-7.7974556, 37.1078197], [-7.7975574, 37.1078323], [-7.7976596, 37.1078225], [-7.7977548, 37.1077912], [-7.7978359, 37.1077405], [-7.7979049, 37.1076618]]}, "properties": {"highway": "primary", "junction": "roundabout", "lanes": "1", "lit": "yes", "maxspeed": "40", "ref": "EN 398", "sidewalk": "no", "smoothness": "excellent", "surface": "asphalt", "width": "5"}}, {"type": "Feature", "geometry": {"type": "LineString", "coordinates": [[-7.7976732, 37.106026], [-7.7978449, 37.1068579]]}, "properties": {"highway": "primary", "lanes": "2", "lanes:backward": "1", "lanes:forward": "1", "maxspeed:backward": "90", "maxspeed:forward": "60", "ref": "EN 398", "smoothness": "excellent", "surface": "asphalt"}}, {"type": "Feature", "geometry": {"type": "LineString", "coordinates": [[-7.7978984, 37.1073884], [-7.7979016, 37.1072133], [-7.7978449, 37.1068579]]}, "properties": {"destination": "Olh\u00e3o;Quelfes", "highway": "primary", "lanes": "1", "maxspeed": "90", "oneway": "yes", "ref": "EN 398", "shoulder": "no", "smoothness": "excellent", "surface": "asphalt", "width": "3"}}, {"type": "Feature", "geometry": {"type": "LineString", "coordinates": [[-7.7978449, 37.1068579], [-7.7977901, 37.1071185], [-7.797714, 37.107179], [-7.7976226, 37.1072318]]}, "properties": {"foot": "yes", "highway": "primary", "lanes": "1", "lit": "yes", "maxspeed": "40", "oneway": "yes", "ref": "EN 398", "sidewalk": "no", "smoothness": "excellent", "surface": "asphalt", "width": "3"}}, {"type": "Feature", "geometry": {"type": "LineString", "coordinates": [[-7.8061457, 37.0808671], [-7.8063005, 37.0803396], [-7.8063965, 37.0799019], [-7.8064684, 37.0793692], [-7.8064989, 37.0784062], [-7.8065239, 37.0772206]]}, "properties": {"highway": "primary", "lanes": "2", "lanes:backward": "1", "lanes:forward": "1", "maxspeed": "90", "ref": "EN 398", "surface": "asphalt"}}, {"type": "Feature", "geometry": {"type": "LineString", "coordinates": [[-7.8059984, 37.0813222], [-7.8061457, 37.0808671]]}, "properties": {"bridge": "viaduct", "highway": "primary", "lanes": "2", "lanes:backward": "1", "lanes:forward": "1", "layer": "1", "maxspeed": "90", "maxweight:signed": "no", "ref": "EN 398", "shoulder": "yes", "smoothness": "intermediate", "surface": "asphalt"}}, {"type": "Feature", "geometry": {"type": "LineString", "coordinates": [[-7.8123072, 37.0623804], [-7.812324, 37.0618575], [-7.8122936, 37.0612417], [-7.8122361, 37.0607518], [-7.8118726, 37.0581007], [-7.8118107, 37.0572316], [-7.8118351, 37.0568475], [-7.8118858, 37.0564969], [-7.811989, 37.0560718], [-7.8121647, 37.0556039], [-7.8125533, 37.0549477], [-7.812954, 37.0544484], [-7.8133784, 37.0540568], [-7.8140004, 37.0535375], [-7.8146579, 37.0530936], [-7.8154164, 37.0525622], [-7.816055, 37.0519947]]}, "properties": {"highway": "primary", "lanes": "2", "lanes:backward": "1", "lanes:forward": "1", "maxspeed": "90", "name": "Estrada de Quelfes", "ref": "EN 398", "surface": "asphalt"}}, {"type": "Feature", "geometry": {"type": "LineString", "coordinates": [[-7.816055, 37.0519947], [-7.8162276, 37.0518022]]}, "properties": {"bridge": "viaduct", "highway": "primary", "lanes": "2", "lanes:backward": "1", "lanes:forward": "1", "layer": "1", "maxspeed": "90", "name": "Estrada de Quelfes", "ref": "EN 398", "surface": "asphalt"}}, {"type": "Feature", "geometry": {"type": "LineString", "coordinates": [[-7.8162276, 37.0518022], [-7.8166217, 37.0513312], [-7.8169336, 37.0508468], [-7.817178, 37.0503154], [-7.817324, 37.0498916], [-7.817684, 37.0486002], [-7.8183664, 37.046777], [-7.8187373, 37.0457948]]}, "properties": {"highway": "primary", "lanes": "2", "lanes:backward": "1", "lanes:forward": "1", "maxspeed": "90", "name": "Estrada de Quelfes", "ref": "EN 398", "surface": "asphalt"}}, {"type": "Feature", "geometry": {"type": "LineString", "coordinates": [[-7.8065636, 37.076823], [-7.8065885, 37.0766507], [-7.806721, 37.0760018], [-7.8069445, 37.0752532], [-7.8073009, 37.0743703], [-7.8076013, 37.073843], [-7.8083738, 37.0728158]]}, "properties": {"highway": "primary", "lanes": "2", "lanes:backward": "1", "lanes:forward": "1", "maxspeed": "90", "ref": "EN 398", "surface": "asphalt"}}, {"type": "Feature", "geometry": {"type": "LineString", "coordinates": [[-7.8065239, 37.0772206], [-7.8065636, 37.076823]]}, "properties": {"bridge": "yes", "highway": "primary", "lanes": "2", "lanes:backward": "1", "lanes:forward": "1", "layer": "1", "maxspeed": "90", "ref": "EN 398", "surface": "asphalt"}}, {"type": "Feature", "geometry": {"type": "LineString", "coordinates": [[-7.8188784, 37.0449995], [-7.818876, 37.0448439]]}, "properties": {"bridge": "viaduct", "highway": "primary", "lanes": "2", "lanes:backward": "1", "lanes:forward": "1", "layer": "1", "maxspeed:backward": "90", "maxspeed:forward": "80", "maxweight:signed": "no", "ref": "EN 398", "surface": "asphalt"}}, {"type": "Feature", "geometry": {"type": "LineString", "coordinates": [[-7.818876, 37.0448439], [-7.8188273, 37.0445271], [-7.8187135, 37.044227], [-7.8184695, 37.0438466]]}, "properties": {"highway": "primary", "lanes": "2", "lanes:backward": "1", "lanes:forward": "1", "maxspeed:backward": "90", "maxspeed:forward": "60", "ref": "EN 398", "surface": "asphalt"}}, {"type": "Feature", "geometry": {"type": "LineString", "coordinates": [[-7.8184695, 37.0438466], [-7.8184505, 37.0436967], [-7.8184719, 37.0435809], [-7.8184971, 37.0435112]]}, "properties": {"highway": "primary", "lanes": "1", "maxspeed": "40", "oneway": "yes", "ref": "EN 398", "surface": "asphalt"}}, {"type": "Feature", "geometry": {"type": "LineString", "coordinates": [[-7.8181433, 37.043546], [-7.8182485, 37.0436322], [-7.8183643, 37.0437317], [-7.8184695, 37.0438466]]}, "properties": {"destination": "Faro;Espanha;Moncarapacho", "highway": "primary", "lanes": "1", "oneway": "yes", "ref": "EN 398", "surface": "asphalt"}}, {"type": "Feature", "geometry": {"type": "LineString", "coordinates": [[-7.8097142, 37.0711236], [-7.8095211, 37.0713847], [-7.8090668, 37.0719743]]}, "properties": {"foot": "no", "highway": "primary", "lanes": "1", "lit": "yes", "maxspeed": "70", "oneway": "yes", "ref": "EN 398", "sidewalk": "no", "surface": "asphalt", "turn:lanes": "through"}}, {"type": "Feature", "geometry": {"type": "LineString", "coordinates": [[-7.8110956, 37.0671006], [-7.8109977, 37.0675046], [-7.8108421, 37.068258], [-7.810704, 37.0688561], [-7.8106248, 37.0691568]]}, "properties": {"foot": "no", "highway": "primary", "lanes": "1", "lit": "yes", "maxspeed": "70", "oneway": "yes", "ref": "EN 398", "sidewalk": "no", "surface": "asphalt", "turn:lanes": "through"}}, {"type": "Feature", "geometry": {"type": "LineString", "coordinates": [[-7.8111237, 37.0669771], [-7.8110956, 37.0671006]]}, "properties": {"bridge": "yes", "foot": "no", "highway": "primary", "lanes": "1", "layer": "1", "lit": "yes", "maxspeed": "70", "maxweight:signed": "no", "oneway": "yes", "ref": "EN 398", "sidewalk": "no", "surface": "asphalt", "turn:lanes": "through"}}, {"type": "Feature", "geometry": {"type": "LineString", "coordinates": [[-7.8113115, 37.0662504], [-7.8111901, 37.0667229]]}, "properties": {"highway": "primary", "lanes": "2", "lit": "yes", "maxspeed": "70", "oneway": "yes", "ref": "EN 398", "turn:lanes": "through|slight_right"}}, {"type": "Feature", "geometry": {"type": "LineString", "coordinates": [[-7.8114992, 37.0655591], [-7.8113115, 37.0662504]]}, "properties": {"highway": "primary", "lanes": "1", "lit": "yes", "maxspeed": "70", "oneway": "yes", "ref": "EN 398", "turn:lanes": "through;slight_right"}}, {"type": "Feature", "geometry": {"type": "LineString", "coordinates": [[-7.8116439, 37.0653244], [-7.812031, 37.0640725], [-7.8121161, 37.0637988]]}, "properties": {"highway": "primary", "lanes": "2", "lit": "yes", "maxspeed": "70", "name": "Estrada de Quelfes", "oneway": "yes", "ref": "EN 398", "turn:lanes": "through|merge_to_left"}}, {"type": "Feature", "geometry": {"type": "LineString", "coordinates": [[-7.8121161, 37.0637988], [-7.812228, 37.0632572], [-7.8122878, 37.0628292], [-7.8123072, 37.0623804]]}, "properties": {"foot": "no", "highway": "primary", "lanes": "1", "lit": "yes", "maxspeed": "70", "name": "Estrada de Quelfes", "oneway": "yes", "ref": "EN 398", "sidewalk": "no", "surface": "asphalt", "turn:lanes": "through"}}, {"type": "Feature", "geometry": {"type": "LineString", "coordinates": [[-7.811054, 37.0675849], [-7.8111387, 37.0672403], [-7.8111854, 37.0670841]]}, "properties": {"foot": "no", "highway": "primary", "lanes": "2", "lit": "yes", "maxspeed": "70", "oneway": "yes", "ref": "EN 398", "sidewalk": "no", "surface": "asphalt", "turn:lanes": "through|slight_right"}}, {"type": "Feature", "geometry": {"type": "LineString", "coordinates": [[-7.8108636, 37.0684538], [-7.811054, 37.0675849]]}, "properties": {"foot": "no", "highway": "primary", "lanes": "1", "lit": "yes", "maxspeed": "70", "oneway": "yes", "ref": "EN 398", "sidewalk": "no", "surface": "asphalt", "turn:lanes": "through;slight_right"}}, {"type": "Feature", "geometry": {"type": "LineString", "coordinates": [[-7.8111901, 37.0667229], [-7.8111237, 37.0669771]]}, "properties": {"bridge": "yes", "highway": "primary", "lanes": "2", "layer": "1", "lit": "yes", "maxspeed": "70", "oneway": "yes", "ref": "EN 398", "sidewalk": "no", "surface": "asphalt", "turn:lanes": "through|slight_right"}}, {"type": "Feature", "geometry": {"type": "LineString", "coordinates": [[-7.8106248, 37.0691568], [-7.8105484, 37.0694532], [-7.810366, 37.0699851], [-7.8102654, 37.070229], [-7.8100173, 37.0706678], [-7.8097142, 37.0711236]]}, "properties": {"foot": "no", "highway": "primary", "lanes": "2", "lit": "yes", "maxspeed": "70", "oneway": "yes", "ref": "EN 398", "sidewalk": "no", "surface": "asphalt", "turn:lanes": "through|merge_to_left"}}, {"type": "Feature", "geometry": {"type": "LineString", "coordinates": [[-7.8123072, 37.0623804], [-7.8122476, 37.0628335], [-7.8121671, 37.0632605], [-7.811974, 37.0639625], [-7.8118694, 37.0643392], [-7.8114992, 37.0655591]]}, "properties": {"highway": "primary", "lanes": "1", "lit": "yes", "maxspeed": "70", "name": "Estrada de Quelfes", "oneway": "yes", "ref": "EN 398", "turn:lanes": "through"}}, {"type": "Feature", "geometry": {"type": "LineString", "coordinates": [[-7.8111854, 37.0670841], [-7.8112638, 37.0667147]]}, "properties": {"bridge": "yes", "foot": "no", "highway": "primary", "lanes": "1", "layer": "1", "lit": "yes", "maxspeed": "70", "maxweight:signed": "no", "oneway": "yes", "ref": "EN 398", "sidewalk": "no", "surface": "asphalt", "turn:lanes": "through"}}, {"type": "Feature", "geometry": {"type": "LineString", "coordinates": [[-7.8112638, 37.0667147], [-7.8116439, 37.0653244]]}, "properties": {"highway": "primary", "lanes": "1", "lit": "yes", "maxspeed": "70", "oneway": "yes", "ref": "EN 398", "turn:lanes": "through"}}, {"type": "Feature", "geometry": {"type": "LineString", "coordinates": [[-7.8090668, 37.0719743], [-7.8095868, 37.0714029], [-7.8098336, 37.0710776], [-7.8100663, 37.0707222], [-7.8103727, 37.0701616], [-7.8106311, 37.0694053], [-7.810714, 37.0691136], [-7.8108636, 37.0684538]]}, "properties": {"foot": "no", "highway": "primary", "lanes": "1", "lit": "yes", "maxspeed": "70", "oneway": "yes", "ref": "EN 398", "sidewalk": "no", "surface": "asphalt", "turn:lanes": "through"}}, {"type": "Feature", "geometry": {"type": "LineString", "coordinates": [[-7.7976732, 37.106026], [-7.7975974, 37.1056602]]}, "properties": {"highway": "primary", "lanes": "2", "lanes:backward": "1", "lanes:forward": "1", "maxspeed:backward": "80", "maxspeed:forward": "90", "ref": "EN 398", "smoothness": "excellent", "surface": "asphalt"}}, {"type": "Feature", "geometry": {"type": "LineString", "coordinates": [[-7.8083738, 37.0728158], [-7.8090668, 37.0719743]]}, "properties": {"highway": "primary", "lanes": "2", "lanes:backward": "1", "lanes:forward": "1", "maxspeed:backward": "90", "maxspeed:forward": "70", "ref": "EN 398", "surface": "asphalt"}}, {"type": "Feature", "geometry": {"type": "LineString", "coordinates": [[-7.8187373, 37.0457948], [-7.8188301, 37.0455446], [-7.8188806, 37.0452768], [-7.8188784, 37.0449995]]}, "properties": {"highway": "primary", "lanes": "2", "lanes:backward": "1", "lanes:forward": "1", "maxspeed:backward": "90", "maxspeed:forward": "80", "ref": "EN 398", "surface": "asphalt"}}, {"type": "Feature", "geometry": {"type": "MultiPolygon", "coordinates": [[[[-7.7979395, 37.1075697], [-7.797936, 37.1074736], [-7.7978984, 37.1073884], [-7.7978285, 37.1073141], [-7.7977336, 37.1072601], [-7.7976226, 37.1072318], [-7.7975302, 37.1072293], [-7.7974398, 37.1072448], [-7.7973602, 37.1072756], [-7.7972916, 37.1073202], [-7.797238, 37.1073763], [-7.7971977, 37.1074531], [-7.7971851, 37.1075357], [-7.7972014, 37.1076179], [-7.7972451, 37.1076934], [-7.797302, 37.1077485], [-7.7973735, 37.1077914], [-7.7974556, 37.1078197], [-7.7975574, 37.1078323], [-7.7976596, 37.1078225], [-7.7977548, 37.1077912], [-7.7978359, 37.1077405], [-7.7979049, 37.1076618], [-7.7979395, 37.1075697]]]]}, "properties": {"highway": "primary", "junction": "roundabout", "lanes": "1", "lit": "yes", "maxspeed": "40", "ref": "EN 398", "sidewalk": "no", "smoothness": "excellent", "surface": "asphalt", "width": "5"}}]}