{"type": "FeatureCollection", "features": [{"type": "Feature", "geometry": {"type": "LineString", "coordinates": [[-8.3745633, 41.4043022], [-8.3742748, 41.4045051], [-8.3741579, 41.4046059], [-8.3739996, 41.4047504], [-8.3738389, 41.404884], [-8.3736435, 41.4050222], [-8.3734261, 41.4051396], [-8.37303, 41.4053063], [-8.3728644, 41.4053736], [-8.3720331, 41.4057229], [-8.3718564, 41.4057912], [-8.3717086, 41.4058334]]}, "properties": {"highway": "primary", "oneway": "yes", "ref": "EN 310"}}, {"type": "Feature", "geometry": {"type": "LineString", "coordinates": [[-8.3520881, 41.4831086], [-8.3521637, 41.4831328], [-8.3522459, 41.4831334], [-8.3523223, 41.4831105], [-8.3523809, 41.4830675], [-8.3524132, 41.4830108], [-8.3524142, 41.4829493], [-8.3523836, 41.4828921], [-8.3523262, 41.4828481], [-8.3522773, 41.4828325], [-8.3522505, 41.4828239], [-8.3521684, 41.4828232], [-8.3520923, 41.482846], [-8.3520332, 41.4828892], [-8.3520009, 41.4829458], [-8.352, 41.4830074], [-8.3520307, 41.4830647], [-8.3520881, 41.4831086]]}, "properties": {"highway": "primary", "junction": "roundabout", "maxspeed": "50", "ref": "EN 101;EN 310", "surface": "asphalt"}}, {"type": "Feature", "geometry": {"type": "LineString", "coordinates": [[-8.3618789, 41.4450645], [-8.3617274, 41.4449583]]}, "properties": {"highway": "primary", "oneway": "yes", "ref": "EN 310"}}, {"type": "Feature", "geometry": {"type": "LineString", "coordinates": [[-8.3670404, 41.4545415], [-8.3670247, 41.4546246], [-8.3669599, 41.454968], [-8.3668876, 41.4551526], [-8.3667767, 41.4552942], [-8.36653, 41.4554925], [-8.3637226, 41.457718], [-8.3626966, 41.4585241], [-8.3624908, 41.4586504], [-8.3622913, 41.4587441], [-8.3620063, 41.4588151], [-8.3613965, 41.4589417], [-8.3612608, 41.4589712], [-8.3598294, 41.459302]]}, "properties": {"highway": "primary", "name": "Rua de S\u00e3o Jo\u00e3o Baptista", "ref": "EN 310"}}, {"type": "Feature", "geometry": {"type": "LineString", "coordinates": [[-8.3601269, 41.4192521], [-8.3602502, 41.4191982], [-8.360336, 41.419143]]}, "properties": {"highway": "primary", "ref": "EN 310"}}, {"type": "Feature", "geometry": {"type": "LineString", "coordinates": [[-8.3613376, 41.4444182], [-8.361135, 41.4441319], [-8.3609897, 41.4438418], [-8.3609388, 41.4436273], [-8.3609279, 41.4434201], [-8.3609555, 41.4431603], [-8.3610357, 41.4428456], [-8.3612276, 41.4425076], [-8.3615399, 41.4421961], [-8.3618776, 41.4419423], [-8.3629316, 41.4412821], [-8.3644648, 41.4403218], [-8.367713, 41.4382853], [-8.3678626, 41.4381916], [-8.3686843, 41.4376789], [-8.3691258, 41.4373806], [-8.3694025, 41.4371464], [-8.3696935, 41.436819], [-8.3698351, 41.4365907], [-8.369986, 41.4362872], [-8.3701351, 41.4358638], [-8.3701803, 41.4355785], [-8.3701763, 41.4352867], [-8.3701448, 41.4350645], [-8.3701218, 41.4349675], [-8.3700809, 41.4347952], [-8.3699179, 41.4344163], [-8.3697394, 41.4341377], [-8.3695237, 41.4338769], [-8.3681334, 41.4326098], [-8.3679687, 41.4323709], [-8.3678275, 41.4321065], [-8.3677486, 41.4318484], [-8.3677248, 41.4315585], [-8.3677486, 41.4312829], [-8.3678106, 41.4310397], [-8.3679081, 41.430818], [-8.3681164, 41.4305251], [-8.3692251, 41.4296148], [-8.3694235, 41.4293271], [-8.3695326, 41.4290005], [-8.369583, 41.4287865], [-8.3695867, 41.4284969], [-8.3695391, 41.4283157], [-8.369394, 41.4280324], [-8.368773, 41.4272003], [-8.3686191, 41.4269941], [-8.3683242, 41.4265712], [-8.3681724, 41.4263899], [-8.3679019, 41.4261667], [-8.3675843, 41.4259932], [-8.3675321, 41.4259679], [-8.3663467, 41.4255548], [-8.3661047, 41.4254649], [-8.36584, 41.4253448], [-8.3656005, 41.4251995], [-8.3653923, 41.4250233], [-8.3652134, 41.4248168], [-8.3650742, 41.4245552], [-8.3649941, 41.4242744], [-8.3649902, 41.4240583], [-8.3650403, 41.4237865], [-8.3651603, 41.4235071], [-8.3653195, 41.4232088], [-8.3654073, 41.4230097], [-8.3654445, 41.4227541], [-8.3654032, 41.4225023], [-8.3652992, 41.4222705], [-8.3650593, 41.4218852], [-8.3644976, 41.4211576], [-8.3644405, 41.4210836], [-8.3639782, 41.4204849], [-8.3639197, 41.4204057], [-8.3638356, 41.4203001], [-8.3636277, 41.4201487], [-8.3633345, 41.4199907], [-8.3630149, 41.4198942], [-8.3629255, 41.4198792], [-8.3622762, 41.4197702], [-8.3609225, 41.4195428], [-8.3608341, 41.4195108], [-8.3607412, 41.4194772], [-8.3606216, 41.419422]]}, "properties": {"highway": "primary", "name": "Rua da Variante", "ref": "EN 310"}}, {"type": "Feature", "geometry": {"type": "LineString", "coordinates": [[-8.3524703, 41.4865815], [-8.3525337, 41.4865757], [-8.3526051, 41.4865549], [-8.3526806, 41.4865218], [-8.3527242, 41.4864909], [-8.3527633, 41.4864535], [-8.3527806, 41.4864073], [-8.3527729, 41.4863598], [-8.3527416, 41.4863183], [-8.3526914, 41.4862888], [-8.3526301, 41.486276], [-8.3525668, 41.4862817], [-8.3524945, 41.4863028], [-8.3524225, 41.4863348], [-8.3523762, 41.4863666], [-8.3523368, 41.4864042], [-8.3523197, 41.4864502], [-8.3523274, 41.4864976], [-8.3523587, 41.4865392], [-8.3524089, 41.4865687], [-8.3524703, 41.4865815]]}, "properties": {"highway": "primary", "junction": "roundabout", "lanes": "1", "lit": "yes", "maxspeed": "50", "ref": "EN 101;EN 310", "sidewalk": "right", "surface": "asphalt"}}, {"type": "Feature", "geometry": {"type": "LineString", "coordinates": [[-8.3527416, 41.4863183], [-8.3529711, 41.485646]]}, "properties": {"highway": "primary", "lanes": "1", "lit": "yes", "maxspeed": "50", "name": "Rua do Escalheiro", "oneway": "yes", "ref": "EN 101;EN 310", "sidewalk": "right", "source": "bing", "surface": "asphalt"}}, {"type": "Feature", "geometry": {"type": "LineString", "coordinates": [[-8.3519202, 41.4870213], [-8.3522572, 41.4867169], [-8.3523192, 41.4866694], [-8.3524703, 41.4865815]]}, "properties": {"highway": "primary", "lanes": "1", "lit": "yes", "maxspeed": "50", "oneway": "yes", "ref": "EN 310", "sidewalk": "right", "source": "bing", "surface": "asphalt"}}, {"type": "Feature", "geometry": {"type": "LineString", "coordinates": [[-8.3523809, 41.4830675], [-8.3525458, 41.4830375]]}, "properties": {"highway": "primary", "lanes": "1", "lit": "yes", "maxspeed": "50", "oneway": "yes", "ref": "EN 101;EN 310", "surface": "asphalt"}}, {"type": "Feature", "geometry": {"type": "LineString", "coordinates": [[-8.3525458, 41.4830375], [-8.3524142, 41.4829493]]}, "properties": {"highway": "primary", "lanes": "1", "lit": "yes", "maxspeed": "50", "oneway": "yes", "ref": "EN 101;EN 310", "surface": "asphalt"}}, {"type": "Feature", "geometry": {"type": "LineString", "coordinates": [[-8.3529711, 41.485646], [-8.3531849, 41.4853439], [-8.353371, 41.4850592], [-8.3534975, 41.4848055], [-8.3535028, 41.4847552], [-8.353496, 41.4845823], [-8.3533485, 41.4837947], [-8.3532895, 41.4835636], [-8.3532439, 41.4834752], [-8.353158, 41.4833566], [-8.3530588, 41.4832622], [-8.3529569, 41.4831838], [-8.3528055, 41.4831136], [-8.3525458, 41.4830375]]}, "properties": {"highway": "primary", "lanes": "2", "lit": "yes", "maxspeed": "50", "name": "Rua do Pinheiral", "ref": "EN 101;EN 310", "sidewalk": "both", "surface": "asphalt"}}, {"type": "Feature", "geometry": {"type": "LineString", "coordinates": [[-8.3523274, 41.4864976], [-8.3522487, 41.4866276], [-8.3519202, 41.4870213]]}, "properties": {"highway": "primary", "lanes": "1", "lit": "yes", "maxspeed": "50", "oneway": "yes", "ref": "EN 310", "sidewalk": "right", "source": "bing", "surface": "asphalt"}}, {"type": "Feature", "geometry": {"type": "LineString", "coordinates": [[-8.3529711, 41.485646], [-8.3529032, 41.4857261], [-8.3524945, 41.4863028]]}, "properties": {"highway": "primary", "lanes": "1", "lit": "yes", "maxspeed": "50", "oneway": "yes", "ref": "EN 101;EN 310", "sidewalk": "right", "source": "bing", "surface": "asphalt"}}, {"type": "Feature", "geometry": {"type": "LineString", "coordinates": [[-8.3457433, 41.4886262], [-8.3470549, 41.4885176], [-8.3473226, 41.4884964], [-8.34782, 41.4884372], [-8.3480806, 41.4883959], [-8.348334, 41.4883628], [-8.3499865, 41.4881444], [-8.3502532, 41.4880784], [-8.35041, 41.4880353], [-8.3505965, 41.4879619], [-8.3507614, 41.4878726], [-8.3508295, 41.4878273], [-8.3510417, 41.4876863], [-8.3511905, 41.4875778], [-8.3516188, 41.4872653], [-8.3517556, 41.4871545], [-8.3519202, 41.4870213]]}, "properties": {"highway": "primary", "lanes": "2", "name": "Avenida 25 de Abril", "ref": "EN 310", "smoothness": "good", "surface": "asphalt"}}, {"type": "Feature", "geometry": {"type": "LineString", "coordinates": [[-8.3451543, 41.4886812], [-8.3453698, 41.4886963]]}, "properties": {"highway": "primary", "oneway": "yes", "ref": "EN 310"}}, {"type": "Feature", "geometry": {"type": "LineString", "coordinates": [[-8.3457433, 41.4886262], [-8.345577, 41.4885775]]}, "properties": {"highway": "primary", "oneway": "yes", "ref": "EN 310"}}, {"type": "Feature", "geometry": {"type": "LineString", "coordinates": [[-8.3453511, 41.4886093], [-8.3451543, 41.4886812]]}, "properties": {"highway": "primary", "oneway": "yes", "ref": "EN 310"}}, {"type": "Feature", "geometry": {"type": "LineString", "coordinates": [[-8.3455685, 41.4887074], [-8.3455897, 41.4886861], [-8.3456052, 41.4886496], [-8.3456007, 41.4886114], [-8.345577, 41.4885775], [-8.3455442, 41.4885558], [-8.3455036, 41.4885434], [-8.345454, 41.4885425], [-8.3454075, 41.4885554], [-8.3453708, 41.4885805], [-8.3453511, 41.4886093], [-8.3453466, 41.4886545], [-8.3453698, 41.4886963], [-8.3453953, 41.4887161], [-8.3454271, 41.4887297], [-8.345477, 41.4887366], [-8.3455266, 41.4887288], [-8.3455685, 41.4887074]]}, "properties": {"highway": "primary", "junction": "roundabout", "ref": "EN 310"}}, {"type": "Feature", "geometry": {"type": "LineString", "coordinates": [[-8.3455897, 41.4886861], [-8.3457433, 41.4886262]]}, "properties": {"highway": "primary", "oneway": "yes", "ref": "EN 310"}}, {"type": "Feature", "geometry": {"type": "LineString", "coordinates": [[-8.341334, 41.4916587], [-8.3427292, 41.4899687], [-8.342794, 41.4898944], [-8.3431838, 41.489448], [-8.3434336, 41.4892311], [-8.3436692, 41.4890753], [-8.3438773, 41.4889696], [-8.3441185, 41.4888728], [-8.344413, 41.4887909], [-8.3446953, 41.4887322], [-8.3451543, 41.4886812]]}, "properties": {"highway": "primary", "oneway": "no", "ref": "EN 310", "surface": "asphalt"}}, {"type": "Feature", "geometry": {"type": "LineString", "coordinates": [[-8.3409799, 41.4918717], [-8.3408681, 41.4919194], [-8.3407466, 41.4919377], [-8.3398197, 41.4919936], [-8.3396347, 41.4920102], [-8.3393658, 41.4920621], [-8.3392499, 41.4920952], [-8.3391596, 41.4921297], [-8.3390011, 41.4921947], [-8.3388118, 41.492283], [-8.3385996, 41.4924271], [-8.3385186, 41.4925113], [-8.3383677, 41.4926715]]}, "properties": {"destination": "P\u00f3voa de Lanhoso; Cit\u00e2nea de Briteiros", "highway": "primary", "oneway": "yes", "ref": "EN 310", "surface": "asphalt"}}, {"type": "Feature", "geometry": {"type": "LineString", "coordinates": [[-8.3410884, 41.492058], [-8.3411288, 41.4920547], [-8.3411714, 41.4920413], [-8.3412066, 41.4920188], [-8.3412309, 41.4919893], [-8.3412421, 41.4919557], [-8.3412391, 41.4919211], [-8.341223, 41.49189], [-8.3411953, 41.4918637], [-8.3411586, 41.4918448], [-8.3411161, 41.4918347], [-8.3410715, 41.4918345], [-8.3410373, 41.4918413], [-8.3410062, 41.4918539], [-8.3409799, 41.4918717], [-8.3409568, 41.4918982], [-8.3409445, 41.4919285], [-8.340944, 41.4919602], [-8.3409554, 41.4919908], [-8.3409776, 41.4920177], [-8.3410115, 41.4920401], [-8.3410483, 41.492053], [-8.3410884, 41.492058]]}, "properties": {"highway": "primary", "junction": "roundabout", "ref": "EN 310", "surface": "asphalt"}}, {"type": "Feature", "geometry": {"type": "LineString", "coordinates": [[-8.3383677, 41.4926715], [-8.3386423, 41.4924645], [-8.3388595, 41.4923335], [-8.3390366, 41.4922488], [-8.3392241, 41.4921778], [-8.3393621, 41.4921383], [-8.339491, 41.4921078], [-8.3398229, 41.4920533], [-8.3407556, 41.491981], [-8.3408898, 41.4919932], [-8.3409776, 41.4920177]]}, "properties": {"highway": "primary", "oneway": "yes", "ref": "EN 310", "surface": "asphalt"}}, {"type": "Feature", "geometry": {"type": "LineString", "coordinates": [[-8.341334, 41.4916587], [-8.341155, 41.4917844], [-8.3410715, 41.4918345]]}, "properties": {"highway": "primary", "oneway": "yes", "ref": "EN 310", "surface": "asphalt"}}, {"type": "Feature", "geometry": {"type": "LineString", "coordinates": [[-8.3412391, 41.4919211], [-8.3412582, 41.4918161], [-8.341334, 41.4916587]]}, "properties": {"highway": "primary", "oneway": "yes", "ref": "EN 310", "surface": "asphalt"}}, {"type": "Feature", "geometry": {"type": "LineString", "coordinates": [[-8.3541151, 41.4812932], [-8.3541564, 41.4812378], [-8.3542417, 41.4811121], [-8.3543051, 41.4809536], [-8.3543235, 41.4807962], [-8.354266, 41.4799096], [-8.35426, 41.4798174], [-8.3542078, 41.479011], [-8.3541832, 41.4788467], [-8.3540669, 41.4784732], [-8.3539599, 41.4781201], [-8.3539384, 41.4779874], [-8.3539384, 41.477891], [-8.3541335, 41.4767704], [-8.3541416, 41.4767237], [-8.3541606, 41.4764931], [-8.3541339, 41.4762934], [-8.3540541, 41.4761101], [-8.3535522, 41.4749731], [-8.3535361, 41.4748806], [-8.3535102, 41.4744489], [-8.3535051, 41.4743321], [-8.3534878, 41.4739361], [-8.3534717, 41.4738195], [-8.3534396, 41.473711], [-8.352946, 41.4727544], [-8.3529183, 41.4726832], [-8.3528777, 41.4725787], [-8.3528557, 41.4724397], [-8.3528495, 41.4722359], [-8.3528441, 41.471649], [-8.3528441, 41.471432], [-8.3528817, 41.4712913], [-8.3529568, 41.4711506], [-8.3532196, 41.470821], [-8.3535254, 41.4704914]]}, "properties": {"highway": "primary", "lanes": "2", "maxspeed": "50", "name": "Rua da Boavista", "ref": "EN 310", "surface": "asphalt"}}, {"type": "Feature", "geometry": {"type": "LineString", "coordinates": [[-8.3523836, 41.4828921], [-8.3524507, 41.482751]]}, "properties": {"highway": "primary", "lanes": "1", "oneway": "yes", "ref": "EN 310", "surface": "asphalt"}}, {"type": "Feature", "geometry": {"type": "LineString", "coordinates": [[-8.3524507, 41.482751], [-8.352362, 41.4827903], [-8.3522773, 41.4828325]]}, "properties": {"highway": "primary", "lanes": "1", "oneway": "yes", "ref": "EN 310", "surface": "asphalt"}}, {"type": "Feature", "geometry": {"type": "LineString", "coordinates": [[-8.2708492, 41.5710482], [-8.2706861, 41.5712231]]}, "properties": {"highway": "primary", "name": "Rua de Mir\u00e3o", "oneway": "yes", "ref": "EN 310", "source": "bing", "surface": "asphalt"}}, {"type": "Feature", "geometry": {"type": "LineString", "coordinates": [[-8.2706809, 41.5714637], [-8.2707048, 41.5715925], [-8.2706881, 41.5716984], [-8.2706685, 41.5718453], [-8.270605, 41.5723207], [-8.2705999, 41.5723505], [-8.2705425, 41.5727631], [-8.2704968, 41.572849]]}, "properties": {"highway": "primary", "lanes": "2", "name": "Avenida 25 de Abril", "oneway": "yes", "ref": "EN 310", "source": "bing", "surface": "asphalt"}}, {"type": "Feature", "geometry": {"type": "LineString", "coordinates": [[-8.2706356, 41.5714309], [-8.2706809, 41.5714637], [-8.2707318, 41.5714825], [-8.2707878, 41.5714894], [-8.270844, 41.5714838], [-8.2708957, 41.5714663], [-8.2709384, 41.5714383], [-8.2709683, 41.5714022], [-8.270983, 41.5713612], [-8.2709811, 41.5713187], [-8.2709656, 41.5712828], [-8.2709382, 41.571251], [-8.2709008, 41.5712257], [-8.2708861, 41.5712188], [-8.2708374, 41.5712043], [-8.2707853, 41.5712001], [-8.2707336, 41.5712065], [-8.2706861, 41.5712231], [-8.2706394, 41.5712548], [-8.2706088, 41.571296], [-8.2705975, 41.5713424], [-8.2706068, 41.571389], [-8.2706356, 41.5714309]]}, "properties": {"highway": "primary", "junction": "roundabout", "ref": "EN 310", "source": "bing", "surface": "asphalt"}}, {"type": "Feature", "geometry": {"type": "LineString", "coordinates": [[-8.2708492, 41.5710482], [-8.2708346, 41.5709266], [-8.2707987, 41.570804], [-8.2704837, 41.5702902], [-8.270325, 41.5700313], [-8.2697118, 41.5690311], [-8.2694936, 41.5686751], [-8.2692468, 41.5684187], [-8.268795, 41.5681309], [-8.268607, 41.568011], [-8.2683261, 41.5678321], [-8.2681771, 41.5676653], [-8.2680615, 41.5674555], [-8.2677533, 41.5666204], [-8.2676806, 41.5661097], [-8.2676268, 41.5650649], [-8.2676264, 41.5649889], [-8.2676259, 41.5648886], [-8.2677154, 41.564317], [-8.2677435, 41.564141], [-8.2677286, 41.5639353], [-8.2676596, 41.5636103], [-8.2676528, 41.5635783], [-8.2676164, 41.5634068], [-8.2675878, 41.5632722], [-8.2675977, 41.5630828], [-8.2676944, 41.5627013], [-8.2676899, 41.562501], [-8.2674224, 41.561097], [-8.2674272, 41.5609814], [-8.2674387, 41.5607043], [-8.2674237, 41.5606278], [-8.2673909, 41.560461], [-8.2669375, 41.5596595], [-8.2668642, 41.5594394], [-8.2667928, 41.5589338], [-8.2667114, 41.5581313], [-8.2667053, 41.5580707], [-8.2666443, 41.5576214]]}, "properties": {"highway": "primary", "name": "Rua de Mir\u00e3o", "ref": "EN 310", "source": "bing", "surface": "asphalt"}}, {"type": "Feature", "geometry": {"type": "LineString", "coordinates": [[-8.3684588, 41.4137921], [-8.3682651, 41.4137765]]}, "properties": {"bridge": "yes", "highway": "primary", "layer": "1", "ref": "EN 310", "source": "bing"}}, {"type": "Feature", "geometry": {"type": "LineString", "coordinates": [[-8.3598294, 41.459302], [-8.3591712, 41.4594534]]}, "properties": {"bridge": "viaduct", "highway": "primary", "layer": "1", "name": "Rua de S\u00e3o Jo\u00e3o Baptista", "ref": "EN 310", "source": "bing", "surface": "asphalt"}}, {"type": "Feature", "geometry": {"type": "LineString", "coordinates": [[-8.3591712, 41.4594534], [-8.3589643, 41.459495], [-8.3588067, 41.4595119], [-8.3586584, 41.4595278], [-8.3578788, 41.4595618], [-8.3576064, 41.459596], [-8.3573893, 41.459665], [-8.3570918, 41.4598219], [-8.355715, 41.4606522], [-8.3554263, 41.4608471], [-8.3545476, 41.4613756], [-8.3538955, 41.4617577], [-8.3538491, 41.4617859], [-8.3531039, 41.4622331], [-8.352772, 41.4624323], [-8.3523656, 41.4626762], [-8.3522217, 41.4627625], [-8.3520001, 41.4629325], [-8.3517707, 41.4630887], [-8.3516348, 41.4631943], [-8.3514494, 41.4633384], [-8.3509128, 41.4638465], [-8.350853, 41.4639027], [-8.3507361, 41.4641081], [-8.3506859, 41.4642571], [-8.350661, 41.4643976], [-8.3506376, 41.4645726], [-8.3506532, 41.4646776], [-8.3506566, 41.4647006], [-8.3506595, 41.4647204], [-8.3506984, 41.4648358], [-8.3507449, 41.4649377], [-8.350812, 41.4650844], [-8.3511508, 41.4657704], [-8.351412, 41.4662949], [-8.3516469, 41.4666603], [-8.3521954, 41.4673936], [-8.3523132, 41.4675512], [-8.3524373, 41.4677171], [-8.3524481, 41.4677315], [-8.3525498, 41.4678095], [-8.3527039, 41.4678986], [-8.3533956, 41.4682906], [-8.35354, 41.4683892], [-8.3536472, 41.4684822], [-8.3537395, 41.4685939], [-8.3537872, 41.4686929], [-8.3538265, 41.4689936], [-8.3538697, 41.4693238], [-8.3539327, 41.4698062], [-8.3539225, 41.4699528], [-8.353869, 41.4701005], [-8.3535254, 41.4704914]]}, "properties": {"highway": "primary", "maxspeed": "50", "name": "Rua de S\u00e3o Jo\u00e3o Baptista", "ref": "EN 310"}}, {"type": "Feature", "geometry": {"type": "LineString", "coordinates": [[-8.3682651, 41.4137765], [-8.3681185, 41.4137551], [-8.3680206, 41.4137278], [-8.3679219, 41.4136751], [-8.3678306, 41.4136026], [-8.3677822, 41.4135356], [-8.3677488, 41.4134482], [-8.3677308, 41.413095], [-8.3677201, 41.4129532], [-8.3676857, 41.4123374], [-8.367618, 41.4120506], [-8.367529, 41.4117713], [-8.3673801, 41.4114938], [-8.3673428, 41.411403], [-8.3673381, 41.4113189], [-8.3673896, 41.4111776], [-8.3674681, 41.4110628], [-8.3676672, 41.4108832], [-8.3677532, 41.4108115], [-8.3678292, 41.4107406], [-8.3678775, 41.4106609], [-8.3679244, 41.4104678], [-8.3679534, 41.4102188], [-8.3679423, 41.4101132], [-8.3678932, 41.4099983], [-8.3677702, 41.409807], [-8.3677359, 41.4096756], [-8.3676875, 41.4094903], [-8.3675963, 41.4092609], [-8.3674929, 41.4091187], [-8.3673699, 41.409021], [-8.3672022, 41.4089082], [-8.367096, 41.4088367], [-8.3670401, 41.408738], [-8.3670163, 41.4086253], [-8.367048, 41.40849], [-8.3673321, 41.4077501], [-8.3673497, 41.4076549], [-8.3673334, 41.407555], [-8.3672565, 41.4072299], [-8.3672422, 41.4070803], [-8.3672101, 41.4067101], [-8.3671987, 41.4065678], [-8.3671607, 41.4060917], [-8.3671158, 41.4059658], [-8.367029, 41.4057994], [-8.3669498, 41.4056356], [-8.3669249, 41.405488], [-8.3669412, 41.4051614]]}, "properties": {"highway": "primary", "ref": "EN 310"}}, {"type": "Feature", "geometry": {"type": "LineString", "coordinates": [[-8.2708861, 41.5712188], [-8.2708492, 41.5710482]]}, "properties": {"highway": "primary", "name": "Rua de Mir\u00e3o", "oneway": "yes", "ref": "EN 310", "source": "bing", "surface": "asphalt"}}, {"type": "Feature", "geometry": {"type": "LineString", "coordinates": [[-8.2706964, 41.5728601], [-8.2706671, 41.5727733], [-8.2707324, 41.5723318], [-8.2708298, 41.5716022], [-8.2708517, 41.5715449], [-8.2708957, 41.5714663]]}, "properties": {"highway": "primary", "lanes": "2", "name": "Avenida 25 de Abril", "oneway": "yes", "ref": "EN 310", "source": "bing", "surface": "asphalt"}}, {"type": "Feature", "geometry": {"type": "LineString", "coordinates": [[-8.3324219, 41.4987266], [-8.3325165, 41.4987184], [-8.3327275, 41.4986922], [-8.3329537, 41.4986388], [-8.3329703, 41.4986315], [-8.3331094, 41.4985701], [-8.3334005, 41.4984102], [-8.3341752, 41.4979798], [-8.3343468, 41.4978555], [-8.3345146, 41.497708], [-8.3346396, 41.4975135], [-8.3347856, 41.497191], [-8.3350355, 41.4966388], [-8.3350777, 41.4965727], [-8.3351389, 41.4964766], [-8.3362002, 41.4952246], [-8.3368486, 41.4944608], [-8.3383677, 41.4926715]]}, "properties": {"highway": "primary", "ref": "EN 310", "source": "bing", "surface": "asphalt"}}, {"type": "Feature", "geometry": {"type": "LineString", "coordinates": [[-8.3269005, 41.5003312], [-8.3268866, 41.5003534], [-8.3268823, 41.5003777], [-8.3268877, 41.5004018], [-8.3269022, 41.5004233], [-8.3269246, 41.5004407], [-8.3269528, 41.5004525], [-8.3269843, 41.5004574], [-8.3270164, 41.5004553], [-8.3270463, 41.5004462], [-8.3270703, 41.5004316], [-8.3270879, 41.5004126], [-8.3270976, 41.5003906], [-8.3270986, 41.5003674], [-8.3270909, 41.500345], [-8.3270733, 41.5003236], [-8.3270479, 41.5003072], [-8.3270169, 41.5002974], [-8.3269835, 41.5002952], [-8.3269507, 41.5003008], [-8.3269225, 41.5003131], [-8.3269005, 41.5003312]]}, "properties": {"highway": "primary", "junction": "roundabout", "ref": "EN 310", "source": "bing", "surface": "asphalt"}}, {"type": "Feature", "geometry": {"type": "LineString", "coordinates": [[-8.3745633, 41.4043022], [-8.3753714, 41.4036065], [-8.3763562, 41.4027316], [-8.3766239, 41.4024304], [-8.3768677, 41.4020682], [-8.3769692, 41.401809], [-8.3770575, 41.4014977], [-8.3770909, 41.4011117], [-8.3770774, 41.4004575], [-8.3770125, 41.3993669]]}, "properties": {"highway": "primary", "ref": "EN 310"}}, {"type": "Feature", "geometry": {"type": "LineString", "coordinates": [[-8.3620202, 41.4453607], [-8.3619899, 41.4452008]]}, "properties": {"highway": "primary", "name": "Rua Santa Helena", "oneway": "yes", "ref": "EN 310"}}, {"type": "Feature", "geometry": {"type": "LineString", "coordinates": [[-8.3620202, 41.4453607], [-8.3640512, 41.4481554], [-8.3641373, 41.4482739], [-8.3644712, 41.4487229], [-8.3648203, 41.4491924], [-8.3648922, 41.4493489], [-8.3649204, 41.4494794], [-8.36491, 41.4496238], [-8.364779, 41.4502259], [-8.3647695, 41.4503604], [-8.3647674, 41.4504728], [-8.3647782, 41.4505359], [-8.3648197, 41.4506457], [-8.3649083, 41.450795], [-8.3651382, 41.4510856], [-8.3653839, 41.4512977], [-8.3655052, 41.4513876], [-8.3658756, 41.4516533], [-8.3666499, 41.4522404], [-8.3668062, 41.4523931], [-8.366929, 41.4525563], [-8.3669972, 41.4526957], [-8.3671531, 41.4531021], [-8.3671905, 41.4532087], [-8.3672205, 41.4533433], [-8.3672259, 41.4534919], [-8.3672192, 41.453593], [-8.3670656, 41.4544178], [-8.3670555, 41.4544722], [-8.3670404, 41.4545415]]}, "properties": {"highway": "primary", "name": "Rua de S\u00e3o Jo\u00e3o Baptista", "ref": "EN 310"}}, {"type": "Feature", "geometry": {"type": "LineString", "coordinates": [[-8.3618559, 41.4452645], [-8.3620202, 41.4453607]]}, "properties": {"highway": "primary", "name": "Rua Santa Helena", "oneway": "yes", "ref": "EN 310"}}, {"type": "Feature", "geometry": {"type": "LineString", "coordinates": [[-8.3717086, 41.4058334], [-8.3715222, 41.4058542], [-8.3713033, 41.4058512], [-8.3710432, 41.4058083], [-8.3707565, 41.4057332], [-8.3699588, 41.4053364], [-8.369661, 41.4052402], [-8.3674973, 41.4047601]]}, "properties": {"highway": "primary", "ref": "EN 310"}}, {"type": "Feature", "geometry": {"type": "LineString", "coordinates": [[-8.3617274, 41.4449583], [-8.3617516, 41.445111]]}, "properties": {"highway": "primary", "oneway": "yes", "ref": "EN 310"}}, {"type": "Feature", "geometry": {"type": "LineString", "coordinates": [[-8.3617274, 41.4449583], [-8.3613376, 41.4444182]]}, "properties": {"bridge": "yes", "highway": "primary", "layer": "1", "oneway": "no", "ref": "EN 310"}}, {"type": "Feature", "geometry": {"type": "LineString", "coordinates": [[-8.3730323, 41.405392], [-8.3732851, 41.4052877], [-8.3734328, 41.405216], [-8.3735667, 41.4051509], [-8.3738253, 41.4049992], [-8.3740301, 41.4048265], [-8.3742053, 41.4046543], [-8.3745633, 41.4043022]]}, "properties": {"highway": "primary", "oneway": "yes", "ref": "EN 310"}}, {"type": "Feature", "geometry": {"type": "LineString", "coordinates": [[-8.2878689, 41.5362847], [-8.2878916, 41.5359533], [-8.2878832, 41.5357768], [-8.2878224, 41.5352116], [-8.2877392, 41.5344948], [-8.2876985, 41.5341498], [-8.2877012, 41.5339081], [-8.287726, 41.5338125], [-8.2877596, 41.5337323], [-8.2878228, 41.5336395], [-8.2879846, 41.5334982], [-8.2882643, 41.5332838], [-8.288472, 41.5331757], [-8.2885939, 41.5330976], [-8.2887691, 41.5329971], [-8.288887, 41.5329398], [-8.2891337, 41.5328313], [-8.2895354, 41.5326697], [-8.2897233, 41.5325857], [-8.2897466, 41.5325723], [-8.2899233, 41.5324785], [-8.2903267, 41.5322284], [-8.2904011, 41.5321886], [-8.2905637, 41.5321015], [-8.2907961, 41.5320418], [-8.2913283, 41.5319786], [-8.2916133, 41.5319398], [-8.2917407, 41.53191], [-8.2918271, 41.5318755], [-8.2918915, 41.5318399], [-8.2922041, 41.5315314], [-8.2924616, 41.5313643], [-8.292652, 41.5312567], [-8.2928314, 41.5311506], [-8.2929112, 41.5310742], [-8.2929553, 41.5310075], [-8.2929916, 41.5309393], [-8.2930203, 41.5308732], [-8.2930844, 41.5305992], [-8.2931094, 41.5304866], [-8.2931784, 41.5301391], [-8.2932019, 41.5300358], [-8.2932291, 41.5299534], [-8.2932764, 41.5298649], [-8.2933595, 41.5297669], [-8.2935094, 41.5296496], [-8.2939757, 41.5293268], [-8.2950498, 41.5286003], [-8.2958011, 41.5280922]]}, "properties": {"highway": "primary", "lanes": "2", "name": "Rua de S\u00e3o Bento", "ref": "EN 310", "source": "bing", "surface": "asphalt"}}, {"type": "Feature", "geometry": {"type": "LineString", "coordinates": [[-8.2878289, 41.5364057], [-8.2878689, 41.5362847]]}, "properties": {"bridge": "yes", "highway": "primary", "layer": "1", "ref": "EN 310", "source": "bing", "surface": "asphalt"}}, {"type": "Feature", "geometry": {"type": "LineString", "coordinates": [[-8.2958011, 41.5280922], [-8.2967636, 41.5274412], [-8.296816, 41.5274058], [-8.2976548, 41.5268223], [-8.2978007, 41.526723], [-8.2981578, 41.5264856], [-8.2989349, 41.5259576], [-8.29979, 41.5253681], [-8.3014503, 41.5242178], [-8.3024019, 41.52356], [-8.3026953, 41.5234021], [-8.3028627, 41.5233386], [-8.3031811, 41.5232954], [-8.303366, 41.5232775], [-8.3035399, 41.5232734], [-8.3038658, 41.5232734], [-8.3043811, 41.5232661], [-8.3058535, 41.5232454], [-8.3060026, 41.5232361], [-8.3061203, 41.523221], [-8.3063248, 41.5231597], [-8.306465, 41.5230882], [-8.3067558, 41.5228947], [-8.3070905, 41.5226182], [-8.3072215, 41.5224718], [-8.3072296, 41.5223351], [-8.3071899, 41.5222224], [-8.3070907, 41.5221155], [-8.3069012, 41.5219794], [-8.3067013, 41.5218093], [-8.3065927, 41.5216223], [-8.3065853, 41.5214632], [-8.3065992, 41.5211821], [-8.3065783, 41.5208697], [-8.3063837, 41.5206094], [-8.3063002, 41.5203387], [-8.3062516, 41.519865], [-8.3062516, 41.5195318], [-8.3063906, 41.519282], [-8.3066896, 41.5190269], [-8.3071276, 41.5188551], [-8.3075935, 41.5187197], [-8.3078299, 41.5185792], [-8.3080633, 41.518378], [-8.3084945, 41.5179066], [-8.3088503, 41.5175176], [-8.3092737, 41.5170547], [-8.3092984, 41.5170278], [-8.3097573, 41.516526], [-8.3101592, 41.5160867], [-8.3103961, 41.5158635], [-8.3108824, 41.5155074], [-8.3117133, 41.5150772], [-8.3118061, 41.5150336], [-8.3123368, 41.5147844], [-8.3124822, 41.5147153], [-8.3125819, 41.514668], [-8.3133716, 41.5142927], [-8.3136317, 41.5141691], [-8.315246, 41.513402], [-8.315385, 41.5133325], [-8.3155204, 41.5132509], [-8.3156222, 41.513171], [-8.3157168, 41.5130871], [-8.316848, 41.5117604], [-8.3175073, 41.5109628], [-8.3187087, 41.50953], [-8.3188208, 41.5093992], [-8.319079, 41.5090874], [-8.3194721, 41.5086422], [-8.3201849, 41.5077848], [-8.3204212, 41.5075006], [-8.3210318, 41.5067586], [-8.3211747, 41.5065779], [-8.3212, 41.5065484], [-8.3221909, 41.505372], [-8.3222231, 41.505333], [-8.3241889, 41.5029521], [-8.3244368, 41.5026556], [-8.3252068, 41.5017243], [-8.3252467, 41.501676], [-8.3258368, 41.5011694], [-8.3265757, 41.5005349], [-8.3267133, 41.5004509], [-8.3268877, 41.5004018]]}, "properties": {"highway": "primary", "lanes": "2", "ref": "EN 310", "source": "bing", "surface": "asphalt"}}, {"type": "Feature", "geometry": {"type": "LineString", "coordinates": [[-8.2776864, 41.5481191], [-8.2777591, 41.5479363], [-8.2778036, 41.5477768], [-8.2778061, 41.5476071], [-8.2777734, 41.5475255], [-8.2776581, 41.5474267], [-8.2774942, 41.5473551], [-8.277341, 41.5472861], [-8.2772161, 41.5472135], [-8.2771154, 41.5471395], [-8.2770315, 41.5470369], [-8.2770054, 41.54695], [-8.2769936, 41.546875], [-8.2770052, 41.5467582], [-8.2770297, 41.5466628], [-8.2771028, 41.5465097], [-8.2771648, 41.546376], [-8.2772062, 41.5463182], [-8.2772534, 41.5462761], [-8.2773743, 41.5461608], [-8.2774414, 41.5461085], [-8.2775261, 41.5460393], [-8.2777452, 41.5459057], [-8.2783716, 41.5454887], [-8.2784823, 41.5453778], [-8.2786103, 41.5452495], [-8.2788952, 41.5449142], [-8.2792741, 41.5446575], [-8.2793637, 41.5445963], [-8.2797423, 41.5443423], [-8.2799783, 41.5441807], [-8.2801649, 41.5440388], [-8.2802806, 41.5439565], [-8.2804454, 41.5438193], [-8.2809033, 41.5434234], [-8.2810366, 41.5432996], [-8.282484, 41.5420027], [-8.2833599, 41.5412195], [-8.2836414, 41.5409678], [-8.2839615, 41.5406795], [-8.2840417, 41.5406098], [-8.2841085, 41.5405501], [-8.2850917, 41.5396894], [-8.2853463, 41.539463], [-8.2855059, 41.5393228], [-8.2856581, 41.5392212], [-8.285801, 41.5391615], [-8.2860731, 41.539089], [-8.2867435, 41.538982], [-8.2869565, 41.5389366], [-8.287115, 41.5388789], [-8.2872428, 41.5387667], [-8.2873947, 41.5385365], [-8.2874648, 41.5383777], [-8.2874917, 41.5381908], [-8.2874676, 41.5377323], [-8.2874774, 41.5376206], [-8.2875124, 41.5374262], [-8.2876539, 41.536856], [-8.2878289, 41.5364057]]}, "properties": {"highway": "primary", "name": "Avenida da Rep\u00fablica", "ref": "EN 310", "source": "bing", "surface": "asphalt"}}, {"type": "Feature", "geometry": {"type": "LineString", "coordinates": [[-8.2666443, 41.5576214], [-8.2663562, 41.5554982], [-8.2662438, 41.5552519], [-8.2657681, 41.5547427], [-8.265499, 41.5542248], [-8.264887, 41.5536585], [-8.2647312, 41.5533867], [-8.264691, 41.5532647], [-8.2646653, 41.5531774], [-8.2646765, 41.5531171], [-8.2647048, 41.5529936], [-8.2647695, 41.5528746], [-8.2651278, 41.5525239], [-8.2652349, 41.552419], [-8.2654243, 41.5522807], [-8.2657605, 41.5521582], [-8.2664459, 41.55207], [-8.2665476, 41.5520451], [-8.2666133, 41.5520121], [-8.2666834, 41.5519701], [-8.266911, 41.5517298], [-8.2670081, 41.551627], [-8.267192, 41.5514594], [-8.2673065, 41.5513997], [-8.26741, 41.5513595], [-8.267545, 41.5513275], [-8.268124, 41.5512619], [-8.2682809, 41.5512539], [-8.2684332, 41.551261], [-8.2694071, 41.5514101], [-8.2696225, 41.5514301], [-8.2698226, 41.5514333], [-8.2701828, 41.5514102], [-8.270442, 41.5513775], [-8.2706579, 41.5513173], [-8.2708164, 41.5512541], [-8.2713354, 41.5509432], [-8.2717982, 41.5506852], [-8.2719733, 41.5505974], [-8.2720408, 41.5505631], [-8.2721807, 41.5505213], [-8.2726284, 41.5504219], [-8.2727681, 41.5503795], [-8.2728961, 41.5503085], [-8.2730375, 41.5501829], [-8.2733554, 41.5497943], [-8.2735179, 41.5495731], [-8.2736229, 41.5493963], [-8.2738231, 41.549044], [-8.2738895, 41.5489835], [-8.2739661, 41.5489344], [-8.2740847, 41.5488982], [-8.2741852, 41.5488843], [-8.274306, 41.5488907], [-8.2745095, 41.5489156], [-8.2748461, 41.5489675], [-8.2750449, 41.5489743], [-8.2752655, 41.5489581], [-8.2756023, 41.5488863], [-8.2761016, 41.5487384], [-8.276895, 41.5484577], [-8.2775321, 41.5482553], [-8.2776229, 41.5481851], [-8.2776864, 41.5481191]]}, "properties": {"highway": "primary", "ref": "EN 310", "source": "bing", "surface": "asphalt"}}, {"type": "Feature", "geometry": {"type": "LineString", "coordinates": [[-8.3669412, 41.4051614], [-8.3670048, 41.4049815], [-8.3670716, 41.4048773]]}, "properties": {"highway": "primary", "oneway": "yes", "ref": "EN 310"}}, {"type": "Feature", "geometry": {"type": "LineString", "coordinates": [[-8.3668706, 41.4048605], [-8.3669131, 41.4049703], [-8.3669412, 41.4051614]]}, "properties": {"highway": "primary", "oneway": "yes", "ref": "EN 310", "turn": "through"}}, {"type": "Feature", "geometry": {"type": "LineString", "coordinates": [[-8.3270909, 41.500345], [-8.3279501, 41.4999918], [-8.3302154, 41.4992992], [-8.3307038, 41.4991499], [-8.3307893, 41.4991209], [-8.3310732, 41.4990245], [-8.3317359, 41.498821], [-8.3318171, 41.4988005], [-8.3318695, 41.4987872], [-8.3320488, 41.4987592]]}, "properties": {"highway": "primary", "ref": "EN 310", "source": "bing", "surface": "asphalt"}}, {"type": "Feature", "geometry": {"type": "LineString", "coordinates": [[-8.3320488, 41.4987592], [-8.3324219, 41.4987266]]}, "properties": {"bridge": "yes", "highway": "primary", "layer": "1", "ref": "EN 310", "source": "bing", "surface": "asphalt"}}, {"type": "Feature", "geometry": {"type": "LineString", "coordinates": [[-8.3524507, 41.482751], [-8.3525057, 41.4826358], [-8.3525379, 41.4825229], [-8.352669, 41.4820744], [-8.3527043, 41.4819692], [-8.3527343, 41.4819178], [-8.3527986, 41.4818596], [-8.3529193, 41.4817973], [-8.3535094, 41.4816385], [-8.3537937, 41.481528], [-8.353946, 41.4814481]]}, "properties": {"highway": "primary", "lanes": "2", "maxspeed": "50", "name": "Rua da Boavista", "ref": "EN 310", "surface": "asphalt"}}, {"type": "Feature", "geometry": {"type": "LineString", "coordinates": [[-8.353946, 41.4814481], [-8.3541151, 41.4812932]]}, "properties": {"bridge": "yes", "highway": "primary", "lanes": "2", "layer": "1", "maxspeed": "50", "name": "Rua da Boavista", "ref": "EN 310", "surface": "asphalt"}}, {"type": "Feature", "geometry": {"type": "LineString", "coordinates": [[-8.3601269, 41.4192521], [-8.3602012, 41.4193003], [-8.3602317, 41.4193197], [-8.3602594, 41.4193372], [-8.3602898, 41.4193506]]}, "properties": {"highway": "primary", "junction": "roundabout", "name": "Rua da Variante", "ref": "EN 310"}}, {"type": "Feature", "geometry": {"type": "LineString", "coordinates": [[-8.3604047, 41.419234], [-8.3603884, 41.4192101], [-8.3603763, 41.419191], [-8.360336, 41.419143]]}, "properties": {"highway": "primary", "junction": "roundabout", "name": "Rua da Variante", "ref": "EN 310"}}, {"type": "Feature", "geometry": {"type": "LineString", "coordinates": [[-8.3602898, 41.4193506], [-8.3603434, 41.4193536], [-8.3603769, 41.4193434], [-8.3604031, 41.419325], [-8.3604216, 41.4192901], [-8.3604196, 41.4192639], [-8.3604047, 41.419234]]}, "properties": {"highway": "primary", "junction": "roundabout", "name": "Rua da Variante", "ref": "EN 310"}}, {"type": "Feature", "geometry": {"type": "LineString", "coordinates": [[-8.360336, 41.419143], [-8.3604062, 41.419092], [-8.3605063, 41.4190052], [-8.3608378, 41.4188153], [-8.360982, 41.4187359], [-8.3610738, 41.4186214], [-8.3613682, 41.4181195], [-8.3615721, 41.4179186], [-8.3621192, 41.4175606], [-8.3625557, 41.4173601], [-8.362928, 41.417216], [-8.3633868, 41.4170908], [-8.3640907, 41.4169009], [-8.3642501, 41.4168579], [-8.3645054, 41.4167623], [-8.3650322, 41.4164045], [-8.3652013, 41.4163266], [-8.3653376, 41.4162958], [-8.3654633, 41.4163116], [-8.3655447, 41.4163507], [-8.3658645, 41.4166201], [-8.3659305, 41.4166545], [-8.3660162, 41.4166723], [-8.3661087, 41.4166639], [-8.3662023, 41.4166256], [-8.3662879, 41.4165813], [-8.3663544, 41.4165402], [-8.3664179, 41.4164728], [-8.3665717, 41.4162129], [-8.3666301, 41.4161491], [-8.3666986, 41.4161051], [-8.3670227, 41.4159115], [-8.3685556, 41.4150795], [-8.3686654, 41.4149884], [-8.3687272, 41.414926], [-8.3687586, 41.4148219], [-8.368785, 41.4144188], [-8.3688041, 41.4140028], [-8.368791, 41.4139458], [-8.368762, 41.413898], [-8.3686872, 41.4138449], [-8.3685735, 41.4138087], [-8.3684588, 41.4137921]]}, "properties": {"highway": "primary", "ref": "EN 310"}}, {"type": "Feature", "geometry": {"type": "MultiPolygon", "coordinates": [[[[-8.3524142, 41.4829493], [-8.3523836, 41.4828921], [-8.3523262, 41.4828481], [-8.3522773, 41.4828325], [-8.3522505, 41.4828239], [-8.3521684, 41.4828232], [-8.3520923, 41.482846], [-8.3520332, 41.4828892], [-8.3520009, 41.4829458], [-8.352, 41.4830074], [-8.3520307, 41.4830647], [-8.3520881, 41.4831086], [-8.3521637, 41.4831328], [-8.3522459, 41.4831334], [-8.3523223, 41.4831105], [-8.3523809, 41.4830675], [-8.3524132, 41.4830108], [-8.3524142, 41.4829493]]]]}, "properties": {"highway": "primary", "junction": "roundabout", "maxspeed": "50", "ref": "EN 101;EN 310", "surface": "asphalt"}}, {"type": "Feature", "geometry": {"type": "MultiPolygon", "coordinates": [[[[-8.3527806, 41.4864073], [-8.3527729, 41.4863598], [-8.3527416, 41.4863183], [-8.3526914, 41.4862888], [-8.3526301, 41.486276], [-8.3525668, 41.4862817], [-8.3524945, 41.4863028], [-8.3524225, 41.4863348], [-8.3523762, 41.4863666], [-8.3523368, 41.4864042], [-8.3523197, 41.4864502], [-8.3523274, 41.4864976], [-8.3523587, 41.4865392], [-8.3524089, 41.4865687], [-8.3524703, 41.4865815], [-8.3525337, 41.4865757], [-8.3526051, 41.4865549], [-8.3526806, 41.4865218], [-8.3527242, 41.4864909], [-8.3527633, 41.4864535], [-8.3527806, 41.4864073]]]]}, "properties": {"highway": "primary", "junction": "roundabout", "lanes": "1", "lit": "yes", "maxspeed": "50", "ref": "EN 101;EN 310", "sidewalk": "right", "surface": "asphalt"}}, {"type": "Feature", "geometry": {"type": "MultiPolygon", "coordinates": [[[[-8.3456052, 41.4886496], [-8.3456007, 41.4886114], [-8.345577, 41.4885775], [-8.3455442, 41.4885558], [-8.3455036, 41.4885434], [-8.345454, 41.4885425], [-8.3454075, 41.4885554], [-8.3453708, 41.4885805], [-8.3453511, 41.4886093], [-8.3453466, 41.4886545], [-8.3453698, 41.4886963], [-8.3453953, 41.4887161], [-8.3454271, 41.4887297], [-8.345477, 41.4887366], [-8.3455266, 41.4887288], [-8.3455685, 41.4887074], [-8.3455897, 41.4886861], [-8.3456052, 41.4886496]]]]}, "properties": {"highway": "primary", "junction": "roundabout", "ref": "EN 310"}}, {"type": "Feature", "geometry": {"type": "MultiPolygon", "coordinates": [[[[-8.3412421, 41.4919557], [-8.3412391, 41.4919211], [-8.341223, 41.49189], [-8.3411953, 41.4918637], [-8.3411586, 41.4918448], [-8.3411161, 41.4918347], [-8.3410715, 41.4918345], [-8.3410373, 41.4918413], [-8.3410062, 41.4918539], [-8.3409799, 41.4918717], [-8.3409568, 41.4918982], [-8.3409445, 41.4919285], [-8.340944, 41.4919602], [-8.3409554, 41.4919908], [-8.3409776, 41.4920177], [-8.3410115, 41.4920401], [-8.3410483, 41.492053], [-8.3410884, 41.492058], [-8.3411288, 41.4920547], [-8.3411714, 41.4920413], [-8.3412066, 41.4920188], [-8.3412309, 41.4919893], [-8.3412421, 41.4919557]]]]}, "properties": {"highway": "primary", "junction": "roundabout", "ref": "EN 310", "surface": "asphalt"}}, {"type": "Feature", "geometry": {"type": "MultiPolygon", "coordinates": [[[[-8.270983, 41.5713612], [-8.2709811, 41.5713187], [-8.2709656, 41.5712828], [-8.2709382, 41.571251], [-8.2709008, 41.5712257], [-8.2708861, 41.5712188], [-8.2708374, 41.5712043], [-8.2707853, 41.5712001], [-8.2707336, 41.5712065], [-8.2706861, 41.5712231], [-8.2706394, 41.5712548], [-8.2706088, 41.571296], [-8.2705975, 41.5713424], [-8.2706068, 41.571389], [-8.2706356, 41.5714309], [-8.2706809, 41.5714637], [-8.2707318, 41.5714825], [-8.2707878, 41.5714894], [-8.270844, 41.5714838], [-8.2708957, 41.5714663], [-8.2709384, 41.5714383], [-8.2709683, 41.5714022], [-8.270983, 41.5713612]]]]}, "properties": {"highway": "primary", "junction": "roundabout", "ref": "EN 310", "source": "bing", "surface": "asphalt"}}, {"type": "Feature", "geometry": {"type": "MultiPolygon", "coordinates": [[[[-8.3270986, 41.5003674], [-8.3270909, 41.500345], [-8.3270733, 41.5003236], [-8.3270479, 41.5003072], [-8.3270169, 41.5002974], [-8.3269835, 41.5002952], [-8.3269507, 41.5003008], [-8.3269225, 41.5003131], [-8.3269005, 41.5003312], [-8.3268866, 41.5003534], [-8.3268823, 41.5003777], [-8.3268877, 41.5004018], [-8.3269022, 41.5004233], [-8.3269246, 41.5004407], [-8.3269528, 41.5004525], [-8.3269843, 41.5004574], [-8.3270164, 41.5004553], [-8.3270463, 41.5004462], [-8.3270703, 41.5004316], [-8.3270879, 41.5004126], [-8.3270976, 41.5003906], [-8.3270986, 41.5003674]]]]}, "properties": {"highway": "primary", "junction": "roundabout", "ref": "EN 310", "source": "bing", "surface": "asphalt"}}]}