{"type": "FeatureCollection", "features": [{"type": "Feature", "geometry": {"type": "LineString", "coordinates": [[-9.2670035, 39.2308076], [-9.2657456, 39.231951], [-9.26545, 39.232117], [-9.2651833, 39.2322335], [-9.264867, 39.232317], [-9.2645235, 39.2323063], [-9.2641603, 39.232355], [-9.2638168, 39.232528], [-9.2634497, 39.2326403], [-9.2630917, 39.2326411], [-9.2628471, 39.2325763], [-9.2627862, 39.2325728], [-9.2625659, 39.2325601], [-9.2621754, 39.2326533], [-9.261733, 39.2327], [-9.26125, 39.232617], [-9.2605824, 39.2322524], [-9.2603325, 39.2321835], [-9.260067, 39.232224], [-9.259562, 39.2323901], [-9.25926, 39.2324062], [-9.25888, 39.2323415], [-9.2584531, 39.232224], [-9.2561728, 39.2312037], [-9.2559291, 39.2310515], [-9.2548349, 39.2301793], [-9.2545901, 39.2300457], [-9.2543684, 39.2299757], [-9.2541373, 39.2299121], [-9.253885, 39.2299113], [-9.2526252, 39.2301152], [-9.2524392, 39.2301453], [-9.2518836, 39.2302353], [-9.2503108, 39.2304749], [-9.2498993, 39.2305769], [-9.249583, 39.230717], [-9.2488, 39.231333], [-9.2485875, 39.2316208], [-9.2476451, 39.233369], [-9.2475817, 39.2334849], [-9.2469223, 39.2346901], [-9.246579, 39.235241], [-9.2457732, 39.2365343], [-9.245267, 39.2371], [-9.2442164, 39.2380385], [-9.2441002, 39.2381424], [-9.2436165, 39.2385744], [-9.243383, 39.238783], [-9.2428, 39.239183], [-9.2410025, 39.2400175], [-9.2409266, 39.2400527], [-9.2405527, 39.2402233], [-9.2402491, 39.240447], [-9.2400679, 39.2407049], [-9.2397635, 39.2418943], [-9.2397497, 39.2419483], [-9.2395676, 39.243071], [-9.2394348, 39.2434879], [-9.2391192, 39.2437466], [-9.2378411, 39.2444968], [-9.237675, 39.2445761], [-9.2374702, 39.2446183], [-9.2372459, 39.2446121], [-9.237083, 39.244583], [-9.2355415, 39.2441041], [-9.2351694, 39.2440536], [-9.2348928, 39.2440484], [-9.2347373, 39.2440455], [-9.2323798, 39.2443306], [-9.232033, 39.2444], [-9.2316636, 39.2445695], [-9.2314714, 39.2449506], [-9.2313094, 39.245511], [-9.2313258, 39.2457864], [-9.2314659, 39.2460106], [-9.2317754, 39.2462972], [-9.2318634, 39.246443], [-9.2318921, 39.2465846], [-9.2318491, 39.2467428], [-9.2317272, 39.2468844], [-9.2315229, 39.2469982], [-9.2309446, 39.2472483], [-9.229183, 39.247867], [-9.2288795, 39.2479237], [-9.2286379, 39.2479016], [-9.2283482, 39.2478132], [-9.2279157, 39.2477027], [-9.2277577, 39.2476791], [-9.227583, 39.247683], [-9.2272609, 39.2477416], [-9.226855, 39.2479334], [-9.2260372, 39.2483199], [-9.2257875, 39.2484379], [-9.2254735, 39.2485814], [-9.2253008, 39.2486041], [-9.2251133, 39.2485768], [-9.2243245, 39.2483569], [-9.2242143, 39.2483062], [-9.224011, 39.2481915], [-9.2238463, 39.2480726], [-9.2235915, 39.2479747], [-9.2234222, 39.2479443], [-9.223344, 39.2479302], [-9.2231617, 39.2479331], [-9.2228594, 39.2478583], [-9.2227518, 39.2478442], [-9.2225732, 39.2478373], [-9.222383, 39.247883], [-9.222233, 39.248033], [-9.22215, 39.24825], [-9.2221152, 39.248636], [-9.22209, 39.2489152], [-9.2220065, 39.2490568], [-9.2218092, 39.2491483], [-9.2215417, 39.2492061], [-9.2213993, 39.2492368], [-9.2213025, 39.2492495], [-9.220917, 39.2493], [-9.220783, 39.2493], [-9.2206402, 39.2492722], [-9.2204986, 39.2492061], [-9.2204126, 39.2491659], [-9.2203, 39.249], [-9.2202, 39.2488], [-9.21995, 39.24855], [-9.219583, 39.248417], [-9.2194059, 39.2483867], [-9.2193578, 39.2483785], [-9.218833, 39.24835], [-9.2182604, 39.248406], [-9.2181073, 39.2484384], [-9.2179463, 39.2484939], [-9.217742, 39.2486015], [-9.2176707, 39.2486539], [-9.217517, 39.248767], [-9.2173565, 39.2488906], [-9.2165374, 39.2495212], [-9.2165, 39.24955], [-9.216168, 39.2498169], [-9.215567, 39.2503], [-9.215317, 39.250467]]}, "properties": {"highway": "primary", "ref": "EN 361", "surface": "asphalt"}}, {"type": "Feature", "geometry": {"type": "LineString", "coordinates": [[-9.2675896, 39.2306388], [-9.2680803, 39.2308424], [-9.268341, 39.2309505], [-9.2684403, 39.2309764], [-9.2685044, 39.2309829], [-9.2685572, 39.2309754], [-9.2686066, 39.2309577], [-9.2686616, 39.2309318], [-9.2686898, 39.2309006], [-9.2687085, 39.230858], [-9.2687091, 39.2308072], [-9.2686951, 39.2307645], [-9.2686623, 39.2307182], [-9.268605, 39.2306837], [-9.2685478, 39.2306493], [-9.26792, 39.230377], [-9.2678164, 39.2303464], [-9.2677418, 39.230339], [-9.2676598, 39.2303396], [-9.2676035, 39.2303542], [-9.2675577, 39.2303789], [-9.2675123, 39.2304227], [-9.2674935, 39.2304851], [-9.2675035, 39.2305377], [-9.2675149, 39.2305786], [-9.2675418, 39.2306108], [-9.2675896, 39.2306388]]}, "properties": {"highway": "primary", "junction": "roundabout", "ref": "EN 361", "surface": "asphalt"}}, {"type": "Feature", "geometry": {"type": "LineString", "coordinates": [[-9.2675123, 39.2304227], [-9.267346, 39.2304955], [-9.2671515, 39.2306554], [-9.2670035, 39.2308076]]}, "properties": {"highway": "primary", "oneway": "yes", "ref": "EN 361", "surface": "asphalt"}}, {"type": "Feature", "geometry": {"type": "LineString", "coordinates": [[-9.2670035, 39.2308076], [-9.2672427, 39.2306689], [-9.2673272, 39.2306326], [-9.2674023, 39.2306222], [-9.2674787, 39.2306243], [-9.2675896, 39.2306388]]}, "properties": {"highway": "primary", "oneway": "yes", "ref": "EN 361", "surface": "asphalt"}}, {"type": "Feature", "geometry": {"type": "LineString", "coordinates": [[-9.2866973, 39.2387558], [-9.2871246, 39.2387998], [-9.2882184, 39.2387563], [-9.2903595, 39.2387374], [-9.2915464, 39.2387269], [-9.2938257, 39.2387068], [-9.2958314, 39.2388952], [-9.2988486, 39.2391787], [-9.2991778, 39.2393249], [-9.2999427, 39.2400669], [-9.3002502, 39.2401762], [-9.3014687, 39.2402999], [-9.3019973, 39.2403545], [-9.3025552, 39.2404115], [-9.3028978, 39.24052], [-9.3040095, 39.2409851], [-9.3043305, 39.2411146]]}, "properties": {"highway": "primary", "ref": "EN 361", "surface": "asphalt"}}, {"type": "Feature", "geometry": {"type": "LineString", "coordinates": [[-9.3049704, 39.2414032], [-9.3062477, 39.2419544], [-9.3070572, 39.242304], [-9.3071757, 39.2423552], [-9.3075334, 39.2425125], [-9.307777, 39.2425929], [-9.3078679, 39.2426159], [-9.3079614, 39.242611], [-9.3080552, 39.242595], [-9.3081711, 39.2425525], [-9.3086763, 39.2422833], [-9.3087505, 39.2422438], [-9.3087883, 39.2422236]]}, "properties": {"highway": "primary", "maxspeed": "50", "name": "Avenida de Mo\u00e7ambique", "ref": "EN 361", "surface": "asphalt"}}, {"type": "Feature", "geometry": {"type": "LineString", "coordinates": [[-9.3044916, 39.2413202], [-9.3044985, 39.2413466], [-9.3045171, 39.2413752], [-9.3045454, 39.2413985], [-9.3045811, 39.2414146], [-9.3046212, 39.2414223], [-9.3046591, 39.2414212], [-9.3046953, 39.2414125], [-9.3047273, 39.2413968], [-9.3047543, 39.2413737], [-9.304772, 39.2413457], [-9.3047789, 39.2413151], [-9.3047747, 39.2412841], [-9.3047586, 39.2412541], [-9.3047321, 39.2412289], [-9.3046974, 39.2412108], [-9.3046573, 39.2412011], [-9.3046154, 39.2412008], [-9.3045686, 39.2412124], [-9.3045296, 39.2412354], [-9.3045028, 39.2412673], [-9.304493, 39.2412932], [-9.3044916, 39.2413202]]}, "properties": {"highway": "primary", "junction": "roundabout", "ref": "EN 361", "surface": "asphalt"}}, {"type": "Feature", "geometry": {"type": "LineString", "coordinates": [[-9.2864118, 39.2388218], [-9.2864488, 39.2388523], [-9.286497, 39.2388711], [-9.2865299, 39.2388759], [-9.2865836, 39.2388718], [-9.2866525, 39.2388405], [-9.2866832, 39.2388061], [-9.2866973, 39.2387558], [-9.286688, 39.2387146], [-9.2866554, 39.2386735], [-9.2866122, 39.2386484], [-9.2865605, 39.2386363], [-9.2865293, 39.2386358], [-9.2864771, 39.2386464], [-9.2864418, 39.2386637], [-9.2864083, 39.2386942], [-9.2863891, 39.2387333], [-9.2863884, 39.2387751], [-9.2864118, 39.2388218]]}, "properties": {"highway": "primary", "junction": "roundabout", "ref": "EN 361", "surface": "asphalt"}}, {"type": "Feature", "geometry": {"type": "LineString", "coordinates": [[-9.2864418, 39.2386637], [-9.2859367, 39.2384176]]}, "properties": {"highway": "primary", "ref": "EN 361", "surface": "asphalt"}}, {"type": "Feature", "geometry": {"type": "LineString", "coordinates": [[-9.1618604, 39.2576771], [-9.1619944, 39.2576648], [-9.162087, 39.2576498], [-9.1622253, 39.2576333], [-9.1623677, 39.2576191], [-9.1625049, 39.257617], [-9.1627038, 39.2576218]]}, "properties": {"highway": "primary", "lanes": "1", "maxspeed": "50", "oneway": "yes", "ref": "EN 361", "surface": "asphalt", "turn:lanes": "left;through"}}, {"type": "Feature", "geometry": {"type": "LineString", "coordinates": [[-9.1586936, 39.261767], [-9.1586513, 39.2617362], [-9.1585999, 39.2617153], [-9.1585431, 39.2617057], [-9.1585046, 39.261706], [-9.1584668, 39.2617116], [-9.1584047, 39.2617339], [-9.1583548, 39.2617702], [-9.1583243, 39.2618123], [-9.1583175, 39.2618352], [-9.1583104, 39.2618593], [-9.1583145, 39.2619074], [-9.1583283, 39.2619404], [-9.1583507, 39.2619705], [-9.1583936, 39.2620049], [-9.1584225, 39.2620175], [-9.1584473, 39.2620284], [-9.1585075, 39.2620393], [-9.1585718, 39.2620361], [-9.158632, 39.2620183], [-9.1586828, 39.2619876], [-9.1587196, 39.2619467], [-9.1587393, 39.2618992], [-9.1587403, 39.2618514], [-9.1587239, 39.2618054], [-9.1586936, 39.261767]]}, "properties": {"highway": "primary", "junction": "roundabout", "lanes": "2", "maxspeed": "30", "name": "Avenida Vasco Pereira da Concei\u00e7\u00e3o", "ref": "EN 361", "surface": "asphalt"}}, {"type": "Feature", "geometry": {"type": "LineString", "coordinates": [[-9.1575345, 39.2616918], [-9.155169, 39.2612585]]}, "properties": {"bridge": "yes", "highway": "primary", "lanes": "2", "layer": "1", "maxspeed": "30", "name": "Avenida Vasco Pereira da Concei\u00e7\u00e3o", "overtaking": "no", "ref": "EN 361", "surface": "asphalt"}}, {"type": "Feature", "geometry": {"type": "LineString", "coordinates": [[-9.155169, 39.2612585], [-9.1549536, 39.2612373], [-9.1548039, 39.2612414], [-9.1546226, 39.2612594], [-9.1544783, 39.2612897], [-9.154325, 39.2613368], [-9.154169, 39.2614022], [-9.1538136, 39.2615931], [-9.1535193, 39.2617619]]}, "properties": {"highway": "primary", "lanes": "2", "maxspeed": "50", "name": "Avenida Vasco Pereira da Concei\u00e7\u00e3o", "ref": "EN 361", "surface": "asphalt"}}, {"type": "Feature", "geometry": {"type": "LineString", "coordinates": [[-9.1533574, 39.2617869], [-9.1532999, 39.2617745], [-9.1532403, 39.2617761], [-9.1531905, 39.2617888], [-9.1531469, 39.2618113], [-9.1531133, 39.2618409], [-9.1530907, 39.2618761], [-9.1530805, 39.2619147], [-9.1530833, 39.261954]]}, "properties": {"highway": "primary", "junction": "roundabout", "lanes": "2", "maxspeed": "30", "ref": "EN 361", "surface": "asphalt"}}, {"type": "Feature", "geometry": {"type": "LineString", "coordinates": [[-8.6466263, 39.4644559], [-8.6466032, 39.4643921], [-8.6465542, 39.4643378], [-8.6464847, 39.4642989], [-8.6464125, 39.464281], [-8.6463367, 39.4642802], [-8.6462639, 39.4642966], [-8.6462004, 39.4643286], [-8.6461543, 39.4643705], [-8.6461249, 39.4644205], [-8.6461145, 39.4644749], [-8.646119, 39.4645137], [-8.6461434, 39.4645679], [-8.6461869, 39.4646145], [-8.6462458, 39.4646495], [-8.6463381, 39.4646844], [-8.6464034, 39.4646763], [-8.6464256, 39.4646701], [-8.6464915, 39.4646515], [-8.6465484, 39.4646197], [-8.646592, 39.4645773], [-8.6466275, 39.4645273], [-8.6466263, 39.4644559]]}, "properties": {"highway": "primary", "junction": "roundabout", "ref": "EN 361;EN 365-4", "surface": "asphalt"}}, {"type": "Feature", "geometry": {"type": "LineString", "coordinates": [[-8.6466275, 39.4645273], [-8.6467221, 39.4644437], [-8.6469407, 39.4643286], [-8.6473293, 39.4641462], [-8.6483804, 39.4637612], [-8.6505737, 39.4629776], [-8.6510428, 39.4628668], [-8.6516198, 39.4627735], [-8.65217, 39.4627487], [-8.6526774, 39.4627498], [-8.6531611, 39.462778], [-8.6538031, 39.4628631], [-8.6546923, 39.4630563], [-8.6560321, 39.4634504], [-8.6568378, 39.4636952], [-8.6573182, 39.463895], [-8.6574263, 39.4639972]]}, "properties": {"highway": "primary", "lanes": "2", "maxspeed": "90", "oneway": "yes", "ref": "EN 361;EN 365-4", "surface": "asphalt"}}, {"type": "Feature", "geometry": {"type": "LineString", "coordinates": [[-8.6574263, 39.4639972], [-8.6574502, 39.4640337], [-8.6574928, 39.4640725], [-8.6575469, 39.4641014], [-8.6575945, 39.4641158], [-8.6576448, 39.4641226], [-8.6576958, 39.4641213], [-8.657759, 39.4641083], [-8.6578157, 39.4640831], [-8.6578622, 39.4640476], [-8.6578953, 39.464004], [-8.6579126, 39.4639563], [-8.6579138, 39.4639066], [-8.6578908, 39.463844], [-8.6578424, 39.4637907], [-8.6577739, 39.4637527], [-8.6576931, 39.4637342], [-8.6576291, 39.4637344], [-8.6575565, 39.4637507], [-8.6574934, 39.4637829], [-8.6574454, 39.463828], [-8.6574168, 39.463882], [-8.6574103, 39.4639402], [-8.6574263, 39.4639972]]}, "properties": {"highway": "primary", "junction": "roundabout", "ref": "EN 361;EN 365-4", "surface": "asphalt"}}, {"type": "Feature", "geometry": {"type": "LineString", "coordinates": [[-8.6576291, 39.4637344], [-8.6571642, 39.4636847], [-8.6568852, 39.463622], [-8.656063, 39.463379], [-8.6547272, 39.4629801], [-8.6538377, 39.4627589], [-8.6531777, 39.4626546], [-8.6526927, 39.4626108], [-8.6521591, 39.4626224], [-8.651611, 39.4626667], [-8.6510214, 39.4627668], [-8.6505329, 39.4628835], [-8.6483355, 39.4636881], [-8.6472815, 39.4640743], [-8.6468755, 39.4642098], [-8.6465911, 39.464285], [-8.6464847, 39.4642989]]}, "properties": {"highway": "primary", "lanes": "2", "maxspeed": "90", "oneway": "yes", "ref": "EN 361;EN 365-4", "surface": "asphalt"}}, {"type": "Feature", "geometry": {"type": "LineString", "coordinates": [[-9.1515795, 39.2627381], [-9.1515499, 39.2627122], [-9.1515132, 39.2626927], [-9.1514714, 39.2626805], [-9.1514271, 39.2626766], [-9.1513829, 39.262681], [-9.1513347, 39.2626965], [-9.1512941, 39.2627218]]}, "properties": {"highway": "primary", "junction": "roundabout", "lanes": "2", "maxspeed": "30", "ref": "EN 361", "surface": "asphalt"}}, {"type": "Feature", "geometry": {"type": "LineString", "coordinates": [[-9.1529688, 39.262085], [-9.1519892, 39.2626583], [-9.151899, 39.2627024], [-9.1518083, 39.262733], [-9.1517417, 39.2627489]]}, "properties": {"highway": "primary", "lanes": "2", "maxspeed": "50", "name": "Avenida Vasco Pereira da Concei\u00e7\u00e3o", "ref": "EN 361", "surface": "asphalt"}}, {"type": "Feature", "geometry": {"type": "LineString", "coordinates": [[-9.1431928, 39.2549385], [-9.1433765, 39.2548292]]}, "properties": {"highway": "primary", "lanes": "2", "maxspeed": "50", "overtaking": "no", "ref": "EN 361", "surface": "asphalt"}}, {"type": "Feature", "geometry": {"type": "LineString", "coordinates": [[-9.1430303, 39.2550359], [-9.1431928, 39.2549385]]}, "properties": {"bridge": "yes", "highway": "primary", "lanes": "2", "layer": "1", "maxspeed": "50", "overtaking": "no", "ref": "EN 361", "surface": "asphalt"}}, {"type": "Feature", "geometry": {"type": "LineString", "coordinates": [[-9.2858478, 39.2383722], [-9.2858009, 39.2383459], [-9.2855275, 39.2382227], [-9.2851312, 39.23804], [-9.2841134, 39.2376018], [-9.283991, 39.2375391], [-9.2838327, 39.2374387], [-9.2833766, 39.2370003], [-9.2831144, 39.2367847], [-9.2825741, 39.2363405], [-9.2822733, 39.2360932], [-9.281921, 39.2358991], [-9.280295, 39.2352276], [-9.2794687, 39.2348864], [-9.2791339, 39.2346959], [-9.2774407, 39.2328779], [-9.2770749, 39.2327028], [-9.2766055, 39.2325746], [-9.2762442, 39.2326005], [-9.2739931, 39.2334156], [-9.2736345, 39.2334386], [-9.2735933, 39.2334412], [-9.2732076, 39.2332511], [-9.2722203, 39.2322149], [-9.2719559, 39.2320097], [-9.2715494, 39.2318503], [-9.269131, 39.2308902]]}, "properties": {"highway": "primary", "ref": "EN 361", "surface": "asphalt"}}, {"type": "Feature", "geometry": {"type": "LineString", "coordinates": [[-9.2859367, 39.2384176], [-9.2858478, 39.2383722]]}, "properties": {"bridge": "yes", "highway": "primary", "layer": "1", "ref": "EN 361", "surface": "asphalt"}}, {"type": "Feature", "geometry": {"type": "LineString", "coordinates": [[-9.1583175, 39.2618352], [-9.1582628, 39.2618252], [-9.158022, 39.2617811], [-9.1579652, 39.2617707], [-9.1575345, 39.2616918]]}, "properties": {"highway": "primary", "lanes": "2", "maxspeed": "50", "name": "Avenida Vasco Pereira da Concei\u00e7\u00e3o", "ref": "EN 361", "surface": "asphalt"}}, {"type": "Feature", "geometry": {"type": "LineString", "coordinates": [[-9.1111534, 39.2534779], [-9.1112137, 39.2536477], [-9.1112502, 39.2537272], [-9.1113014, 39.2537975], [-9.111404, 39.25393], [-9.111496, 39.2540241], [-9.111592, 39.2541166], [-9.1117521, 39.2542708], [-9.1119284, 39.2544155], [-9.112054, 39.2545116], [-9.1121817, 39.2545966], [-9.1123094, 39.2546785], [-9.1124472, 39.2547588], [-9.1126552, 39.254862], [-9.1128095, 39.2549323], [-9.1130077, 39.2550074], [-9.1133402, 39.255137], [-9.115115, 39.2558072], [-9.1152591, 39.2558718], [-9.1153895, 39.2559381], [-9.1154982, 39.2560082], [-9.115591, 39.2560797], [-9.1156743, 39.2561584], [-9.1157507, 39.2562496], [-9.1168301, 39.257726], [-9.1175694, 39.2587364], [-9.1176456, 39.2588239], [-9.1177236, 39.2589049], [-9.1178006, 39.2589716], [-9.1178872, 39.2590404], [-9.1179863, 39.2591013], [-9.1191818, 39.25975], [-9.119321, 39.2598236], [-9.1194373, 39.2598959], [-9.1195379, 39.2599713], [-9.1196349, 39.2600594], [-9.1201161, 39.2604794], [-9.120708, 39.261006], [-9.1208075, 39.2610971], [-9.121803, 39.2619822], [-9.1221957, 39.2623479], [-9.122259, 39.2624387], [-9.1222879, 39.2625131], [-9.1222981, 39.2625923], [-9.1222791, 39.2626747], [-9.1222468, 39.2627407], [-9.1221963, 39.2628209], [-9.1218089, 39.2633224], [-9.1217399, 39.2634268], [-9.1216889, 39.2635259], [-9.1216485, 39.2636271], [-9.1216259, 39.263723], [-9.1216177, 39.2638369], [-9.1215298, 39.265071], [-9.1215481, 39.2651933], [-9.1215739, 39.2652909], [-9.1216234, 39.2653804], [-9.1216763, 39.2654527], [-9.1220919, 39.2658261], [-9.122213, 39.2659085], [-9.1223302, 39.2659741], [-9.1224554, 39.2660171], [-9.1225854, 39.2660481], [-9.1227312, 39.2660586], [-9.1228852, 39.266051], [-9.1230345, 39.2660194], [-9.1231758, 39.2659695], [-9.1232925, 39.2659143], [-9.1237824, 39.2656347], [-9.1247009, 39.265106], [-9.1248171, 39.265061], [-9.1249245, 39.2650401], [-9.1250425, 39.2650315], [-9.1252045, 39.265039], [-9.1264035, 39.2651885], [-9.1265549, 39.2651961], [-9.1266854, 39.2651773], [-9.1267921, 39.2651381], [-9.1268916, 39.2650929], [-9.1269964, 39.2650272], [-9.1281832, 39.2642453], [-9.1282787, 39.2641675], [-9.1283552, 39.2640877], [-9.1285538, 39.2638595], [-9.1286477, 39.2637665], [-9.1287415, 39.2636962], [-9.1288602, 39.2636245], [-9.1289974, 39.2635507], [-9.1291202, 39.2634851], [-9.1292191, 39.2634155], [-9.1292953, 39.2633375], [-9.1293472, 39.2632677], [-9.1293933, 39.2631725], [-9.1295753, 39.2626547], [-9.1296252, 39.2625244], [-9.1296856, 39.2624085], [-9.1297572, 39.2623083], [-9.1298394, 39.2622205], [-9.1299366, 39.2621339], [-9.1300814, 39.2620186], [-9.1335089, 39.2593773], [-9.1336709, 39.2592661], [-9.1346491, 39.2585849], [-9.1348031, 39.2584748], [-9.134976, 39.2583427], [-9.1358535, 39.2576081], [-9.1359039, 39.2575643], [-9.1361958, 39.2573364], [-9.1363129, 39.2572601], [-9.1364459, 39.2571919], [-9.1366018, 39.2571303], [-9.136808, 39.2570686], [-9.1370273, 39.257013], [-9.1371154, 39.2569922], [-9.1372036, 39.2569714], [-9.1373259, 39.2569541], [-9.1375235, 39.2569392], [-9.1376813, 39.2569333], [-9.1378629, 39.2569376], [-9.1381149, 39.2569504], [-9.138415, 39.2569676], [-9.1385637, 39.2569695], [-9.1387177, 39.2569651], [-9.1388625, 39.2569434], [-9.1389993, 39.2569095], [-9.1397037, 39.256691], [-9.1399717, 39.2565995], [-9.1402008, 39.2565066], [-9.140421, 39.2564069], [-9.1406802, 39.2562777], [-9.1411823, 39.2560178], [-9.1427286, 39.2552116], [-9.1430303, 39.2550359]]}, "properties": {"highway": "primary", "lanes": "2", "ref": "EN 361", "surface": "asphalt"}}, {"type": "Feature", "geometry": {"type": "LineString", "coordinates": [[-9.204602, 39.2510674], [-9.2036436, 39.2513881], [-9.2035041, 39.2514302], [-9.2033624, 39.2514581], [-9.2032648, 39.2514725], [-9.2031672, 39.2514762], [-9.2030041, 39.2514729], [-9.2028432, 39.2514521], [-9.2026456, 39.2514096], [-9.2023721, 39.251333], [-9.2018463, 39.2511691], [-9.199625, 39.250482], [-9.1993978, 39.2504158], [-9.1992005, 39.2503671], [-9.1990257, 39.2503333], [-9.1988448, 39.2503137], [-9.1975911, 39.250267], [-9.197124, 39.2502449], [-9.1970171, 39.2502403], [-9.1956486, 39.2501753], [-9.1954932, 39.2501626], [-9.1953577, 39.2501423], [-9.1952262, 39.2501097], [-9.1950866, 39.2500521], [-9.194971, 39.2499956], [-9.1944623, 39.2497117], [-9.1943101, 39.249634], [-9.1941624, 39.2495777], [-9.1938789, 39.2494772], [-9.192517, 39.2491], [-9.1923115, 39.2490224], [-9.1921274, 39.2489374], [-9.1919755, 39.2488361], [-9.1907621, 39.2478607], [-9.190656, 39.2477876], [-9.1904848, 39.2476949], [-9.1903446, 39.247633], [-9.1902636, 39.2476004], [-9.1901482, 39.2475713], [-9.1900064, 39.2475424], [-9.1898715, 39.2475277], [-9.1897324, 39.2475243], [-9.189577, 39.2475273], [-9.1881841, 39.247634], [-9.1875734, 39.247676], [-9.1874198, 39.2476988], [-9.1872773, 39.2477267], [-9.1871416, 39.2477618], [-9.1869975, 39.2478104], [-9.185393, 39.2484223], [-9.1842932, 39.2488417], [-9.1841146, 39.2488922], [-9.1839396, 39.248933], [-9.1837426, 39.248969], [-9.182286, 39.2491922], [-9.1812418, 39.2493541], [-9.1796459, 39.2495865], [-9.1794469, 39.2496196], [-9.179306, 39.2496504], [-9.1791414, 39.2496907], [-9.1789837, 39.2497435], [-9.1787427, 39.2498332], [-9.1784899, 39.2499367], [-9.1782928, 39.2500219], [-9.1775235, 39.2503336], [-9.17698, 39.2505572], [-9.1768494, 39.2506225], [-9.1767769, 39.2506643], [-9.1766917, 39.2507217], [-9.1766109, 39.2507937], [-9.1765485, 39.2508657], [-9.1764872, 39.2509435], [-9.1764559, 39.2509861], [-9.1764033, 39.2510727], [-9.1763068, 39.2512459], [-9.1762802, 39.2512986], [-9.1761796, 39.2514839], [-9.1761304, 39.2515679], [-9.1758779, 39.251999], [-9.1756585, 39.2523697], [-9.1754042, 39.2528021], [-9.1752838, 39.2530055], [-9.1751824, 39.2531736], [-9.1751541, 39.2532268], [-9.1749401, 39.2535885], [-9.1745046, 39.2543181], [-9.174454, 39.2544037], [-9.1743756, 39.2545352], [-9.1742431, 39.2547507], [-9.1741647, 39.2548845], [-9.1741139, 39.2549757], [-9.1740199, 39.2551378], [-9.1739116, 39.2553108], [-9.1738485, 39.2553919], [-9.1737761, 39.2554648], [-9.1736949, 39.2555379], [-9.1736015, 39.2556149], [-9.173318, 39.2558238], [-9.1731592, 39.2559318], [-9.1730292, 39.2560086], [-9.1729327, 39.2560614], [-9.1728592, 39.2561001], [-9.1727362, 39.2561452], [-9.1726124, 39.2561812], [-9.1724586, 39.2562116], [-9.1723025, 39.2562296], [-9.1716525, 39.2562574], [-9.1712817, 39.256274], [-9.1711215, 39.2562795], [-9.1710153, 39.2562989], [-9.1709027, 39.2563248], [-9.1708015, 39.2563498], [-9.1707474, 39.2563661], [-9.1695451, 39.2567233], [-9.1693889, 39.2567855], [-9.1692511, 39.2568521], [-9.1691431, 39.2569223], [-9.1690353, 39.2570095], [-9.1689138, 39.2571322], [-9.1684871, 39.2576285]]}, "properties": {"highway": "primary", "lanes": "2", "maxspeed": "50", "ref": "EN 361", "surface": "asphalt"}}, {"type": "Feature", "geometry": {"type": "LineString", "coordinates": [[-9.215317, 39.250467], [-9.215034, 39.250627], [-9.213248, 39.2514817], [-9.2129424, 39.2515763], [-9.2127201, 39.2515806], [-9.2123659, 39.251522], [-9.2104089, 39.2504938], [-9.210183, 39.2504], [-9.209817, 39.250333], [-9.2094, 39.2503], [-9.2070136, 39.250313], [-9.2068304, 39.2503346], [-9.2064826, 39.2504216]]}, "properties": {"highway": "primary", "maxspeed": "70", "ref": "EN 361", "surface": "asphalt"}}, {"type": "Feature", "geometry": {"type": "LineString", "coordinates": [[-9.3087883, 39.2422236], [-9.3089956, 39.2421098]]}, "properties": {"bridge": "yes", "highway": "primary", "layer": "1", "maxspeed": "50", "name": "Avenida de Mo\u00e7ambique", "ref": "EN 361", "surface": "asphalt"}}, {"type": "Feature", "geometry": {"type": "LineString", "coordinates": [[-9.1442382, 39.2550474], [-9.1452651, 39.2558074], [-9.1461961, 39.2565104], [-9.1464149, 39.2566988], [-9.1465633, 39.25683], [-9.1470036, 39.2572342], [-9.1470989, 39.2573243], [-9.1472687, 39.2574958], [-9.1474481, 39.2576715], [-9.1476149, 39.2578552], [-9.1479589, 39.258245], [-9.1481099, 39.2584146], [-9.148344, 39.2586999]]}, "properties": {"highway": "primary", "lanes": "2", "maxspeed": "70", "name": "Avenida Calouste Gulbenkian", "ref": "EN 361", "surface": "asphalt"}}, {"type": "Feature", "geometry": {"type": "LineString", "coordinates": [[-9.1618604, 39.2576771], [-9.1617251, 39.2577176], [-9.1615915, 39.2577621], [-9.1614521, 39.2578258], [-9.1613213, 39.2578963], [-9.1611858, 39.2579812], [-9.1610572, 39.2580796], [-9.1609451, 39.2581768], [-9.1608399, 39.2582847], [-9.1607564, 39.2583903], [-9.1606764, 39.2585065], [-9.1606173, 39.2586233], [-9.1605652, 39.2587441], [-9.1605301, 39.2588602], [-9.1604951, 39.2589884], [-9.1604779, 39.259113], [-9.1604659, 39.259243], [-9.1604117, 39.2600694], [-9.1604033, 39.2601879], [-9.1603892, 39.260312], [-9.1603741, 39.2604065], [-9.1603467, 39.2605062], [-9.160315, 39.2605962], [-9.1602732, 39.2606844], [-9.1602185, 39.2607702], [-9.1601418, 39.2608621], [-9.1600594, 39.2609429], [-9.1599504, 39.2610296], [-9.1598355, 39.2611024], [-9.1597085, 39.2611696], [-9.1595553, 39.2612433], [-9.1589595, 39.2614961], [-9.1588875, 39.2615372], [-9.1587989, 39.261598], [-9.1587128, 39.2616783], [-9.1586903, 39.2616994], [-9.1586513, 39.2617362]]}, "properties": {"highway": "primary", "lanes": "2", "maxspeed": "50", "ref": "EN 361", "surface": "asphalt"}}, {"type": "Feature", "geometry": {"type": "LineString", "coordinates": [[-9.1684472, 39.2576808], [-9.1682902, 39.2577908], [-9.1681803, 39.2578822], [-9.1680684, 39.2579552], [-9.1679486, 39.258016], [-9.1677138, 39.2580931]]}, "properties": {"highway": "primary", "lanes": "1", "maxspeed": "50", "oneway": "yes", "ref": "EN 361", "surface": "asphalt"}}, {"type": "Feature", "geometry": {"type": "LineString", "coordinates": [[-9.1677138, 39.2580931], [-9.1675658, 39.2581312], [-9.1674783, 39.2581473], [-9.1673889, 39.2581525], [-9.1672374, 39.2581545]]}, "properties": {"highway": "primary", "lanes": "2", "maxspeed": "50", "oneway": "yes", "ref": "EN 361", "surface": "asphalt", "turn:lanes": "left|through"}}, {"type": "Feature", "geometry": {"type": "LineString", "coordinates": [[-9.1672374, 39.2581545], [-9.1670594, 39.2581378], [-9.166838, 39.2581157]]}, "properties": {"highway": "primary", "lanes": "1", "maxspeed": "50", "oneway": "yes", "ref": "EN 361", "surface": "asphalt"}}, {"type": "Feature", "geometry": {"type": "LineString", "coordinates": [[-9.1663384, 39.2580503], [-9.1660808, 39.258008], [-9.1651708, 39.2578744], [-9.1644728, 39.2577747]]}, "properties": {"highway": "primary", "lanes": "1", "maxspeed": "50", "oneway": "yes", "ref": "EN 361", "surface": "asphalt"}}, {"type": "Feature", "geometry": {"type": "LineString", "coordinates": [[-9.166838, 39.2581157], [-9.166731, 39.2581045], [-9.1665285, 39.2580787], [-9.1663384, 39.2580503]]}, "properties": {"highway": "primary", "lanes": "2", "maxspeed": "50", "oneway": "yes", "ref": "EN 361", "surface": "asphalt", "turn:lanes": "left|through"}}, {"type": "Feature", "geometry": {"type": "LineString", "coordinates": [[-9.1672423, 39.2582283], [-9.1673806, 39.2582283], [-9.167572, 39.2582096], [-9.1677232, 39.2581725], [-9.1678532, 39.2581337], [-9.167982, 39.258089], [-9.1680868, 39.258035], [-9.1682532, 39.2579154], [-9.1683163, 39.257852], [-9.1683996, 39.2577605], [-9.1684472, 39.2576808]]}, "properties": {"highway": "primary", "lanes": "1", "maxspeed": "50", "oneway": "yes", "ref": "EN 361", "surface": "asphalt"}}, {"type": "Feature", "geometry": {"type": "LineString", "coordinates": [[-9.1648333, 39.2579089], [-9.1658682, 39.2580491]]}, "properties": {"highway": "primary", "lanes": "1", "maxspeed": "50", "oneway": "yes", "ref": "EN 361", "surface": "asphalt", "turn:lanes": "through;slight_right"}}, {"type": "Feature", "geometry": {"type": "LineString", "coordinates": [[-9.1632862, 39.2576791], [-9.1635603, 39.2577204]]}, "properties": {"highway": "primary", "lanes": "1", "maxspeed": "50", "oneway": "yes", "ref": "EN 361", "surface": "asphalt"}}, {"type": "Feature", "geometry": {"type": "LineString", "coordinates": [[-9.1627038, 39.2576218], [-9.1628435, 39.2576324], [-9.1629894, 39.2576422], [-9.1632862, 39.2576791]]}, "properties": {"highway": "primary", "lanes": "2", "maxspeed": "50", "oneway": "yes", "ref": "EN 361", "surface": "asphalt", "turn:lanes": "left|through"}}, {"type": "Feature", "geometry": {"type": "LineString", "coordinates": [[-9.1639628, 39.2577042], [-9.1634559, 39.257637]]}, "properties": {"highway": "primary", "lanes": "1", "maxspeed": "50", "oneway": "yes", "ref": "EN 361", "surface": "asphalt"}}, {"type": "Feature", "geometry": {"type": "LineString", "coordinates": [[-9.1634559, 39.257637], [-9.163056, 39.2575818], [-9.1628735, 39.2575592], [-9.162692, 39.2575473], [-9.1625329, 39.2575446], [-9.1623766, 39.2575525], [-9.1622207, 39.25757], [-9.1620886, 39.2575954], [-9.1619913, 39.2576168], [-9.1618604, 39.2576771]]}, "properties": {"highway": "primary", "lanes": "1", "maxspeed": "50", "oneway": "yes", "ref": "EN 361", "surface": "asphalt"}}, {"type": "Feature", "geometry": {"type": "LineString", "coordinates": [[-9.3049704, 39.2414032], [-9.3048222, 39.241313], [-9.3047747, 39.2412841]]}, "properties": {"highway": "primary", "lanes": "1", "maxspeed": "50", "name": "Avenida de Mo\u00e7ambique", "oneway": "yes", "ref": "EN 361", "surface": "asphalt"}}, {"type": "Feature", "geometry": {"type": "LineString", "coordinates": [[-9.3047273, 39.2413968], [-9.3049704, 39.2414032]]}, "properties": {"highway": "primary", "lanes": "1", "maxspeed": "50", "name": "Avenida de Mo\u00e7ambique", "oneway": "yes", "ref": "EN 361", "surface": "asphalt"}}, {"type": "Feature", "geometry": {"type": "LineString", "coordinates": [[-9.3043305, 39.2411146], [-9.3044648, 39.2412336], [-9.3045028, 39.2412673]]}, "properties": {"highway": "primary", "oneway": "yes", "ref": "EN 361", "surface": "asphalt"}}, {"type": "Feature", "geometry": {"type": "LineString", "coordinates": [[-9.3046154, 39.2412008], [-9.3043305, 39.2411146]]}, "properties": {"highway": "primary", "oneway": "yes", "ref": "EN 361", "surface": "asphalt"}}, {"type": "Feature", "geometry": {"type": "LineString", "coordinates": [[-9.269131, 39.2308902], [-9.2686623, 39.2307182]]}, "properties": {"highway": "primary", "oneway": "yes", "ref": "EN 361", "surface": "asphalt"}}, {"type": "Feature", "geometry": {"type": "LineString", "coordinates": [[-9.2686616, 39.2309318], [-9.2688091, 39.2308965], [-9.2689472, 39.230885], [-9.269131, 39.2308902]]}, "properties": {"highway": "primary", "oneway": "yes", "ref": "EN 361", "surface": "asphalt"}}, {"type": "Feature", "geometry": {"type": "LineString", "coordinates": [[-9.1661865, 39.2580953], [-9.1665629, 39.2581473]]}, "properties": {"highway": "primary", "lanes": "1", "maxspeed": "50", "oneway": "yes", "ref": "EN 361", "surface": "asphalt"}}, {"type": "Feature", "geometry": {"type": "LineString", "coordinates": [[-9.1658682, 39.2580491], [-9.1661865, 39.2580953]]}, "properties": {"highway": "primary", "lanes": "1", "maxspeed": "50", "oneway": "yes", "ref": "EN 361", "surface": "asphalt"}}, {"type": "Feature", "geometry": {"type": "LineString", "coordinates": [[-9.1669984, 39.2582079], [-9.1670943, 39.2582197], [-9.1672423, 39.2582283]]}, "properties": {"highway": "primary", "lanes": "2", "maxspeed": "50", "oneway": "yes", "ref": "EN 361", "surface": "asphalt", "turn:lanes": "left|through"}}, {"type": "Feature", "geometry": {"type": "LineString", "coordinates": [[-9.1535193, 39.2617619], [-9.153424, 39.2617776], [-9.1533574, 39.2617869]]}, "properties": {"highway": "primary", "lanes": "1", "maxspeed": "50", "name": "Avenida Vasco Pereira da Concei\u00e7\u00e3o", "oneway": "yes", "ref": "EN 361", "surface": "asphalt"}}, {"type": "Feature", "geometry": {"type": "LineString", "coordinates": [[-9.1534673, 39.2618881], [-9.1535193, 39.2617619]]}, "properties": {"highway": "primary", "lanes": "1", "maxspeed": "50", "name": "Avenida Vasco Pereira da Concei\u00e7\u00e3o", "oneway": "yes", "ref": "EN 361", "surface": "asphalt"}}, {"type": "Feature", "geometry": {"type": "LineString", "coordinates": [[-9.1529688, 39.262085], [-9.1531049, 39.2620595], [-9.1531582, 39.2620474]]}, "properties": {"highway": "primary", "lanes": "1", "maxspeed": "50", "name": "Avenida Vasco Pereira da Concei\u00e7\u00e3o", "oneway": "yes", "ref": "EN 361", "surface": "asphalt"}}, {"type": "Feature", "geometry": {"type": "LineString", "coordinates": [[-9.1530833, 39.261954], [-9.1529688, 39.262085]]}, "properties": {"highway": "primary", "lanes": "1", "maxspeed": "50", "name": "Avenida Vasco Pereira da Concei\u00e7\u00e3o", "oneway": "yes", "ref": "EN 361", "surface": "asphalt"}}, {"type": "Feature", "geometry": {"type": "LineString", "coordinates": [[-9.1516101, 39.2628387], [-9.1516587, 39.2628056]]}, "properties": {"highway": "primary", "lanes": "1", "maxspeed": "50", "name": "Avenida Vasco Pereira da Concei\u00e7\u00e3o", "oneway": "yes", "ref": "EN 361", "surface": "asphalt"}}, {"type": "Feature", "geometry": {"type": "LineString", "coordinates": [[-9.1517417, 39.2627489], [-9.1516301, 39.262742], [-9.1515795, 39.2627381]]}, "properties": {"highway": "primary", "lanes": "1", "maxspeed": "50", "name": "Avenida Vasco Pereira da Concei\u00e7\u00e3o", "oneway": "yes", "ref": "EN 361", "surface": "asphalt"}}, {"type": "Feature", "geometry": {"type": "LineString", "coordinates": [[-9.1511321, 39.2626996], [-9.1512032, 39.2627682], [-9.1512452, 39.2628086]]}, "properties": {"highway": "primary", "lanes": "1", "name": "Avenida Calouste Gulbenkian", "oneway": "yes", "ref": "EN 361", "surface": "asphalt"}}, {"type": "Feature", "geometry": {"type": "LineString", "coordinates": [[-9.1512941, 39.2627218], [-9.1511321, 39.2626996]]}, "properties": {"highway": "primary", "lanes": "1", "name": "Avenida Calouste Gulbenkian", "oneway": "yes", "ref": "EN 361", "surface": "asphalt"}}, {"type": "Feature", "geometry": {"type": "LineString", "coordinates": [[-9.1509489, 39.2626072], [-9.1510841, 39.2626788], [-9.1511321, 39.2626996]]}, "properties": {"highway": "primary", "lanes": "2", "maxspeed": "70", "name": "Avenida Calouste Gulbenkian", "oneway": "no", "ref": "EN 361", "surface": "asphalt"}}, {"type": "Feature", "geometry": {"type": "LineString", "coordinates": [[-9.1516587, 39.2628056], [-9.1517417, 39.2627489]]}, "properties": {"highway": "primary", "lanes": "1", "maxspeed": "50", "name": "Avenida Vasco Pereira da Concei\u00e7\u00e3o", "oneway": "yes", "ref": "EN 361", "surface": "asphalt"}}, {"type": "Feature", "geometry": {"type": "LineString", "coordinates": [[-9.1438898, 39.2548251], [-9.143975, 39.2548729], [-9.1441234, 39.2549663], [-9.1442382, 39.2550474]]}, "properties": {"highway": "primary", "lanes": "2", "maxspeed": "50", "name": "Avenida Calouste Gulbenkian", "overtaking": "no", "ref": "EN 361", "surface": "asphalt"}}, {"type": "Feature", "geometry": {"type": "LineString", "coordinates": [[-9.1436568, 39.2547616], [-9.1437063, 39.2547666], [-9.1437608, 39.2547776], [-9.1438118, 39.2547916], [-9.1438898, 39.2548251]]}, "properties": {"highway": "primary", "lanes": "2", "maxspeed": "50", "overtaking": "no", "ref": "EN 361", "surface": "asphalt"}}, {"type": "Feature", "geometry": {"type": "LineString", "coordinates": [[-9.1433765, 39.2548292], [-9.1434467, 39.2548002], [-9.1435195, 39.2547791], [-9.1435812, 39.2547674], [-9.1436568, 39.2547616]]}, "properties": {"highway": "primary", "lanes": "2", "maxspeed": "50", "overtaking": "no", "ref": "EN 361", "surface": "asphalt"}}, {"type": "Feature", "geometry": {"type": "LineString", "coordinates": [[-9.204602, 39.2510674], [-9.2048828, 39.250996], [-9.2053461, 39.2508446], [-9.205416, 39.2508012]]}, "properties": {"highway": "primary", "lanes": "1", "maxspeed": "70", "oneway": "yes", "ref": "EN 361", "surface": "asphalt"}}, {"type": "Feature", "geometry": {"type": "LineString", "coordinates": [[-9.205416, 39.2508012], [-9.205312, 39.2508223], [-9.2048729, 39.2509687], [-9.204602, 39.2510674]]}, "properties": {"highway": "primary", "lanes": "1", "maxspeed": "70", "oneway": "yes", "ref": "EN 361", "surface": "asphalt"}}, {"type": "Feature", "geometry": {"type": "LineString", "coordinates": [[-9.2064826, 39.2504216], [-9.2060482, 39.2505762], [-9.2059003, 39.2506288], [-9.2056506, 39.2507177], [-9.205416, 39.2508012]]}, "properties": {"highway": "primary", "lanes": "3", "lanes:backward": "1", "lanes:forward": "2", "maxspeed": "70", "ref": "EN 361", "surface": "asphalt", "turn:lanes:forward": "left|through"}}, {"type": "Feature", "geometry": {"type": "LineString", "coordinates": [[-9.1684871, 39.2576285], [-9.1684472, 39.2576808]]}, "properties": {"highway": "primary", "lanes": "2", "maxspeed": "50", "ref": "EN 361", "surface": "asphalt"}}, {"type": "Feature", "geometry": {"type": "LineString", "coordinates": [[-9.1665629, 39.2581473], [-9.1667807, 39.2581776]]}, "properties": {"highway": "primary", "lanes": "1", "maxspeed": "50", "oneway": "yes", "ref": "EN 361", "surface": "asphalt", "turn:lanes": "left;through;slight_right"}}, {"type": "Feature", "geometry": {"type": "LineString", "coordinates": [[-9.1667807, 39.2581776], [-9.1669984, 39.2582079]]}, "properties": {"highway": "primary", "lanes": "2", "maxspeed": "50", "oneway": "yes", "ref": "EN 361", "surface": "asphalt", "turn:lanes": "left|through;slight_right"}}, {"type": "Feature", "geometry": {"type": "LineString", "coordinates": [[-9.1644728, 39.2577747], [-9.1639628, 39.2577042]]}, "properties": {"highway": "primary", "lanes": "1", "maxspeed": "50", "oneway": "yes", "ref": "EN 361", "surface": "asphalt", "turn:lanes": "through;slight_right"}}, {"type": "Feature", "geometry": {"type": "LineString", "coordinates": [[-9.1635603, 39.2577204], [-9.1638697, 39.2577671], [-9.1644981, 39.2578629], [-9.1648333, 39.2579089]]}, "properties": {"highway": "primary", "lanes": "1", "maxspeed": "50", "oneway": "yes", "ref": "EN 361", "surface": "asphalt"}}, {"type": "Feature", "geometry": {"type": "LineString", "coordinates": [[-9.1531582, 39.2620474], [-9.1532135, 39.26207], [-9.1532752, 39.2620781], [-9.153324, 39.2620736], [-9.1533698, 39.26206], [-9.1534098, 39.2620379], [-9.1534435, 39.2620065], [-9.1534652, 39.2619692], [-9.1534734, 39.2619288], [-9.1534673, 39.2618881]]}, "properties": {"highway": "primary", "junction": "roundabout", "lanes": "2", "maxspeed": "30", "ref": "EN 361", "surface": "asphalt"}}, {"type": "Feature", "geometry": {"type": "LineString", "coordinates": [[-9.1530833, 39.261954], [-9.153098, 39.2619896], [-9.1531235, 39.2620214], [-9.1531582, 39.2620474]]}, "properties": {"highway": "primary", "junction": "roundabout", "lanes": "2", "maxspeed": "30", "ref": "EN 361", "surface": "asphalt"}}, {"type": "Feature", "geometry": {"type": "LineString", "coordinates": [[-9.1534673, 39.2618881], [-9.1534445, 39.2618463], [-9.1534067, 39.2618115], [-9.1533574, 39.2617869]]}, "properties": {"highway": "primary", "junction": "roundabout", "lanes": "2", "maxspeed": "30", "ref": "EN 361", "surface": "asphalt"}}, {"type": "Feature", "geometry": {"type": "LineString", "coordinates": [[-9.1512452, 39.2628086], [-9.1512466, 39.2628387], [-9.1512561, 39.2628679], [-9.1512734, 39.2628949], [-9.1512976, 39.2629185], [-9.1513277, 39.2629376], [-9.1513623, 39.2629513], [-9.1513999, 39.2629591], [-9.1514388, 39.2629606], [-9.1514881, 39.2629531], [-9.1515329, 39.2629356], [-9.1515699, 39.2629092], [-9.1515963, 39.2628761], [-9.1516101, 39.2628387]]}, "properties": {"highway": "primary", "junction": "roundabout", "lanes": "2", "maxspeed": "30", "ref": "EN 361", "surface": "asphalt"}}, {"type": "Feature", "geometry": {"type": "LineString", "coordinates": [[-9.1516101, 39.2628387], [-9.1516109, 39.2628035], [-9.1516005, 39.2627693], [-9.1515795, 39.2627381]]}, "properties": {"highway": "primary", "junction": "roundabout", "lanes": "2", "maxspeed": "30", "ref": "EN 361", "surface": "asphalt"}}, {"type": "Feature", "geometry": {"type": "LineString", "coordinates": [[-9.1512941, 39.2627218], [-9.1512601, 39.2627619], [-9.1512452, 39.2628086]]}, "properties": {"highway": "primary", "junction": "roundabout", "lanes": "2", "maxspeed": "30", "ref": "EN 361", "surface": "asphalt"}}, {"type": "Feature", "geometry": {"type": "LineString", "coordinates": [[-9.148759, 39.2592564], [-9.1488927, 39.2594732]]}, "properties": {"highway": "primary", "lanes": "2", "maxspeed": "70", "name": "Avenida Calouste Gulbenkian", "ref": "EN 361", "surface": "asphalt"}}, {"type": "Feature", "geometry": {"type": "LineString", "coordinates": [[-9.148344, 39.2586999], [-9.1486524, 39.259114]]}, "properties": {"highway": "primary", "lanes": "3", "lanes:backward": "1", "lanes:forward": "2", "maxspeed": "70", "name": "Avenida Calouste Gulbenkian", "ref": "EN 361", "surface": "asphalt", "turn:lanes:forward": "left|through"}}, {"type": "Feature", "geometry": {"type": "LineString", "coordinates": [[-9.1488927, 39.2594732], [-9.1491014, 39.2598157], [-9.1492504, 39.2600771], [-9.1497826, 39.2610653], [-9.1502835, 39.2619592], [-9.1503484, 39.2620642], [-9.1504115, 39.2621674], [-9.1504943, 39.2622692], [-9.1505894, 39.2623587], [-9.1506963, 39.2624463], [-9.1508059, 39.2625199], [-9.1509489, 39.2626072]]}, "properties": {"highway": "primary", "lanes": "2", "maxspeed": "70", "name": "Avenida Calouste Gulbenkian", "ref": "EN 361", "surface": "asphalt"}}, {"type": "Feature", "geometry": {"type": "LineString", "coordinates": [[-9.1486524, 39.259114], [-9.148759, 39.2592564]]}, "properties": {"highway": "primary", "lanes": "3", "lanes:backward": "1", "lanes:forward": "2", "maxspeed": "70", "name": "Avenida Calouste Gulbenkian", "ref": "EN 361", "surface": "asphalt", "turn:lanes:forward": "left|through"}}, {"type": "Feature", "geometry": {"type": "MultiPolygon", "coordinates": [[[[-9.2687091, 39.2308072], [-9.2686951, 39.2307645], [-9.2686623, 39.2307182], [-9.268605, 39.2306837], [-9.2685478, 39.2306493], [-9.26792, 39.230377], [-9.2678164, 39.2303464], [-9.2677418, 39.230339], [-9.2676598, 39.2303396], [-9.2676035, 39.2303542], [-9.2675577, 39.2303789], [-9.2675123, 39.2304227], [-9.2674935, 39.2304851], [-9.2675035, 39.2305377], [-9.2675149, 39.2305786], [-9.2675418, 39.2306108], [-9.2675896, 39.2306388], [-9.2680803, 39.2308424], [-9.268341, 39.2309505], [-9.2684403, 39.2309764], [-9.2685044, 39.2309829], [-9.2685572, 39.2309754], [-9.2686066, 39.2309577], [-9.2686616, 39.2309318], [-9.2686898, 39.2309006], [-9.2687085, 39.230858], [-9.2687091, 39.2308072]]]]}, "properties": {"highway": "primary", "junction": "roundabout", "ref": "EN 361", "surface": "asphalt"}}, {"type": "Feature", "geometry": {"type": "MultiPolygon", "coordinates": [[[[-9.3047789, 39.2413151], [-9.3047747, 39.2412841], [-9.3047586, 39.2412541], [-9.3047321, 39.2412289], [-9.3046974, 39.2412108], [-9.3046573, 39.2412011], [-9.3046154, 39.2412008], [-9.3045686, 39.2412124], [-9.3045296, 39.2412354], [-9.3045028, 39.2412673], [-9.304493, 39.2412932], [-9.3044916, 39.2413202], [-9.3044985, 39.2413466], [-9.3045171, 39.2413752], [-9.3045454, 39.2413985], [-9.3045811, 39.2414146], [-9.3046212, 39.2414223], [-9.3046591, 39.2414212], [-9.3046953, 39.2414125], [-9.3047273, 39.2413968], [-9.3047543, 39.2413737], [-9.304772, 39.2413457], [-9.3047789, 39.2413151]]]]}, "properties": {"highway": "primary", "junction": "roundabout", "ref": "EN 361", "surface": "asphalt"}}, {"type": "Feature", "geometry": {"type": "MultiPolygon", "coordinates": [[[[-9.2866973, 39.2387558], [-9.286688, 39.2387146], [-9.2866554, 39.2386735], [-9.2866122, 39.2386484], [-9.2865605, 39.2386363], [-9.2865293, 39.2386358], [-9.2864771, 39.2386464], [-9.2864418, 39.2386637], [-9.2864083, 39.2386942], [-9.2863891, 39.2387333], [-9.2863884, 39.2387751], [-9.2864118, 39.2388218], [-9.2864488, 39.2388523], [-9.286497, 39.2388711], [-9.2865299, 39.2388759], [-9.2865836, 39.2388718], [-9.2866525, 39.2388405], [-9.2866832, 39.2388061], [-9.2866973, 39.2387558]]]]}, "properties": {"highway": "primary", "junction": "roundabout", "ref": "EN 361", "surface": "asphalt"}}, {"type": "Feature", "geometry": {"type": "MultiPolygon", "coordinates": [[[[-9.1587403, 39.2618514], [-9.1587239, 39.2618054], [-9.1586936, 39.261767], [-9.1586513, 39.2617362], [-9.1585999, 39.2617153], [-9.1585431, 39.2617057], [-9.1585046, 39.261706], [-9.1584668, 39.2617116], [-9.1584047, 39.2617339], [-9.1583548, 39.2617702], [-9.1583243, 39.2618123], [-9.1583175, 39.2618352], [-9.1583104, 39.2618593], [-9.1583145, 39.2619074], [-9.1583283, 39.2619404], [-9.1583507, 39.2619705], [-9.1583936, 39.2620049], [-9.1584225, 39.2620175], [-9.1584473, 39.2620284], [-9.1585075, 39.2620393], [-9.1585718, 39.2620361], [-9.158632, 39.2620183], [-9.1586828, 39.2619876], [-9.1587196, 39.2619467], [-9.1587393, 39.2618992], [-9.1587403, 39.2618514]]]]}, "properties": {"highway": "primary", "junction": "roundabout", "lanes": "2", "maxspeed": "30", "name": "Avenida Vasco Pereira da Concei\u00e7\u00e3o", "ref": "EN 361", "surface": "asphalt"}}, {"type": "Feature", "geometry": {"type": "MultiPolygon", "coordinates": [[[[-8.6466275, 39.4645273], [-8.6466263, 39.4644559], [-8.6466032, 39.4643921], [-8.6465542, 39.4643378], [-8.6464847, 39.4642989], [-8.6464125, 39.464281], [-8.6463367, 39.4642802], [-8.6462639, 39.4642966], [-8.6462004, 39.4643286], [-8.6461543, 39.4643705], [-8.6461249, 39.4644205], [-8.6461145, 39.4644749], [-8.646119, 39.4645137], [-8.6461434, 39.4645679], [-8.6461869, 39.4646145], [-8.6462458, 39.4646495], [-8.6463381, 39.4646844], [-8.6464034, 39.4646763], [-8.6464256, 39.4646701], [-8.6464915, 39.4646515], [-8.6465484, 39.4646197], [-8.646592, 39.4645773], [-8.6466275, 39.4645273]]]]}, "properties": {"highway": "primary", "junction": "roundabout", "ref": "EN 361;EN 365-4", "surface": "asphalt"}}, {"type": "Feature", "geometry": {"type": "MultiPolygon", "coordinates": [[[[-8.6579138, 39.4639066], [-8.6578908, 39.463844], [-8.6578424, 39.4637907], [-8.6577739, 39.4637527], [-8.6576931, 39.4637342], [-8.6576291, 39.4637344], [-8.6575565, 39.4637507], [-8.6574934, 39.4637829], [-8.6574454, 39.463828], [-8.6574168, 39.463882], [-8.6574103, 39.4639402], [-8.6574263, 39.4639972], [-8.6574502, 39.4640337], [-8.6574928, 39.4640725], [-8.6575469, 39.4641014], [-8.6575945, 39.4641158], [-8.6576448, 39.4641226], [-8.6576958, 39.4641213], [-8.657759, 39.4641083], [-8.6578157, 39.4640831], [-8.6578622, 39.4640476], [-8.6578953, 39.464004], [-8.6579126, 39.4639563], [-8.6579138, 39.4639066]]]]}, "properties": {"highway": "primary", "junction": "roundabout", "ref": "EN 361;EN 365-4", "surface": "asphalt"}}]}