{"type": "FeatureCollection", "features": [{"type": "Feature", "geometry": {"type": "LineString", "coordinates": [[-8.5697502, 41.9144146], [-8.5697264, 41.9143833], [-8.5695645, 41.9143018], [-8.5693918, 41.9142397], [-8.5692285, 41.914202], [-8.5686002, 41.9140625], [-8.5684715, 41.9140339], [-8.5679963, 41.9139262], [-8.5677752, 41.9138602], [-8.5675804, 41.9137798], [-8.5673564, 41.9136554], [-8.5669314, 41.913377]]}, "properties": {"highway": "primary", "lanes": "2", "lit": "yes", "name": "Avenida de Cenon", "ref": "EN 303", "sidewalk": "left", "source": "Bing", "surface": "asphalt"}}, {"type": "Feature", "geometry": {"type": "LineString", "coordinates": [[-8.557976, 41.9110213], [-8.5579652, 41.9110621], [-8.5579704, 41.9111036], [-8.5579948, 41.9111464], [-8.5580361, 41.9111812], [-8.5580903, 41.9112045], [-8.5581515, 41.9112138], [-8.5582005, 41.9112105], [-8.5582469, 41.9111982], [-8.5582876, 41.9111776], [-8.5583233, 41.9111464], [-8.5583457, 41.9111089], [-8.5583522, 41.9110861], [-8.5583517, 41.9110547], [-8.5583441, 41.9110259], [-8.5583188, 41.9109874], [-8.5582793, 41.9109561], [-8.5582293, 41.9109348], [-8.5581672, 41.9109251], [-8.5581043, 41.9109308], [-8.5580473, 41.9109513], [-8.5580021, 41.9109844], [-8.557976, 41.9110213]]}, "properties": {"highway": "primary", "junction": "roundabout", "ref": "EN 303"}}, {"type": "Feature", "geometry": {"type": "LineString", "coordinates": [[-8.5625395, 41.9090328], [-8.5624308, 41.9090242], [-8.5623253, 41.9090146], [-8.5621681, 41.9090029], [-8.5618136, 41.9090007], [-8.56125, 41.9089954], [-8.5610945, 41.9089983], [-8.5609998, 41.9090082], [-8.5608814, 41.9090354], [-8.5607705, 41.9090781], [-8.5606842, 41.9091264], [-8.5605993, 41.9091826], [-8.5605256, 41.9092442], [-8.5604706, 41.9093066], [-8.5604425, 41.9093394]]}, "properties": {"highway": "primary", "name": "Rua Doutor Afonso Viana", "oneway": "no", "ref": "EN 303", "source": "Bing", "surface": "asphalt"}}, {"type": "Feature", "geometry": {"type": "LineString", "coordinates": [[-8.6889073, 41.9277706], [-8.6887258, 41.9276863], [-8.6886213, 41.927616], [-8.6885751, 41.9275881], [-8.688501, 41.927555], [-8.688403, 41.9275286], [-8.6882927, 41.9275189], [-8.6881874, 41.9275246], [-8.6880823, 41.9275444], [-8.6879985, 41.9275799], [-8.6878651, 41.9276824], [-8.6872066, 41.9282553], [-8.6870808, 41.9283617], [-8.6868631, 41.9285528], [-8.6867408, 41.9286296], [-8.686709, 41.928647], [-8.6864515, 41.9287188], [-8.686033, 41.9287085], [-8.6857088, 41.9287003], [-8.6844988, 41.9286709], [-8.6843549, 41.928659], [-8.6843057, 41.9286549], [-8.6839743, 41.9285731], [-8.6837358, 41.9285146], [-8.6835828, 41.928471], [-8.6834904, 41.9284279], [-8.6830145, 41.9282206], [-8.6827073, 41.928116], [-8.6824215, 41.9280328], [-8.6823039, 41.9279759], [-8.682206, 41.9278974], [-8.6821421, 41.9278205], [-8.682069, 41.9277116], [-8.6819926, 41.9276011], [-8.6819046, 41.9275112], [-8.681768, 41.9274111], [-8.6813636, 41.9271994], [-8.6811362, 41.9270881], [-8.6809829, 41.9270349], [-8.6803764, 41.9268686], [-8.6783517, 41.9263242], [-8.6779653, 41.9261906], [-8.6776182, 41.926034], [-8.6773738, 41.925898], [-8.6771377, 41.9257592], [-8.6769311, 41.9255997], [-8.6765858, 41.9252904], [-8.6758288, 41.9246047], [-8.6756731, 41.924431], [-8.6754357, 41.9241612], [-8.6753795, 41.9240898], [-8.6752726, 41.9238975], [-8.6751776, 41.9235955], [-8.6751263, 41.9234376], [-8.6750589, 41.9233182], [-8.6744731, 41.9225742], [-8.6742803, 41.922417], [-8.6740707, 41.9222648], [-8.6738293, 41.922141], [-8.6736891, 41.9220924], [-8.6735554, 41.9220793], [-8.6734038, 41.9220916], [-8.6732422, 41.9221271], [-8.6731009, 41.9221417], [-8.6729893, 41.9221257], [-8.6728958, 41.9220872], [-8.6728176, 41.9220204], [-8.6727874, 41.9219516], [-8.6727765, 41.9218681], [-8.6727986, 41.9216346], [-8.6727874, 41.9214882], [-8.6727626, 41.9213628], [-8.6722576, 41.9200996], [-8.6720994, 41.9198503], [-8.6719503, 41.9196947]]}, "properties": {"highway": "primary", "ref": "EN 303", "source": "Bing", "surface": "asphalt"}}, {"type": "Feature", "geometry": {"type": "LineString", "coordinates": [[-8.5622465, 41.9083032], [-8.5624012, 41.9083547], [-8.5624488, 41.9083748], [-8.5624904, 41.9083945]]}, "properties": {"highway": "primary", "oneway": "yes", "ref": "EN 303", "source": "Bing", "surface": "asphalt"}}, {"type": "Feature", "geometry": {"type": "LineString", "coordinates": [[-8.652522, 41.9230356], [-8.6526015, 41.9230929], [-8.6526812, 41.9231452], [-8.6527661, 41.9231912], [-8.6528361, 41.9232268], [-8.6529127, 41.9232606], [-8.6529726, 41.923285], [-8.653037, 41.923309], [-8.6530924, 41.9233264], [-8.6531482, 41.9233432], [-8.6532274, 41.9233649], [-8.6532989, 41.9233823]]}, "properties": {"bridge": "viaduct", "highway": "primary", "layer": "1", "oneway": "yes", "ref": "EN 303", "source": "Bing"}}, {"type": "Feature", "geometry": {"type": "LineString", "coordinates": [[-8.6525724, 41.9229521], [-8.6525318, 41.9229173], [-8.6524701, 41.9228614], [-8.6524093, 41.9227941], [-8.6523521, 41.9227277], [-8.6523047, 41.9226604], [-8.6522582, 41.922588], [-8.6522206, 41.9225182], [-8.6521885, 41.9224463], [-8.6521536, 41.9223585], [-8.6520459, 41.9220676]]}, "properties": {"highway": "primary", "oneway": "yes", "ref": "EN 303", "source": "Bing"}}, {"type": "Feature", "geometry": {"type": "LineString", "coordinates": [[-8.5608171, 41.9112881], [-8.5607719, 41.9112748], [-8.5607031, 41.9112616], [-8.560558, 41.9112477], [-8.5603388, 41.9112441], [-8.5601258, 41.9112466], [-8.559683, 41.9112742], [-8.5590524, 41.9112953]]}, "properties": {"highway": "primary", "layer": "-1", "name": "Avenida C\u00f3nego Chouzal", "oneway": "yes", "ref": "EN 303", "tunnel": "yes"}}, {"type": "Feature", "geometry": {"type": "LineString", "coordinates": [[-8.5590524, 41.9112953], [-8.5589721, 41.9112951], [-8.5589151, 41.9112901], [-8.5588527, 41.911279], [-8.5587818, 41.9112614], [-8.5586932, 41.911234], [-8.55842, 41.9111402], [-8.5583838, 41.9111185], [-8.5583522, 41.9110861]]}, "properties": {"highway": "primary", "name": "Avenida C\u00f3nego Chouzal", "oneway": "yes", "ref": "EN 303"}}, {"type": "Feature", "geometry": {"type": "LineString", "coordinates": [[-8.565893, 41.9124301], [-8.5658359, 41.91241], [-8.5657735, 41.9124025], [-8.5657108, 41.9124083]]}, "properties": {"highway": "primary", "junction": "roundabout", "ref": "EN 303"}}, {"type": "Feature", "geometry": {"type": "LineString", "coordinates": [[-8.5703886, 41.9149816], [-8.5703239, 41.9149456], [-8.5702331, 41.9149289], [-8.5701411, 41.9149418], [-8.5700648, 41.914982], [-8.5700259, 41.9150262], [-8.570008, 41.9150772], [-8.570013, 41.9151299], [-8.5700402, 41.9151787], [-8.5700868, 41.9152184], [-8.5701554, 41.9152471], [-8.5702331, 41.9152559], [-8.5703101, 41.9152438], [-8.570374, 41.915214], [-8.5704206, 41.9151697], [-8.570446, 41.9151055], [-8.5704347, 41.9150391], [-8.5703886, 41.9149816]]}, "properties": {"highway": "primary", "junction": "roundabout", "lanes": "2", "lit": "yes", "ref": "EN 303", "sidewalk": "left", "surface": "asphalt"}}, {"type": "Feature", "geometry": {"type": "LineString", "coordinates": [[-8.573645, 41.9173755], [-8.5738104, 41.9171617]]}, "properties": {"bridge": "yes", "highway": "primary", "layer": "1", "ref": "EN 303", "source": "Bing"}}, {"type": "Feature", "geometry": {"type": "LineString", "coordinates": [[-8.5738104, 41.9171617], [-8.5738472, 41.9171069], [-8.5738577, 41.9170481], [-8.5738551, 41.9169842], [-8.5738288, 41.9169108], [-8.5737754, 41.916843], [-8.5736925, 41.916787], [-8.5735815, 41.9167501], [-8.573435, 41.9167402], [-8.5731291, 41.9167742], [-8.5730154, 41.9167763], [-8.5729119, 41.9167541], [-8.5728065, 41.9167009], [-8.57271, 41.9166291], [-8.572431, 41.9160942], [-8.5723398, 41.9159784], [-8.571445, 41.9153865], [-8.5712294, 41.9152439], [-8.5711077, 41.9151824], [-8.5709485, 41.9151341], [-8.57061, 41.9150773]]}, "properties": {"highway": "primary", "ref": "EN 303", "source": "Bing"}}, {"type": "Feature", "geometry": {"type": "LineString", "coordinates": [[-8.6889073, 41.9277706], [-8.6889928, 41.92783], [-8.6890554, 41.9278887], [-8.6890977, 41.9279356]]}, "properties": {"highway": "primary", "oneway": "yes", "ref": "EN 303", "source": "survey", "surface": "asphalt"}}, {"type": "Feature", "geometry": {"type": "LineString", "coordinates": [[-8.6891786, 41.9278355], [-8.6890783, 41.9278144], [-8.6889817, 41.9277935], [-8.6889073, 41.9277706]]}, "properties": {"destination": "Paredes de Coura", "highway": "primary", "oneway": "yes", "ref": "EN 303", "source": "survey", "surface": "asphalt"}}, {"type": "Feature", "geometry": {"type": "LineString", "coordinates": [[-8.6712943, 41.9195867], [-8.6705626, 41.9200897], [-8.6701442, 41.9202254], [-8.6699118, 41.9202077], [-8.6697257, 41.9201935], [-8.6694039, 41.9201855], [-8.6679662, 41.920385], [-8.6676551, 41.9203611], [-8.6670972, 41.9201935], [-8.6669041, 41.9201615], [-8.6657561, 41.9204888], [-8.6655196, 41.9206568], [-8.6652191, 41.9215908], [-8.6650689, 41.9217106], [-8.6648866, 41.9217345], [-8.6647471, 41.9216706], [-8.6645325, 41.9214791], [-8.6644381, 41.9214375], [-8.6642428, 41.9213513], [-8.663878, 41.9213034], [-8.6635455, 41.9214072], [-8.6633738, 41.9216307], [-8.6633631, 41.9218622], [-8.6634382, 41.9220139], [-8.663878, 41.9222773], [-8.6639531, 41.9223572], [-8.6639639, 41.9224689], [-8.6639102, 41.9225967], [-8.6635347, 41.922908], [-8.6634596, 41.9230597], [-8.6634274, 41.9232193], [-8.6634655, 41.9238072], [-8.6634681, 41.9239092], [-8.6634401, 41.9239887], [-8.6633626, 41.9241164], [-8.6632552, 41.9242329], [-8.6631005, 41.9243363], [-8.6629438, 41.9243944], [-8.6627868, 41.9244209], [-8.6609491, 41.9246881], [-8.6607372, 41.9247223], [-8.660664, 41.9247376], [-8.6605981, 41.9247514], [-8.6602712, 41.9248435], [-8.6599158, 41.9249683], [-8.6595686, 41.925036], [-8.6593562, 41.9250741], [-8.6591135, 41.9250956], [-8.6589234, 41.9250871], [-8.6587019, 41.9250511], [-8.6584682, 41.9249762], [-8.6582561, 41.9248797], [-8.6579769, 41.9246519]]}, "properties": {"highway": "primary", "ref": "EN 303", "source": "Bing", "surface": "asphalt"}}, {"type": "Feature", "geometry": {"type": "LineString", "coordinates": [[-8.6716143, 41.9195185], [-8.6716524, 41.919561], [-8.6717078, 41.9195862], [-8.6717721, 41.9195924], [-8.6718306, 41.9195799], [-8.6718782, 41.9195516], [-8.6719064, 41.9195147], [-8.6719148, 41.9194765], [-8.6719058, 41.9194384], [-8.6718805, 41.9194046], [-8.6718383, 41.9193775], [-8.6717919, 41.919364], [-8.6717421, 41.9193622], [-8.6716941, 41.9193721], [-8.6716546, 41.9193917], [-8.6716248, 41.9194192], [-8.6716044, 41.919468], [-8.6716143, 41.9195185]]}, "properties": {"highway": "primary", "junction": "roundabout", "ref": "EN 303", "source": "survey", "surface": "asphalt"}}, {"type": "Feature", "geometry": {"type": "LineString", "coordinates": [[-8.6717721, 41.9195924], [-8.6718112, 41.9196086], [-8.6719503, 41.9196947]]}, "properties": {"destination": "Vila Nova de Cerveira; Valen\u00e7a; Candemil", "highway": "primary", "oneway": "yes", "ref": "EN 303", "source": "survey", "surface": "asphalt"}}, {"type": "Feature", "geometry": {"type": "LineString", "coordinates": [[-8.6719503, 41.9196947], [-8.6718891, 41.9195875], [-8.6718782, 41.9195516]]}, "properties": {"highway": "primary", "oneway": "yes", "ref": "EN 303", "source": "survey", "surface": "asphalt"}}, {"type": "Feature", "geometry": {"type": "LineString", "coordinates": [[-8.6716248, 41.9194192], [-8.6714089, 41.9195143], [-8.6712943, 41.9195867]]}, "properties": {"highway": "primary", "oneway": "yes", "ref": "EN 303", "source": "survey", "surface": "asphalt"}}, {"type": "Feature", "geometry": {"type": "LineString", "coordinates": [[-8.6712943, 41.9195867], [-8.6714261, 41.919552], [-8.6714954, 41.9195447], [-8.6715871, 41.9195452], [-8.6716524, 41.919561]]}, "properties": {"highway": "primary", "oneway": "yes", "ref": "EN 303", "source": "survey", "surface": "asphalt"}}, {"type": "Feature", "geometry": {"type": "LineString", "coordinates": [[-8.565805, 41.9122572], [-8.5657776, 41.9122083], [-8.5657501, 41.9121747]]}, "properties": {"highway": "primary", "name": "Avenida C\u00f3nego Chouzal", "ref": "EN 303"}}, {"type": "Feature", "geometry": {"type": "LineString", "coordinates": [[-8.5669314, 41.913377], [-8.5667846, 41.9132286], [-8.56619, 41.9127747], [-8.5660461, 41.9126381], [-8.5660187, 41.9126055], [-8.565994, 41.9125655]]}, "properties": {"highway": "primary", "name": "Avenida de Cenon", "oneway": "yes", "ref": "EN 303", "source": "survey", "surface": "asphalt"}}, {"type": "Feature", "geometry": {"type": "LineString", "coordinates": [[-8.5658138, 41.9127315], [-8.5658875, 41.9127472], [-8.5659293, 41.9127648], [-8.5659724, 41.9127849], [-8.5660867, 41.9128574], [-8.5667254, 41.9132797], [-8.5669314, 41.913377]]}, "properties": {"highway": "primary", "name": "Avenida de Cenon", "oneway": "yes", "ref": "EN 303", "source": "Bing", "surface": "asphalt"}}, {"type": "Feature", "geometry": {"type": "LineString", "coordinates": [[-8.565805, 41.9122572], [-8.5657933, 41.912293], [-8.565775, 41.9123297], [-8.5657434, 41.9123785], [-8.5657108, 41.9124083]]}, "properties": {"highway": "primary", "name": "Avenida C\u00f3nego Chouzal", "oneway": "yes", "ref": "EN 303", "source": "Bing"}}, {"type": "Feature", "geometry": {"type": "LineString", "coordinates": [[-8.565893, 41.9124301], [-8.5658353, 41.9123114], [-8.565805, 41.9122572]]}, "properties": {"highway": "primary", "name": "Avenida C\u00f3nego Chouzal", "oneway": "yes", "ref": "EN 303", "source": "Bing"}}, {"type": "Feature", "geometry": {"type": "LineString", "coordinates": [[-8.431559, 41.847233], [-8.4316187, 41.847046], [-8.4317551, 41.8468771], [-8.431887, 41.8467707], [-8.4320498, 41.8466754], [-8.4321639, 41.8466393], [-8.4322752, 41.846617], [-8.4324389, 41.8465983], [-8.4325976, 41.8465696], [-8.4327094, 41.8465067], [-8.4328009, 41.8464276], [-8.4328315, 41.8463279], [-8.4328246, 41.8462464], [-8.4328223, 41.8462198], [-8.4327604, 41.8461201], [-8.4326721, 41.846036], [-8.4325391, 41.8458923], [-8.4323838, 41.8457523], [-8.432287, 41.8456905], [-8.4321746, 41.8456514], [-8.431945, 41.8456006], [-8.4316917, 41.8455625], [-8.4314209, 41.8455294], [-8.430952, 41.8454026], [-8.4304352, 41.8452517], [-8.4302841, 41.8452238], [-8.4301299, 41.8452238], [-8.4299765, 41.8452627], [-8.4296104, 41.8454085], [-8.4292125, 41.8455914], [-8.4290632, 41.8456953], [-8.4289532, 41.8457633], [-8.4287316, 41.8458671], [-8.4283256, 41.8460172], [-8.4281441, 41.846097], [-8.4280561, 41.8461527], [-8.4279679, 41.8462467], [-8.427896, 41.8463634], [-8.42774, 41.8466194], [-8.4275326, 41.8470183], [-8.4272989, 41.8474736], [-8.4271912, 41.8476145], [-8.4270647, 41.8477204], [-8.4270279, 41.8477471], [-8.4268953, 41.8478434], [-8.4267498, 41.8478982]]}, "properties": {"highway": "primary", "name": "Rua Nunes de Azevedo", "ref": "EN 303", "source": "Bing"}}, {"type": "Feature", "geometry": {"type": "LineString", "coordinates": [[-8.558952, 41.9102597], [-8.5588295, 41.9103349], [-8.5586021, 41.9104619], [-8.5584293, 41.910592], [-8.5583298, 41.9107099], [-8.558264, 41.9108268], [-8.5582538, 41.9108519], [-8.5582293, 41.9109348]]}, "properties": {"highway": "primary", "name": "Rua Doutor Afonso Viana", "ref": "EN 303", "source": "Bing"}}, {"type": "Feature", "geometry": {"type": "LineString", "coordinates": [[-8.6571398, 41.9239511], [-8.6569843, 41.9238074], [-8.6568984, 41.9237356], [-8.6568375, 41.9236882], [-8.6567785, 41.9236462], [-8.6567214, 41.9236078], [-8.6566498, 41.9235664], [-8.6565792, 41.923528], [-8.6565103, 41.9234966], [-8.656429, 41.9234621], [-8.656365, 41.9234377]]}, "properties": {"highway": "primary", "oneway": "yes", "ref": "EN 303", "source": "Bing"}}, {"type": "Feature", "geometry": {"type": "LineString", "coordinates": [[-8.5625157, 41.9083259], [-8.5624754, 41.9083277], [-8.5624231, 41.908326], [-8.5623671, 41.9083193], [-8.5622465, 41.9083032]]}, "properties": {"highway": "primary", "oneway": "yes", "ref": "EN 303", "source": "Bing", "surface": "asphalt"}}, {"type": "Feature", "geometry": {"type": "LineString", "coordinates": [[-8.5622465, 41.9083032], [-8.5612307, 41.9080602], [-8.560606, 41.9078199], [-8.560174, 41.9076896], [-8.5600013, 41.9076092], [-8.5595852, 41.9073462], [-8.5594202, 41.9072967], [-8.5592526, 41.9072945], [-8.5588819, 41.9073524], [-8.5586653, 41.9073743], [-8.558275, 41.9073762], [-8.5580299, 41.9073719], [-8.5578776, 41.9073953], [-8.5577256, 41.9074694], [-8.5576126, 41.9075543], [-8.5574603, 41.9076131], [-8.5572671, 41.9076298], [-8.5570787, 41.9076079], [-8.556909, 41.9075405], [-8.5565794, 41.9073242], [-8.5564251, 41.9072351], [-8.556215, 41.9071461], [-8.5559836, 41.9070186], [-8.5558225, 41.9069402], [-8.5553426, 41.9068334], [-8.5548257, 41.9067196], [-8.5546796, 41.9067146], [-8.5545599, 41.9067234], [-8.5541839, 41.9068257], [-8.5539213, 41.9068822], [-8.5537783, 41.9069359], [-8.5536675, 41.9070146], [-8.5535846, 41.9070443], [-8.5534678, 41.9070586], [-8.5533714, 41.9070506], [-8.553243, 41.9070075], [-8.5531502, 41.9069399], [-8.5530644, 41.9068332], [-8.5528921, 41.9065577], [-8.5528359, 41.906466], [-8.5525669, 41.9060463], [-8.5524576, 41.9057955], [-8.5524167, 41.9055991], [-8.5524274, 41.9054314], [-8.5524491, 41.9053543], [-8.5525312, 41.9052426], [-8.552658, 41.9051617], [-8.5528338, 41.9051071], [-8.5529603, 41.905055], [-8.5530555, 41.9049717], [-8.5531068, 41.9048648], [-8.553114, 41.9047447], [-8.5530787, 41.904663], [-8.5530081, 41.9045778], [-8.5528699, 41.9045099], [-8.5527063, 41.9044413], [-8.5525956, 41.9043475], [-8.5524976, 41.9042295], [-8.5524059, 41.9041059], [-8.5521699, 41.9040341], [-8.5517407, 41.904058], [-8.551376, 41.9039702], [-8.5510648, 41.9038265], [-8.5509897, 41.9036747], [-8.5507966, 41.903547], [-8.5505713, 41.9035071], [-8.5502172, 41.9034512], [-8.5501207, 41.9033633], [-8.5500241, 41.9031318], [-8.5499276, 41.9029561], [-8.5497666, 41.9028283], [-8.5492946, 41.9026367], [-8.5486723, 41.9024929], [-8.5481573, 41.9024211], [-8.5476638, 41.9023891], [-8.5472132, 41.9021815], [-8.5470522, 41.901918], [-8.5469557, 41.9014788], [-8.5470308, 41.9010236], [-8.5470429, 41.9009166], [-8.5470273, 41.900859], [-8.5469825, 41.9008039], [-8.5469372, 41.9007687], [-8.5468341, 41.900715], [-8.5467091, 41.900682], [-8.5464893, 41.9006943], [-8.5463474, 41.9007616], [-8.5455509, 41.9015785], [-8.5454158, 41.9017257], [-8.5452878, 41.9018046], [-8.5449265, 41.901943], [-8.544777, 41.9019723], [-8.5446275, 41.9019739], [-8.5445062, 41.9019703], [-8.5438524, 41.9018753], [-8.5437076, 41.9018398], [-8.5435686, 41.9017916], [-8.5429883, 41.9015343], [-8.5428812, 41.9014869], [-8.5427969, 41.9014552], [-8.5427117, 41.9014366], [-8.5425987, 41.9014161], [-8.5424284, 41.9014145], [-8.5421262, 41.9014253], [-8.5419873, 41.9014232], [-8.5418513, 41.9014105], [-8.5410593, 41.9012581], [-8.5405785, 41.9011664], [-8.5404537, 41.9011367], [-8.5403474, 41.9011006], [-8.5402845, 41.9010652], [-8.5402176, 41.9010154], [-8.5401522, 41.9009561], [-8.5396919, 41.9003454], [-8.539647, 41.900283], [-8.5394481, 41.9000188], [-8.5393526, 41.8999212], [-8.5392486, 41.899848], [-8.5391271, 41.899786], [-8.5389866, 41.8997333], [-8.5388387, 41.8996844], [-8.53869, 41.899643], [-8.5382489, 41.8995386], [-8.5379852, 41.8995042], [-8.537935, 41.8994993], [-8.5378236, 41.8994882], [-8.5374938, 41.8994443], [-8.5373874, 41.8994097], [-8.537315, 41.8993617], [-8.5372695, 41.8992595], [-8.5373069, 41.8991638], [-8.5374191, 41.8990549], [-8.5375738, 41.8988949], [-8.5375946, 41.8988495], [-8.537609, 41.8987772], [-8.537601, 41.8987138], [-8.5375454, 41.8985689], [-8.5374559, 41.8983264], [-8.5373775, 41.8981338], [-8.537343, 41.898072], [-8.5372953, 41.8980139], [-8.5372393, 41.8979674], [-8.5371757, 41.8979324], [-8.5371012, 41.8979028], [-8.5369966, 41.8978794], [-8.5368821, 41.8978633], [-8.5367376, 41.8978455], [-8.5366227, 41.897813], [-8.5365572, 41.8977829], [-8.536526, 41.8977685], [-8.5364566, 41.8977191], [-8.5362548, 41.8975307], [-8.5359001, 41.8971877], [-8.5357878, 41.897074], [-8.5357041, 41.896943], [-8.5356879, 41.8968651], [-8.5356848, 41.8967888], [-8.5357033, 41.8965644], [-8.5356798, 41.8964717], [-8.5356182, 41.8964278], [-8.5355402, 41.8964238], [-8.5353256, 41.8963973], [-8.5351432, 41.896296], [-8.5350145, 41.8961443], [-8.5349583, 41.8957043], [-8.5349566, 41.8955202], [-8.5349744, 41.8953409], [-8.5350064, 41.8951823], [-8.5350602, 41.8950285], [-8.5351359, 41.8948561], [-8.5351943, 41.8946821], [-8.5352472, 41.894267], [-8.5353126, 41.894002], [-8.5354115, 41.8937325], [-8.5353363, 41.8935488], [-8.5352722, 41.8934851], [-8.5352398, 41.8934529], [-8.5349501, 41.893397], [-8.5344995, 41.893429], [-8.5342206, 41.8933731], [-8.5338987, 41.8931575], [-8.5336734, 41.8929977], [-8.5333994, 41.8927403], [-8.5333654, 41.8926826], [-8.53336, 41.8926155], [-8.5333757, 41.8925501], [-8.5334677, 41.8924043], [-8.5335155, 41.8922942], [-8.5335283, 41.8921736], [-8.533491, 41.8919914], [-8.5332647, 41.8912813], [-8.5332088, 41.8911693], [-8.5331447, 41.8910782], [-8.5330652, 41.8910209], [-8.5329823, 41.8909723], [-8.5328304, 41.8909273], [-8.5324825, 41.8908733], [-8.5323615, 41.8908656], [-8.532252, 41.8908747], [-8.5321378, 41.8909117], [-8.5320445, 41.8909761], [-8.5317109, 41.8912952], [-8.5316161, 41.8913788], [-8.5315096, 41.891445], [-8.5313083, 41.8915306], [-8.5311751, 41.89159], [-8.5310511, 41.8916617], [-8.5304267, 41.8920575], [-8.530307, 41.8921196], [-8.5301802, 41.8921738], [-8.5294038, 41.8924562], [-8.5293149, 41.8925169], [-8.5292586, 41.8925801], [-8.5292311, 41.8926659], [-8.5292362, 41.8927651], [-8.5292775, 41.8928433], [-8.5293667, 41.8929058], [-8.5296393, 41.8930536], [-8.5297206, 41.893131], [-8.5297701, 41.8932071], [-8.5299626, 41.8935922], [-8.5299958, 41.8937211], [-8.5299827, 41.8938603], [-8.5298778, 41.8940069], [-8.5297359, 41.8941557], [-8.5292531, 41.894603], [-8.529171, 41.894657], [-8.5290766, 41.8947045], [-8.5288919, 41.8947536], [-8.5287834, 41.8947594], [-8.5286713, 41.894756], [-8.528561, 41.8947346], [-8.5283428, 41.8946466], [-8.527957, 41.8944608], [-8.5277747, 41.8943534], [-8.5276929, 41.8942901], [-8.5276031, 41.8941888], [-8.5274292, 41.894004], [-8.5272664, 41.8938871], [-8.5270696, 41.8938129], [-8.526684, 41.8937061], [-8.525673, 41.8934398], [-8.5253564, 41.8934082]]}, "properties": {"highway": "primary", "ref": "EN 303", "source": "Bing", "surface": "asphalt"}}, {"type": "Feature", "geometry": {"type": "LineString", "coordinates": [[-8.5623031, 41.9119723], [-8.5622411, 41.9119392], [-8.5621415, 41.9118962], [-8.5620412, 41.9118512], [-8.5619887, 41.9118266], [-8.5609864, 41.9113558], [-8.5608171, 41.9112881]]}, "properties": {"highway": "primary", "name": "Avenida C\u00f3nego Chouzal", "oneway": "yes", "ref": "EN 303"}}, {"type": "Feature", "geometry": {"type": "LineString", "coordinates": [[-8.5607785, 41.9113542], [-8.5609533, 41.9114159], [-8.561951, 41.9118745], [-8.5620134, 41.9119032], [-8.5621105, 41.9119327], [-8.5621843, 41.9119527], [-8.5622477, 41.9119678], [-8.5623031, 41.9119723]]}, "properties": {"highway": "primary", "name": "Avenida C\u00f3nego Chouzal", "oneway": "yes", "ref": "EN 303"}}, {"type": "Feature", "geometry": {"type": "LineString", "coordinates": [[-8.559061, 41.9113379], [-8.5596907, 41.9113292], [-8.5600088, 41.9113149], [-8.5601373, 41.9113101], [-8.5603187, 41.9113049], [-8.5605165, 41.9113106], [-8.5606267, 41.9113215], [-8.5607065, 41.9113335], [-8.5607785, 41.9113542]]}, "properties": {"highway": "primary", "layer": "-1", "name": "Avenida C\u00f3nego Chouzal", "oneway": "yes", "ref": "EN 303", "tunnel": "yes"}}, {"type": "Feature", "geometry": {"type": "LineString", "coordinates": [[-8.5582876, 41.9111776], [-8.5583367, 41.9111792], [-8.5583912, 41.9111887], [-8.5586683, 41.9112775], [-8.5587565, 41.9113039], [-8.5588603, 41.9113258], [-8.5589274, 41.9113349], [-8.5589956, 41.9113383], [-8.559061, 41.9113379]]}, "properties": {"highway": "primary", "name": "Avenida C\u00f3nego Chouzal", "oneway": "yes", "ref": "EN 303"}}, {"type": "Feature", "geometry": {"type": "LineString", "coordinates": [[-8.5248681, 41.8934914], [-8.5248633, 41.8935121], [-8.5248671, 41.8935329], [-8.5248793, 41.8935519], [-8.5248978, 41.8935667], [-8.5249212, 41.8935769], [-8.5249477, 41.8935815], [-8.5249748, 41.8935802], [-8.5250039, 41.8935714], [-8.5250274, 41.8935559], [-8.5250424, 41.8935353], [-8.5250473, 41.8935122], [-8.5250415, 41.8934893], [-8.5250258, 41.8934692], [-8.5250019, 41.8934542], [-8.5249777, 41.8934468], [-8.5249518, 41.8934448], [-8.5249262, 41.8934483], [-8.5249011, 41.8934579], [-8.5248811, 41.8934727], [-8.5248681, 41.8934914]]}, "properties": {"highway": "primary", "junction": "roundabout", "ref": "EN 303", "source": "Bing"}}, {"type": "Feature", "geometry": {"type": "LineString", "coordinates": [[-8.5253564, 41.8934082], [-8.5252385, 41.8934052], [-8.5251129, 41.8934303], [-8.5250019, 41.8934542]]}, "properties": {"highway": "primary", "oneway": "yes", "ref": "EN 303", "source": "Bing"}}, {"type": "Feature", "geometry": {"type": "LineString", "coordinates": [[-8.5250473, 41.8935122], [-8.5251352, 41.8934712], [-8.5252496, 41.8934307], [-8.5253564, 41.8934082]]}, "properties": {"highway": "primary", "oneway": "yes", "ref": "EN 303", "source": "Bing"}}, {"type": "Feature", "geometry": {"type": "LineString", "coordinates": [[-8.5248793, 41.8935519], [-8.5246548, 41.8936808], [-8.5244975, 41.8937327], [-8.5243586, 41.8937319], [-8.5242805, 41.8937092], [-8.5242208, 41.8936918], [-8.5239852, 41.8935488], [-8.5234957, 41.8932196], [-8.5233188, 41.8931297], [-8.5231269, 41.8931015], [-8.5229298, 41.8931028], [-8.5226422, 41.8931508], [-8.521964, 41.8932578], [-8.5216945, 41.8933327], [-8.5213898, 41.8934719], [-8.5211099, 41.8936275], [-8.5210538, 41.8936958], [-8.5210186, 41.8938055], [-8.5210226, 41.8939247], [-8.5210752, 41.8940513], [-8.5211671, 41.8942127]]}, "properties": {"highway": "primary", "ref": "EN 303", "source": "Bing"}}, {"type": "Feature", "geometry": {"type": "LineString", "coordinates": [[-8.5211268, 41.8945019], [-8.5211391, 41.8945192], [-8.5211581, 41.8945329], [-8.5211818, 41.8945414], [-8.5212036, 41.894544], [-8.5212255, 41.8945423], [-8.5212461, 41.8945364], [-8.5212663, 41.8945248], [-8.5212808, 41.8945093], [-8.5212885, 41.8944912], [-8.5212884, 41.8944723], [-8.521282, 41.8944561], [-8.5212699, 41.8944418], [-8.521253, 41.8944305], [-8.5212322, 41.8944228], [-8.5212093, 41.8944197], [-8.5211862, 41.8944214], [-8.5211646, 41.8944278], [-8.5211469, 41.8944377], [-8.5211334, 41.8944509], [-8.521125, 41.8944661], [-8.5211223, 41.8944825], [-8.5211268, 41.8945019]]}, "properties": {"highway": "primary", "junction": "roundabout", "ref": "EN 303", "source": "Bing"}}, {"type": "Feature", "geometry": {"type": "LineString", "coordinates": [[-8.5211671, 41.8942127], [-8.5211803, 41.8943248], [-8.5211646, 41.8944278]]}, "properties": {"highway": "primary", "oneway": "yes", "ref": "EN 303", "source": "Bing"}}, {"type": "Feature", "geometry": {"type": "LineString", "coordinates": [[-8.521253, 41.8944305], [-8.5212359, 41.894329], [-8.5211671, 41.8942127]]}, "properties": {"highway": "primary", "oneway": "yes", "ref": "EN 303", "source": "Bing"}}, {"type": "Feature", "geometry": {"type": "LineString", "coordinates": [[-8.5207315, 41.8946095], [-8.5208764, 41.8946244], [-8.5210342, 41.8945959], [-8.5211336, 41.8945515], [-8.5211818, 41.8945414]]}, "properties": {"highway": "primary", "oneway": "yes", "ref": "EN 303", "source": "Bing"}}, {"type": "Feature", "geometry": {"type": "LineString", "coordinates": [[-8.5211223, 41.8944825], [-8.5210988, 41.8945086], [-8.5210079, 41.8945657], [-8.5208821, 41.8945942], [-8.5207315, 41.8946095]]}, "properties": {"highway": "primary", "oneway": "yes", "ref": "EN 303", "source": "Bing"}}, {"type": "Feature", "geometry": {"type": "LineString", "coordinates": [[-8.5703239, 41.9149456], [-8.5702558, 41.9148866], [-8.5701532, 41.9147852], [-8.5700171, 41.9146169], [-8.5699145, 41.9145068], [-8.5697502, 41.9144146]]}, "properties": {"highway": "primary", "lanes": "1", "name": "Avenida de Cenon", "oneway": "yes", "ref": "EN 303", "source": "Bing", "surface": "asphalt"}}, {"type": "Feature", "geometry": {"type": "LineString", "coordinates": [[-8.5704206, 41.9151697], [-8.5705008, 41.9151168], [-8.57061, 41.9150773]]}, "properties": {"destination": "Valen\u00e7a; Vila Nova de Cerveira", "highway": "primary", "oneway": "yes", "ref": "EN 303", "source": "Bing", "surface": "asphalt"}}, {"type": "Feature", "geometry": {"type": "LineString", "coordinates": [[-8.5697502, 41.9144146], [-8.5698597, 41.9145648], [-8.5699425, 41.9146564], [-8.56999, 41.9147316], [-8.5700357, 41.9148274], [-8.570067, 41.9149458], [-8.5700648, 41.914982]]}, "properties": {"highway": "primary", "lanes": "1", "name": "Avenida de Cenon", "oneway": "yes", "ref": "EN 303", "source": "Bing", "surface": "asphalt"}}, {"type": "Feature", "geometry": {"type": "LineString", "coordinates": [[-8.57061, 41.9150773], [-8.5704649, 41.9150133], [-8.5703886, 41.9149816]]}, "properties": {"highway": "primary", "oneway": "yes", "ref": "EN 303", "source": "Bing", "surface": "asphalt"}}, {"type": "Feature", "geometry": {"type": "LineString", "coordinates": [[-8.4640282, 41.8542038], [-8.4637745, 41.8540941], [-8.4634853, 41.8539339], [-8.4631849, 41.8537801], [-8.4629811, 41.8536363], [-8.4626914, 41.8533406], [-8.4625071, 41.8531694], [-8.4623671, 41.8531032], [-8.4622061, 41.8530782], [-8.4620352, 41.8530721], [-8.4618715, 41.8531135], [-8.4617109, 41.8532162], [-8.4616002, 41.8533419], [-8.4615687, 41.8534564], [-8.4615844, 41.853577], [-8.4616806, 41.853885], [-8.4617346, 41.8540579], [-8.4618107, 41.8542261], [-8.4618287, 41.8543433], [-8.461805, 41.8544691], [-8.4617612, 41.8545801], [-8.4616685, 41.8547036], [-8.4615408, 41.8547992], [-8.4608489, 41.8552337], [-8.4607521, 41.8552945], [-8.460591, 41.8553957], [-8.4603826, 41.8554918], [-8.4601783, 41.8555545], [-8.4599748, 41.8556034], [-8.459777, 41.8556236], [-8.4595898, 41.8556232], [-8.4593983, 41.8555814], [-8.4592321, 41.8555184], [-8.4590488, 41.8554489], [-8.4588653, 41.8554269], [-8.4586669, 41.8554483], [-8.458247, 41.8555159], [-8.4582085, 41.8555235], [-8.458027, 41.8555596], [-8.45781, 41.85558], [-8.4575433, 41.855578], [-8.4573611, 41.8555851], [-8.4572114, 41.855643], [-8.4571017, 41.855722], [-8.4568321, 41.855934], [-8.4566842, 41.8560569], [-8.456533, 41.8561535], [-8.456357, 41.8562591], [-8.4561348, 41.8563453], [-8.4560378, 41.856357], [-8.4559376, 41.8563563], [-8.455787, 41.856329], [-8.4555836, 41.8563003], [-8.4554222, 41.856318], [-8.4552778, 41.8563693], [-8.4550203, 41.856585], [-8.4547735, 41.8567038], [-8.454457, 41.8568247], [-8.454344, 41.8568534], [-8.4542451, 41.8568437], [-8.454124, 41.8567865], [-8.4540467, 41.8566979], [-8.4538535, 41.8563883], [-8.4537512, 41.8562701], [-8.4535893, 41.8562493], [-8.4533224, 41.8563253], [-8.4531831, 41.8563575], [-8.4530087, 41.8563573], [-8.4527379, 41.8563195], [-8.4524936, 41.8563153], [-8.452349, 41.8563575], [-8.4522201, 41.8564212], [-8.4519626, 41.856593], [-8.4516514, 41.8567129], [-8.4509272, 41.8567788], [-8.4507495, 41.8568496], [-8.4501387, 41.8571923], [-8.4499348, 41.8572243], [-8.4497202, 41.8571763], [-8.4495593, 41.8570485], [-8.4493233, 41.8567688], [-8.4491462, 41.8566509], [-8.4488432, 41.8565471], [-8.4486554, 41.8564332], [-8.448583, 41.8563133], [-8.4485294, 41.8560916], [-8.4484462, 41.8559557], [-8.448296, 41.8559098], [-8.4481002, 41.8559377], [-8.4479956, 41.8559977], [-8.447832, 41.8561407], [-8.4477354, 41.8563133], [-8.4475772, 41.856581], [-8.4474109, 41.8567108], [-8.447199, 41.8567288], [-8.4470488, 41.856722], [-8.446845, 41.8566721], [-8.4465123, 41.856553], [-8.446169, 41.8564451], [-8.445853, 41.8563985]]}, "properties": {"highway": "primary", "name": "Rua Nunes de Azevedo", "ref": "EN 303", "source": "Bing"}}, {"type": "Feature", "geometry": {"type": "LineString", "coordinates": [[-8.4783575, 41.8616269], [-8.4781946, 41.8615572], [-8.4779827, 41.8614514], [-8.4778442, 41.8613362], [-8.4777547, 41.8612196], [-8.4777208, 41.8611104], [-8.4777145, 41.8610219], [-8.4777128, 41.8609306], [-8.477744, 41.8608381], [-8.4778389, 41.860641], [-8.4782197, 41.8599478], [-8.4784741, 41.8595]]}, "properties": {"highway": "primary", "name": "Rua Nunes de Azevedo", "ref": "EN 303", "source": "Bing"}}, {"type": "Feature", "geometry": {"type": "LineString", "coordinates": [[-8.4332079, 41.8507941], [-8.4331842, 41.850711], [-8.4331291, 41.85063], [-8.4330243, 41.8504673], [-8.4330091, 41.8503517], [-8.4329769, 41.8502346], [-8.4329187, 41.850153], [-8.4328128, 41.8500734], [-8.4326828, 41.8499841], [-8.4325982, 41.8499071], [-8.4325648, 41.8498083], [-8.4325219, 41.8495925], [-8.4324728, 41.8493739], [-8.4324203, 41.8492549], [-8.4323144, 41.8491585], [-8.4320728, 41.8490792], [-8.4318138, 41.8490091], [-8.4315843, 41.8489179], [-8.4314432, 41.8488518]]}, "properties": {"highway": "primary", "name": "Rua Nunes de Azevedo", "ref": "EN 303", "source": "Bing"}}, {"type": "Feature", "geometry": {"type": "LineString", "coordinates": [[-8.4732337, 41.8780274], [-8.4731965, 41.8778006], [-8.4732229, 41.8776111], [-8.473316, 41.877414], [-8.4734807, 41.8772011], [-8.4752012, 41.8757206], [-8.47533, 41.8755369], [-8.4753503, 41.8754499], [-8.4753425, 41.8752934], [-8.4752549, 41.8751455]]}, "properties": {"highway": "primary", "name": "Rua Nunes de Azevedo", "ref": "EN 303", "source": "Bing"}}, {"type": "Feature", "geometry": {"type": "LineString", "coordinates": [[-8.5207315, 41.8946095], [-8.5197978, 41.8945732], [-8.5197805, 41.8945718], [-8.5195915, 41.8945564], [-8.5192988, 41.8945093], [-8.5186589, 41.8943258], [-8.5184886, 41.8942909], [-8.5170768, 41.8939733], [-8.5167647, 41.8939002], [-8.5163678, 41.8937884], [-8.5160352, 41.8936446], [-8.5158426, 41.8935365], [-8.5126341, 41.8917358], [-8.5124517, 41.8915522], [-8.5122157, 41.8912966], [-8.5120333, 41.8911209], [-8.5117973, 41.891033], [-8.5114218, 41.8909851], [-8.5111106, 41.891033], [-8.5106278, 41.8911608], [-8.5101558, 41.8913924], [-8.5100056, 41.891624], [-8.5099519, 41.8918636], [-8.5099519, 41.8921272], [-8.5100914, 41.8927741], [-8.5100485, 41.8931974], [-8.5098983, 41.8935807], [-8.5093722, 41.8947321], [-8.5092375, 41.8950091], [-8.5089649, 41.8954096], [-8.5086752, 41.8956891], [-8.508246, 41.8961922], [-8.5079885, 41.8965835], [-8.5078813, 41.8969269], [-8.5077004, 41.8976699], [-8.507576, 41.8981806]]}, "properties": {"highway": "primary", "name": "Rua Nunes de Azevedo", "ref": "EN 303", "source": "Bing"}}, {"type": "Feature", "geometry": {"type": "LineString", "coordinates": [[-8.4851576, 41.8578196], [-8.4849844, 41.8577907], [-8.4847874, 41.8577836], [-8.4845514, 41.8578675], [-8.4839747, 41.8581672], [-8.4837172, 41.8581951], [-8.4836031, 41.8581862], [-8.4835053, 41.8581592], [-8.4833551, 41.8580553], [-8.4832786, 41.8579964], [-8.4832157, 41.8579035], [-8.4831981, 41.8578286], [-8.4831808, 41.8577037], [-8.4831701, 41.8570425], [-8.4831525, 41.8569596], [-8.4831245, 41.8569046], [-8.4830854, 41.8568357], [-8.4830076, 41.8567538], [-8.4828589, 41.8566549], [-8.4820811, 41.8563173], [-8.4818892, 41.8562604], [-8.4816143, 41.8562374], [-8.4801338, 41.8562254], [-8.4800232, 41.8562173], [-8.4799553, 41.8562124], [-8.479812, 41.8561974], [-8.4796898, 41.8561565], [-8.4795705, 41.8560956], [-8.4794913, 41.8560187], [-8.4794284, 41.8559138], [-8.4793464, 41.8556491], [-8.479297, 41.8553704], [-8.4792579, 41.8552715], [-8.4791789, 41.8551706], [-8.4790487, 41.8550937]]}, "properties": {"highway": "primary", "name": "Rua Nunes de Azevedo", "ref": "EN 303", "source": "Bing"}}, {"type": "Feature", "geometry": {"type": "LineString", "coordinates": [[-8.4784741, 41.8595], [-8.478655, 41.8591807], [-8.4787857, 41.859066], [-8.4789175, 41.8590122], [-8.4790144, 41.8589816], [-8.4791287, 41.8589634], [-8.4792889, 41.8589651], [-8.4794259, 41.8589902], [-8.4795786, 41.8590542], [-8.4796923, 41.8591348], [-8.4797717, 41.8592659], [-8.4798076, 41.8593825], [-8.4798146, 41.8595017], [-8.4799648, 41.8598772], [-8.4800908, 41.8600605], [-8.4802813, 41.8602343], [-8.4806568, 41.8605724], [-8.480826, 41.8606676], [-8.4809814, 41.8607082], [-8.4811907, 41.8607076], [-8.4813516, 41.8606583], [-8.4816117, 41.8605445], [-8.4822043, 41.86023], [-8.4832264, 41.8596875], [-8.4833606, 41.8596388], [-8.4834946, 41.8596215], [-8.4839318, 41.8596415], [-8.4841063, 41.8596189], [-8.4842296, 41.8595836], [-8.4843638, 41.859515], [-8.4844709, 41.8594297], [-8.4846104, 41.8591341], [-8.4846855, 41.8590142], [-8.4848357, 41.8588704], [-8.485112, 41.8586966], [-8.4853078, 41.8585428], [-8.4854206, 41.8584322], [-8.4854758, 41.8582936]]}, "properties": {"highway": "primary", "name": "Rua Nunes de Azevedo", "ref": "EN 303", "source": "Bing"}}, {"type": "Feature", "geometry": {"type": "LineString", "coordinates": [[-8.4267498, 41.8478982], [-8.4265767, 41.8479169], [-8.4264425, 41.8479028], [-8.4263187, 41.8478745], [-8.4261882, 41.8477896], [-8.4260241, 41.8476546], [-8.4258958, 41.8476075], [-8.4257477, 41.8475981], [-8.4255847, 41.8476527], [-8.4254792, 41.8477271], [-8.4253704, 41.8478335], [-8.4252446, 41.8479052], [-8.4250821, 41.8479211], [-8.4249878, 41.8479169], [-8.4248735, 41.8478816], [-8.4247518, 41.8478197], [-8.4246459, 41.8477233], [-8.4245857, 41.8476278], [-8.4245018, 41.8475043], [-8.4244173, 41.8474041], [-8.4242799, 41.8473037], [-8.4241509, 41.847243], [-8.4235754, 41.8470076], [-8.4233821, 41.846968], [-8.4231859, 41.8469672], [-8.4229276, 41.8469802], [-8.4227978, 41.8469739], [-8.4226465, 41.8469365], [-8.4219944, 41.8466878], [-8.4215642, 41.8465214], [-8.4213455, 41.8464364]]}, "properties": {"highway": "primary", "name": "Rua Nunes de Azevedo", "ref": "EN 303", "source": "Bing"}}, {"type": "Feature", "geometry": {"type": "LineString", "coordinates": [[-8.4703516, 41.8585241], [-8.4699799, 41.8581555], [-8.4696734, 41.8578236], [-8.4695371, 41.8575759], [-8.469316, 41.8568615], [-8.4690965, 41.8561455], [-8.4690543, 41.8560253], [-8.4689785, 41.8559143], [-8.4688665, 41.8558247], [-8.4687558, 41.8557704], [-8.4686067, 41.8557357], [-8.4684427, 41.8557149], [-8.4682198, 41.8557102], [-8.468074, 41.8556975], [-8.4679125, 41.8556388], [-8.4678139, 41.8555746], [-8.467734, 41.8554822], [-8.4675408, 41.8552265], [-8.4674441, 41.8551508], [-8.4673207, 41.8550968], [-8.4671103, 41.8550675], [-8.4669186, 41.8550587], [-8.466615, 41.8550527], [-8.4665146, 41.8550469], [-8.4664029, 41.8550209], [-8.4662963, 41.8549708], [-8.4661753, 41.8549093], [-8.466057, 41.8548077], [-8.4660008, 41.8546451], [-8.465963, 41.8544781], [-8.4659287, 41.8543668], [-8.4658564, 41.8542676], [-8.4657732, 41.8541874], [-8.4656331, 41.8541166], [-8.465538, 41.8540927], [-8.4654147, 41.8540871], [-8.4651912, 41.8541237], [-8.4648548, 41.854237], [-8.4646675, 41.8542792], [-8.4644911, 41.8542875], [-8.4642734, 41.8542719], [-8.4640834, 41.8542276], [-8.4640282, 41.8542038]]}, "properties": {"highway": "primary", "name": "Rua Nunes de Azevedo", "ref": "EN 303", "source": "Bing"}}, {"type": "Feature", "geometry": {"type": "LineString", "coordinates": [[-8.4833056, 41.8908593], [-8.4828593, 41.8907371], [-8.4821266, 41.8905357], [-8.4818518, 41.8904393], [-8.4816131, 41.8903274], [-8.4815098, 41.8902663], [-8.4814195, 41.8902016], [-8.4812201, 41.8900586], [-8.481112, 41.8899353], [-8.4810277, 41.8898031], [-8.4808124, 41.8893797], [-8.480557, 41.8886191], [-8.4800077, 41.8869836], [-8.4797717, 41.8866242], [-8.4793553, 41.8861198], [-8.4784667, 41.8850588], [-8.4783825, 41.8849569], [-8.4782257, 41.8848276], [-8.4780075, 41.8846894], [-8.4777665, 41.8845754], [-8.4774733, 41.8844907], [-8.4772245, 41.8844667], [-8.4769715, 41.8844676], [-8.4761561, 41.8845794], [-8.4758962, 41.884595], [-8.4756388, 41.8845793], [-8.4752227, 41.8844995], [-8.4748603, 41.8843503], [-8.4746493, 41.8842146], [-8.4744778, 41.8840682], [-8.4742142, 41.8837168], [-8.4741283, 41.8835331], [-8.4736885, 41.882271], [-8.4736777, 41.8820553], [-8.4737099, 41.8817997], [-8.4738601, 41.8815201], [-8.4743536, 41.8805136], [-8.4743644, 41.8803299], [-8.4743536, 41.8801142], [-8.4742034, 41.8799145], [-8.4739567, 41.8797468], [-8.4737743, 41.879627], [-8.4736563, 41.8794752], [-8.4732337, 41.8780274]]}, "properties": {"highway": "primary", "name": "Rua Nunes de Azevedo", "ref": "EN 303", "source": "Bing"}}, {"type": "Feature", "geometry": {"type": "LineString", "coordinates": [[-8.4359662, 41.8518732], [-8.4359471, 41.8519917], [-8.4359391, 41.8520573], [-8.4359217, 41.852122], [-8.4358849, 41.8521811], [-8.435867, 41.8522098], [-8.4357899, 41.8522706], [-8.4357096, 41.8523271], [-8.4356244, 41.8524059], [-8.4355579, 41.8525206], [-8.4355904, 41.8526213], [-8.4356976, 41.8527092], [-8.4359797, 41.8528563], [-8.4360681, 41.852936], [-8.4361356, 41.8530439], [-8.4361686, 41.8532623], [-8.4361659, 41.8534882], [-8.4361477, 41.8535731], [-8.4360892, 41.8536642], [-8.4359766, 41.8537153], [-8.4358613, 41.8537321], [-8.435754, 41.8537233], [-8.4356521, 41.8536922], [-8.4354536, 41.8535543], [-8.4352873, 41.8534205], [-8.4350673, 41.8533078], [-8.4346811, 41.8531128], [-8.4344531, 41.852949], [-8.4342814, 41.852791], [-8.4341151, 41.8526353], [-8.4339649, 41.8524416], [-8.4338657, 41.8522895], [-8.4338267, 41.8522457], [-8.4337343, 41.8521418], [-8.4334276, 41.8519533], [-8.4332886, 41.8518779], [-8.4331739, 41.8517954], [-8.4331008, 41.8516971], [-8.4330476, 41.8515904], [-8.4330117, 41.8514569], [-8.4330061, 41.8513187], [-8.4330173, 41.8512139], [-8.4330583, 41.851109], [-8.4331864, 41.8509083], [-8.4332079, 41.8507941]]}, "properties": {"highway": "primary", "name": "Rua Nunes de Azevedo", "ref": "EN 303", "source": "Bing"}}, {"type": "Feature", "geometry": {"type": "LineString", "coordinates": [[-8.507576, 41.8981806], [-8.5074937, 41.8983684], [-8.5073649, 41.8985581], [-8.507141, 41.8987477], [-8.5069896, 41.8988303], [-8.5067494, 41.8989284], [-8.5063792, 41.8989963], [-8.505997, 41.8989833], [-8.5028046, 41.8984489], [-8.5023957, 41.8983763], [-8.497592, 41.8975488], [-8.4970406, 41.8974827], [-8.4966215, 41.8974367], [-8.496582, 41.8974323], [-8.4954102, 41.8973221], [-8.4937574, 41.897145]]}, "properties": {"highway": "primary", "name": "Rua Nunes de Azevedo", "ref": "EN 303", "source": "Bing"}}, {"type": "Feature", "geometry": {"type": "LineString", "coordinates": [[-8.4854758, 41.8582936], [-8.4854795, 41.8580973], [-8.4854243, 41.8579964], [-8.4853319, 41.8578955], [-8.4851576, 41.8578196]]}, "properties": {"bridge": "yes", "highway": "primary", "layer": "1", "name": "Rua Nunes de Azevedo", "ref": "EN 303", "source": "Bing"}}, {"type": "Feature", "geometry": {"type": "LineString", "coordinates": [[-8.4687609, 41.8724732], [-8.4689222, 41.8722485], [-8.4707454, 41.8707538], [-8.4712447, 41.8703444], [-8.4718444, 41.8698527], [-8.4720389, 41.8697599], [-8.4723474, 41.8697079], [-8.4726263, 41.8697289], [-8.4730796, 41.8698867], [-8.4732808, 41.8699206], [-8.473549, 41.8698567], [-8.4741793, 41.8694273], [-8.4743536, 41.8693554], [-8.4745226, 41.8693104], [-8.4747681, 41.8693204], [-8.4758074, 41.8696281], [-8.4762352, 41.869684], [-8.4765745, 41.869673], [-8.4769352, 41.869602], [-8.4772076, 41.8693973], [-8.4773255, 41.8692016], [-8.4773041, 41.868874], [-8.4772826, 41.8684745], [-8.4773363, 41.8682428], [-8.477583, 41.8680191], [-8.4778596, 41.8678263], [-8.4779758, 41.8677498], [-8.4780873, 41.8676356], [-8.4781492, 41.8674566], [-8.4781297, 41.8673291], [-8.4780883, 41.8672426], [-8.4779963, 41.8671452], [-8.4779156, 41.8670923], [-8.4775687, 41.8669456], [-8.4773271, 41.8668475], [-8.4771447, 41.8667095], [-8.4770523, 41.8666259], [-8.47695, 41.8664851], [-8.4767918, 41.8659038], [-8.4768248, 41.8656606], [-8.4768984, 41.8654668], [-8.477056, 41.8652449], [-8.4772826, 41.8650949], [-8.4774503, 41.865014], [-8.4787666, 41.8646843], [-8.4794284, 41.8645116], [-8.4796188, 41.8643907], [-8.4797301, 41.864225], [-8.4797449, 41.8640631], [-8.4796872, 41.8639193], [-8.4791897, 41.863389], [-8.4791387, 41.8632542], [-8.4791423, 41.8631394], [-8.4792138, 41.8629645], [-8.4793542, 41.8628548]]}, "properties": {"highway": "primary", "name": "Rua Nunes de Azevedo", "ref": "EN 303", "source": "Bing"}}, {"type": "Feature", "geometry": {"type": "LineString", "coordinates": [[-8.4790487, 41.8550937], [-8.478841, 41.8550587], [-8.4786598, 41.8550757], [-8.4785164, 41.8551466], [-8.4784291, 41.8552056], [-8.478377, 41.8553064], [-8.478334, 41.8555781], [-8.4782586, 41.855819], [-8.4781334, 41.8560648], [-8.4778829, 41.8565488], [-8.4777825, 41.8566398], [-8.4776626, 41.8567062], [-8.4775454, 41.8567499], [-8.4773987, 41.8567631], [-8.4772477, 41.8567485], [-8.4771419, 41.8567082], [-8.4769992, 41.8566299], [-8.4768933, 41.8565352], [-8.4767375, 41.8564039], [-8.4766256, 41.8563417], [-8.4765032, 41.8562996], [-8.4763392, 41.8562866], [-8.476199, 41.8563133], [-8.476085, 41.8563601], [-8.4759832, 41.8564341], [-8.4759219, 41.856514], [-8.4758772, 41.856601], [-8.475874, 41.8567523], [-8.4759011, 41.8568799], [-8.4759245, 41.8570818], [-8.4759049, 41.8572218], [-8.4758657, 41.8573315], [-8.4757038, 41.8575523], [-8.4755331, 41.8577724], [-8.4754231, 41.8578772], [-8.4752896, 41.8579758], [-8.4750704, 41.8580142], [-8.474938, 41.8580186], [-8.4748102, 41.8579944], [-8.4747878, 41.8579902], [-8.4745757, 41.8579057], [-8.474215, 41.8577416], [-8.4739543, 41.8576624], [-8.4737332, 41.8576568], [-8.4735585, 41.8576935], [-8.4733249, 41.8578057], [-8.4730169, 41.8579984], [-8.4729101, 41.8580524], [-8.4727582, 41.8580995], [-8.4726142, 41.8581145], [-8.4724758, 41.858123], [-8.4722293, 41.8581432], [-8.4720623, 41.8582007], [-8.4719075, 41.8582711], [-8.4712434, 41.8587003], [-8.471075, 41.8587566], [-8.4708882, 41.8587745], [-8.4707688, 41.8587629], [-8.4706396, 41.858728], [-8.4704919, 41.8586513], [-8.4703947, 41.8585668], [-8.4703516, 41.8585241]]}, "properties": {"highway": "primary", "name": "Rua Nunes de Azevedo", "ref": "EN 303", "source": "Bing"}}, {"type": "Feature", "geometry": {"type": "LineString", "coordinates": [[-8.4454251, 41.856359], [-8.4453509, 41.8562774], [-8.4453053, 41.8561504], [-8.4453321, 41.8558578], [-8.4452892, 41.85569], [-8.4450425, 41.8551306], [-8.4449969, 41.8550479], [-8.4449003, 41.8549788], [-8.4442807, 41.854777], [-8.4437228, 41.8544993], [-8.4434385, 41.8542216], [-8.4432529, 41.8540336], [-8.4431152, 41.8538496], [-8.4430332, 41.8536664], [-8.4429946, 41.8534431], [-8.4429732, 41.8533194], [-8.4429128, 41.8532361], [-8.4428254, 41.853168], [-8.4423552, 41.8529099], [-8.4422329, 41.8527902], [-8.4421889, 41.8527115], [-8.4421654, 41.8526111], [-8.4421457, 41.8524291], [-8.4421472, 41.8523089], [-8.4421242, 41.8522017], [-8.4420525, 41.8520579], [-8.4419311, 41.8519021], [-8.4417916, 41.8517922], [-8.4416904, 41.8517482], [-8.4415804, 41.8517123], [-8.4415402, 41.8517103], [-8.4413839, 41.8517023], [-8.4410245, 41.8516983], [-8.4408965, 41.8516843], [-8.4407831, 41.8516483], [-8.4405954, 41.8515645], [-8.440472, 41.8514406], [-8.4404137, 41.8512687], [-8.4403594, 41.8511109], [-8.4402762, 41.8509671], [-8.4402393, 41.8509261], [-8.4401769, 41.8508832], [-8.4400838, 41.8508552], [-8.4399919, 41.8508372], [-8.439467, 41.8508044], [-8.4392524, 41.8507884], [-8.439029, 41.8508032], [-8.4387795, 41.8508732], [-8.4384746, 41.8509922], [-8.4382672, 41.851047], [-8.438058, 41.8510629], [-8.4379354, 41.8510601], [-8.4378166, 41.851033], [-8.4375296, 41.8509191], [-8.4373258, 41.8508811], [-8.437171, 41.8508943], [-8.4370361, 41.8509312], [-8.4366311, 41.8512048], [-8.4362984, 41.8514365], [-8.4361759, 41.8515256], [-8.4360946, 41.8516144], [-8.4360069, 41.8517394], [-8.4359662, 41.8518732]]}, "properties": {"highway": "primary", "name": "Rua Nunes de Azevedo", "ref": "EN 303", "source": "Bing"}}, {"type": "Feature", "geometry": {"type": "LineString", "coordinates": [[-8.4793542, 41.8628548], [-8.479597, 41.862683], [-8.4796778, 41.8624781], [-8.479651, 41.8623083], [-8.4795916, 41.8622135], [-8.4794606, 41.8620986], [-8.4783575, 41.8616269]]}, "properties": {"highway": "primary", "name": "Rua Nunes de Azevedo", "ref": "EN 303", "source": "Bing"}}, {"type": "Feature", "geometry": {"type": "LineString", "coordinates": [[-8.6533374, 41.923305], [-8.6532784, 41.923291], [-8.6532086, 41.9232731], [-8.6531389, 41.9232531], [-8.6530692, 41.9232311], [-8.6530065, 41.9232067], [-8.6529448, 41.9231808], [-8.6528731, 41.923145], [-8.6528036, 41.9231094], [-8.6527366, 41.9230695], [-8.6526749, 41.9230276], [-8.6526186, 41.9229857], [-8.6525724, 41.9229521]]}, "properties": {"bridge": "viaduct", "highway": "primary", "layer": "1", "oneway": "yes", "ref": "EN 303"}}, {"type": "Feature", "geometry": {"type": "LineString", "coordinates": [[-8.6579769, 41.9246519], [-8.6579051, 41.9245881], [-8.6571398, 41.9239511]]}, "properties": {"highway": "primary", "ref": "EN 303", "source": "Bing", "surface": "asphalt"}}, {"type": "Feature", "geometry": {"type": "LineString", "coordinates": [[-8.6532989, 41.9233823], [-8.6533669, 41.9233968], [-8.6534554, 41.9234108], [-8.653552, 41.9234207], [-8.65367, 41.9234267], [-8.6537924, 41.9234302], [-8.6539623, 41.9234307], [-8.6543057, 41.9234247], [-8.6545927, 41.9234185], [-8.654793, 41.9234144], [-8.6548716, 41.9234128], [-8.6551764, 41.9234055], [-8.6552088, 41.9234047], [-8.6553732, 41.9234008], [-8.6556146, 41.9233988], [-8.6557192, 41.9234028], [-8.6558077, 41.9234088], [-8.6559014, 41.9234187], [-8.6560114, 41.9234327], [-8.6560999, 41.9234487], [-8.656193, 41.9234701], [-8.6562689, 41.9234906]]}, "properties": {"highway": "primary", "oneway": "yes", "ref": "EN 303"}}, {"type": "Feature", "geometry": {"type": "LineString", "coordinates": [[-8.4752549, 41.8751455], [-8.4748579, 41.874786], [-8.4746755, 41.8746422], [-8.4745468, 41.8744584], [-8.4745038, 41.8742028], [-8.4745253, 41.8739392], [-8.4746433, 41.8736276], [-8.4746648, 41.8734279], [-8.4746433, 41.8732122], [-8.4745253, 41.8729885], [-8.4740103, 41.872637], [-8.4737206, 41.8725331], [-8.473388, 41.8724612], [-8.4724648, 41.8724523], [-8.4723865, 41.8724515], [-8.4717278, 41.8724452], [-8.4712772, 41.8725231], [-8.4701028, 41.8729273], [-8.4696263, 41.8730913], [-8.4693956, 41.8731233], [-8.4691583, 41.8731003], [-8.4689759, 41.8730325], [-8.4687907, 41.8728639], [-8.4687251, 41.872645], [-8.4687609, 41.8724732]]}, "properties": {"highway": "primary", "name": "Rua Nunes de Azevedo", "ref": "EN 303", "source": "Bing"}}, {"type": "Feature", "geometry": {"type": "LineString", "coordinates": [[-8.445853, 41.8563985], [-8.4458176, 41.8563933], [-8.445544, 41.8563832], [-8.4454251, 41.856359]]}, "properties": {"highway": "primary", "name": "Rua Nunes de Azevedo", "ref": "EN 303", "source": "Bing"}}, {"type": "Feature", "geometry": {"type": "LineString", "coordinates": [[-8.4937574, 41.897145], [-8.4928394, 41.8970467], [-8.4925251, 41.896982], [-8.4923352, 41.8969429], [-8.4918416, 41.8968072]]}, "properties": {"highway": "primary", "name": "Rua Nunes de Azevedo", "ref": "EN 303", "source": "Bing"}}, {"type": "Feature", "geometry": {"type": "LineString", "coordinates": [[-8.4918416, 41.8968072], [-8.4913481, 41.8965436], [-8.4909297, 41.8962401], [-8.4903611, 41.8958169], [-8.4901503, 41.8954862], [-8.4900607, 41.8953457], [-8.4899105, 41.8949783], [-8.4898675, 41.8945231], [-8.4898461, 41.8914403], [-8.4897817, 41.8912327], [-8.4896744, 41.8911209], [-8.4895775, 41.8910372], [-8.4894872, 41.8909896]]}, "properties": {"highway": "primary", "name": "Rua Nunes de Azevedo", "ref": "EN 303", "source": "Bing"}}, {"type": "Feature", "geometry": {"type": "LineString", "coordinates": [[-8.6440067, 41.9256626], [-8.6435316, 41.9265683], [-8.6430765, 41.9272708], [-8.6421343, 41.9287249], [-8.6418049, 41.9292534], [-8.6416497, 41.9295244], [-8.641518, 41.9297895], [-8.6413891, 41.9301273], [-8.6412836, 41.9304652], [-8.6411851, 41.9310759], [-8.641052, 41.9319802], [-8.6409521, 41.9325617], [-8.6408488, 41.9331635], [-8.640791, 41.9334007], [-8.640706, 41.9336277], [-8.6405408, 41.9339822], [-8.6402717, 41.9343044], [-8.6399325, 41.9346116], [-8.6396018, 41.9348776], [-8.6393139, 41.9351005]]}, "properties": {"highway": "primary", "name": "Variante \u00e0 EN 303", "oneway": "no", "ref": "EN 303"}}, {"type": "Feature", "geometry": {"type": "LineString", "coordinates": [[-8.6272471, 41.9334723], [-8.6269684, 41.9333707], [-8.626779, 41.9332875], [-8.6265686, 41.9331843], [-8.626397, 41.9330954], [-8.6240779, 41.9318178], [-8.6234569, 41.9315088], [-8.6230948, 41.9313509], [-8.6227068, 41.9312287], [-8.6221557, 41.9311563]]}, "properties": {"highway": "primary", "name": "Variante \u00e0 EN 303", "oneway": "no", "ref": "EN 303"}}, {"type": "Feature", "geometry": {"type": "LineString", "coordinates": [[-8.5975885, 41.9258401], [-8.5968555, 41.9258353], [-8.5963032, 41.925839], [-8.5959346, 41.9258621], [-8.5955765, 41.9259124], [-8.5951597, 41.9260037], [-8.5935734, 41.9263752], [-8.5931771, 41.9264357], [-8.5928537, 41.9264905], [-8.5923084, 41.9265559], [-8.5917876, 41.926588], [-8.591352, 41.9266016], [-8.5909812, 41.9266051], [-8.5907703, 41.9266008], [-8.5905288, 41.9265876], [-8.5902793, 41.9265572], [-8.5900746, 41.9265169]]}, "properties": {"highway": "primary", "name": "Variante \u00e0 EN 303", "oneway": "no", "ref": "EN 303"}}, {"type": "Feature", "geometry": {"type": "LineString", "coordinates": [[-8.6561805, 41.9233838], [-8.6561455, 41.9233748], [-8.6560516, 41.9233569], [-8.6560239, 41.9233528]]}, "properties": {"highway": "primary", "oneway": "yes", "ref": "EN 303", "source": "Bing"}}, {"type": "Feature", "geometry": {"type": "LineString", "coordinates": [[-8.654978, 41.9233284], [-8.6548812, 41.9233309], [-8.6547393, 41.9233346], [-8.6545921, 41.9233384], [-8.6540403, 41.9233526], [-8.6538702, 41.9233524], [-8.653771, 41.9233504], [-8.6536727, 41.9233469], [-8.6535805, 41.9233404], [-8.653492, 41.9233304], [-8.6534142, 41.9233185], [-8.6533374, 41.923305]]}, "properties": {"highway": "primary", "oneway": "yes", "ref": "EN 303", "source": "Bing"}}, {"type": "Feature", "geometry": {"type": "LineString", "coordinates": [[-8.656365, 41.9234377], [-8.6563413, 41.9234287], [-8.6562448, 41.9233988], [-8.6561805, 41.9233838]]}, "properties": {"highway": "primary", "oneway": "yes", "ref": "EN 303", "source": "Bing"}}, {"type": "Feature", "geometry": {"type": "LineString", "coordinates": [[-8.6562689, 41.9234906], [-8.6563566, 41.923518], [-8.6564371, 41.923548], [-8.6565184, 41.9235804], [-8.6565747, 41.9236043], [-8.6566283, 41.9236303], [-8.6567107, 41.9236737], [-8.6568322, 41.9237439], [-8.6569413, 41.9238154], [-8.6571398, 41.9239511]]}, "properties": {"highway": "primary", "oneway": "yes", "ref": "EN 303"}}, {"type": "Feature", "geometry": {"type": "LineString", "coordinates": [[-8.6519336, 41.9220882], [-8.6520419, 41.922379], [-8.6520714, 41.9224528], [-8.6521036, 41.9225287], [-8.6521438, 41.9226085], [-8.6521858, 41.9226798], [-8.652235, 41.9227462], [-8.6522833, 41.9228081], [-8.6523396, 41.9228699], [-8.6523959, 41.9229278], [-8.6524603, 41.9229857], [-8.652522, 41.9230356]]}, "properties": {"highway": "primary", "oneway": "yes", "ref": "EN 303"}}, {"type": "Feature", "geometry": {"type": "LineString", "coordinates": [[-8.6068859, 41.9274562], [-8.6065578, 41.927372], [-8.6056508, 41.9271719], [-8.6052993, 41.9270995], [-8.6049064, 41.9270095], [-8.6045623, 41.9269019]]}, "properties": {"highway": "primary", "name": "Variante \u00e0 EN 303", "oneway": "no", "ref": "EN 303"}}, {"type": "Feature", "geometry": {"type": "LineString", "coordinates": [[-8.6082298, 41.9281134], [-8.608074, 41.9279917], [-8.6078086, 41.9278359], [-8.6075138, 41.9276744], [-8.6072163, 41.9275559], [-8.6068859, 41.9274562]]}, "properties": {"highway": "primary", "name": "Variante \u00e0 EN 303", "oneway": "no", "ref": "EN 303"}}, {"type": "Feature", "geometry": {"type": "LineString", "coordinates": [[-8.6090797, 41.9290159], [-8.6087266, 41.9285968], [-8.6084278, 41.9282795], [-8.6082298, 41.9281134]]}, "properties": {"highway": "primary", "name": "Variante \u00e0 EN 303", "oneway": "no", "ref": "EN 303"}}, {"type": "Feature", "geometry": {"type": "LineString", "coordinates": [[-8.6145984, 41.9322346], [-8.6125986, 41.9318747], [-8.6119923, 41.9317072], [-8.6115201, 41.9315115], [-8.61112, 41.9312564], [-8.6107704, 41.9309858], [-8.6104557, 41.9306611], [-8.6099619, 41.9300666], [-8.609431, 41.9294219]]}, "properties": {"highway": "primary", "name": "Variante \u00e0 EN 303", "oneway": "no", "ref": "EN 303"}}, {"type": "Feature", "geometry": {"type": "LineString", "coordinates": [[-8.6174364, 41.9325532], [-8.6169793, 41.9325849], [-8.6165136, 41.9325537], [-8.6157623, 41.9324342], [-8.6153323, 41.9323627], [-8.6145984, 41.9322346]]}, "properties": {"highway": "primary", "name": "Variante \u00e0 EN 303", "oneway": "no", "ref": "EN 303"}}, {"type": "Feature", "geometry": {"type": "LineString", "coordinates": [[-8.6221557, 41.9311563], [-8.6215767, 41.9311438], [-8.6211672, 41.9311942], [-8.6208656, 41.9312559], [-8.6205354, 41.9313485], [-8.6202114, 41.9314783], [-8.6195131, 41.9318], [-8.6185767, 41.9322407], [-8.6180933, 41.9324177], [-8.6176512, 41.9325208], [-8.6174364, 41.9325532]]}, "properties": {"highway": "primary", "name": "Variante \u00e0 EN 303", "oneway": "no", "ref": "EN 303"}}, {"type": "Feature", "geometry": {"type": "LineString", "coordinates": [[-8.6476433, 41.9231782], [-8.6464194, 41.9234476], [-8.6461051, 41.9235341], [-8.645856, 41.9236162], [-8.6455846, 41.9237471], [-8.6453548, 41.9238781], [-8.6450701, 41.92409], [-8.6448537, 41.924282], [-8.6446883, 41.9244587], [-8.6445465, 41.9246575], [-8.6443123, 41.9250645], [-8.6440067, 41.9256626]]}, "properties": {"highway": "primary", "name": "Variante \u00e0 EN 303", "oneway": "no", "ref": "EN 303"}}, {"type": "Feature", "geometry": {"type": "LineString", "coordinates": [[-8.6512465, 41.9218476], [-8.6510599, 41.9219473], [-8.6506479, 41.9222701], [-8.6504529, 41.9223892], [-8.6502741, 41.9224972], [-8.6500876, 41.922584], [-8.6498487, 41.9226665], [-8.6496228, 41.9227316], [-8.6491537, 41.9228458], [-8.6477596, 41.9231526], [-8.6476433, 41.9231782]]}, "properties": {"highway": "primary", "name": "Variante \u00e0 EN 303", "oneway": "no", "ref": "EN 303"}}, {"type": "Feature", "geometry": {"type": "LineString", "coordinates": [[-8.6362929, 41.9361078], [-8.6359027, 41.9360552], [-8.6355211, 41.9359641], [-8.635229, 41.9358587], [-8.6349165, 41.9357228], [-8.6345355, 41.9354784], [-8.634272, 41.9352808], [-8.6336079, 41.93474], [-8.6333759, 41.9345804], [-8.6329957, 41.9343837], [-8.6326354, 41.9342308], [-8.6323139, 41.9341216], [-8.6319439, 41.9340376], [-8.631642, 41.934], [-8.6313106, 41.9339807], [-8.631056, 41.9339795], [-8.6307635, 41.9339828], [-8.6303293, 41.934002]]}, "properties": {"highway": "primary", "name": "Variante \u00e0 EN 303", "oneway": "no", "ref": "EN 303"}}, {"type": "Feature", "geometry": {"type": "LineString", "coordinates": [[-8.6393139, 41.9351005], [-8.638929, 41.9353898], [-8.6383742, 41.9357235], [-8.6378899, 41.9359371], [-8.6373345, 41.9360836], [-8.6369353, 41.9361195], [-8.6365566, 41.93613], [-8.6362929, 41.9361078]]}, "properties": {"highway": "primary", "name": "Variante \u00e0 EN 303", "oneway": "no", "ref": "EN 303"}}, {"type": "Feature", "geometry": {"type": "LineString", "coordinates": [[-8.6303293, 41.934002], [-8.6300297, 41.9339904], [-8.6296844, 41.933958], [-8.6293911, 41.9339096], [-8.6289894, 41.9338277], [-8.6286977, 41.9337654]]}, "properties": {"highway": "primary", "name": "Variante \u00e0 EN 303", "oneway": "no", "ref": "EN 303"}}, {"type": "Feature", "geometry": {"type": "LineString", "coordinates": [[-8.6515425, 41.9216969], [-8.6515754, 41.9217591], [-8.6516331, 41.9218102], [-8.651676, 41.9218328], [-8.6517238, 41.9218489], [-8.6517963, 41.9218598], [-8.6518701, 41.921856], [-8.6519399, 41.921838], [-8.6520009, 41.9218068], [-8.6520523, 41.9217606], [-8.6520836, 41.9217054], [-8.6520924, 41.9216458], [-8.652082, 41.9215965], [-8.6520559, 41.9215505], [-8.6520159, 41.9215105], [-8.6519591, 41.9214764], [-8.6518925, 41.9214546], [-8.6518205, 41.9214463], [-8.6517445, 41.9214529], [-8.6516738, 41.9214746], [-8.6516137, 41.9215099], [-8.6515768, 41.9215456], [-8.6515512, 41.9215863], [-8.6515379, 41.9216303], [-8.6515425, 41.9216969]]}, "properties": {"highway": "primary", "junction": "roundabout", "ref": "EN 303"}}, {"type": "Feature", "geometry": {"type": "LineString", "coordinates": [[-8.6520459, 41.9220676], [-8.6519842, 41.9218822], [-8.6520009, 41.9218068]]}, "properties": {"highway": "primary", "oneway": "yes", "ref": "EN 303", "source": "Bing"}}, {"type": "Feature", "geometry": {"type": "LineString", "coordinates": [[-8.6517238, 41.9218489], [-8.6518514, 41.9219499], [-8.6519336, 41.9220882]]}, "properties": {"highway": "primary", "oneway": "yes", "ref": "EN 303"}}, {"type": "Feature", "geometry": {"type": "LineString", "coordinates": [[-8.6515379, 41.9216303], [-8.6514418, 41.9217207], [-8.6512465, 41.9218476]]}, "properties": {"highway": "primary", "name": "Variante \u00e0 EN 303", "oneway": "yes", "ref": "EN 303"}}, {"type": "Feature", "geometry": {"type": "LineString", "coordinates": [[-8.6512465, 41.9218476], [-8.6515335, 41.9218099], [-8.6516331, 41.9218102]]}, "properties": {"highway": "primary", "name": "Variante \u00e0 EN 303", "oneway": "yes", "ref": "EN 303"}}, {"type": "Feature", "geometry": {"type": "LineString", "coordinates": [[-8.627751, 41.9335509], [-8.6277248, 41.9336112], [-8.6277242, 41.9336745], [-8.6277448, 41.933728], [-8.6277838, 41.9337756], [-8.6278384, 41.9338137], [-8.6279217, 41.9338439], [-8.6280137, 41.9338522], [-8.6281043, 41.9338376], [-8.6281604, 41.9338152], [-8.6282083, 41.9337839], [-8.628246, 41.9337445], [-8.6282704, 41.9336997], [-8.6282802, 41.9336519], [-8.628275, 41.9336037], [-8.6282549, 41.9335576], [-8.628221, 41.9335162], [-8.6281751, 41.9334817], [-8.628101, 41.9334502], [-8.6280177, 41.9334368], [-8.6279327, 41.9334427], [-8.6278613, 41.9334642], [-8.6278004, 41.9334994], [-8.627751, 41.9335509]]}, "properties": {"highway": "primary", "junction": "roundabout", "name": "Variante \u00e0 EN 303", "ref": "EN 303"}}, {"type": "Feature", "geometry": {"type": "LineString", "coordinates": [[-8.6272471, 41.9334723], [-8.6276654, 41.933645], [-8.6277242, 41.9336745]]}, "properties": {"highway": "primary", "name": "Variante \u00e0 EN 303", "oneway": "yes", "ref": "EN 303"}}, {"type": "Feature", "geometry": {"type": "LineString", "coordinates": [[-8.6278004, 41.9334994], [-8.6277022, 41.9335196], [-8.6276356, 41.9335225], [-8.6272471, 41.9334723]]}, "properties": {"highway": "primary", "name": "Variante \u00e0 EN 303", "oneway": "yes", "ref": "EN 303"}}, {"type": "Feature", "geometry": {"type": "LineString", "coordinates": [[-8.6037729, 41.9263911], [-8.6036453, 41.9263697], [-8.6034597, 41.9263117], [-8.6032792, 41.926257]]}, "properties": {"highway": "primary", "name": "Variante \u00e0 EN 303", "oneway": "yes", "ref": "EN 303"}}, {"type": "Feature", "geometry": {"type": "LineString", "coordinates": [[-8.6045623, 41.9269019], [-8.6043385, 41.9267656], [-8.6042409, 41.9266723], [-8.6041692, 41.9265906]]}, "properties": {"highway": "primary", "name": "Variante \u00e0 EN 303", "oneway": "yes", "ref": "EN 303"}}, {"type": "Feature", "geometry": {"type": "LineString", "coordinates": [[-8.6036528, 41.9266457], [-8.6036878, 41.9266902], [-8.6037312, 41.9267233], [-8.6037837, 41.9267482], [-8.6038424, 41.9267634], [-8.6039042, 41.9267682], [-8.6039687, 41.9267618], [-8.6040292, 41.9267442], [-8.6040821, 41.9267165], [-8.6041245, 41.9266802], [-8.6041541, 41.9266374], [-8.6041692, 41.9265906], [-8.6041688, 41.9265421], [-8.6041528, 41.926495], [-8.604122, 41.9264522], [-8.6040783, 41.9264162], [-8.6040243, 41.926389], [-8.6039631, 41.9263722], [-8.6038982, 41.9263669], [-8.6038336, 41.9263733], [-8.6037729, 41.9263911], [-8.6037202, 41.9264188], [-8.6036779, 41.926455], [-8.6036484, 41.9264977], [-8.6036334, 41.9265444], [-8.6036343, 41.926596], [-8.6036528, 41.9266457]]}, "properties": {"highway": "primary", "junction": "roundabout", "name": "Variante \u00e0 EN 303", "ref": "EN 303"}}, {"type": "Feature", "geometry": {"type": "LineString", "coordinates": [[-8.6032792, 41.926257], [-8.603455, 41.9263737], [-8.6035722, 41.9264715], [-8.6036334, 41.9265444]]}, "properties": {"highway": "primary", "name": "Variante \u00e0 EN 303", "oneway": "yes", "ref": "EN 303"}}, {"type": "Feature", "geometry": {"type": "LineString", "coordinates": [[-8.6040292, 41.9267442], [-8.6043136, 41.9268157], [-8.6045623, 41.9269019]]}, "properties": {"highway": "primary", "name": "Variante \u00e0 EN 303", "oneway": "yes", "ref": "EN 303"}}, {"type": "Feature", "geometry": {"type": "LineString", "coordinates": [[-8.5900746, 41.9265169], [-8.5898403, 41.9264514], [-8.5896053, 41.9263682], [-8.5895252, 41.9263351], [-8.589414, 41.9262825], [-8.5892976, 41.9262238], [-8.589155, 41.9261395]]}, "properties": {"highway": "primary", "name": "Variante \u00e0 EN 303", "oneway": "no", "ref": "EN 303"}}, {"type": "Feature", "geometry": {"type": "LineString", "coordinates": [[-8.5860037, 41.9233991], [-8.5858391, 41.9232827], [-8.5857189, 41.9232042], [-8.5829214, 41.9217049], [-8.5828211, 41.9216512], [-8.5826617, 41.9215621], [-8.5825584, 41.9215079], [-8.582412, 41.9214489], [-8.5822825, 41.9214259], [-8.5821874, 41.9214255], [-8.5820923, 41.921439], [-8.5810672, 41.9216607], [-8.5805746, 41.9217672], [-8.5794151, 41.9220212], [-8.5792611, 41.9220451], [-8.5791495, 41.9220405], [-8.5790426, 41.9220074], [-8.5789203, 41.921947], [-8.5780904, 41.9213768], [-8.5779865, 41.9213018], [-8.5778745, 41.921226], [-8.5775191, 41.9209805], [-8.5763116, 41.9201462], [-8.5750167, 41.9192516], [-8.5748277, 41.9191192], [-8.5747976, 41.9190981], [-8.5747431, 41.91906], [-8.5747085, 41.9190282], [-8.574643, 41.9189678], [-8.5739974, 41.9179304], [-8.5736868, 41.9176388], [-8.5736344, 41.9175439], [-8.5736228, 41.9174642], [-8.573645, 41.9173755]]}, "properties": {"highway": "primary", "ref": "EN 303", "source": "Bing"}}, {"type": "Feature", "geometry": {"type": "LineString", "coordinates": [[-8.609431, 41.9294219], [-8.6090797, 41.9290159]]}, "properties": {"bridge": "yes", "highway": "primary", "layer": "1", "name": "Variante \u00e0 EN 303", "oneway": "no", "ref": "EN 303"}}, {"type": "Feature", "geometry": {"type": "LineString", "coordinates": [[-8.589155, 41.9261395], [-8.5889881, 41.9260244], [-8.5886436, 41.925718], [-8.5883956, 41.9254994], [-8.5879503, 41.925107], [-8.5877192, 41.9248998], [-8.5870541, 41.9243032], [-8.5869147, 41.9241457], [-8.5868217, 41.9240173], [-8.5866796, 41.9237831], [-8.5866219, 41.9237273], [-8.5865865, 41.9236995]]}, "properties": {"highway": "primary", "ref": "EN 303", "source": "Bing"}}, {"type": "Feature", "geometry": {"type": "LineString", "coordinates": [[-8.5861203, 41.9235091], [-8.5861041, 41.9235491], [-8.5861039, 41.9235824], [-8.586115, 41.9236146], [-8.5861366, 41.9236437], [-8.5861674, 41.9236678], [-8.5862054, 41.9236853], [-8.586248, 41.9236952], [-8.5862978, 41.9236964], [-8.586346, 41.9236871], [-8.5863888, 41.9236682], [-8.5864227, 41.9236411], [-8.5864451, 41.923608], [-8.5864541, 41.9235716], [-8.586449, 41.9235347], [-8.5864303, 41.9235004], [-8.5863994, 41.9234714], [-8.5863602, 41.9234505], [-8.5863149, 41.9234384], [-8.5862669, 41.9234358], [-8.5862314, 41.9234403], [-8.5861978, 41.9234501], [-8.5861526, 41.9234749], [-8.5861203, 41.9235091]]}, "properties": {"highway": "primary", "junction": "roundabout", "ref": "EN 303"}}, {"type": "Feature", "geometry": {"type": "LineString", "coordinates": [[-8.5865865, 41.9236995], [-8.5865527, 41.9236585], [-8.5864906, 41.9236086], [-8.5864541, 41.9235716]]}, "properties": {"highway": "primary", "oneway": "yes", "ref": "EN 303"}}, {"type": "Feature", "geometry": {"type": "LineString", "coordinates": [[-8.5861978, 41.9234501], [-8.586105, 41.9234338], [-8.5860037, 41.9233991]]}, "properties": {"highway": "primary", "oneway": "yes", "ref": "EN 303"}}, {"type": "Feature", "geometry": {"type": "LineString", "coordinates": [[-8.6286977, 41.9337654], [-8.6285171, 41.9336881], [-8.6283327, 41.933628], [-8.628275, 41.9336037]]}, "properties": {"highway": "primary", "name": "Variante \u00e0 EN 303", "oneway": "yes", "ref": "EN 303"}}, {"type": "Feature", "geometry": {"type": "LineString", "coordinates": [[-8.6282083, 41.9337839], [-8.6282978, 41.933755], [-8.6284606, 41.9337455], [-8.6286977, 41.9337654]]}, "properties": {"highway": "primary", "name": "Variante \u00e0 EN 303", "oneway": "yes", "ref": "EN 303"}}, {"type": "Feature", "geometry": {"type": "LineString", "coordinates": [[-8.5604425, 41.9093394], [-8.5603347, 41.9094713], [-8.5602339, 41.9095779], [-8.5601374, 41.9096625], [-8.5600287, 41.9097425], [-8.5590496, 41.910205], [-8.558952, 41.9102597]]}, "properties": {"highway": "primary", "name": "Rua Doutor Afonso Viana", "oneway": "yes", "ref": "EN 303", "source": "Bing", "surface": "asphalt"}}, {"type": "Feature", "geometry": {"type": "LineString", "coordinates": [[-8.5860037, 41.9233991], [-8.5860451, 41.9234515], [-8.5861041, 41.9235491]]}, "properties": {"highway": "primary", "oneway": "yes", "ref": "EN 303"}}, {"type": "Feature", "geometry": {"type": "LineString", "coordinates": [[-8.5657501, 41.9121747], [-8.5657005, 41.9121244], [-8.5656466, 41.9120765], [-8.5654057, 41.9118842], [-8.5653431, 41.9118432], [-8.5652402, 41.9117977], [-8.5650918, 41.911759], [-8.5650721, 41.9117539], [-8.5649346, 41.9117347], [-8.5647906, 41.9117337], [-8.5646563, 41.9117374], [-8.5639825, 41.9118125], [-8.5637499, 41.9118398], [-8.5625877, 41.9119746], [-8.5624864, 41.9119835], [-8.5624376, 41.9119827], [-8.5623746, 41.9119785], [-8.5623031, 41.9119723]]}, "properties": {"highway": "primary", "name": "Avenida C\u00f3nego Chouzal", "ref": "EN 303"}}, {"type": "Feature", "geometry": {"type": "LineString", "coordinates": [[-8.5656461, 41.9127082], [-8.5656943, 41.9127275], [-8.5657433, 41.9127359], [-8.5657786, 41.9127337], [-8.5658138, 41.9127315], [-8.565858, 41.9127235], [-8.5659147, 41.9126973], [-8.5659585, 41.91266], [-8.5659858, 41.9126147], [-8.565994, 41.9125655], [-8.5659902, 41.9125389], [-8.5659765, 41.912505], [-8.5659535, 41.912474], [-8.5659223, 41.9124472]]}, "properties": {"highway": "primary", "junction": "roundabout", "ref": "EN 303"}}, {"type": "Feature", "geometry": {"type": "LineString", "coordinates": [[-8.5659223, 41.9124472], [-8.565893, 41.9124301]]}, "properties": {"highway": "primary", "junction": "roundabout", "ref": "EN 303"}}, {"type": "Feature", "geometry": {"type": "LineString", "coordinates": [[-8.5657108, 41.9124083], [-8.5656597, 41.9124238], [-8.5656152, 41.912448], [-8.5655799, 41.9124797], [-8.5655561, 41.9125167], [-8.5655456, 41.9125534], [-8.5655481, 41.9125994], [-8.5655673, 41.9126432], [-8.5656019, 41.9126814], [-8.5656461, 41.9127082]]}, "properties": {"highway": "primary", "junction": "roundabout", "ref": "EN 303"}}, {"type": "Feature", "geometry": {"type": "LineString", "coordinates": [[-8.5863888, 41.9236682], [-8.5864556, 41.9236771], [-8.5864967, 41.9236847], [-8.5865439, 41.9236936], [-8.5865865, 41.9236995]]}, "properties": {"highway": "primary", "oneway": "yes", "ref": "EN 303"}}, {"type": "Feature", "geometry": {"type": "LineString", "coordinates": [[-8.4893594, 41.8909604], [-8.4893333, 41.8909565], [-8.4892017, 41.8909537], [-8.4890328, 41.8909884], [-8.4890084, 41.8909952], [-8.488764, 41.8910633], [-8.4886315, 41.891094], [-8.4884937, 41.8911187], [-8.4883186, 41.8911286], [-8.4881436, 41.8911248], [-8.4878934, 41.8910889], [-8.487558, 41.8909709], [-8.4873824, 41.8909103], [-8.4872068, 41.8908653], [-8.4870743, 41.8908402], [-8.4869312, 41.8908248], [-8.4864943, 41.8908289], [-8.4863403, 41.8908198], [-8.486209, 41.8908014], [-8.4860628, 41.8907315], [-8.4857222, 41.8905478], [-8.4855359, 41.8905112], [-8.4853828, 41.8905093], [-8.4852019, 41.8905268], [-8.4849363, 41.8906227], [-8.4845085, 41.8908603], [-8.4842711, 41.8909502], [-8.4841512, 41.8909768], [-8.4840223, 41.8909832], [-8.4838903, 41.8909789], [-8.4837372, 41.8909622], [-8.4835566, 41.8909248], [-8.4833056, 41.8908593]]}, "properties": {"highway": "primary", "name": "Rua Nunes de Azevedo", "ref": "EN 303", "source": "Bing"}}, {"type": "Feature", "geometry": {"type": "LineString", "coordinates": [[-8.4894872, 41.8909896], [-8.4893594, 41.8909604]]}, "properties": {"bridge": "yes", "highway": "primary", "layer": "1", "name": "Rua Nunes de Azevedo", "ref": "EN 303", "source": "Bing"}}, {"type": "Feature", "geometry": {"type": "LineString", "coordinates": [[-8.6555824, 41.923317], [-8.6554778, 41.923319], [-8.655341, 41.923321], [-8.654978, 41.9233284]]}, "properties": {"highway": "primary", "lanes": "2", "oneway": "yes", "ref": "EN 303", "source": "Bing"}}, {"type": "Feature", "geometry": {"type": "LineString", "coordinates": [[-8.6560239, 41.9233528], [-8.6559677, 41.9233444], [-8.6558926, 41.9233344], [-8.655822, 41.9233271], [-8.6557558, 41.9233225], [-8.655687, 41.923319], [-8.6556379, 41.923318], [-8.6555824, 41.923317]]}, "properties": {"highway": "primary", "oneway": "yes", "ref": "EN 303", "source": "Bing"}}, {"type": "Feature", "geometry": {"type": "LineString", "coordinates": [[-8.4314432, 41.8488518], [-8.431331, 41.8487533], [-8.4312801, 41.8486512], [-8.4312516, 41.8485469], [-8.43129, 41.8483246], [-8.4313865, 41.848144], [-8.4315266, 41.8480239], [-8.4316503, 41.8479371], [-8.4317333, 41.8478755], [-8.4317595, 41.847805], [-8.4317444, 41.8476987], [-8.431567, 41.8473787], [-8.4315625, 41.8472959]]}, "properties": {"highway": "primary", "name": "Rua Nunes de Azevedo", "ref": "EN 303", "source": "Bing"}}, {"type": "Feature", "geometry": {"type": "LineString", "coordinates": [[-8.4315625, 41.8472959], [-8.431559, 41.847233]]}, "properties": {"highway": "primary", "name": "Rua Nunes de Azevedo", "ref": "EN 303", "source": "Bing"}}, {"type": "Feature", "geometry": {"type": "LineString", "coordinates": [[-8.6032792, 41.926257], [-8.6030621, 41.9261525], [-8.6027999, 41.9260543], [-8.602527, 41.9259826], [-8.6022117, 41.9259214], [-8.6018788, 41.9258814], [-8.6016019, 41.9258706], [-8.6007341, 41.9258464], [-8.6002431, 41.9258452], [-8.5995677, 41.9258474], [-8.598972, 41.9258492], [-8.5984237, 41.9258456]]}, "properties": {"highway": "primary", "name": "Variante \u00e0 EN 303", "oneway": "no", "ref": "EN 303"}}, {"type": "Feature", "geometry": {"type": "LineString", "coordinates": [[-8.5984237, 41.9258456], [-8.5975885, 41.9258401]]}, "properties": {"bridge": "yes", "highway": "primary", "layer": "1", "name": "Variante \u00e0 EN 303", "oneway": "no", "ref": "EN 303"}}, {"type": "Feature", "geometry": {"type": "MultiPolygon", "coordinates": [[[[-8.5583522, 41.9110861], [-8.5583517, 41.9110547], [-8.5583441, 41.9110259], [-8.5583188, 41.9109874], [-8.5582793, 41.9109561], [-8.5582293, 41.9109348], [-8.5581672, 41.9109251], [-8.5581043, 41.9109308], [-8.5580473, 41.9109513], [-8.5580021, 41.9109844], [-8.557976, 41.9110213], [-8.5579652, 41.9110621], [-8.5579704, 41.9111036], [-8.5579948, 41.9111464], [-8.5580361, 41.9111812], [-8.5580903, 41.9112045], [-8.5581515, 41.9112138], [-8.5582005, 41.9112105], [-8.5582469, 41.9111982], [-8.5582876, 41.9111776], [-8.5583233, 41.9111464], [-8.5583457, 41.9111089], [-8.5583522, 41.9110861]]]]}, "properties": {"highway": "primary", "junction": "roundabout", "ref": "EN 303"}}, {"type": "Feature", "geometry": {"type": "MultiPolygon", "coordinates": [[[[-8.570446, 41.9151055], [-8.5704347, 41.9150391], [-8.5703886, 41.9149816], [-8.5703239, 41.9149456], [-8.5702331, 41.9149289], [-8.5701411, 41.9149418], [-8.5700648, 41.914982], [-8.5700259, 41.9150262], [-8.570008, 41.9150772], [-8.570013, 41.9151299], [-8.5700402, 41.9151787], [-8.5700868, 41.9152184], [-8.5701554, 41.9152471], [-8.5702331, 41.9152559], [-8.5703101, 41.9152438], [-8.570374, 41.915214], [-8.5704206, 41.9151697], [-8.570446, 41.9151055]]]]}, "properties": {"highway": "primary", "junction": "roundabout", "lanes": "2", "lit": "yes", "ref": "EN 303", "sidewalk": "left", "surface": "asphalt"}}, {"type": "Feature", "geometry": {"type": "MultiPolygon", "coordinates": [[[[-8.6719148, 41.9194765], [-8.6719058, 41.9194384], [-8.6718805, 41.9194046], [-8.6718383, 41.9193775], [-8.6717919, 41.919364], [-8.6717421, 41.9193622], [-8.6716941, 41.9193721], [-8.6716546, 41.9193917], [-8.6716248, 41.9194192], [-8.6716044, 41.919468], [-8.6716143, 41.9195185], [-8.6716524, 41.919561], [-8.6717078, 41.9195862], [-8.6717721, 41.9195924], [-8.6718306, 41.9195799], [-8.6718782, 41.9195516], [-8.6719064, 41.9195147], [-8.6719148, 41.9194765]]]]}, "properties": {"highway": "primary", "junction": "roundabout", "ref": "EN 303", "source": "survey", "surface": "asphalt"}}, {"type": "Feature", "geometry": {"type": "MultiPolygon", "coordinates": [[[[-8.5250473, 41.8935122], [-8.5250415, 41.8934893], [-8.5250258, 41.8934692], [-8.5250019, 41.8934542], [-8.5249777, 41.8934468], [-8.5249518, 41.8934448], [-8.5249262, 41.8934483], [-8.5249011, 41.8934579], [-8.5248811, 41.8934727], [-8.5248681, 41.8934914], [-8.5248633, 41.8935121], [-8.5248671, 41.8935329], [-8.5248793, 41.8935519], [-8.5248978, 41.8935667], [-8.5249212, 41.8935769], [-8.5249477, 41.8935815], [-8.5249748, 41.8935802], [-8.5250039, 41.8935714], [-8.5250274, 41.8935559], [-8.5250424, 41.8935353], [-8.5250473, 41.8935122]]]]}, "properties": {"highway": "primary", "junction": "roundabout", "ref": "EN 303", "source": "Bing"}}, {"type": "Feature", "geometry": {"type": "MultiPolygon", "coordinates": [[[[-8.5212885, 41.8944912], [-8.5212884, 41.8944723], [-8.521282, 41.8944561], [-8.5212699, 41.8944418], [-8.521253, 41.8944305], [-8.5212322, 41.8944228], [-8.5212093, 41.8944197], [-8.5211862, 41.8944214], [-8.5211646, 41.8944278], [-8.5211469, 41.8944377], [-8.5211334, 41.8944509], [-8.521125, 41.8944661], [-8.5211223, 41.8944825], [-8.5211268, 41.8945019], [-8.5211391, 41.8945192], [-8.5211581, 41.8945329], [-8.5211818, 41.8945414], [-8.5212036, 41.894544], [-8.5212255, 41.8945423], [-8.5212461, 41.8945364], [-8.5212663, 41.8945248], [-8.5212808, 41.8945093], [-8.5212885, 41.8944912]]]]}, "properties": {"highway": "primary", "junction": "roundabout", "ref": "EN 303", "source": "Bing"}}, {"type": "Feature", "geometry": {"type": "MultiPolygon", "coordinates": [[[[-8.6520924, 41.9216458], [-8.652082, 41.9215965], [-8.6520559, 41.9215505], [-8.6520159, 41.9215105], [-8.6519591, 41.9214764], [-8.6518925, 41.9214546], [-8.6518205, 41.9214463], [-8.6517445, 41.9214529], [-8.6516738, 41.9214746], [-8.6516137, 41.9215099], [-8.6515768, 41.9215456], [-8.6515512, 41.9215863], [-8.6515379, 41.9216303], [-8.6515425, 41.9216969], [-8.6515754, 41.9217591], [-8.6516331, 41.9218102], [-8.651676, 41.9218328], [-8.6517238, 41.9218489], [-8.6517963, 41.9218598], [-8.6518701, 41.921856], [-8.6519399, 41.921838], [-8.6520009, 41.9218068], [-8.6520523, 41.9217606], [-8.6520836, 41.9217054], [-8.6520924, 41.9216458]]]]}, "properties": {"highway": "primary", "junction": "roundabout", "ref": "EN 303"}}, {"type": "Feature", "geometry": {"type": "MultiPolygon", "coordinates": [[[[-8.6282802, 41.9336519], [-8.628275, 41.9336037], [-8.6282549, 41.9335576], [-8.628221, 41.9335162], [-8.6281751, 41.9334817], [-8.628101, 41.9334502], [-8.6280177, 41.9334368], [-8.6279327, 41.9334427], [-8.6278613, 41.9334642], [-8.6278004, 41.9334994], [-8.627751, 41.9335509], [-8.6277248, 41.9336112], [-8.6277242, 41.9336745], [-8.6277448, 41.933728], [-8.6277838, 41.9337756], [-8.6278384, 41.9338137], [-8.6279217, 41.9338439], [-8.6280137, 41.9338522], [-8.6281043, 41.9338376], [-8.6281604, 41.9338152], [-8.6282083, 41.9337839], [-8.628246, 41.9337445], [-8.6282704, 41.9336997], [-8.6282802, 41.9336519]]]]}, "properties": {"highway": "primary", "junction": "roundabout", "name": "Variante \u00e0 EN 303", "ref": "EN 303"}}, {"type": "Feature", "geometry": {"type": "MultiPolygon", "coordinates": [[[[-8.6041692, 41.9265906], [-8.6041688, 41.9265421], [-8.6041528, 41.926495], [-8.604122, 41.9264522], [-8.6040783, 41.9264162], [-8.6040243, 41.926389], [-8.6039631, 41.9263722], [-8.6038982, 41.9263669], [-8.6038336, 41.9263733], [-8.6037729, 41.9263911], [-8.6037202, 41.9264188], [-8.6036779, 41.926455], [-8.6036484, 41.9264977], [-8.6036334, 41.9265444], [-8.6036343, 41.926596], [-8.6036528, 41.9266457], [-8.6036878, 41.9266902], [-8.6037312, 41.9267233], [-8.6037837, 41.9267482], [-8.6038424, 41.9267634], [-8.6039042, 41.9267682], [-8.6039687, 41.9267618], [-8.6040292, 41.9267442], [-8.6040821, 41.9267165], [-8.6041245, 41.9266802], [-8.6041541, 41.9266374], [-8.6041692, 41.9265906]]]]}, "properties": {"highway": "primary", "junction": "roundabout", "name": "Variante \u00e0 EN 303", "ref": "EN 303"}}, {"type": "Feature", "geometry": {"type": "MultiPolygon", "coordinates": [[[[-8.5864541, 41.9235716], [-8.586449, 41.9235347], [-8.5864303, 41.9235004], [-8.5863994, 41.9234714], [-8.5863602, 41.9234505], [-8.5863149, 41.9234384], [-8.5862669, 41.9234358], [-8.5862314, 41.9234403], [-8.5861978, 41.9234501], [-8.5861526, 41.9234749], [-8.5861203, 41.9235091], [-8.5861041, 41.9235491], [-8.5861039, 41.9235824], [-8.586115, 41.9236146], [-8.5861366, 41.9236437], [-8.5861674, 41.9236678], [-8.5862054, 41.9236853], [-8.586248, 41.9236952], [-8.5862978, 41.9236964], [-8.586346, 41.9236871], [-8.5863888, 41.9236682], [-8.5864227, 41.9236411], [-8.5864451, 41.923608], [-8.5864541, 41.9235716]]]]}, "properties": {"highway": "primary", "junction": "roundabout", "ref": "EN 303"}}]}