{"type": "FeatureCollection", "features": [{"type": "Feature", "geometry": {"type": "LineString", "coordinates": [[-6.9828466, 40.6067424], [-6.9828703, 40.6069013], [-6.9828415, 40.6069949], [-6.9827194, 40.6072364]]}, "properties": {"highway": "primary", "lanes": "1", "oneway": "yes", "ref": "EN 324", "surface": "asphalt"}}, {"type": "Feature", "geometry": {"type": "LineString", "coordinates": [[-6.9832205, 40.6067501], [-6.9832503, 40.6067073], [-6.9832633, 40.60666], [-6.9832584, 40.6066117], [-6.9832465, 40.6065831], [-6.9832283, 40.6065565], [-6.9831902, 40.606522], [-6.9831416, 40.6064962], [-6.9830858, 40.6064808], [-6.9830267, 40.606477], [-6.9829746, 40.6064835], [-6.9829258, 40.6064989], [-6.9828831, 40.6065225], [-6.9828432, 40.6065597], [-6.9828182, 40.6066038], [-6.9828103, 40.6066514], [-6.98282, 40.6066988], [-6.9828466, 40.6067424], [-6.9828993, 40.6067857], [-6.9829681, 40.6068129], [-6.9830449, 40.606821], [-6.9831209, 40.6068089], [-6.9831762, 40.6067849], [-6.9832205, 40.6067501]]}, "properties": {"highway": "primary", "junction": "roundabout", "lanes": "2", "ref": "EN 324", "surface": "asphalt"}}, {"type": "Feature", "geometry": {"type": "LineString", "coordinates": [[-6.9827194, 40.6072364], [-6.9825624, 40.607734]]}, "properties": {"bridge": "yes", "highway": "primary", "lanes": "1", "layer": "1", "oneway": "yes", "ref": "EN 324", "surface": "asphalt"}}, {"type": "Feature", "geometry": {"type": "LineString", "coordinates": [[-6.9825362, 40.6081245], [-6.9824591, 40.6081281], [-6.9823883, 40.6081514], [-6.9823322, 40.6081918], [-6.9822977, 40.6082442], [-6.982289, 40.6083025], [-6.982307, 40.6083595], [-6.9823496, 40.6084084], [-6.9824117, 40.6084433], [-6.9824857, 40.60846], [-6.9825628, 40.6084564], [-6.9826337, 40.6084331], [-6.9826897, 40.6083927], [-6.9827242, 40.6083402], [-6.9827329, 40.608282], [-6.9827149, 40.608225], [-6.9826723, 40.6081761], [-6.9826102, 40.6081412], [-6.9825362, 40.6081245]]}, "properties": {"highway": "primary", "junction": "roundabout", "lanes": "2", "ref": "EN 324", "surface": "asphalt"}}, {"type": "Feature", "geometry": {"type": "LineString", "coordinates": [[-6.9823895, 40.6087493], [-6.9823559, 40.6089206], [-6.9823325, 40.6091764], [-6.9822563, 40.6101597], [-6.9822147, 40.6106516], [-6.9821412, 40.6116444], [-6.9820073, 40.6132728], [-6.9819275, 40.6139543], [-6.9818224, 40.6145215], [-6.9816087, 40.6152333], [-6.9814089, 40.6157591], [-6.9808555, 40.6167811], [-6.978657, 40.6200867], [-6.9764372, 40.623424], [-6.974228, 40.626799], [-6.9737665, 40.6277074], [-6.97335, 40.6287981], [-6.9731659, 40.6298406], [-6.9730482, 40.6326266], [-6.9729938, 40.634477], [-6.9729537, 40.6350465], [-6.972856, 40.6356209], [-6.9728118, 40.6358805], [-6.9724436, 40.6370196], [-6.9710341, 40.6395055], [-6.9688183, 40.6434134], [-6.9684784, 40.644359], [-6.9671331, 40.6514182], [-6.9666241, 40.6542664], [-6.9665522, 40.654721], [-6.9665299, 40.6549851], [-6.9665162, 40.6552914], [-6.9665151, 40.6556168], [-6.966532, 40.6559253], [-6.9665616, 40.6562481], [-6.9666476, 40.6567237], [-6.9667714, 40.6572136], [-6.9669347, 40.6577034], [-6.9672146, 40.658358], [-6.9683259, 40.6606281], [-6.9684218, 40.6608245]]}, "properties": {"highway": "primary", "ref": "EN 324"}}, {"type": "Feature", "geometry": {"type": "LineString", "coordinates": [[-6.9834879, 40.6059053], [-6.9836448, 40.6056639], [-6.9838853, 40.6053334], [-6.9846534, 40.6044892], [-6.9849371, 40.6042139], [-6.985639, 40.6035327], [-6.9893794, 40.5999438], [-6.9900048, 40.5993437], [-6.9916323, 40.5977631], [-6.9920722, 40.597314], [-6.992455, 40.5968302], [-6.9927372, 40.5964404]]}, "properties": {"highway": "primary", "lanes": "2", "ref": "EN 324", "source": "Plano Director Municipal do Concelho de Almeida", "surface": "asphalt"}}, {"type": "Feature", "geometry": {"type": "LineString", "coordinates": [[-6.9934536, 40.5951876], [-6.9934015, 40.5952901], [-6.9933709, 40.5953691], [-6.9933142, 40.59544], [-6.9932422, 40.5954753]]}, "properties": {"highway": "primary", "lanes": "1", "oneway": "yes", "ref": "EN 324", "source": "Plano Director Municipal do Concelho de Almeida", "surface": "asphalt"}}, {"type": "Feature", "geometry": {"type": "LineString", "coordinates": [[-7.0434344, 40.4920827], [-7.0435872, 40.4916158], [-7.0435936, 40.491596], [-7.0441566, 40.4898756], [-7.0444611, 40.4889924], [-7.0446813, 40.4883538], [-7.0448634, 40.487588], [-7.0437197, 40.4864169], [-7.041943, 40.4849859], [-7.0415473, 40.4846611], [-7.0405943, 40.483879], [-7.0403424, 40.4835876], [-7.0401411, 40.4831689], [-7.0401266, 40.4831389], [-7.03965, 40.4818864], [-7.0396199, 40.4817802], [-7.0395113, 40.481489], [-7.0394658, 40.4813733], [-7.0394063, 40.481222], [-7.0390112, 40.4802177], [-7.0387995, 40.4796795], [-7.0378967, 40.4771397], [-7.0375782, 40.4763177], [-7.0372862, 40.4755642], [-7.0372862, 40.474746], [-7.0381421, 40.47104], [-7.03816, 40.4709623], [-7.0385009, 40.46917], [-7.0385123, 40.4691102], [-7.0387995, 40.4676005], [-7.0394093, 40.46556], [-7.0400548, 40.4627152], [-7.0403655, 40.4612066], [-7.040463, 40.4608895]]}, "properties": {"highway": "primary", "ref": "EN 324", "source": "GPS;Plano Director Municipal do Sabugal"}}, {"type": "Feature", "geometry": {"type": "LineString", "coordinates": [[-7.0525385, 40.7653476], [-7.0520392, 40.7652159], [-7.051505, 40.7650409]]}, "properties": {"bridge": "yes", "highway": "primary", "layer": "1", "ref": "EN 324"}}, {"type": "Feature", "geometry": {"type": "LineString", "coordinates": [[-7.0720151, 40.7654811], [-7.0722405, 40.7658171], [-7.07246, 40.7661139], [-7.072575, 40.7662715], [-7.0729442, 40.766649], [-7.0733595, 40.7669531], [-7.0735911, 40.7670992], [-7.0738302, 40.7672501], [-7.0739239, 40.7672941], [-7.0742916, 40.7674668], [-7.0749227, 40.7677025], [-7.0758899, 40.7679513], [-7.0774852, 40.7683579], [-7.0783101, 40.7685665], [-7.0787943, 40.7686764], [-7.0791664, 40.7687416], [-7.0794161, 40.7687835], [-7.0796496, 40.7688155], [-7.0800144, 40.7688419], [-7.0804593, 40.7688657], [-7.0805062, 40.7688682], [-7.0808112, 40.7688847]]}, "properties": {"highway": "primary", "ref": "EN 324", "source": "Bing"}}, {"type": "Feature", "geometry": {"type": "LineString", "coordinates": [[-7.0502565, 40.7643327], [-7.0490091, 40.7634107], [-7.0483351, 40.763042], [-7.045236, 40.7614459], [-7.0448412, 40.7613077], [-7.0444569, 40.7612124], [-7.0440311, 40.7611695], [-7.0435202, 40.7611836], [-7.042151, 40.7613761], [-7.0413952, 40.7614002], [-7.0410854, 40.7613785], [-7.0409163, 40.7613667], [-7.0383675, 40.7609292]]}, "properties": {"highway": "primary", "ref": "EN 324"}}, {"type": "Feature", "geometry": {"type": "LineString", "coordinates": [[-7.0434344, 40.4920827], [-7.0433308, 40.4923807], [-7.0429683, 40.4934832], [-7.042848, 40.4938493], [-7.0428104, 40.4944164], [-7.0441193, 40.4983529], [-7.044291, 40.5009065], [-7.0442213, 40.5013185], [-7.044183, 40.5013898], [-7.044055, 40.5016285], [-7.0437975, 40.501914], [-7.0434756, 40.5021465], [-7.0433004, 40.5022327], [-7.043202, 40.5022811], [-7.0427085, 40.5024239], [-7.0416971, 40.5026728], [-7.0393611, 40.5032478], [-7.0390339, 40.5034477], [-7.0388394, 40.5036806], [-7.0387818, 40.5037496], [-7.0386637, 40.5041003], [-7.0386745, 40.5043981], [-7.0387787, 40.5046307], [-7.0389225, 40.5047984], [-7.0390232, 40.5049161], [-7.0400478, 40.505581], [-7.040831, 40.5070452], [-7.04273, 40.5092232], [-7.043202, 40.5098432], [-7.0432341, 40.50987], [-7.0434166, 40.5100226], [-7.0446268, 40.5107032], [-7.0447148, 40.5107527], [-7.0453478, 40.5112462], [-7.0453936, 40.5113191], [-7.0454729, 40.5114452], [-7.0455381, 40.5116646]]}, "properties": {"highway": "primary", "ref": "EN 324"}}, {"type": "Feature", "geometry": {"type": "LineString", "coordinates": [[-7.2518578, 40.9646133], [-7.2518611, 40.9649118], [-7.251869, 40.965119], [-7.2518861, 40.9654748], [-7.2519156, 40.9656803], [-7.2519563, 40.9658017], [-7.2519799, 40.9658996], [-7.2520399, 40.966023], [-7.2520912, 40.9661284], [-7.2522451, 40.9663359], [-7.2522922, 40.9663993], [-7.2523843, 40.9664972], [-7.2525736, 40.9666982], [-7.2526087, 40.9667281], [-7.2528117, 40.9669013], [-7.2529888, 40.9670128], [-7.2530529, 40.9670531], [-7.2557992, 40.9687704], [-7.2558994, 40.9688331], [-7.2570936, 40.9695833], [-7.2578973, 40.9700875], [-7.2583352, 40.9704181], [-7.2588486, 40.9709825], [-7.2606519, 40.9731133]]}, "properties": {"highway": "primary", "ref": "EN 324"}}, {"type": "Feature", "geometry": {"type": "LineString", "coordinates": [[-7.261632, 40.9743693], [-7.2618156, 40.9746203], [-7.2619969, 40.974936], [-7.2621082, 40.9752278], [-7.2625505, 40.9765306], [-7.2633312, 40.978872], [-7.2634832, 40.9792247], [-7.2636585, 40.9795142], [-7.263902, 40.9798235], [-7.264103, 40.9800278], [-7.2651506, 40.9809908], [-7.2652433, 40.9811454], [-7.265224, 40.9813351], [-7.2651119, 40.9815043], [-7.2649148, 40.9816152], [-7.2646906, 40.9816678], [-7.26396, 40.9817378], [-7.2636933, 40.9818137], [-7.2634923, 40.9819479], [-7.2633956, 40.9821347], [-7.2634072, 40.9823214], [-7.2634845, 40.9825228], [-7.263875, 40.983156], [-7.2643465, 40.9841335], [-7.2643852, 40.9843115], [-7.2643272, 40.9844778], [-7.2636855, 40.985327], [-7.2636121, 40.9854845], [-7.2635889, 40.9856304], [-7.2636353, 40.9857968], [-7.2639368, 40.9866342], [-7.2640373, 40.9868093], [-7.264505, 40.9874366], [-7.2651119, 40.988417], [-7.2651622, 40.9885454], [-7.2651738, 40.988703], [-7.2651119, 40.9889597], [-7.265023, 40.989234], [-7.2650203, 40.9892632], [-7.2649457, 40.9900656], [-7.2649766, 40.990191], [-7.2650655, 40.9903544], [-7.2661447, 40.9914198], [-7.2662329, 40.9915069], [-7.2663914, 40.9916236], [-7.2670601, 40.9920117], [-7.2671529, 40.9921138], [-7.2672804, 40.9922772], [-7.2674814, 40.9927148], [-7.267551, 40.9930124], [-7.2675935, 40.9937681], [-7.2675549, 40.9940044], [-7.267435, 40.9942582], [-7.2672688, 40.99448], [-7.2671111, 40.994646], [-7.2669414, 40.9947695], [-7.2667663, 40.994833], [-7.2662864, 40.9950026], [-7.2660836, 40.9950742], [-7.2659845, 40.9951093], [-7.2657342, 40.9951977], [-7.2647176, 40.9955886], [-7.2643697, 40.995787], [-7.2640953, 40.9959679], [-7.2635696, 40.9963763], [-7.2633415, 40.9964814], [-7.2630709, 40.9965368], [-7.2625452, 40.9966039], [-7.262321, 40.996671], [-7.2611718, 40.9971436], [-7.2610725, 40.9971845], [-7.2609372, 40.9972866], [-7.2605275, 40.9976892], [-7.2603806, 40.9977709], [-7.2603638, 40.9977749], [-7.2603426, 40.99778], [-7.2601602, 40.9978234], [-7.2596616, 40.9979313], [-7.2594722, 40.9979984], [-7.2589233, 40.9982464], [-7.2587455, 40.9982727], [-7.2578603, 40.9981851], [-7.2576631, 40.9982143], [-7.2574505, 40.9982873], [-7.2572418, 40.9984448], [-7.257064, 40.9986315], [-7.2570176, 40.9987715], [-7.2570485, 40.9989641], [-7.25718, 40.9994134], [-7.2571916, 40.9996205], [-7.257149, 40.999921], [-7.2570408, 41.0000756], [-7.2568707, 41.0001573], [-7.2559701, 41.0001193], [-7.2556956, 41.0001806], [-7.2555062, 41.0002769], [-7.2553903, 41.0004402], [-7.2553439, 41.0006678], [-7.255282, 41.0009128], [-7.2551815, 41.0010675], [-7.2550153, 41.0011637], [-7.2547795, 41.0012104], [-7.2545824, 41.0012046], [-7.2538827, 41.0011083], [-7.2536663, 41.00112], [-7.2534884, 41.0011871], [-7.2533648, 41.0013125], [-7.2533106, 41.001473], [-7.2533029, 41.0018376], [-7.2532527, 41.0019747], [-7.2531096, 41.0020827], [-7.252897, 41.0021439], [-7.2526574, 41.0021147], [-7.2519964, 41.0019864], [-7.2517606, 41.0019776], [-7.251548, 41.0020243], [-7.2510875, 41.0022555], [-7.2507721, 41.0024137], [-7.2507517, 41.002424], [-7.2507338, 41.0024372], [-7.2505584, 41.0025669], [-7.2502646, 41.0028032], [-7.2500907, 41.0028528], [-7.2498626, 41.0028849], [-7.2493756, 41.0029141], [-7.2491669, 41.0029549], [-7.2483667, 41.0032262], [-7.2481889, 41.00334], [-7.247725, 41.0037746], [-7.2475744, 41.003858], [-7.2473, 41.0039338], [-7.2472947, 41.0039344], [-7.2464844, 41.004033], [-7.2461828, 41.0040884], [-7.2454407, 41.0043889], [-7.2452551, 41.004526], [-7.2428817, 41.0070259], [-7.2422022, 41.0081037], [-7.2420197, 41.0082904], [-7.2410642, 41.0087968], [-7.240557, 41.0091468], [-7.2400626, 41.0096272], [-7.2400507, 41.0096382], [-7.2399105, 41.0097676], [-7.2398489, 41.0098562], [-7.2397747, 41.0099892], [-7.2387449, 41.0124977], [-7.2385872, 41.0127473], [-7.2383646, 41.0129807], [-7.2383165, 41.0130145], [-7.2380491, 41.0132024], [-7.2376657, 41.0133727], [-7.23714, 41.013536], [-7.2361875, 41.0137297], [-7.235968, 41.0137274], [-7.2357731, 41.0136737], [-7.2352474, 41.0134614], [-7.2350279, 41.013431], [-7.234363, 41.0134474], [-7.2342239, 41.0135127], [-7.2341033, 41.01362], [-7.234026, 41.013767], [-7.2340136, 41.0139094], [-7.2340445, 41.014061], [-7.2341527, 41.0142034], [-7.2343445, 41.01439], [-7.2344001, 41.0144974], [-7.2344001, 41.0146094], [-7.2343074, 41.0150294], [-7.23423, 41.015139], [-7.2335992, 41.0156594], [-7.2335145, 41.015777], [-7.2334848, 41.0158787], [-7.2335126, 41.015979], [-7.2336192, 41.0161125], [-7.2338033, 41.016343], [-7.2338961, 41.0165087], [-7.2339301, 41.016686], [-7.2339023, 41.0168587], [-7.2338311, 41.0169847], [-7.2333673, 41.017421], [-7.2332992, 41.017526], [-7.2332621, 41.017666], [-7.233358, 41.0184849], [-7.2333302, 41.0185992], [-7.2331879, 41.0189259], [-7.2331601, 41.0190892], [-7.2331627, 41.0192092], [-7.233205, 41.0193661], [-7.2332312, 41.0195138], [-7.2332127, 41.0196305], [-7.2330364, 41.0201858], [-7.2330364, 41.0204004], [-7.2334972, 41.021329], [-7.2335528, 41.021539], [-7.2335652, 41.0218096], [-7.2335816, 41.0224704], [-7.2336316, 41.0244867], [-7.2336487, 41.0251785], [-7.2336239, 41.0253021], [-7.2335312, 41.0254328], [-7.2333487, 41.0255681], [-7.2317376, 41.0266646], [-7.2316325, 41.0267882], [-7.2316197, 41.0268131], [-7.2315644, 41.0269212], [-7.2314778, 41.0272781], [-7.2314871, 41.0273994], [-7.2315273, 41.0275207], [-7.2316881, 41.0278683], [-7.2317252, 41.0280363], [-7.231716, 41.0281809], [-7.2316263, 41.0283979], [-7.2314376, 41.0287805], [-7.2314005, 41.0289508], [-7.2314067, 41.0291304], [-7.2314562, 41.0292867], [-7.2315521, 41.02945], [-7.2316881, 41.02959], [-7.2320778, 41.0298862], [-7.2322107, 41.0300285], [-7.2323159, 41.0302128], [-7.2323623, 41.0304041], [-7.2323592, 41.0305814], [-7.2323035, 41.030775], [-7.2315923, 41.0325572], [-7.2315706, 41.0326995], [-7.2315799, 41.0328535], [-7.2316448, 41.0330261], [-7.2317623, 41.033229], [-7.232183, 41.0338991], [-7.2326468, 41.0346379], [-7.2327612, 41.0347802], [-7.2329003, 41.0349178], [-7.2334384, 41.035347], [-7.2335652, 41.0355103], [-7.2336394, 41.0356969], [-7.233627, 41.0359069], [-7.2335714, 41.0361145], [-7.2334508, 41.0364224], [-7.2334539, 41.036539], [-7.2335002, 41.0366789], [-7.2338095, 41.0373157], [-7.2339858, 41.037584], [-7.2340221, 41.037637], [-7.2343972, 41.0381845], [-7.2344156, 41.0382114], [-7.2344609, 41.0383139], [-7.2344713, 41.0383374], [-7.2345362, 41.0388598], [-7.234397, 41.039408], [-7.234363, 41.0396295], [-7.2343568, 41.0400004], [-7.2343878, 41.040138], [-7.2344527, 41.0402383], [-7.2347439, 41.0405792], [-7.2354577, 41.0414885], [-7.2354692, 41.0415183], [-7.2354856, 41.0415608], [-7.2354856, 41.0416984], [-7.2351299, 41.0427386], [-7.2349722, 41.0430535], [-7.2348269, 41.0432471], [-7.234471, 41.0435919], [-7.2344465, 41.0436156], [-7.2343255, 41.0437348], [-7.2338106, 41.0442418], [-7.2337734, 41.0442785], [-7.2336416, 41.0444083], [-7.2335029, 41.0445449], [-7.2324952, 41.0455373], [-7.2300311, 41.0479502], [-7.2299437, 41.0480777]]}, "properties": {"highway": "primary", "ref": "EN 324"}}, {"type": "Feature", "geometry": {"type": "LineString", "coordinates": [[-6.9823737, 40.701726], [-6.9823611, 40.701683], [-6.982273, 40.7013826], [-6.9822319, 40.7010268], [-6.98223, 40.7007065], [-6.982273, 40.7002439], [-6.9823296, 40.6999508], [-6.9824174, 40.6995983], [-6.9828993, 40.698047], [-6.9830195, 40.6976115], [-6.9830777, 40.6974008], [-6.9831504, 40.6969409], [-6.9831762, 40.6964841], [-6.9831479, 40.6959978], [-6.9830766, 40.6955322], [-6.9830331, 40.6953644], [-6.9829621, 40.6950903], [-6.9797961, 40.6854273], [-6.9797833, 40.6853848], [-6.9788195, 40.6824396], [-6.9785262, 40.6815312], [-6.9782401, 40.6805783], [-6.9779305, 40.6792092], [-6.9778001, 40.6786124], [-6.9774463, 40.6769129], [-6.9774466, 40.676908], [-6.9770812, 40.6751352], [-6.9765803, 40.6727055], [-6.9763185, 40.6714357], [-6.976203, 40.6711009], [-6.9760718, 40.6707602], [-6.9758221, 40.670283], [-6.9755763, 40.6699066], [-6.9753511, 40.6696349], [-6.9751259, 40.669381], [-6.9712865, 40.6656988], [-6.9708547, 40.6652451], [-6.970504, 40.6648074], [-6.9702198, 40.6644142], [-6.9700627, 40.664149], [-6.9699336, 40.663931], [-6.9694933, 40.6630286]]}, "properties": {"highway": "primary", "ref": "EN 324"}}, {"type": "Feature", "geometry": {"type": "LineString", "coordinates": [[-7.0831559, 40.3771351], [-7.0847499, 40.3755528], [-7.0867493, 40.373568], [-7.0873831, 40.3730325], [-7.0878185, 40.3727177], [-7.0881293, 40.3726158], [-7.0897263, 40.3725166], [-7.0906519, 40.3720876], [-7.0908762, 40.37188], [-7.0920455, 40.3707974], [-7.0928387, 40.3700286], [-7.0929365, 40.3699338], [-7.0936024, 40.3692883], [-7.094332, 40.3681439], [-7.0948606, 40.3677038], [-7.0949397, 40.3676605], [-7.0950623, 40.3675935], [-7.0955561, 40.3674632], [-7.0960278, 40.3675077], [-7.0970423, 40.3679645], [-7.0970956, 40.3679885], [-7.0983881, 40.3678706], [-7.1007583, 40.3661848], [-7.100801, 40.3661544], [-7.1013963, 40.3657302], [-7.1014785, 40.3656716], [-7.103104, 40.3645039], [-7.103117, 40.3644945]]}, "properties": {"highway": "primary", "name": "Rua do Emigrante", "ref": "EN 324", "source": "GPS;Plano Director Municipal do Sabugal"}}, {"type": "Feature", "geometry": {"type": "LineString", "coordinates": [[-7.0720151, 40.7654811], [-7.0719726, 40.7654048], [-7.0717726, 40.7650137], [-7.0711479, 40.7638652]]}, "properties": {"highway": "primary", "ref": "EN 324"}}, {"type": "Feature", "geometry": {"type": "LineString", "coordinates": [[-7.0464612, 40.5125357], [-7.0465024, 40.5125741], [-7.0466303, 40.5126931], [-7.0466665, 40.5128422], [-7.0465119, 40.5131365], [-7.0465108, 40.5132802], [-7.0466008, 40.513542], [-7.0466259, 40.5137163], [-7.0465205, 40.514322], [-7.0463852, 40.5150995], [-7.0463781, 40.5152089], [-7.0463054, 40.5163277], [-7.0461455, 40.5167326], [-7.0457867, 40.5176414], [-7.0457314, 40.5177816], [-7.0455758, 40.5179345], [-7.0452566, 40.5181078], [-7.0447638, 40.5183478], [-7.0423169, 40.5195392], [-7.0419629, 40.519898], [-7.0417706, 40.5203277], [-7.0414774, 40.5209828], [-7.0413808, 40.5212478], [-7.041303, 40.5218534], [-7.041382, 40.5235827], [-7.0414613, 40.5253192], [-7.0416142, 40.5286669], [-7.041602, 40.5292589], [-7.0415981, 40.5294457], [-7.0414908, 40.5296741], [-7.0406754, 40.5304202], [-7.0402409, 40.5307708], [-7.0393404, 40.5313683], [-7.0387081, 40.5317842], [-7.0352292, 40.5340723], [-7.0350021, 40.5342236], [-7.0347817, 40.534372], [-7.0347148, 40.5344156], [-7.0346577, 40.5344528], [-7.0295303, 40.5377939], [-7.0285586, 40.5384271], [-7.025242, 40.5405882], [-7.0249469, 40.5407839], [-7.0248302, 40.5409049], [-7.0247109, 40.5410285], [-7.0245499, 40.5413179], [-7.0244909, 40.5416236], [-7.0244767, 40.542047], [-7.0244319, 40.5433806], [-7.0244534, 40.5437149], [-7.0249952, 40.5458591], [-7.0250113, 40.5461893], [-7.0241369, 40.5492302], [-7.0239706, 40.5495848], [-7.0237667, 40.5498701], [-7.0234234, 40.5501921], [-7.0189173, 40.5542803], [-7.0187242, 40.5545004], [-7.0178709, 40.5559904], [-7.0178069, 40.5561022], [-7.0175011, 40.5565179], [-7.0136801, 40.5610644], [-7.0128077, 40.5621024], [-7.0127348, 40.5621891], [-7.0103708, 40.5656604], [-7.0096127, 40.5667736], [-7.0094974, 40.5669378], [-7.0091887, 40.5673773]]}, "properties": {"highway": "primary", "ref": "EN 324"}}, {"type": "Feature", "geometry": {"type": "LineString", "coordinates": [[-6.9934536, 40.5951876], [-6.9934644, 40.5950763], [-6.9935266, 40.5942202], [-6.9935914, 40.5935666], [-6.9936969, 40.5922032], [-6.9938208, 40.5917462], [-6.9938835, 40.5916365], [-6.9942816, 40.5911095], [-6.9950591, 40.590235], [-6.9952654, 40.590007], [-6.9954929, 40.5897556], [-6.996455, 40.5886925], [-6.9985145, 40.586398], [-6.9989119, 40.5859553], [-6.9995991, 40.5851139], [-6.9997748, 40.5844871], [-6.9998061, 40.5838799], [-6.9998731, 40.5826095], [-6.9999596, 40.5815337], [-7.0001281, 40.5803488], [-7.0003319, 40.5791089], [-7.0003921, 40.5787426], [-7.0004813, 40.5785341], [-7.0011248, 40.5770295], [-7.0013949, 40.5764425], [-7.0020403, 40.5750401], [-7.0027789, 40.574163], [-7.0041338, 40.5726603], [-7.00558, 40.5710711], [-7.0060229, 40.5705844], [-7.0060901, 40.5705302], [-7.0072875, 40.5695634], [-7.0074279, 40.5694554], [-7.0080477, 40.5689789], [-7.0083371, 40.568641], [-7.0084112, 40.5685355], [-7.0085275, 40.5683699], [-7.0085506, 40.5683371], [-7.0087665, 40.5680124], [-7.0091887, 40.5673773]]}, "properties": {"highway": "primary", "lanes": "2", "ref": "EN 324", "source": "Plano Director Municipal do Concelho de Almeida", "surface": "asphalt"}}, {"type": "Feature", "geometry": {"type": "LineString", "coordinates": [[-6.9928797, 40.5961491], [-6.9927845, 40.5963051], [-6.9927372, 40.5964404]]}, "properties": {"highway": "primary", "lanes": "1", "oneway": "yes", "ref": "EN 324", "source": "Plano Director Municipal do Concelho de Almeida", "surface": "asphalt"}}, {"type": "Feature", "geometry": {"type": "LineString", "coordinates": [[-6.9930096, 40.5957397], [-6.9929585, 40.5959101], [-6.9928797, 40.5961491]]}, "properties": {"highway": "primary", "lanes": "2", "oneway": "yes", "ref": "EN 324", "source": "Plano Director Municipal do Concelho de Almeida", "surface": "asphalt"}}, {"type": "Feature", "geometry": {"type": "LineString", "coordinates": [[-6.9934749, 40.5955933], [-6.9934536, 40.5955045], [-6.9934617, 40.5953086], [-6.9934536, 40.5951876]]}, "properties": {"highway": "primary", "lanes": "1", "oneway": "yes", "ref": "EN 324", "source": "Plano Director Municipal do Concelho de Almeida", "surface": "asphalt"}}, {"type": "Feature", "geometry": {"type": "LineString", "coordinates": [[-6.9927372, 40.5964404], [-6.9928433, 40.5963267], [-6.9930657, 40.5960062], [-6.993116, 40.5959495], [-6.9931998, 40.5958885], [-6.9932422, 40.5958577]]}, "properties": {"highway": "primary", "lanes": "1", "oneway": "yes", "ref": "EN 324", "source": "Plano Director Municipal do Concelho de Almeida", "surface": "asphalt"}}, {"type": "Feature", "geometry": {"type": "LineString", "coordinates": [[-6.993089, 40.5955148], [-6.9930425, 40.5955501], [-6.9930096, 40.5955933], [-6.9929926, 40.5956415], [-6.9929926, 40.5956915], [-6.9930096, 40.5957397], [-6.9930476, 40.5957878], [-6.9931023, 40.5958255], [-6.9931691, 40.5958495], [-6.9932422, 40.5958577], [-6.9932997, 40.5958527], [-6.9933731, 40.5958299], [-6.9934334, 40.595791], [-6.9934749, 40.5957397], [-6.9934919, 40.5956915], [-6.9934919, 40.5956415], [-6.9934749, 40.5955933], [-6.9934369, 40.5955452], [-6.9933821, 40.5955075], [-6.9933153, 40.5954835], [-6.9932422, 40.5954753], [-6.9931931, 40.595479], [-6.9931459, 40.5954898], [-6.993089, 40.5955148]]}, "properties": {"highway": "primary", "junction": "roundabout", "lanes": "2", "ref": "EN 16;EN 324", "source": "Plano Director Municipal do Concelho de Almeida", "surface": "asphalt"}}, {"type": "Feature", "geometry": {"type": "LineString", "coordinates": [[-6.9826404, 40.6077502], [-6.9828094, 40.6072493]]}, "properties": {"bridge": "yes", "highway": "primary", "lanes": "1", "layer": "1", "oneway": "yes", "ref": "EN 324", "source": "bing", "surface": "asphalt"}}, {"type": "Feature", "geometry": {"type": "LineString", "coordinates": [[-6.9825624, 40.607734], [-6.9824859, 40.6079843], [-6.9824526, 40.6080659], [-6.9823883, 40.6081514]]}, "properties": {"highway": "primary", "lanes": "1", "oneway": "yes", "ref": "EN 324", "surface": "asphalt"}}, {"type": "Feature", "geometry": {"type": "LineString", "coordinates": [[-6.9826723, 40.6081761], [-6.9825948, 40.6080333], [-6.9825922, 40.6079538], [-6.9826404, 40.6077502]]}, "properties": {"highway": "primary", "lanes": "1", "oneway": "yes", "ref": "EN 324", "source": "bing", "surface": "asphalt"}}, {"type": "Feature", "geometry": {"type": "LineString", "coordinates": [[-6.9828094, 40.6072493], [-6.9829489, 40.6069296], [-6.9830137, 40.6068702], [-6.9831209, 40.6068089]]}, "properties": {"highway": "primary", "lanes": "1", "oneway": "yes", "ref": "EN 324", "source": "bing", "surface": "asphalt"}}, {"type": "Feature", "geometry": {"type": "LineString", "coordinates": [[-7.045714, 40.5119705], [-7.0464612, 40.5125357]]}, "properties": {"bridge": "yes", "highway": "primary", "layer": "1", "ref": "EN 324", "source": "Bing"}}, {"type": "Feature", "geometry": {"type": "LineString", "coordinates": [[-7.0641244, 40.766495], [-7.0642622, 40.7667212], [-7.0642919, 40.76677]]}, "properties": {"highway": "primary", "oneway": "yes", "ref": "EN 324"}}, {"type": "Feature", "geometry": {"type": "LineString", "coordinates": [[-7.0641244, 40.766495], [-7.0638932, 40.7663026], [-7.0634229, 40.7658914], [-7.0629864, 40.7655604], [-7.0624181, 40.765285], [-7.0619435, 40.7651549], [-7.0617354, 40.7650978], [-7.0610011, 40.7650467], [-7.0580098, 40.7652255], [-7.0547507, 40.7654204], [-7.0540296, 40.7654513], [-7.0535586, 40.7654495], [-7.0531936, 40.7654281], [-7.0530968, 40.7654224], [-7.0525385, 40.7653476]]}, "properties": {"highway": "primary", "ref": "EN 324"}}, {"type": "Feature", "geometry": {"type": "LineString", "coordinates": [[-7.0644788, 40.7666678], [-7.0643584, 40.7666273], [-7.0641244, 40.766495]]}, "properties": {"highway": "primary", "oneway": "yes", "ref": "EN 324"}}, {"type": "Feature", "geometry": {"type": "LineString", "coordinates": [[-6.9873027, 40.7126928], [-6.9863741, 40.7114764], [-6.9859938, 40.7108986], [-6.9857303, 40.7104142], [-6.9855293, 40.7099476], [-6.9850805, 40.7087713], [-6.9830962, 40.7037224], [-6.9827637, 40.7028595], [-6.9825706, 40.7023581], [-6.9824377, 40.7019935], [-6.9823737, 40.701726]]}, "properties": {"highway": "primary", "ref": "EN 324"}}, {"type": "Feature", "geometry": {"type": "LineString", "coordinates": [[-6.9874378, 40.7128807], [-6.9873027, 40.7126928]]}, "properties": {"highway": "primary", "ref": "EN 324"}}, {"type": "Feature", "geometry": {"type": "LineString", "coordinates": [[-7.0505523, 40.7645394], [-7.0502565, 40.7643327]]}, "properties": {"highway": "primary", "ref": "EN 324"}}, {"type": "Feature", "geometry": {"type": "LineString", "coordinates": [[-7.051505, 40.7650409], [-7.0510456, 40.7648309], [-7.0506563, 40.7646121], [-7.0505523, 40.7645394]]}, "properties": {"highway": "primary", "ref": "EN 324"}}, {"type": "Feature", "geometry": {"type": "LineString", "coordinates": [[-6.9950374, 40.7259358], [-6.9947001, 40.7253125], [-6.9943706, 40.7247139]]}, "properties": {"highway": "primary", "ref": "EN 324"}}, {"type": "Feature", "geometry": {"type": "LineString", "coordinates": [[-6.9943706, 40.7247139], [-6.9940496, 40.7241674], [-6.9937537, 40.7237453], [-6.993446, 40.7233499], [-6.9930145, 40.722891], [-6.9925344, 40.7224256], [-6.9917493, 40.7217232], [-6.9915245, 40.7215229], [-6.9911666, 40.7211898], [-6.9907789, 40.720757], [-6.9905007, 40.7203954]]}, "properties": {"highway": "primary", "ref": "EN 324"}}, {"type": "Feature", "geometry": {"type": "LineString", "coordinates": [[-6.9905007, 40.7203954], [-6.9902783, 40.7200294], [-6.9901032, 40.7196636], [-6.9896461, 40.7183442], [-6.9886269, 40.7152398], [-6.9884276, 40.7146373], [-6.9882362, 40.7141534], [-6.9879613, 40.7136437], [-6.9876903, 40.7132319], [-6.9874378, 40.7128807]]}, "properties": {"highway": "primary", "ref": "EN 324"}}, {"type": "Feature", "geometry": {"type": "LineString", "coordinates": [[-7.2299708, 41.0481618], [-7.2299437, 41.0480777]]}, "properties": {"highway": "primary", "oneway": "yes", "ref": "EN 324"}}, {"type": "Feature", "geometry": {"type": "LineString", "coordinates": [[-7.2298229, 41.0481583], [-7.2297737, 41.0482761], [-7.2298323, 41.0483383]]}, "properties": {"highway": "primary", "oneway": "yes", "ref": "EN 324"}}, {"type": "Feature", "geometry": {"type": "LineString", "coordinates": [[-7.2302327, 41.048363], [-7.2300835, 41.0482933], [-7.2300272, 41.0482285], [-7.2299708, 41.0481618]]}, "properties": {"highway": "primary", "oneway": "yes", "ref": "EN 324"}}, {"type": "Feature", "geometry": {"type": "LineString", "coordinates": [[-7.2298323, 41.0483383], [-7.2299293, 41.0482902], [-7.2299708, 41.0481618]]}, "properties": {"highway": "primary", "oneway": "yes", "ref": "EN 324"}}, {"type": "Feature", "geometry": {"type": "LineString", "coordinates": [[-7.2299437, 41.0480777], [-7.2298229, 41.0481583], [-7.2295283, 41.0482882], [-7.2294246, 41.048313]]}, "properties": {"highway": "primary", "oneway": "yes", "ref": "EN 324"}}, {"type": "Feature", "geometry": {"type": "LineString", "coordinates": [[-7.0411993, 40.4438606], [-7.041248, 40.4433529]]}, "properties": {"bridge": "yes", "highway": "primary", "layer": "1", "ref": "EN 324", "source": "GPS;Plano Director Municipal do Sabugal", "surface": "asphalt"}}, {"type": "Feature", "geometry": {"type": "LineString", "coordinates": [[-7.041248, 40.4433529], [-7.0413161, 40.4423085], [-7.0413102, 40.4421339], [-7.0412874, 40.4420061], [-7.0412633, 40.4419248], [-7.0411758, 40.4416302], [-7.0411363, 40.4414969], [-7.0410667, 40.4412624], [-7.0408528, 40.4406709], [-7.0407605, 40.4403216], [-7.0407295, 40.4401644], [-7.0407295, 40.4400673], [-7.0407531, 40.4399101], [-7.0409258, 40.4392454], [-7.0410733, 40.438678], [-7.0411425, 40.4385613], [-7.041254, 40.4384843], [-7.0415207, 40.4383621], [-7.0416736, 40.4382892], [-7.042176, 40.4377683], [-7.0422293, 40.4376675], [-7.0422489, 40.4375675], [-7.0422524, 40.4374428], [-7.0421778, 40.4373144], [-7.0419292, 40.4370998], [-7.0418345, 40.4369108], [-7.0420384, 40.4362199], [-7.0421577, 40.436046], [-7.0428068, 40.4354286], [-7.0430482, 40.4348619], [-7.0431923, 40.4344754], [-7.0431802, 40.4343746], [-7.0431469, 40.4340969], [-7.042902, 40.4337568], [-7.0424622, 40.4335816], [-7.0419727, 40.4335524], [-7.0416199, 40.4334857], [-7.0413839, 40.4333048], [-7.0412511, 40.4326441], [-7.0411809, 40.4324767], [-7.0407992, 40.4320612], [-7.0408046, 40.4318332], [-7.0409145, 40.4316854], [-7.0412552, 40.4313703], [-7.041444, 40.4311482], [-7.0413196, 40.4296373], [-7.0412605, 40.4289187], [-7.0412622, 40.428345], [-7.0412623, 40.4283039], [-7.0412659, 40.4270519], [-7.0413088, 40.4267705], [-7.0417111, 40.4252721], [-7.0422327, 40.4245882], [-7.0433647, 40.4231532], [-7.0438181, 40.4226453], [-7.0438522, 40.4226071], [-7.0443311, 40.4223081], [-7.0447981, 40.4220035], [-7.0449802, 40.4219351], [-7.0456062, 40.4218132], [-7.0457238, 40.4217927], [-7.0459153, 40.4217524], [-7.0460677, 40.4216939], [-7.0462019, 40.4215903], [-7.0464394, 40.4213192], [-7.046498, 40.4212522], [-7.0466481, 40.4210808], [-7.0467606, 40.4210214], [-7.0470268, 40.4208807], [-7.0470583, 40.4208603], [-7.0473485, 40.4206728], [-7.0475403, 40.4205489], [-7.047703, 40.4204383], [-7.0483264, 40.4200145], [-7.0495283, 40.4191975], [-7.050081, 40.4188451], [-7.0505599, 40.4185398], [-7.0510305, 40.4182398], [-7.0511418, 40.418025], [-7.051166, 40.4178181], [-7.0515549, 40.4144891], [-7.0516214, 40.4143494], [-7.051678, 40.4142927], [-7.0523095, 40.4136598], [-7.0533895, 40.4127508], [-7.0540344, 40.4122379], [-7.0543135, 40.4120139], [-7.0544549, 40.4119004], [-7.0552563, 40.4102026], [-7.0552898, 40.4099837], [-7.055149, 40.408627], [-7.0550215, 40.407271], [-7.0549035, 40.4063616], [-7.054844, 40.405963], [-7.0548184, 40.4057911], [-7.054818, 40.4055827], [-7.0548302, 40.4055021], [-7.0548827, 40.4054238], [-7.0549952, 40.4053179], [-7.0553648, 40.4050162], [-7.0564356, 40.4041269], [-7.0569017, 40.4037399], [-7.0582149, 40.4026769], [-7.0588095, 40.4021956], [-7.0594217, 40.4017], [-7.0612746, 40.4001739], [-7.0614463, 40.4000278], [-7.0615518, 40.3999155], [-7.0616018, 40.3998344], [-7.0616353, 40.3997325], [-7.0617173, 40.3993428], [-7.0619996, 40.3980891], [-7.0620315, 40.3979474], [-7.0621289, 40.3975147], [-7.0623423, 40.3966942], [-7.0628191, 40.3956128], [-7.0632501, 40.3946352], [-7.0633454, 40.3944619], [-7.0635244, 40.3942846], [-7.0635545, 40.3942732], [-7.0642038, 40.3940272], [-7.0649479, 40.3938001], [-7.0665874, 40.3937726], [-7.0681942, 40.3941489], [-7.0685814, 40.3942002], [-7.0689302, 40.3941336], [-7.0696556, 40.3934795], [-7.0700793, 40.393116], [-7.071501, 40.3924989], [-7.0724222, 40.3919532], [-7.0727082, 40.3917838], [-7.0734322, 40.3913549], [-7.0745051, 40.3901455], [-7.0759399, 40.3886302], [-7.0765525, 40.3879248], [-7.076948, 40.3874668], [-7.077528, 40.3863597], [-7.078307, 40.3849514], [-7.0785689, 40.3844422], [-7.0782675, 40.3835885], [-7.0783602, 40.3832873], [-7.0811086, 40.3799222], [-7.0831559, 40.3771351]]}, "properties": {"highway": "primary", "ref": "EN 324", "source": "GPS;Plano Director Municipal do Sabugal", "surface": "asphalt"}}, {"type": "Feature", "geometry": {"type": "LineString", "coordinates": [[-7.221712, 40.9186494], [-7.2236298, 40.9212577], [-7.2237842, 40.9215573], [-7.2240555, 40.9224403], [-7.2241014, 40.9227241], [-7.2240853, 40.9235893], [-7.2240847, 40.9236197], [-7.2239582, 40.9268333], [-7.223901, 40.9282865], [-7.2237424, 40.9335551], [-7.2237276, 40.9340467], [-7.2236965, 40.9350781], [-7.2237925, 40.9356677], [-7.2239386, 40.9360934], [-7.2240472, 40.9362581], [-7.2241128, 40.9363576], [-7.2244352, 40.9368469], [-7.2247316, 40.9371653], [-7.2250195, 40.9373891], [-7.226209, 40.9380355], [-7.2290243, 40.9388746], [-7.2326997, 40.9399701], [-7.2357202, 40.9408704], [-7.2377069, 40.9414625], [-7.2382153, 40.9416757], [-7.2385835, 40.9419313], [-7.2388732, 40.9422983], [-7.2390769, 40.9426682], [-7.2391498, 40.9429604], [-7.2391853, 40.9435138], [-7.2391461, 40.9444498], [-7.2392414, 40.9447971], [-7.2394825, 40.9451317], [-7.240231, 40.9458577], [-7.2404648, 40.9460845], [-7.2414283, 40.947019], [-7.2417514, 40.947577], [-7.242688, 40.9509789], [-7.2432184, 40.9529052], [-7.243434, 40.9536881], [-7.2436165, 40.9541051], [-7.2439045, 40.9544511], [-7.2439515, 40.9545075], [-7.2440956, 40.9546806], [-7.2447299, 40.9551148], [-7.2464003, 40.9558747], [-7.2496305, 40.9573443], [-7.2503468, 40.9577165], [-7.2508761, 40.9580783], [-7.2511134, 40.958323], [-7.2514419, 40.9588536], [-7.2516655, 40.9593912], [-7.251734, 40.9598012], [-7.2517694, 40.9608193], [-7.251786, 40.9612985], [-7.2518391, 40.9635775]]}, "properties": {"highway": "primary", "ref": "EN 324"}}, {"type": "Feature", "geometry": {"type": "LineString", "coordinates": [[-7.221641, 40.9185528], [-7.221671, 40.9185936], [-7.221712, 40.9186494]]}, "properties": {"highway": "primary", "ref": "EN 324"}}, {"type": "Feature", "geometry": {"type": "LineString", "coordinates": [[-7.2188867, 40.9097131], [-7.2191322, 40.9098475], [-7.2214512, 40.9110679], [-7.2218143, 40.9113045], [-7.2221438, 40.9116443], [-7.2221995, 40.9117271], [-7.2223527, 40.9119546], [-7.2223676, 40.9119768], [-7.2224303, 40.9122577], [-7.2224654, 40.9124147], [-7.2224236, 40.9129099], [-7.2211132, 40.9165336], [-7.221013, 40.91724], [-7.2211758, 40.9178645], [-7.2214178, 40.9182492], [-7.221641, 40.9185528]]}, "properties": {"highway": "primary", "ref": "EN 324"}}, {"type": "Feature", "geometry": {"type": "LineString", "coordinates": [[-7.0405144, 40.4606481], [-7.040588, 40.4603209], [-7.0406935, 40.4598519], [-7.0409167, 40.4592767], [-7.0411739, 40.4587331], [-7.0414602, 40.4580664], [-7.04278, 40.4552977], [-7.0429203, 40.45499], [-7.0431823, 40.4542503], [-7.0431501, 40.4530614], [-7.0430147, 40.4493569], [-7.042998, 40.4487817], [-7.0429396, 40.4467659], [-7.0428782, 40.4464397], [-7.0426459, 40.446075], [-7.0423431, 40.4457032], [-7.0413744, 40.4445138], [-7.0412061, 40.4441176], [-7.0411993, 40.4438606]]}, "properties": {"highway": "primary", "ref": "EN 324", "source": "GPS;Plano Director Municipal do Sabugal", "surface": "asphalt"}}, {"type": "Feature", "geometry": {"type": "LineString", "coordinates": [[-7.040463, 40.4608895], [-7.0405144, 40.4606481]]}, "properties": {"bridge": "yes", "highway": "primary", "layer": "1", "ref": "EN 324", "source": "GPS;Plano Director Municipal do Sabugal"}}, {"type": "Feature", "geometry": {"type": "LineString", "coordinates": [[-6.9834879, 40.6059053], [-6.9831218, 40.6064022], [-6.9830864, 40.6064301], [-6.9830267, 40.606477]]}, "properties": {"highway": "primary", "lanes": "1", "oneway": "yes", "ref": "EN 324", "source": "Plano Director Municipal do Concelho de Almeida", "surface": "asphalt"}}, {"type": "Feature", "geometry": {"type": "LineString", "coordinates": [[-6.9832283, 40.6065565], [-6.9832294, 40.6064273], [-6.9834879, 40.6059053]]}, "properties": {"highway": "primary", "lanes": "1", "oneway": "yes", "ref": "EN 324", "source": "Plano Director Municipal do Concelho de Almeida", "surface": "asphalt"}}, {"type": "Feature", "geometry": {"type": "LineString", "coordinates": [[-6.9823895, 40.6087493], [-6.9824564, 40.6085846], [-6.9825089, 40.6085159], [-6.9825628, 40.6084564]]}, "properties": {"highway": "primary", "lanes": "1", "oneway": "yes", "ref": "EN 324", "surface": "asphalt"}}, {"type": "Feature", "geometry": {"type": "LineString", "coordinates": [[-6.9823496, 40.6084084], [-6.9823748, 40.6085291], [-6.9823895, 40.6087493]]}, "properties": {"highway": "primary", "lanes": "1", "oneway": "yes", "ref": "EN 324", "surface": "asphalt"}}, {"type": "Feature", "geometry": {"type": "LineString", "coordinates": [[-6.9684218, 40.6608245], [-6.9689332, 40.6618875]]}, "properties": {"highway": "primary", "ref": "EN 324"}}, {"type": "Feature", "geometry": {"type": "LineString", "coordinates": [[-6.9694933, 40.6630286], [-6.9694454, 40.6629357]]}, "properties": {"highway": "primary", "ref": "EN 324"}}, {"type": "Feature", "geometry": {"type": "LineString", "coordinates": [[-6.9694454, 40.6629357], [-6.9689332, 40.6618875]]}, "properties": {"highway": "primary", "ref": "EN 324"}}, {"type": "Feature", "geometry": {"type": "LineString", "coordinates": [[-7.0081991, 40.7453265], [-7.0080055, 40.7451109]]}, "properties": {"highway": "primary", "ref": "EN 324"}}, {"type": "Feature", "geometry": {"type": "LineString", "coordinates": [[-7.0080055, 40.7451109], [-7.0078793, 40.7449615]]}, "properties": {"highway": "primary", "ref": "EN 324"}}, {"type": "Feature", "geometry": {"type": "LineString", "coordinates": [[-7.0078793, 40.7449615], [-7.0045399, 40.7410088], [-7.0027804, 40.7387825], [-7.0005701, 40.7357302], [-7.0000347, 40.7349721], [-6.9995305, 40.7341844], [-6.998835, 40.7329703], [-6.9950374, 40.7259358]]}, "properties": {"highway": "primary", "ref": "EN 324"}}, {"type": "Feature", "geometry": {"type": "LineString", "coordinates": [[-7.03783, 40.7608672], [-7.0375579, 40.760852], [-7.0370806, 40.7608749], [-7.036714, 40.7609188], [-7.0346302, 40.7612869], [-7.0338369, 40.7613841], [-7.0333086, 40.7613971], [-7.0327941, 40.7613472], [-7.0315495, 40.7610762], [-7.0291488, 40.7604774], [-7.0277134, 40.7601193], [-7.026339, 40.7597288], [-7.0257191, 40.7595061], [-7.0235842, 40.7585415], [-7.0213726, 40.7574732], [-7.0190063, 40.7562945], [-7.0185938, 40.7560373], [-7.0182367, 40.7557906], [-7.0169202, 40.7547203], [-7.0147342, 40.7528339], [-7.0140301, 40.7521802], [-7.0133153, 40.7513566], [-7.0120702, 40.7499217], [-7.0081991, 40.7453265]]}, "properties": {"highway": "primary", "ref": "EN 324"}}, {"type": "Feature", "geometry": {"type": "LineString", "coordinates": [[-7.0381355, 40.7608962], [-7.03783, 40.7608672]]}, "properties": {"highway": "primary", "ref": "EN 324"}}, {"type": "Feature", "geometry": {"type": "LineString", "coordinates": [[-7.0383675, 40.7609292], [-7.0381355, 40.7608962]]}, "properties": {"highway": "primary", "ref": "EN 324"}}, {"type": "Feature", "geometry": {"type": "MultiPolygon", "coordinates": [[[[-6.9832633, 40.60666], [-6.9832584, 40.6066117], [-6.9832465, 40.6065831], [-6.9832283, 40.6065565], [-6.9831902, 40.606522], [-6.9831416, 40.6064962], [-6.9830858, 40.6064808], [-6.9830267, 40.606477], [-6.9829746, 40.6064835], [-6.9829258, 40.6064989], [-6.9828831, 40.6065225], [-6.9828432, 40.6065597], [-6.9828182, 40.6066038], [-6.9828103, 40.6066514], [-6.98282, 40.6066988], [-6.9828466, 40.6067424], [-6.9828993, 40.6067857], [-6.9829681, 40.6068129], [-6.9830449, 40.606821], [-6.9831209, 40.6068089], [-6.9831762, 40.6067849], [-6.9832205, 40.6067501], [-6.9832503, 40.6067073], [-6.9832633, 40.60666]]]]}, "properties": {"highway": "primary", "junction": "roundabout", "lanes": "2", "ref": "EN 324", "surface": "asphalt"}}, {"type": "Feature", "geometry": {"type": "MultiPolygon", "coordinates": [[[[-6.9827329, 40.608282], [-6.9827149, 40.608225], [-6.9826723, 40.6081761], [-6.9826102, 40.6081412], [-6.9825362, 40.6081245], [-6.9824591, 40.6081281], [-6.9823883, 40.6081514], [-6.9823322, 40.6081918], [-6.9822977, 40.6082442], [-6.982289, 40.6083025], [-6.982307, 40.6083595], [-6.9823496, 40.6084084], [-6.9824117, 40.6084433], [-6.9824857, 40.60846], [-6.9825628, 40.6084564], [-6.9826337, 40.6084331], [-6.9826897, 40.6083927], [-6.9827242, 40.6083402], [-6.9827329, 40.608282]]]]}, "properties": {"highway": "primary", "junction": "roundabout", "lanes": "2", "ref": "EN 324", "surface": "asphalt"}}, {"type": "Feature", "geometry": {"type": "MultiPolygon", "coordinates": [[[[-6.9934919, 40.5956415], [-6.9934749, 40.5955933], [-6.9934369, 40.5955452], [-6.9933821, 40.5955075], [-6.9933153, 40.5954835], [-6.9932422, 40.5954753], [-6.9931931, 40.595479], [-6.9931459, 40.5954898], [-6.993089, 40.5955148], [-6.9930425, 40.5955501], [-6.9930096, 40.5955933], [-6.9929926, 40.5956415], [-6.9929926, 40.5956915], [-6.9930096, 40.5957397], [-6.9930476, 40.5957878], [-6.9931023, 40.5958255], [-6.9931691, 40.5958495], [-6.9932422, 40.5958577], [-6.9932997, 40.5958527], [-6.9933731, 40.5958299], [-6.9934334, 40.595791], [-6.9934749, 40.5957397], [-6.9934919, 40.5956915], [-6.9934919, 40.5956415]]]]}, "properties": {"highway": "primary", "junction": "roundabout", "lanes": "2", "ref": "EN 16;EN 324", "source": "Plano Director Municipal do Concelho de Almeida", "surface": "asphalt"}}]}