{"type": "FeatureCollection", "features": [{"type": "Feature", "geometry": {"type": "LineString", "coordinates": [[-7.960945, 39.9797112], [-7.9637053, 39.9790269]]}, "properties": {"bridge": "yes", "highway": "primary", "layer": "1", "ref": "EN 351"}}, {"type": "Feature", "geometry": {"type": "LineString", "coordinates": [[-7.9637053, 39.9790269], [-7.96396, 39.9789735], [-7.9642175, 39.9789352], [-7.9643157, 39.9789315], [-7.9644141, 39.9789343], [-7.9645117, 39.9789436], [-7.9646079, 39.9789594], [-7.9647029, 39.9789818], [-7.9647944, 39.9790114], [-7.9648817, 39.9790478], [-7.9649637, 39.9790908], [-7.9650219, 39.9791275], [-7.9650764, 39.9791675], [-7.9651823, 39.9792496], [-7.965281, 39.9793369], [-7.9653692, 39.9794258], [-7.96545, 39.9795187], [-7.965621, 39.9797386], [-7.9659711, 39.9801426], [-7.9666517, 39.9807527], [-7.966971, 39.9811768], [-7.9671055, 39.9816858], [-7.9671013, 39.9834388], [-7.967319, 39.984408], [-7.967652, 39.98547], [-7.9678364, 39.9865982], [-7.9681444, 39.9877291], [-7.9682789, 39.9890391], [-7.9684147, 39.9895387], [-7.9690914, 39.990202], [-7.9693049, 39.990492], [-7.9693816, 39.9908296], [-7.9693599, 39.9913734], [-7.9695182, 39.9916555], [-7.9696308, 39.9917628], [-7.9698878, 39.9918781], [-7.9700911, 39.9919203], [-7.970458, 39.9919964], [-7.9707206, 39.9921612], [-7.9709161, 39.9924167], [-7.9712755, 39.992952], [-7.9715497, 39.9932078], [-7.9719493, 39.9932914], [-7.9722033, 39.9933013], [-7.9725064, 39.9933124], [-7.9728905, 39.9933013], [-7.9732942, 39.9933371], [-7.973556, 39.9934441], [-7.9737459, 39.9936042], [-7.9738365, 39.9938177], [-7.9737976, 39.9940238], [-7.9737386, 39.9942295], [-7.9736265, 39.9945042], [-7.9733446, 39.9950958], [-7.972941, 39.996119], [-7.9726429, 39.9968156], [-7.972512, 39.9971214], [-7.9724305, 39.9974751], [-7.9724573, 39.9976238], [-7.9725311, 39.9977804], [-7.9727234, 39.9979495], [-7.9730801, 39.9981246], [-7.9734444, 39.9981659], [-7.9739065, 39.9981618], [-7.9742391, 39.9981905], [-7.9745106, 39.9982777], [-7.9747332, 39.9985643], [-7.974764, 39.9989637], [-7.9747526, 39.9990766], [-7.9746897, 39.9996981], [-7.974942, 40.000056], [-7.9751613, 40.0001528], [-7.9760871, 40.0005617], [-7.9761727, 40.0005995], [-7.9764927, 40.0009135], [-7.9765585, 40.0010865], [-7.976576, 40.0014039], [-7.9763787, 40.003021], [-7.9764031, 40.0032241]]}, "properties": {"highway": "primary", "ref": "EN 351"}}, {"type": "Feature", "geometry": {"type": "LineString", "coordinates": [[-7.8924879, 39.7348778], [-7.8925428, 39.7348643], [-7.892589, 39.7348378], [-7.8926214, 39.7348011], [-7.8926367, 39.7347584], [-7.8926353, 39.7347233], [-7.892617, 39.7346816], [-7.8925822, 39.7346466], [-7.8925346, 39.7346222], [-7.8924792, 39.734611], [-7.892428, 39.7346131], [-7.8923763, 39.734628], [-7.8923332, 39.7346545], [-7.8923031, 39.7346901], [-7.8922889, 39.7347311], [-7.8922893, 39.7347608], [-7.8922981, 39.7347898], [-7.8923217, 39.7348241], [-7.892357, 39.7348518], [-7.8924012, 39.7348705], [-7.8924504, 39.7348788], [-7.8924879, 39.7348778]]}, "properties": {"highway": "primary", "junction": "roundabout", "lanes": "2", "ref": "EN 351", "surface": "asphalt"}}, {"type": "Feature", "geometry": {"type": "LineString", "coordinates": [[-7.9042683, 39.9166826], [-7.9041409, 39.916247]]}, "properties": {"bridge": "yes", "highway": "primary", "layer": "1", "ref": "EN 351"}}, {"type": "Feature", "geometry": {"type": "LineString", "coordinates": [[-7.9041409, 39.916247], [-7.9040796, 39.9160539], [-7.9039508, 39.9158413], [-7.9036818, 39.9156511], [-7.903498, 39.9155935], [-7.9031894, 39.9155659], [-7.9021072, 39.9157846], [-7.9019273, 39.9158286], [-7.9018322, 39.9158518], [-7.9015011, 39.9160035], [-7.9006485, 39.9167716], [-7.9004288, 39.9169069], [-7.9000362, 39.9170064], [-7.8985231, 39.917139], [-7.8968534, 39.917276], [-7.8967308, 39.9172805], [-7.8962583, 39.9172976], [-7.8955161, 39.9172113], [-7.8936802, 39.916998], [-7.893413, 39.916967], [-7.8932453, 39.9169464], [-7.8931069, 39.9169295], [-7.8928945, 39.9169034], [-7.8922728, 39.9169467], [-7.891434, 39.9170404], [-7.890023, 39.917203], [-7.8887237, 39.9173207], [-7.888489, 39.917342], [-7.8880165, 39.9172725], [-7.8875396, 39.9170659], [-7.8873439, 39.9169163], [-7.8870643, 39.9166129], [-7.8869594, 39.9163798], [-7.886907, 39.9160117], [-7.8870534, 39.9155617], [-7.887183, 39.9153833], [-7.8875518, 39.9148116], [-7.8879693, 39.9142109], [-7.8881471, 39.9138688], [-7.8882187, 39.9134834], [-7.8881651, 39.912594], [-7.8882913, 39.9121901], [-7.8884932, 39.9119698], [-7.8889442, 39.9117226], [-7.8896803, 39.9114344], [-7.8900626, 39.9111831], [-7.8901475, 39.9111166], [-7.8910096, 39.9103571], [-7.8912315, 39.9098823], [-7.8913578, 39.9096121], [-7.8918476, 39.9081379], [-7.8918627, 39.9080926], [-7.8918136, 39.9054239], [-7.8917647, 39.9027656], [-7.8917577, 39.9023848], [-7.8918092, 39.9018749], [-7.891976, 39.9015029], [-7.8923529, 39.9009333], [-7.8924564, 39.9007432], [-7.892558, 39.9003629], [-7.8924993, 39.9000709], [-7.8923518, 39.899882], [-7.8920213, 39.8996281], [-7.8915155, 39.8994734], [-7.891203, 39.899414], [-7.8906834, 39.8992798], [-7.8904152, 39.8991738], [-7.8901119, 39.8989071], [-7.8899584, 39.8986174], [-7.8895145, 39.8977492], [-7.889025, 39.896893], [-7.88847, 39.8961114], [-7.8878547, 39.8955157], [-7.8878158, 39.895478], [-7.8876723, 39.8953017], [-7.8873349, 39.8949872], [-7.8868184, 39.8947829], [-7.8864921, 39.8947255], [-7.8859699, 39.8946217], [-7.8853975, 39.8945351], [-7.8842932, 39.894309], [-7.8837024, 39.8940634], [-7.88359, 39.8940167], [-7.8831351, 39.8936583], [-7.8817407, 39.8916675], [-7.8816601, 39.8911423], [-7.8821033, 39.8899523], [-7.882152, 39.8895703], [-7.8820659, 39.8892964], [-7.8806864, 39.887534], [-7.8803475, 39.8870381], [-7.8799302, 39.8865591], [-7.8796875, 39.8859645], [-7.8792829, 39.8845243], [-7.8790706, 39.884188], [-7.8787438, 39.8839728], [-7.8782155, 39.883908], [-7.8772878, 39.883944], [-7.8760461, 39.8837005], [-7.8750133, 39.8834184], [-7.8747863, 39.8833129], [-7.8744858, 39.8830037], [-7.874425, 39.8828344], [-7.8743994, 39.8825473], [-7.874441, 39.8823805], [-7.8749942, 39.8815046], [-7.8754002, 39.8808053], [-7.8756944, 39.880474], [-7.8758958, 39.8803366], [-7.8762156, 39.880182], [-7.8768078, 39.8799091], [-7.8771364, 39.8797576], [-7.8774402, 39.8794901], [-7.8775809, 39.8792496], [-7.8776928, 39.878992], [-7.8778079, 39.8786853], [-7.8779454, 39.8781994], [-7.8780637, 39.8775983], [-7.8780157, 39.8760401], [-7.8779198, 39.8757604], [-7.8772707, 39.874666], [-7.8771205, 39.8740164], [-7.8770218, 39.8735896], [-7.8769223, 39.8734092], [-7.8767663, 39.873253], [-7.8763344, 39.8729927], [-7.8754939, 39.8726182], [-7.8744533, 39.8721546], [-7.8726288, 39.8713425], [-7.8724003, 39.8712265], [-7.8723281, 39.8711898], [-7.8720477, 39.8709868], [-7.8706414, 39.8698398], [-7.8701836, 39.869582], [-7.8699542, 39.8695196], [-7.8696809, 39.8695026], [-7.8693917, 39.8695155], [-7.8685873, 39.8695915], [-7.8679537, 39.8695034], [-7.867568, 39.8693193], [-7.8673611, 39.8691537], [-7.8672898, 39.869091], [-7.8669395, 39.8687828], [-7.8664708, 39.8683422], [-7.866044, 39.867941], [-7.8645002, 39.8666048], [-7.8639935, 39.8662951], [-7.8629325, 39.8658542], [-7.8625204, 39.8656119], [-7.8622354, 39.8653057], [-7.8612182, 39.8641312], [-7.8608762, 39.8638956], [-7.8600169, 39.863761], [-7.859745, 39.8636634], [-7.8595346, 39.8633067], [-7.8595258, 39.863162], [-7.8595434, 39.8630408], [-7.8595936, 39.8627438], [-7.8595389, 39.8624655], [-7.8590702, 39.8619005], [-7.8589353, 39.861643], [-7.8589154, 39.861153], [-7.8589397, 39.8607989], [-7.8593086, 39.8600695], [-7.8596316, 39.8589034], [-7.859806, 39.8585569], [-7.8602677, 39.857768], [-7.860712, 39.857009], [-7.8607599, 39.8567904], [-7.8607546, 39.8565663], [-7.8606671, 39.8563541], [-7.8600808, 39.8556272], [-7.8599745, 39.8554296], [-7.8599425, 39.8551544], [-7.8600944, 39.8545625], [-7.8601026, 39.8543411], [-7.8600256, 39.8541235], [-7.8599411, 39.8539662], [-7.8598366, 39.8538418], [-7.8590498, 39.8530486], [-7.8588916, 39.8528195], [-7.8588105, 39.8526022], [-7.8588007, 39.8523806], [-7.8590077, 39.8510565], [-7.859001, 39.850775], [-7.858923, 39.8505346], [-7.858748, 39.8503117], [-7.8579079, 39.8497201], [-7.8577088, 39.8495442], [-7.8576063, 39.8493581], [-7.8575535, 39.8490705], [-7.8575006, 39.8481522], [-7.8575318, 39.8479499], [-7.8575938, 39.8477792], [-7.8578873, 39.8473427], [-7.8579444, 39.847176], [-7.8579656, 39.8469698], [-7.8579237, 39.8467853], [-7.8578202, 39.8466087], [-7.8576539, 39.8463834], [-7.8574814, 39.8461446]]}, "properties": {"highway": "primary", "ref": "EN 351"}}, {"type": "Feature", "geometry": {"type": "LineString", "coordinates": [[-7.8607052, 39.8287376], [-7.8608447, 39.8285477], [-7.8609048, 39.8284687], [-7.8609842, 39.8283556], [-7.8610862, 39.8282078], [-7.8611936, 39.82804], [-7.8612932, 39.82785], [-7.8614456, 39.8273548], [-7.8614627, 39.8270775], [-7.861393, 39.825857], [-7.8613649, 39.8244046], [-7.8613184, 39.8239556], [-7.861231, 39.8235517], [-7.8610614, 39.8230374], [-7.8606565, 39.8222232], [-7.8598411, 39.8204973], [-7.859668, 39.8202207], [-7.8594479, 39.8199877], [-7.8591663, 39.819806], [-7.8589002, 39.8196765], [-7.8586547, 39.8195982], [-7.8581835, 39.8194958], [-7.8575605, 39.8193949], [-7.8568133, 39.8192459], [-7.8563761, 39.8191005], [-7.856104, 39.818927], [-7.8558955, 39.8187398], [-7.8557349, 39.8184437], [-7.8556902, 39.818166], [-7.8557032, 39.8178486], [-7.8558334, 39.8167716], [-7.8558859, 39.8162743], [-7.8558806, 39.8158828], [-7.8556988, 39.8154431], [-7.8554468, 39.8151276], [-7.854557, 39.8143442], [-7.8540604, 39.8138536], [-7.8538001, 39.8134878], [-7.8529545, 39.8117958]]}, "properties": {"highway": "primary", "ref": "EN 351"}}, {"type": "Feature", "geometry": {"type": "LineString", "coordinates": [[-7.8690739, 39.7915899], [-7.8692717, 39.7910122], [-7.8695168, 39.7903324], [-7.8696753, 39.7900358], [-7.869987, 39.78971], [-7.8703388, 39.7894673], [-7.871504, 39.7888198], [-7.8733203, 39.7878176], [-7.8735841, 39.787641], [-7.8737749, 39.787467], [-7.8739433, 39.7872689], [-7.8740541, 39.7870668], [-7.8741336, 39.7868749], [-7.8741874, 39.7865904], [-7.8741912, 39.7863305], [-7.8741347, 39.7860943], [-7.8740379, 39.7858546], [-7.8738385, 39.7855723], [-7.8732754, 39.7848848], [-7.873115, 39.7846719], [-7.8730417, 39.7844984], [-7.8730131, 39.7843145], [-7.8730324, 39.7840982], [-7.8731038, 39.7839093], [-7.873254, 39.7837172], [-7.8734745, 39.7835628], [-7.8737069, 39.7834607], [-7.8739393, 39.7833895], [-7.8747527, 39.7831854], [-7.8749959, 39.7830788], [-7.8752212, 39.7829413], [-7.8754274, 39.7827388], [-7.875581, 39.7824759], [-7.875786, 39.7817944], [-7.8759298, 39.7815383], [-7.8760646, 39.7813751], [-7.8762626, 39.7812199], [-7.8764784, 39.781106], [-7.8767603, 39.7809794], [-7.8773414, 39.7807554], [-7.8775666, 39.7806405], [-7.8777829, 39.7804913], [-7.8779681, 39.7802974], [-7.8781329, 39.7800463], [-7.8782295, 39.7797948], [-7.8783231, 39.7795063], [-7.8784163, 39.7792071], [-7.8786618, 39.7783857], [-7.8798144, 39.7745969], [-7.8801582, 39.7734387], [-7.8804828, 39.7723872], [-7.8806672, 39.7718778], [-7.8807977, 39.7715984], [-7.8809505, 39.7713603], [-7.8811361, 39.7711002], [-7.881462, 39.7707689], [-7.8819179, 39.7703107]]}, "properties": {"highway": "primary", "ref": "EN 351"}}, {"type": "Feature", "geometry": {"type": "LineString", "coordinates": [[-7.860939, 39.7966079], [-7.86127, 39.796316], [-7.8617809, 39.7960166], [-7.8625172, 39.7956843]]}, "properties": {"bridge": "yes", "highway": "primary", "layer": "1", "ref": "EN 351"}}, {"type": "Feature", "geometry": {"type": "LineString", "coordinates": [[-7.8686361, 39.7929534], [-7.8687513, 39.7925964], [-7.8690739, 39.7915899]]}, "properties": {"bridge": "yes", "highway": "primary", "layer": "1", "ref": "EN 351", "source": "Bing"}}, {"type": "Feature", "geometry": {"type": "LineString", "coordinates": [[-7.8625172, 39.7956843], [-7.8652407, 39.7945069], [-7.8656771, 39.7943814], [-7.8661242, 39.7942807], [-7.8670977, 39.7941187], [-7.8674323, 39.7940406], [-7.867724, 39.7939543], [-7.8679503, 39.7938469], [-7.8681766, 39.7937066], [-7.8683606, 39.7934993], [-7.8685174, 39.7932407], [-7.8686361, 39.7929534]]}, "properties": {"highway": "primary", "ref": "EN 351"}}, {"type": "Feature", "geometry": {"type": "LineString", "coordinates": [[-7.8775734, 39.7564695], [-7.8771062, 39.7554366]]}, "properties": {"bridge": "viaduct", "highway": "primary", "layer": "1", "ref": "EN 351"}}, {"type": "Feature", "geometry": {"type": "LineString", "coordinates": [[-7.87629, 39.75332], [-7.87629, 39.75281], [-7.876387, 39.752569], [-7.876569, 39.752354], [-7.877047, 39.751936], [-7.879933, 39.750208], [-7.8802793, 39.7499201], [-7.8804172, 39.7497577], [-7.8806183, 39.7494679], [-7.8808274, 39.7490238], [-7.8809139, 39.7487663], [-7.8809512, 39.7485264], [-7.881065, 39.74766], [-7.8811953, 39.7466008], [-7.8814569, 39.746097], [-7.8817626, 39.7457382], [-7.8821703, 39.7453669]]}, "properties": {"highway": "primary", "ref": "EN 351"}}, {"type": "Feature", "geometry": {"type": "LineString", "coordinates": [[-7.8771062, 39.7554366], [-7.8768701, 39.7549314], [-7.876449, 39.7539787], [-7.8763283, 39.7536117], [-7.87629, 39.75332]]}, "properties": {"highway": "primary", "ref": "EN 351"}}, {"type": "Feature", "geometry": {"type": "LineString", "coordinates": [[-7.8897065, 39.7395045], [-7.8894796, 39.7391371], [-7.8893282, 39.7388545], [-7.8892858, 39.7386668], [-7.8892534, 39.7384551], [-7.889251, 39.738197], [-7.889315, 39.737999], [-7.8894636, 39.737777], [-7.8896369, 39.7375915], [-7.8900797, 39.7372728], [-7.8907396, 39.736798], [-7.8911002, 39.7365146], [-7.8913213, 39.7362679], [-7.8916245, 39.7358716]]}, "properties": {"highway": "primary", "lanes": "2", "ref": "EN 351", "surface": "asphalt"}}, {"type": "Feature", "geometry": {"type": "LineString", "coordinates": [[-7.8775734, 39.7564695], [-7.8776157, 39.7565807]]}, "properties": {"highway": "primary", "lanes": "2", "ref": "EN 351", "surface": "asphalt"}}, {"type": "Feature", "geometry": {"type": "LineString", "coordinates": [[-7.8859696, 39.7422368], [-7.8861681, 39.7422174], [-7.8870566, 39.7420172], [-7.8876043, 39.741868], [-7.8877994, 39.7418114], [-7.8886833, 39.7415678]]}, "properties": {"highway": "primary", "oneway": "yes", "ref": "EN 351"}}, {"type": "Feature", "geometry": {"type": "LineString", "coordinates": [[-7.8897065, 39.7395045], [-7.8897442, 39.7396668], [-7.8898031, 39.7398274], [-7.8898445, 39.7399867], [-7.8898602, 39.740141], [-7.8898363, 39.7402804], [-7.8897932, 39.7403915], [-7.8897343, 39.7405251], [-7.8896439, 39.7406641], [-7.8895286, 39.740828], [-7.8893994, 39.7410108], [-7.8893019, 39.7411373], [-7.8891945, 39.7412457], [-7.8890924, 39.7413259], [-7.8890202, 39.7413663], [-7.8889262, 39.7414016]]}, "properties": {"highway": "primary", "oneway": "yes", "ref": "EN 351"}}, {"type": "Feature", "geometry": {"type": "LineString", "coordinates": [[-7.9921322, 40.0061939], [-7.9920897, 40.0061195], [-7.9920576, 40.0060743], [-7.9920012, 40.0060415], [-7.9919573, 40.0060254], [-7.9919208, 40.0060127], [-7.9918242, 40.0059922]]}, "properties": {"highway": "primary", "lanes": "1", "oneway": "yes", "ref": "EN 351", "surface": "asphalt"}}, {"type": "Feature", "geometry": {"type": "LineString", "coordinates": [[-7.9918242, 40.0059922], [-7.9918784, 40.0060783], [-7.9919198, 40.0061247], [-7.9920261, 40.0061669], [-7.9921322, 40.0061939]]}, "properties": {"highway": "primary", "lanes": "1", "oneway": "yes", "ref": "EN 351", "surface": "asphalt"}}, {"type": "Feature", "geometry": {"type": "LineString", "coordinates": [[-7.8922981, 39.7347898], [-7.8922407, 39.7349146], [-7.892198, 39.7349939], [-7.8921358, 39.7350905], [-7.8920736, 39.7351743], [-7.892009, 39.7352307], [-7.8919364, 39.7352729], [-7.8918637, 39.7353151]]}, "properties": {"highway": "primary", "lanes": "1", "oneway": "yes", "ref": "EN 351", "surface": "asphalt"}}, {"type": "Feature", "geometry": {"type": "LineString", "coordinates": [[-7.8917359, 39.7355208], [-7.8917223, 39.7356237], [-7.8917053, 39.7356856], [-7.8916245, 39.7358716]]}, "properties": {"highway": "primary", "lanes": "1", "oneway": "yes", "ref": "EN 351", "surface": "asphalt"}}, {"type": "Feature", "geometry": {"type": "LineString", "coordinates": [[-7.8920384, 39.7354076], [-7.8920745, 39.7353304], [-7.8921281, 39.7352134], [-7.8921816, 39.7351297], [-7.8922356, 39.7350545], [-7.8922814, 39.7350041], [-7.8923306, 39.7349614], [-7.8923823, 39.7349272], [-7.8924504, 39.7348788]]}, "properties": {"highway": "primary", "lanes": "1", "oneway": "yes", "ref": "EN 351", "surface": "asphalt"}}, {"type": "Feature", "geometry": {"type": "LineString", "coordinates": [[-7.8916245, 39.7358716], [-7.8917831, 39.735733], [-7.8918762, 39.7356211], [-7.8919162, 39.7355729]]}, "properties": {"highway": "primary", "lanes": "1", "oneway": "yes", "ref": "EN 351", "surface": "asphalt"}}, {"type": "Feature", "geometry": {"type": "LineString", "coordinates": [[-7.881269, 39.758544], [-7.8804043, 39.7583847]]}, "properties": {"highway": "primary", "ref": "EN 351"}}, {"type": "Feature", "geometry": {"type": "LineString", "coordinates": [[-7.8855629, 39.7684039], [-7.885784, 39.7683161], [-7.8860256, 39.7681832], [-7.8861483, 39.7680736], [-7.886271, 39.7679189], [-7.8864053, 39.7676516]]}, "properties": {"bridge": "yes", "highway": "primary", "layer": "1", "ref": "EN 351"}}, {"type": "Feature", "geometry": {"type": "LineString", "coordinates": [[-7.8824357, 39.7588512], [-7.8821255, 39.7587378], [-7.8818169, 39.7586512], [-7.8815308, 39.7585942], [-7.881269, 39.758544]]}, "properties": {"bridge": "yes", "highway": "primary", "layer": "1", "ref": "EN 351"}}, {"type": "Feature", "geometry": {"type": "LineString", "coordinates": [[-7.8864053, 39.7676516], [-7.8864533, 39.7674926], [-7.8864745, 39.7672751], [-7.8864322, 39.766988], [-7.8863549, 39.7668095], [-7.8862597, 39.7666447], [-7.8859598, 39.766203], [-7.885891, 39.7660357], [-7.885858, 39.7658029], [-7.8859409, 39.7652239], [-7.8859073, 39.7649867], [-7.8858244, 39.7647976], [-7.8855452, 39.7644558], [-7.8853801, 39.7642226], [-7.8852767, 39.7640421], [-7.885227, 39.763834], [-7.8852158, 39.7635226], [-7.885194, 39.7629114], [-7.8851287, 39.7625815], [-7.8849963, 39.7622447], [-7.8847003, 39.761586], [-7.884042, 39.760245], [-7.8839297, 39.7600389], [-7.8837929, 39.7598513], [-7.8835997, 39.7596354], [-7.8833718, 39.7594244], [-7.883168, 39.7592636], [-7.8829158, 39.7591007], [-7.8827033, 39.7589902], [-7.8825812, 39.7589253], [-7.8824357, 39.7588512]]}, "properties": {"highway": "primary", "ref": "EN 351"}}, {"type": "Feature", "geometry": {"type": "LineString", "coordinates": [[-7.8821703, 39.7453669], [-7.8826478, 39.7449751], [-7.8831235, 39.7444645]]}, "properties": {"bridge": "yes", "highway": "primary", "layer": "1", "ref": "EN 351"}}, {"type": "Feature", "geometry": {"type": "LineString", "coordinates": [[-7.8831235, 39.7444645], [-7.8843268, 39.7432221], [-7.884654, 39.742921], [-7.884874, 39.7427519], [-7.88511, 39.7425992], [-7.8854638, 39.7424287], [-7.8859696, 39.7422368]]}, "properties": {"highway": "primary", "ref": "EN 351"}}, {"type": "Feature", "geometry": {"type": "LineString", "coordinates": [[-7.9396827, 39.9501049], [-7.9396802, 39.9501229], [-7.9396604, 39.950176], [-7.9396284, 39.9502273], [-7.939593, 39.9502751], [-7.9395501, 39.9503189], [-7.9394958, 39.9503636], [-7.939365, 39.9504726], [-7.938981, 39.9508022], [-7.9388944, 39.9508882], [-7.9388273, 39.9509611], [-7.9387713, 39.9510289], [-7.9386688, 39.951178], [-7.9384562, 39.9514767], [-7.9383937, 39.9515747], [-7.9383393, 39.9516625], [-7.938312, 39.9517309], [-7.9382836, 39.951805], [-7.9382627, 39.9518881], [-7.938248, 39.951982], [-7.9382426, 39.9520633], [-7.9382426, 39.9531636], [-7.9378613, 39.9540406], [-7.9375951, 39.9542829], [-7.9368376, 39.9546031], [-7.9364624, 39.9548581], [-7.9363263, 39.95504], [-7.93628, 39.955102], [-7.9362111, 39.9556165], [-7.9361793, 39.9559218], [-7.9360111, 39.9561348], [-7.9353775, 39.9563261], [-7.93524, 39.956476], [-7.93502, 39.9570654], [-7.934596, 39.957591], [-7.9344908, 39.9578129], [-7.9344873, 39.9579635], [-7.9346041, 39.9581752], [-7.935546, 39.9588203], [-7.9356076, 39.9590108], [-7.9356108, 39.9593819], [-7.9360041, 39.9600149], [-7.9362197, 39.9602502], [-7.9368893, 39.9603594], [-7.9377627, 39.9608455], [-7.9378852, 39.9610361], [-7.9378767, 39.9612692], [-7.9373281, 39.961904], [-7.9373095, 39.9620109], [-7.9373498, 39.962144], [-7.9374552, 39.9622366], [-7.9384185, 39.9628522], [-7.938543, 39.9630272], [-7.9385443, 39.9632588], [-7.9386209, 39.963401], [-7.9394765, 39.9642184], [-7.9399726, 39.9644108], [-7.9400964, 39.964518], [-7.9401412, 39.9645982], [-7.9402051, 39.9650762], [-7.9404438, 39.9655656], [-7.9405155, 39.9656465], [-7.9406391, 39.9657225], [-7.9407636, 39.9657449], [-7.9408933, 39.965732], [-7.9413553, 39.9655918], [-7.9413943, 39.9655857], [-7.9414987, 39.9655693], [-7.9417552, 39.9655728], [-7.9419421, 39.9656262], [-7.9421406, 39.9657039], [-7.9427752, 39.9662761], [-7.9429243, 39.9663379], [-7.943079, 39.966364], [-7.9435936, 39.9662666], [-7.9438975, 39.9664567], [-7.9448151, 39.9675164], [-7.9452523, 39.9677089], [-7.9455623, 39.9677184], [-7.9465699, 39.9675235], [-7.9466534, 39.9675372], [-7.9468303, 39.9675663], [-7.947015, 39.967687], [-7.9470721, 39.9678918], [-7.9470473, 39.9681175], [-7.9471713, 39.9683456], [-7.9473511, 39.9684621], [-7.9482905, 39.9686711], [-7.9484672, 39.9686426], [-7.9487501, 39.9685182], [-7.9488397, 39.9684788], [-7.9490342, 39.9684463], [-7.9490809, 39.9684385], [-7.949295, 39.968546], [-7.949379, 39.9686737], [-7.9494952, 39.9690937], [-7.9496004, 39.9692012], [-7.9497391, 39.969269], [-7.9502186, 39.9693894], [-7.9505518, 39.9694448], [-7.9510144, 39.9692836], [-7.9510733, 39.9692794], [-7.9511788, 39.9692718], [-7.951317, 39.969318], [-7.9516961, 39.9695792], [-7.952003, 39.969586], [-7.9525535, 39.9692694], [-7.9527266, 39.9692476], [-7.952921, 39.969345], [-7.9531119, 39.9695482], [-7.9531782, 39.9696189], [-7.9533273, 39.9696961], [-7.953903, 39.9696802], [-7.9544212, 39.9696659], [-7.9547413, 39.9696978], [-7.9549802, 39.9698658], [-7.9552674, 39.9703698], [-7.9554012, 39.970501], [-7.955442, 39.970541], [-7.9555875, 39.9705681], [-7.9558571, 39.970521], [-7.9571636, 39.9698238], [-7.9574114, 39.9697835], [-7.9575656, 39.9698516], [-7.957677, 39.9699007], [-7.9579024, 39.9700002], [-7.9580448, 39.9700234], [-7.9581085, 39.9700338], [-7.9587683, 39.9700086], [-7.9599565, 39.970474], [-7.960145, 39.9706773], [-7.9601472, 39.9710402], [-7.9602217, 39.9711611], [-7.9605528, 39.9712149], [-7.9612521, 39.9711914], [-7.9617475, 39.971267], [-7.9619092, 39.9713553], [-7.9620544, 39.9714736], [-7.9621531, 39.9716483], [-7.9620917, 39.9727235], [-7.9623854, 39.9734107], [-7.9624096, 39.973876], [-7.9623306, 39.9741498], [-7.9620435, 39.9745228], [-7.9616752, 39.9747781], [-7.9616171, 39.9747991], [-7.9611688, 39.9749612], [-7.9605453, 39.9750536], [-7.958452, 39.975364], [-7.957368, 39.975337], [-7.956971, 39.975374], [-7.9566792, 39.9754871], [-7.9563635, 39.9756887], [-7.9561055, 39.9760434], [-7.9556488, 39.9766714], [-7.9551622, 39.9770158], [-7.954949, 39.977279], [-7.9548465, 39.9775298], [-7.9546393, 39.9783883], [-7.9544784, 39.9790521], [-7.954457, 39.9791775], [-7.9544442, 39.9792714], [-7.9544556, 39.9793656], [-7.9544848, 39.9794818], [-7.9545414, 39.9795773], [-7.9546813, 39.9797137], [-7.9548472, 39.9798064], [-7.9550635, 39.9798648], [-7.9552656, 39.9798753], [-7.9554611, 39.9798472], [-7.9557101, 39.9797949], [-7.9559033, 39.9797462], [-7.9560597, 39.979707], [-7.9563855, 39.9796482], [-7.9565182, 39.9796513], [-7.9566497, 39.979678], [-7.956773, 39.979717], [-7.9568834, 39.9797744], [-7.9569957, 39.9798722], [-7.9570855, 39.9799842], [-7.9573953, 39.9805484], [-7.9574637, 39.9806655], [-7.9575509, 39.9807755], [-7.9576381, 39.9808443], [-7.9577869, 39.980905], [-7.9580252, 39.9809348], [-7.9582912, 39.98087], [-7.9584588, 39.9807529], [-7.9585212, 39.9806599], [-7.9585409, 39.9806121], [-7.9585675, 39.9805173], [-7.9585741, 39.9804138], [-7.9584709, 39.9798044], [-7.958546, 39.9795454], [-7.958786, 39.9793841], [-7.9590194, 39.9793388], [-7.9592867, 39.9793712], [-7.9599743, 39.97968], [-7.9602968, 39.9797541], [-7.9604607, 39.9797664]]}, "properties": {"highway": "primary", "ref": "EN 351"}}, {"type": "Feature", "geometry": {"type": "LineString", "coordinates": [[-7.9054462, 39.9180081], [-7.9054167, 39.9179269], [-7.9053247, 39.917677], [-7.905137, 39.9174605], [-7.9047925, 39.9172597], [-7.9045227, 39.9171024], [-7.9043591, 39.9168925], [-7.9042683, 39.9166826]]}, "properties": {"highway": "primary", "ref": "EN 351"}}, {"type": "Feature", "geometry": {"type": "LineString", "coordinates": [[-7.9056177, 39.9181868], [-7.9055133, 39.9180867], [-7.9054462, 39.9180081]]}, "properties": {"highway": "primary", "oneway": "yes", "ref": "EN 351"}}, {"type": "Feature", "geometry": {"type": "LineString", "coordinates": [[-7.9054462, 39.9180081], [-7.9054283, 39.9181084], [-7.9053879, 39.9182007]]}, "properties": {"highway": "primary", "oneway": "yes", "ref": "EN 351"}}, {"type": "Feature", "geometry": {"type": "LineString", "coordinates": [[-7.8886833, 39.7415678], [-7.8889108, 39.7415035]]}, "properties": {"highway": "primary", "oneway": "yes", "ref": "EN 351"}}, {"type": "Feature", "geometry": {"type": "LineString", "coordinates": [[-7.8884343, 39.7415369], [-7.8875709, 39.7417673], [-7.8870141, 39.7419054], [-7.8862715, 39.7421137], [-7.886111, 39.7421696], [-7.8859696, 39.7422368]]}, "properties": {"highway": "primary", "oneway": "yes", "ref": "EN 351"}}, {"type": "Feature", "geometry": {"type": "LineString", "coordinates": [[-7.8889262, 39.7414016], [-7.888717, 39.7414674], [-7.888594, 39.7415007], [-7.8884343, 39.7415369]]}, "properties": {"highway": "primary", "oneway": "yes", "ref": "EN 351"}}, {"type": "Feature", "geometry": {"type": "LineString", "coordinates": [[-7.8889108, 39.7415035], [-7.8890338, 39.7414404], [-7.8892067, 39.7413414], [-7.8893053, 39.7412585], [-7.8894389, 39.7411135], [-7.8895523, 39.7409401], [-7.8896533, 39.7407977], [-7.8897481, 39.7406412], [-7.8898129, 39.7405265], [-7.8898778, 39.7403984], [-7.8899148, 39.7403], [-7.8899325, 39.7402016], [-7.889939, 39.7400957], [-7.8899263, 39.7399791], [-7.8898937, 39.7398632], [-7.8898529, 39.7397535], [-7.8898121, 39.7396625], [-7.8897065, 39.7395045]]}, "properties": {"highway": "primary", "oneway": "yes", "ref": "EN 351"}}, {"type": "Feature", "geometry": {"type": "LineString", "coordinates": [[-7.8776157, 39.7565807], [-7.8776414, 39.7567047]]}, "properties": {"highway": "primary", "oneway": "yes", "ref": "EN 351"}}, {"type": "Feature", "geometry": {"type": "LineString", "coordinates": [[-7.8778006, 39.7571186], [-7.8778545, 39.7572367], [-7.8779208, 39.7573147]]}, "properties": {"highway": "primary", "oneway": "yes", "ref": "EN 351"}}, {"type": "Feature", "geometry": {"type": "LineString", "coordinates": [[-7.8776414, 39.7567047], [-7.877648, 39.7567439], [-7.8777365, 39.7570058], [-7.8778006, 39.7571186]]}, "properties": {"highway": "primary", "oneway": "yes", "ref": "EN 351"}}, {"type": "Feature", "geometry": {"type": "LineString", "coordinates": [[-7.8779208, 39.7573147], [-7.8780718, 39.7574924], [-7.8782837, 39.7577192], [-7.8784553, 39.7578429], [-7.8787745, 39.7580326], [-7.8791526, 39.7581776], [-7.8795334, 39.7582704], [-7.8798821, 39.7583302], [-7.8802362, 39.7583735], [-7.8804043, 39.7583847]]}, "properties": {"highway": "primary", "oneway": "yes", "ref": "EN 351"}}, {"type": "Feature", "geometry": {"type": "LineString", "coordinates": [[-7.8539442, 39.808058], [-7.8537977, 39.8082019], [-7.8529001, 39.8094461], [-7.852698, 39.8096981]]}, "properties": {"highway": "primary", "oneway": "yes", "ref": "EN 351"}}, {"type": "Feature", "geometry": {"type": "LineString", "coordinates": [[-7.8539442, 39.808058], [-7.8542704, 39.8076381], [-7.8545, 39.8073995], [-7.8547335, 39.8072126], [-7.8549885, 39.8070546], [-7.8557283, 39.806672], [-7.8559764, 39.8064732], [-7.8561117, 39.8062744], [-7.8561932, 39.8060091], [-7.8561608, 39.8057453], [-7.8560104, 39.8054651], [-7.8556374, 39.8050139], [-7.8554846, 39.8047707], [-7.8554175, 39.8045564], [-7.8554281, 39.8042633], [-7.8555192, 39.8040529], [-7.85568, 39.803843], [-7.856254, 39.803289], [-7.8564283, 39.8030527], [-7.8565704, 39.8028165], [-7.8567964, 39.8023013], [-7.8569085, 39.8019705], [-7.8570535, 39.8017237], [-7.857177, 39.801551], [-7.8574391, 39.8013229], [-7.8578621, 39.8010453], [-7.859003, 39.800357], [-7.8592433, 39.80019], [-7.8594836, 39.7999735], [-7.8596493, 39.7997906], [-7.8597936, 39.7995829], [-7.8599455, 39.7992947], [-7.8600734, 39.7988773], [-7.8604105, 39.7975011], [-7.8605503, 39.7971312], [-7.8607206, 39.7968675], [-7.860939, 39.7966079]]}, "properties": {"highway": "primary", "ref": "EN 351"}}, {"type": "Feature", "geometry": {"type": "LineString", "coordinates": [[-7.8529545, 39.8117958], [-7.8529072, 39.8115773], [-7.8527284, 39.811161], [-7.8526429, 39.8109343], [-7.8525908, 39.8107345], [-7.8525722, 39.8105985], [-7.8525648, 39.8104811], [-7.8525601, 39.8104008], [-7.8525628, 39.810265], [-7.8526919, 39.8099151], [-7.8527411, 39.80982], [-7.8527939, 39.8097393]]}, "properties": {"highway": "primary", "oneway": "yes", "ref": "EN 351"}}, {"type": "Feature", "geometry": {"type": "LineString", "coordinates": [[-7.8527939, 39.8097393], [-7.8528394, 39.8096697], [-7.8529343, 39.809538]]}, "properties": {"highway": "primary", "oneway": "yes", "ref": "EN 351"}}, {"type": "Feature", "geometry": {"type": "LineString", "coordinates": [[-7.852698, 39.8096981], [-7.8526491, 39.8097741], [-7.8526053, 39.8098543]]}, "properties": {"highway": "primary", "oneway": "yes", "ref": "EN 351"}}, {"type": "Feature", "geometry": {"type": "LineString", "coordinates": [[-7.8526053, 39.8098543], [-7.852525, 39.8100272], [-7.8524759, 39.8102005], [-7.8524492, 39.8103484], [-7.8524428, 39.8105076], [-7.8524577, 39.81067], [-7.8524832, 39.8108284], [-7.8525578, 39.811045], [-7.8526489, 39.8112515], [-7.8528286, 39.8116083], [-7.8529545, 39.8117958]]}, "properties": {"highway": "primary", "oneway": "yes", "ref": "EN 351"}}, {"type": "Feature", "geometry": {"type": "LineString", "coordinates": [[-7.8529343, 39.809538], [-7.8530645, 39.809357], [-7.8538811, 39.8082067], [-7.8539442, 39.808058]]}, "properties": {"highway": "primary", "oneway": "yes", "ref": "EN 351"}}, {"type": "Feature", "geometry": {"type": "LineString", "coordinates": [[-7.8825684, 39.7696452], [-7.8827203, 39.7694973], [-7.8828285, 39.7693884], [-7.8829008, 39.7693199], [-7.8829927, 39.7692371], [-7.8831003, 39.769151], [-7.883211, 39.769078], [-7.8833014, 39.7690205], [-7.8834448, 39.7689444], [-7.8836267, 39.7688676], [-7.8838861, 39.7687855], [-7.885326, 39.7684809], [-7.8855629, 39.7684039]]}, "properties": {"highway": "primary", "ref": "EN 351"}}, {"type": "Feature", "geometry": {"type": "LineString", "coordinates": [[-7.8819179, 39.7703107], [-7.8825684, 39.7696452]]}, "properties": {"bridge": "yes", "highway": "primary", "layer": "1", "ref": "EN 351"}}, {"type": "Feature", "geometry": {"type": "LineString", "coordinates": [[-7.8574814, 39.8461446], [-7.8573683, 39.8458983], [-7.8573116, 39.8456638], [-7.8572376, 39.8450594], [-7.8571636, 39.8448333], [-7.8570536, 39.8446985], [-7.8569435, 39.8445952], [-7.8567374, 39.844483], [-7.8565312, 39.8444024], [-7.8557809, 39.8442239], [-7.8554833, 39.844093], [-7.855009, 39.8437693], [-7.854602, 39.843581], [-7.853867, 39.843238], [-7.853647, 39.843077], [-7.853288, 39.842702], [-7.8528563, 39.8421353], [-7.8528074, 39.8420249], [-7.8527246, 39.8418381], [-7.8527266, 39.8417134], [-7.8527449, 39.8415694], [-7.8528031, 39.8414342], [-7.852939, 39.841066], [-7.8531882, 39.8404505], [-7.8534067, 39.8399848], [-7.8547255, 39.8377877], [-7.8554363, 39.836559], [-7.8557056, 39.83617], [-7.8559705, 39.8358819], [-7.856261, 39.8356292], [-7.856898, 39.835208], [-7.8591904, 39.8338091], [-7.8593985, 39.8336426], [-7.8595794, 39.8334597], [-7.8597517, 39.8332401], [-7.8598827, 39.8329945], [-7.8599031, 39.8329399], [-7.85993, 39.8328616], [-7.8599537, 39.8327733], [-7.8599695, 39.8326931], [-7.8599805, 39.8326295], [-7.8599978, 39.8325248], [-7.8600154, 39.8324063]]}, "properties": {"highway": "primary", "ref": "EN 351"}}, {"type": "Feature", "geometry": {"type": "LineString", "coordinates": [[-7.8607052, 39.8287376], [-7.8606468, 39.8288194], [-7.8605919, 39.8288897], [-7.8605369, 39.8289623], [-7.8604988, 39.8290175], [-7.8604579, 39.8290868], [-7.8604213, 39.8291496], [-7.860386, 39.8292178], [-7.860355, 39.8292827], [-7.8603297, 39.8293498], [-7.8603085, 39.8294159], [-7.860293, 39.8294732], [-7.8602803, 39.829535], [-7.8602676, 39.8296172], [-7.8602535, 39.8297201], [-7.8602354, 39.8298489], [-7.8602225, 39.8299409], [-7.8601873, 39.8302051], [-7.8601563, 39.8304963], [-7.8601539, 39.8305185], [-7.8601373, 39.830673], [-7.8601126, 39.8309044], [-7.8600872, 39.8311718], [-7.8600675, 39.8313439], [-7.8600449, 39.8315669], [-7.8600252, 39.8317682], [-7.8600153, 39.8319144], [-7.8600157, 39.8320884], [-7.8600167, 39.8322088], [-7.8600167, 39.8323138], [-7.8600154, 39.8324063]]}, "properties": {"highway": "primary", "oneway": "yes", "ref": "EN 351"}}, {"type": "Feature", "geometry": {"type": "LineString", "coordinates": [[-7.8600154, 39.8324063], [-7.8600378, 39.8323068], [-7.8600646, 39.8321845], [-7.8600844, 39.8320881], [-7.8601055, 39.8319766], [-7.8601281, 39.8318456], [-7.8601393, 39.8317731], [-7.8601464, 39.8317244], [-7.8601534, 39.831654], [-7.8601732, 39.8314646], [-7.8601815, 39.8313796], [-7.8602042, 39.8311496], [-7.8602408, 39.8307977], [-7.8602703, 39.8305232], [-7.8602747, 39.8304827], [-7.8602936, 39.8303085], [-7.8603099, 39.830158], [-7.8603367, 39.8299155], [-7.8603522, 39.8297942], [-7.8603635, 39.8297174], [-7.860379, 39.8296275], [-7.8603987, 39.8295312], [-7.8604185, 39.8294532], [-7.8604452, 39.8293666], [-7.8604974, 39.8292086], [-7.8605608, 39.8290429], [-7.860589, 39.8289726], [-7.8606144, 39.8289163], [-7.8606468, 39.8288502], [-7.8607052, 39.8287376]]}, "properties": {"highway": "primary", "oneway": "yes", "ref": "EN 351"}}, {"type": "Feature", "geometry": {"type": "LineString", "coordinates": [[-7.8602703, 39.8305232], [-7.8601539, 39.8305185]]}, "properties": {"highway": "primary", "oneway": "no", "ref": "EN 351"}}, {"type": "Feature", "geometry": {"type": "LineString", "coordinates": [[-7.9229597, 39.9136868], [-7.9230818, 39.9138201], [-7.923198, 39.9139822], [-7.9233654, 39.9143475], [-7.9236761, 39.9154456], [-7.9241788, 39.9170457], [-7.9244915, 39.9180665], [-7.9249318, 39.9196065], [-7.925182, 39.9204018], [-7.9254839, 39.9213611], [-7.9254483, 39.9217766], [-7.9252545, 39.9221686], [-7.924467, 39.9231889], [-7.9243563, 39.9233324], [-7.9241774, 39.9235572], [-7.9240342, 39.9238428], [-7.9239607, 39.9242003], [-7.9240059, 39.9244142], [-7.9241476, 39.924698], [-7.92477, 39.9253384], [-7.9250056, 39.9256475], [-7.9251395, 39.9260309], [-7.925122, 39.926357], [-7.9251074, 39.9264183], [-7.9248857, 39.9273467], [-7.9244868, 39.9290201], [-7.9243621, 39.9293026], [-7.9238919, 39.930047], [-7.9237827, 39.9303111], [-7.9237321, 39.9305765], [-7.9237531, 39.930857], [-7.9238768, 39.9313094], [-7.9244928, 39.9331691], [-7.9245279, 39.9335506], [-7.9244743, 39.9338498], [-7.9244129, 39.9340573], [-7.9238759, 39.9357626], [-7.9238584, 39.9360753], [-7.9239093, 39.936325], [-7.9240255, 39.9365675], [-7.9247116, 39.9375549], [-7.9249457, 39.9378973], [-7.9250545, 39.9381419], [-7.9250672, 39.9383583], [-7.9250285, 39.9386177], [-7.9248624, 39.9391311], [-7.9248441, 39.9393142], [-7.9248536, 39.9395244], [-7.9249676, 39.9397967], [-7.925111, 39.9400117], [-7.9253479, 39.9402266], [-7.9276055, 39.9416544], [-7.9278438, 39.9418069], [-7.9280753, 39.9420494], [-7.9282047, 39.9422605], [-7.9282735, 39.9424859], [-7.928273, 39.9427237], [-7.9281688, 39.9432244], [-7.9281281, 39.9433979], [-7.9281335, 39.9435313], [-7.9281879, 39.9436298], [-7.9282752, 39.9436956], [-7.9283686, 39.9437355], [-7.9284912, 39.94374], [-7.9286075, 39.9437161], [-7.9291767, 39.9434565], [-7.9293884, 39.9433811], [-7.9296032, 39.9433622], [-7.9298796, 39.9433906], [-7.9304375, 39.9434902], [-7.9308148, 39.9435575], [-7.9309112, 39.9435773], [-7.9310024, 39.9436044], [-7.9310924, 39.9436318], [-7.9311793, 39.9436628], [-7.9312534, 39.9436949], [-7.9313304, 39.9437338], [-7.9314254, 39.9437912], [-7.9316241, 39.9439105], [-7.9318771, 39.9440692], [-7.9320261, 39.9441627], [-7.9321246, 39.9442332]]}, "properties": {"highway": "primary", "ref": "EN 351"}}, {"type": "Feature", "geometry": {"type": "LineString", "coordinates": [[-7.9321246, 39.9442332], [-7.9321656, 39.9442642], [-7.9322128, 39.944311], [-7.9322599, 39.9443621], [-7.9323037, 39.9444195], [-7.9323508, 39.9444856], [-7.9324394, 39.9446277], [-7.932482, 39.944692], [-7.93252, 39.944737], [-7.9325488, 39.9447684], [-7.9325915, 39.9448059], [-7.9326342, 39.9448393], [-7.9326796, 39.9448667], [-7.932731, 39.9448921], [-7.9327807, 39.9449102], [-7.9328949, 39.9449436], [-7.9330615, 39.9449931], [-7.9331199, 39.9450118], [-7.9331539, 39.9450272], [-7.933187, 39.9450459], [-7.9332141, 39.9450653], [-7.933242, 39.9450887], [-7.9332646, 39.9451114], [-7.9332864, 39.9451388], [-7.9333048, 39.9451716], [-7.9333187, 39.945209], [-7.9333292, 39.9452498], [-7.9333318, 39.9452912], [-7.9333283, 39.9453393], [-7.9333205, 39.9454035], [-7.9333117, 39.9454637], [-7.9333065, 39.9455178], [-7.9333065, 39.9455526], [-7.93331, 39.9455954], [-7.9333213, 39.9456362], [-7.9333335, 39.9456676], [-7.9333466, 39.9456943], [-7.9333623, 39.9457157], [-7.9333902, 39.9457478], [-7.9334233, 39.9457779], [-7.9334565, 39.945802], [-7.9335071, 39.9458294], [-7.9335489, 39.9458481], [-7.9336187, 39.9458715], [-7.9337739, 39.9459136], [-7.9339326, 39.9459557], [-7.9339744, 39.9459684], [-7.9340207, 39.9459871], [-7.9340616, 39.9460092], [-7.9340956, 39.9460359], [-7.9341235, 39.946066], [-7.9341427, 39.9460948], [-7.934161, 39.9461262], [-7.9341724, 39.9461576], [-7.9341794, 39.9461924], [-7.9341811, 39.9462258]]}, "properties": {"highway": "primary", "ref": "EN 351"}}, {"type": "Feature", "geometry": {"type": "LineString", "coordinates": [[-7.9341811, 39.9462258], [-7.9341785, 39.9462692], [-7.9341706, 39.9463127], [-7.9341628, 39.9463541], [-7.9341453, 39.946421], [-7.934141, 39.9464591], [-7.9341384, 39.9465059], [-7.9341392, 39.946556], [-7.9341427, 39.9465928], [-7.9341506, 39.9466269], [-7.9341637, 39.946659], [-7.9341907, 39.9467064], [-7.9342168, 39.9467459], [-7.9342456, 39.9467793], [-7.9342805, 39.9468114], [-7.9343189, 39.9468381], [-7.9343581, 39.9468629], [-7.9344043, 39.9468869], [-7.9344601, 39.9469123], [-7.9345133, 39.9469317], [-7.9345787, 39.9469531], [-7.934638, 39.9469685], [-7.9347025, 39.9469812], [-7.9347924, 39.9469972], [-7.9349711, 39.947026], [-7.9353155, 39.9470815], [-7.9353827, 39.9470908], [-7.9354333, 39.9471022], [-7.9354838, 39.9471122], [-7.9355335, 39.9471256], [-7.9355789, 39.947143], [-7.9356181, 39.9471643], [-7.9356556, 39.9471898], [-7.9356914, 39.9472198], [-7.9357175, 39.9472486], [-7.9357384, 39.9472767], [-7.9357637, 39.9473261], [-7.9358021, 39.9474257], [-7.9358518, 39.9475481], [-7.9358771, 39.9475942], [-7.9359076, 39.9476363], [-7.9359355, 39.9476691], [-7.935973, 39.9477058], [-7.9360297, 39.9477486], [-7.9360872, 39.9477807], [-7.9361491, 39.9478094], [-7.9362111, 39.9478308], [-7.9362756, 39.9478469], [-7.9363366, 39.9478589], [-7.9364081, 39.9478649], [-7.9365101, 39.9478696], [-7.9366488, 39.9478716], [-7.9367403, 39.947875], [-7.936818, 39.947881], [-7.9368964, 39.947889], [-7.9369357, 39.9478957], [-7.9369697, 39.9479044], [-7.9370107, 39.9479191], [-7.9370604, 39.9479411], [-7.9371074, 39.9479679], [-7.9371572, 39.9480033], [-7.9372025, 39.9480441], [-7.9372566, 39.9481022], [-7.9372975, 39.9481557], [-7.9373865, 39.948272], [-7.9374536, 39.9483549], [-7.9374911, 39.9483937], [-7.937526, 39.9484258], [-7.9375696, 39.9484592], [-7.9376219, 39.9484946], [-7.9376891, 39.9485314], [-7.9377449, 39.9485548], [-7.9377989, 39.9485728], [-7.9378608, 39.9485909], [-7.9379219, 39.9486069], [-7.9380579, 39.948629], [-7.9381468, 39.948639], [-7.9382532, 39.948649], [-7.9383474, 39.9486571], [-7.938405, 39.9486651], [-7.9384887, 39.9486805], [-7.9385392, 39.9486952], [-7.9385889, 39.9487146], [-7.9386343, 39.9487373]]}, "properties": {"highway": "primary", "ref": "EN 351"}}, {"type": "Feature", "geometry": {"type": "LineString", "coordinates": [[-7.9813725, 40.0070507], [-7.9813857, 40.0070561], [-7.9818548, 40.0071283], [-7.9829553, 40.0071904], [-7.9835976, 40.0074188], [-7.9844504, 40.0078688], [-7.984731, 40.0079628], [-7.9851255, 40.0079838], [-7.9878041, 40.0075564], [-7.988427, 40.007407], [-7.988986, 40.0070897], [-7.9904509, 40.0060362], [-7.9907705, 40.0059076], [-7.9912001, 40.0058706], [-7.9915728, 40.005916], [-7.9918242, 40.0059922]]}, "properties": {"highway": "primary", "lanes": "2", "ref": "EN 351", "surface": "asphalt"}}, {"type": "Feature", "geometry": {"type": "LineString", "coordinates": [[-7.9764031, 40.0032241], [-7.9764161, 40.0033331]]}, "properties": {"bridge": "yes", "highway": "primary", "layer": "1", "ref": "EN 351"}}, {"type": "Feature", "geometry": {"type": "LineString", "coordinates": [[-7.9764161, 40.0033331], [-7.9764204, 40.0033686], [-7.9766199, 40.0036608], [-7.9777727, 40.0046192], [-7.9781212, 40.0049089], [-7.9782811, 40.0050418], [-7.9787266, 40.0054122], [-7.9810371, 40.0069151], [-7.9812731, 40.0070105]]}, "properties": {"highway": "primary", "ref": "EN 351"}}, {"type": "Feature", "geometry": {"type": "LineString", "coordinates": [[-7.9812731, 40.0070105], [-7.9813725, 40.0070507]]}, "properties": {"bridge": "yes", "highway": "primary", "layer": "1", "ref": "EN 351"}}, {"type": "Feature", "geometry": {"type": "LineString", "coordinates": [[-7.9395103, 39.949683], [-7.9396191, 39.9498241], [-7.939645, 39.9498615], [-7.939664, 39.9499043], [-7.9396824, 39.9499557], [-7.939689, 39.9500063], [-7.9396887, 39.9500625]]}, "properties": {"highway": "primary", "ref": "EN 351"}}, {"type": "Feature", "geometry": {"type": "LineString", "coordinates": [[-7.9396887, 39.9500625], [-7.9396827, 39.9501049]]}, "properties": {"bridge": "yes", "highway": "primary", "layer": "1", "ref": "EN 351"}}, {"type": "Feature", "geometry": {"type": "LineString", "coordinates": [[-7.9386744, 39.9487607], [-7.9387006, 39.9487807], [-7.9387415, 39.9488168], [-7.9387851, 39.9488556], [-7.9388409, 39.9489178], [-7.9390214, 39.9491263], [-7.9391031, 39.9492201]]}, "properties": {"highway": "primary", "ref": "EN 351"}}, {"type": "Feature", "geometry": {"type": "LineString", "coordinates": [[-7.9386343, 39.9487373], [-7.9386744, 39.9487607]]}, "properties": {"bridge": "yes", "highway": "primary", "layer": "1", "ref": "EN 351"}}, {"type": "Feature", "geometry": {"type": "LineString", "coordinates": [[-7.9391623, 39.949288], [-7.9392935, 39.9494385], [-7.9395103, 39.949683]]}, "properties": {"highway": "primary", "ref": "EN 351"}}, {"type": "Feature", "geometry": {"type": "LineString", "coordinates": [[-7.9391031, 39.9492201], [-7.9391623, 39.949288]]}, "properties": {"bridge": "yes", "highway": "primary", "layer": "1", "ref": "EN 351"}}, {"type": "Feature", "geometry": {"type": "LineString", "coordinates": [[-7.9604607, 39.9797664], [-7.9606515, 39.9797633], [-7.9608137, 39.9797398]]}, "properties": {"highway": "primary", "ref": "EN 351"}}, {"type": "Feature", "geometry": {"type": "LineString", "coordinates": [[-7.9608137, 39.9797398], [-7.960945, 39.9797112]]}, "properties": {"highway": "primary", "ref": "EN 351"}}, {"type": "Feature", "geometry": {"type": "MultiPolygon", "coordinates": [[[[-7.8926367, 39.7347584], [-7.8926353, 39.7347233], [-7.892617, 39.7346816], [-7.8925822, 39.7346466], [-7.8925346, 39.7346222], [-7.8924792, 39.734611], [-7.892428, 39.7346131], [-7.8923763, 39.734628], [-7.8923332, 39.7346545], [-7.8923031, 39.7346901], [-7.8922889, 39.7347311], [-7.8922893, 39.7347608], [-7.8922981, 39.7347898], [-7.8923217, 39.7348241], [-7.892357, 39.7348518], [-7.8924012, 39.7348705], [-7.8924504, 39.7348788], [-7.8924879, 39.7348778], [-7.8925428, 39.7348643], [-7.892589, 39.7348378], [-7.8926214, 39.7348011], [-7.8926367, 39.7347584]]]]}, "properties": {"highway": "primary", "junction": "roundabout", "lanes": "2", "ref": "EN 351", "surface": "asphalt"}}]}