{"type": "FeatureCollection", "features": [{"type": "Feature", "geometry": {"type": "LineString", "coordinates": [[-7.7982859, 39.2177163], [-7.7973538, 39.217378], [-7.7968485, 39.2172336], [-7.7959213, 39.2170169], [-7.7957657, 39.2169898], [-7.7948321, 39.2168269], [-7.7946556, 39.2168081]]}, "properties": {"highway": "primary", "oneway": "yes", "ref": "EN 369"}}, {"type": "Feature", "geometry": {"type": "LineString", "coordinates": [[-7.5118606, 39.0935376], [-7.5118478, 39.0934965], [-7.5116037, 39.0927124], [-7.5115953, 39.0926922], [-7.511552, 39.0925872], [-7.511526, 39.0925269], [-7.5114815, 39.0924491], [-7.5114689, 39.0924294], [-7.5113697, 39.0923358], [-7.5112515, 39.0922475], [-7.5104054, 39.0918183], [-7.5102767, 39.0917772]]}, "properties": {"highway": "primary", "lanes": "2", "maxspeed": "50", "name": "Rua 25 de Abril", "postal_code": "7450-286", "ref": "EN 369"}}, {"type": "Feature", "geometry": {"type": "LineString", "coordinates": [[-7.5165154, 39.0964903], [-7.5166032, 39.0966352], [-7.5166707, 39.0968077], [-7.5167292, 39.0969767], [-7.5170227, 39.0978377], [-7.5172186, 39.0981995], [-7.5187532, 39.1003123], [-7.5191355, 39.1008394], [-7.5233817, 39.1066933], [-7.5236191, 39.106922], [-7.5249052, 39.1076159], [-7.5289651, 39.1097611], [-7.5306497, 39.1107603], [-7.5433217, 39.1181728], [-7.5479078, 39.1208553], [-7.5514185, 39.1228901], [-7.5527356, 39.1234842], [-7.5542387, 39.1243616], [-7.5554951, 39.1251176], [-7.5561169, 39.1254835], [-7.5567344, 39.1258094], [-7.5576167, 39.1261019]]}, "properties": {"highway": "primary", "lanes": "2", "maxspeed": "90", "ref": "EN 369"}}, {"type": "Feature", "geometry": {"type": "LineString", "coordinates": [[-7.6656925, 39.1958223], [-7.6673398, 39.1960824], [-7.6699868, 39.1964846], [-7.6704096, 39.1965275], [-7.6705999, 39.1965352], [-7.6707773, 39.1965385], [-7.6708987, 39.19654], [-7.6710686, 39.1965416], [-7.6712431, 39.1965377], [-7.6714404, 39.1965315], [-7.6715711, 39.1965255], [-7.6716089, 39.1965228], [-7.6717384, 39.1965136], [-7.671962, 39.1964905], [-7.6738323, 39.1963231], [-7.6753655, 39.1961633], [-7.6757627, 39.1961884], [-7.6760725, 39.1962539], [-7.677508, 39.1966659], [-7.6778631, 39.1967492], [-7.6785568, 39.1967948], [-7.6790709, 39.1967459], [-7.6838246, 39.1958806], [-7.6847768, 39.1957442], [-7.6866686, 39.1956405], [-7.6871516, 39.195613], [-7.6874236, 39.195597], [-7.6875651, 39.1955892], [-7.6876645, 39.1955849], [-7.6877718, 39.1955824], [-7.6878476, 39.195581], [-7.6879482, 39.1955812], [-7.6880437, 39.1955825], [-7.6881515, 39.195586], [-7.6882998, 39.1955922], [-7.6884538, 39.1956045], [-7.6885852, 39.1956164], [-7.6888594, 39.1956387], [-7.6896586, 39.1956938], [-7.6899834, 39.195717], [-7.6922071, 39.195876], [-7.6935527, 39.1959748]]}, "properties": {"highway": "primary", "ref": "EN 369;IC 13"}}, {"type": "Feature", "geometry": {"type": "LineString", "coordinates": [[-7.66521, 39.1958787], [-7.6652561, 39.1958614], [-7.6652878, 39.1958406], [-7.6653157, 39.1958108], [-7.6653328, 39.1957765], [-7.6653381, 39.19574], [-7.6653312, 39.1957036], [-7.6653125, 39.1956697], [-7.6652833, 39.1956407], [-7.6652359, 39.1956145], [-7.6651804, 39.195601], [-7.6651222, 39.1956015], [-7.6650672, 39.1956161], [-7.6650207, 39.1956432], [-7.6649935, 39.1956712], [-7.6649759, 39.1957036], [-7.664969, 39.1957382], [-7.6649732, 39.1957731], [-7.6649909, 39.1958102], [-7.6650209, 39.195842], [-7.6650613, 39.1958664], [-7.6651087, 39.1958813], [-7.6651596, 39.1958855], [-7.66521, 39.1958787]]}, "properties": {"highway": "primary", "junction": "roundabout", "ref": "EN 369"}}, {"type": "Feature", "geometry": {"type": "LineString", "coordinates": [[-7.5100769, 39.0916912], [-7.5099488, 39.0915935], [-7.5095566, 39.091404], [-7.5092316, 39.0912466], [-7.508261, 39.0907782], [-7.5080521, 39.0906761], [-7.5078072, 39.0905576], [-7.5068558, 39.0900973], [-7.5065719, 39.08996], [-7.505709, 39.0895426]]}, "properties": {"highway": "primary", "maxspeed": "50", "name": "Rua 25 de Abril", "postal_code": "7450-286", "ref": "EN 369"}}, {"type": "Feature", "geometry": {"type": "LineString", "coordinates": [[-7.513168, 39.0954297], [-7.5130984, 39.0953649], [-7.5130554, 39.0953157], [-7.512726, 39.0946766], [-7.5126652, 39.0945808], [-7.5125138, 39.0943425], [-7.5124625, 39.0942617], [-7.512014, 39.0938149], [-7.5119749, 39.0937725], [-7.5119365, 39.0937199], [-7.5119051, 39.0936541], [-7.5118606, 39.0935376]]}, "properties": {"highway": "primary", "maxspeed": "50", "name": "Rua 25 de Abril", "postal_code": "7450-286", "ref": "EN 369"}}, {"type": "Feature", "geometry": {"type": "LineString", "coordinates": [[-7.505709, 39.0895426], [-7.5037615, 39.0885977], [-7.4956478, 39.0846622], [-7.4945223, 39.0841163], [-7.4938321, 39.0837815], [-7.4934795, 39.0836471], [-7.4932022, 39.0835856], [-7.4930899, 39.0835607], [-7.4789647, 39.0816424], [-7.4786233, 39.0815503], [-7.4782818, 39.0814004], [-7.4712793, 39.0769928], [-7.471258, 39.0769794], [-7.4623775, 39.07131], [-7.4575506, 39.0682242], [-7.4549041, 39.0664547], [-7.4545169, 39.0662326], [-7.4543459, 39.0661676], [-7.4528178, 39.0657098], [-7.452605, 39.0656231], [-7.4515758, 39.0650407], [-7.4513281, 39.0648755], [-7.4509966, 39.0645992], [-7.4493674, 39.0631445], [-7.4493011, 39.0630633], [-7.4484289, 39.0614298], [-7.4482265, 39.0611372], [-7.4482056, 39.0611175], [-7.4471694, 39.0601403], [-7.4466426, 39.0597638], [-7.4463739, 39.0595741], [-7.44621, 39.0594224], [-7.4460774, 39.0592301], [-7.4459764, 39.0590403], [-7.4459545, 39.0588949], [-7.445946, 39.0587811], [-7.4459445, 39.058654], [-7.4459753, 39.0584289], [-7.4460263, 39.0581495], [-7.4461646, 39.0574312], [-7.4461681, 39.0572145], [-7.4461088, 39.0570194], [-7.4460111, 39.0568379], [-7.4458646, 39.0566564], [-7.4454921, 39.0563627]]}, "properties": {"highway": "primary", "ref": "EN 369"}}, {"type": "Feature", "geometry": {"type": "LineString", "coordinates": [[-7.5740632, 39.1385006], [-7.5741688, 39.1385291], [-7.5742797, 39.1385276], [-7.5744286, 39.138481], [-7.5745581, 39.138391], [-7.5759959, 39.1368413], [-7.5767141, 39.1362314], [-7.5769321, 39.1361138], [-7.5771558, 39.1361121], [-7.577383, 39.1362017], [-7.5774869, 39.1362673]]}, "properties": {"highway": "primary", "lanes": "2", "maxspeed": "90", "ref": "EN 369"}}, {"type": "Feature", "geometry": {"type": "LineString", "coordinates": [[-7.5738369, 39.1384208], [-7.5740632, 39.1385006]]}, "properties": {"bridge": "yes", "highway": "primary", "lanes": "2", "layer": "1", "maxspeed": "90", "ref": "EN 369", "source": "Bing"}}, {"type": "Feature", "geometry": {"type": "LineString", "coordinates": [[-7.5883362, 39.1322432], [-7.588498, 39.1322875], [-7.5896019, 39.1325999], [-7.5901268, 39.1327411], [-7.5901912, 39.1327617], [-7.5906776, 39.1328925], [-7.5909413, 39.1329689], [-7.5913007, 39.1330605], [-7.5913406, 39.1330772]]}, "properties": {"highway": "primary", "name": "Estrada da Sulfurea", "postal_code": "7460-004", "ref": "EN 369", "surface": "asphalt"}}, {"type": "Feature", "geometry": {"type": "LineString", "coordinates": [[-7.6545599, 39.1874982], [-7.6545024, 39.1874739], [-7.654469, 39.1874598], [-7.6543679, 39.1874086], [-7.6542689, 39.1873487], [-7.6445736, 39.1811734], [-7.6428915, 39.180102], [-7.6413789, 39.1791385], [-7.6412239, 39.1790042], [-7.6411198, 39.1788532], [-7.640851, 39.1780562], [-7.6400433, 39.1753223], [-7.6394527, 39.173403], [-7.6393606, 39.1732422], [-7.639242, 39.1730897], [-7.6359611, 39.1701772], [-7.6353007, 39.169611], [-7.6316699, 39.1676035], [-7.627133, 39.1651423], [-7.6267724, 39.16494], [-7.6264905, 39.1647599], [-7.6262859, 39.1645811], [-7.6261479, 39.1644076], [-7.6237463, 39.1607228], [-7.6221366, 39.1593057], [-7.6211997, 39.1584809]]}, "properties": {"highway": "primary", "ref": "EN 369"}}, {"type": "Feature", "geometry": {"type": "LineString", "coordinates": [[-7.7838969, 39.217094], [-7.7821002, 39.2171853], [-7.7807588, 39.2172124], [-7.7796839, 39.2171759], [-7.7789879, 39.2171047], [-7.7785963, 39.2170554]]}, "properties": {"highway": "primary", "ref": "EN 369"}}, {"type": "Feature", "geometry": {"type": "LineString", "coordinates": [[-7.7914003, 39.2167323], [-7.7928649, 39.2167394], [-7.7934693, 39.21677], [-7.7936876, 39.2167911], [-7.7944936, 39.2168763], [-7.794765, 39.2169212], [-7.795205, 39.2169941], [-7.7960979, 39.2171727], [-7.7974568, 39.2175034], [-7.7982859, 39.2177163]]}, "properties": {"highway": "primary", "oneway": "yes", "ref": "EN 369"}}, {"type": "Feature", "geometry": {"type": "LineString", "coordinates": [[-7.7866108, 39.2169575], [-7.7838969, 39.217094]]}, "properties": {"bridge": "yes", "highway": "primary", "layer": "1", "ref": "EN 369;IC 13"}}, {"type": "Feature", "geometry": {"type": "LineString", "coordinates": [[-7.7914003, 39.2167323], [-7.7900398, 39.2167977], [-7.7890508, 39.216849], [-7.7887937, 39.2168623], [-7.7866108, 39.2169575]]}, "properties": {"highway": "primary", "ref": "EN 369"}}, {"type": "Feature", "geometry": {"type": "LineString", "coordinates": [[-7.7982859, 39.2177163], [-7.8044659, 39.2195511]]}, "properties": {"highway": "primary", "ref": "EN 369"}}, {"type": "Feature", "geometry": {"type": "LineString", "coordinates": [[-7.7026158, 39.1969373], [-7.7028103, 39.1969397], [-7.7029621, 39.196941], [-7.7031165, 39.1969444], [-7.7032676, 39.1969518], [-7.7033595, 39.1969573], [-7.703464, 39.1969675], [-7.7035606, 39.1969778], [-7.7036932, 39.1969947], [-7.7038522, 39.1970177], [-7.7041176, 39.1970616], [-7.7047433, 39.1971734], [-7.7054812, 39.1973042], [-7.7071417, 39.1975929], [-7.7098931, 39.1980771], [-7.7113053, 39.1983223], [-7.7161925, 39.1991753], [-7.7169109, 39.1993016], [-7.7187578, 39.1996252], [-7.7189108, 39.199652], [-7.7190589, 39.1996765], [-7.7192263, 39.199704], [-7.7193592, 39.199727], [-7.7195182, 39.1997561], [-7.7196766, 39.1997851], [-7.7198477, 39.1998191], [-7.7199539, 39.1998418], [-7.7201087, 39.1998792], [-7.7202942, 39.199925], [-7.7208097, 39.2000497], [-7.7219842, 39.2003274], [-7.7232059, 39.2006211], [-7.7237935, 39.2007621], [-7.7244003, 39.2009088], [-7.7245791, 39.2009479], [-7.7247557, 39.2009852], [-7.7249064, 39.2010161], [-7.7253396, 39.2010997], [-7.7261245, 39.2012545], [-7.726612, 39.2013479], [-7.7273543, 39.2014955], [-7.7279799, 39.2016179], [-7.7284479, 39.2017104], [-7.729507, 39.2019162], [-7.7304432, 39.2021007], [-7.7330657, 39.2026142], [-7.7393263, 39.2038363], [-7.7398792, 39.2039514], [-7.7400532, 39.2039847], [-7.7401671, 39.2040041], [-7.7402567, 39.2040191], [-7.7403539, 39.2040358], [-7.7404576, 39.2040502], [-7.7405601, 39.2040613], [-7.7406719, 39.2040711], [-7.7408303, 39.2040814], [-7.7409671, 39.2040851], [-7.74109, 39.2040859], [-7.7412377, 39.2040836], [-7.7414227, 39.204077], [-7.7429552, 39.2040082], [-7.7560237, 39.2034382], [-7.7561841, 39.2034384]]}, "properties": {"highway": "primary", "ref": "EN 369;IC 13"}}, {"type": "Feature", "geometry": {"type": "LineString", "coordinates": [[-7.4446482, 39.0556301], [-7.4444307, 39.0554563]]}, "properties": {"highway": "primary", "ref": "EN 369"}}, {"type": "Feature", "geometry": {"type": "LineString", "coordinates": [[-7.5578143, 39.1261642], [-7.5583201, 39.1263401], [-7.5585294, 39.1264129], [-7.5615549, 39.1280437], [-7.5677284, 39.1314532], [-7.5703311, 39.1330218], [-7.5720363, 39.1340675], [-7.5726056, 39.1344166], [-7.5727344, 39.1345024]]}, "properties": {"highway": "primary", "lanes": "2", "maxspeed": "90", "ref": "EN 369"}}, {"type": "Feature", "geometry": {"type": "LineString", "coordinates": [[-7.608021, 39.1461771], [-7.6076796, 39.1459454], [-7.6072959, 39.145609], [-7.6068546, 39.1451085], [-7.6049211, 39.1426755], [-7.6046986, 39.1424069], [-7.6046585, 39.1423672], [-7.6045495, 39.1422596], [-7.6043334, 39.1421062], [-7.6026764, 39.1410564], [-7.5992926, 39.1383835], [-7.598967, 39.1381275], [-7.5988196, 39.1380332], [-7.598777, 39.1380133], [-7.5984178, 39.1378529], [-7.5967161, 39.1372042], [-7.5966166, 39.1371662], [-7.5960888, 39.136965], [-7.5958201, 39.1368323], [-7.5951021, 39.136453], [-7.5948999, 39.1363462], [-7.5943598, 39.1360609], [-7.5939216, 39.1358294], [-7.5936671, 39.135695], [-7.5931354, 39.1354197]]}, "properties": {"highway": "primary", "ref": "EN 369"}}, {"type": "Feature", "geometry": {"type": "LineString", "coordinates": [[-7.5576167, 39.1261019], [-7.5577449, 39.1261423], [-7.5578143, 39.1261642]]}, "properties": {"bridge": "yes", "highway": "primary", "lanes": "2", "layer": "1", "maxspeed": "90", "ref": "EN 369"}}, {"type": "Feature", "geometry": {"type": "LineString", "coordinates": [[-7.5774869, 39.1362673], [-7.5775709, 39.1363205]]}, "properties": {"bridge": "yes", "highway": "primary", "lanes": "2", "layer": "1", "maxspeed": "90", "ref": "EN 369"}}, {"type": "Feature", "geometry": {"type": "LineString", "coordinates": [[-7.6081232, 39.1462465], [-7.608021, 39.1461771]]}, "properties": {"bridge": "yes", "highway": "primary", "layer": "1", "ref": "EN 369"}}, {"type": "Feature", "geometry": {"type": "LineString", "coordinates": [[-7.5788929, 39.1361627], [-7.5790676, 39.1360377], [-7.5799129, 39.1354016], [-7.5814971, 39.1336023], [-7.5816352, 39.1333985], [-7.5816437, 39.133283], [-7.5816496, 39.1330652], [-7.5816752, 39.1329407], [-7.5817348, 39.1328106], [-7.5818729, 39.1327282], [-7.5820664, 39.1327203], [-7.582233, 39.1327962], [-7.5823057, 39.1329018], [-7.582351, 39.1330269], [-7.5824653, 39.1331775], [-7.5825972, 39.1332375], [-7.5827384, 39.1332506], [-7.5829017, 39.1331923], [-7.5829854, 39.1331161], [-7.5830313, 39.1330173], [-7.5830352, 39.1329255], [-7.582966, 39.132723], [-7.582918, 39.1325157], [-7.5829753, 39.1322997], [-7.5830216, 39.1321866], [-7.5830865, 39.1321015], [-7.5831838, 39.1320562], [-7.5833528, 39.1320055], [-7.5841868, 39.1320192], [-7.584783, 39.1319743], [-7.5851769, 39.1319069], [-7.5861182, 39.1317346], [-7.586381, 39.1317373], [-7.5866416, 39.1317794], [-7.5881275, 39.1321828]]}, "properties": {"highway": "primary", "lanes": "2", "maxspeed": "90", "ref": "EN 369"}}, {"type": "Feature", "geometry": {"type": "LineString", "coordinates": [[-7.5730456, 39.1350224], [-7.5730134, 39.1348477], [-7.5729678, 39.1347166], [-7.5729035, 39.1346375], [-7.5728176, 39.1345522], [-7.5727344, 39.1345024]]}, "properties": {"highway": "primary", "ref": "EN 369"}}, {"type": "Feature", "geometry": {"type": "LineString", "coordinates": [[-7.5730456, 39.1350224], [-7.5730562, 39.1351891], [-7.5734795, 39.1380346], [-7.5735403, 39.1381937], [-7.5736335, 39.1383098], [-7.573767, 39.1383976]]}, "properties": {"highway": "primary", "lanes": "2", "maxspeed": "90", "ref": "EN 369"}}, {"type": "Feature", "geometry": {"type": "LineString", "coordinates": [[-7.5911962, 39.1337359], [-7.5916298, 39.1335422]]}, "properties": {"highway": "primary", "name": "Rua do Esp\u00edrito Santo", "postal_code": "7460-023", "ref": "EN 369", "surface": "asphalt"}}, {"type": "Feature", "geometry": {"type": "LineString", "coordinates": [[-7.5931354, 39.1354197], [-7.5922006, 39.1345946], [-7.5911962, 39.1337359]]}, "properties": {"highway": "primary", "name": "Rua 3 de Julho", "postal_code": "7460-023", "ref": "EN 369"}}, {"type": "Feature", "geometry": {"type": "LineString", "coordinates": [[-7.7719167, 39.2147359], [-7.7734566, 39.2154396], [-7.773716, 39.2155469], [-7.7750932, 39.216126]]}, "properties": {"highway": "primary", "oneway": "yes", "ref": "EN 369;IC 13"}}, {"type": "Feature", "geometry": {"type": "LineString", "coordinates": [[-7.7785963, 39.2170554], [-7.7781137, 39.2169521], [-7.7776767, 39.2168497], [-7.7772152, 39.2167318], [-7.7765044, 39.2165281], [-7.7764105, 39.2164979], [-7.7761289, 39.2164118], [-7.7758474, 39.2163198], [-7.7754637, 39.2161728], [-7.7751377, 39.2160434]]}, "properties": {"highway": "primary", "oneway": "yes", "ref": "EN 369;IC 13"}}, {"type": "Feature", "geometry": {"type": "LineString", "coordinates": [[-7.7751377, 39.2160434], [-7.7749809, 39.2159795], [-7.7747203, 39.215876], [-7.7744983, 39.2157878], [-7.7737553, 39.2154636], [-7.7733367, 39.2152813], [-7.7728405, 39.2150818], [-7.7719167, 39.2147359]]}, "properties": {"highway": "primary", "oneway": "yes", "ref": "EN 369;IC 13"}}, {"type": "Feature", "geometry": {"type": "LineString", "coordinates": [[-7.7750932, 39.216126], [-7.7751975, 39.2161652], [-7.7759354, 39.2164424], [-7.7766053, 39.2166687], [-7.776997, 39.2167717], [-7.7775199, 39.2168927], [-7.7785963, 39.2170554]]}, "properties": {"highway": "primary", "oneway": "yes", "ref": "EN 369;IC 13"}}, {"type": "Feature", "geometry": {"type": "LineString", "coordinates": [[-7.7561841, 39.2034384], [-7.7563606, 39.2034387], [-7.7566902, 39.203497]]}, "properties": {"highway": "primary", "ref": "EN 369;IC 13"}}, {"type": "Feature", "geometry": {"type": "LineString", "coordinates": [[-7.7566902, 39.203497], [-7.75696, 39.2035638]]}, "properties": {"highway": "primary", "ref": "EN 369;IC 13"}}, {"type": "Feature", "geometry": {"type": "LineString", "coordinates": [[-7.75696, 39.2035638], [-7.757093, 39.2035972], [-7.7580662, 39.2039045], [-7.7585237, 39.2040489], [-7.7591396, 39.2042414], [-7.7604177, 39.2046409], [-7.7614271, 39.2049564], [-7.762061, 39.2051545], [-7.7628192, 39.2053915], [-7.7635499, 39.2056199], [-7.7645483, 39.2059319], [-7.7649469, 39.2060565], [-7.7654009, 39.2062305], [-7.7657143, 39.2064271], [-7.7659544, 39.2066307], [-7.7662214, 39.2069773], [-7.766323, 39.207151], [-7.7664085, 39.2073416], [-7.766453, 39.2076195], [-7.7664959, 39.208022], [-7.7665198, 39.208246], [-7.7665563, 39.2087853], [-7.7665592, 39.2088289], [-7.7665944, 39.2094161], [-7.76664, 39.2101783], [-7.7666765, 39.2107878], [-7.7666882, 39.2110085], [-7.766713, 39.2114782], [-7.7667697, 39.211959], [-7.7668538, 39.2121458], [-7.7669216, 39.2122962], [-7.7670993, 39.2125373], [-7.7673373, 39.2127283], [-7.7676278, 39.2129061], [-7.7683993, 39.2132399], [-7.7706875, 39.2141917], [-7.7719167, 39.2147359]]}, "properties": {"highway": "primary", "ref": "EN 369;IC 13"}}, {"type": "Feature", "geometry": {"type": "LineString", "coordinates": [[-7.7946556, 39.2168081], [-7.7942722, 39.2167628], [-7.7941012, 39.2167432], [-7.7937534, 39.2167105], [-7.7930366, 39.216671], [-7.7914003, 39.2167323]]}, "properties": {"highway": "primary", "oneway": "yes", "ref": "EN 369"}}, {"type": "Feature", "geometry": {"type": "LineString", "coordinates": [[-7.8044659, 39.2195511], [-7.8051146, 39.2197437]]}, "properties": {"highway": "primary", "ref": "EN 369;IC 13"}}, {"type": "Feature", "geometry": {"type": "LineString", "coordinates": [[-7.573767, 39.1383976], [-7.5738369, 39.1384208]]}, "properties": {"highway": "primary", "lanes": "2", "maxspeed": "90", "ref": "EN 369"}}, {"type": "Feature", "geometry": {"type": "LineString", "coordinates": [[-7.4444307, 39.0554563], [-7.4443105, 39.0553498]]}, "properties": {"highway": "primary", "ref": "EN 369"}}, {"type": "Feature", "geometry": {"type": "LineString", "coordinates": [[-7.4450774, 39.0560145], [-7.4448203, 39.0557843], [-7.4446482, 39.0556301]]}, "properties": {"highway": "primary", "ref": "EN 369"}}, {"type": "Feature", "geometry": {"type": "LineString", "coordinates": [[-7.5137762, 39.0952766], [-7.5143062, 39.0951459], [-7.5144463, 39.0951244], [-7.5146015, 39.0951111], [-7.5149331, 39.0951054], [-7.5152493, 39.0951153], [-7.5153539, 39.0951372], [-7.5154329, 39.0951633]]}, "properties": {"highway": "primary", "lanes": "2", "maxspeed": "50", "ref": "EN 369"}}, {"type": "Feature", "geometry": {"type": "LineString", "coordinates": [[-7.513168, 39.0954297], [-7.5133962, 39.0953747], [-7.5137762, 39.0952766]]}, "properties": {"highway": "primary", "lanes": "2", "maxspeed": "90", "ref": "EN 369"}}, {"type": "Feature", "geometry": {"type": "LineString", "coordinates": [[-7.5775709, 39.1363205], [-7.577725, 39.1364178], [-7.5780293, 39.136537], [-7.578273, 39.1365275], [-7.5784651, 39.1364688], [-7.5788929, 39.1361627]]}, "properties": {"highway": "primary", "lanes": "2", "maxspeed": "90", "ref": "EN 369"}}, {"type": "Feature", "geometry": {"type": "LineString", "coordinates": [[-7.5881275, 39.1321828], [-7.5883362, 39.1322432]]}, "properties": {"highway": "primary", "ref": "EN 369", "source": "Bing", "surface": "asphalt"}}, {"type": "Feature", "geometry": {"type": "LineString", "coordinates": [[-7.6568825, 39.1951645], [-7.6579436, 39.1951787], [-7.6584234, 39.1951798], [-7.6589569, 39.1951908], [-7.6593391, 39.1951971], [-7.6595146, 39.1952046], [-7.6605463, 39.1952486], [-7.6614889, 39.1953633], [-7.6645008, 39.1956876], [-7.664625, 39.1956979]]}, "properties": {"highway": "primary", "maxspeed": "50", "ref": "EN 369"}}, {"type": "Feature", "geometry": {"type": "LineString", "coordinates": [[-7.6656925, 39.1958223], [-7.6656164, 39.1958039], [-7.6655582, 39.1957855], [-7.6655086, 39.1957655], [-7.6654429, 39.1957363], [-7.6653783, 39.1957046], [-7.6653363, 39.195682], [-7.6652833, 39.1956407]]}, "properties": {"highway": "primary", "oneway": "yes", "ref": "EN 369"}}, {"type": "Feature", "geometry": {"type": "LineString", "coordinates": [[-7.6652878, 39.1958406], [-7.6654039, 39.1958283], [-7.6654594, 39.1958213], [-7.6655182, 39.1958169], [-7.6655623, 39.1958137], [-7.6656137, 39.195815], [-7.6656925, 39.1958223]]}, "properties": {"highway": "primary", "oneway": "yes", "ref": "EN 369"}}, {"type": "Feature", "geometry": {"type": "LineString", "coordinates": [[-7.664625, 39.1956979], [-7.6647049, 39.1957057], [-7.6647782, 39.1957216], [-7.6648471, 39.195745], [-7.6649021, 39.1957675], [-7.6649624, 39.1957984], [-7.6649673, 39.195802], [-7.6650209, 39.195842]]}, "properties": {"highway": "primary", "oneway": "yes", "ref": "EN 369"}}, {"type": "Feature", "geometry": {"type": "LineString", "coordinates": [[-7.6650207, 39.1956432], [-7.6649549, 39.1956606], [-7.6648978, 39.195674], [-7.6648374, 39.1956848], [-7.6647916, 39.1956895], [-7.6647631, 39.1956924], [-7.6647109, 39.1956964], [-7.6646721, 39.1956976], [-7.664625, 39.1956979]]}, "properties": {"highway": "primary", "oneway": "yes", "ref": "EN 369"}}, {"type": "Feature", "geometry": {"type": "LineString", "coordinates": [[-7.7015831, 39.1968946], [-7.7011572, 39.1968867], [-7.7011506, 39.1968867], [-7.7008584, 39.1968857], [-7.7006633, 39.1968891], [-7.7005129, 39.1968958], [-7.7003624, 39.1969049], [-7.7002033, 39.1969151], [-7.7001152, 39.1969208]]}, "properties": {"highway": "trunk", "lanes": "2", "oneway": "yes", "ref": "EN 369;IC 13"}}, {"type": "Feature", "geometry": {"type": "LineString", "coordinates": [[-7.6990426, 39.1971379], [-7.6991966, 39.1971146], [-7.6992807, 39.1971009], [-7.6993682, 39.1970885], [-7.6994611, 39.1970776], [-7.6995381, 39.1970686], [-7.6996532, 39.1970542], [-7.6997699, 39.1970405], [-7.699854, 39.1970323], [-7.6999841, 39.1970241], [-7.700138, 39.1970131], [-7.7002628, 39.1970035], [-7.7004203, 39.1969939], [-7.7004673, 39.1969913]]}, "properties": {"highway": "trunk", "lanes": "2", "oneway": "yes", "ref": "EN 369;IC 13"}}, {"type": "Feature", "geometry": {"type": "LineString", "coordinates": [[-7.693754, 39.1959896], [-7.6939072, 39.1960009]]}, "properties": {"highway": "primary", "ref": "EN 369;IC 13"}}, {"type": "Feature", "geometry": {"type": "LineString", "coordinates": [[-7.6939072, 39.1960009], [-7.694097, 39.1960148]]}, "properties": {"highway": "primary", "ref": "EN 369;IC 13"}}, {"type": "Feature", "geometry": {"type": "LineString", "coordinates": [[-7.6935527, 39.1959748], [-7.693754, 39.1959896]]}, "properties": {"highway": "primary", "ref": "EN 369;IC 13"}}, {"type": "Feature", "geometry": {"type": "LineString", "coordinates": [[-7.6211228, 39.1584132], [-7.6197624, 39.1572155], [-7.6196441, 39.1571073], [-7.6193913, 39.1568148], [-7.6189108, 39.1561273], [-7.6182907, 39.1552246], [-7.6180115, 39.1549534], [-7.6169576, 39.1539297], [-7.6165052, 39.1534518], [-7.6146805, 39.1512251], [-7.6137373, 39.1501109], [-7.6135061, 39.1499], [-7.6095691, 39.147228], [-7.6081232, 39.1462465]]}, "properties": {"highway": "primary", "ref": "EN 369"}}, {"type": "Feature", "geometry": {"type": "LineString", "coordinates": [[-7.6211997, 39.1584809], [-7.6211228, 39.1584132]]}, "properties": {"bridge": "yes", "highway": "primary", "layer": "1", "ref": "EN 369"}}, {"type": "Feature", "geometry": {"type": "LineString", "coordinates": [[-7.5913406, 39.1330772], [-7.5915073, 39.1331811], [-7.5916628, 39.1333143], [-7.5916971, 39.1334034], [-7.5916808, 39.1334752], [-7.5916298, 39.1335422]]}, "properties": {"highway": "primary", "name": "Avenida da Liberta\u00e7\u00e3o", "postal_code": "7460-998;7460-002", "postal_code:description": "7460-998:Posto Correios Cabe\u00e7o de Vide", "ref": "EN 369", "surface": "asphalt"}}, {"type": "Feature", "geometry": {"type": "LineString", "coordinates": [[-7.5154329, 39.0951633], [-7.515518, 39.0952161], [-7.515583, 39.0952797], [-7.5156464, 39.0953523], [-7.5165154, 39.0964903]]}, "properties": {"highway": "primary", "lanes": "2", "maxspeed": "50", "ref": "EN 369"}}, {"type": "Feature", "geometry": {"type": "LineString", "coordinates": [[-7.7004673, 39.1969913], [-7.7005972, 39.1969843], [-7.7008414, 39.1969733], [-7.7010326, 39.1969651], [-7.7012024, 39.1969596], [-7.7013325, 39.1969569], [-7.7014696, 39.1969548], [-7.7016422, 39.1969521], [-7.7018271, 39.1969521], [-7.7020598, 39.19695], [-7.7023297, 39.1969459], [-7.7026158, 39.1969373]]}, "properties": {"highway": "trunk", "lanes": "1", "oneway": "yes", "ref": "EN 369;IC 13"}}, {"type": "Feature", "geometry": {"type": "LineString", "coordinates": [[-7.6968052, 39.1977385], [-7.6973067, 39.1975755], [-7.6977041, 39.1974534], [-7.6980933, 39.1973422], [-7.6982454, 39.1973045], [-7.698402, 39.1972682], [-7.6985321, 39.1972387], [-7.6986648, 39.1972113], [-7.6988825, 39.1971667], [-7.6990426, 39.1971379]]}, "properties": {"highway": "trunk", "lanes": "3", "oneway": "yes", "ref": "EN 369;IC 13"}}, {"type": "Feature", "geometry": {"type": "LineString", "coordinates": [[-7.6938504, 39.1990226], [-7.6947079, 39.198645], [-7.6958756, 39.1981388], [-7.6963177, 39.1979525], [-7.6968052, 39.1977385]]}, "properties": {"highway": "trunk", "lanes": "2", "oneway": "yes", "ref": "EN 369;IC 13"}}, {"type": "Feature", "geometry": {"type": "LineString", "coordinates": [[-7.7026158, 39.1969373], [-7.7018433, 39.1969025], [-7.7015831, 39.1968946]]}, "properties": {"highway": "trunk", "lanes": "1", "oneway": "yes", "ref": "EN 369;IC 13"}}, {"type": "Feature", "geometry": {"type": "MultiPolygon", "coordinates": [[[[-7.6653381, 39.19574], [-7.6653312, 39.1957036], [-7.6653125, 39.1956697], [-7.6652833, 39.1956407], [-7.6652359, 39.1956145], [-7.6651804, 39.195601], [-7.6651222, 39.1956015], [-7.6650672, 39.1956161], [-7.6650207, 39.1956432], [-7.6649935, 39.1956712], [-7.6649759, 39.1957036], [-7.664969, 39.1957382], [-7.6649732, 39.1957731], [-7.6649909, 39.1958102], [-7.6650209, 39.195842], [-7.6650613, 39.1958664], [-7.6651087, 39.1958813], [-7.6651596, 39.1958855], [-7.66521, 39.1958787], [-7.6652561, 39.1958614], [-7.6652878, 39.1958406], [-7.6653157, 39.1958108], [-7.6653328, 39.1957765], [-7.6653381, 39.19574]]]]}, "properties": {"highway": "primary", "junction": "roundabout", "ref": "EN 369"}}]}