{"type": "FeatureCollection", "features": [{"type": "Feature", "geometry": {"type": "LineString", "coordinates": [[-8.63321, 39.4828556], [-8.6330515, 39.4826317], [-8.6329915, 39.4825069], [-8.6329629, 39.4823903], [-8.6329566, 39.4822544], [-8.6329835, 39.4821182], [-8.6330424, 39.4819956], [-8.6331447, 39.4818658]]}, "properties": {"highway": "primary", "lanes": "2", "maxspeed": "50", "oneway": "no", "ref": "EN 365-4"}}, {"type": "Feature", "geometry": {"type": "LineString", "coordinates": [[-8.6337376, 39.4834722], [-8.6336969, 39.483394], [-8.6332771, 39.4828827], [-8.63321, 39.4828556]]}, "properties": {"highway": "primary", "maxspeed": "50", "oneway": "yes", "ref": "EN 365-4"}}, {"type": "Feature", "geometry": {"type": "LineString", "coordinates": [[-8.63321, 39.4828556], [-8.6332288, 39.4829313], [-8.6333965, 39.483188], [-8.6334259, 39.4834316]]}, "properties": {"highway": "primary", "maxspeed": "50", "oneway": "yes", "ref": "EN 365-4"}}, {"type": "Feature", "geometry": {"type": "LineString", "coordinates": [[-8.6331447, 39.4818658], [-8.6338737, 39.4810941], [-8.6342693, 39.4806103]]}, "properties": {"highway": "primary", "lanes": "2", "maxspeed": "90", "ref": "EN 365-4"}}, {"type": "Feature", "geometry": {"type": "LineString", "coordinates": [[-8.6342693, 39.4806103], [-8.6345098, 39.4802939]]}, "properties": {"highway": "primary", "lanes": "2", "layer": "-1", "maxspeed": "90", "ref": "EN 365-4", "tunnel": "yes"}}, {"type": "Feature", "geometry": {"type": "LineString", "coordinates": [[-8.6345098, 39.4802939], [-8.6346085, 39.4801591]]}, "properties": {"highway": "primary", "lanes": "2", "maxspeed": "90", "oneway": "no", "ref": "EN 365-4", "surface": "asphalt"}}, {"type": "Feature", "geometry": {"type": "LineString", "coordinates": [[-8.6466263, 39.4644559], [-8.6466032, 39.4643921], [-8.6465542, 39.4643378], [-8.6464847, 39.4642989], [-8.6464125, 39.464281], [-8.6463367, 39.4642802], [-8.6462639, 39.4642966], [-8.6462004, 39.4643286], [-8.6461543, 39.4643705], [-8.6461249, 39.4644205], [-8.6461145, 39.4644749], [-8.646119, 39.4645137], [-8.6461434, 39.4645679], [-8.6461869, 39.4646145], [-8.6462458, 39.4646495], [-8.6463381, 39.4646844], [-8.6464034, 39.4646763], [-8.6464256, 39.4646701], [-8.6464915, 39.4646515], [-8.6465484, 39.4646197], [-8.646592, 39.4645773], [-8.6466275, 39.4645273], [-8.6466263, 39.4644559]]}, "properties": {"highway": "primary", "junction": "roundabout", "ref": "EN 361;EN 365-4", "surface": "asphalt"}}, {"type": "Feature", "geometry": {"type": "LineString", "coordinates": [[-8.6466275, 39.4645273], [-8.6467221, 39.4644437], [-8.6469407, 39.4643286], [-8.6473293, 39.4641462], [-8.6483804, 39.4637612], [-8.6505737, 39.4629776], [-8.6510428, 39.4628668], [-8.6516198, 39.4627735], [-8.65217, 39.4627487], [-8.6526774, 39.4627498], [-8.6531611, 39.462778], [-8.6538031, 39.4628631], [-8.6546923, 39.4630563], [-8.6560321, 39.4634504], [-8.6568378, 39.4636952], [-8.6573182, 39.463895], [-8.6574263, 39.4639972]]}, "properties": {"highway": "primary", "lanes": "2", "maxspeed": "90", "oneway": "yes", "ref": "EN 361;EN 365-4", "surface": "asphalt"}}, {"type": "Feature", "geometry": {"type": "LineString", "coordinates": [[-8.6576958, 39.4641213], [-8.6577952, 39.4641703], [-8.6578139, 39.4641965], [-8.6579266, 39.464354], [-8.6580886, 39.4645639], [-8.6584444, 39.4650887]]}, "properties": {"highway": "primary", "lanes": "2", "oneway": "yes", "ref": "EN 365-4", "surface": "asphalt"}}, {"type": "Feature", "geometry": {"type": "LineString", "coordinates": [[-8.6574263, 39.4639972], [-8.6574502, 39.4640337], [-8.6574928, 39.4640725], [-8.6575469, 39.4641014], [-8.6575945, 39.4641158], [-8.6576448, 39.4641226], [-8.6576958, 39.4641213], [-8.657759, 39.4641083], [-8.6578157, 39.4640831], [-8.6578622, 39.4640476], [-8.6578953, 39.464004], [-8.6579126, 39.4639563], [-8.6579138, 39.4639066], [-8.6578908, 39.463844], [-8.6578424, 39.4637907], [-8.6577739, 39.4637527], [-8.6576931, 39.4637342], [-8.6576291, 39.4637344], [-8.6575565, 39.4637507], [-8.6574934, 39.4637829], [-8.6574454, 39.463828], [-8.6574168, 39.463882], [-8.6574103, 39.4639402], [-8.6574263, 39.4639972]]}, "properties": {"highway": "primary", "junction": "roundabout", "ref": "EN 361;EN 365-4", "surface": "asphalt"}}, {"type": "Feature", "geometry": {"type": "LineString", "coordinates": [[-8.6576291, 39.4637344], [-8.6571642, 39.4636847], [-8.6568852, 39.463622], [-8.656063, 39.463379], [-8.6547272, 39.4629801], [-8.6538377, 39.4627589], [-8.6531777, 39.4626546], [-8.6526927, 39.4626108], [-8.6521591, 39.4626224], [-8.651611, 39.4626667], [-8.6510214, 39.4627668], [-8.6505329, 39.4628835], [-8.6483355, 39.4636881], [-8.6472815, 39.4640743], [-8.6468755, 39.4642098], [-8.6465911, 39.464285], [-8.6464847, 39.4642989]]}, "properties": {"highway": "primary", "lanes": "2", "maxspeed": "90", "oneway": "yes", "ref": "EN 361;EN 365-4", "surface": "asphalt"}}, {"type": "Feature", "geometry": {"type": "LineString", "coordinates": [[-8.6459276, 39.4654235], [-8.6460893, 39.464958], [-8.6461853, 39.4648057], [-8.6463381, 39.4646844]]}, "properties": {"highway": "primary", "lanes": "2", "maxspeed": "90", "oneway": "yes", "ref": "EN 365-4", "surface": "asphalt"}}, {"type": "Feature", "geometry": {"type": "LineString", "coordinates": [[-8.6346085, 39.4801591], [-8.6348368, 39.4799384], [-8.6350541, 39.4796906], [-8.6352304, 39.4794687], [-8.6354286, 39.4792003], [-8.6356761, 39.4788183], [-8.6357002, 39.4787764]]}, "properties": {"highway": "primary", "oneway": "yes", "ref": "EN 365-4"}}, {"type": "Feature", "geometry": {"type": "LineString", "coordinates": [[-8.6364184, 39.476831], [-8.6364785, 39.4766633], [-8.6368806, 39.4756489], [-8.63711, 39.47507], [-8.6373146, 39.4745406], [-8.63791, 39.473], [-8.638072, 39.4726719], [-8.6383493, 39.4723125], [-8.6385719, 39.4720452], [-8.63899, 39.47171], [-8.639424, 39.4714174], [-8.64006, 39.4711], [-8.6418545, 39.4702012], [-8.6425712, 39.4698481], [-8.643818, 39.469234], [-8.6442871, 39.4689761], [-8.6446364, 39.468691], [-8.6449816, 39.468356], [-8.6452675, 39.4679703], [-8.6453523, 39.467801], [-8.6454286, 39.4676227], [-8.6455436, 39.4672268], [-8.645708, 39.466463], [-8.6458132, 39.4659352], [-8.6459276, 39.4654235]]}, "properties": {"highway": "primary", "lanes": "2", "maxspeed": "90", "oneway": "no", "ref": "EN 365-4", "surface": "asphalt"}}, {"type": "Feature", "geometry": {"type": "LineString", "coordinates": [[-8.6364184, 39.476831], [-8.6362612, 39.4771743], [-8.6360372, 39.4777214], [-8.6358843, 39.4781251], [-8.6358232, 39.4782866], [-8.6356025, 39.4787538], [-8.6355312, 39.4788545]]}, "properties": {"highway": "primary", "lanes": "2", "maxspeed": "90", "oneway": "yes", "ref": "EN 365-4", "surface": "asphalt"}}, {"type": "Feature", "geometry": {"type": "LineString", "coordinates": [[-8.6584444, 39.4650887], [-8.6583605, 39.4648819], [-8.6581725, 39.4645747], [-8.6580226, 39.4642954], [-8.6579546, 39.4641595], [-8.6579106, 39.4640361], [-8.6578953, 39.464004]]}, "properties": {"highway": "primary", "lanes": "1", "oneway": "yes", "ref": "EN 365-4"}}, {"type": "Feature", "geometry": {"type": "LineString", "coordinates": [[-8.6584444, 39.4650887], [-8.6585884, 39.4654329], [-8.6586683, 39.4657508], [-8.6587343, 39.4660703], [-8.6587943, 39.4662231], [-8.6590462, 39.4665981], [-8.6592601, 39.4667679], [-8.6600375, 39.4672432], [-8.6603177, 39.4674037], [-8.6605814, 39.4676592], [-8.6607518, 39.4679368], [-8.660928, 39.4683282], [-8.6611016, 39.4687199], [-8.6613613, 39.4692284], [-8.6616026, 39.4694867]]}, "properties": {"highway": "primary", "lanes": "3", "lanes:backward": "1", "lanes:forward": "2", "ref": "EN 365-4", "surface": "asphalt"}}, {"type": "Feature", "geometry": {"type": "LineString", "coordinates": [[-8.6616026, 39.4694867], [-8.6618416, 39.4696788], [-8.6623691, 39.4699425], [-8.6625408, 39.4700676]]}, "properties": {"highway": "primary", "lanes": "2", "oneway": "yes", "ref": "EN 365-4", "surface": "asphalt"}}, {"type": "Feature", "geometry": {"type": "LineString", "coordinates": [[-8.6627033, 39.4698804], [-8.6625335, 39.4698621], [-8.6621445, 39.4697531], [-8.6618481, 39.469619], [-8.6616026, 39.4694867]]}, "properties": {"highway": "primary", "oneway": "yes", "ref": "EN 365-4"}}, {"type": "Feature", "geometry": {"type": "LineString", "coordinates": [[-8.6357002, 39.4787764], [-8.63587, 39.4784699], [-8.6361275, 39.4778092], [-8.6362813, 39.4773188], [-8.6364184, 39.476831]]}, "properties": {"highway": "primary", "oneway": "yes", "ref": "EN 365-4"}}, {"type": "Feature", "geometry": {"type": "LineString", "coordinates": [[-8.6355312, 39.4788545], [-8.6346085, 39.4801591]]}, "properties": {"highway": "primary", "lanes": "2", "maxspeed": "90", "oneway": "yes", "ref": "EN 365-4", "surface": "asphalt"}}, {"type": "Feature", "geometry": {"type": "MultiPolygon", "coordinates": [[[[-8.6466275, 39.4645273], [-8.6466263, 39.4644559], [-8.6466032, 39.4643921], [-8.6465542, 39.4643378], [-8.6464847, 39.4642989], [-8.6464125, 39.464281], [-8.6463367, 39.4642802], [-8.6462639, 39.4642966], [-8.6462004, 39.4643286], [-8.6461543, 39.4643705], [-8.6461249, 39.4644205], [-8.6461145, 39.4644749], [-8.646119, 39.4645137], [-8.6461434, 39.4645679], [-8.6461869, 39.4646145], [-8.6462458, 39.4646495], [-8.6463381, 39.4646844], [-8.6464034, 39.4646763], [-8.6464256, 39.4646701], [-8.6464915, 39.4646515], [-8.6465484, 39.4646197], [-8.646592, 39.4645773], [-8.6466275, 39.4645273]]]]}, "properties": {"highway": "primary", "junction": "roundabout", "ref": "EN 361;EN 365-4", "surface": "asphalt"}}, {"type": "Feature", "geometry": {"type": "MultiPolygon", "coordinates": [[[[-8.6579138, 39.4639066], [-8.6578908, 39.463844], [-8.6578424, 39.4637907], [-8.6577739, 39.4637527], [-8.6576931, 39.4637342], [-8.6576291, 39.4637344], [-8.6575565, 39.4637507], [-8.6574934, 39.4637829], [-8.6574454, 39.463828], [-8.6574168, 39.463882], [-8.6574103, 39.4639402], [-8.6574263, 39.4639972], [-8.6574502, 39.4640337], [-8.6574928, 39.4640725], [-8.6575469, 39.4641014], [-8.6575945, 39.4641158], [-8.6576448, 39.4641226], [-8.6576958, 39.4641213], [-8.657759, 39.4641083], [-8.6578157, 39.4640831], [-8.6578622, 39.4640476], [-8.6578953, 39.464004], [-8.6579126, 39.4639563], [-8.6579138, 39.4639066]]]]}, "properties": {"highway": "primary", "junction": "roundabout", "ref": "EN 361;EN 365-4", "surface": "asphalt"}}]}