{"type": "FeatureCollection", "features": [{"type": "Feature", "geometry": {"type": "LineString", "coordinates": [[-8.1914875, 41.6342796], [-8.1912729, 41.6340484]]}, "properties": {"highway": "primary", "oneway": "yes", "ref": "EN 304", "source": "GPS Survey", "surface": "asphalt"}}, {"type": "Feature", "geometry": {"type": "LineString", "coordinates": [[-8.1909191, 41.6345379], [-8.1911508, 41.6345185], [-8.1912183, 41.6345071], [-8.1913208, 41.6344813]]}, "properties": {"highway": "primary", "oneway": "yes", "ref": "EN 103;EN 304", "source": "bing", "surface": "asphalt"}}, {"type": "Feature", "geometry": {"type": "LineString", "coordinates": [[-8.1912439, 41.6343575], [-8.1912414, 41.6343806], [-8.1912449, 41.6344035], [-8.1912601, 41.6344344], [-8.1912861, 41.634461], [-8.1913208, 41.6344813], [-8.1913644, 41.6344941], [-8.1914111, 41.6344968], [-8.1914515, 41.6344907], [-8.1914884, 41.634477], [-8.1915228, 41.6344537], [-8.1915466, 41.6344239], [-8.1915579, 41.6343903], [-8.1915557, 41.6343556]]}, "properties": {"highway": "primary", "junction": "roundabout", "lanes": "2", "ref": "EN 103;EN 304", "source": "GPS Survey;bing", "surface": "asphalt"}}, {"type": "Feature", "geometry": {"type": "LineString", "coordinates": [[-8.1430789, 41.6332292], [-8.1430892, 41.6332428], [-8.1431039, 41.6332539], [-8.1431219, 41.6332618], [-8.143142, 41.633266], [-8.1431629, 41.6332661], [-8.143187, 41.6332609], [-8.1432077, 41.6332504], [-8.1432231, 41.6332357], [-8.1432316, 41.6332181], [-8.1432325, 41.6331994], [-8.1432272, 41.6331843], [-8.1432169, 41.6331707], [-8.1432023, 41.6331596], [-8.1431843, 41.6331517], [-8.1431642, 41.6331475], [-8.1431433, 41.6331474], [-8.1431192, 41.6331526], [-8.1430985, 41.633163], [-8.1430831, 41.6331778], [-8.1430745, 41.6331954], [-8.1430737, 41.6332141], [-8.1430789, 41.6332292]]}, "properties": {"highway": "primary", "junction": "roundabout", "ref": "EN 304", "source": "GPS Survey;bing", "surface": "asphalt"}}, {"type": "Feature", "geometry": {"type": "LineString", "coordinates": [[-8.1406134, 41.6301414], [-8.1405018, 41.6300511], [-8.1399784, 41.6296277], [-8.1398623, 41.6294454], [-8.1397667, 41.6291741]]}, "properties": {"highway": "primary", "lanes": "2", "ref": "EN 304", "surface": "asphalt"}}, {"type": "Feature", "geometry": {"type": "LineString", "coordinates": [[-8.1429357, 41.6330633], [-8.1428348, 41.6329883], [-8.1426125, 41.6327205], [-8.1425567, 41.6325678], [-8.1424459, 41.6322645], [-8.1422805, 41.6318009], [-8.1421767, 41.6315977], [-8.1419864, 41.6313114], [-8.1418325, 41.6311374], [-8.1416291, 41.6309603], [-8.1413832, 41.6307574], [-8.1411885, 41.6305966]]}, "properties": {"highway": "primary", "name": "Avenida da Imaculada Concei\u00e7\u00e3o", "ref": "EN 304", "source": "GPS Survey", "surface": "asphalt"}}, {"type": "Feature", "geometry": {"type": "LineString", "coordinates": [[-8.1431629, 41.6332661], [-8.143382, 41.6333634]]}, "properties": {"highway": "primary", "oneway": "yes", "ref": "EN 304", "source": "GPS Survey", "surface": "asphalt"}}, {"type": "Feature", "geometry": {"type": "LineString", "coordinates": [[-8.1431433, 41.6331474], [-8.1429357, 41.6330633]]}, "properties": {"highway": "primary", "oneway": "yes", "ref": "EN 304", "source": "GPS Survey", "surface": "asphalt"}}, {"type": "Feature", "geometry": {"type": "LineString", "coordinates": [[-8.1526832, 41.6355771], [-8.1527089, 41.6355954], [-8.1527552, 41.635615], [-8.1528071, 41.6356237], [-8.1528601, 41.6356208], [-8.1529097, 41.6356065], [-8.1529388, 41.6355912], [-8.1529634, 41.6355719], [-8.1529896, 41.6355373], [-8.1530013, 41.6354984], [-8.1529973, 41.6354587], [-8.1529781, 41.6354216], [-8.152941, 41.6353873], [-8.152891, 41.6353637], [-8.1528337, 41.6353534], [-8.1527749, 41.6353574], [-8.1527209, 41.6353753], [-8.1526775, 41.6354052], [-8.1526513, 41.6354398], [-8.1526396, 41.6354786], [-8.1526436, 41.6355183], [-8.1526628, 41.6355554], [-8.1526832, 41.6355771]]}, "properties": {"highway": "primary", "junction": "roundabout", "ref": "EN 304", "source": "GPS Survey;bing", "surface": "asphalt"}}, {"type": "Feature", "geometry": {"type": "LineString", "coordinates": [[-8.1526775, 41.6354052], [-8.152365, 41.6354713]]}, "properties": {"highway": "primary", "lanes": "1", "oneway": "yes", "ref": "EN 304", "source": "GPS Survey", "surface": "asphalt"}}, {"type": "Feature", "geometry": {"type": "LineString", "coordinates": [[-8.1529634, 41.6355719], [-8.1532708, 41.6355116]]}, "properties": {"highway": "primary", "lanes": "1", "oneway": "yes", "ref": "EN 304", "source": "GPS Survey", "surface": "asphalt"}}, {"type": "Feature", "geometry": {"type": "LineString", "coordinates": [[-8.1799456, 41.6754177], [-8.1783998, 41.6741047]]}, "properties": {"bridge": "yes", "highway": "primary", "lanes": "2", "layer": "1", "maxweight:signed": "no", "ref": "EN 304", "source": "GPS Survey", "surface": "asphalt"}}, {"type": "Feature", "geometry": {"type": "LineString", "coordinates": [[-8.1783998, 41.6741047], [-8.1782475, 41.6740283], [-8.1781511, 41.6739336], [-8.1780784, 41.6737285], [-8.1780997, 41.6731544], [-8.178108, 41.6730411], [-8.1781647, 41.6722206], [-8.1782194, 41.6714304], [-8.1782884, 41.6712341], [-8.1784633, 41.6709927], [-8.1787274, 41.6707942], [-8.1797256, 41.6702674], [-8.1799419, 41.670081], [-8.1802596, 41.6695425], [-8.180903, 41.6683892], [-8.1813233, 41.668031], [-8.1813936, 41.6679308], [-8.1814311, 41.667853], [-8.1814305, 41.6677562], [-8.1813902, 41.6676505], [-8.1812916, 41.6675562], [-8.1810868, 41.6674976], [-8.1808515, 41.6674579], [-8.179755, 41.6672705], [-8.1794916, 41.6672134], [-8.1787415, 41.6669143], [-8.1785647, 41.6668287], [-8.1784547, 41.6667572], [-8.1783669, 41.6666716], [-8.1780408, 41.6661858], [-8.177887, 41.6659608], [-8.1777616, 41.6658176], [-8.1775063, 41.6655025], [-8.1773995, 41.6653897], [-8.176747, 41.6649117], [-8.176581, 41.6647372], [-8.1764359, 41.6645782], [-8.1762776, 41.6644471], [-8.1757067, 41.6642023], [-8.1755258, 41.6640626], [-8.175218, 41.6636719], [-8.1750521, 41.6635213], [-8.1741281, 41.6629868], [-8.1740448, 41.66292], [-8.1739823, 41.662862], [-8.1739019, 41.6627803]]}, "properties": {"highway": "primary", "lanes": "2", "name": "Rua da Ponte", "ref": "EN 304", "surface": "asphalt"}}, {"type": "Feature", "geometry": {"type": "LineString", "coordinates": [[-7.9630282, 41.4109435], [-7.9627497, 41.4110231], [-7.9626124, 41.4110505]]}, "properties": {"highway": "primary", "name": "Variante \u00e0 EN 304", "oneway": "yes", "ref": "EN 304", "surface": "asphalt"}}, {"type": "Feature", "geometry": {"type": "LineString", "coordinates": [[-8.1806545, 41.6760175], [-8.1806875, 41.6759838], [-8.180706, 41.6759444], [-8.1807095, 41.6759164], [-8.1807055, 41.6758885], [-8.1806862, 41.6758494], [-8.1806526, 41.6758161], [-8.1806076, 41.6757915], [-8.1805549, 41.6757777], [-8.1805175, 41.6757751], [-8.1804802, 41.6757781], [-8.1804277, 41.6757925], [-8.1803831, 41.6758176], [-8.1803502, 41.6758513], [-8.1803317, 41.6758907], [-8.1803283, 41.6759185], [-8.1803322, 41.6759462], [-8.1803514, 41.6759854], [-8.180385, 41.6760188], [-8.1804302, 41.6760435], [-8.180483, 41.6760573], [-8.1805202, 41.6760598], [-8.1805574, 41.6760569], [-8.1806099, 41.6760426], [-8.1806545, 41.6760175]]}, "properties": {"highway": "primary", "junction": "roundabout", "lanes": "1", "ref": "EN 304", "source": "bing", "surface": "asphalt"}}, {"type": "Feature", "geometry": {"type": "LineString", "coordinates": [[-8.1802214, 41.6756654], [-8.1800549, 41.6755252], [-8.1799456, 41.6754177]]}, "properties": {"highway": "primary", "lanes": "2", "ref": "EN 304", "surface": "asphalt"}}, {"type": "Feature", "geometry": {"type": "LineString", "coordinates": [[-8.2132808, 41.7038758], [-8.213628, 41.7041565], [-8.2137956, 41.7042413], [-8.2141031, 41.7043528], [-8.2148926, 41.7046403], [-8.2151687, 41.7046907], [-8.2154957, 41.7046834], [-8.2158217, 41.7046348], [-8.2161005, 41.7045466], [-8.2166867, 41.7043329], [-8.2168341, 41.704328], [-8.2169868, 41.7043775], [-8.2172149, 41.7046764], [-8.217191, 41.7048439], [-8.2169477, 41.7053326], [-8.2169449, 41.7054573], [-8.2170378, 41.7056144], [-8.2174462, 41.7059704], [-8.2175232, 41.706105], [-8.2175664, 41.7065179], [-8.2175335, 41.7066665], [-8.2172622, 41.7069875], [-8.2172209, 41.7071116], [-8.2172585, 41.7072938], [-8.2175439, 41.7078132], [-8.2176134, 41.7079786], [-8.2177063, 41.7080859], [-8.2179072, 41.7082625], [-8.2180049, 41.7084258], [-8.2180894, 41.7086144], [-8.2183034, 41.7088492], [-8.218417, 41.7091464], [-8.2185006, 41.7092536], [-8.2187391, 41.7094576], [-8.2189222, 41.7095206], [-8.2191719, 41.7095781], [-8.219278, 41.7096517], [-8.2195428, 41.7101178], [-8.2195597, 41.7102124], [-8.2194799, 41.7106112], [-8.2194977, 41.7107115], [-8.2195522, 41.710818], [-8.2199183, 41.7113121], [-8.2199305, 41.7114075], [-8.2198789, 41.7115021], [-8.2197625, 41.7115932], [-8.2189043, 41.7118532], [-8.2187795, 41.7119352], [-8.2186978, 41.7120565], [-8.2186659, 41.7122317], [-8.2188837, 41.7129144], [-8.2189879, 41.7130279], [-8.2192085, 41.7131849], [-8.2192808, 41.7133124], [-8.2192818, 41.7134512], [-8.2192226, 41.7135795], [-8.2188996, 41.7139495], [-8.2185119, 41.7150422], [-8.21851, 41.7152223], [-8.2186565, 41.7157998], [-8.2188311, 41.7160247], [-8.2189783, 41.7163551], [-8.218967, 41.7166443], [-8.2189463, 41.7168083], [-8.2189483, 41.7169349], [-8.218989, 41.7171763], [-8.21905, 41.7174116], [-8.2193436, 41.7178657], [-8.2193727, 41.7180258], [-8.2193436, 41.7181534], [-8.2192253, 41.7182697], [-8.2186817, 41.718468], [-8.2185458, 41.7185349], [-8.2184843, 41.7185984], [-8.2184338, 41.7186944], [-8.2183812, 41.7190539], [-8.2183127, 41.7192221], [-8.2180369, 41.7196021], [-8.2175963, 41.7203462], [-8.2173776, 41.7211465], [-8.2172959, 41.7212649], [-8.2168386, 41.7216938], [-8.2167314, 41.721805], [-8.2166986, 41.721943], [-8.2168, 41.7226172], [-8.2168311, 41.7231416], [-8.2168734, 41.7234142], [-8.2169579, 41.7236531], [-8.2172311, 41.7241878], [-8.2172696, 41.7243384], [-8.2172301, 41.7245781], [-8.2171935, 41.7246783], [-8.217146, 41.7247467], [-8.216725, 41.724995], [-8.2166048, 41.7251261], [-8.2165476, 41.7252515], [-8.2164941, 41.7259287], [-8.2164884, 41.7260006], [-8.2164434, 41.7261365], [-8.2162856, 41.7264189], [-8.2162706, 41.7265198], [-8.2162988, 41.7266144], [-8.2168227, 41.7273593], [-8.2170658, 41.7275772], [-8.2171766, 41.7277538], [-8.2172255, 41.7279318], [-8.2172583, 41.7283249], [-8.217217, 41.728444], [-8.2169306, 41.7287628], [-8.216885, 41.7288708], [-8.2168641, 41.7290609], [-8.2168289, 41.7291733], [-8.2167228, 41.7292995], [-8.2166509, 41.7293486], [-8.216574, 41.7294011], [-8.2163768, 41.7294757], [-8.2144018, 41.7299828], [-8.2138837, 41.7301173], [-8.2137134, 41.7301925], [-8.2135439, 41.7303294], [-8.2134396, 41.7304982], [-8.2134256, 41.7306944], [-8.2134471, 41.731009], [-8.2134058, 41.7311954], [-8.2132938, 41.7314179], [-8.2128819, 41.7321231], [-8.2127204, 41.7323018], [-8.2124456, 41.7324896]]}, "properties": {"highway": "primary", "name": "Rua Senhor dos Pa\u00e7os", "ref": "EN 304", "surface": "asphalt"}}, {"type": "Feature", "geometry": {"type": "LineString", "coordinates": [[-8.1909191, 41.6345379], [-8.1908083, 41.6345544], [-8.1904272, 41.634631], [-8.1889111, 41.6351898], [-8.1883207, 41.6354075], [-8.1880027, 41.6355247], [-8.1878318, 41.6355877], [-8.1866772, 41.6360133], [-8.1862753, 41.6361614], [-8.1858993, 41.6363805], [-8.1858418, 41.636414], [-8.185442, 41.6367472]]}, "properties": {"highway": "primary", "lanes": "2", "ref": "EN 103;EN 304", "source": "bing", "surface": "asphalt"}}, {"type": "Feature", "geometry": {"type": "LineString", "coordinates": [[-8.1912439, 41.6343575], [-8.1911288, 41.6344626], [-8.1909191, 41.6345379]]}, "properties": {"highway": "primary", "oneway": "yes", "ref": "EN 103;EN 304", "source": "bing", "surface": "asphalt"}}, {"type": "Feature", "geometry": {"type": "LineString", "coordinates": [[-8.1912729, 41.6340484], [-8.191293, 41.6341494], [-8.1912993, 41.6342295], [-8.1912951, 41.6342895]]}, "properties": {"highway": "primary", "oneway": "yes", "ref": "EN 304", "source": "GPS Survey", "surface": "asphalt"}}, {"type": "Feature", "geometry": {"type": "LineString", "coordinates": [[-8.1912729, 41.6340484], [-8.1912034, 41.633976], [-8.1911179, 41.6339194], [-8.19099, 41.6338732], [-8.1908189, 41.6338477], [-8.1902528, 41.6338622], [-8.190119, 41.6338457], [-8.1899952, 41.6338065], [-8.1892277, 41.6334767], [-8.1889067, 41.6334264], [-8.1875015, 41.6334659], [-8.1872806, 41.6334375], [-8.1870704, 41.6333771], [-8.1860668, 41.6329464], [-8.1856703, 41.6329041], [-8.1851051, 41.6329339], [-8.1840778, 41.6329881], [-8.1836878, 41.6331355], [-8.1834702, 41.6332317], [-8.1829562, 41.6334588], [-8.1827059, 41.6335694], [-8.1825457, 41.6336706], [-8.1824752, 41.6337151], [-8.182147, 41.634084], [-8.1816336, 41.6346612], [-8.1813537, 41.6348413], [-8.180981, 41.6350125], [-8.1805216, 41.6351869], [-8.1802745, 41.6352807], [-8.1798484, 41.6354137], [-8.1795569, 41.6354507], [-8.1793328, 41.6354423], [-8.1790364, 41.6353823], [-8.1787935, 41.6352828], [-8.1786138, 41.6351546], [-8.1784651, 41.6350026], [-8.1783072, 41.6347264], [-8.1779736, 41.6340902], [-8.1779142, 41.6339992], [-8.1777416, 41.633829], [-8.1776095, 41.6337381], [-8.1773918, 41.6336326], [-8.1771298, 41.6335565], [-8.1767846, 41.6334826], [-8.1765076, 41.6334247], [-8.1760007, 41.6333188], [-8.1742093, 41.6328006], [-8.1719462, 41.6322012], [-8.1715235, 41.6321523], [-8.1701693, 41.6321247], [-8.1684087, 41.6320888]]}, "properties": {"highway": "primary", "lanes": "2", "ref": "EN 304", "source": "GPS Survey", "surface": "asphalt"}}, {"type": "Feature", "geometry": {"type": "LineString", "coordinates": [[-8.1408165, 41.6305629], [-8.14086, 41.6305812], [-8.140874, 41.6305846], [-8.1409241, 41.6305869], [-8.1409337, 41.6305853], [-8.1409763, 41.630574], [-8.1410148, 41.6305499], [-8.1410392, 41.6305173], [-8.1410438, 41.6305068], [-8.1410468, 41.6304694], [-8.1410317, 41.6304335], [-8.1410007, 41.6304043], [-8.1409895, 41.6303971], [-8.1409443, 41.6303807], [-8.1408945, 41.6303774], [-8.1408464, 41.6303877], [-8.1408333, 41.6303926], [-8.1407957, 41.6304175], [-8.1407726, 41.6304507], [-8.1407668, 41.6304879], [-8.1407679, 41.6304988], [-8.1407843, 41.6305343], [-8.1408165, 41.6305629]]}, "properties": {"highway": "primary", "junction": "roundabout", "ref": "EN 304", "source": "GPS Survey;bing", "surface": "asphalt"}}, {"type": "Feature", "geometry": {"type": "LineString", "coordinates": [[-8.143382, 41.6333634], [-8.1435006, 41.6334492], [-8.1435763, 41.6335013], [-8.1436422, 41.633548], [-8.1438926, 41.6338431], [-8.1439442, 41.6339039], [-8.1440047, 41.6339752], [-8.1443876, 41.6344891], [-8.1444582, 41.6345863], [-8.1445464, 41.6347077], [-8.1446187, 41.6348297], [-8.1447946, 41.6349773], [-8.1450058, 41.6350985], [-8.1453953, 41.6352658], [-8.1455586, 41.6353272], [-8.1457168, 41.6353752]]}, "properties": {"highway": "primary", "name": "Avenida da Imaculada Concei\u00e7\u00e3o", "ref": "EN 304", "surface": "asphalt"}}, {"type": "Feature", "geometry": {"type": "LineString", "coordinates": [[-8.109376, 41.5756996], [-8.1094629, 41.5754905]]}, "properties": {"bridge": "yes", "highway": "primary", "layer": "1", "ref": "EN 304", "source": "GPS Survey; Bing", "surface": "asphalt"}}, {"type": "Feature", "geometry": {"type": "LineString", "coordinates": [[-8.1094629, 41.5754905], [-8.1095221, 41.5754318], [-8.1095906, 41.5753948], [-8.1097927, 41.5753526], [-8.1101933, 41.575347], [-8.1108014, 41.5751954], [-8.1111621, 41.5751984], [-8.1112793, 41.5751848], [-8.1114658, 41.5751256], [-8.1117746, 41.5749827], [-8.111941, 41.5748377], [-8.1122437, 41.574498], [-8.1122881, 41.5744068], [-8.1123219, 41.5743155], [-8.1123079, 41.5742169], [-8.1122257, 41.5740538], [-8.1121987, 41.5739409], [-8.1121987, 41.5737938], [-8.1122187, 41.5736852], [-8.1122761, 41.5736065], [-8.1123508, 41.5735418], [-8.1126251, 41.5734373], [-8.1127609, 41.5733432], [-8.1128137, 41.57326], [-8.1128445, 41.5731112], [-8.1128416, 41.572964], [-8.1128047, 41.5728542], [-8.1127233, 41.5727654], [-8.1126137, 41.5727095], [-8.1123785, 41.5726449], [-8.1122543, 41.5725862], [-8.1121418, 41.5724985], [-8.1116863, 41.572058], [-8.1116198, 41.5719436], [-8.1115532, 41.5717808], [-8.1114439, 41.5715991], [-8.1113346, 41.5714533], [-8.1111256, 41.5713095], [-8.1109312, 41.5712176], [-8.1106351, 41.5711412], [-8.1105299, 41.5710923], [-8.1104505, 41.5710283], [-8.1104147, 41.5709643], [-8.1103994, 41.5708449], [-8.1104051, 41.5707936], [-8.1104373, 41.5707503]]}, "properties": {"highway": "primary", "oneway": "no", "ref": "EN 304", "source": "GPS Survey;Bing", "surface": "asphalt"}}, {"type": "Feature", "geometry": {"type": "LineString", "coordinates": [[-7.9620251, 41.4109828], [-7.9616261, 41.410967], [-7.9603107, 41.4109148], [-7.9595109, 41.410882], [-7.958925, 41.4108553], [-7.9587289, 41.4108464], [-7.9584044, 41.4108316], [-7.9581833, 41.4108014], [-7.9579889, 41.4107453], [-7.9578549, 41.4106864], [-7.9577311, 41.4106085], [-7.9575399, 41.4104389], [-7.9573024, 41.4102155], [-7.9572298, 41.4101473], [-7.9571931, 41.4101127], [-7.956832, 41.409751]]}, "properties": {"highway": "primary", "name": "Avenida Padre Martinho", "postal_code": "4880-259", "ref": "EN 304", "sidewalk": "both", "source": "Bing", "surface": "asphalt"}}, {"type": "Feature", "geometry": {"type": "LineString", "coordinates": [[-7.9560087, 41.4092467], [-7.9559771, 41.4092934], [-7.9559678, 41.4093452], [-7.9559817, 41.4093965], [-7.9560174, 41.4094414], [-7.9560708, 41.4094751], [-7.9561361, 41.4094936], [-7.9561962, 41.4094959]]}, "properties": {"highway": "primary", "junction": "roundabout", "old_ref": "EN 304", "ref": "EN 304", "source": "Bing", "surface": "asphalt"}}, {"type": "Feature", "geometry": {"type": "LineString", "coordinates": [[-7.956832, 41.409751], [-7.9565003, 41.4094254], [-7.9564277, 41.4093541], [-7.9563812, 41.4093099]]}, "properties": {"highway": "primary", "name": "Avenida Padre Martinho", "oneway": "yes", "ref": "EN 304", "sidewalk": "right", "source": "Bing", "surface": "asphalt"}}, {"type": "Feature", "geometry": {"type": "LineString", "coordinates": [[-7.9561962, 41.4094959], [-7.9562764, 41.4095158], [-7.9564673, 41.409579], [-7.9566495, 41.4096614], [-7.956832, 41.409751]]}, "properties": {"highway": "primary", "name": "Avenida Padre Martinho", "oneway": "yes", "ref": "EN 304", "source": "Bing", "surface": "asphalt"}}, {"type": "Feature", "geometry": {"type": "LineString", "coordinates": [[-7.9620251, 41.4109828], [-7.9622251, 41.4110556], [-7.9623113, 41.411141]]}, "properties": {"highway": "primary", "oneway": "yes", "ref": "EN 304", "source": "Bing", "surface": "asphalt"}}, {"type": "Feature", "geometry": {"type": "LineString", "coordinates": [[-8.1805574, 41.6760569], [-8.18076, 41.6761071]]}, "properties": {"highway": "primary", "lanes": "1", "oneway": "yes", "ref": "EN 304", "source": "bing", "surface": "asphalt"}}, {"type": "Feature", "geometry": {"type": "LineString", "coordinates": [[-8.1804802, 41.6757781], [-8.1802214, 41.6756654]]}, "properties": {"highway": "primary", "lanes": "1", "oneway": "yes", "ref": "EN 304", "source": "bing", "surface": "asphalt"}}, {"type": "Feature", "geometry": {"type": "LineString", "coordinates": [[-8.18076, 41.6761071], [-8.180706, 41.6759444]]}, "properties": {"highway": "primary", "lanes": "1", "oneway": "yes", "ref": "EN 304", "source": "bing", "surface": "asphalt"}}, {"type": "Feature", "geometry": {"type": "LineString", "coordinates": [[-8.1802214, 41.6756654], [-8.1803317, 41.6758907]]}, "properties": {"highway": "primary", "lanes": "1", "oneway": "yes", "ref": "EN 304", "source": "bing", "surface": "asphalt"}}, {"type": "Feature", "geometry": {"type": "LineString", "coordinates": [[-8.1849496, 41.6373678], [-8.1852866, 41.6372416], [-8.1856053, 41.6371742]]}, "properties": {"highway": "primary", "oneway": "yes", "ref": "EN 304", "source": "bing", "surface": "asphalt"}}, {"type": "Feature", "geometry": {"type": "LineString", "coordinates": [[-8.1856053, 41.6371742], [-8.1854871, 41.6369561], [-8.185442, 41.6367472]]}, "properties": {"highway": "primary", "oneway": "yes", "ref": "EN 304", "source": "bing", "surface": "asphalt"}}, {"type": "Feature", "geometry": {"type": "LineString", "coordinates": [[-8.1851885, 41.6369977], [-8.1852427, 41.6370939], [-8.185389, 41.6371541], [-8.1856053, 41.6371742]]}, "properties": {"highway": "primary", "oneway": "yes", "ref": "EN 304", "source": "bing", "surface": "asphalt"}}, {"type": "Feature", "geometry": {"type": "LineString", "coordinates": [[-8.1856053, 41.6371742], [-8.185449, 41.6370753], [-8.1852968, 41.6370173], [-8.1851885, 41.6369977]]}, "properties": {"highway": "primary", "oneway": "yes", "ref": "EN 304", "source": "bing", "surface": "asphalt"}}, {"type": "Feature", "geometry": {"type": "LineString", "coordinates": [[-8.1409763, 41.630574], [-8.1411885, 41.6305966]]}, "properties": {"highway": "primary", "name": "Avenida da Imaculada Concei\u00e7\u00e3o", "oneway": "yes", "ref": "EN 304", "source": "bing", "surface": "asphalt"}}, {"type": "Feature", "geometry": {"type": "LineString", "coordinates": [[-8.1411885, 41.6305966], [-8.1410468, 41.6304694]]}, "properties": {"highway": "primary", "name": "Avenida da Imaculada Concei\u00e7\u00e3o", "oneway": "yes", "ref": "EN 304", "source": "bing", "surface": "asphalt"}}, {"type": "Feature", "geometry": {"type": "LineString", "coordinates": [[-8.147943, 41.6354414], [-8.1476778, 41.6355033]]}, "properties": {"highway": "primary", "name": "Rua Padre Jos\u00e9 Carlos Alves Vieira", "oneway": "yes", "ref": "EN 304", "source": "bing", "surface": "asphalt"}}, {"type": "Feature", "geometry": {"type": "LineString", "coordinates": [[-8.1476778, 41.6355033], [-8.1479386, 41.6355436]]}, "properties": {"highway": "primary", "name": "Rua Padre Jos\u00e9 Carlos Alves Vieira", "oneway": "yes", "ref": "EN 304", "source": "bing", "surface": "asphalt"}}, {"type": "Feature", "geometry": {"type": "LineString", "coordinates": [[-8.1483287, 41.6354292], [-8.1481136, 41.6354196]]}, "properties": {"highway": "primary", "name": "Rua Padre Jos\u00e9 Carlos Alves Vieira", "oneway": "yes", "ref": "EN 304", "source": "bing", "surface": "asphalt"}}, {"type": "Feature", "geometry": {"type": "LineString", "coordinates": [[-8.1481618, 41.6355152], [-8.1483287, 41.6354292]]}, "properties": {"highway": "primary", "name": "Rua Padre Jos\u00e9 Carlos Alves Vieira", "oneway": "yes", "ref": "EN 304", "source": "bing", "surface": "asphalt"}}, {"type": "Feature", "geometry": {"type": "LineString", "coordinates": [[-8.1483287, 41.6354292], [-8.1483666, 41.6354251], [-8.1488551, 41.6353727], [-8.1491126, 41.6353486], [-8.1492491, 41.6353486], [-8.1494355, 41.6353568], [-8.1495782, 41.6353623], [-8.1499157, 41.6353752], [-8.1502664, 41.6353916], [-8.1505887, 41.6354053]]}, "properties": {"highway": "primary", "name": "Rua Padre Jos\u00e9 Carlos Alves Vieira", "ref": "EN 304", "source": "GPS Survey", "surface": "asphalt"}}, {"type": "Feature", "geometry": {"type": "LineString", "coordinates": [[-8.1479692, 41.63556], [-8.1480058, 41.6355664], [-8.1481078, 41.635553], [-8.1481398, 41.6355381], [-8.1481618, 41.6355152], [-8.1481704, 41.6354877], [-8.1481642, 41.6354599], [-8.1481442, 41.6354359], [-8.1481136, 41.6354196], [-8.1480767, 41.6354132], [-8.147975, 41.6354266], [-8.147943, 41.6354414], [-8.147921, 41.6354644], [-8.1479124, 41.6354918], [-8.1479186, 41.6355197], [-8.1479386, 41.6355436], [-8.1479692, 41.63556]]}, "properties": {"highway": "primary", "junction": "roundabout", "ref": "EN 304", "source": "GPS Survey;bing", "surface": "asphalt"}}, {"type": "Feature", "geometry": {"type": "LineString", "coordinates": [[-8.1363873, 41.6214323], [-8.1363953, 41.6214092], [-8.1365685, 41.6209099], [-8.1365572, 41.6208015], [-8.1364982, 41.6207032], [-8.1357164, 41.6201089], [-8.135677, 41.6200405], [-8.1357521, 41.6195322], [-8.1357478, 41.6194083], [-8.1356365, 41.619077], [-8.1356114, 41.6190024], [-8.1355123, 41.6187681], [-8.1351052, 41.6175313], [-8.13513, 41.6173692], [-8.1352198, 41.6170916], [-8.1351621, 41.6166825], [-8.1352639, 41.6162771], [-8.1352763, 41.6161271], [-8.1351898, 41.6158735], [-8.1350614, 41.6157447], [-8.1348317, 41.61555], [-8.1346689, 41.6152009]]}, "properties": {"highway": "primary", "ref": "EN 304", "surface": "asphalt"}}, {"type": "Feature", "geometry": {"type": "LineString", "coordinates": [[-8.1230057, 41.5967824], [-8.1228686, 41.5967652], [-8.1227945, 41.5966687], [-8.1227984, 41.5965498], [-8.1228851, 41.5963968], [-8.1231143, 41.5961075], [-8.1238547, 41.5953879], [-8.1240234, 41.5952049], [-8.1240951, 41.59508], [-8.1241375, 41.5949162], [-8.1241786, 41.5944252], [-8.1242428, 41.5942538], [-8.1245614, 41.5936805], [-8.1247167, 41.5932564], [-8.1249811, 41.5929242], [-8.1250788, 41.5927343], [-8.1251194, 41.5926256], [-8.1251146, 41.592493], [-8.1250726, 41.5923951], [-8.1249523, 41.5922884], [-8.1246545, 41.5920626], [-8.1245155, 41.5920043], [-8.124381, 41.5919882], [-8.1242452, 41.5920186], [-8.1240471, 41.5920684], [-8.1239117, 41.5920621], [-8.1237811, 41.5920075], [-8.1236956, 41.5919354], [-8.1236438, 41.5918416], [-8.1236345, 41.5914595], [-8.1235924, 41.5913721], [-8.1234591, 41.5911877], [-8.1234122, 41.5910555], [-8.1234271, 41.5906697], [-8.1234022, 41.5905803], [-8.1233387, 41.5905069], [-8.1231535, 41.5903837], [-8.1230179, 41.5903339], [-8.1228783, 41.5903144], [-8.1227528, 41.5903379], [-8.1226272, 41.590406], [-8.1223734, 41.5907094], [-8.1222623, 41.5907994], [-8.1217968, 41.5909567], [-8.1210531, 41.5912531], [-8.1209578, 41.5913264], [-8.1204545, 41.5919627], [-8.1203459, 41.5920779], [-8.1201933, 41.5921552], [-8.1200738, 41.5921725], [-8.1199498, 41.5921753], [-8.1197335, 41.5921524], [-8.1195851, 41.5921529], [-8.1194421, 41.592194], [-8.1185186, 41.592609], [-8.1183676, 41.5926538], [-8.1182349, 41.5926566], [-8.1180943, 41.5926393], [-8.1173628, 41.5924706], [-8.1172258, 41.5924378], [-8.1171316, 41.592379], [-8.1170538, 41.5922386], [-8.1170197, 41.5919442], [-8.1169312, 41.591845], [-8.1165624, 41.5916486], [-8.1164604, 41.591587], [-8.116412, 41.5915591], [-8.1153014, 41.5909176], [-8.115126, 41.5907611], [-8.1149677, 41.5905358], [-8.1148721, 41.5904226], [-8.1147716, 41.5903682], [-8.1144483, 41.5902756], [-8.114324, 41.5902083], [-8.1138902, 41.5898374], [-8.1137995, 41.5897259], [-8.1137778, 41.5895994], [-8.1137978, 41.5894715], [-8.1140015, 41.5887196], [-8.1140101, 41.5885483], [-8.1139802, 41.5884187], [-8.1139538, 41.5883043], [-8.1136942, 41.5875824], [-8.1136199, 41.5874574], [-8.1133798, 41.5872853], [-8.113313, 41.5872035], [-8.1132716, 41.5871177], [-8.1132414, 41.5869047], [-8.1131798, 41.5867733], [-8.1130549, 41.5866503], [-8.112872, 41.5865466], [-8.1125423, 41.5863943], [-8.1111906, 41.5861503], [-8.1109274, 41.5860838], [-8.1107065, 41.5859988], [-8.1104897, 41.5858658], [-8.1102, 41.5856755], [-8.1101189, 41.5855827], [-8.1100864, 41.5855019], [-8.1100953, 41.585406], [-8.1101468, 41.5853137], [-8.1102557, 41.5852386], [-8.1104075, 41.5852029], [-8.1106122, 41.5852121], [-8.1109098, 41.5852597], [-8.1110876, 41.5852556], [-8.1112276, 41.5852195], [-8.111345, 41.5851396], [-8.1121045, 41.5844183], [-8.1123885, 41.5841728], [-8.1126903, 41.5839677], [-8.112828, 41.5838716], [-8.1128986, 41.58378], [-8.1129497, 41.583631], [-8.112906, 41.5825488], [-8.1128534, 41.5824005], [-8.1126018, 41.5821239], [-8.1125574, 41.5820261], [-8.112514, 41.5818694], [-8.1124608, 41.5817538], [-8.1121449, 41.5813718], [-8.1120411, 41.5812528], [-8.1117885, 41.5809443], [-8.1116028, 41.5808045], [-8.1113135, 41.5806518], [-8.1111899, 41.5805528], [-8.1109695, 41.5801577], [-8.1108635, 41.5800708], [-8.1104264, 41.5798946], [-8.110343, 41.5798222], [-8.1103025, 41.5797538], [-8.1102834, 41.5796785], [-8.1102889, 41.5795902], [-8.11034, 41.5795204], [-8.1104151, 41.5794677], [-8.1105052, 41.5794285], [-8.1106112, 41.5794087], [-8.1109342, 41.5794087], [-8.1110693, 41.5793918], [-8.1112269, 41.5793558], [-8.1113959, 41.5792899], [-8.1115875, 41.5792049], [-8.1118328, 41.5790259], [-8.1122369, 41.5785297], [-8.1122966, 41.5784443], [-8.1123309, 41.5783598], [-8.1123447, 41.5782737], [-8.112326, 41.5781852], [-8.1122265, 41.5780717], [-8.1116456, 41.5777533], [-8.1109986, 41.577403], [-8.1108701, 41.5773039], [-8.1107976, 41.5771383], [-8.1108264, 41.5770193], [-8.1109942, 41.5767379], [-8.111011, 41.5766685], [-8.111017, 41.5766031], [-8.1109919, 41.5765413], [-8.1109521, 41.5764795], [-8.1108558, 41.5764155], [-8.1107314, 41.5763576], [-8.1102216, 41.5762321], [-8.1097101, 41.5762013], [-8.1096408, 41.5761924], [-8.109604, 41.5761876], [-8.1094925, 41.5761419], [-8.1093958, 41.5760839], [-8.1093324, 41.5760071], [-8.1093049, 41.5759368], [-8.1093094, 41.5758665], [-8.109376, 41.5756996]]}, "properties": {"highway": "primary", "ref": "EN 304", "surface": "asphalt"}}, {"type": "Feature", "geometry": {"type": "LineString", "coordinates": [[-8.1346689, 41.6152009], [-8.1345709, 41.6149677]]}, "properties": {"bridge": "yes", "highway": "primary", "layer": "1", "ref": "EN 304", "surface": "asphalt"}}, {"type": "Feature", "geometry": {"type": "LineString", "coordinates": [[-8.1409443, 41.6303807], [-8.1406134, 41.6301414]]}, "properties": {"highway": "primary", "lanes": "1", "oneway": "yes", "ref": "EN 304", "source": "bing", "surface": "asphalt"}}, {"type": "Feature", "geometry": {"type": "LineString", "coordinates": [[-8.1406134, 41.6301414], [-8.1407957, 41.6304175]]}, "properties": {"highway": "primary", "lanes": "1", "oneway": "yes", "ref": "EN 304", "source": "bing", "surface": "asphalt"}}, {"type": "Feature", "geometry": {"type": "LineString", "coordinates": [[-8.1397667, 41.6291741], [-8.1396968, 41.6290022], [-8.1396611, 41.6288089], [-8.1396867, 41.6282884], [-8.1396293, 41.6280765], [-8.139498, 41.6278889], [-8.1387066, 41.6272171], [-8.1385851, 41.6270265], [-8.1386239, 41.6268342], [-8.1388607, 41.6264537], [-8.13887, 41.6263148], [-8.1387858, 41.6262014], [-8.1386826, 41.6261294], [-8.1380922, 41.6259301], [-8.1378413, 41.6257703], [-8.1375589, 41.6254469], [-8.1374988, 41.6252863], [-8.1375009, 41.6250476], [-8.1374584, 41.6248893], [-8.1368472, 41.6234387], [-8.1367519, 41.6231829], [-8.1367218, 41.6227382], [-8.1366666, 41.6225052], [-8.1365501, 41.622208], [-8.1364618, 41.6219828]]}, "properties": {"highway": "primary", "lanes": "2", "ref": "EN 304", "surface": "asphalt"}}, {"type": "Feature", "geometry": {"type": "LineString", "coordinates": [[-8.1364618, 41.6219828], [-8.1363819, 41.6217124], [-8.1363873, 41.6214323]]}, "properties": {"bridge": "yes", "highway": "primary", "layer": "1", "ref": "EN 304", "source": "bing", "surface": "asphalt"}}, {"type": "Feature", "geometry": {"type": "LineString", "coordinates": [[-8.1457168, 41.6353752], [-8.1457556, 41.6355284]]}, "properties": {"highway": "primary", "name": "Avenida da Imaculada Concei\u00e7\u00e3o", "oneway": "yes", "ref": "EN 304", "surface": "asphalt"}}, {"type": "Feature", "geometry": {"type": "LineString", "coordinates": [[-8.1465629, 41.6356047], [-8.1463854, 41.6355918], [-8.1462486, 41.6355714], [-8.1461101, 41.6355435], [-8.1459565, 41.6354874]]}, "properties": {"highway": "primary", "name": "Avenida da Imaculada Concei\u00e7\u00e3o", "oneway": "yes", "ref": "EN 304", "surface": "asphalt"}}, {"type": "Feature", "geometry": {"type": "LineString", "coordinates": [[-8.1458845, 41.6356479], [-8.1459234, 41.6356404], [-8.1459571, 41.635624], [-8.1459819, 41.6356003], [-8.1459954, 41.6355713], [-8.1459955, 41.6355406], [-8.145982, 41.6355115], [-8.1459565, 41.6354874], [-8.1459219, 41.6354709], [-8.1458819, 41.6354637], [-8.145841, 41.6354668], [-8.1458037, 41.6354797], [-8.1457742, 41.635501], [-8.1457556, 41.6355284], [-8.14575, 41.6355582], [-8.1457575, 41.6355877], [-8.1457774, 41.6356139], [-8.1458074, 41.6356339], [-8.1458444, 41.6356456], [-8.1458845, 41.6356479]]}, "properties": {"highway": "primary", "junction": "roundabout", "name": "Avenida da Imaculada Concei\u00e7\u00e3o", "ref": "EN 304", "surface": "asphalt"}}, {"type": "Feature", "geometry": {"type": "LineString", "coordinates": [[-8.1739019, 41.6627803], [-8.1739018, 41.6626194], [-8.1740167, 41.6624271], [-8.1744365, 41.662207], [-8.1746086, 41.6620587], [-8.1746661, 41.6618735], [-8.174654, 41.6616258], [-8.1745821, 41.6613453], [-8.1745032, 41.6611049], [-8.1744682, 41.6609109], [-8.1744612, 41.6608287], [-8.1745528, 41.6606908], [-8.1747652, 41.6605706], [-8.17497, 41.6605112], [-8.1751853, 41.6605598], [-8.1754837, 41.6607104], [-8.1756015, 41.6608491], [-8.1757238, 41.66093], [-8.1759048, 41.6609723], [-8.1760981, 41.6609617], [-8.1767127, 41.6608335], [-8.17691, 41.6608257], [-8.1770913, 41.6608772], [-8.1772258, 41.6609824], [-8.177278, 41.6611013], [-8.1772941, 41.6612817], [-8.177254, 41.6614515], [-8.1772601, 41.661501], [-8.1772695, 41.6615479], [-8.1773439, 41.6616043], [-8.1773815, 41.6616153], [-8.1774653, 41.6616438], [-8.177579, 41.6616301], [-8.1776959, 41.6615901], [-8.1777947, 41.6614944], [-8.1779415, 41.6613388], [-8.1781549, 41.6612385], [-8.1783461, 41.6612198], [-8.1784989, 41.661259], [-8.178691, 41.6613303], [-8.1787244, 41.6613292], [-8.1788297, 41.661322], [-8.1789585, 41.6612562], [-8.1790392, 41.6611566], [-8.1791105, 41.6609867], [-8.1791843, 41.6606112], [-8.1791468, 41.6604865], [-8.1789888, 41.6603962], [-8.1786942, 41.6603635], [-8.1782903, 41.6603358], [-8.1780536, 41.6602571], [-8.1779528, 41.6601834], [-8.1778827, 41.6601057], [-8.177837, 41.6600652], [-8.1778016, 41.6600027], [-8.1776273, 41.6597136], [-8.1775165, 41.6595989], [-8.1769845, 41.6591615], [-8.1768969, 41.6590714], [-8.1768521, 41.6589435], [-8.1769303, 41.6583353], [-8.1768948, 41.6581422], [-8.1766125, 41.6576986], [-8.1763806, 41.6574306], [-8.1761798, 41.6572527], [-8.176111, 41.6571393], [-8.1761072, 41.6570338], [-8.1761656, 41.6568981], [-8.1762994, 41.6567203], [-8.1768988, 41.6562129], [-8.1774923, 41.6553399], [-8.177573, 41.6552541], [-8.1776537, 41.6551964], [-8.1777819, 41.6551487], [-8.1779406, 41.6551238], [-8.1781245, 41.6551169], [-8.1783045, 41.6551639], [-8.1784913, 41.6552547], [-8.1785988, 41.6552678], [-8.1787331, 41.6552608], [-8.1790012, 41.6552199], [-8.1792198, 41.655172], [-8.1793625, 41.655103], [-8.1794994, 41.6549756], [-8.1797159, 41.6546374], [-8.1797293, 41.6545555], [-8.1797159, 41.6544696], [-8.1796091, 41.6542648], [-8.1795739, 41.6541591], [-8.1795686, 41.6538559], [-8.1795297, 41.6536492], [-8.1794553, 41.6534871], [-8.1793869, 41.6534212], [-8.1793037, 41.6533771], [-8.1790149, 41.6532785], [-8.1787595, 41.6529752], [-8.1786723, 41.6528144], [-8.1786035, 41.6525585], [-8.1784415, 41.6522809], [-8.1782728, 41.652073], [-8.1781596, 41.6519953], [-8.1780067, 41.6519467], [-8.1772616, 41.6518663], [-8.1771388, 41.6517846], [-8.1770623, 41.6516637], [-8.1771062, 41.6515755], [-8.1772442, 41.6514832], [-8.1777412, 41.651378], [-8.1783656, 41.6509928], [-8.1788792, 41.6508443], [-8.1790657, 41.6507056], [-8.1794233, 41.6502805], [-8.1795592, 41.6501189], [-8.1797897, 41.6499988], [-8.1799949, 41.6499816], [-8.1804575, 41.650063], [-8.1815075, 41.6499596], [-8.1816981, 41.6499399], [-8.1818185, 41.6499275], [-8.1819712, 41.6498047], [-8.1819973, 41.6496684], [-8.1818844, 41.6492159], [-8.1820289, 41.6483662], [-8.1821544, 41.6482596], [-8.1824269, 41.6481786], [-8.182598, 41.6482325], [-8.1828959, 41.6485461], [-8.1830078, 41.648589], [-8.1831358, 41.6485854], [-8.1842345, 41.6482473], [-8.1844496, 41.6482619], [-8.184761, 41.648364], [-8.1849401, 41.6483652], [-8.1851004, 41.6482932], [-8.1852737, 41.6479727], [-8.1854038, 41.6477021], [-8.1854235, 41.6475259], [-8.1852782, 41.6471643], [-8.185215, 41.6470474], [-8.1850216, 41.6466897], [-8.1850065, 41.6465292], [-8.1854602, 41.6459735], [-8.1854896, 41.6457429], [-8.1854373, 41.6455763], [-8.1850906, 41.645189], [-8.1850427, 41.6450069], [-8.1852796, 41.6446129], [-8.185355, 41.6440025], [-8.1856643, 41.6433022], [-8.1857226, 41.6430885], [-8.1856837, 41.6428511], [-8.1855908, 41.6426597], [-8.1854507, 41.6425697], [-8.1850539, 41.6424692], [-8.184941, 41.6424049], [-8.1848841, 41.6422743], [-8.184893, 41.6421551], [-8.1858116, 41.6412411], [-8.1862757, 41.6405179], [-8.1863752, 41.6403934], [-8.1867584, 41.6402292], [-8.1868683, 41.6401011], [-8.1869024, 41.6399346], [-8.1868233, 41.6393765], [-8.186876, 41.6392129], [-8.1870422, 41.63908], [-8.1881905, 41.6387077], [-8.1883323, 41.6386146], [-8.1883767, 41.6384814], [-8.1882966, 41.6383166], [-8.1878137, 41.6380792], [-8.1875237, 41.6377346], [-8.1873512, 41.6376397], [-8.1856053, 41.6371742]]}, "properties": {"highway": "primary", "lanes": "2", "name": "Avenida da Cani\u00e7ada", "ref": "EN 304", "surface": "asphalt"}}, {"type": "Feature", "geometry": {"type": "LineString", "coordinates": [[-8.1532708, 41.6355116], [-8.1529781, 41.6354216]]}, "properties": {"highway": "primary", "oneway": "yes", "ref": "EN 304", "source": "GPS Survey", "surface": "asphalt"}}, {"type": "Feature", "geometry": {"type": "LineString", "coordinates": [[-8.152365, 41.6354713], [-8.1526628, 41.6355554]]}, "properties": {"highway": "primary", "oneway": "yes", "ref": "EN 304", "source": "GPS Survey", "surface": "asphalt"}}, {"type": "Feature", "geometry": {"type": "LineString", "coordinates": [[-8.18076, 41.6761071], [-8.1809286, 41.6762644], [-8.1810677, 41.6763886], [-8.1811958, 41.676439], [-8.181326, 41.6764693], [-8.1814293, 41.6764838], [-8.1815456, 41.6764865], [-8.1822205, 41.6764166], [-8.1824445, 41.6764367], [-8.1826352, 41.6765072], [-8.1827098, 41.6765844], [-8.182776, 41.6767062], [-8.1827862, 41.6768185], [-8.1827567, 41.6771011], [-8.1827807, 41.6772394], [-8.1828284, 41.6773556], [-8.1834348, 41.677888], [-8.1836459, 41.6779715], [-8.1842712, 41.678031], [-8.1845636, 41.6780964], [-8.184609, 41.6781331], [-8.1848017, 41.6782889], [-8.1849026, 41.6784717], [-8.1852, 41.6791157], [-8.1852973, 41.6792465], [-8.185442, 41.6793828], [-8.1855842, 41.6795019], [-8.1857255, 41.6796343], [-8.1858203, 41.6797544], [-8.185881, 41.6798809], [-8.1859252, 41.6802312], [-8.1860332, 41.6803867], [-8.1861677, 41.6804984], [-8.1868643, 41.6808125], [-8.1871692, 41.6808767], [-8.1877781, 41.680941], [-8.1880023, 41.6810124], [-8.188193, 41.6810815], [-8.188493, 41.681267], [-8.1887416, 41.6813569], [-8.1890154, 41.6813684], [-8.1898219, 41.6813048], [-8.1912797, 41.6813768], [-8.1914097, 41.6813908], [-8.191538, 41.6814161], [-8.192129, 41.6815869], [-8.1922817, 41.6816104], [-8.1925502, 41.681636], [-8.193742, 41.6816212], [-8.1940089, 41.6816546], [-8.1942493, 41.6817523], [-8.1946601, 41.681963], [-8.1953958, 41.682116], [-8.1955489, 41.6822388], [-8.1955971, 41.6824392], [-8.1956299, 41.683029], [-8.1955552, 41.6837672], [-8.1955772, 41.6838694], [-8.1955984, 41.6839678], [-8.1956427, 41.6840269], [-8.1956964, 41.6840986], [-8.1960816, 41.6843669], [-8.1962019, 41.6844299], [-8.1962631, 41.6844495], [-8.196351, 41.6844777], [-8.1965682, 41.6844919], [-8.1968065, 41.6844502], [-8.1971139, 41.6843963], [-8.1973323, 41.6844187], [-8.1975596, 41.6845128], [-8.1978061, 41.6847336], [-8.197989, 41.6848434], [-8.1982409, 41.6849013], [-8.1986732, 41.684949], [-8.1988588, 41.6849991], [-8.1990436, 41.6851076], [-8.1992374, 41.6853794], [-8.1993987, 41.6858576], [-8.1995834, 41.6860804], [-8.1998001, 41.6862205], [-8.2005322, 41.6865212], [-8.2007123, 41.6866391], [-8.2008045, 41.6867605], [-8.2008515, 41.6870644], [-8.2008917, 41.6872592], [-8.2009017, 41.6872873], [-8.2009493, 41.6874204], [-8.2011349, 41.6876287], [-8.2012604, 41.6877124], [-8.2013536, 41.6877564], [-8.2014588, 41.6877959], [-8.2018565, 41.6879252], [-8.2020436, 41.6879858], [-8.2022209, 41.6880408], [-8.2023118, 41.6880789], [-8.2024011, 41.6881315], [-8.2024717, 41.688181], [-8.202541, 41.6882401], [-8.202582, 41.6882764], [-8.2026548, 41.6883657], [-8.2027357, 41.6884639], [-8.2028469, 41.6885997], [-8.2029857, 41.68878], [-8.2030944, 41.6889226], [-8.2036234, 41.6896117], [-8.2037247, 41.6897529], [-8.2037846, 41.6898585], [-8.2038042, 41.6899002], [-8.2039668, 41.6903127], [-8.2041761, 41.6908986], [-8.2042564, 41.6910238], [-8.2043635, 41.6911401], [-8.2045086, 41.6912631], [-8.2046942, 41.6913618]]}, "properties": {"highway": "primary", "lanes": "2", "ref": "EN 304", "surface": "asphalt"}}, {"type": "Feature", "geometry": {"type": "LineString", "coordinates": [[-8.2116296, 41.7336244], [-8.2116979, 41.733719], [-8.2117879, 41.7338281], [-8.212064, 41.7340845], [-8.2121793, 41.7341666]]}, "properties": {"highway": "primary", "name": "Rua Senhor dos Pa\u00e7os", "ref": "EN 304", "surface": "asphalt"}}, {"type": "Feature", "geometry": {"type": "LineString", "coordinates": [[-8.143382, 41.6333634], [-8.1432325, 41.6331994]]}, "properties": {"highway": "primary", "oneway": "yes", "ref": "EN 304", "source": "GPS Survey", "surface": "asphalt"}}, {"type": "Feature", "geometry": {"type": "LineString", "coordinates": [[-8.1429357, 41.6330633], [-8.1430737, 41.6332141]]}, "properties": {"highway": "primary", "oneway": "yes", "ref": "EN 304", "source": "GPS Survey", "surface": "asphalt"}}, {"type": "Feature", "geometry": {"type": "LineString", "coordinates": [[-7.7845635, 41.2159291], [-7.7849879, 41.2163936], [-7.7851108, 41.2165175], [-7.7851969, 41.2165916], [-7.7854105, 41.2167386], [-7.7856349, 41.2168559], [-7.7865214, 41.2172509], [-7.7866737, 41.2173354], [-7.7867333, 41.217377], [-7.7868365, 41.2174712], [-7.7868852, 41.2175322], [-7.7869154, 41.21759], [-7.7869286, 41.2176475], [-7.78692, 41.2177605], [-7.7869007, 41.2178068], [-7.7868716, 41.2178468], [-7.7868258, 41.2178828], [-7.7867657, 41.2179145], [-7.7866478, 41.2179581], [-7.7865263, 41.2179832], [-7.7864519, 41.217989], [-7.7863861, 41.2179844], [-7.7860444, 41.2179279], [-7.7859202, 41.2179172], [-7.7858076, 41.2179323], [-7.7857617, 41.2179479], [-7.7857223, 41.2179677], [-7.7856509, 41.218026], [-7.7856043, 41.2180908], [-7.7854751, 41.218354], [-7.7854227, 41.2184181], [-7.7853898, 41.2184424], [-7.7853012, 41.2184758], [-7.7849875, 41.2185327], [-7.7848694, 41.218576], [-7.7848117, 41.2186168], [-7.7846672, 41.2187551], [-7.7846091, 41.2188316], [-7.7844984, 41.2192133], [-7.7843858, 41.2195599], [-7.7843486, 41.2197516], [-7.7843468, 41.2198238], [-7.784381, 41.2199113], [-7.7845358, 41.2201152], [-7.7845863, 41.2202061], [-7.7847088, 41.2206236], [-7.7847281, 41.2207522], [-7.784718, 41.2208127], [-7.7846804, 41.2208916], [-7.7845186, 41.22109], [-7.784487, 41.2211404], [-7.7844602, 41.2212191], [-7.7843953, 41.2215576], [-7.7843567, 41.2216385], [-7.7843083, 41.2216804], [-7.7842049, 41.2217228], [-7.7832483, 41.2219195], [-7.7831476, 41.2219325], [-7.7830654, 41.2219236], [-7.7829864, 41.2218935], [-7.782914, 41.2218446], [-7.7827345, 41.2216909], [-7.7826478, 41.2216545], [-7.7825489, 41.2216407], [-7.7824477, 41.2216463], [-7.7823348, 41.2216888], [-7.7822309, 41.221754], [-7.781977, 41.2219422], [-7.7819048, 41.2220098], [-7.7818501, 41.2220773], [-7.7817867, 41.2222015], [-7.7816259, 41.2226717], [-7.7815849, 41.2227426], [-7.7815257, 41.2227997], [-7.7814449, 41.2228449], [-7.7813259, 41.2228764], [-7.7812144, 41.2228775], [-7.7810176, 41.2228528], [-7.7808768, 41.2228595], [-7.7807889, 41.2228919], [-7.7807324, 41.2229387], [-7.7805853, 41.2231548], [-7.7805366, 41.2232636], [-7.7805259, 41.2233925], [-7.78054, 41.2234513], [-7.7805694, 41.2234998], [-7.7806166, 41.2235406], [-7.7807075, 41.2235864], [-7.7810078, 41.2236808], [-7.781195, 41.2237195], [-7.7813633, 41.2237215], [-7.781503, 41.2236885], [-7.7829287, 41.2232269], [-7.7830168, 41.2232067], [-7.7831439, 41.2232018], [-7.7832163, 41.223214], [-7.78329, 41.2232387], [-7.7834399, 41.2233104], [-7.7835021, 41.22335], [-7.7835786, 41.2234289], [-7.7837726, 41.2236977], [-7.7840723, 41.2238993], [-7.7843962, 41.2241857], [-7.7844434, 41.224239], [-7.7844719, 41.22429], [-7.7845349, 41.2245098], [-7.7845784, 41.2245642], [-7.7846255, 41.224599], [-7.7847545, 41.2246599], [-7.7850816, 41.2247417], [-7.7856244, 41.224982], [-7.7857558, 41.2250221], [-7.7860442, 41.225083], [-7.7861209, 41.2251054], [-7.7861858, 41.2251365], [-7.7862624, 41.2251944], [-7.7863023, 41.2252404], [-7.7863329, 41.2252929], [-7.7863569, 41.2253719], [-7.7863559, 41.2254244], [-7.7863132, 41.2255196], [-7.786173, 41.2257037], [-7.7861542, 41.2257513], [-7.7861489, 41.2257989], [-7.7861604, 41.2258518], [-7.7861857, 41.2259017], [-7.7862491, 41.2259638], [-7.786333, 41.2260058], [-7.7864412, 41.226025], [-7.7869096, 41.2260165], [-7.7871032, 41.22603], [-7.7875847, 41.2262852], [-7.7878878, 41.2263992], [-7.7880031, 41.2265071], [-7.7880581, 41.2266372], [-7.7879561, 41.2269559], [-7.7879763, 41.2270608], [-7.7880621, 41.2271546], [-7.7889633, 41.2276812], [-7.7891672, 41.2278254], [-7.7895454, 41.2279555], [-7.7896379, 41.2280402], [-7.7896754, 41.2281613], [-7.7896767, 41.2282363], [-7.7895413, 41.2283822], [-7.7893576, 41.2284649], [-7.7889928, 41.2285546], [-7.7879184, 41.2286661]]}, "properties": {"highway": "primary", "lanes": "2", "oneway": "no", "ref": "EN 304", "surface": "asphalt"}}, {"type": "Feature", "geometry": {"type": "LineString", "coordinates": [[-8.1459571, 41.635624], [-8.1465629, 41.6356047]]}, "properties": {"highway": "primary", "name": "Rua Padre Jos\u00e9 Carlos Alves Vieira", "oneway": "yes", "ref": "EN 304", "source": "GPS Survey", "surface": "asphalt"}}, {"type": "Feature", "geometry": {"type": "LineString", "coordinates": [[-8.1458819, 41.6354637], [-8.1458291, 41.6354186], [-8.1457168, 41.6353752]]}, "properties": {"highway": "primary", "name": "Avenida da Imaculada Concei\u00e7\u00e3o", "oneway": "yes", "ref": "EN 304", "surface": "asphalt"}}, {"type": "Feature", "geometry": {"type": "LineString", "coordinates": [[-8.1465629, 41.6356047], [-8.1468786, 41.6355854], [-8.1471801, 41.6355651], [-8.1476778, 41.6355033]]}, "properties": {"highway": "primary", "name": "Rua Padre Jos\u00e9 Carlos Alves Vieira", "ref": "EN 304", "source": "GPS Survey", "surface": "asphalt"}}, {"type": "Feature", "geometry": {"type": "LineString", "coordinates": [[-8.1234001, 41.5967639], [-8.1230057, 41.5967824]]}, "properties": {"bridge": "yes", "highway": "primary", "layer": "1", "ref": "EN 304", "surface": "asphalt"}}, {"type": "Feature", "geometry": {"type": "LineString", "coordinates": [[-8.1345709, 41.6149677], [-8.1345743, 41.6148937], [-8.1346283, 41.6148071], [-8.1349465, 41.6145563], [-8.1351308, 41.6145003], [-8.135444, 41.6144774], [-8.1356215, 41.6144152], [-8.13607, 41.6140677], [-8.1361487, 41.6139729], [-8.1361868, 41.6138387], [-8.1361729, 41.6136642], [-8.1360912, 41.6134915], [-8.1359659, 41.6133791], [-8.135734, 41.613281], [-8.1356124, 41.6131684], [-8.1355652, 41.6130329], [-8.1356043, 41.6124916], [-8.1355096, 41.6123377], [-8.1353109, 41.6121449], [-8.1351904, 41.6119834], [-8.1348893, 41.6109269], [-8.1347818, 41.6107858], [-8.1346588, 41.6106873], [-8.1344625, 41.61061], [-8.1334238, 41.6103335], [-8.1332949, 41.610277], [-8.133231, 41.6102023], [-8.1331939, 41.6100634], [-8.1332521, 41.6095638], [-8.1333547, 41.6094634], [-8.1334921, 41.6094223], [-8.1338789, 41.6093786], [-8.1340429, 41.6093177], [-8.1341823, 41.6091961], [-8.1343059, 41.6089226], [-8.1343716, 41.6084519], [-8.1343468, 41.6082789], [-8.134043, 41.6077666], [-8.133774, 41.6073191], [-8.1337205, 41.6071907], [-8.1336782, 41.60675], [-8.1336143, 41.6065994], [-8.1335098, 41.6064761], [-8.1331817, 41.606338], [-8.1330879, 41.6062557], [-8.1330673, 41.6061492], [-8.1330789, 41.6059877], [-8.1330499, 41.6058871], [-8.1327758, 41.6055553], [-8.1327264, 41.6054752], [-8.1327502, 41.6053586], [-8.1329656, 41.6049875], [-8.1329859, 41.6048512], [-8.1329366, 41.6047287], [-8.1328263, 41.6046032], [-8.1319647, 41.6040715], [-8.1316239, 41.6038673], [-8.1313241, 41.6037999], [-8.1309193, 41.6037615], [-8.1307144, 41.6037842], [-8.1304682, 41.6038197], [-8.1298819, 41.6037932], [-8.1295684, 41.6037007], [-8.1292549, 41.6036381], [-8.1288884, 41.6035338], [-8.1285688, 41.6032818], [-8.1284279, 41.6032488], [-8.1282469, 41.6032238], [-8.1281216, 41.6031657], [-8.1280355, 41.6030476], [-8.1280364, 41.6028855], [-8.128111, 41.6027737], [-8.1282981, 41.6026447], [-8.1287442, 41.6023728], [-8.1289958, 41.6021258], [-8.1291008, 41.6019625], [-8.1291527, 41.601825], [-8.129144, 41.601724], [-8.129118, 41.6016668], [-8.1290871, 41.6015989], [-8.1290299, 41.601486], [-8.1289377, 41.6014065], [-8.1288294, 41.6013551], [-8.1287462, 41.601338], [-8.1287256, 41.6013338], [-8.1284752, 41.6012823], [-8.1280075, 41.6012076], [-8.1278475, 41.6011511], [-8.1276663, 41.6009705], [-8.1276472, 41.6008391], [-8.1276942, 41.6007552], [-8.1285501, 41.5999751], [-8.1286259, 41.599845], [-8.1286616, 41.5997149], [-8.1286544, 41.5995819], [-8.1285757, 41.5993854], [-8.1285582, 41.5992646], [-8.1285888, 41.5991535], [-8.1286809, 41.5989877], [-8.1286919, 41.5988978], [-8.1286438, 41.5988101], [-8.1285456, 41.598736], [-8.1280373, 41.598558], [-8.1279265, 41.5985252], [-8.1277903, 41.5985268], [-8.1276197, 41.5985622], [-8.1272542, 41.5986756], [-8.1271016, 41.5986755], [-8.1267804, 41.5986423], [-8.1266444, 41.598659], [-8.1262846, 41.5988066], [-8.1261569, 41.5988212], [-8.1260292, 41.598784], [-8.125446, 41.5984765], [-8.1253226, 41.5983784], [-8.1252603, 41.5983009], [-8.1252364, 41.5981939], [-8.1252312, 41.5980336], [-8.1252829, 41.5975595], [-8.1252537, 41.5974553], [-8.125172, 41.5973837], [-8.1250502, 41.5973569], [-8.1249258, 41.59737], [-8.1244118, 41.5975319], [-8.1242635, 41.5975407], [-8.1241216, 41.5975119], [-8.1239894, 41.5974384], [-8.1238658, 41.5973213], [-8.1235949, 41.596868], [-8.1235238, 41.5968017], [-8.1234633, 41.5967788], [-8.1234001, 41.5967639]]}, "properties": {"highway": "primary", "lanes": "2", "ref": "EN 304", "surface": "asphalt"}}, {"type": "Feature", "geometry": {"type": "LineString", "coordinates": [[-8.2124456, 41.7324896], [-8.2121008, 41.7327194], [-8.211882, 41.7329331], [-8.2116811, 41.7332357], [-8.2116097, 41.7334389], [-8.2116296, 41.7336244]]}, "properties": {"highway": "primary", "name": "Rua Senhor dos Pa\u00e7os", "ref": "EN 304", "surface": "asphalt"}}, {"type": "Feature", "geometry": {"type": "LineString", "coordinates": [[-8.2051275, 41.6915538], [-8.2051831, 41.6916121], [-8.2052241, 41.6916657], [-8.2052442, 41.6917198], [-8.2052837, 41.6918795], [-8.2053494, 41.6920588], [-8.2053917, 41.6921354], [-8.2055379, 41.6923377], [-8.2055761, 41.6923682], [-8.2056324, 41.6923983], [-8.2057028, 41.6924233], [-8.2057678, 41.692436], [-8.2060026, 41.6924408], [-8.2060703, 41.6924493], [-8.2061675, 41.6924799], [-8.2062057, 41.6924974], [-8.2062493, 41.6925199], [-8.2062942, 41.6925517], [-8.206362, 41.6926156]]}, "properties": {"highway": "primary", "ref": "EN 304", "surface": "asphalt"}}, {"type": "Feature", "geometry": {"type": "LineString", "coordinates": [[-8.2064192, 41.6929862], [-8.2063714, 41.6933563], [-8.2065272, 41.6936014], [-8.2066074, 41.6939075], [-8.206819, 41.6941638], [-8.2068383, 41.6942706], [-8.2067568, 41.6943722], [-8.2065666, 41.6946389], [-8.2065506, 41.6947817], [-8.2066021, 41.6949179], [-8.2066559, 41.6949863], [-8.2067656, 41.6950638], [-8.2068706, 41.6951239], [-8.20698, 41.6951675], [-8.2071669, 41.6951834], [-8.2073697, 41.6952016], [-8.2074996, 41.6952275], [-8.2076317, 41.6952913], [-8.2077386, 41.6954158], [-8.2078009, 41.6955185], [-8.2078233, 41.6957022], [-8.2078817, 41.6958068], [-8.20794, 41.6958512], [-8.2083718, 41.695969], [-8.2085349, 41.6960321], [-8.2086663, 41.6961352], [-8.2090638, 41.6970112], [-8.2090078, 41.697342], [-8.2089944, 41.6979789], [-8.2090955, 41.6981534], [-8.2092656, 41.698328], [-8.2097695, 41.6986897], [-8.2109898, 41.6993335], [-8.2110975, 41.6995262], [-8.211047, 41.6996972], [-8.2109145, 41.6998394], [-8.2108651, 41.6999683], [-8.2108673, 41.7004171], [-8.2109889, 41.7009168]]}, "properties": {"highway": "primary", "lanes": "2", "ref": "EN 304", "surface": "asphalt"}}, {"type": "Feature", "geometry": {"type": "LineString", "coordinates": [[-8.2109889, 41.7009168], [-8.2110872, 41.7010282], [-8.2116196, 41.7014218], [-8.2117909, 41.7014951], [-8.2120034, 41.7015507], [-8.212087, 41.701628], [-8.2121401, 41.7017519], [-8.2120246, 41.7020563], [-8.2120275, 41.7022131], [-8.2121703, 41.7025889]]}, "properties": {"highway": "primary", "ref": "EN 304", "surface": "asphalt"}}, {"type": "Feature", "geometry": {"type": "LineString", "coordinates": [[-8.2121703, 41.7025889], [-8.2122788, 41.7026909], [-8.2125529, 41.7029621], [-8.2126046, 41.7030841], [-8.212567, 41.7034437], [-8.2126262, 41.7035594], [-8.2127416, 41.703654], [-8.2132808, 41.7038758]]}, "properties": {"highway": "primary", "ref": "EN 304", "surface": "asphalt"}}, {"type": "Feature", "geometry": {"type": "LineString", "coordinates": [[-8.2046942, 41.6913618], [-8.2051275, 41.6915538]]}, "properties": {"highway": "primary", "ref": "EN 304", "surface": "asphalt"}}, {"type": "Feature", "geometry": {"type": "LineString", "coordinates": [[-7.966804, 41.4091022], [-7.9644478, 41.4102502]]}, "properties": {"bridge": "yes", "highway": "primary", "layer": "1", "name": "Variante \u00e0 EN 304", "ref": "EN 304", "sidewalk": "both", "surface": "asphalt"}}, {"type": "Feature", "geometry": {"type": "LineString", "coordinates": [[-7.9829258, 41.4084875], [-7.9828151, 41.4085595], [-7.9827509, 41.4085806], [-7.9826913, 41.4085946], [-7.9824962, 41.4086118]]}, "properties": {"highway": "primary", "name": "Variante \u00e0 EN 304", "oneway": "yes", "ref": "EN 304"}}, {"type": "Feature", "geometry": {"type": "LineString", "coordinates": [[-7.9830508, 41.4087569], [-7.9831023, 41.4087691], [-7.9831559, 41.4087729], [-7.9832159, 41.4087672], [-7.9832725, 41.4087512], [-7.9833405, 41.408713], [-7.9833883, 41.4086603], [-7.9834092, 41.4086078], [-7.9834097, 41.4085531], [-7.9833903, 41.4085013], [-7.9833526, 41.4084555], [-7.9832997, 41.4084192], [-7.9832219, 41.4083922], [-7.9831366, 41.4083857], [-7.9830531, 41.4084006], [-7.9829795, 41.4084359], [-7.9829258, 41.4084875], [-7.982902, 41.408535], [-7.9828953, 41.4085854], [-7.9829063, 41.4086355], [-7.9829343, 41.4086816], [-7.9829574, 41.4087052], [-7.9829849, 41.4087259], [-7.9830163, 41.4087433], [-7.9830278, 41.4087479], [-7.9830508, 41.4087569]]}, "properties": {"highway": "primary", "junction": "roundabout", "name": "Variante \u00e0 EN 210", "ref": "EN 304"}}, {"type": "Feature", "geometry": {"type": "LineString", "coordinates": [[-7.9824962, 41.4086118], [-7.9825844, 41.4086331], [-7.9826817, 41.408639], [-7.9828243, 41.4086476], [-7.9829343, 41.4086816]]}, "properties": {"highway": "primary", "name": "Variante \u00e0 EN 304", "oneway": "yes", "ref": "EN 304"}}, {"type": "Feature", "geometry": {"type": "LineString", "coordinates": [[-7.9765168, 41.4099758], [-7.9761618, 41.4100157], [-7.9757825, 41.4100811], [-7.9753343, 41.410205], [-7.9746735, 41.4104283]]}, "properties": {"bridge": "yes", "highway": "primary", "layer": "1", "name": "Variante \u00e0 EN 304", "ref": "EN 304"}}, {"type": "Feature", "geometry": {"type": "LineString", "coordinates": [[-7.9824962, 41.4086118], [-7.9823949, 41.4085917], [-7.9822623, 41.4085563], [-7.9819504, 41.4084139], [-7.9817095, 41.4083335], [-7.9814628, 41.4083113], [-7.9812187, 41.4083475], [-7.9809196, 41.4084773], [-7.9806316, 41.4086199], [-7.9797713, 41.4090786], [-7.9794833, 41.4093021], [-7.9793338, 41.4094475], [-7.9789844, 41.4098171], [-7.9788122, 41.4099548], [-7.9785899, 41.4100583], [-7.9783104, 41.4101265], [-7.9780312, 41.41015], [-7.9778034, 41.4101362], [-7.9775468, 41.4100816], [-7.9773064, 41.410034], [-7.9771638, 41.4100072], [-7.9769363, 41.4099807], [-7.9765168, 41.4099758]]}, "properties": {"highway": "primary", "name": "Variante \u00e0 EN 304", "ref": "EN 304"}}, {"type": "Feature", "geometry": {"type": "LineString", "coordinates": [[-7.9746735, 41.4104283], [-7.9741495, 41.4105909], [-7.9738296, 41.4106725], [-7.9736843, 41.410696], [-7.9735508, 41.4107019], [-7.9733115, 41.410677]]}, "properties": {"highway": "primary", "name": "Variante \u00e0 EN 304", "ref": "EN 304", "surface": "asphalt"}}, {"type": "Feature", "geometry": {"type": "LineString", "coordinates": [[-7.9624165, 41.4110464], [-7.962381, 41.4110634], [-7.9623508, 41.4110855], [-7.9623273, 41.4111117], [-7.9623113, 41.411141], [-7.962305, 41.4111628], [-7.962303, 41.4111851], [-7.9623073, 41.411216], [-7.9623197, 41.4112456], [-7.9623398, 41.4112728], [-7.9623667, 41.4112964], [-7.9623993, 41.4113155], [-7.9624364, 41.4113293], [-7.9624738, 41.411337], [-7.9625125, 41.4113393], [-7.9625511, 41.4113361], [-7.9625882, 41.4113276], [-7.9626226, 41.411314], [-7.962664, 41.411287], [-7.9626945, 41.4112529], [-7.962712, 41.4112139], [-7.9627143, 41.4111662], [-7.9627031, 41.4111313], [-7.9626816, 41.4110993], [-7.9626508, 41.4110719], [-7.9626124, 41.4110505]]}, "properties": {"highway": "primary", "junction": "roundabout", "ref": "EN 304", "surface": "asphalt"}}, {"type": "Feature", "geometry": {"type": "LineString", "coordinates": [[-7.9627143, 41.4111662], [-7.9628174, 41.4110769], [-7.9630282, 41.4109435]]}, "properties": {"highway": "primary", "name": "Variante \u00e0 EN 304", "oneway": "yes", "ref": "EN 304", "surface": "asphalt"}}, {"type": "Feature", "geometry": {"type": "LineString", "coordinates": [[-7.7845635, 41.2159291], [-7.7845176, 41.2158695], [-7.7845067, 41.2158575], [-7.7844952, 41.2158471], [-7.7844819, 41.215837], [-7.7844688, 41.2158282], [-7.784456, 41.2158208], [-7.7844394, 41.2158126], [-7.7843313, 41.2157651]]}, "properties": {"highway": "primary", "lanes": "1", "oneway": "yes", "ref": "EN 304", "surface": "asphalt"}}, {"type": "Feature", "geometry": {"type": "LineString", "coordinates": [[-7.7843948, 41.2158974], [-7.7844481, 41.2158989], [-7.7844628, 41.2158998], [-7.784478, 41.2159018], [-7.784492, 41.2159048], [-7.7845093, 41.21591], [-7.7845635, 41.2159291]]}, "properties": {"highway": "primary", "lanes": "1", "oneway": "yes", "ref": "EN 304", "surface": "asphalt"}}, {"type": "Feature", "geometry": {"type": "LineString", "coordinates": [[-7.9644478, 41.4102502], [-7.9643704, 41.4102891], [-7.9639282, 41.4105074], [-7.9638882, 41.4105273]]}, "properties": {"highway": "primary", "name": "Variante \u00e0 EN 304", "postal_code": "4880-195", "ref": "EN 304", "source": "Bing", "surface": "asphalt"}}, {"type": "Feature", "geometry": {"type": "LineString", "coordinates": [[-7.9721478, 41.4100956], [-7.9716325, 41.4101536], [-7.9715054, 41.4101545], [-7.9713954, 41.4101368], [-7.971147, 41.4100897], [-7.97088, 41.4100728], [-7.9706946, 41.4100667], [-7.9705723, 41.4100457], [-7.9704877, 41.4100222], [-7.9703536, 41.4099404], [-7.9702383, 41.4097958], [-7.9700553, 41.4095083], [-7.9698228, 41.4092048], [-7.9695432, 41.4089537], [-7.9694423, 41.4088701], [-7.9692854, 41.4087625], [-7.9691441, 41.4086922], [-7.968986, 41.4086386], [-7.9688007, 41.4086094], [-7.9686164, 41.4086298], [-7.9683146, 41.4087539], [-7.9681067, 41.408835], [-7.9679188, 41.4088613], [-7.9677239, 41.4088616], [-7.9675677, 41.4088641], [-7.9674699, 41.4088696], [-7.9673513, 41.408892], [-7.9672802, 41.4089055], [-7.967231, 41.4089148], [-7.9670032, 41.4090073], [-7.966804, 41.4091022]]}, "properties": {"highway": "primary", "name": "Variante \u00e0 EN 304", "ref": "EN 304", "sidewalk": "no", "source": "Bing", "surface": "asphalt"}}, {"type": "Feature", "geometry": {"type": "LineString", "coordinates": [[-7.9624165, 41.4110464], [-7.962218, 41.4110014], [-7.9620251, 41.4109828]]}, "properties": {"highway": "primary", "oneway": "yes", "ref": "EN 304", "surface": "asphalt"}}, {"type": "Feature", "geometry": {"type": "LineString", "coordinates": [[-7.8169421, 41.2433746], [-7.8169937, 41.2434352], [-7.8170876, 41.2436097], [-7.817101, 41.2437186], [-7.8170393, 41.2438356], [-7.8169253, 41.2439132], [-7.8166236, 41.2440433], [-7.8161059, 41.2442137], [-7.8151806, 41.2448328], [-7.8147514, 41.2450355], [-7.814388, 41.2452443], [-7.8126329, 41.2461026], [-7.8124915, 41.2461636], [-7.8124192, 41.2461799], [-7.8123294, 41.2461903], [-7.8118155, 41.2462121], [-7.8116542, 41.2462261], [-7.8112238, 41.2462851], [-7.8111465, 41.2463005], [-7.8110769, 41.2463136], [-7.8107474, 41.2463942], [-7.8107179, 41.2464014], [-7.8106577, 41.2464149], [-7.810612, 41.2464225], [-7.8105978, 41.2464248], [-7.8103982, 41.2464443], [-7.8101778, 41.2464726], [-7.8100677, 41.2464895], [-7.8099812, 41.2465097], [-7.8099007, 41.2465326], [-7.8098469, 41.2465574]]}, "properties": {"highway": "primary", "lanes": "2", "oneway": "no", "ref": "EN 304", "surface": "asphalt"}}, {"type": "Feature", "geometry": {"type": "LineString", "coordinates": [[-7.9626124, 41.4110505], [-7.9625817, 41.4110396], [-7.962549, 41.4110327], [-7.9625152, 41.4110299], [-7.9624812, 41.4110312], [-7.962448, 41.4110368], [-7.9624165, 41.4110464]]}, "properties": {"highway": "primary", "junction": "roundabout", "ref": "EN 304", "surface": "asphalt"}}, {"type": "Feature", "geometry": {"type": "LineString", "coordinates": [[-7.8168841, 41.2433064], [-7.8169421, 41.2433746]]}, "properties": {"bridge": "yes", "highway": "primary", "layer": "1", "oneway": "no", "ref": "EN 304"}}, {"type": "Feature", "geometry": {"type": "LineString", "coordinates": [[-8.1851885, 41.6369977], [-8.1849496, 41.6373678]]}, "properties": {"highway": "primary", "ref": "EN 103;EN 304", "source": "bing", "surface": "asphalt"}}, {"type": "Feature", "geometry": {"type": "LineString", "coordinates": [[-8.185442, 41.6367472], [-8.1851885, 41.6369977]]}, "properties": {"highway": "primary", "lanes": "3", "lanes:backward": "1", "lanes:forward": "2", "ref": "EN 103;EN 304", "source": "bing", "surface": "asphalt"}}, {"type": "Feature", "geometry": {"type": "LineString", "coordinates": [[-8.1684087, 41.6320888], [-8.1680255, 41.6320922]]}, "properties": {"highway": "primary", "lanes": "2", "ref": "EN 304", "source": "GPS Survey", "surface": "asphalt"}}, {"type": "Feature", "geometry": {"type": "LineString", "coordinates": [[-8.1680255, 41.6320922], [-8.1679031, 41.6320962]]}, "properties": {"highway": "primary", "lanes": "2", "ref": "EN 304", "source": "GPS Survey", "surface": "asphalt"}}, {"type": "Feature", "geometry": {"type": "LineString", "coordinates": [[-8.1679031, 41.6320962], [-8.163943, 41.6324077], [-8.1633014, 41.632511], [-8.1625248, 41.6327518], [-8.1569424, 41.635121], [-8.1568375, 41.6351655], [-8.1567868, 41.6351837], [-8.1562694, 41.6353691], [-8.1559072, 41.6354523], [-8.1555558, 41.6355178], [-8.155189, 41.6355522], [-8.1547685, 41.6355668], [-8.1542198, 41.635546], [-8.1532708, 41.6355116]]}, "properties": {"highway": "primary", "lanes": "2", "ref": "EN 304", "source": "GPS Survey", "surface": "asphalt"}}, {"type": "Feature", "geometry": {"type": "LineString", "coordinates": [[-8.1511542, 41.6354263], [-8.1512757, 41.6354308]]}, "properties": {"highway": "primary", "name": "Rua Padre Jos\u00e9 Carlos Alves Vieira", "ref": "EN 304", "source": "GPS Survey", "surface": "asphalt"}}, {"type": "Feature", "geometry": {"type": "LineString", "coordinates": [[-8.1512757, 41.6354308], [-8.152365, 41.6354713]]}, "properties": {"highway": "primary", "lane_markings": "yes", "name": "Rua Padre Jos\u00e9 Carlos Alves Vieira", "ref": "EN 304", "source": "GPS Survey", "surface": "asphalt"}}, {"type": "Feature", "geometry": {"type": "LineString", "coordinates": [[-8.1505887, 41.6354053], [-8.1511542, 41.6354263]]}, "properties": {"highway": "primary", "name": "Rua Padre Jos\u00e9 Carlos Alves Vieira", "ref": "EN 304", "source": "GPS Survey", "surface": "asphalt"}}, {"type": "Feature", "geometry": {"type": "LineString", "coordinates": [[-8.206362, 41.6926156], [-8.2064244, 41.6927158], [-8.2064404, 41.6927693], [-8.2064404, 41.6928459], [-8.2064192, 41.6929862]]}, "properties": {"highway": "primary", "lanes": "2", "ref": "EN 304", "surface": "asphalt"}}, {"type": "Feature", "geometry": {"type": "LineString", "coordinates": [[-7.9729114, 41.4105022], [-7.972777, 41.410391], [-7.9725188, 41.41019], [-7.9723348, 41.4101201], [-7.9721478, 41.4100956]]}, "properties": {"highway": "primary", "name": "Variante \u00e0 EN 304", "ref": "EN 304", "surface": "asphalt"}}, {"type": "Feature", "geometry": {"type": "LineString", "coordinates": [[-7.9730881, 41.4106062], [-7.9730353, 41.4105837], [-7.9729114, 41.4105022]]}, "properties": {"highway": "primary", "name": "Variante \u00e0 EN 304", "ref": "EN 304", "surface": "asphalt"}}, {"type": "Feature", "geometry": {"type": "LineString", "coordinates": [[-7.9733115, 41.410677], [-7.9731643, 41.4106386], [-7.9730881, 41.4106062]]}, "properties": {"highway": "primary", "name": "Variante \u00e0 EN 304", "ref": "EN 304", "surface": "asphalt"}}, {"type": "Feature", "geometry": {"type": "LineString", "coordinates": [[-7.9638882, 41.4105273], [-7.9634537, 41.4107439], [-7.9630282, 41.4109435]]}, "properties": {"highway": "primary", "name": "Variante \u00e0 EN 304", "postal_code": "4880-195", "ref": "EN 304", "source": "Bing", "surface": "asphalt"}}, {"type": "Feature", "geometry": {"type": "LineString", "coordinates": [[-7.9563812, 41.4093099], [-7.9563606, 41.4092665], [-7.9563247, 41.4092299], [-7.9562764, 41.4092026], [-7.9562196, 41.4091869], [-7.9561591, 41.409184], [-7.9561002, 41.4091943], [-7.9560476, 41.4092168], [-7.9560087, 41.4092467]]}, "properties": {"highway": "primary", "junction": "roundabout", "old_ref": "EN 304", "ref": "EN 304", "source": "Bing", "surface": "asphalt"}}, {"type": "Feature", "geometry": {"type": "LineString", "coordinates": [[-7.7879184, 41.2286661], [-7.7877706, 41.228697], [-7.7867398, 41.228945], [-7.7866271, 41.2290196], [-7.7865721, 41.2291043], [-7.7865735, 41.2292153], [-7.7866191, 41.229303], [-7.7867143, 41.2293635], [-7.7868605, 41.2293908], [-7.7883142, 41.2293071], [-7.789544, 41.2289853], [-7.7899209, 41.2289873], [-7.7904372, 41.2290438], [-7.790979, 41.2291013], [-7.7915651, 41.2291376], [-7.7916938, 41.2291891], [-7.7917662, 41.2292859], [-7.7918038, 41.2294231], [-7.7918252, 41.2295844], [-7.7918735, 41.2297357], [-7.7919567, 41.2298225], [-7.7932683, 41.2306152], [-7.7934775, 41.2308129], [-7.7937511, 41.2312769], [-7.7938798, 41.2313777], [-7.7941883, 41.2314665], [-7.7942687, 41.2315149], [-7.7943063, 41.2316561], [-7.7942634, 41.2318396], [-7.7940287, 41.2321251], [-7.793912, 41.2321987], [-7.7937765, 41.2322451], [-7.7935942, 41.2322421], [-7.7931824, 41.2321382], [-7.7927747, 41.2319163], [-7.7925159, 41.2318417], [-7.7923054, 41.2318507], [-7.7918708, 41.2319919], [-7.7916428, 41.232119], [-7.7915382, 41.2322471], [-7.7914913, 41.2323923], [-7.7914551, 41.2328654], [-7.791388, 41.2330398], [-7.7912875, 41.2331679], [-7.7911654, 41.2332284], [-7.790979, 41.2332506], [-7.7907135, 41.2332617], [-7.7905244, 41.2333212], [-7.7903943, 41.2334523], [-7.7903608, 41.2335845], [-7.7904076, 41.2336726], [-7.7905364, 41.233772], [-7.7907054, 41.2338114], [-7.7909562, 41.2338547], [-7.7911748, 41.2339768], [-7.7913867, 41.234241], [-7.7919982, 41.2347634], [-7.7925897, 41.2350468], [-7.7926983, 41.2351628], [-7.7927546, 41.2353302], [-7.7927734, 41.2355743], [-7.7928311, 41.2356782], [-7.7929518, 41.2357669], [-7.793157, 41.2358244], [-7.7937081, 41.2358718], [-7.794317, 41.235895], [-7.7945235, 41.2358577], [-7.7947716, 41.2357084], [-7.7951512, 41.2354492], [-7.7952866, 41.235416], [-7.7954315, 41.2354109], [-7.7957453, 41.2354563], [-7.7964601, 41.2354462], [-7.7966103, 41.2355007], [-7.7967753, 41.2356741], [-7.7968316, 41.2359737], [-7.7967873, 41.2363337], [-7.7968141, 41.2366131], [-7.7969094, 41.236842], [-7.7969831, 41.2369207], [-7.7971521, 41.2369882], [-7.797773, 41.2370891], [-7.7979085, 41.2371587], [-7.7981231, 41.2373936], [-7.7986836, 41.2376579], [-7.7989586, 41.2377123], [-7.7993569, 41.2377285], [-7.7998517, 41.2378696], [-7.8007476, 41.2380703], [-7.8011902, 41.2380673], [-7.8016368, 41.2380149], [-7.802192, 41.2378243], [-7.8023194, 41.2378132], [-7.8024092, 41.2378424], [-7.8024468, 41.2379019], [-7.8024347, 41.2380229], [-7.8021571, 41.2385796], [-7.8019841, 41.2387803], [-7.8017883, 41.239099], [-7.801787, 41.2391726], [-7.8018312, 41.2392613], [-7.8022, 41.2395588], [-7.8024347, 41.2398009], [-7.8026989, 41.2399844], [-7.8029645, 41.2400489], [-7.8032662, 41.240058], [-7.8033976, 41.2400984], [-7.8037705, 41.240415], [-7.8039354, 41.2404916], [-7.8042707, 41.2405552], [-7.8043914, 41.2406016], [-7.8046127, 41.2407569], [-7.8048179, 41.2408315], [-7.80507, 41.2408527], [-7.8053986, 41.2408164], [-7.8057392, 41.2407014], [-7.8058706, 41.2406974], [-7.8062207, 41.2408396], [-7.806458, 41.2408577], [-7.8068644, 41.2408184], [-7.8074974, 41.2404715], [-7.8076355, 41.2404442], [-7.8078353, 41.2404543], [-7.8079078, 41.2405148], [-7.8079748, 41.2406681], [-7.807948, 41.2407548], [-7.8077321, 41.2409323], [-7.8076302, 41.2414517], [-7.8073405, 41.2418127], [-7.8070709, 41.2420204], [-7.8069502, 41.2421626], [-7.806918, 41.2422745], [-7.8069596, 41.2423683], [-7.8079788, 41.24305], [-7.8082564, 41.2431619], [-7.8085756, 41.2432547], [-7.8094621, 41.2434887], [-7.8095935, 41.2435673], [-7.8097142, 41.2438033], [-7.809843, 41.2439001], [-7.810071, 41.2439656], [-7.810712, 41.2440312], [-7.8115019, 41.2442399], [-7.8118023, 41.2442742], [-7.8120907, 41.2442722], [-7.8122516, 41.2442066], [-7.8123347, 41.2441129], [-7.8123817, 41.2438638], [-7.8124487, 41.2438023], [-7.8126016, 41.243769], [-7.8132521, 41.2439445], [-7.8134854, 41.2439626], [-7.8137523, 41.2439203], [-7.8143276, 41.2436964], [-7.8150411, 41.2434977], [-7.8152946, 41.2434635], [-7.8161703, 41.2433364], [-7.8166679, 41.2432378], [-7.8167678, 41.2432335], [-7.8168543, 41.2432714], [-7.8168841, 41.2433064]]}, "properties": {"highway": "primary", "lanes": "2", "oneway": "no", "ref": "EN 304", "surface": "asphalt"}}, {"type": "Feature", "geometry": {"type": "LineString", "coordinates": [[-7.9561962, 41.4094959], [-7.9562632, 41.4094824], [-7.9563206, 41.4094532], [-7.9563621, 41.4094115], [-7.9563831, 41.4093619], [-7.9563812, 41.4093099]]}, "properties": {"highway": "primary", "junction": "roundabout", "old_ref": "EN 304", "ref": "EN 304", "sidewalk": "no", "source": "Bing", "surface": "asphalt"}}, {"type": "Feature", "geometry": {"type": "LineString", "coordinates": [[-8.1915557, 41.6343556], [-8.1915405, 41.6343233], [-8.1915135, 41.6342956], [-8.1914875, 41.6342796], [-8.1914404, 41.6342638], [-8.1913891, 41.6342602], [-8.1913389, 41.6342691], [-8.1912951, 41.6342895], [-8.1912618, 41.6343203], [-8.1912439, 41.6343575]]}, "properties": {"highway": "primary", "junction": "roundabout", "lanes": "2", "ref": "EN 103;EN 304", "source": "GPS Survey;bing", "surface": "asphalt"}}, {"type": "Feature", "geometry": {"type": "MultiPolygon", "coordinates": [[[[-8.1432325, 41.6331994], [-8.1432272, 41.6331843], [-8.1432169, 41.6331707], [-8.1432023, 41.6331596], [-8.1431843, 41.6331517], [-8.1431642, 41.6331475], [-8.1431433, 41.6331474], [-8.1431192, 41.6331526], [-8.1430985, 41.633163], [-8.1430831, 41.6331778], [-8.1430745, 41.6331954], [-8.1430737, 41.6332141], [-8.1430789, 41.6332292], [-8.1430892, 41.6332428], [-8.1431039, 41.6332539], [-8.1431219, 41.6332618], [-8.143142, 41.633266], [-8.1431629, 41.6332661], [-8.143187, 41.6332609], [-8.1432077, 41.6332504], [-8.1432231, 41.6332357], [-8.1432316, 41.6332181], [-8.1432325, 41.6331994]]]]}, "properties": {"highway": "primary", "junction": "roundabout", "ref": "EN 304", "source": "GPS Survey;bing", "surface": "asphalt"}}, {"type": "Feature", "geometry": {"type": "MultiPolygon", "coordinates": [[[[-8.1530013, 41.6354984], [-8.1529973, 41.6354587], [-8.1529781, 41.6354216], [-8.152941, 41.6353873], [-8.152891, 41.6353637], [-8.1528337, 41.6353534], [-8.1527749, 41.6353574], [-8.1527209, 41.6353753], [-8.1526775, 41.6354052], [-8.1526513, 41.6354398], [-8.1526396, 41.6354786], [-8.1526436, 41.6355183], [-8.1526628, 41.6355554], [-8.1526832, 41.6355771], [-8.1527089, 41.6355954], [-8.1527552, 41.635615], [-8.1528071, 41.6356237], [-8.1528601, 41.6356208], [-8.1529097, 41.6356065], [-8.1529388, 41.6355912], [-8.1529634, 41.6355719], [-8.1529896, 41.6355373], [-8.1530013, 41.6354984]]]]}, "properties": {"highway": "primary", "junction": "roundabout", "ref": "EN 304", "source": "GPS Survey;bing", "surface": "asphalt"}}, {"type": "Feature", "geometry": {"type": "MultiPolygon", "coordinates": [[[[-8.1807095, 41.6759164], [-8.1807055, 41.6758885], [-8.1806862, 41.6758494], [-8.1806526, 41.6758161], [-8.1806076, 41.6757915], [-8.1805549, 41.6757777], [-8.1805175, 41.6757751], [-8.1804802, 41.6757781], [-8.1804277, 41.6757925], [-8.1803831, 41.6758176], [-8.1803502, 41.6758513], [-8.1803317, 41.6758907], [-8.1803283, 41.6759185], [-8.1803322, 41.6759462], [-8.1803514, 41.6759854], [-8.180385, 41.6760188], [-8.1804302, 41.6760435], [-8.180483, 41.6760573], [-8.1805202, 41.6760598], [-8.1805574, 41.6760569], [-8.1806099, 41.6760426], [-8.1806545, 41.6760175], [-8.1806875, 41.6759838], [-8.180706, 41.6759444], [-8.1807095, 41.6759164]]]]}, "properties": {"highway": "primary", "junction": "roundabout", "lanes": "1", "ref": "EN 304", "source": "bing", "surface": "asphalt"}}, {"type": "Feature", "geometry": {"type": "MultiPolygon", "coordinates": [[[[-8.1410468, 41.6304694], [-8.1410317, 41.6304335], [-8.1410007, 41.6304043], [-8.1409895, 41.6303971], [-8.1409443, 41.6303807], [-8.1408945, 41.6303774], [-8.1408464, 41.6303877], [-8.1408333, 41.6303926], [-8.1407957, 41.6304175], [-8.1407726, 41.6304507], [-8.1407668, 41.6304879], [-8.1407679, 41.6304988], [-8.1407843, 41.6305343], [-8.1408165, 41.6305629], [-8.14086, 41.6305812], [-8.140874, 41.6305846], [-8.1409241, 41.6305869], [-8.1409337, 41.6305853], [-8.1409763, 41.630574], [-8.1410148, 41.6305499], [-8.1410392, 41.6305173], [-8.1410438, 41.6305068], [-8.1410468, 41.6304694]]]]}, "properties": {"highway": "primary", "junction": "roundabout", "ref": "EN 304", "source": "GPS Survey;bing", "surface": "asphalt"}}, {"type": "Feature", "geometry": {"type": "MultiPolygon", "coordinates": [[[[-8.1481704, 41.6354877], [-8.1481642, 41.6354599], [-8.1481442, 41.6354359], [-8.1481136, 41.6354196], [-8.1480767, 41.6354132], [-8.147975, 41.6354266], [-8.147943, 41.6354414], [-8.147921, 41.6354644], [-8.1479124, 41.6354918], [-8.1479186, 41.6355197], [-8.1479386, 41.6355436], [-8.1479692, 41.63556], [-8.1480058, 41.6355664], [-8.1481078, 41.635553], [-8.1481398, 41.6355381], [-8.1481618, 41.6355152], [-8.1481704, 41.6354877]]]]}, "properties": {"highway": "primary", "junction": "roundabout", "ref": "EN 304", "source": "GPS Survey;bing", "surface": "asphalt"}}, {"type": "Feature", "geometry": {"type": "MultiPolygon", "coordinates": [[[[-8.1459955, 41.6355406], [-8.145982, 41.6355115], [-8.1459565, 41.6354874], [-8.1459219, 41.6354709], [-8.1458819, 41.6354637], [-8.145841, 41.6354668], [-8.1458037, 41.6354797], [-8.1457742, 41.635501], [-8.1457556, 41.6355284], [-8.14575, 41.6355582], [-8.1457575, 41.6355877], [-8.1457774, 41.6356139], [-8.1458074, 41.6356339], [-8.1458444, 41.6356456], [-8.1458845, 41.6356479], [-8.1459234, 41.6356404], [-8.1459571, 41.635624], [-8.1459819, 41.6356003], [-8.1459954, 41.6355713], [-8.1459955, 41.6355406]]]]}, "properties": {"highway": "primary", "junction": "roundabout", "name": "Avenida da Imaculada Concei\u00e7\u00e3o", "ref": "EN 304", "surface": "asphalt"}}, {"type": "Feature", "geometry": {"type": "MultiPolygon", "coordinates": [[[[-7.9834097, 41.4085531], [-7.9833903, 41.4085013], [-7.9833526, 41.4084555], [-7.9832997, 41.4084192], [-7.9832219, 41.4083922], [-7.9831366, 41.4083857], [-7.9830531, 41.4084006], [-7.9829795, 41.4084359], [-7.9829258, 41.4084875], [-7.982902, 41.408535], [-7.9828953, 41.4085854], [-7.9829063, 41.4086355], [-7.9829343, 41.4086816], [-7.9829574, 41.4087052], [-7.9829849, 41.4087259], [-7.9830163, 41.4087433], [-7.9830278, 41.4087479], [-7.9830508, 41.4087569], [-7.9831023, 41.4087691], [-7.9831559, 41.4087729], [-7.9832159, 41.4087672], [-7.9832725, 41.4087512], [-7.9833405, 41.408713], [-7.9833883, 41.4086603], [-7.9834092, 41.4086078], [-7.9834097, 41.4085531]]]]}, "properties": {"highway": "primary", "junction": "roundabout", "name": "Variante \u00e0 EN 210", "ref": "EN 304"}}]}