{"type": "FeatureCollection", "features": [{"type": "Feature", "geometry": {"type": "LineString", "coordinates": [[-7.5234347, 40.6141204], [-7.5235437, 40.6141591], [-7.5236069, 40.6142123], [-7.5236715, 40.6142836]]}, "properties": {"highway": "primary", "lanes": "1", "oneway": "yes", "ref": "EN 330", "source": "Bing", "surface": "asphalt"}}, {"type": "Feature", "geometry": {"type": "LineString", "coordinates": [[-7.5234347, 40.6141204], [-7.5235304, 40.6141161], [-7.523619, 40.6140883], [-7.5236907, 40.6140401], [-7.5237357, 40.6139811], [-7.5237547, 40.6139144], [-7.5237458, 40.6138465], [-7.52371, 40.613784], [-7.5236601, 40.613739], [-7.5235963, 40.6137058], [-7.5235232, 40.6136865], [-7.523451, 40.6136824], [-7.5233798, 40.613692], [-7.523314, 40.6137147], [-7.5232596, 40.6137475], [-7.5232172, 40.6137892], [-7.523189, 40.6138374], [-7.5231762, 40.6139009], [-7.5231882, 40.6139646], [-7.523224, 40.6140228], [-7.5232805, 40.6140708], [-7.5233528, 40.6141042], [-7.5234347, 40.6141204]]}, "properties": {"highway": "primary", "junction": "roundabout", "lanes": "2", "ref": "EN 16;EN 330", "surface": "asphalt"}}, {"type": "Feature", "geometry": {"type": "LineString", "coordinates": [[-7.5230544, 40.6136782], [-7.5230921, 40.6137203], [-7.5231663, 40.6137997], [-7.523189, 40.6138374]]}, "properties": {"highway": "primary", "lanes": "1", "oneway": "yes", "ref": "EN 16;EN 330", "source": "Bing", "surface": "asphalt"}}, {"type": "Feature", "geometry": {"type": "LineString", "coordinates": [[-7.5118842, 40.6188408], [-7.512052, 40.6183272]]}, "properties": {"bridge": "yes", "highway": "primary", "layer": "1", "ref": "EN 330"}}, {"type": "Feature", "geometry": {"type": "LineString", "coordinates": [[-7.5380915, 40.8176538], [-7.5379892, 40.8175219]]}, "properties": {"highway": "primary", "ref": "EN 330"}}, {"type": "Feature", "geometry": {"type": "LineString", "coordinates": [[-7.5716166, 40.5352636], [-7.5702984, 40.53663], [-7.5702211, 40.5367576], [-7.5701703, 40.5369037], [-7.570138, 40.5370495], [-7.5699106, 40.5385622], [-7.5698418, 40.53902], [-7.56932, 40.5424911], [-7.5689681, 40.5447698], [-7.568942, 40.5449389], [-7.5687562, 40.5461426], [-7.5687326, 40.5462952], [-7.5684939, 40.5480256]]}, "properties": {"highway": "primary", "ref": "EN 330"}}, {"type": "Feature", "geometry": {"type": "LineString", "coordinates": [[-7.5404438, 40.5854557], [-7.5417274, 40.5832248], [-7.5417713, 40.5831505], [-7.5422283, 40.5823768], [-7.5424944, 40.5818834], [-7.542557, 40.581717], [-7.5426159, 40.5815005], [-7.5427918, 40.5807679], [-7.5428385, 40.5805792], [-7.5430266, 40.5798188], [-7.5431675, 40.5792858], [-7.5432275, 40.5791471], [-7.5433292, 40.5790064], [-7.5434597, 40.5788954], [-7.5435953, 40.5788063], [-7.5438275, 40.5787032], [-7.5441093, 40.578626], [-7.5447617, 40.5784529], [-7.5451541, 40.5783517], [-7.5460346, 40.5781247], [-7.5462512, 40.5780494], [-7.5464689, 40.5778935], [-7.5465799, 40.5777521], [-7.5467234, 40.5775441], [-7.5478948, 40.5758836], [-7.5480956, 40.5756319], [-7.5483644, 40.5754035], [-7.5484557, 40.5753426], [-7.5485245, 40.5752988], [-7.5486018, 40.5752495], [-7.5488824, 40.5750788], [-7.5495162, 40.5746931], [-7.5496114, 40.5746352], [-7.5496762, 40.5745913], [-7.5499218, 40.5744251], [-7.5499927, 40.5743688], [-7.550094, 40.5742884], [-7.5502714, 40.5740982], [-7.5506387, 40.5735697], [-7.550741, 40.5734224], [-7.5511363, 40.5728196], [-7.552262, 40.5711495], [-7.5524055, 40.5709434], [-7.5525829, 40.5707393], [-7.5529612, 40.5703746], [-7.5530309, 40.5703079], [-7.5552654, 40.5681646]]}, "properties": {"highway": "primary", "ref": "EN 330"}}, {"type": "Feature", "geometry": {"type": "LineString", "coordinates": [[-7.540209, 40.5858639], [-7.5404438, 40.5854557]]}, "properties": {"bridge": "yes", "highway": "primary", "layer": "1", "oneway": "no", "ref": "EN 330", "source": "Bing"}}, {"type": "Feature", "geometry": {"type": "LineString", "coordinates": [[-7.5203494, 40.6112426], [-7.5204689, 40.6111825], [-7.5207786, 40.6111039], [-7.5209218, 40.6110297], [-7.5217462, 40.6103929], [-7.5220191, 40.6100573], [-7.5222087, 40.6099049], [-7.5223574, 40.6098215], [-7.5226594, 40.6096961], [-7.5232286, 40.6093107], [-7.5238264, 40.6087723], [-7.5240028, 40.6085211], [-7.5241516, 40.6080351], [-7.5246014, 40.6065945], [-7.5247676, 40.6063064], [-7.5255042, 40.6052811], [-7.5257806, 40.6048645], [-7.5258221, 40.6047112], [-7.5258192, 40.6045533], [-7.5257386, 40.6043458], [-7.5256568, 40.6041784], [-7.5256264, 40.6041094], [-7.5255547, 40.6039307], [-7.5253652, 40.603419], [-7.5253336, 40.6031897], [-7.5253719, 40.6029719], [-7.525465, 40.6027661], [-7.5256528, 40.6025462], [-7.5269872, 40.6015392], [-7.5272683, 40.6013693], [-7.5287253, 40.6007083], [-7.529133, 40.6004802], [-7.5293905, 40.6002195], [-7.529884, 40.5994212], [-7.5300771, 40.5989813], [-7.5301919, 40.5987076], [-7.5303346, 40.5984762], [-7.5308785, 40.5980396], [-7.5313431, 40.5974009], [-7.5321213, 40.5962748], [-7.5322304, 40.596117], [-7.534197, 40.5939304], [-7.5353421, 40.592704], [-7.5365788, 40.591356]]}, "properties": {"highway": "primary", "ref": "EN 330"}}, {"type": "Feature", "geometry": {"type": "LineString", "coordinates": [[-7.5230544, 40.6136782], [-7.5230229, 40.6136639], [-7.5229598, 40.6136352], [-7.5228976, 40.6136069], [-7.5228283, 40.6135754], [-7.5227445, 40.6135373], [-7.5226904, 40.6135127], [-7.5226571, 40.6134976], [-7.522557, 40.6134521], [-7.5225207, 40.6134356], [-7.5224445, 40.613401], [-7.5223239, 40.6133462], [-7.5221964, 40.6132882], [-7.5220538, 40.6132234], [-7.5219121, 40.613159], [-7.5217629, 40.6130912], [-7.5207322, 40.6126227], [-7.5204185, 40.6124582], [-7.5202644, 40.6123101], [-7.520226, 40.6122202]]}, "properties": {"highway": "primary", "lanes": "2", "oneway": "no", "ref": "EN 16;EN 330", "source": "Bing", "surface": "asphalt"}}, {"type": "Feature", "geometry": {"type": "LineString", "coordinates": [[-7.5202529, 40.6113811], [-7.5202742, 40.6113077], [-7.5203494, 40.6112426]]}, "properties": {"highway": "primary", "lanes": "2", "oneway": "no", "ref": "EN 16;EN 330", "source": "Bing", "surface": "asphalt"}}, {"type": "Feature", "geometry": {"type": "LineString", "coordinates": [[-7.520226, 40.6122202], [-7.5202086, 40.6119698], [-7.5202529, 40.6113811]]}, "properties": {"bridge": "yes", "highway": "primary", "lanes": "2", "layer": "1", "oneway": "no", "ref": "EN 330;EN 16", "source": "Bing", "surface": "asphalt"}}, {"type": "Feature", "geometry": {"type": "LineString", "coordinates": [[-7.5236715, 40.6142836], [-7.5236762, 40.6143078], [-7.5236856, 40.6143571], [-7.5236832, 40.6144225], [-7.5236808, 40.6144879], [-7.523665, 40.6145735], [-7.5236491, 40.614659], [-7.5236135, 40.61475], [-7.5235682, 40.6148433], [-7.5234889, 40.6149384], [-7.5233856, 40.6150132], [-7.5232311, 40.6150846], [-7.5230107, 40.6151157], [-7.5227766, 40.6150927], [-7.5224885, 40.6150405], [-7.522279, 40.6150231], [-7.5219745, 40.6150703], [-7.5216896, 40.6151697], [-7.5214245, 40.6152741], [-7.5211756, 40.6153785], [-7.5209539, 40.6155066], [-7.5208875, 40.615545], [-7.5205994, 40.6157339], [-7.5202949, 40.6159476], [-7.5198681, 40.6162499], [-7.5196041, 40.6164615], [-7.5194784, 40.6166094], [-7.5192416, 40.6169561], [-7.5191042, 40.6171654], [-7.5189513, 40.6173471], [-7.518785, 40.6174809], [-7.5185689, 40.6176122], [-7.5183528, 40.6177106], [-7.5180602, 40.6178141], [-7.5177908, 40.6179125], [-7.5175581, 40.6180034], [-7.5173652, 40.6181077], [-7.5172688, 40.6181599], [-7.5172251, 40.6181806], [-7.5170725, 40.6182532]]}, "properties": {"highway": "primary", "lanes": "2", "oneway": "no", "ref": "EN 330", "source": "Bing", "surface": "asphalt"}}, {"type": "Feature", "geometry": {"type": "LineString", "coordinates": [[-7.523314, 40.6137147], [-7.5231806, 40.6136959], [-7.5230544, 40.6136782]]}, "properties": {"highway": "primary", "lanes": "1", "oneway": "yes", "ref": "EN 16;EN 330", "source": "Bing", "surface": "asphalt"}}, {"type": "Feature", "geometry": {"type": "LineString", "coordinates": [[-7.4846676, 40.656975], [-7.4847181, 40.6572987], [-7.4848036, 40.657692], [-7.4849689, 40.6579518], [-7.4851121, 40.6581252], [-7.4852634, 40.6583084], [-7.4853714, 40.6585339], [-7.4853789, 40.6586173], [-7.485388, 40.658719], [-7.4853098, 40.6589012], [-7.4851034, 40.6590818], [-7.4848306, 40.6591883], [-7.4845128, 40.6591824], [-7.4842257, 40.6591018], [-7.4838755, 40.6589155], [-7.483551, 40.6587944]]}, "properties": {"highway": "primary", "oneway": "yes", "ref": "EN 330"}}, {"type": "Feature", "geometry": {"type": "LineString", "coordinates": [[-7.4846676, 40.656975], [-7.4845758, 40.6568377], [-7.4844845, 40.6567618], [-7.4839275, 40.6565632], [-7.4836926, 40.6564003], [-7.4834831, 40.6560998], [-7.4834294, 40.6560228], [-7.483263, 40.6557842], [-7.4832429, 40.6556111], [-7.4833235, 40.655494], [-7.4835919, 40.6553667], [-7.4838738, 40.6553107], [-7.4841087, 40.6552649], [-7.4842161, 40.6551885], [-7.4844272, 40.654996], [-7.4848642, 40.6545976], [-7.4849188, 40.6545708], [-7.4850102, 40.654526], [-7.4855157, 40.6544384], [-7.4855557, 40.6544315], [-7.4856674, 40.6543761], [-7.4863547, 40.6534571], [-7.4872438, 40.6526685], [-7.4875015, 40.6523947], [-7.4880299, 40.6515246], [-7.4886355, 40.6504785], [-7.4890178, 40.6496671], [-7.489236, 40.6493047], [-7.4907755, 40.6472606], [-7.4910194, 40.6469086], [-7.4911672, 40.6466036], [-7.4912703, 40.6462047], [-7.4915383, 40.6449375], [-7.4916414, 40.6446611], [-7.4919988, 40.6438789], [-7.4940453, 40.6407953], [-7.4945774, 40.640006], [-7.4947908, 40.6396886]]}, "properties": {"highway": "primary", "ref": "EN 330"}}, {"type": "Feature", "geometry": {"type": "LineString", "coordinates": [[-7.4947908, 40.6396886], [-7.4951622, 40.6392092], [-7.4954653, 40.6388103], [-7.4956791, 40.6385351], [-7.4959705, 40.6382274], [-7.4964616, 40.6377752], [-7.4966323, 40.637618], [-7.4968828, 40.6373873], [-7.49713, 40.6371528], [-7.4972795, 40.637013], [-7.497377, 40.636921], [-7.4981578, 40.6362058], [-7.498739, 40.6355832]]}, "properties": {"highway": "primary", "oneway": "yes", "ref": "EN 330"}}, {"type": "Feature", "geometry": {"type": "LineString", "coordinates": [[-7.498739, 40.6355832], [-7.4984793, 40.6357996], [-7.4982607, 40.6359871], [-7.4978458, 40.6363573], [-7.4976494, 40.6365362], [-7.4970238, 40.6371061], [-7.4969418, 40.6371837], [-7.4966611, 40.6374498], [-7.496267, 40.6378174], [-7.4960529, 40.6380087], [-7.4959388, 40.6381192], [-7.4958245, 40.6382322], [-7.4957076, 40.6383476], [-7.4956024, 40.6384672], [-7.4954101, 40.6387109], [-7.495236, 40.6389663], [-7.4950783, 40.6392216], [-7.4949293, 40.6394544], [-7.4947908, 40.6396886]]}, "properties": {"highway": "primary", "oneway": "yes", "ref": "EN 330"}}, {"type": "Feature", "geometry": {"type": "LineString", "coordinates": [[-7.498739, 40.6355832], [-7.5001869, 40.6342406], [-7.5005626, 40.6337157], [-7.5018854, 40.6314866], [-7.5022255, 40.6310322], [-7.5030262, 40.6302389], [-7.5033256, 40.6299124], [-7.5036301, 40.6294461], [-7.5037961, 40.6290259]]}, "properties": {"highway": "primary", "oneway": "no", "ref": "EN 330"}}, {"type": "Feature", "geometry": {"type": "LineString", "coordinates": [[-7.5066828, 40.6245703], [-7.5069564, 40.6244319], [-7.5071786, 40.6243117], [-7.5075219, 40.6240806], [-7.5077544, 40.6238243], [-7.5078983, 40.623526], [-7.5080865, 40.6231814], [-7.508319, 40.6228453], [-7.5085737, 40.6226058], [-7.5089723, 40.6223032], [-7.5102013, 40.6216561], [-7.5107106, 40.621341], [-7.5110149, 40.6210726], [-7.511087, 40.621009], [-7.5112752, 40.6206981], [-7.5118842, 40.6188408]]}, "properties": {"highway": "primary", "oneway": "no", "ref": "EN 330"}}, {"type": "Feature", "geometry": {"type": "LineString", "coordinates": [[-7.5037961, 40.6290259], [-7.5038638, 40.6288828], [-7.5039121, 40.6287443], [-7.5039457, 40.628608], [-7.5039644, 40.6284705], [-7.5040918, 40.6278324], [-7.504127, 40.6277279], [-7.5042018, 40.6275056], [-7.5043737, 40.6271698], [-7.5043869, 40.6271502], [-7.5043989, 40.627127], [-7.5044732, 40.6269947], [-7.504584, 40.6267972], [-7.5046386, 40.6266975], [-7.5049059, 40.6262099], [-7.5049475, 40.6261448], [-7.5049672, 40.6261179], [-7.5052948, 40.6256704], [-7.5054705, 40.6254648], [-7.5056609, 40.6252887], [-7.5059399, 40.6250556], [-7.5062188, 40.6248551], [-7.5066828, 40.6245703]]}, "properties": {"highway": "primary", "oneway": "yes", "ref": "EN 330"}}, {"type": "Feature", "geometry": {"type": "LineString", "coordinates": [[-7.5066828, 40.6245703], [-7.5065219, 40.6246436], [-7.5062724, 40.6247718], [-7.5059895, 40.6249235], [-7.5058741, 40.6249988], [-7.5057628, 40.6250741], [-7.505571, 40.6252228], [-7.5054517, 40.6253337], [-7.5051875, 40.6256177], [-7.5050574, 40.6257826], [-7.5048938, 40.6260299], [-7.5048267, 40.6261185], [-7.5048053, 40.6261643], [-7.5047838, 40.6262091], [-7.5047112, 40.6263281]]}, "properties": {"highway": "primary", "oneway": "yes", "ref": "EN 330"}}, {"type": "Feature", "geometry": {"type": "LineString", "coordinates": [[-7.5047112, 40.6263281], [-7.504578, 40.6265825], [-7.5045265, 40.626682], [-7.5042665, 40.6271321], [-7.5042289, 40.6272016], [-7.5040838, 40.6274697], [-7.5039721, 40.6277746], [-7.5039034, 40.6280861], [-7.5038561, 40.6284089], [-7.5037961, 40.6290259]]}, "properties": {"highway": "primary", "oneway": "yes", "ref": "EN 330"}}, {"type": "Feature", "geometry": {"type": "LineString", "coordinates": [[-7.4880955, 40.7183107], [-7.4879843, 40.7180468], [-7.4879514, 40.7179446], [-7.4872474, 40.7157588], [-7.4868965, 40.7145619], [-7.4863778, 40.7127928], [-7.4863276, 40.7124436], [-7.4863413, 40.7120252], [-7.4864234, 40.7114166], [-7.4863778, 40.7110916], [-7.4861543, 40.7106524], [-7.4858847, 40.7103261], [-7.4858258, 40.7102548], [-7.4856206, 40.7099401], [-7.4855567, 40.7095874], [-7.4855998, 40.7093425], [-7.4856206, 40.7092243], [-7.4857529, 40.7087298], [-7.4857505, 40.7086894], [-7.4857346, 40.7084255], [-7.4855978, 40.7081109], [-7.4852648, 40.7077927], [-7.4848953, 40.7075922], [-7.4847782, 40.7075609], [-7.4843524, 40.7074469], [-7.4837366, 40.7073017], [-7.4833351, 40.7071011], [-7.4830249, 40.7068245], [-7.482879, 40.706579], [-7.4827969, 40.7062159], [-7.4827442, 40.7058292], [-7.4826965, 40.7054793], [-7.4827147, 40.70513], [-7.4828043, 40.7048476], [-7.4828288, 40.7047704], [-7.4830341, 40.7044003], [-7.4837229, 40.7033629], [-7.4840331, 40.7029721], [-7.4844528, 40.7025813], [-7.4848542, 40.7022251], [-7.485023, 40.7019796], [-7.4850823, 40.7017133], [-7.4850412, 40.7014816], [-7.4848953, 40.7012187], [-7.4846352, 40.7010043], [-7.4842885, 40.7008521], [-7.4839282, 40.7007968], [-7.4835267, 40.7008314], [-7.4827375, 40.7010147], [-7.4822129, 40.7010769], [-7.4809357, 40.7011426], [-7.4803837, 40.7010839], [-7.4798956, 40.7009663], [-7.4766932, 40.6997074], [-7.4766643, 40.6996923], [-7.4764013, 40.6995552], [-7.4754068, 40.6989639], [-7.4746268, 40.6983897], [-7.474344, 40.6981165], [-7.4741204, 40.697781], [-7.4739425, 40.6973626], [-7.4735958, 40.6954776], [-7.4735264, 40.6949768], [-7.4734058, 40.6944228], [-7.4733967, 40.6943526], [-7.4733451, 40.6940585], [-7.47324, 40.6937275], [-7.4730165, 40.693309], [-7.4725603, 40.6928283], [-7.4720585, 40.6924063], [-7.4717346, 40.692223], [-7.4715386, 40.6921426], [-7.4712967, 40.6920673], [-7.4712669, 40.6920607], [-7.4710244, 40.6920067], [-7.470814, 40.691981], [-7.4695168, 40.6918506], [-7.4691336, 40.6917709], [-7.4689553, 40.6917017], [-7.4686643, 40.6915622], [-7.4683611, 40.6913349], [-7.4681534, 40.6910803], [-7.4680944, 40.6907382], [-7.4681008, 40.6904007], [-7.468251, 40.6899865], [-7.4689516, 40.6884158], [-7.4691428, 40.6880078], [-7.4692458, 40.6877365], [-7.4692695, 40.6876104], [-7.4692637, 40.6874687], [-7.4692095, 40.6872414], [-7.4691299, 40.686874], [-7.4691327, 40.6867389], [-7.4691518, 40.6866311], [-7.4691749, 40.6865655], [-7.4692648, 40.6863896], [-7.4693922, 40.6861527], [-7.4696494, 40.6856886], [-7.4698039, 40.6853991], [-7.4699675, 40.6851123], [-7.4702726, 40.6845391], [-7.4707129, 40.6837271], [-7.470779, 40.6836186], [-7.470852, 40.6834755], [-7.4708923, 40.6833743], [-7.47091, 40.6832988], [-7.4709186, 40.6832021], [-7.4709056, 40.6830923], [-7.4708798, 40.6830008], [-7.4708277, 40.6828716], [-7.4706747, 40.6825509], [-7.4706575, 40.6825149], [-7.470541, 40.6822666], [-7.470514, 40.682162], [-7.4705229, 40.6820492], [-7.4705557, 40.6819622], [-7.4706813, 40.6817419], [-7.4707498, 40.6815874], [-7.4707769, 40.6815091], [-7.470789, 40.6814328], [-7.470797, 40.6812612], [-7.4708037, 40.6811013], [-7.4708324, 40.6809599], [-7.4708587, 40.6808663], [-7.4708965, 40.6807834], [-7.4709304, 40.6807194], [-7.4711676, 40.6803744], [-7.4712516, 40.6802521], [-7.4713389, 40.6801237], [-7.4719557, 40.6792416], [-7.4724998, 40.6784485], [-7.472632, 40.6781958], [-7.4726414, 40.6779749], [-7.4725582, 40.6777938], [-7.4719273, 40.6769875], [-7.4719033, 40.6769342]]}, "properties": {"highway": "primary", "ref": "EN 330"}}, {"type": "Feature", "geometry": {"type": "LineString", "coordinates": [[-7.5046844, 40.7737209], [-7.5046904, 40.7735186], [-7.5046921, 40.7734356], [-7.5047303, 40.7733113], [-7.5048158, 40.7728967], [-7.5048272, 40.7726592], [-7.5047588, 40.7723613], [-7.5045706, 40.7720547], [-7.5042626, 40.7717431], [-7.5038578, 40.7713335], [-7.5035442, 40.770893], [-7.5034074, 40.7704957], [-7.5033766, 40.7703463], [-7.5033218, 40.7700812], [-7.5030938, 40.7679867], [-7.5026091, 40.7657626], [-7.5019818, 40.7629467], [-7.5019647, 40.7625925], [-7.5019667, 40.7625741], [-7.5020103, 40.7621736], [-7.5022726, 40.7612882], [-7.5023525, 40.7608347], [-7.5023981, 40.7604157], [-7.5026148, 40.7576385], [-7.5026775, 40.7573837], [-7.5041087, 40.7544983], [-7.5042114, 40.7542176], [-7.5047009, 40.7522456], [-7.5048924, 40.7514738], [-7.5049812, 40.7511161], [-7.5050154, 40.7507446], [-7.505004, 40.750412], [-7.5049356, 40.7501053], [-7.5047645, 40.7497424], [-7.5042, 40.7487143], [-7.5036526, 40.7480188], [-7.5029801, 40.7472603], [-7.5006304, 40.7446103], [-7.5004023, 40.7444029], [-7.5001571, 40.7442474], [-7.4988228, 40.7436512], [-7.4985035, 40.7434612], [-7.498207, 40.7432063]]}, "properties": {"highway": "primary", "ref": "EN 330"}}, {"type": "Feature", "geometry": {"type": "LineString", "coordinates": [[-7.488238, 40.718646], [-7.4880955, 40.7183107]]}, "properties": {"bridge": "yes", "highway": "primary", "layer": "1", "ref": "EN 330"}}, {"type": "Feature", "geometry": {"type": "LineString", "coordinates": [[-7.5236715, 40.6142836], [-7.5236728, 40.6142506], [-7.5236784, 40.6141111], [-7.5236907, 40.6140401]]}, "properties": {"highway": "primary", "lanes": "1", "oneway": "yes", "ref": "EN 330", "source": "Bing", "surface": "asphalt"}}, {"type": "Feature", "geometry": {"type": "LineString", "coordinates": [[-7.5168465, 40.6183302], [-7.5167268, 40.6183567], [-7.5166957, 40.6183558], [-7.5164675, 40.6183491], [-7.516258, 40.6182835], [-7.5160718, 40.61818], [-7.5159554, 40.6180387], [-7.5158656, 40.6179125], [-7.5157991, 40.6177207], [-7.5157027, 40.617491], [-7.5156295, 40.6173698], [-7.5155301, 40.6172302], [-7.515368, 40.61712], [-7.5152025, 40.6170406], [-7.5148986, 40.6169867], [-7.5146453, 40.6169995], [-7.5145634, 40.6170222], [-7.514257, 40.6171072], [-7.5137471, 40.6172738], [-7.5131383, 40.6174976], [-7.5131054, 40.6175097], [-7.5130316, 40.6175386], [-7.5126664, 40.6176814], [-7.5123659, 40.617848], [-7.5122721, 40.6179348], [-7.5122274, 40.6179762], [-7.5121103, 40.6181719]]}, "properties": {"highway": "primary", "lanes": "2", "oneway": "no", "ref": "EN 330", "source": "Bing", "surface": "asphalt"}}, {"type": "Feature", "geometry": {"type": "LineString", "coordinates": [[-7.5170725, 40.6182532], [-7.5169662, 40.6183037], [-7.5168465, 40.6183302]]}, "properties": {"bridge": "yes", "highway": "primary", "lanes": "2", "layer": "1", "oneway": "no", "ref": "EN 330", "source": "Bing", "surface": "asphalt"}}, {"type": "Feature", "geometry": {"type": "LineString", "coordinates": [[-7.5365788, 40.591356], [-7.5372664, 40.5906342], [-7.5375618, 40.5902755], [-7.5376994, 40.5900496], [-7.5379816, 40.5895758], [-7.5383138, 40.5890113], [-7.5386226, 40.5885166], [-7.5391588, 40.5876816], [-7.5392286, 40.5875618], [-7.5392517, 40.5875222], [-7.5395537, 40.5869062], [-7.5397679, 40.5865296], [-7.540209, 40.5858639]]}, "properties": {"fixme": "resurvey", "highway": "primary", "note": "Relations entered by \"Jos\u00e9 Flor - OzFlor\" in this area may be faulty, mainly due to wrong naming and taggig practices, e.g. ignoring \"on the ground\" and \"the name is the name\" rules. For details see https://forum.openstreetmap.org/viewtopic.php?id=65772", "ref": "EN 330", "source": "Bing", "surface": "sett"}}, {"type": "Feature", "geometry": {"type": "LineString", "coordinates": [[-7.5556117, 40.5678392], [-7.5560422, 40.5674139], [-7.5561596, 40.5672613], [-7.556263, 40.5670926], [-7.5563944, 40.56675], [-7.5566417, 40.5660951], [-7.5567919, 40.5657201], [-7.5570065, 40.5654104], [-7.5582911, 40.5636464], [-7.5587231, 40.5630957], [-7.5594833, 40.5621936], [-7.5599216, 40.5618012], [-7.5604147, 40.5613751], [-7.5605947, 40.5611749], [-7.5606938, 40.5610242], [-7.560783, 40.5608298], [-7.5610408, 40.560275], [-7.5611269, 40.5600808], [-7.5611687, 40.5599916], [-7.5612336, 40.5599006], [-7.5620922, 40.5588301], [-7.5625957, 40.5582197], [-7.5627966, 40.5579541], [-7.5630105, 40.5577142], [-7.5631592, 40.5576132], [-7.563358, 40.5575205], [-7.5635662, 40.5574804], [-7.5637958, 40.5574744], [-7.5651811, 40.5575061], [-7.5656846, 40.5575022], [-7.5660498, 40.5574566], [-7.566402, 40.5573535], [-7.5674691, 40.5569254], [-7.5678265, 40.5567866], [-7.5682262, 40.5566158], [-7.5693566, 40.5561656], [-7.5697357, 40.5560146], [-7.5698069, 40.5559778], [-7.5698618, 40.5559494], [-7.5699315, 40.5558984], [-7.5700147, 40.5558149], [-7.5701104, 40.5557262]]}, "properties": {"highway": "primary", "ref": "EN 330"}}, {"type": "Feature", "geometry": {"type": "LineString", "coordinates": [[-7.5552654, 40.5681646], [-7.5556117, 40.5678392]]}, "properties": {"bridge": "yes", "highway": "primary", "layer": "1", "ref": "EN 330"}}, {"type": "Feature", "geometry": {"type": "LineString", "coordinates": [[-7.5379892, 40.8175219], [-7.5378113, 40.8171217], [-7.5372439, 40.8158449], [-7.5369615, 40.8152214], [-7.5361415, 40.8134108], [-7.5360001, 40.8131691], [-7.5358222, 40.8129654], [-7.5347079, 40.8117044], [-7.5346693, 40.8116606], [-7.5324054, 40.8090985], [-7.5321819, 40.808874], [-7.5321049, 40.8088149], [-7.5318763, 40.8086393], [-7.5315524, 40.8084632], [-7.5310123, 40.8082649], [-7.5277707, 40.8070751], [-7.5274422, 40.8069267], [-7.5271412, 40.8067471], [-7.5268766, 40.8065538], [-7.5265755, 40.8062741], [-7.5256979, 40.8053224], [-7.5235372, 40.802979], [-7.5218248, 40.8011058], [-7.5215971, 40.8008273], [-7.5214103, 40.8005024], [-7.520903, 40.7994167]]}, "properties": {"highway": "primary", "ref": "EN 330"}}, {"type": "Feature", "geometry": {"type": "LineString", "coordinates": [[-7.4718683, 40.6768563], [-7.4718266, 40.6767635], [-7.4718064, 40.6765294], [-7.471887, 40.6762087], [-7.4721286, 40.6753688], [-7.4723031, 40.6751092], [-7.4732092, 40.6738265], [-7.4733031, 40.673572], [-7.4738132, 40.6716936], [-7.4739474, 40.6713373], [-7.4746186, 40.67008], [-7.4751823, 40.6693927], [-7.4753099, 40.6691637], [-7.4753501, 40.6688582], [-7.4752897, 40.6684815], [-7.4752335, 40.6683766], [-7.4749407, 40.6678299], [-7.4747864, 40.6673768], [-7.4746991, 40.6667609], [-7.4747394, 40.6663587], [-7.474887, 40.6659718], [-7.4756597, 40.6648423], [-7.4757742, 40.6646828], [-7.4757847, 40.6646681], [-7.4759188, 40.6644809], [-7.4763364, 40.6638979], [-7.4779485, 40.6616473], [-7.4788804, 40.6603462], [-7.4792563, 40.6599643], [-7.4795918, 40.6597301], [-7.4813838, 40.658778], [-7.4817664, 40.6586609], [-7.48231, 40.6585744], [-7.4828134, 40.6585998], [-7.4833033, 40.6587016], [-7.483551, 40.6587944]]}, "properties": {"highway": "primary", "ref": "EN 330"}}, {"type": "Feature", "geometry": {"type": "LineString", "coordinates": [[-7.4719033, 40.6769342], [-7.4718683, 40.6768563]]}, "properties": {"bridge": "yes", "highway": "primary", "layer": "1", "ref": "EN 330"}}, {"type": "Feature", "geometry": {"type": "LineString", "coordinates": [[-7.5684827, 40.5481066], [-7.5683225, 40.549268], [-7.5683007, 40.5496736], [-7.5683329, 40.5498774], [-7.5692154, 40.5527763], [-7.5694292, 40.5534325], [-7.5694836, 40.5535996], [-7.5696498, 40.5541636], [-7.5699573, 40.5552069], [-7.5701104, 40.5557262]]}, "properties": {"highway": "primary", "ref": "EN 330"}}, {"type": "Feature", "geometry": {"type": "LineString", "coordinates": [[-7.5684939, 40.5480256], [-7.5684827, 40.5481066]]}, "properties": {"bridge": "yes", "highway": "primary", "layer": "1", "ref": "EN 330"}}, {"type": "Feature", "geometry": {"type": "LineString", "coordinates": [[-7.4933701, 40.7242726], [-7.4927215, 40.7228843], [-7.492683, 40.7228325], [-7.4926573, 40.7227979], [-7.492529, 40.7226953], [-7.491802, 40.7222469], [-7.4914471, 40.7219219], [-7.4911177, 40.7216203], [-7.4909894, 40.721415], [-7.4909396, 40.7211557], [-7.4910964, 40.7202211], [-7.4910465, 40.7199186], [-7.4908255, 40.7196701], [-7.4904976, 40.7194865], [-7.4900985, 40.7194162], [-7.4890507, 40.7193298], [-7.48873, 40.719238], [-7.4884306, 40.7190435], [-7.488238, 40.718646]]}, "properties": {"highway": "primary", "ref": "EN 330"}}, {"type": "Feature", "geometry": {"type": "LineString", "coordinates": [[-7.4946457, 40.7317405], [-7.4945532, 40.7318401], [-7.4944415, 40.7319572], [-7.4943355, 40.7320717], [-7.4942498, 40.7321674], [-7.4941619, 40.7322665], [-7.4940728, 40.732375], [-7.4939995, 40.7324648], [-7.4939262, 40.7325665], [-7.4938483, 40.7326793], [-7.4937863, 40.7327809], [-7.493713, 40.7329031], [-7.4936544, 40.7330168], [-7.4935946, 40.733139], [-7.493545, 40.7332621], [-7.4935089, 40.7333629], [-7.4934751, 40.733468], [-7.493448, 40.7335688], [-7.4934221, 40.7336688], [-7.4933961, 40.733785], [-7.493377, 40.7338859], [-7.4933634, 40.7339799], [-7.4933567, 40.734073], [-7.4933499, 40.7341824], [-7.4933454, 40.734296], [-7.4933488, 40.7344182], [-7.4933544, 40.734543], [-7.4933578, 40.7346062], [-7.493362, 40.7346496], [-7.4933638, 40.734669], [-7.4933679, 40.7347113], [-7.4933826, 40.7348652], [-7.4933835, 40.7348751], [-7.4933984, 40.7350292], [-7.4934153, 40.7351805], [-7.4934322, 40.7353292], [-7.4934469, 40.7354813], [-7.4934627, 40.7356197], [-7.4934773, 40.7357372]]}, "properties": {"highway": "primary", "oneway": "yes", "ref": "EN 330"}}, {"type": "Feature", "geometry": {"type": "LineString", "coordinates": [[-7.4935996, 40.7357414], [-7.4935807, 40.735576], [-7.4935504, 40.7353234], [-7.4935233, 40.7350467], [-7.4935087, 40.7348953], [-7.4935026, 40.7348328], [-7.4934835, 40.7346116], [-7.4934791, 40.7345587], [-7.4934691, 40.7344364], [-7.4934643, 40.7342757], [-7.4934723, 40.7340932], [-7.4935026, 40.7338563], [-7.4935441, 40.7336618], [-7.4935951, 40.7334636], [-7.4936732, 40.7332509], [-7.4937642, 40.7330527], [-7.4938678, 40.7328497], [-7.4940241, 40.7326104], [-7.4941613, 40.7324363], [-7.494316, 40.7322575], [-7.4945058, 40.7320496], [-7.4946573, 40.7318877], [-7.4947313, 40.7318074]]}, "properties": {"highway": "primary", "oneway": "yes", "ref": "EN 330"}}, {"type": "Feature", "geometry": {"type": "LineString", "coordinates": [[-7.4957793, 40.7289018], [-7.4957383, 40.7289712], [-7.4957016, 40.7290461], [-7.4956697, 40.7291283], [-7.4956426, 40.7292056], [-7.4956155, 40.7292969], [-7.4955896, 40.7293849], [-7.4955715, 40.7294703], [-7.4955647, 40.7295438], [-7.4955614, 40.7296088], [-7.4955602, 40.7296942], [-7.4955625, 40.7297848], [-7.4955659, 40.7298523], [-7.4955704, 40.7299446], [-7.4955772, 40.7300344], [-7.4955817, 40.7301326], [-7.4955817, 40.7302113], [-7.495576, 40.730301], [-7.4955659, 40.7303847], [-7.495549, 40.7304719], [-7.4955401, 40.730509]]}, "properties": {"highway": "primary", "oneway": "yes", "ref": "EN 330"}}, {"type": "Feature", "geometry": {"type": "LineString", "coordinates": [[-7.4935107, 40.7360273], [-7.4935292, 40.7361939], [-7.4935506, 40.7364101], [-7.4935732, 40.7366374], [-7.493598, 40.7368681], [-7.4936228, 40.7370903], [-7.4936589, 40.7373133], [-7.4936905, 40.737509], [-7.4937243, 40.7376808], [-7.4937708, 40.7378695]]}, "properties": {"highway": "primary", "oneway": "yes", "ref": "EN 330"}}, {"type": "Feature", "geometry": {"type": "LineString", "coordinates": [[-7.4956643, 40.7304934], [-7.4956907, 40.7303516], [-7.4956955, 40.7301957], [-7.4956971, 40.7300084], [-7.4956891, 40.7298271], [-7.495678, 40.7296458], [-7.4956732, 40.7295153], [-7.4956828, 40.7293739], [-7.4957019, 40.7292397], [-7.495737, 40.7290959], [-7.4957793, 40.7289018]]}, "properties": {"highway": "primary", "oneway": "yes", "ref": "EN 330"}}, {"type": "Feature", "geometry": {"type": "LineString", "coordinates": [[-7.4957793, 40.7289018], [-7.4962782, 40.7277243], [-7.4963851, 40.7273138], [-7.4964065, 40.7270888], [-7.4964065, 40.726617], [-7.4963352, 40.7264279], [-7.4961143, 40.7261902], [-7.4958292, 40.7260336], [-7.4955298, 40.7260012], [-7.4950024, 40.7259418], [-7.4947101, 40.7258391], [-7.4944606, 40.7256447], [-7.4938619, 40.7250505], [-7.4935982, 40.7246778], [-7.4933701, 40.7242726]]}, "properties": {"highway": "primary", "ref": "EN 330"}}, {"type": "Feature", "geometry": {"type": "LineString", "coordinates": [[-7.503115, 40.7877137], [-7.5027573, 40.7873225], [-7.5025121, 40.7870203], [-7.5023582, 40.786662], [-7.5023152, 40.7864273], [-7.5023012, 40.7863511], [-7.502284, 40.7851897], [-7.5023183, 40.7849523], [-7.5024038, 40.7846889], [-7.5025749, 40.7844083], [-7.5033047, 40.7833548], [-7.5034587, 40.7830439], [-7.5035214, 40.7827935], [-7.5035442, 40.7824567], [-7.5035375, 40.7822907], [-7.5035271, 40.7820336], [-7.5035727, 40.7817875], [-7.5037438, 40.7814507], [-7.5040403, 40.7810966], [-7.5044053, 40.7808419], [-7.5050097, 40.7804878], [-7.5052207, 40.7803194], [-7.5054145, 40.780082], [-7.5055685, 40.7797883], [-7.5056027, 40.7795379], [-7.5055799, 40.7792357], [-7.5054602, 40.7789507], [-7.5052408, 40.7786233], [-7.5051699, 40.7785174], [-7.5050667, 40.7783634], [-7.504907, 40.7780698], [-7.50485, 40.7778064], [-7.5048443, 40.7775776], [-7.5048847, 40.7774378], [-7.5049242, 40.7773012], [-7.5054659, 40.7763685], [-7.5055913, 40.7761181], [-7.5056825, 40.7758245], [-7.5056996, 40.775574], [-7.5056711, 40.7753192], [-7.505597, 40.7750947], [-7.5054602, 40.7748399], [-7.5049299, 40.7742397], [-7.5047782, 40.7740324]]}, "properties": {"highway": "primary", "ref": "EN 330"}}, {"type": "Feature", "geometry": {"type": "LineString", "coordinates": [[-7.520903, 40.7994167], [-7.5196038, 40.7966085], [-7.5194259, 40.7962321], [-7.5192982, 40.7960249], [-7.5192699, 40.7959882], [-7.5191248, 40.7958004], [-7.5189673, 40.7956589], [-7.5189287, 40.7956243], [-7.5186504, 40.7953929], [-7.5182855, 40.795196], [-7.5150026, 40.7937035], [-7.5148824, 40.7936489], [-7.5105966, 40.7916887], [-7.5093933, 40.7911569]]}, "properties": {"highway": "primary", "ref": "EN 330"}}, {"type": "Feature", "geometry": {"type": "LineString", "coordinates": [[-7.5047782, 40.7740324], [-7.5047334, 40.7739343], [-7.5047079, 40.7738457], [-7.5046844, 40.7737209]]}, "properties": {"highway": "primary", "ref": "EN 330"}}, {"type": "Feature", "geometry": {"type": "LineString", "coordinates": [[-7.4955401, 40.730509], [-7.4955275, 40.7305514], [-7.4955061, 40.7306163], [-7.4954734, 40.7307026], [-7.495443, 40.7307744], [-7.4953922, 40.7308633], [-7.4953279, 40.7309633], [-7.4952682, 40.731047], [-7.4951949, 40.7311368], [-7.4950934, 40.731253], [-7.4949919, 40.7313666], [-7.4948892, 40.7314786], [-7.4948308, 40.7315414], [-7.4948178, 40.7315555], [-7.4947765, 40.7315999], [-7.4946524, 40.7317333], [-7.4946457, 40.7317405]]}, "properties": {"highway": "primary", "oneway": "yes", "ref": "EN 330"}}, {"type": "Feature", "geometry": {"type": "LineString", "coordinates": [[-7.4937708, 40.7378695], [-7.4937789, 40.7377608], [-7.4937733, 40.7375953], [-7.4937581, 40.7373712], [-7.4937467, 40.7371571], [-7.4937327, 40.7369582], [-7.493709, 40.7367218], [-7.4937044, 40.736681]]}, "properties": {"highway": "primary", "oneway": "yes", "ref": "EN 330"}}, {"type": "Feature", "geometry": {"type": "LineString", "coordinates": [[-7.4947313, 40.7318074], [-7.4948168, 40.7317149], [-7.4949938, 40.7315239], [-7.4950048, 40.7315115], [-7.495174, 40.7313209], [-7.4952416, 40.7312465], [-7.495308, 40.7311734], [-7.4954068, 40.7310477], [-7.495493, 40.7309112], [-7.4955695, 40.7307734], [-7.4955946, 40.7307101], [-7.4956038, 40.7306869], [-7.4956222, 40.7306405], [-7.4956643, 40.7304934]]}, "properties": {"highway": "primary", "oneway": "yes", "ref": "EN 330"}}, {"type": "Feature", "geometry": {"type": "LineString", "coordinates": [[-7.4934773, 40.7357372], [-7.4935033, 40.7359598], [-7.4935107, 40.7360273]]}, "properties": {"highway": "primary", "oneway": "yes", "ref": "EN 330"}}, {"type": "Feature", "geometry": {"type": "LineString", "coordinates": [[-7.498207, 40.7432063], [-7.4980957, 40.7430939], [-7.4975544, 40.7425468], [-7.4955651, 40.7405364], [-7.495457, 40.7404271]]}, "properties": {"highway": "primary", "ref": "EN 330"}}, {"type": "Feature", "geometry": {"type": "LineString", "coordinates": [[-7.4946706, 40.7396323], [-7.4946203, 40.7395815], [-7.4943067, 40.7392445], [-7.4940729, 40.7389378], [-7.4938904, 40.7385792], [-7.4937992, 40.7381471], [-7.4937708, 40.7378695]]}, "properties": {"highway": "primary", "ref": "EN 330"}}, {"type": "Feature", "geometry": {"type": "LineString", "coordinates": [[-7.495457, 40.7404271], [-7.4946706, 40.7396323]]}, "properties": {"highway": "primary", "ref": "EN 330"}}, {"type": "Feature", "geometry": {"type": "LineString", "coordinates": [[-7.4937044, 40.736681], [-7.493678, 40.7364461], [-7.4936429, 40.7361428], [-7.4936244, 40.7359692], [-7.4936225, 40.7359512], [-7.4936079, 40.7358141], [-7.4935996, 40.7357414]]}, "properties": {"highway": "primary", "oneway": "yes", "ref": "EN 330"}}, {"type": "Feature", "geometry": {"type": "MultiPolygon", "coordinates": [[[[-7.5237547, 40.6139144], [-7.5237458, 40.6138465], [-7.52371, 40.613784], [-7.5236601, 40.613739], [-7.5235963, 40.6137058], [-7.5235232, 40.6136865], [-7.523451, 40.6136824], [-7.5233798, 40.613692], [-7.523314, 40.6137147], [-7.5232596, 40.6137475], [-7.5232172, 40.6137892], [-7.523189, 40.6138374], [-7.5231762, 40.6139009], [-7.5231882, 40.6139646], [-7.523224, 40.6140228], [-7.5232805, 40.6140708], [-7.5233528, 40.6141042], [-7.5234347, 40.6141204], [-7.5235304, 40.6141161], [-7.523619, 40.6140883], [-7.5236907, 40.6140401], [-7.5237357, 40.6139811], [-7.5237547, 40.6139144]]]]}, "properties": {"highway": "primary", "junction": "roundabout", "lanes": "2", "ref": "EN 16;EN 330", "surface": "asphalt"}}]}