{"type": "FeatureCollection", "features": [{"type": "Feature", "geometry": {"type": "LineString", "coordinates": [[-27.2627093, 38.7399315], [-27.2629005, 38.7401425], [-27.2641193, 38.7417217], [-27.2655967, 38.743571], [-27.2665377, 38.7447462], [-27.2673272, 38.745715], [-27.268137, 38.7467389], [-27.2683591, 38.7470208], [-27.2695654, 38.7485542], [-27.2711318, 38.7505279], [-27.2718285, 38.7514219], [-27.2725808, 38.7523872], [-27.2730447, 38.7529622], [-27.2745401, 38.7548879], [-27.2747206, 38.7551256], [-27.2750831, 38.7555559], [-27.2753422, 38.7558221], [-27.2762013, 38.7566046], [-27.2769007, 38.75722], [-27.2771601, 38.7574526], [-27.2773629, 38.7576498], [-27.2775051, 38.7578545], [-27.2775991, 38.7580233], [-27.278006, 38.759341], [-27.278136, 38.759839], [-27.2781066, 38.760322], [-27.2781166, 38.7608318], [-27.2781714, 38.7611339], [-27.2782588, 38.761339], [-27.278344, 38.7614788], [-27.2787354, 38.7620812], [-27.27887, 38.7622624], [-27.2800064, 38.7640015], [-27.2808793, 38.7652981], [-27.2810454, 38.7654871], [-27.2813121, 38.7657329], [-27.2816421, 38.7660316], [-27.282476, 38.7668172], [-27.2838655, 38.7680219], [-27.2842045, 38.7682095], [-27.2845266, 38.7683707], [-27.2852955, 38.7687435], [-27.2855066, 38.7688428], [-27.2858143, 38.7689951], [-27.2861604, 38.7691647], [-27.2864454, 38.769333], [-27.2866702, 38.7695024], [-27.2869905, 38.7697673], [-27.2875481, 38.7702613], [-27.2877828, 38.770463], [-27.2878799, 38.7705429], [-27.2883443, 38.7709444], [-27.2884837, 38.7710832], [-27.2885864, 38.7712217], [-27.2886655, 38.7713568], [-27.2887199, 38.7714813], [-27.2887479, 38.7715685], [-27.2887865, 38.7717296], [-27.2888179, 38.7719121], [-27.2888428, 38.7721541], [-27.2888752, 38.7726258], [-27.2889098, 38.7730658], [-27.2889334, 38.7734192], [-27.2889526, 38.773615], [-27.2889776, 38.7737394], [-27.289031, 38.7739064], [-27.289125, 38.7741412], [-27.2892442, 38.7744316], [-27.28934, 38.7746988], [-27.2893762, 38.7748134], [-27.2893932, 38.774931], [-27.2894003, 38.775053], [-27.2893975, 38.7751984], [-27.2893623, 38.7755123], [-27.2893273, 38.7758481], [-27.2892878, 38.7762771], [-27.2892634, 38.7766899], [-27.2892468, 38.7770996], [-27.2892453, 38.7773679], [-27.2892553, 38.7775285], [-27.2892877, 38.7776987], [-27.2893375, 38.7778137], [-27.2894175, 38.7779243], [-27.2895814, 38.7780883], [-27.2897509, 38.7782605], [-27.2898261, 38.7783579], [-27.2898829, 38.7784685], [-27.2899039, 38.7785897], [-27.2898959, 38.7787066], [-27.2898365, 38.7788567], [-27.2896634, 38.7791163], [-27.2895178, 38.7793151], [-27.2894422, 38.779467], [-27.2893924, 38.7796095], [-27.2893762, 38.7797458], [-27.2893868, 38.7798783], [-27.2894213, 38.7800345], [-27.2895071, 38.7803855], [-27.2896232, 38.7808328], [-27.2896828, 38.7810433], [-27.2899305, 38.7816431], [-27.290017, 38.7817937], [-27.2901205, 38.7819109], [-27.2902568, 38.782032], [-27.2904243, 38.782154], [-27.2907788, 38.7824068], [-27.2911556, 38.7827016], [-27.2912857, 38.7828435], [-27.2913635, 38.7829781], [-27.2914118, 38.7831357], [-27.2914259, 38.7832691], [-27.2914351, 38.7836152], [-27.2914462, 38.783859], [-27.2914604, 38.7839511], [-27.2915139, 38.7840742], [-27.2916009, 38.7842348], [-27.2917289, 38.7844174], [-27.2918606, 38.7846099], [-27.2920267, 38.7848206], [-27.2921843, 38.7850009], [-27.2923195, 38.785157], [-27.2924617, 38.7853127], [-27.2925851, 38.7854386], [-27.2927047, 38.7855356], [-27.2927427, 38.7855573]]}, "properties": {"highway": "primary", "lanes": "1", "maxspeed": "50", "name": "Estrada do Rego", "ref": "EN 3-1", "surface": "asphalt"}}, {"type": "Feature", "geometry": {"type": "LineString", "coordinates": [[-27.2984653, 38.791059], [-27.2984422, 38.7912759]]}, "properties": {"highway": "primary", "lanes": "1", "maxspeed": "50", "oneway": "yes", "ref": "EN 3-1", "surface": "asphalt"}}, {"type": "Feature", "geometry": {"type": "LineString", "coordinates": [[-27.2985814, 38.7912182], [-27.2984653, 38.791059]]}, "properties": {"highway": "primary", "lanes": "1", "maxspeed": "50", "oneway": "yes", "ref": "EN 3-1", "surface": "asphalt"}}, {"type": "Feature", "geometry": {"type": "LineString", "coordinates": [[-27.2928997, 38.7856555], [-27.2930524, 38.7857519], [-27.2931879, 38.7858384], [-27.2933704, 38.7859306], [-27.2935244, 38.785992], [-27.293711, 38.7860518], [-27.2938751, 38.786086], [-27.2940599, 38.7861104], [-27.2942565, 38.7861214], [-27.2944728, 38.7861334], [-27.2947407, 38.7861721], [-27.2950013, 38.7862293], [-27.2952858, 38.7863186], [-27.2955564, 38.7864428], [-27.2957804, 38.7865683], [-27.2960553, 38.7867481], [-27.2964057, 38.7869945], [-27.2965896, 38.7871453], [-27.296851, 38.7874379], [-27.2969352, 38.7875259], [-27.297029, 38.7876157], [-27.2971661, 38.7877119], [-27.2973146, 38.7878134], [-27.2974199, 38.7879124], [-27.2974958, 38.7880088], [-27.2975856, 38.7881605], [-27.2976502, 38.7883254], [-27.2977088, 38.7884691], [-27.2977985, 38.7887784], [-27.2978423, 38.7890095], [-27.2978879, 38.7891307], [-27.2979569, 38.7892602], [-27.2980289, 38.7893526], [-27.2981512, 38.7894772], [-27.2982562, 38.7895969], [-27.2983082, 38.7896822], [-27.2983552, 38.7898171], [-27.2983739, 38.7898941], [-27.298385, 38.7900024], [-27.298421, 38.7902374], [-27.298421, 38.7905019], [-27.2984277, 38.7907893], [-27.2984653, 38.791059]]}, "properties": {"highway": "primary", "lanes": "1", "maxspeed": "50", "name": "Estrada do Rego", "ref": "EN 3-1", "surface": "asphalt"}}, {"type": "Feature", "geometry": {"type": "LineString", "coordinates": [[-27.2927427, 38.7855573], [-27.2928997, 38.7856555]]}, "properties": {"bridge": "yes", "highway": "primary", "lanes": "1", "layer": "1", "maxspeed": "50", "name": "Estrada do Rego", "ref": "EN 3-1", "surface": "asphalt"}}]}