{"type": "FeatureCollection", "features": [{"type": "Feature", "geometry": {"type": "LineString", "coordinates": [[-6.9355073, 41.5853875], [-6.9363339, 41.5869615], [-6.9383308, 41.5907636], [-6.9386068, 41.5912867], [-6.9388965, 41.592065], [-6.9389502, 41.5925946], [-6.9386383, 41.5969285], [-6.9384674, 41.5993022], [-6.9383801, 41.599605], [-6.9383177, 41.5998085], [-6.9382532, 41.5999454], [-6.9380382, 41.6004014], [-6.9377378, 41.6008025], [-6.9372375, 41.6012783], [-6.9349624, 41.603442], [-6.9349069, 41.6034948], [-6.9322124, 41.6060573], [-6.9319335, 41.6064825], [-6.9318369, 41.6068836], [-6.9318369, 41.6072687], [-6.9318768, 41.6076043], [-6.931931, 41.6080595], [-6.9320193, 41.6088009], [-6.9320086, 41.6091298], [-6.9319228, 41.6094747], [-6.9312576, 41.6101887], [-6.9311074, 41.6105015], [-6.9310215, 41.6109186], [-6.9310859, 41.611408], [-6.9310752, 41.6118652], [-6.9310124, 41.6119904], [-6.9309464, 41.6121219], [-6.9305602, 41.612531], [-6.9303564, 41.6129401], [-6.9303778, 41.613285], [-6.9305602, 41.6137181], [-6.9316116, 41.6143919], [-6.931912, 41.6147609], [-6.9320193, 41.6151379], [-6.9314507, 41.6164052], [-6.9313863, 41.6167742], [-6.9314722, 41.6172314], [-6.9317404, 41.6177928], [-6.931794, 41.6183543], [-6.9317645, 41.6190322], [-6.9316867, 41.6208166], [-6.9317189, 41.6214502], [-6.9318584, 41.6218432], [-6.932642, 41.6224782], [-6.9330719, 41.6228266], [-6.9332639, 41.6229821], [-6.9336287, 41.6234151], [-6.9337896, 41.623768], [-6.9337917, 41.6238127], [-6.9338218, 41.6244578], [-6.9339612, 41.6249309], [-6.9341222, 41.6251876], [-6.9344799, 41.6255497], [-6.9346277, 41.6257089], [-6.9347331, 41.6258647], [-6.9348839, 41.6261098], [-6.934913, 41.6262163], [-6.9349912, 41.6265028], [-6.9349161, 41.6277619], [-6.9347766, 41.6282511], [-6.9339183, 41.6297106], [-6.9338511, 41.629973], [-6.9338218, 41.6300875], [-6.9338647, 41.6303522], [-6.9340256, 41.6306328], [-6.9342402, 41.6308012], [-6.9355598, 41.6312984], [-6.9356095, 41.6313211], [-6.9359461, 41.6314748], [-6.9362358, 41.6316753], [-6.9364047, 41.6318898], [-6.9365063, 41.6321549], [-6.9365677, 41.6324541], [-6.9365683, 41.6326035], [-6.9365218, 41.6334024], [-6.9364074, 41.6339366], [-6.9362572, 41.6341612], [-6.9359997, 41.6344017], [-6.935592, 41.6345381], [-6.9345191, 41.6346423], [-6.9341758, 41.6347465], [-6.9339612, 41.634947], [-6.9338754, 41.6352116], [-6.9339076, 41.6355163], [-6.9342509, 41.6362781], [-6.9343582, 41.636687], [-6.9343582, 41.6369677], [-6.9341651, 41.6372243], [-6.9331029, 41.6379379], [-6.9327811, 41.6383228], [-6.9327489, 41.6386114], [-6.9327912, 41.6388327], [-6.9328133, 41.6389482], [-6.933132, 41.6394427], [-6.935077, 41.6424601], [-6.9353667, 41.6427166], [-6.9358281, 41.6430133], [-6.9368795, 41.6434542], [-6.9373516, 41.643783], [-6.9379846, 41.6445526], [-6.938285, 41.6448333], [-6.9392827, 41.6453303], [-6.9395939, 41.6455789], [-6.9397763, 41.6458354], [-6.9401089, 41.646565], [-6.9403127, 41.6468456], [-6.9406024, 41.6469899], [-6.9409672, 41.6470781], [-6.9421795, 41.6472384], [-6.9424907, 41.6474068], [-6.9426516, 41.6476553], [-6.9427052, 41.6480882], [-6.9426857, 41.6482501], [-6.9425229, 41.6496034], [-6.9424729, 41.650291], [-6.9423941, 41.6513751], [-6.9424585, 41.6517279], [-6.9426301, 41.6519684], [-6.9436349, 41.6526107], [-6.9438299, 41.6528158], [-6.9439041, 41.6529394], [-6.944463, 41.6542583], [-6.9453338, 41.6563132], [-6.9454518, 41.656714], [-6.9454587, 41.6574787], [-6.9454598, 41.6575984], [-6.9454733, 41.6590867], [-6.945602, 41.6593913], [-6.9463316, 41.6601527], [-6.9463504, 41.6601991], [-6.9464711, 41.6604974], [-6.9464925, 41.660826], [-6.9463745, 41.6612669], [-6.9460861, 41.6617939], [-6.9458386, 41.6622462], [-6.9457921, 41.6623621], [-6.9457592, 41.6624596], [-6.9457015, 41.662637], [-6.9455837, 41.6630108], [-6.9455349, 41.6631656], [-6.9454237, 41.6634325], [-6.9453016, 41.6636795], [-6.9451066, 41.6638687], [-6.9448035, 41.6640931], [-6.9444844, 41.6643271], [-6.9442717, 41.6645611], [-6.9441536, 41.6648657], [-6.9441966, 41.6652183], [-6.9442748, 41.6653523], [-6.9443789, 41.6655309], [-6.9447652, 41.6659076], [-6.9449476, 41.6661721], [-6.9450227, 41.6664206], [-6.9450334, 41.667727], [-6.9449583, 41.6679834], [-6.9445291, 41.6683361], [-6.9438878, 41.6686345], [-6.9437368, 41.6688158], [-6.9436725, 41.6690057], [-6.9436745, 41.6692443], [-6.943717, 41.6694267], [-6.9439056, 41.6698957], [-6.9444441, 41.671094], [-6.94456, 41.6713736]]}, "properties": {"highway": "primary", "ref": "EN 316"}}, {"type": "Feature", "geometry": {"type": "LineString", "coordinates": [[-6.9947212, 41.8110301], [-6.9947189, 41.8110837], [-6.9947155, 41.8111597], [-6.9947357, 41.8112672], [-6.9947849, 41.8113363], [-6.9948599, 41.8113944], [-6.9949988, 41.8114555], [-6.9951445, 41.8114781], [-6.9956395, 41.8114828], [-6.9957758, 41.8115113], [-6.9959103, 41.8115631], [-6.9959732, 41.8116259], [-6.9959955, 41.8116996], [-6.9959846, 41.8118113], [-6.9959567, 41.8118619], [-6.9959227, 41.8119236], [-6.9959144, 41.8120332], [-6.995928, 41.8120907], [-6.995973, 41.8121632], [-6.9960705, 41.8122271], [-6.9974711, 41.8124655], [-6.9976408, 41.8125226], [-6.9977666, 41.8126088], [-6.9978836, 41.8128189], [-6.9978832, 41.8130435], [-6.997912, 41.8131863], [-6.9979632, 41.8132697], [-6.9980058, 41.8133078], [-6.9980875, 41.8133386], [-6.998226, 41.8133771], [-6.998305, 41.8133764], [-6.9983962, 41.8133539], [-6.9986247, 41.8132103], [-6.9987218, 41.813153], [-6.9988119, 41.8131226], [-6.9989458, 41.8131067], [-6.999057, 41.8131376], [-6.9991389, 41.8131867], [-6.9992277, 41.8132896], [-6.9992604, 41.8133888], [-6.9992401, 41.8135385], [-6.9989784, 41.8140263], [-6.9989509, 41.8141539], [-6.9989673, 41.8142742], [-6.9990134, 41.8143956], [-6.9991668, 41.8146696], [-6.9992153, 41.8147692], [-6.9992248, 41.8148579], [-6.9992009, 41.8149724], [-6.9989136, 41.8154576], [-6.9988517, 41.8156514], [-6.9988385, 41.8158415], [-6.9988765, 41.8168232], [-6.9988644, 41.8169774], [-6.9988278, 41.8171208], [-6.9987561, 41.8172938], [-6.9982002, 41.8180435], [-6.9980274, 41.8183218], [-6.9979186, 41.8186121], [-6.997852, 41.8189085], [-6.9977749, 41.8192517], [-6.9977617, 41.8193964], [-6.9978875, 41.8200662], [-6.9978796, 41.8202687], [-6.997828, 41.8206206], [-6.9978495, 41.8208199], [-6.9980576, 41.8218718], [-6.998149, 41.8223194], [-6.9981347, 41.8224163], [-6.9981009, 41.8225133], [-6.9979431, 41.822828], [-6.9979282, 41.8228663], [-6.9979279, 41.8229082], [-6.997948, 41.8229656]]}, "properties": {"highway": "primary", "ref": "EN 316", "source": "Bing"}}, {"type": "Feature", "geometry": {"type": "LineString", "coordinates": [[-6.9947372, 41.81032], [-6.9947212, 41.8110301]]}, "properties": {"alt_name": "Ponte de Arranca", "bridge": "yes", "highway": "primary", "layer": "1", "name": "Ponte da Ranca", "ref": "EN 316", "source": "Bing"}}, {"type": "Feature", "geometry": {"type": "LineString", "coordinates": [[-7.0375818, 41.9138749], [-7.0374111, 41.9139031], [-7.0362317, 41.9138956], [-7.0352841, 41.9138783], [-7.0350575, 41.9138864], [-7.0348538, 41.9139116], [-7.0346841, 41.9139647], [-7.0345532, 41.9140346], [-7.0344258, 41.9141178], [-7.0340612, 41.9143586], [-7.0338522, 41.9145298], [-7.0337636, 41.9146392], [-7.033705, 41.9147498], [-7.0336262, 41.9151144], [-7.0335687, 41.9154431], [-7.0335142, 41.915584], [-7.0334244, 41.9156946], [-7.0333277, 41.915783], [-7.0332046, 41.9158516], [-7.0328012, 41.9160943], [-7.0320773, 41.916483], [-7.0313181, 41.9168282], [-7.0308864, 41.9170364], [-7.0306511, 41.9171668], [-7.0304334, 41.9173025], [-7.0302253, 41.9174443], [-7.0300619, 41.9175428], [-7.0299156, 41.9176119], [-7.029748, 41.9176625], [-7.0285534, 41.917874], [-7.0282556, 41.9179156], [-7.0280038, 41.9179274], [-7.0270371, 41.9178957], [-7.0266207, 41.9179045], [-7.0262379, 41.9179501], [-7.0257971, 41.9180315], [-7.0255679, 41.9180932], [-7.0253599, 41.9181655], [-7.0249178, 41.9183487], [-7.0247165, 41.9184529], [-7.0243514, 41.9186604], [-7.0241505, 41.9187561], [-7.0239969, 41.9187973], [-7.0238257, 41.9188201], [-7.0229963, 41.9188306], [-7.0222978, 41.9188306], [-7.0222095, 41.9188293], [-7.0220233, 41.9188121], [-7.0218392, 41.9187786], [-7.0216462, 41.9187175], [-7.0214647, 41.9186197], [-7.0213044, 41.9185087], [-7.0209791, 41.9182253], [-7.0208431, 41.9181255], [-7.0207191, 41.9180656], [-7.0204925, 41.9180215], [-7.0201457, 41.918031], [-7.019738, 41.9180797], [-7.0193321, 41.9181324], [-7.0191765, 41.9181436], [-7.019021, 41.9181442], [-7.0185149, 41.9181135], [-7.0181234, 41.9180904], [-7.0177532, 41.918095], [-7.0172936, 41.9181343], [-7.0169649, 41.9181906], [-7.0168161, 41.9182459], [-7.016715, 41.9183235], [-7.0166408, 41.9184279], [-7.0166179, 41.9185561], [-7.0166207, 41.918642], [-7.0166588, 41.9188121], [-7.0167659, 41.9192093], [-7.0167532, 41.9193503], [-7.0166503, 41.9195453], [-7.0164553, 41.9197449], [-7.0161741, 41.9198703], [-7.0155109, 41.9199856], [-7.0151974, 41.9200508], [-7.0151017, 41.9201032], [-7.0150237, 41.9201687], [-7.0149723, 41.9202422], [-7.0149422, 41.9203209], [-7.0149478, 41.920454], [-7.0149959, 41.9205844], [-7.0151212, 41.9207254], [-7.0152641, 41.9208638], [-7.0157919, 41.9213584], [-7.0158542, 41.9214146], [-7.0160044, 41.9216541], [-7.0160795, 41.9219494], [-7.0160689, 41.922154], [-7.0160688, 41.9228675], [-7.01594, 41.9231389], [-7.0157254, 41.9234023], [-7.0152426, 41.9236578], [-7.0116807, 41.9252543], [-7.0113052, 41.9253421], [-7.0108975, 41.925374], [-7.01064, 41.9253181], [-7.0105499, 41.9252788], [-7.0103288, 41.9251824], [-7.0097445, 41.9247205], [-7.0094705, 41.9245039], [-7.0091594, 41.9242964], [-7.0088375, 41.9241846], [-7.008462, 41.9240808], [-7.0082593, 41.9240502], [-7.0080436, 41.9240569], [-7.0076037, 41.9241128], [-7.0070351, 41.9242884], [-7.0064986, 41.9245199], [-7.0016706, 41.927296], [-7.0015279, 41.9273782], [-7.000115, 41.9281917], [-6.9995785, 41.9283833], [-6.9991279, 41.9284711], [-6.9968749, 41.9288702], [-6.9967203, 41.9289154], [-6.9965803, 41.9289823], [-6.9964028, 41.9291017], [-6.9962826, 41.9292214], [-6.9961575, 41.9293847], [-6.9960199, 41.9295999], [-6.9956499, 41.9301589], [-6.9954381, 41.9304637], [-6.9953426, 41.9305783], [-6.9951714, 41.9307002], [-6.9949815, 41.9307833], [-6.9947622, 41.9308664], [-6.9922216, 41.9316582], [-6.9919296, 41.9317914], [-6.9917434, 41.9319156], [-6.9916834, 41.9319712], [-6.9915848, 41.9320908], [-6.9914671, 41.9322838], [-6.9913734, 41.9324948], [-6.9913313, 41.9326977], [-6.9913181, 41.9329864], [-6.9913281, 41.9356705], [-6.9914461, 41.9360695], [-6.9916607, 41.9364606], [-6.9919825, 41.9368357], [-6.9925404, 41.9371629], [-6.9934846, 41.9377812], [-6.9941927, 41.9382244], [-6.9943616, 41.9383686], [-6.9943909, 41.9383996], [-6.9947052, 41.9387329], [-6.9948088, 41.9389212], [-6.9957577, 41.9410146], [-6.9968003, 41.9433462], [-6.9968257, 41.943403]]}, "properties": {"highway": "primary", "ref": "EN 316", "source": "Bing"}}, {"type": "Feature", "geometry": {"type": "LineString", "coordinates": [[-6.94456, 41.6713736], [-6.9446029, 41.6715601], [-6.9447115, 41.6720146], [-6.9446364, 41.6723512], [-6.9444648, 41.6725596], [-6.9440893, 41.6727599], [-6.9435853, 41.6728749], [-6.9431015, 41.6729107], [-6.9427596, 41.6729224], [-6.9403234, 41.6729122], [-6.9397977, 41.6729763], [-6.9395617, 41.6730805], [-6.9394973, 41.6732648], [-6.939551, 41.6734651], [-6.9412354, 41.6747554], [-6.9414392, 41.6750038], [-6.9415358, 41.6752282], [-6.9414822, 41.6754285], [-6.9412783, 41.6755888], [-6.9402913, 41.6761177], [-6.9398299, 41.67631], [-6.9393149, 41.6764062], [-6.9373301, 41.6765264], [-6.9367722, 41.6766706], [-6.9343046, 41.6778726], [-6.9338325, 41.6781371], [-6.9335214, 41.6784255], [-6.9334248, 41.6786579], [-6.9335106, 41.6788903], [-6.9336608, 41.6790425], [-6.9340578, 41.6792349], [-6.9345299, 41.6793951], [-6.9364503, 41.6796515], [-6.9368795, 41.6798358], [-6.9371263, 41.6801003], [-6.937255, 41.6803166], [-6.9372657, 41.6806211], [-6.9367293, 41.6819112], [-6.9365469, 41.6821356], [-6.9362036, 41.682392], [-6.935871, 41.6825442], [-6.9345191, 41.6829208], [-6.9341544, 41.6831131], [-6.9338325, 41.6834016], [-6.933457, 41.6838663], [-6.9331029, 41.6840826], [-6.9315258, 41.6844752], [-6.9310215, 41.6845474], [-6.929498, 41.6845874], [-6.9290904, 41.6846515], [-6.9288865, 41.6848118], [-6.9286934, 41.6851002], [-6.9287041, 41.6853005], [-6.9288543, 41.6854928], [-6.929144, 41.6856531], [-6.9294444, 41.6857332], [-6.9320193, 41.6857252], [-6.9325129, 41.6857572], [-6.9327811, 41.6858534], [-6.9329742, 41.6860216], [-6.93306, 41.686246], [-6.9331459, 41.6874478], [-6.9335513, 41.6887274], [-6.933811, 41.689547], [-6.9336179, 41.6898915], [-6.933339, 41.6901639], [-6.9324592, 41.6906606], [-6.9322554, 41.690973], [-6.9320944, 41.6920146], [-6.9320537, 41.6921089], [-6.9319871, 41.6922629], [-6.931794, 41.6925273], [-6.9309679, 41.6932403], [-6.9306782, 41.6936168], [-6.9294766, 41.6957558], [-6.9289584, 41.6971745], [-6.9288969, 41.6973429], [-6.9285432, 41.6983113], [-6.928275, 41.6987599], [-6.9271162, 41.7000817], [-6.926215, 41.7012432], [-6.9260541, 41.7015877], [-6.9257644, 41.7027652], [-6.9255284, 41.7030535], [-6.9250885, 41.703422], [-6.9245628, 41.7040548], [-6.9244984, 41.7043191], [-6.9246593, 41.7048638], [-6.9247711, 41.7050509], [-6.9247851, 41.7050743], [-6.9248854, 41.705253]]}, "properties": {"highway": "primary", "maxspeed": "90", "oneway": "no", "ref": "EN 316"}}, {"type": "Feature", "geometry": {"type": "LineString", "coordinates": [[-7.0014237, 41.832573], [-7.0017245, 41.8328849], [-7.0017807, 41.8329395], [-7.0018395, 41.8329741], [-7.001917, 41.8329973], [-7.0020022, 41.8330038], [-7.0021175, 41.8330029], [-7.0022234, 41.8329851], [-7.0034812, 41.8325848], [-7.0036076, 41.8325518]]}, "properties": {"highway": "primary", "name": "Avenida do Assador", "ref": "EN 316", "source": "Bing"}}, {"type": "Feature", "geometry": {"type": "LineString", "coordinates": [[-7.0040526, 41.832569], [-7.0040914, 41.8325678], [-7.0041281, 41.8325583], [-7.0041595, 41.8325413], [-7.004183, 41.8325182], [-7.0041966, 41.8324911], [-7.0041977, 41.8324737], [-7.0041986, 41.8324591], [-7.0041868, 41.8324282], [-7.0041624, 41.8324018], [-7.0041279, 41.8323825], [-7.004087, 41.8323725], [-7.0040439, 41.8323728], [-7.0040032, 41.8323833], [-7.0039809, 41.8323946], [-7.0039518, 41.8324203], [-7.0039359, 41.8324518], [-7.003935, 41.8324853], [-7.0039493, 41.8325172], [-7.003977, 41.8325437], [-7.004015, 41.8325618], [-7.0040526, 41.832569]]}, "properties": {"highway": "primary", "junction": "roundabout", "name": "Rotunda do Assador", "ref": "EN 316", "source": "Bing"}}, {"type": "Feature", "geometry": {"type": "LineString", "coordinates": [[-7.001167, 41.8325188], [-7.0012248, 41.8325184], [-7.0012535, 41.8325106], [-7.0012791, 41.8325038], [-7.001324, 41.8324766], [-7.0013553, 41.8324385], [-7.0013613, 41.8324163], [-7.0013672, 41.8323946], [-7.0013582, 41.8323504], [-7.0013296, 41.8323111], [-7.0012847, 41.8322814], [-7.0012289, 41.832265], [-7.0011689, 41.8322637], [-7.0011178, 41.8322755], [-7.001074, 41.8322983], [-7.0010416, 41.83233], [-7.0010238, 41.8323675], [-7.0010221, 41.8324074], [-7.0010369, 41.8324456], [-7.0010666, 41.8324788], [-7.0011122, 41.8325051], [-7.001167, 41.8325188]]}, "properties": {"highway": "primary", "junction": "roundabout", "ref": "EN 316", "source": "Bing"}}, {"type": "Feature", "geometry": {"type": "LineString", "coordinates": [[-6.9211302, 41.7555866], [-6.9210354, 41.7555885], [-6.9209201, 41.7555725], [-6.920772, 41.7555289], [-6.9206733, 41.755463], [-6.9205584, 41.7553731], [-6.9204534, 41.7552684]]}, "properties": {"highway": "primary", "oneway": "yes", "ref": "EN 316"}}, {"type": "Feature", "geometry": {"type": "LineString", "coordinates": [[-6.9212232, 41.7561208], [-6.9213304, 41.7562328], [-6.9214819, 41.7563944]]}, "properties": {"highway": "primary", "ref": "EN 316"}}, {"type": "Feature", "geometry": {"type": "LineString", "coordinates": [[-6.9210818, 41.7559007], [-6.9210354, 41.7558507], [-6.9209576, 41.7557826], [-6.9208611, 41.7557224]]}, "properties": {"highway": "primary", "oneway": "yes", "ref": "EN 316"}}, {"type": "Feature", "geometry": {"type": "LineString", "coordinates": [[-6.9208611, 41.7557224], [-6.920882, 41.755823], [-6.9209227, 41.7558727], [-6.9209926, 41.7559472]]}, "properties": {"highway": "primary", "oneway": "yes", "ref": "EN 316"}}, {"type": "Feature", "geometry": {"type": "LineString", "coordinates": [[-6.9214819, 41.7563944], [-6.9218377, 41.7567794], [-6.9227174, 41.7577798], [-6.9229427, 41.7581639], [-6.9230822, 41.7585721], [-6.9228033, 41.7613412], [-6.9229427, 41.7617733], [-6.9231895, 41.7621175], [-6.9237045, 41.7625256], [-6.9264081, 41.7636536], [-6.9269446, 41.7637096], [-6.9276098, 41.7635656], [-6.9286076, 41.7631414], [-6.9291869, 41.7629497], [-6.9297877, 41.7629177], [-6.9304851, 41.7630218], [-6.9325665, 41.7640697], [-6.9330922, 41.7644538], [-6.9333497, 41.7647579], [-6.9354955, 41.7691992], [-6.9361392, 41.7722238], [-6.9366756, 41.7751203], [-6.9369224, 41.7758244], [-6.9371008, 41.7761403], [-6.9371799, 41.7762805], [-6.9374052, 41.7765605], [-6.9390253, 41.7780167], [-6.9391969, 41.7782967], [-6.9391969, 41.7794728], [-6.9392827, 41.7799129], [-6.9395295, 41.7803529], [-6.9417075, 41.783601], [-6.9421715, 41.784129], [-6.9427269, 41.7846194], [-6.9430271, 41.784801], [-6.9432551, 41.784893], [-6.9435112, 41.784937], [-6.9437727, 41.784949], [-6.9440034, 41.784937], [-6.9444111, 41.784809], [-6.9454518, 41.784337], [-6.9457844, 41.784329], [-6.9460053, 41.7844249], [-6.9461009, 41.7844858], [-6.946238, 41.7845668], [-6.9463638, 41.784681], [-6.9464087, 41.7847466], [-6.9466213, 41.785057], [-6.9470933, 41.785961], [-6.9484344, 41.787353], [-6.9488679, 41.7876458], [-6.9493593, 41.7878857], [-6.9504515, 41.7883849], [-6.9505321, 41.7884201], [-6.9510737, 41.7886569], [-6.9515114, 41.7887545], [-6.9525114, 41.7888841], [-6.9531143, 41.7889561], [-6.9534576, 41.7889729], [-6.9537913, 41.7889657], [-6.9545242, 41.7888585], [-6.9554758, 41.7885953], [-6.9559339, 41.7884969], [-6.9561506, 41.7885033], [-6.9563416, 41.7885289], [-6.9586042, 41.7889666], [-6.9606009, 41.7893529], [-6.9622926, 41.789916], [-6.963605, 41.7903528], [-6.9639054, 41.7904168], [-6.9659439, 41.7902488], [-6.9661799, 41.7901608], [-6.967285, 41.7893129], [-6.9676712, 41.7889049], [-6.968036, 41.7881529], [-6.9675532, 41.786465], [-6.967564, 41.786113], [-6.9677463, 41.785873], [-6.9679824, 41.785769], [-6.9681091, 41.7857587], [-6.9684759, 41.785729], [-6.9691626, 41.785753], [-6.9696239, 41.786009], [-6.9708899, 41.7883609], [-6.9710616, 41.7885769], [-6.9712869, 41.7887369], [-6.9716731, 41.7888889], [-6.9732824, 41.7894169], [-6.9749423, 41.7904365], [-6.9749883, 41.7904648], [-6.9754711, 41.7908967], [-6.976064, 41.7915675], [-6.9765225, 41.7920086], [-6.9768082, 41.7922344], [-6.9769024, 41.792284], [-6.9771891, 41.792435], [-6.9772291, 41.7924506], [-6.9772679, 41.792491], [-6.9772955, 41.7925481], [-6.977289, 41.7926205], [-6.9773237, 41.7927547], [-6.9773976, 41.7928805], [-6.9785032, 41.7945488], [-6.9786781, 41.7947801], [-6.9788609, 41.7948941], [-6.979007, 41.7949684], [-6.979143, 41.7950139], [-6.9792903, 41.7950322], [-6.9800094, 41.7952162], [-6.9812325, 41.7958321], [-6.9815318, 41.7960347], [-6.9819176, 41.7962959], [-6.9820768, 41.7964037], [-6.9823945, 41.7965493], [-6.9833032, 41.7967119], [-6.9835239, 41.7967884], [-6.9836885, 41.79689], [-6.9840047, 41.7972381], [-6.9840786, 41.7972795], [-6.9842086, 41.7973104], [-6.9843682, 41.7973028], [-6.9846623, 41.7972513], [-6.9848416, 41.7972569], [-6.9851471, 41.7972812], [-6.9856229, 41.7973546], [-6.9858472, 41.7974259], [-6.9860715, 41.7975289], [-6.9867042, 41.797857], [-6.9871117, 41.7981689], [-6.9876805, 41.7986395], [-6.9885388, 41.7990154], [-6.9890324, 41.7996633], [-6.9895044, 41.8000072], [-6.9899336, 41.8004311], [-6.9900516, 41.800695], [-6.9901482, 41.8012149], [-6.9903413, 41.8013349], [-6.990985, 41.8015188], [-6.9911639, 41.8015396], [-6.9913283, 41.8015588], [-6.9915644, 41.8015348], [-6.9916186, 41.801501], [-6.9925101, 41.8009458], [-6.9927982, 41.800927], [-6.9930664, 41.8010469], [-6.9933239, 41.8012869], [-6.9940964, 41.8021986], [-6.9942037, 41.8024226], [-6.9942358, 41.8029424], [-6.9941929, 41.8032224], [-6.9940213, 41.8035263], [-6.9939676, 41.8038142], [-6.99415, 41.804286], [-6.9946518, 41.80481], [-6.9962636, 41.8064933], [-6.9964138, 41.8068132], [-6.9964398, 41.8069598], [-6.9964889, 41.8072371], [-6.9966498, 41.807485], [-6.9977227, 41.8087005], [-6.9977442, 41.8089005], [-6.9976154, 41.8090524], [-6.9972399, 41.8092043], [-6.9963602, 41.8094123], [-6.9958023, 41.8096602], [-6.9954375, 41.809996], [-6.994901, 41.810172], [-6.9948251, 41.81021], [-6.9947788, 41.8102536], [-6.9947492, 41.8102815], [-6.9947372, 41.81032]]}, "properties": {"highway": "primary", "ref": "EN 316", "source": "Bing"}}, {"type": "Feature", "geometry": {"type": "LineString", "coordinates": [[-6.9204534, 41.7552684], [-6.9204376, 41.7552414], [-6.9203729, 41.7551303], [-6.9203032, 41.7549883], [-6.9202423, 41.7548151]]}, "properties": {"highway": "primary", "ref": "EN 316"}}, {"type": "Feature", "geometry": {"type": "LineString", "coordinates": [[-6.9204534, 41.7552684], [-6.9205, 41.7553712], [-6.9205716, 41.7554826], [-6.9206298, 41.7555729], [-6.9206438, 41.7556586], [-6.9206331, 41.7557586], [-6.9205892, 41.7558535]]}, "properties": {"highway": "primary", "oneway": "yes", "ref": "EN 316"}}, {"type": "Feature", "geometry": {"type": "LineString", "coordinates": [[-6.9205892, 41.7558535], [-6.9207161, 41.7558613], [-6.9208444, 41.7558853], [-6.9209926, 41.7559472], [-6.9210902, 41.7560178], [-6.9212232, 41.7561208]]}, "properties": {"highway": "primary", "oneway": "yes", "ref": "EN 316"}}, {"type": "Feature", "geometry": {"type": "LineString", "coordinates": [[-6.9212232, 41.7561208], [-6.9211273, 41.755983], [-6.9210818, 41.7559007], [-6.9210644, 41.755793], [-6.9210763, 41.7556973], [-6.9211302, 41.7555866]]}, "properties": {"highway": "primary", "oneway": "yes", "ref": "EN 316"}}, {"type": "Feature", "geometry": {"type": "LineString", "coordinates": [[-6.9208611, 41.7557224], [-6.9208444, 41.755659], [-6.9208042, 41.7555889], [-6.920772, 41.7555289]]}, "properties": {"highway": "primary", "oneway": "yes", "ref": "EN 316"}}, {"type": "Feature", "geometry": {"type": "LineString", "coordinates": [[-6.9206298, 41.7555729], [-6.9207108, 41.7556466], [-6.9207645, 41.7556906], [-6.9208611, 41.7557224]]}, "properties": {"highway": "primary", "oneway": "yes", "ref": "EN 316"}}, {"type": "Feature", "geometry": {"type": "LineString", "coordinates": [[-7.0095157, 41.8397855], [-7.0095203, 41.839812], [-7.0095357, 41.8398361], [-7.0095604, 41.8398555], [-7.009572, 41.8398613], [-7.0095993, 41.8398699], [-7.0096287, 41.839873], [-7.0096582, 41.8398703], [-7.0096857, 41.8398621], [-7.0097094, 41.8398488], [-7.0097291, 41.8398298], [-7.0097408, 41.8398074], [-7.0097437, 41.8397835], [-7.0097374, 41.8397599], [-7.0097225, 41.8397386], [-7.0096984, 41.8397201], [-7.0096679, 41.8397079], [-7.0096339, 41.8397031], [-7.0095995, 41.8397061], [-7.0095679, 41.8397166], [-7.009542, 41.8397337], [-7.0095224, 41.8397592], [-7.0095157, 41.8397855]]}, "properties": {"highway": "primary", "junction": "roundabout", "ref": "EN 316"}}, {"type": "Feature", "geometry": {"type": "LineString", "coordinates": [[-7.009594, 41.840016], [-7.0095842, 41.8401529], [-7.0094938, 41.8409204], [-7.0095416, 41.8411972], [-7.0096315, 41.841408], [-7.0096773, 41.8415208], [-7.0097807, 41.8416667], [-7.0098447, 41.8417381], [-7.0098693, 41.8417648], [-7.009963, 41.8418469], [-7.0100767, 41.8419227], [-7.0102537, 41.8420714], [-7.0102913, 41.8421208], [-7.0103593, 41.8422102], [-7.0104576, 41.8424151], [-7.0105672, 41.8427545], [-7.0107176, 41.8432201], [-7.0108009, 41.8434781], [-7.0108826, 41.8436302], [-7.0110799, 41.8439977], [-7.011509, 41.8445571], [-7.0116089, 41.8447192], [-7.0117021, 41.8449248], [-7.0118714, 41.8460743], [-7.0118846, 41.8461642], [-7.0119489, 41.8463794], [-7.0123995, 41.8469389], [-7.0126664, 41.8473999], [-7.012889, 41.8479572], [-7.0129181, 41.8481337], [-7.0129681, 41.8494164], [-7.0130125, 41.849548], [-7.0130569, 41.8496576], [-7.0134509, 41.8500398], [-7.0138157, 41.8502715], [-7.0141548, 41.8504371], [-7.0148708, 41.8507604], [-7.0151246, 41.8509109], [-7.0156814, 41.8513257], [-7.0158102, 41.8514216], [-7.0165408, 41.8519658], [-7.0170344, 41.8524053], [-7.0176888, 41.8533403], [-7.0178605, 41.8540436], [-7.0179785, 41.8542833], [-7.018122, 41.8544551], [-7.0188261, 41.8552982], [-7.0189334, 41.8555939], [-7.0188904, 41.8558656], [-7.0189655, 41.8562012], [-7.0198024, 41.8578393], [-7.0201135, 41.8587902], [-7.0201994, 41.8592217], [-7.0203388, 41.8593895], [-7.0208967, 41.8595733], [-7.021122, 41.8597411], [-7.0216048, 41.8604283], [-7.021637, 41.8607], [-7.0214224, 41.8610835], [-7.0213795, 41.8614111], [-7.0217443, 41.8622022], [-7.0219482, 41.8634327], [-7.0220769, 41.8637603], [-7.0220769, 41.8640799], [-7.0218516, 41.8653903], [-7.0216692, 41.8658457], [-7.0216156, 41.8661733], [-7.0233451, 41.8686789], [-7.0235468, 41.8687216], [-7.0239008, 41.8686656], [-7.0241154, 41.8687375], [-7.0242334, 41.8688893], [-7.0243085, 41.8690811], [-7.0242441, 41.8696963], [-7.0238364, 41.8705991], [-7.023697, 41.8708068], [-7.0232142, 41.8711903], [-7.0231391, 41.871414], [-7.0235253, 41.872141], [-7.0235897, 41.8726283], [-7.0238472, 41.873555], [-7.0238257, 41.8739784], [-7.0233322, 41.8755522], [-7.0233644, 41.8757759], [-7.0235897, 41.8758957], [-7.0250273, 41.876391], [-7.025112, 41.8764106], [-7.0263041, 41.8766866], [-7.0263526, 41.8766866], [-7.0265937, 41.8766866], [-7.0267654, 41.8765828], [-7.0270122, 41.8758878], [-7.027334, 41.8755522], [-7.0278061, 41.8753006], [-7.0281827, 41.87514], [-7.0283125, 41.8751073], [-7.0284713, 41.8751033], [-7.0287116, 41.8751647], [-7.0287612, 41.8751844], [-7.0288946, 41.8752248], [-7.0295549, 41.8754244], [-7.0301772, 41.8757999], [-7.0304767, 41.8760067], [-7.0307323, 41.8762099], [-7.0308507, 41.8763667], [-7.0309114, 41.8764961], [-7.0309808, 41.8768749], [-7.0310404, 41.8770014], [-7.0311398, 41.8771363], [-7.0313871, 41.8773835], [-7.0315107, 41.8775434], [-7.0316148, 41.8777251], [-7.0317323, 41.8781372], [-7.0318179, 41.8783415], [-7.0319474, 41.8785639], [-7.0321937, 41.8790109], [-7.0324448, 41.8794742], [-7.0329452, 41.8802893], [-7.0336748, 41.881184], [-7.0349915, 41.8823153], [-7.0350507, 41.8823775], [-7.0352197, 41.8825553], [-7.0357991, 41.8833726], [-7.0358286, 41.8834761], [-7.0358191, 41.8835796], [-7.0357806, 41.883714], [-7.0354655, 41.884451], [-7.0345886, 41.8857783], [-7.0343185, 41.8866954], [-7.0342541, 41.8872306], [-7.0338357, 41.8881251], [-7.0337284, 41.8888599], [-7.0335353, 41.8895229], [-7.0331857, 41.890038], [-7.0329694, 41.8902593], [-7.0329417, 41.8903082], [-7.032936, 41.8903589], [-7.0329577, 41.8904584], [-7.0329867, 41.8905307], [-7.0331142, 41.8906076], [-7.0332564, 41.890641], [-7.0336533, 41.8906091], [-7.0340717, 41.8905052], [-7.0343292, 41.8905372], [-7.0346404, 41.890657], [-7.035091, 41.8911601], [-7.0361746, 41.8914716], [-7.0364965, 41.8917911], [-7.0367218, 41.8921984], [-7.0368291, 41.8935881], [-7.0368934, 41.8937638], [-7.0371402, 41.8939235], [-7.0374728, 41.8938756], [-7.0376766, 41.8937238], [-7.038256, 41.8934523], [-7.0385671, 41.8935242], [-7.0391572, 41.8940113], [-7.0394431, 41.8943693], [-7.0394931, 41.8944653], [-7.0395191, 41.8945846], [-7.0395323, 41.8947678], [-7.0395407, 41.8949426], [-7.0395072, 41.8950615], [-7.0394547, 41.8951536], [-7.0392802, 41.8954085], [-7.0390888, 41.8956381], [-7.0390099, 41.8957658], [-7.0387627, 41.8961086], [-7.0386208, 41.8964631], [-7.0385226, 41.8966658], [-7.0384923, 41.8968495], [-7.0384956, 41.8971328], [-7.0385209, 41.8974534], [-7.0385364, 41.8978649], [-7.0385349, 41.8978846], [-7.0384626, 41.898061], [-7.0384136, 41.8981805], [-7.0383172, 41.8983558], [-7.0382691, 41.8984203], [-7.0382146, 41.8984705], [-7.0381565, 41.898515], [-7.0380919, 41.8985546], [-7.0379831, 41.8985992], [-7.037115, 41.898797], [-7.0370544, 41.898811], [-7.0369455, 41.8988618], [-7.0368472, 41.8989415], [-7.0367986, 41.8991088], [-7.0367969, 41.8991703], [-7.036826, 41.8993177], [-7.0368937, 41.8998597], [-7.0369201, 41.8999558], [-7.0369419, 41.9000353], [-7.0370007, 41.9001845], [-7.0371945, 41.9004766], [-7.0372327, 41.9005551], [-7.0372831, 41.9007066], [-7.0372988, 41.9008253], [-7.0372952, 41.9008974], [-7.0372477, 41.9010605], [-7.0371654, 41.901216], [-7.0368937, 41.9014585], [-7.0358205, 41.9023406], [-7.0356791, 41.9024138], [-7.035513, 41.9024711], [-7.0350325, 41.9025152], [-7.0348784, 41.9025595], [-7.0342093, 41.9028291], [-7.034058, 41.9029249], [-7.0319796, 41.9044486], [-7.0317794, 41.9045656], [-7.0315827, 41.9046642], [-7.0314589, 41.9047052], [-7.0305741, 41.9049517], [-7.0304127, 41.9050386], [-7.0303125, 41.905115], [-7.0302566, 41.905198], [-7.0302422, 41.9052748], [-7.0302949, 41.9054188], [-7.0303756, 41.9055535], [-7.0304179, 41.9055922], [-7.0305121, 41.9056385], [-7.0306063, 41.9056624], [-7.0310057, 41.9056513], [-7.0319766, 41.9056007], [-7.0329542, 41.9054393], [-7.033192, 41.9054148], [-7.0333773, 41.9054039], [-7.0335519, 41.9054219], [-7.0336887, 41.9054776], [-7.0337865, 41.9055438], [-7.0338807, 41.905627], [-7.033943, 41.9057182], [-7.0339733, 41.9058832], [-7.0339504, 41.9060469], [-7.0339021, 41.9061955], [-7.0338325, 41.9063467], [-7.0336768, 41.9065487], [-7.0335105, 41.9067032], [-7.0328988, 41.9070918], [-7.0328317, 41.9071976], [-7.0328246, 41.907314], [-7.0328782, 41.9074077], [-7.0329404, 41.9074572], [-7.0330309, 41.9074883], [-7.0331293, 41.9074969], [-7.0332277, 41.9074976], [-7.0336505, 41.9074521], [-7.0338757, 41.9074641], [-7.0339901, 41.907486], [-7.0340851, 41.9075315], [-7.0341719, 41.9076269], [-7.0342057, 41.907721], [-7.0342567, 41.9081289], [-7.034303, 41.9082167], [-7.0343863, 41.9083119], [-7.0345651, 41.908556], [-7.0346311, 41.9086995], [-7.0346393, 41.9088779], [-7.0346227, 41.909051], [-7.0345365, 41.9092678], [-7.0344025, 41.9094557], [-7.0342379, 41.9096134], [-7.0341202, 41.9097133], [-7.0340379, 41.9098159], [-7.0339985, 41.9099359], [-7.0339875, 41.9100532], [-7.0340036, 41.910211], [-7.0340533, 41.9103701], [-7.0343214, 41.9108712], [-7.0343908, 41.9109363], [-7.0345084, 41.9109966], [-7.0346314, 41.9110201], [-7.0347496, 41.9110095], [-7.0348431, 41.91097], [-7.0352116, 41.9107127], [-7.0354829, 41.9105593], [-7.0362638, 41.9101729], [-7.0363673, 41.9101327], [-7.0364743, 41.9101084], [-7.0365618, 41.9100992], [-7.0366493, 41.9101032], [-7.0369042, 41.9101657], [-7.0378203, 41.9104068], [-7.0379861, 41.910502], [-7.0380548, 41.9105641], [-7.0381058, 41.9106288], [-7.0381602, 41.9107193], [-7.0381935, 41.910815], [-7.0385337, 41.9120435], [-7.0385985, 41.9122482], [-7.0386052, 41.9124207], [-7.0385959, 41.9126329], [-7.0385625, 41.9128335], [-7.0385335, 41.91294], [-7.0385081, 41.913016], [-7.0384116, 41.9131307], [-7.0380307, 41.9135669], [-7.0378761, 41.9137242], [-7.0377281, 41.9138134], [-7.0375818, 41.9138749]]}, "properties": {"highway": "primary", "ref": "EN 316", "source": "Bing"}}, {"type": "Feature", "geometry": {"type": "LineString", "coordinates": [[-7.0097225, 41.8397386], [-7.0096923, 41.8396429], [-7.0096801, 41.8395599], [-7.0096621, 41.8394463]]}, "properties": {"highway": "primary", "oneway": "yes", "ref": "EN 316", "source": "Bing"}}, {"type": "Feature", "geometry": {"type": "LineString", "coordinates": [[-7.009594, 41.840016], [-7.0096761, 41.8399026], [-7.0097094, 41.8398488]]}, "properties": {"highway": "primary", "oneway": "yes", "ref": "EN 316", "source": "Bing"}}, {"type": "Feature", "geometry": {"type": "LineString", "coordinates": [[-7.009572, 41.8398613], [-7.0095621, 41.8399259], [-7.009594, 41.840016]]}, "properties": {"highway": "primary", "oneway": "yes", "ref": "EN 316", "source": "Bing"}}, {"type": "Feature", "geometry": {"type": "LineString", "coordinates": [[-7.0096621, 41.8394463], [-7.0096202, 41.839554], [-7.0095853, 41.8396433], [-7.009542, 41.8397337]]}, "properties": {"highway": "primary", "oneway": "yes", "ref": "EN 316", "source": "Bing"}}, {"type": "Feature", "geometry": {"type": "LineString", "coordinates": [[-7.0012535, 41.8325106], [-7.0014237, 41.832573]]}, "properties": {"highway": "primary", "name": "Avenida do Assador", "oneway": "yes", "ref": "EN 316"}}, {"type": "Feature", "geometry": {"type": "LineString", "coordinates": [[-7.0012847, 41.8322814], [-7.0011456, 41.8320734]]}, "properties": {"highway": "primary", "name": "Rua da Terra Quente", "oneway": "yes", "ref": "EN 316"}}, {"type": "Feature", "geometry": {"type": "LineString", "coordinates": [[-7.0041986, 41.8327185], [-7.0042122, 41.8327683], [-7.0041993, 41.8328332], [-7.0036824, 41.8334732], [-7.0035797, 41.8335963], [-7.003526, 41.8337194], [-7.003526, 41.8338302], [-7.0035738, 41.8339323], [-7.003661, 41.83403], [-7.0039538, 41.8342022], [-7.0040148, 41.834235]]}, "properties": {"highway": "primary", "name": "Avenida do Assador", "ref": "EN 316", "source": "Bing"}}, {"type": "Feature", "geometry": {"type": "LineString", "coordinates": [[-7.004015, 41.8325618], [-7.0041137, 41.8326282], [-7.0041986, 41.8327185]]}, "properties": {"highway": "primary", "name": "Avenida do Assador", "oneway": "yes", "ref": "EN 316"}}, {"type": "Feature", "geometry": {"type": "LineString", "coordinates": [[-7.0036076, 41.8325518], [-7.0037407, 41.8325438], [-7.0038955, 41.832542], [-7.0039238, 41.8325426], [-7.003977, 41.8325437]]}, "properties": {"highway": "primary", "name": "Avenida do Assador", "oneway": "yes", "ref": "EN 316"}}, {"type": "Feature", "geometry": {"type": "LineString", "coordinates": [[-7.0098937, 41.8319345], [-7.0092499, 41.8323229], [-7.0085123, 41.8327312], [-7.0084708, 41.8327576], [-7.0083105, 41.8328437], [-7.0082376, 41.8328784]]}, "properties": {"highway": "primary", "name": "Avenida Padre Firmino Augusto Martins", "ref": "EN 316", "source": "Bing"}}, {"type": "Feature", "geometry": {"type": "LineString", "coordinates": [[-7.0102817, 41.832143], [-7.0102255, 41.832316], [-7.0101002, 41.8325484], [-7.0098651, 41.8331336], [-7.0095564, 41.8339026], [-7.0095371, 41.8339838], [-7.0095209, 41.8340903], [-7.0095424, 41.834327], [-7.0095899, 41.8345767], [-7.0096728, 41.8349528], [-7.0098048, 41.8354385], [-7.0101785, 41.8361866]]}, "properties": {"highway": "primary", "name": "Avenida Padre Firmino Augusto Martins", "ref": "EN 316", "source": "Bing"}}, {"type": "Feature", "geometry": {"type": "LineString", "coordinates": [[-7.0102817, 41.832143], [-7.0103312, 41.8320508], [-7.0103333, 41.832013], [-7.0103258, 41.8319394], [-7.0103076, 41.8319172], [-7.0102808, 41.8318783]]}, "properties": {"highway": "primary", "name": "Avenida Padre Firmino Augusto Martins", "oneway": "yes", "ref": "EN 316"}}, {"type": "Feature", "geometry": {"type": "LineString", "coordinates": [[-7.0098937, 41.8319345], [-7.0099689, 41.8319363], [-7.0100386, 41.8319293], [-7.0101178, 41.8319279]]}, "properties": {"highway": "primary", "name": "Avenida Padre Firmino Augusto Martins", "oneway": "yes", "ref": "EN 316"}}, {"type": "Feature", "geometry": {"type": "LineString", "coordinates": [[-7.0082376, 41.8328784], [-7.0081874, 41.832876], [-7.0081422, 41.8328595], [-7.0081088, 41.8328314], [-7.0080923, 41.8327959], [-7.0080952, 41.8327584]]}, "properties": {"highway": "primary", "name": "Rua dos Frades", "oneway": "yes", "ref": "EN 316"}}, {"type": "Feature", "geometry": {"type": "LineString", "coordinates": [[-7.0079714, 41.8328507], [-7.0079749, 41.8328713], [-7.0079819, 41.832905], [-7.0080092, 41.8329325], [-7.0080505, 41.8329474], [-7.0080963, 41.8329462]]}, "properties": {"highway": "primary", "name": "Rua dos Frades", "oneway": "yes", "ref": "EN 316"}}, {"type": "Feature", "geometry": {"type": "LineString", "coordinates": [[-6.9970859, 41.9433986], [-6.9978782, 41.9434577], [-6.9980908, 41.9435195], [-6.9984702, 41.9436703], [-7.0014883, 41.9452232], [-7.001588, 41.9452946], [-7.0034838, 41.9466516], [-7.0041598, 41.94729], [-7.0044494, 41.9477049], [-7.0060335, 41.9503253], [-7.006141, 41.9505515]]}, "properties": {"highway": "primary", "ref": "EN 316", "source": "Bing"}}, {"type": "Feature", "geometry": {"type": "LineString", "coordinates": [[-7.0003964, 41.8279721], [-7.0004233, 41.8280451], [-7.0004279, 41.8281393], [-7.000362, 41.8283462], [-7.0003516, 41.8284525], [-7.0003692, 41.8285657], [-7.0004204, 41.8286474], [-7.0004371, 41.8286739], [-7.0010626, 41.8297313], [-7.001183, 41.829926], [-7.001231, 41.830065], [-7.0012387, 41.8302326], [-7.0012231, 41.8303792], [-7.0010906, 41.830749], [-7.0009628, 41.8311362], [-7.0009527, 41.831283], [-7.0009706, 41.8314367], [-7.001025, 41.8316538], [-7.0011191, 41.8319148], [-7.0011456, 41.8320734]]}, "properties": {"highway": "primary", "name": "Rua da Terra Quente", "ref": "EN 316", "source": "Bing"}}, {"type": "Feature", "geometry": {"type": "LineString", "coordinates": [[-6.9979866, 41.8230486], [-6.9981234, 41.8233402], [-6.9992039, 41.8253357], [-6.9993702, 41.8257639], [-6.9993822, 41.8259506], [-6.999407, 41.8262945], [-6.9994436, 41.8264042], [-6.9995043, 41.8265234], [-6.9998578, 41.8268991], [-6.9998972, 41.8269615], [-6.9999238, 41.8270131], [-6.9999376, 41.8270472], [-6.9999451, 41.8270924], [-6.9999389, 41.8271949], [-6.9999367, 41.8274164], [-7.0000067, 41.8275386], [-7.0003084, 41.8278425], [-7.0003964, 41.8279721]]}, "properties": {"highway": "primary", "name": "Rua de Crespos", "ref": "EN 316", "source": "Bing"}}, {"type": "Feature", "geometry": {"type": "LineString", "coordinates": [[-6.997948, 41.8229656], [-6.9979866, 41.8230486]]}, "properties": {"bridge": "yes", "highway": "primary", "layer": "1", "ref": "EN 316", "source": "Bing"}}, {"type": "Feature", "geometry": {"type": "LineString", "coordinates": [[-7.0101785, 41.8361866], [-7.0102433, 41.8363018], [-7.0103625, 41.8365054], [-7.0103815, 41.8365677], [-7.0103947, 41.8366508], [-7.0104078, 41.8367387], [-7.0104073, 41.8368214], [-7.0102991, 41.8372199], [-7.0096724, 41.8394032], [-7.0096621, 41.8394463]]}, "properties": {"highway": "primary", "ref": "EN 316", "source": "Bing"}}, {"type": "Feature", "geometry": {"type": "LineString", "coordinates": [[-7.0101164, 41.8318146], [-7.0100175, 41.8318465], [-7.0099335, 41.8318938], [-7.0098937, 41.8319345]]}, "properties": {"highway": "primary", "name": "Avenida Padre Firmino Augusto Martins", "oneway": "yes", "ref": "EN 316"}}, {"type": "Feature", "geometry": {"type": "LineString", "coordinates": [[-7.0101439, 41.8319396], [-7.0102817, 41.832143]]}, "properties": {"highway": "primary", "name": "Avenida Padre Firmino Augusto Martins", "oneway": "yes", "ref": "EN 316"}}, {"type": "Feature", "geometry": {"type": "LineString", "coordinates": [[-7.0014237, 41.832573], [-7.0013613, 41.8324163]]}, "properties": {"highway": "primary", "name": "Avenida do Assador", "oneway": "yes", "ref": "EN 316"}}, {"type": "Feature", "geometry": {"type": "LineString", "coordinates": [[-7.0011456, 41.8320734], [-7.001074, 41.8322983]]}, "properties": {"highway": "primary", "name": "Rua da Terra Quente", "oneway": "yes", "ref": "EN 316"}}, {"type": "Feature", "geometry": {"type": "LineString", "coordinates": [[-7.0041986, 41.8327185], [-7.0042255, 41.8325722], [-7.0042149, 41.8325424], [-7.0041966, 41.8324911]]}, "properties": {"highway": "primary", "name": "Avenida do Assador", "oneway": "yes", "ref": "EN 316"}}, {"type": "Feature", "geometry": {"type": "LineString", "coordinates": [[-7.0039809, 41.8323946], [-7.0037397, 41.8324828], [-7.0036076, 41.8325518]]}, "properties": {"highway": "primary", "name": "Avenida do Assador", "oneway": "yes", "ref": "EN 316"}}, {"type": "Feature", "geometry": {"type": "LineString", "coordinates": [[-7.0081874, 41.832876], [-7.008092, 41.8328687], [-7.0080531, 41.8328555], [-7.0079969, 41.8328317]]}, "properties": {"highway": "primary", "name": "Rua dos Frades", "oneway": "yes", "ref": "EN 316"}}, {"type": "Feature", "geometry": {"type": "LineString", "coordinates": [[-7.0075753, 41.8329265], [-7.0076995, 41.8329747], [-7.0078012, 41.8329832], [-7.0078629, 41.8329866], [-7.0078904, 41.8329866], [-7.0079246, 41.8329865], [-7.007997, 41.8329732], [-7.0080963, 41.8329462]]}, "properties": {"highway": "primary", "name": "Rua dos Frades", "oneway": "yes", "ref": "EN 316", "source": "Bing"}}, {"type": "Feature", "geometry": {"type": "LineString", "coordinates": [[-6.9306693, 41.717307], [-6.9309004, 41.7173729], [-6.9335857, 41.7181269], [-6.9343904, 41.7183912], [-6.9346718, 41.7185211], [-6.9364718, 41.7193522], [-6.9370297, 41.7197206], [-6.9375447, 41.7203612], [-6.9382635, 41.7220589], [-6.9382957, 41.722211], [-6.9381348, 41.7225874], [-6.9374696, 41.723228], [-6.9374374, 41.7235083], [-6.9375339, 41.7237485], [-6.9380167, 41.7244772], [-6.9380704, 41.7247334], [-6.938006, 41.7250057], [-6.9372228, 41.7262228], [-6.9369224, 41.726463], [-6.9356028, 41.7269995], [-6.934841, 41.7273919], [-6.9344548, 41.7277682], [-6.9339398, 41.728721], [-6.9338647, 41.7292095], [-6.9341114, 41.729842], [-6.9341544, 41.7301783], [-6.9340149, 41.7303704], [-6.9335965, 41.7305466], [-6.9330386, 41.7306026], [-6.9325021, 41.7305946], [-6.9321052, 41.7304986], [-6.9317511, 41.7305546], [-6.9315902, 41.7307548], [-6.9314829, 41.731067], [-6.9315473, 41.7313793], [-6.9318369, 41.7316515], [-6.932309, 41.7317876], [-6.9337574, 41.7319317], [-6.935474, 41.7317636], [-6.9359032, 41.7316195], [-6.9366864, 41.731091], [-6.9370941, 41.7309149], [-6.9375447, 41.7308989], [-6.9378129, 41.730987], [-6.9381777, 41.7314594], [-6.9383279, 41.7325723], [-6.9392054, 41.7337055], [-6.9392827, 41.7338053], [-6.939383, 41.7339635], [-6.9394544, 41.7341495], [-6.9394833, 41.7343327], [-6.9394544, 41.7345098], [-6.9393022, 41.7347553], [-6.9391004, 41.7349822], [-6.9384135, 41.735458], [-6.9380436, 41.7358828], [-6.937928, 41.7361732], [-6.9376198, 41.7379444], [-6.937652, 41.7383447], [-6.9378344, 41.738721], [-6.9386497, 41.7397857], [-6.9388429, 41.740234], [-6.938918, 41.7406103], [-6.9387678, 41.7417951], [-6.9387678, 41.7422514], [-6.9388429, 41.7427157], [-6.9389931, 41.743212], [-6.9398514, 41.7452773], [-6.9398943, 41.7456135], [-6.9398299, 41.7458697], [-6.939433, 41.746438], [-6.9386605, 41.7472705], [-6.9382742, 41.7476147], [-6.9366435, 41.7485032], [-6.9362358, 41.7487994], [-6.9361285, 41.7492076], [-6.9361821, 41.7501041], [-6.9361499, 41.7504563], [-6.9358924, 41.7507204], [-6.9348625, 41.7514088], [-6.9344655, 41.7516089], [-6.9340042, 41.7516889], [-6.9335106, 41.7516729], [-6.930713, 41.7513127], [-6.9300743, 41.7512203], [-6.929498, 41.7512487], [-6.9290858, 41.7513413], [-6.9286185, 41.7515272], [-6.927299, 41.7522176], [-6.9261329, 41.7527806], [-6.9255479, 41.7529943], [-6.9249402, 41.7531382], [-6.9228139, 41.7534315], [-6.9216553, 41.7535779], [-6.9210545, 41.75373], [-6.9205717, 41.7540261], [-6.9203356, 41.7542582], [-6.9202534, 41.7544224], [-6.9202125, 41.7546151], [-6.9202423, 41.7548151]]}, "properties": {"highway": "primary", "maxspeed": "90", "oneway": "no", "ref": "EN 316"}}, {"type": "Feature", "geometry": {"type": "LineString", "coordinates": [[-6.9248854, 41.705253], [-6.9249836, 41.7053882], [-6.9251529, 41.7057209], [-6.9252387, 41.7061534], [-6.9253353, 41.7078755], [-6.9254747, 41.7081398], [-6.9257322, 41.7083721], [-6.9260326, 41.7085403], [-6.9274613, 41.709216], [-6.9276423, 41.709342], [-6.9278673, 41.7095975], [-6.9281999, 41.7112875], [-6.9283823, 41.7115277], [-6.9287578, 41.711744], [-6.9294229, 41.7119602], [-6.9302491, 41.7121524], [-6.9305576, 41.7122388], [-6.9307989, 41.7123467], [-6.9309609, 41.7124333], [-6.9311039, 41.7125672], [-6.9312388, 41.7127491], [-6.9313434, 41.7129353], [-6.9313649, 41.7131185], [-6.9313274, 41.7133197], [-6.9312656, 41.7134509], [-6.9312039, 41.713562], [-6.9310859, 41.7136882], [-6.9309572, 41.7137783], [-6.9307212, 41.7139044], [-6.9304851, 41.7139965], [-6.9302332, 41.7140626], [-6.9289831, 41.7143068], [-6.9283501, 41.7145631], [-6.9280067, 41.7148274], [-6.9278029, 41.7151878], [-6.9277492, 41.7155562], [-6.9278351, 41.7159727], [-6.9280604, 41.716293], [-6.9283286, 41.7165252], [-6.928747, 41.7167655], [-6.9304199, 41.7172275], [-6.9305396, 41.7172699], [-6.9306693, 41.717307]]}, "properties": {"highway": "primary", "maxspeed": "90", "oneway": "no", "ref": "EN 316"}}, {"type": "Feature", "geometry": {"type": "LineString", "coordinates": [[-6.9350675, 41.584664], [-6.9350811, 41.5847347], [-6.9351181, 41.584813], [-6.93517, 41.5848853], [-6.9352088, 41.5849394], [-6.9355073, 41.5853875]]}, "properties": {"highway": "primary", "oneway": "yes", "ref": "EN 316"}}, {"type": "Feature", "geometry": {"type": "LineString", "coordinates": [[-6.9355073, 41.5853875], [-6.9353141, 41.5849086], [-6.9352669, 41.5847521], [-6.9351763, 41.5847039], [-6.9350675, 41.584664]]}, "properties": {"highway": "primary", "oneway": "yes", "ref": "EN 316"}}, {"type": "Feature", "geometry": {"type": "LineString", "coordinates": [[-6.9352669, 41.5847521], [-6.9352889, 41.5846176], [-6.935319, 41.5844911]]}, "properties": {"highway": "primary", "oneway": "yes", "ref": "EN 316"}}, {"type": "Feature", "geometry": {"type": "LineString", "coordinates": [[-6.9348131, 41.5848319], [-6.9349016, 41.5848302], [-6.9350106, 41.5848333], [-6.93517, 41.5848853]]}, "properties": {"highway": "primary", "oneway": "yes", "ref": "EN 316"}}, {"type": "Feature", "geometry": {"type": "LineString", "coordinates": [[-6.9970859, 41.9433986], [-6.9969534, 41.9433618], [-6.9968681, 41.9433437], [-6.9968003, 41.9433462]]}, "properties": {"highway": "primary", "oneway": "yes", "ref": "EN 316"}}, {"type": "Feature", "geometry": {"type": "LineString", "coordinates": [[-6.9968435, 41.9434434], [-6.9969702, 41.9434298], [-6.9970859, 41.9433986]]}, "properties": {"highway": "primary", "oneway": "yes", "ref": "EN 316"}}, {"type": "Feature", "geometry": {"type": "LineString", "coordinates": [[-7.0082376, 41.8328784], [-7.0080963, 41.8329462]]}, "properties": {"highway": "primary", "name": "Rua dos Frades", "ref": "EN 316", "source": "Bing"}}, {"type": "Feature", "geometry": {"type": "MultiPolygon", "coordinates": [[[[-7.0041986, 41.8324591], [-7.0041868, 41.8324282], [-7.0041624, 41.8324018], [-7.0041279, 41.8323825], [-7.004087, 41.8323725], [-7.0040439, 41.8323728], [-7.0040032, 41.8323833], [-7.0039809, 41.8323946], [-7.0039518, 41.8324203], [-7.0039359, 41.8324518], [-7.003935, 41.8324853], [-7.0039493, 41.8325172], [-7.003977, 41.8325437], [-7.004015, 41.8325618], [-7.0040526, 41.832569], [-7.0040914, 41.8325678], [-7.0041281, 41.8325583], [-7.0041595, 41.8325413], [-7.004183, 41.8325182], [-7.0041966, 41.8324911], [-7.0041977, 41.8324737], [-7.0041986, 41.8324591]]]]}, "properties": {"highway": "primary", "junction": "roundabout", "name": "Rotunda do Assador", "ref": "EN 316", "source": "Bing"}}, {"type": "Feature", "geometry": {"type": "MultiPolygon", "coordinates": [[[[-7.0013672, 41.8323946], [-7.0013582, 41.8323504], [-7.0013296, 41.8323111], [-7.0012847, 41.8322814], [-7.0012289, 41.832265], [-7.0011689, 41.8322637], [-7.0011178, 41.8322755], [-7.001074, 41.8322983], [-7.0010416, 41.83233], [-7.0010238, 41.8323675], [-7.0010221, 41.8324074], [-7.0010369, 41.8324456], [-7.0010666, 41.8324788], [-7.0011122, 41.8325051], [-7.001167, 41.8325188], [-7.0012248, 41.8325184], [-7.0012535, 41.8325106], [-7.0012791, 41.8325038], [-7.001324, 41.8324766], [-7.0013553, 41.8324385], [-7.0013613, 41.8324163], [-7.0013672, 41.8323946]]]]}, "properties": {"highway": "primary", "junction": "roundabout", "ref": "EN 316", "source": "Bing"}}, {"type": "Feature", "geometry": {"type": "MultiPolygon", "coordinates": [[[[-7.0097437, 41.8397835], [-7.0097374, 41.8397599], [-7.0097225, 41.8397386], [-7.0096984, 41.8397201], [-7.0096679, 41.8397079], [-7.0096339, 41.8397031], [-7.0095995, 41.8397061], [-7.0095679, 41.8397166], [-7.009542, 41.8397337], [-7.0095224, 41.8397592], [-7.0095157, 41.8397855], [-7.0095203, 41.839812], [-7.0095357, 41.8398361], [-7.0095604, 41.8398555], [-7.009572, 41.8398613], [-7.0095993, 41.8398699], [-7.0096287, 41.839873], [-7.0096582, 41.8398703], [-7.0096857, 41.8398621], [-7.0097094, 41.8398488], [-7.0097291, 41.8398298], [-7.0097408, 41.8398074], [-7.0097437, 41.8397835]]]]}, "properties": {"highway": "primary", "junction": "roundabout", "ref": "EN 316"}}]}