{"type": "FeatureCollection", "features": [{"type": "Feature", "geometry": {"type": "LineString", "coordinates": [[-7.9667909, 40.6558721], [-7.9666217, 40.6559511], [-7.9664837, 40.6560156]]}, "properties": {"highway": "primary", "layer": "-1", "ref": "EN 337-1", "surface": "asphalt", "tunnel": "yes"}}, {"type": "Feature", "geometry": {"type": "LineString", "coordinates": [[-7.9664837, 40.6560156], [-7.9664124, 40.6560667], [-7.9662568, 40.6561781], [-7.9654096, 40.6567759], [-7.9648222, 40.6571591], [-7.9643918, 40.6573259], [-7.9640653, 40.6574024], [-7.9633899, 40.6575432], [-7.9630324, 40.6576225], [-7.9629547, 40.6576398], [-7.9628465, 40.6576618], [-7.962844, 40.6576623], [-7.9627351, 40.6576825]]}, "properties": {"highway": "primary", "ref": "EN 337-1", "surface": "asphalt"}}, {"type": "Feature", "geometry": {"type": "LineString", "coordinates": [[-7.9290274, 40.6599374], [-7.9292549, 40.6601101], [-7.9292722, 40.6601232]]}, "properties": {"bridge": "yes", "cycleway:both": "no", "highway": "primary", "layer": "1", "name": "Rua de S\u00e3o Jo\u00e3o", "ref": "EN 337-1", "surface": "asphalt"}}, {"type": "Feature", "geometry": {"type": "LineString", "coordinates": [[-7.9779342, 40.6609484], [-7.9779425, 40.6607431], [-7.9779397, 40.6607007], [-7.9779363, 40.6606492], [-7.9779303, 40.6605727], [-7.9779152, 40.6604656], [-7.9778933, 40.6603564]]}, "properties": {"highway": "primary", "oneway": "yes", "ref": "EN 337-1", "surface": "asphalt"}}, {"type": "Feature", "geometry": {"type": "LineString", "coordinates": [[-7.9776862, 40.6595898], [-7.9777346, 40.6598734], [-7.9777827, 40.6601248], [-7.9778146, 40.6603199], [-7.9778281, 40.6603998]]}, "properties": {"highway": "primary", "oneway": "yes", "ref": "EN 337-1", "source": "Bing", "surface": "asphalt"}}, {"type": "Feature", "geometry": {"type": "LineString", "coordinates": [[-7.9773438, 40.6590423], [-7.9774277, 40.6591162], [-7.9774622, 40.6591521], [-7.9774882, 40.6591792], [-7.9775274, 40.6592291], [-7.9775651, 40.6592812], [-7.9775888, 40.659315], [-7.9776086, 40.6593472], [-7.9776434, 40.6594201]]}, "properties": {"highway": "primary", "lanes": "1", "oneway": "yes", "ref": "EN 337-1", "source": "Bing", "surface": "asphalt"}}, {"type": "Feature", "geometry": {"type": "LineString", "coordinates": [[-7.9756881, 40.6589218], [-7.9757944, 40.6589102], [-7.9760666, 40.6588827], [-7.9762001, 40.658863], [-7.9763385, 40.6588444], [-7.9764196, 40.658835]]}, "properties": {"highway": "primary", "lanes": "1", "oneway": "yes", "ref": "EN 337-1", "source": "Bing", "surface": "asphalt"}}, {"type": "Feature", "geometry": {"type": "LineString", "coordinates": [[-7.9771364, 40.6588488], [-7.9770649, 40.6588233], [-7.9770176, 40.658806], [-7.9769551, 40.658787], [-7.9769123, 40.6587774], [-7.976728, 40.6587592], [-7.9765717, 40.658758], [-7.9764349, 40.6587728], [-7.9762884, 40.6587963], [-7.9761353, 40.6588296], [-7.9759757, 40.658863], [-7.9756881, 40.6589218]]}, "properties": {"highway": "primary", "lanes": "1", "oneway": "yes", "ref": "EN 337-1", "surface": "asphalt"}}, {"type": "Feature", "geometry": {"type": "LineString", "coordinates": [[-7.9756881, 40.6589218], [-7.975554, 40.6589364], [-7.975304, 40.658951], [-7.9749131, 40.658942], [-7.9747406, 40.658932], [-7.9745479, 40.6589105], [-7.9743848, 40.6588854], [-7.9742194, 40.6588518], [-7.9740559, 40.6588124], [-7.9738827, 40.658764], [-7.973729, 40.6587132], [-7.973579, 40.6586578], [-7.9732812, 40.6585243], [-7.9730966, 40.6584205], [-7.9729397, 40.6583323], [-7.9728367, 40.6582639], [-7.9727194, 40.6581793], [-7.9726386, 40.6581151], [-7.9725199, 40.6580126], [-7.9723348, 40.6578306], [-7.9722136, 40.6576891], [-7.9720944, 40.6575359], [-7.9718811, 40.6572134], [-7.9716757, 40.6569024], [-7.9716228, 40.6568304], [-7.9715645, 40.6567532], [-7.9714424, 40.6566092], [-7.9713745, 40.6565398], [-7.9712337, 40.6564142]]}, "properties": {"highway": "primary", "lanes": "2", "lit": "yes", "ref": "EN 337-1", "source": "Bing", "surface": "asphalt"}}, {"type": "Feature", "geometry": {"type": "LineString", "coordinates": [[-7.9776434, 40.6594201], [-7.9776584, 40.6594769], [-7.9776637, 40.6594984], [-7.9776862, 40.6595898]]}, "properties": {"highway": "primary", "oneway": "no", "ref": "EN 337-1", "source": "Bing", "surface": "asphalt"}}, {"type": "Feature", "geometry": {"type": "LineString", "coordinates": [[-7.9550835, 40.6534236], [-7.9548314, 40.6526743], [-7.9545465, 40.6518426], [-7.9544022, 40.6515123], [-7.9539279, 40.6508619], [-7.9539052, 40.6508315], [-7.9538986, 40.6508225], [-7.9538612, 40.6507712], [-7.9538389, 40.6507407], [-7.9538327, 40.6507322], [-7.9538079, 40.6506982], [-7.9537611, 40.6506338], [-7.953594, 40.6504051], [-7.9533013, 40.6500199]]}, "properties": {"highway": "primary", "ref": "EN 337-1", "surface": "asphalt"}}, {"type": "Feature", "geometry": {"type": "LineString", "coordinates": [[-7.9550835, 40.6534236], [-7.9551505, 40.6536673], [-7.9552058, 40.6538496], [-7.9552596, 40.654019], [-7.9553141, 40.6541805], [-7.9553392, 40.6542462], [-7.9554691, 40.6545863], [-7.9555482, 40.6547944], [-7.9556656, 40.6550727]]}, "properties": {"highway": "primary", "oneway": "yes", "ref": "EN 337-1", "surface": "asphalt"}}, {"type": "Feature", "geometry": {"type": "LineString", "coordinates": [[-7.9556656, 40.6550727], [-7.9555963, 40.6547971], [-7.9555683, 40.6546993], [-7.9555396, 40.6546076], [-7.9554666, 40.6543946], [-7.9553856, 40.6541693], [-7.9553654, 40.6541154], [-7.9553001, 40.6539407], [-7.9552397, 40.6537881], [-7.9551778, 40.6536411], [-7.9550835, 40.6534236]]}, "properties": {"highway": "primary", "oneway": "yes", "ref": "EN 337-1", "surface": "asphalt"}}, {"type": "Feature", "geometry": {"type": "LineString", "coordinates": [[-7.9555396, 40.6546076], [-7.9554909, 40.6545506], [-7.955362, 40.6541973], [-7.9553141, 40.6541805]]}, "properties": {"highway": "primary", "maxspeed": "50", "oneway": "yes", "ref": "EN 337-1", "surface": "asphalt"}}, {"type": "Feature", "geometry": {"type": "LineString", "coordinates": [[-7.9382037, 40.6567509], [-7.9381073, 40.656791], [-7.9380971, 40.6567952], [-7.9380441, 40.6568174], [-7.9378992, 40.656869], [-7.9378208, 40.6568966], [-7.9375015, 40.6570013], [-7.9371919, 40.6571088], [-7.9369798, 40.6571844], [-7.9368908, 40.6572128], [-7.9367883, 40.6572498], [-7.9362208, 40.6574576], [-7.9359123, 40.6576085], [-7.9356696, 40.6577542], [-7.9352855, 40.6580111], [-7.934485, 40.6585854], [-7.9341098, 40.6588378], [-7.9338306, 40.658995], [-7.9331972, 40.6593263], [-7.9319345, 40.6599589], [-7.9315926, 40.6601313], [-7.9313275, 40.6602689]]}, "properties": {"highway": "primary", "lanes": "2", "ref": "EN 337-1", "surface": "asphalt"}}, {"type": "Feature", "geometry": {"type": "LineString", "coordinates": [[-7.9533013, 40.6500199], [-7.9530888, 40.6496947], [-7.9529875, 40.6495419], [-7.9529109, 40.6494264], [-7.9528127, 40.6492931], [-7.9526992, 40.6491448], [-7.952642, 40.6490832], [-7.9525733, 40.6490166], [-7.9525186, 40.648972], [-7.9524588, 40.6489292], [-7.9523772, 40.6488719], [-7.9522885, 40.6488229], [-7.9521862, 40.6487759], [-7.9520746, 40.6487326], [-7.9519605, 40.6487048], [-7.951836, 40.6486815], [-7.9516364, 40.6486666], [-7.9515248, 40.6486666], [-7.9514158, 40.6486713], [-7.9513242, 40.6486812], [-7.9512367, 40.6486966], [-7.9511062, 40.6487311], [-7.9509835, 40.6487753]]}, "properties": {"highway": "primary", "maxspeed": "50", "oneway": "yes", "ref": "EN 337-1", "surface": "asphalt"}}, {"type": "Feature", "geometry": {"type": "LineString", "coordinates": [[-7.9509835, 40.6487753], [-7.9508957, 40.6488135], [-7.9508095, 40.6488552], [-7.9507185, 40.648907], [-7.9505654, 40.6490197], [-7.9504336, 40.6491473], [-7.9502885, 40.6493178], [-7.9502326, 40.6493834], [-7.9500717, 40.6495724], [-7.9499279, 40.6497413], [-7.9493284, 40.6504454], [-7.9492084, 40.6505838], [-7.9491473, 40.6506489], [-7.9490997, 40.6506969], [-7.9490798, 40.6507173], [-7.94906, 40.6507377], [-7.9489538, 40.6508452], [-7.948394, 40.6514048], [-7.9476496, 40.6521198], [-7.9476275, 40.652141], [-7.9459074, 40.6537978], [-7.9458185, 40.6538828], [-7.9457351, 40.6539625], [-7.9457288, 40.6539685], [-7.945585, 40.6541058], [-7.9450982, 40.6545708], [-7.9450072, 40.6546428], [-7.9449116, 40.654708], [-7.9447911, 40.6547649], [-7.9446826, 40.6548014], [-7.9445894, 40.6548313], [-7.9444883, 40.654854], [-7.9443926, 40.6548696], [-7.9442901, 40.6548788], [-7.9441345, 40.6548751], [-7.9439689, 40.6548568], [-7.9431719, 40.6547212], [-7.9423893, 40.6545746], [-7.9421972, 40.6545418], [-7.9420424, 40.6545217], [-7.9418191, 40.6545072], [-7.9416571, 40.6545044], [-7.9414926, 40.6545099], [-7.9413318, 40.6545308], [-7.9411745, 40.6545563], [-7.9401642, 40.6548064], [-7.9400181, 40.6548426], [-7.9398473, 40.6549051], [-7.9396183, 40.6550255], [-7.9394608, 40.6551399], [-7.9393482, 40.6552585], [-7.9392139, 40.6554438], [-7.9390896, 40.6556527], [-7.9388116, 40.6562474], [-7.9386923, 40.6563994], [-7.9385457, 40.6565386], [-7.9384354, 40.6566225], [-7.9383812, 40.6566592], [-7.9383428, 40.6566818], [-7.9383295, 40.6566896], [-7.9382858, 40.6567114], [-7.9382567, 40.6567254], [-7.9382037, 40.6567509]]}, "properties": {"highway": "primary", "ref": "EN 337-1", "surface": "asphalt"}}, {"type": "Feature", "geometry": {"type": "LineString", "coordinates": [[-7.9509835, 40.6487753], [-7.9511733, 40.6487366], [-7.9513269, 40.6487127], [-7.9514263, 40.6487044], [-7.9515344, 40.6487048], [-7.9516268, 40.6487085], [-7.9517189, 40.6487178], [-7.9518059, 40.6487283], [-7.9518959, 40.6487458], [-7.9519856, 40.648768], [-7.9520721, 40.648797], [-7.9521612, 40.6488362], [-7.9522427, 40.6488797], [-7.9523275, 40.6489273], [-7.9524107, 40.6489853], [-7.9525301, 40.6490845], [-7.9525951, 40.6491491], [-7.9526541, 40.6492117], [-7.9527607, 40.6493393], [-7.9528338, 40.6494319], [-7.9529628, 40.6496028], [-7.9533013, 40.6500199]]}, "properties": {"highway": "primary", "maxspeed": "50", "oneway": "yes", "ref": "EN 337-1", "surface": "asphalt"}}, {"type": "Feature", "geometry": {"type": "LineString", "coordinates": [[-7.9292722, 40.6601232], [-7.9293122, 40.6601526]]}, "properties": {"highway": "primary", "lanes": "2", "name": "Rua de S\u00e3o Jo\u00e3o", "ref": "EN 337-1", "surface": "asphalt"}}, {"type": "Feature", "geometry": {"type": "LineString", "coordinates": [[-7.9289346, 40.6598669], [-7.9290274, 40.6599374]]}, "properties": {"highway": "primary", "name": "Rua de S\u00e3o Jo\u00e3o", "ref": "EN 337-1", "surface": "asphalt"}}, {"type": "Feature", "geometry": {"type": "LineString", "coordinates": [[-7.9769394, 40.6588447], [-7.9770436, 40.658879], [-7.9771039, 40.6589037]]}, "properties": {"highway": "primary", "lanes": "2", "oneway": "yes", "ref": "EN 337-1", "source": "Bing", "surface": "asphalt"}}, {"type": "Feature", "geometry": {"type": "LineString", "coordinates": [[-7.9771039, 40.6589037], [-7.9771706, 40.6589358], [-7.9772358, 40.6589704], [-7.9772928, 40.6590062], [-7.9773438, 40.6590423]]}, "properties": {"highway": "primary", "lanes": "2", "oneway": "yes", "ref": "EN 337-1", "source": "Bing", "surface": "asphalt", "turn:lanes": "merge_to_right|"}}, {"type": "Feature", "geometry": {"type": "LineString", "coordinates": [[-7.9776434, 40.6594201], [-7.9776122, 40.6593101], [-7.9775715, 40.6592138], [-7.9775161, 40.6591248], [-7.9773991, 40.6590032], [-7.9773077, 40.6589396], [-7.9772312, 40.6588926]]}, "properties": {"highway": "primary", "lanes": "1", "oneway": "yes", "ref": "EN 337-1", "surface": "asphalt"}}, {"type": "Feature", "geometry": {"type": "LineString", "coordinates": [[-7.9764196, 40.658835], [-7.9765291, 40.6588222], [-7.9766105, 40.6588173], [-7.9766838, 40.6588185], [-7.9767717, 40.6588247], [-7.9768531, 40.6588345], [-7.9769394, 40.6588447]]}, "properties": {"highway": "primary", "lanes": "2", "oneway": "yes", "ref": "EN 337-1", "source": "Bing", "surface": "asphalt", "turn:lanes": "left|through"}}, {"type": "Feature", "geometry": {"type": "LineString", "coordinates": [[-7.9778281, 40.6603998], [-7.9778378, 40.6604644]]}, "properties": {"highway": "primary", "oneway": "yes", "ref": "EN 337-1", "source": "Bing", "surface": "asphalt"}}, {"type": "Feature", "geometry": {"type": "LineString", "coordinates": [[-7.9309924, 40.6603772], [-7.9308135, 40.6604118], [-7.9306468, 40.6604361], [-7.9304058, 40.6604417], [-7.9302152, 40.6604358], [-7.9299457, 40.6603974], [-7.9297514, 40.6603362], [-7.929558, 40.6602659], [-7.9294812, 40.6602344], [-7.9293999, 40.6601959], [-7.9293891, 40.6601906], [-7.9293122, 40.6601526]]}, "properties": {"highway": "primary", "ref": "EN 337-1", "surface": "asphalt"}}, {"type": "Feature", "geometry": {"type": "LineString", "coordinates": [[-7.9289346, 40.6598669], [-7.9287663, 40.6597193], [-7.9287369, 40.659687], [-7.9287246, 40.6596632], [-7.9287337, 40.6595994]]}, "properties": {"highway": "primary", "lanes": "2", "name": "Avenida Cidade de Aveiro", "name:etymology:wikidata": "Q134913949", "oneway": "yes", "ref": "EN 337-1", "surface": "asphalt"}}, {"type": "Feature", "geometry": {"type": "LineString", "coordinates": [[-7.9264486, 40.6597884], [-7.9240336, 40.6598051], [-7.923977, 40.6598055], [-7.9239166, 40.6598061], [-7.9238777, 40.659804], [-7.9238468, 40.6597979], [-7.9238187, 40.6597867], [-7.9237838, 40.6597715], [-7.9237513, 40.6597525], [-7.9237429, 40.6597476], [-7.9237364, 40.6597424], [-7.923702, 40.659715], [-7.9236478, 40.659662]]}, "properties": {"highway": "primary", "lanes": "2", "maxspeed": "50", "name": "Avenida Cidade de Aveiro", "name:etymology:wikidata": "Q134913949", "oneway": "yes", "ref": "EN 337-1", "surface": "asphalt"}}, {"type": "Feature", "geometry": {"type": "LineString", "coordinates": [[-7.9283383, 40.6597527], [-7.928531, 40.6597006], [-7.9285995, 40.6596781], [-7.928643, 40.659656], [-7.9287337, 40.6595994]]}, "properties": {"highway": "primary", "lanes": "2", "maxspeed": "50", "name": "Avenida Cidade de Aveiro", "name:etymology:wikidata": "Q134913949", "oneway": "yes", "ref": "EN 337-1", "surface": "asphalt"}}, {"type": "Feature", "geometry": {"type": "LineString", "coordinates": [[-7.9234819, 40.6598628], [-7.923573, 40.6598618], [-7.9236446, 40.6598611], [-7.9236591, 40.659861], [-7.9237442, 40.6598615], [-7.923812, 40.659863], [-7.9238964, 40.6598625], [-7.9239817, 40.6598584], [-7.9240348, 40.659858], [-7.9263902, 40.6598401], [-7.9264526, 40.6598396], [-7.9266577, 40.659838], [-7.9266871, 40.6598378], [-7.9267066, 40.6598377], [-7.9267261, 40.6598375]]}, "properties": {"highway": "primary", "lanes": "2", "maxspeed": "50", "name": "Avenida Cidade de Aveiro", "name:etymology:wikidata": "Q134913949", "oneway": "yes", "ref": "EN 337-1", "surface": "asphalt"}}, {"type": "Feature", "geometry": {"type": "LineString", "coordinates": [[-7.9627351, 40.6576825], [-7.9626404, 40.6576961], [-7.9626244, 40.6576982], [-7.9626014, 40.6577012], [-7.9625553, 40.6577073], [-7.9625384, 40.657709], [-7.9624588, 40.6577163], [-7.9623715, 40.6577186], [-7.962235, 40.6577148], [-7.9621085, 40.6577043], [-7.961976, 40.6576886], [-7.9618416, 40.6576631], [-7.960992, 40.6574762], [-7.9591027, 40.6570396], [-7.9582137, 40.6568341]]}, "properties": {"highway": "primary", "ref": "EN 337-1", "surface": "asphalt"}}, {"type": "Feature", "geometry": {"type": "LineString", "coordinates": [[-7.9772312, 40.6588926], [-7.9771364, 40.6588488]]}, "properties": {"highway": "primary", "lanes": "1", "oneway": "yes", "ref": "EN 337-1", "surface": "asphalt"}}, {"type": "Feature", "geometry": {"type": "LineString", "coordinates": [[-7.9778378, 40.6604644], [-7.9778595, 40.660602], [-7.9778721, 40.6607184]]}, "properties": {"highway": "primary", "oneway": "yes", "ref": "EN 337-1", "source": "Bing", "surface": "asphalt"}}, {"type": "Feature", "geometry": {"type": "LineString", "coordinates": [[-7.9778933, 40.6603564], [-7.9778796, 40.6603064], [-7.9777932, 40.6599757], [-7.9776862, 40.6595898]]}, "properties": {"highway": "primary", "oneway": "yes", "ref": "EN 337-1", "surface": "asphalt"}}, {"type": "Feature", "geometry": {"type": "LineString", "coordinates": [[-7.9289346, 40.6598669], [-7.9287815, 40.6597604], [-7.9287122, 40.6597136], [-7.9286363, 40.659687], [-7.9285995, 40.6596781], [-7.9285632, 40.659674], [-7.9284915, 40.6596802], [-7.9284047, 40.6596931], [-7.9281892, 40.6597308], [-7.9279252, 40.6597664], [-7.9277891, 40.6597781], [-7.9276959, 40.6597811], [-7.9276598, 40.6597814], [-7.9274713, 40.6597824], [-7.9269201, 40.6597852], [-7.9268697, 40.6597855], [-7.9267028, 40.6597866], [-7.9266872, 40.6597868], [-7.9266527, 40.659787], [-7.9266315, 40.6597871], [-7.9264486, 40.6597884]]}, "properties": {"highway": "primary", "lanes": "2", "maxspeed": "50", "name": "Avenida Cidade de Aveiro", "name:etymology:wikidata": "Q134913949", "oneway": "yes", "ref": "EN 337-1", "surface": "asphalt"}}, {"type": "Feature", "geometry": {"type": "LineString", "coordinates": [[-7.9267261, 40.6598375], [-7.9268717, 40.6598364], [-7.9269201, 40.659836], [-7.9275799, 40.6598288], [-7.9276656, 40.6598277], [-7.9277086, 40.6598274], [-7.9278206, 40.6598218], [-7.9279165, 40.6598116], [-7.9279856, 40.6598024], [-7.9281069, 40.6597862], [-7.9283383, 40.6597527], [-7.9284426, 40.6597435], [-7.9284873, 40.6597395], [-7.928568, 40.6597395], [-7.9286467, 40.6597539], [-7.9287075, 40.6597676], [-7.9287701, 40.659792], [-7.9288365, 40.6598208], [-7.9289346, 40.6598669]]}, "properties": {"highway": "primary", "lanes": "2", "maxspeed": "50", "name": "Avenida Cidade de Aveiro", "name:etymology:wikidata": "Q134913949", "oneway": "yes", "ref": "EN 337-1", "surface": "asphalt"}}, {"type": "Feature", "geometry": {"type": "LineString", "coordinates": [[-7.9313275, 40.6602689], [-7.9311674, 40.6603269], [-7.9309924, 40.6603772]]}, "properties": {"highway": "primary", "lanes": "2", "ref": "EN 337-1", "surface": "asphalt"}}, {"type": "Feature", "geometry": {"type": "LineString", "coordinates": [[-7.9579128, 40.6567634], [-7.9577783, 40.6567305], [-7.9577698, 40.6567284], [-7.9576781, 40.656706], [-7.9574429, 40.6566486], [-7.9574269, 40.6566447], [-7.9571579, 40.656579], [-7.95701, 40.6565407], [-7.9568644, 40.6564989], [-7.9567024, 40.656441], [-7.9565287, 40.6563581], [-7.9563744, 40.6562634], [-7.9562516, 40.6561738], [-7.9561471, 40.6560874], [-7.9560473, 40.6559725], [-7.9559727, 40.6558617], [-7.9559012, 40.6557453], [-7.9558487, 40.655621], [-7.9556656, 40.6550727]]}, "properties": {"highway": "primary", "ref": "EN 337-1", "surface": "asphalt"}}, {"type": "Feature", "geometry": {"type": "LineString", "coordinates": [[-7.9582137, 40.6568341], [-7.9580579, 40.6567981], [-7.9579997, 40.6567846], [-7.9579128, 40.6567634]]}, "properties": {"highway": "primary", "ref": "EN 337-1", "surface": "asphalt"}}, {"type": "Feature", "geometry": {"type": "LineString", "coordinates": [[-7.9709326, 40.6562006], [-7.9707675, 40.6561039], [-7.9705279, 40.6559883], [-7.9702696, 40.6558822], [-7.9699991, 40.6557886], [-7.9697775, 40.6557289], [-7.969556, 40.6556825], [-7.9691275, 40.6556228], [-7.9686728, 40.6555874], [-7.9682268, 40.6555675], [-7.9679732, 40.6555786], [-7.967775, 40.6555963], [-7.9675389, 40.6556383], [-7.96752, 40.655643], [-7.9673174, 40.6556936], [-7.9669508, 40.6558027], [-7.9668919, 40.6558283], [-7.9667909, 40.6558721]]}, "properties": {"highway": "primary", "lanes": "2", "lit": "yes", "ref": "EN 337-1", "source": "Bing", "surface": "asphalt"}}, {"type": "Feature", "geometry": {"type": "LineString", "coordinates": [[-7.9712337, 40.6564142], [-7.9711887, 40.6563805], [-7.9711367, 40.6563426], [-7.9710724, 40.6562958], [-7.9709326, 40.6562006]]}, "properties": {"highway": "primary", "lanes": "2", "lit": "yes", "ref": "EN 337-1", "source": "Bing", "surface": "asphalt"}}]}