{"type": "FeatureCollection", "features": [{"type": "Feature", "geometry": {"type": "LineString", "coordinates": [[-8.3201815, 41.7189707], [-8.3208277, 41.7193284], [-8.3213234, 41.719516], [-8.3219125, 41.7196394], [-8.3224393, 41.7196729], [-8.3228938, 41.7196671], [-8.3234187, 41.7196036], [-8.3253896, 41.7193214], [-8.3260975, 41.7192905], [-8.3267623, 41.7193171]]}, "properties": {"highway": "primary", "lanes": "2", "name": "Avenida do Rio Homem", "oneway": "no", "ref": "EN 307", "surface": "asphalt"}}, {"type": "Feature", "geometry": {"type": "LineString", "coordinates": [[-8.3186528, 41.7180795], [-8.3195383, 41.7185955], [-8.3201815, 41.7189707]]}, "properties": {"bridge": "yes", "highway": "primary", "lanes": "2", "layer": "1", "name": "Avenida do Rio Homem", "oneway": "no", "ref": "EN 307"}}, {"type": "Feature", "geometry": {"type": "LineString", "coordinates": [[-8.3052625, 41.7177188], [-8.305201, 41.7177381], [-8.3051411, 41.7177665], [-8.305057, 41.7178099], [-8.3049829, 41.7178625], [-8.3047377, 41.7180679], [-8.3044977, 41.7182395], [-8.3042979, 41.7185033], [-8.3042215, 41.7186715], [-8.3041313, 41.7188191], [-8.3040233, 41.7189121], [-8.3039092, 41.7189634], [-8.3037487, 41.7189759], [-8.3036247, 41.718953], [-8.3033399, 41.7188691], [-8.3031674, 41.7188227], [-8.3030581, 41.7187921], [-8.3029503, 41.7187865], [-8.3028459, 41.7187922], [-8.3027362, 41.7188259], [-8.3025798, 41.7189095], [-8.3023859, 41.7190138], [-8.3022666, 41.7190693], [-8.3021642, 41.7191033], [-8.3020646, 41.719121], [-8.3019008, 41.7191064], [-8.3016286, 41.7190586], [-8.3012219, 41.7189902], [-8.3009541, 41.7189571], [-8.3007973, 41.7189311], [-8.3006656, 41.7189302], [-8.3005716, 41.7189503], [-8.3004704, 41.7190027], [-8.3004096, 41.7190696], [-8.300385, 41.7191176], [-8.3003667, 41.7192008], [-8.3003472, 41.719501], [-8.3003209, 41.7195856], [-8.3002624, 41.7196723], [-8.3000511, 41.7197805], [-8.2986593, 41.7199364], [-8.2984554, 41.7200149], [-8.2980036, 41.7202729]]}, "properties": {"highway": "primary", "name": "Rua de Andrias", "ref": "EN 307"}}, {"type": "Feature", "geometry": {"type": "LineString", "coordinates": [[-8.3065761, 41.7184138], [-8.3064741, 41.7184256], [-8.3064356, 41.7184272], [-8.3063907, 41.7184239], [-8.3063457, 41.7184171], [-8.3063072, 41.7184054], [-8.3062311, 41.71837], [-8.3061711, 41.7183321], [-8.305961, 41.7181541], [-8.3057126, 41.7179185], [-8.3056945, 41.7179019], [-8.3056764, 41.7178853], [-8.305642, 41.7178616], [-8.3056152, 41.7178453], [-8.3055815, 41.7178283]]}, "properties": {"highway": "primary", "lanes": "2", "name": "Rua Doutor Francisco Xavier de Ara\u00fajo", "oneway": "no", "ref": "EN 307"}}, {"type": "Feature", "geometry": {"type": "LineString", "coordinates": [[-8.3070603, 41.718161], [-8.307023, 41.7181549], [-8.3069773, 41.7181572], [-8.3069345, 41.7181696], [-8.3068988, 41.7181911], [-8.3068734, 41.7182196], [-8.3068606, 41.7182525], [-8.3068597, 41.7182738], [-8.3068668, 41.7183017], [-8.3068831, 41.7183273], [-8.3069075, 41.7183491], [-8.3069508, 41.7183701], [-8.3070011, 41.7183789], [-8.3070524, 41.7183745], [-8.3070987, 41.7183575], [-8.3071345, 41.7183297], [-8.3071522, 41.7183031], [-8.30716, 41.718274], [-8.3071573, 41.7182444], [-8.3071442, 41.7182163], [-8.3071229, 41.7181927], [-8.3070943, 41.7181739], [-8.3070603, 41.718161]]}, "properties": {"highway": "primary", "junction": "roundabout", "lanes": "1", "ref": "EN 307"}}, {"type": "Feature", "geometry": {"type": "LineString", "coordinates": [[-8.3084202, 41.7160634], [-8.3082904, 41.7160607], [-8.3082028, 41.7160776], [-8.308144, 41.716089], [-8.308007, 41.7161514], [-8.3079212, 41.7162228], [-8.3078756, 41.7163064], [-8.3078832, 41.7164771], [-8.3078874, 41.7165721], [-8.3079748, 41.7173418], [-8.3079524, 41.7174986], [-8.3078327, 41.7176467], [-8.3072821, 41.7179879], [-8.3072228, 41.7180293]]}, "properties": {"highway": "primary", "lanes": "2", "name": "Avenida Doutor Artur Adriano Arantes", "oneway": "no", "ref": "EN 307", "surface": "asphalt"}}, {"type": "Feature", "geometry": {"type": "LineString", "coordinates": [[-8.3146056, 41.7158295], [-8.3147341, 41.7158485], [-8.3150648, 41.7159062], [-8.3154225, 41.716009], [-8.315726, 41.7161207], [-8.3160966, 41.7163286], [-8.3161217, 41.716347], [-8.3164502, 41.7165957], [-8.3168066, 41.7168655], [-8.3169883, 41.7169959], [-8.3170333, 41.7170224], [-8.3172333, 41.717167], [-8.3173183, 41.7172377], [-8.3179662, 41.7176564], [-8.3186528, 41.7180795]]}, "properties": {"highway": "primary", "lanes": "2", "name": "Avenida do Rio Homem", "oneway": "no", "ref": "EN 307", "surface": "asphalt"}}, {"type": "Feature", "geometry": {"type": "LineString", "coordinates": [[-8.2116296, 41.7336244], [-8.2116116, 41.7337884], [-8.2115466, 41.733946], [-8.2114246, 41.7341114]]}, "properties": {"highway": "primary", "ref": "EN 307", "surface": "asphalt"}}, {"type": "Feature", "geometry": {"type": "LineString", "coordinates": [[-8.2121793, 41.7341666], [-8.2117232, 41.7341163], [-8.2114246, 41.7341114]]}, "properties": {"highway": "primary", "ref": "EN 307", "surface": "asphalt"}}, {"type": "Feature", "geometry": {"type": "LineString", "coordinates": [[-8.2087941, 41.7363617], [-8.2084835, 41.7365501], [-8.2079176, 41.7368464], [-8.2077926, 41.7370074], [-8.2077582, 41.7371892], [-8.2078013, 41.7373256], [-8.2080617, 41.7375868], [-8.208213, 41.7378797], [-8.2083497, 41.7382009], [-8.2084263, 41.7383214], [-8.2085772, 41.7384335], [-8.2088728, 41.7385891], [-8.209561, 41.7388877], [-8.2099934, 41.7390753], [-8.2100926, 41.7391455], [-8.2101196, 41.7392351]]}, "properties": {"highway": "primary", "ref": "EN 307", "surface": "asphalt"}}, {"type": "Feature", "geometry": {"type": "LineString", "coordinates": [[-8.2101196, 41.7392351], [-8.210065, 41.7393447], [-8.2099247, 41.7394011], [-8.2097491, 41.7394195], [-8.2090814, 41.7394897], [-8.2088371, 41.7395928], [-8.2083411, 41.7399856], [-8.2081341, 41.7401677], [-8.2078298, 41.7404605], [-8.2074687, 41.7406829], [-8.2068559, 41.7409942], [-8.2064938, 41.7412885], [-8.2061718, 41.7415591], [-8.2058479, 41.7418368], [-8.2057729, 41.7419024], [-8.2048856, 41.7426778], [-8.2045212, 41.7431317], [-8.2043584, 41.7433345], [-8.2042026, 41.7434221], [-8.2034147, 41.7437218], [-8.2029216, 41.7441949], [-8.2027775, 41.744306], [-8.2026042, 41.7443905], [-8.202413, 41.744428], [-8.2021217, 41.7443988], [-8.2017882, 41.7442963], [-8.2014534, 41.7442163], [-8.2012557, 41.7442051], [-8.2010829, 41.7442392], [-8.2009422, 41.7443239], [-8.2005756, 41.7447342], [-8.2002805, 41.7450947], [-8.2002331, 41.7452556], [-8.2001881, 41.7456346], [-8.2000474, 41.7457766], [-8.199997, 41.7458275], [-8.1995144, 41.746052], [-8.1993136, 41.7462396], [-8.1990927, 41.7469317], [-8.198809, 41.7473022], [-8.1983691, 41.7478303], [-8.1983227, 41.7478735], [-8.1982574, 41.7479204], [-8.1981289, 41.7479801], [-8.1979774, 41.7480301], [-8.1976944, 41.7481151], [-8.1976233, 41.7481507], [-8.1975482, 41.7482042], [-8.1974798, 41.7482712], [-8.1974316, 41.7483348], [-8.1973866, 41.7484493], [-8.1973431, 41.7485829], [-8.1972298, 41.7489433]]}, "properties": {"highway": "primary", "ref": "EN 307", "surface": "asphalt"}}, {"type": "Feature", "geometry": {"type": "LineString", "coordinates": [[-8.1915726, 41.7618987], [-8.1917228, 41.7615271], [-8.1921359, 41.7609638], [-8.1922156, 41.7607648], [-8.1923994, 41.760054], [-8.1924141, 41.75999]]}, "properties": {"highway": "primary", "name": "Rua de Cerdeira", "ref": "EN 307", "source": "GPS Survey", "surface": "asphalt"}}, {"type": "Feature", "geometry": {"type": "LineString", "coordinates": [[-8.1931745, 41.7555586], [-8.193194, 41.7554096], [-8.1936707, 41.754242], [-8.1938377, 41.7536612], [-8.1939405, 41.7528167], [-8.1939564, 41.7526963], [-8.1939886, 41.7526061]]}, "properties": {"highway": "primary", "name": "Rua de S\u00e3o Jo\u00e3o", "ref": "EN 307", "source": "GPS Survey; bing", "surface": "asphalt"}}, {"type": "Feature", "geometry": {"type": "LineString", "coordinates": [[-8.1930812, 41.7574657], [-8.1930008, 41.7573987]]}, "properties": {"bridge": "yes", "highway": "primary", "layer": "1", "name": "Rua de S\u00e3o Jo\u00e3o", "ref": "EN 307", "source": "GPS Survey; bing; survey", "surface": "asphalt"}}, {"type": "Feature", "geometry": {"type": "LineString", "coordinates": [[-8.1931752, 41.7556837], [-8.1931745, 41.7555586]]}, "properties": {"bridge": "yes", "highway": "primary", "layer": "1", "name": "Rua de S\u00e3o Jo\u00e3o", "ref": "EN 307", "source": "GPS Survey; bing; survey", "surface": "asphalt"}}, {"type": "Feature", "geometry": {"type": "LineString", "coordinates": [[-8.194183, 41.7580777], [-8.1930812, 41.7574657]]}, "properties": {"highway": "primary", "name": "Rua de S\u00e3o Jo\u00e3o", "ref": "EN 307", "source": "GPS Survey; bing; survey", "surface": "asphalt"}}, {"type": "Feature", "geometry": {"type": "LineString", "coordinates": [[-8.1930008, 41.7573987], [-8.1929673, 41.7573254], [-8.1929671, 41.7572441], [-8.1934468, 41.7566741], [-8.1934869, 41.7565687], [-8.1934675, 41.7563433], [-8.1933791, 41.7561734], [-8.1931975, 41.7557885], [-8.1931752, 41.7556837]]}, "properties": {"highway": "primary", "name": "Rua de S\u00e3o Jo\u00e3o", "ref": "EN 307", "source": "GPS Survey; bing; survey", "surface": "asphalt"}}, {"type": "Feature", "geometry": {"type": "LineString", "coordinates": [[-8.2114246, 41.7341114], [-8.2109783, 41.7342756], [-8.2103349, 41.734636], [-8.2095532, 41.7349043], [-8.209408, 41.7349945], [-8.20917, 41.735364], [-8.2089777, 41.7361146], [-8.208884, 41.7362407]]}, "properties": {"highway": "primary", "name": "Rua do Calv\u00e1rio", "ref": "EN 307", "surface": "asphalt"}}, {"type": "Feature", "geometry": {"type": "LineString", "coordinates": [[-8.3138703, 41.7158571], [-8.3137603, 41.7158728], [-8.313427, 41.7159451], [-8.3131415, 41.716004], [-8.3127842, 41.7160586], [-8.3123128, 41.7161062], [-8.3120684, 41.7161362], [-8.3115984, 41.7161601], [-8.310098, 41.7161631], [-8.309941, 41.7161697], [-8.309715, 41.7162146], [-8.3093978, 41.7162229], [-8.3090495, 41.7161629], [-8.3084202, 41.7160634]]}, "properties": {"highway": "primary", "lanes": "2", "name": "Avenida Dom Manuel I", "oneway": "no", "ref": "EN 307", "surface": "asphalt"}}, {"type": "Feature", "geometry": {"type": "LineString", "coordinates": [[-8.208884, 41.7362407], [-8.2087941, 41.7363617]]}, "properties": {"highway": "primary", "name": "Rua do Calv\u00e1rio", "ref": "EN 307", "surface": "asphalt"}}, {"type": "Feature", "geometry": {"type": "LineString", "coordinates": [[-8.2156853, 41.7360798], [-8.215647, 41.7359631], [-8.2155676, 41.7358629], [-8.2154097, 41.7357299], [-8.215234, 41.7355828], [-8.2150813, 41.7355173], [-8.2140149, 41.7352459], [-8.213723, 41.7351158], [-8.2135858, 41.7350343], [-8.2134644, 41.7349824], [-8.2133389, 41.7349151], [-8.2127612, 41.7345217], [-8.2124822, 41.7343322], [-8.2121793, 41.7341666]]}, "properties": {"highway": "primary", "ref": "EN 307"}}, {"type": "Feature", "geometry": {"type": "LineString", "coordinates": [[-8.2668633, 41.7319187], [-8.2666019, 41.7322541], [-8.2664465, 41.7323641], [-8.266224, 41.732435], [-8.2657539, 41.7324699], [-8.2655328, 41.7324668], [-8.2653249, 41.732432], [-8.2651983, 41.7323704], [-8.2651145, 41.7322985], [-8.264955, 41.7320279]]}, "properties": {"highway": "primary", "ref": "EN 307"}}, {"type": "Feature", "geometry": {"type": "LineString", "coordinates": [[-8.264955, 41.7320279], [-8.2648206, 41.7317999], [-8.2647378, 41.7317245], [-8.2646094, 41.7316527], [-8.2644538, 41.7316277], [-8.2642536, 41.7316589], [-8.2635843, 41.7319709], [-8.263313, 41.7321811], [-8.2629734, 41.732601], [-8.2627388, 41.7327905], [-8.262458, 41.7328783], [-8.2615899, 41.732847], [-8.2613519, 41.7327939], [-8.2612096, 41.7326839], [-8.2610284, 41.7323294], [-8.2608524, 41.7321772], [-8.2606257, 41.7321101], [-8.260367, 41.7321323], [-8.2593271, 41.7325005], [-8.2591163, 41.7325259], [-8.2568444, 41.7325917], [-8.2565372, 41.7325335], [-8.2559044, 41.7322251], [-8.2557031, 41.7321682], [-8.255482, 41.7321809], [-8.2552494, 41.7322252], [-8.2549282, 41.7324299], [-8.2545214, 41.7326834], [-8.2542414, 41.7327668], [-8.2539095, 41.7327718], [-8.2526566, 41.7324559], [-8.252394, 41.732423], [-8.2521712, 41.7324478], [-8.2519545, 41.73253], [-8.2510063, 41.7332857], [-8.2506561, 41.7334239], [-8.2502216, 41.7334724], [-8.249944, 41.7334274], [-8.2497764, 41.733354], [-8.2493301, 41.7330903], [-8.24907, 41.7330443], [-8.2488002, 41.7330698], [-8.2485371, 41.7331908], [-8.2475277, 41.7343006], [-8.2474801, 41.7343286], [-8.2473137, 41.7344265], [-8.2469746, 41.7345121], [-8.2452908, 41.7345224]]}, "properties": {"highway": "primary", "ref": "EN 307"}}, {"type": "Feature", "geometry": {"type": "LineString", "coordinates": [[-8.2980036, 41.7202729], [-8.2975006, 41.7205047], [-8.2959354, 41.7208327], [-8.294815, 41.7208361], [-8.2946013, 41.7207968], [-8.2939452, 41.720594], [-8.293717, 41.7206046], [-8.2930966, 41.720831], [-8.2928385, 41.7208307], [-8.2918806, 41.7207542], [-8.2917846, 41.7207783], [-8.2916115, 41.7208218], [-8.2913754, 41.7210074], [-8.2910085, 41.7212959], [-8.290773, 41.7213775], [-8.2902403, 41.7214821], [-8.2900788, 41.721596], [-8.2900177, 41.721731], [-8.2900722, 41.7222196], [-8.2899445, 41.7224262], [-8.2894778, 41.7227549], [-8.2893062, 41.7227968], [-8.2891136, 41.7227874], [-8.2882536, 41.7225733], [-8.2879531, 41.7226185], [-8.2877751, 41.7227748], [-8.2877955, 41.7232198], [-8.2877293, 41.7234108], [-8.2868713, 41.7242824], [-8.2868053, 41.7244555], [-8.2868607, 41.724699], [-8.2869067, 41.7249014], [-8.2868931, 41.7250268], [-8.2868395, 41.7251662], [-8.2862428, 41.7255718], [-8.285724, 41.7261873], [-8.2855976, 41.7262855], [-8.2854365, 41.7263458], [-8.285405, 41.7263547], [-8.2847947, 41.7265269], [-8.2845146, 41.7265261], [-8.2842986, 41.7264284], [-8.2838607, 41.7260821], [-8.2836423, 41.725997], [-8.283374, 41.725988], [-8.2831538, 41.7260424], [-8.2830048, 41.7261662], [-8.2825826, 41.7269924], [-8.2825226, 41.7270476], [-8.2824242, 41.727138], [-8.2822432, 41.7272213], [-8.2820434, 41.7272785], [-8.2806416, 41.7275682], [-8.2804777, 41.7276223], [-8.2803356, 41.727714], [-8.2802502, 41.7278803], [-8.2802408, 41.7285342], [-8.2803124, 41.7287328], [-8.2806536, 41.7293355], [-8.2806845, 41.72939], [-8.280706, 41.7295891], [-8.2806619, 41.7297479], [-8.280559, 41.7298799], [-8.2803313, 41.7300034], [-8.2796733, 41.7301801], [-8.279558, 41.7302036], [-8.2794345, 41.730221], [-8.2784722, 41.7302883], [-8.2782193, 41.730251], [-8.2780025, 41.7301461], [-8.2777508, 41.7298185], [-8.2775597, 41.7296081], [-8.2773239, 41.729489], [-8.2770413, 41.7293857], [-8.2765611, 41.7291753], [-8.2763982, 41.7291825], [-8.2762539, 41.7292336], [-8.2759592, 41.7294715], [-8.2754294, 41.7300447], [-8.2747971, 41.730754], [-8.2744943, 41.7308904], [-8.2732149, 41.7311002], [-8.2730238, 41.7311655], [-8.2723026, 41.7315033], [-8.2720727, 41.7315508], [-8.2716843, 41.7315638], [-8.2712818, 41.7315772], [-8.2710356, 41.7316621], [-8.2703461, 41.7323091], [-8.270162, 41.7323833], [-8.269921, 41.732419], [-8.269043, 41.7324388], [-8.2687237, 41.7323905], [-8.2684726, 41.7322878], [-8.2683027, 41.7321701], [-8.2677253, 41.7315748], [-8.2675165, 41.7315062], [-8.2672934, 41.7315129], [-8.2671772, 41.7315668], [-8.2670938, 41.7316055], [-8.2668633, 41.7319187]]}, "properties": {"highway": "primary", "ref": "EN 307"}}, {"type": "Feature", "geometry": {"type": "LineString", "coordinates": [[-8.2452908, 41.7345224], [-8.2451448, 41.7345217], [-8.2442367, 41.7345279], [-8.2439368, 41.7344738], [-8.2427287, 41.733993]]}, "properties": {"highway": "primary", "ref": "EN 307"}}, {"type": "Feature", "geometry": {"type": "LineString", "coordinates": [[-8.2154943, 41.7368121], [-8.2154855, 41.7367772], [-8.2154828, 41.7367162], [-8.2155, 41.7366648], [-8.215639, 41.7364034], [-8.2156891, 41.7362818], [-8.2157034, 41.7361652], [-8.2156853, 41.7360798]]}, "properties": {"highway": "primary", "ref": "EN 307"}}, {"type": "Feature", "geometry": {"type": "LineString", "coordinates": [[-8.1924141, 41.75999], [-8.1925047, 41.7597664], [-8.1926455, 41.7595793], [-8.1936714, 41.7585789], [-8.1941421, 41.7581178], [-8.194183, 41.7580777]]}, "properties": {"highway": "primary", "name": "Rua de Cerdeira", "ref": "EN 307", "source": "GPS Survey", "surface": "asphalt"}}, {"type": "Feature", "geometry": {"type": "LineString", "coordinates": [[-8.2427287, 41.733993], [-8.2425316, 41.733916], [-8.2422808, 41.73388], [-8.2420716, 41.733924], [-8.2419026, 41.7339981], [-8.2416223, 41.7341632], [-8.2415756, 41.7341753], [-8.241464, 41.7342092], [-8.2413219, 41.7342162], [-8.2407466, 41.7340391], [-8.2401846, 41.7338229], [-8.2399848, 41.7337078], [-8.2398641, 41.7336087], [-8.2393717, 41.7329261], [-8.2391984, 41.7327724], [-8.239034, 41.732708], [-8.2388718, 41.732688], [-8.2386648, 41.7327153], [-8.238414, 41.7328223], [-8.2376749, 41.7332803], [-8.2374523, 41.7333392], [-8.2372094, 41.7333598], [-8.2364612, 41.7332885], [-8.236235, 41.7332993], [-8.2360495, 41.7333492], [-8.2358286, 41.733458], [-8.2346542, 41.7344144], [-8.234124, 41.734813], [-8.2339646, 41.7349025], [-8.2336965, 41.7349359], [-8.2334266, 41.7348941], [-8.2327785, 41.7345494], [-8.2324841, 41.734492], [-8.2320803, 41.7344896], [-8.2317773, 41.734535], [-8.231605, 41.7345877], [-8.2311545, 41.7348608], [-8.2307079, 41.7352762], [-8.2279375, 41.7364063], [-8.2275379, 41.7365017], [-8.2267134, 41.7365766], [-8.226291, 41.736716], [-8.2250865, 41.7376555], [-8.2248228, 41.7378515], [-8.2246345, 41.7379521], [-8.2244289, 41.7380305], [-8.2242134, 41.7380932], [-8.2239838, 41.7381281], [-8.2237534, 41.7381442], [-8.2235563, 41.7381402], [-8.2231574, 41.7381213], [-8.222088, 41.7380483], [-8.2210284, 41.737978], [-8.2208402, 41.7379588], [-8.2204983, 41.7378828], [-8.2201082, 41.7377072], [-8.218706, 41.7367799], [-8.218408, 41.7366856], [-8.2181517, 41.7366484], [-8.2178796, 41.7366491], [-8.2162464, 41.7368842], [-8.216097, 41.7368933], [-8.2159415, 41.7368903], [-8.2156927, 41.7368725], [-8.2155807, 41.7368573], [-8.2154943, 41.7368121]]}, "properties": {"highway": "primary", "ref": "EN 307"}}, {"type": "Feature", "geometry": {"type": "LineString", "coordinates": [[-8.1939886, 41.7526061], [-8.1940223, 41.7525336], [-8.1940761, 41.7524629], [-8.1943359, 41.7521909], [-8.1947104, 41.7518005], [-8.1955765, 41.7509384], [-8.1959761, 41.7505732], [-8.1964804, 41.750292], [-8.1968646, 41.7499098], [-8.196943, 41.7497447], [-8.1970069, 41.7495962]]}, "properties": {"highway": "primary", "name": "Rua de S\u00e3o Jo\u00e3o", "ref": "EN 307", "source": "GPS Survey; bing", "surface": "asphalt"}}, {"type": "Feature", "geometry": {"type": "LineString", "coordinates": [[-8.3065761, 41.7184138], [-8.3067818, 41.7183735], [-8.3069075, 41.7183491]]}, "properties": {"highway": "primary", "lanes": "2", "name": "Rua Doutor Francisco Xavier de Ara\u00fajo", "oneway": "yes", "ref": "EN 307"}}, {"type": "Feature", "geometry": {"type": "LineString", "coordinates": [[-8.1972298, 41.7489433], [-8.1971279, 41.7492591], [-8.1970561, 41.749482], [-8.1970069, 41.7495962]]}, "properties": {"highway": "primary", "ref": "EN 307", "surface": "asphalt"}}, {"type": "Feature", "geometry": {"type": "MultiPolygon", "coordinates": [[[[-8.30716, 41.718274], [-8.3071573, 41.7182444], [-8.3071442, 41.7182163], [-8.3071229, 41.7181927], [-8.3070943, 41.7181739], [-8.3070603, 41.718161], [-8.307023, 41.7181549], [-8.3069773, 41.7181572], [-8.3069345, 41.7181696], [-8.3068988, 41.7181911], [-8.3068734, 41.7182196], [-8.3068606, 41.7182525], [-8.3068597, 41.7182738], [-8.3068668, 41.7183017], [-8.3068831, 41.7183273], [-8.3069075, 41.7183491], [-8.3069508, 41.7183701], [-8.3070011, 41.7183789], [-8.3070524, 41.7183745], [-8.3070987, 41.7183575], [-8.3071345, 41.7183297], [-8.3071522, 41.7183031], [-8.30716, 41.718274]]]]}, "properties": {"highway": "primary", "junction": "roundabout", "lanes": "1", "ref": "EN 307"}}]}