{"type": "FeatureCollection", "features": [{"type": "Feature", "geometry": {"type": "LineString", "coordinates": [[-9.2053036, 38.8885947], [-9.2052111, 38.8887045], [-9.2051333, 38.8887951], [-9.2049684, 38.8889784], [-9.2047793, 38.8891941], [-9.2046337, 38.8893636], [-9.2044113, 38.8896164], [-9.2041471, 38.8899034], [-9.2040594, 38.8899792], [-9.2039117, 38.8900798], [-9.203773, 38.8901831], [-9.2035094, 38.8903585], [-9.2034008, 38.8904207], [-9.2032799, 38.8904784], [-9.2031587, 38.8905297], [-9.2027725, 38.8906859], [-9.2025136, 38.8907834], [-9.2023802, 38.8908507], [-9.2022687, 38.8909251], [-9.2021059, 38.8910584], [-9.2018664, 38.8912698], [-9.2015428, 38.8915427], [-9.2013992, 38.8916806], [-9.2012747, 38.8918197], [-9.2011517, 38.8919942], [-9.2010588, 38.8921548], [-9.2009888, 38.8923001], [-9.2009336, 38.8924448], [-9.2008895, 38.8926002], [-9.2008601, 38.8927561], [-9.2008449, 38.8929387], [-9.200845, 38.8930264], [-9.2008505, 38.8931474], [-9.2008626, 38.8932763], [-9.2008949, 38.8934206], [-9.2009329, 38.8935585], [-9.2010408, 38.8938363], [-9.2012007, 38.8941014], [-9.2014318, 38.8944135], [-9.2018779, 38.8949841], [-9.2020643, 38.8952534], [-9.2020934, 38.8953026], [-9.2022547, 38.8955753], [-9.2023567, 38.8957728], [-9.202429, 38.8959299], [-9.2025757, 38.8963142]]}, "properties": {"highway": "primary", "lanes": "2", "lit": "yes", "maxspeed": "50", "name": "Rua Linhas de Torres", "oneway": "no", "ref": "EN 374-2", "sidewalk": "no", "surface": "asphalt"}}, {"type": "Feature", "geometry": {"type": "LineString", "coordinates": [[-9.2037221, 38.9023652], [-9.2035241, 38.9024538], [-9.2033186, 38.9025313], [-9.2031065, 38.9025972], [-9.2028889, 38.9026513]]}, "properties": {"bridge": "yes", "highway": "primary", "lanes": "1", "layer": "1", "maxspeed": "50", "name": "Rua Linhas de Torres", "oneway": "yes", "overtaking": "no", "ref": "EN 374-2", "surface": "asphalt"}}, {"type": "Feature", "geometry": {"type": "LineString", "coordinates": [[-9.202366, 38.9027618], [-9.201877, 38.9027536], [-9.2016991, 38.902746], [-9.2014645, 38.9027261], [-9.2009915, 38.9026881], [-9.2006191, 38.9026825], [-9.2003805, 38.902694], [-9.2001116, 38.9027337], [-9.1998507, 38.9027869], [-9.1994369, 38.9029046], [-9.1990663, 38.9030284], [-9.1986403, 38.9031707]]}, "properties": {"highway": "primary", "lanes": "2", "maxspeed": "50", "name": "Rua Linhas de Torres", "overtaking": "no", "ref": "EN 374-2", "surface": "asphalt"}}, {"type": "Feature", "geometry": {"type": "LineString", "coordinates": [[-9.204406, 38.90197], [-9.2045477, 38.9018226], [-9.2046663, 38.9016763]]}, "properties": {"highway": "primary", "lanes": "1", "lit": "yes", "maxspeed": "50", "name": "Rua Linhas de Torres", "oneway": "yes", "overtaking": "no", "ref": "EN 374-2", "surface": "asphalt"}}, {"type": "Feature", "geometry": {"type": "LineString", "coordinates": [[-9.2046663, 38.9016763], [-9.204728, 38.9015756], [-9.2047901, 38.9014367]]}, "properties": {"highway": "primary", "lanes": "1", "lit": "yes", "name": "Rua Linhas de Torres", "oneway": "yes", "ref": "EN 374-2", "surface": "asphalt"}}, {"type": "Feature", "geometry": {"type": "LineString", "coordinates": [[-9.2040976, 38.9022327], [-9.2042581, 38.9021067], [-9.204406, 38.90197]]}, "properties": {"highway": "primary", "lanes": "1", "lit": "yes", "maxspeed": "50", "name": "Rua Linhas de Torres", "oneway": "yes", "overtaking": "no", "ref": "EN 374-2", "surface": "asphalt"}}, {"type": "Feature", "geometry": {"type": "LineString", "coordinates": [[-9.202366, 38.9027618], [-9.2026489, 38.9027588], [-9.2027248, 38.9027462], [-9.2029111, 38.9027154]]}, "properties": {"highway": "primary", "lanes": "1", "maxspeed": "50", "name": "Rua Linhas de Torres", "oneway": "yes", "overtaking": "no", "ref": "EN 374-2", "surface": "asphalt"}}, {"type": "Feature", "geometry": {"type": "LineString", "coordinates": [[-9.2028889, 38.9026513], [-9.2026979, 38.9026876], [-9.2025979, 38.9027065], [-9.202366, 38.9027618]]}, "properties": {"highway": "primary", "lanes": "1", "maxspeed": "50", "name": "Rua Linhas de Torres", "oneway": "yes", "overtaking": "no", "ref": "EN 374-2", "surface": "asphalt"}}, {"type": "Feature", "geometry": {"type": "LineString", "coordinates": [[-9.2043897, 38.901892], [-9.2043069, 38.9019816]]}, "properties": {"highway": "primary", "lit": "yes", "name": "Rua Linhas de Torres", "oneway": "yes", "ref": "EN 374-2", "surface": "asphalt"}}, {"type": "Feature", "geometry": {"type": "LineString", "coordinates": [[-9.203765, 38.9024353], [-9.2038976, 38.9023633], [-9.2039956, 38.9023053], [-9.2040976, 38.9022327]]}, "properties": {"highway": "primary", "lanes": "1", "lit": "yes", "name": "Rua Linhas de Torres", "oneway": "yes", "ref": "EN 374-2", "surface": "asphalt"}}, {"type": "Feature", "geometry": {"type": "LineString", "coordinates": [[-9.2047901, 38.9014367], [-9.2046771, 38.9015726], [-9.2045893, 38.9016885], [-9.2044922, 38.9017934], [-9.2043897, 38.901892]]}, "properties": {"highway": "primary", "lanes": "2", "lit": "yes", "maxspeed": "50", "name": "Rua Linhas de Torres", "oneway": "yes", "overtaking": "no", "ref": "EN 374-2", "surface": "asphalt"}}, {"type": "Feature", "geometry": {"type": "LineString", "coordinates": [[-9.2043069, 38.9019816], [-9.2040717, 38.9021499], [-9.2039176, 38.9022518], [-9.2037221, 38.9023652]]}, "properties": {"highway": "primary", "lanes": "1", "lit": "yes", "maxspeed": "50", "name": "Rua Linhas de Torres", "oneway": "yes", "overtaking": "no", "ref": "EN 374-2", "surface": "asphalt"}}, {"type": "Feature", "geometry": {"type": "LineString", "coordinates": [[-9.2053036, 38.8885947], [-9.2053554, 38.8885454], [-9.2054178, 38.8885182], [-9.2055555, 38.8884828], [-9.2056066, 38.8884724], [-9.205655, 38.8884626], [-9.2057782, 38.8884516]]}, "properties": {"highway": "primary", "lanes": "2", "lit": "yes", "name": "Rua Linhas de Torres", "oneway": "no", "ref": "EN 374-2", "surface": "asphalt"}}, {"type": "Feature", "geometry": {"type": "LineString", "coordinates": [[-9.2029111, 38.9027154], [-9.2031354, 38.9026671], [-9.2033536, 38.902604], [-9.2035639, 38.9025265], [-9.203765, 38.9024353]]}, "properties": {"bridge": "yes", "highway": "primary", "lanes": "1", "layer": "1", "maxspeed": "50", "name": "Rua Linhas de Torres", "oneway": "yes", "overtaking": "no", "ref": "EN 374-2", "surface": "asphalt"}}, {"type": "Feature", "geometry": {"type": "LineString", "coordinates": [[-9.2039757, 38.8986018], [-9.2045597, 38.8992809], [-9.2047308, 38.8995393], [-9.2048175, 38.8996828], [-9.2048853, 38.8998368], [-9.2049295, 38.8999454], [-9.2049754, 38.90009], [-9.205017, 38.9003397], [-9.2050241, 38.9004268], [-9.2050183, 38.9005961], [-9.2050121, 38.9006908], [-9.2050048, 38.9007679], [-9.2049944, 38.9008386], [-9.2049668, 38.9009894], [-9.2049178, 38.9011402], [-9.2048481, 38.9013229], [-9.2047901, 38.9014367]]}, "properties": {"highway": "primary", "lanes": "2", "lit": "yes", "maxspeed": "50", "name": "Rua Linhas de Torres", "overtaking": "no", "ref": "EN 374-2", "sidewalk": "no", "surface": "asphalt"}}, {"type": "Feature", "geometry": {"type": "LineString", "coordinates": [[-9.1902749, 38.9034642], [-9.1903042, 38.9034565], [-9.1903404, 38.9034471], [-9.1904424, 38.9034049], [-9.1905208, 38.9033569], [-9.1906054, 38.9032732], [-9.1906368, 38.9032277], [-9.1907934, 38.9029915], [-9.1908828, 38.9028622], [-9.1909721, 38.9027329], [-9.1910123, 38.9026748], [-9.19107, 38.9026206], [-9.1911384, 38.9025757], [-9.1912222, 38.9025377], [-9.1913248, 38.9025121], [-9.1914207, 38.9025068], [-9.1915669, 38.9025162], [-9.1919256, 38.9025606], [-9.192338, 38.9026039], [-9.1924082, 38.9026132], [-9.1930665, 38.9027009], [-9.1934256, 38.9027555], [-9.1934726, 38.9027626]]}, "properties": {"highway": "primary", "lanes": "2", "maxspeed": "50", "name": "Rua Doutor Bossa da Veiga", "ref": "EN 374-2", "surface": "asphalt"}}, {"type": "Feature", "geometry": {"type": "LineString", "coordinates": [[-9.1986403, 38.9031707], [-9.1984511, 38.9032148]]}, "properties": {"highway": "primary", "lanes": "1", "maxspeed": "50", "name": "Rua Linhas de Torres", "oneway": "yes", "overtaking": "no", "ref": "EN 374-2", "surface": "asphalt"}}, {"type": "Feature", "geometry": {"type": "LineString", "coordinates": [[-9.1978497, 38.9035202], [-9.1980388, 38.9034237], [-9.1982644, 38.9033272], [-9.1984714, 38.9032463], [-9.1986403, 38.9031707]]}, "properties": {"highway": "primary", "lanes": "1", "maxspeed": "50", "name": "Rua Linhas de Torres", "oneway": "yes", "overtaking": "no", "ref": "EN 374-2", "surface": "asphalt"}}, {"type": "Feature", "geometry": {"type": "LineString", "coordinates": [[-9.1934726, 38.9027626], [-9.1936865, 38.9027982], [-9.1942145, 38.9028971], [-9.194921, 38.9030235], [-9.1954574, 38.9031299], [-9.1959, 38.903203], [-9.1963157, 38.9032593], [-9.1966778, 38.9032802], [-9.1969233, 38.9032976]]}, "properties": {"highway": "primary", "lanes": "2", "ref": "EN 374-2", "surface": "asphalt"}}, {"type": "Feature", "geometry": {"type": "LineString", "coordinates": [[-9.2025757, 38.8963142], [-9.2026113, 38.8964019], [-9.2029439, 38.8971847], [-9.2029547, 38.8972102], [-9.2030834, 38.8974306], [-9.2032722, 38.8977178], [-9.20339, 38.8978859], [-9.2034782, 38.8980117], [-9.2038473, 38.8984526], [-9.2039757, 38.8986018]]}, "properties": {"highway": "primary", "lanes": "2", "lit": "yes", "maxspeed": "50", "name": "Rua Linhas de Torres", "oneway": "no", "ref": "EN 374-2", "sidewalk": "no", "surface": "asphalt"}}]}