{"type": "FeatureCollection", "features": [{"type": "Feature", "geometry": {"type": "LineString", "coordinates": [[-8.6810072, 40.1777152], [-8.6808595, 40.177576], [-8.6806395, 40.1773654], [-8.6806127, 40.1773397]]}, "properties": {"highway": "primary", "lanes": "2", "ref": "EN 347", "surface": "asphalt"}}, {"type": "Feature", "geometry": {"type": "LineString", "coordinates": [[-8.5045003, 40.1087062], [-8.5044881, 40.1087305], [-8.5044809, 40.108756], [-8.5044826, 40.1088088], [-8.5045056, 40.1088587], [-8.5045477, 40.1089006], [-8.5046048, 40.1089305], [-8.5046419, 40.1089409], [-8.5046809, 40.1089461], [-8.5047554, 40.108941], [-8.5048233, 40.1089171], [-8.5048768, 40.1088772], [-8.5048982, 40.1088494], [-8.5049122, 40.1088189], [-8.5049184, 40.108787]]}, "properties": {"highway": "primary", "junction": "roundabout", "lane_markings": "yes", "lanes": "1", "ref": "EN 342;EN 347", "surface": "asphalt"}}, {"type": "Feature", "geometry": {"type": "LineString", "coordinates": [[-8.6717835, 40.1755513], [-8.6725672, 40.1755687], [-8.67283, 40.1755707], [-8.6729544, 40.175571], [-8.6741551, 40.1755738], [-8.6745147, 40.175581], [-8.6748658, 40.1756055], [-8.6751555, 40.1756404], [-8.6754398, 40.175706], [-8.6764896, 40.1760475], [-8.6769767, 40.176206], [-8.6787941, 40.1766833], [-8.6788503, 40.1766981]]}, "properties": {"highway": "primary", "lanes": "2", "maxspeed": "50", "name": "Rua do Prado", "oneway": "no", "ref": "EN 347", "surface": "asphalt"}}, {"type": "Feature", "geometry": {"type": "LineString", "coordinates": [[-8.648671, 40.1537692], [-8.6482406, 40.1535724], [-8.6476513, 40.1533819]]}, "properties": {"highway": "primary", "lanes": "2", "ref": "EN 341;EN 347", "surface": "asphalt"}}, {"type": "Feature", "geometry": {"type": "LineString", "coordinates": [[-8.4747259, 40.0936027], [-8.4741098, 40.0934468]]}, "properties": {"highway": "primary", "lanes": "2", "lit": "no", "ref": "EN 347", "surface": "asphalt"}}, {"type": "Feature", "geometry": {"type": "LineString", "coordinates": [[-8.393989, 40.0310936], [-8.3940291, 40.0310657], [-8.3940574, 40.0310304], [-8.3940719, 40.0309905], [-8.3940714, 40.0309491], [-8.3940582, 40.0309134], [-8.3940338, 40.0308814], [-8.393992, 40.0308505], [-8.39394, 40.0308305], [-8.3938911, 40.0308232], [-8.3938482, 40.0308274], [-8.3938041, 40.0308352], [-8.3937487, 40.0308628], [-8.3937087, 40.030903], [-8.3936887, 40.0309513], [-8.3936871, 40.0309771], [-8.3936914, 40.0310028], [-8.3937151, 40.0310481], [-8.3937566, 40.031085], [-8.3938116, 40.0311096], [-8.3938741, 40.0311191], [-8.3939077, 40.0311177], [-8.3939405, 40.0311118], [-8.393989, 40.0310936]]}, "properties": {"highway": "primary", "junction": "roundabout", "lanes": "2", "lit": "yes", "ref": "EN 347;IC 3", "surface": "asphalt"}}, {"type": "Feature", "geometry": {"type": "LineString", "coordinates": [[-8.3938482, 40.0308274], [-8.3937452, 40.0307566], [-8.3936258, 40.0306434], [-8.3935322, 40.0304628], [-8.3934886, 40.030272], [-8.3934742, 40.0301036], [-8.3934821, 40.0299584], [-8.3934807, 40.0299294], [-8.3935137, 40.0296673], [-8.3936497, 40.0289246]]}, "properties": {"highway": "primary", "lanes": "1", "lit": "yes", "oneway": "yes", "ref": "EN 347", "surface": "asphalt"}}, {"type": "Feature", "geometry": {"type": "LineString", "coordinates": [[-8.6532648, 40.159721], [-8.6530436, 40.1596052], [-8.6517861, 40.1589577], [-8.6516893, 40.1589081], [-8.6508081, 40.1584569], [-8.6500303, 40.1580374], [-8.6496735, 40.1577114], [-8.6495323, 40.1576202], [-8.649366, 40.1575464], [-8.6492266, 40.1575341], [-8.6489654, 40.1575398], [-8.6476778, 40.1575828], [-8.6474443, 40.1575678], [-8.6472016, 40.157494], [-8.6469991, 40.1573444], [-8.646841, 40.1571751], [-8.646196, 40.1564345], [-8.6461345, 40.1563318], [-8.6461401, 40.156261], [-8.6461574, 40.1562106], [-8.6462061, 40.1561311], [-8.6462553, 40.1560538], [-8.6463612, 40.1559289], [-8.6466664, 40.1555579], [-8.6475907, 40.1544344], [-8.6477791, 40.1543253], [-8.6479957, 40.1542518], [-8.6485299, 40.1541275]]}, "properties": {"highway": "primary", "lanes": "2", "ref": "EN 347", "surface": "asphalt"}}, {"type": "Feature", "geometry": {"type": "LineString", "coordinates": [[-8.6688701, 40.1741727], [-8.668846, 40.1741507], [-8.6687231, 40.1740395]]}, "properties": {"highway": "primary", "ref": "EN 347"}}, {"type": "Feature", "geometry": {"type": "LineString", "coordinates": [[-8.6804998, 40.1772169], [-8.680472, 40.1771896], [-8.6803496, 40.1770692], [-8.6802899, 40.1770107], [-8.6802261, 40.1769549], [-8.6800653, 40.1768726], [-8.6800068, 40.1768472], [-8.6799398, 40.1768293], [-8.6798119, 40.176803], [-8.6796689, 40.1767892]]}, "properties": {"highway": "primary", "lanes": "2", "ref": "EN 347", "surface": "asphalt"}}, {"type": "Feature", "geometry": {"type": "LineString", "coordinates": [[-8.6805557, 40.1772013], [-8.6805262, 40.1772058], [-8.6804998, 40.1772169], [-8.6804798, 40.1772327], [-8.6804667, 40.1772522], [-8.6804616, 40.1772738], [-8.6804648, 40.1772957], [-8.6804762, 40.1773158], [-8.6804947, 40.1773326], [-8.6805214, 40.1773455], [-8.6805521, 40.1773513], [-8.6805836, 40.1773492], [-8.6806127, 40.1773397], [-8.6806337, 40.1773259], [-8.6806488, 40.1773083], [-8.6806569, 40.1772881], [-8.6806574, 40.177267], [-8.6806501, 40.1772466], [-8.6806357, 40.1772286], [-8.6806132, 40.1772133], [-8.6805857, 40.1772039], [-8.6805557, 40.1772013]]}, "properties": {"highway": "primary", "iof": "road", "junction": "roundabout", "ref": "EN 347", "type": "minor"}}, {"type": "Feature", "geometry": {"type": "LineString", "coordinates": [[-8.6473932, 40.1533003], [-8.6470342, 40.1532053], [-8.6466807, 40.1531911], [-8.646413, 40.1532616], [-8.646182, 40.1533968], [-8.6460753, 40.1535187], [-8.645993, 40.1536469], [-8.6453604, 40.1548488], [-8.6450631, 40.1551506]]}, "properties": {"highway": "primary", "ref": "EN 341;EN 347", "surface": "asphalt"}}, {"type": "Feature", "geometry": {"type": "LineString", "coordinates": [[-8.6448316, 40.1555117], [-8.6448816, 40.1554867], [-8.6449204, 40.155452], [-8.644945, 40.1554104], [-8.6449533, 40.1553713], [-8.6449488, 40.1553319], [-8.6449244, 40.1552837], [-8.6448813, 40.1552438], [-8.6448239, 40.1552164], [-8.6447758, 40.1552059], [-8.6447259, 40.1552043], [-8.6446769, 40.1552117], [-8.6446344, 40.1552263], [-8.6445972, 40.1552477], [-8.644567, 40.1552748], [-8.6445453, 40.1553063], [-8.6445328, 40.1553423], [-8.6445315, 40.1553796], [-8.6445414, 40.1554162], [-8.644559, 40.1554461], [-8.644584, 40.1554727], [-8.6446156, 40.1554948], [-8.6446524, 40.1555117], [-8.6447113, 40.1555252], [-8.6447727, 40.1555252], [-8.6448316, 40.1555117]]}, "properties": {"highway": "primary", "junction": "roundabout", "ref": "EN 341;EN 347", "surface": "asphalt"}}, {"type": "Feature", "geometry": {"type": "LineString", "coordinates": [[-8.3952299, 40.0311359], [-8.3947844, 40.031175], [-8.3946704, 40.0311668], [-8.3945411, 40.031146], [-8.3944177, 40.0311176], [-8.3943278, 40.0310892], [-8.3942418, 40.0310505], [-8.3941373, 40.0309875], [-8.3940714, 40.0309491]]}, "properties": {"highway": "primary", "lanes": "2", "oneway": "yes", "ref": "EN 347", "surface": "asphalt"}}, {"type": "Feature", "geometry": {"type": "LineString", "coordinates": [[-8.3939405, 40.0311118], [-8.3941145, 40.0311495], [-8.394388, 40.0312337], [-8.3948691, 40.0312867], [-8.3951881, 40.0312579], [-8.39551, 40.031147], [-8.395764, 40.0309913], [-8.3960009, 40.0308123], [-8.3962507, 40.0306102]]}, "properties": {"highway": "primary", "lanes": "1", "lit": "yes", "oneway": "yes", "ref": "EN 347", "surface": "asphalt"}}, {"type": "Feature", "geometry": {"type": "LineString", "coordinates": [[-8.6485299, 40.1541275], [-8.6488045, 40.1540328], [-8.6489017, 40.1539995]]}, "properties": {"highway": "primary", "lanes": "1", "oneway": "yes", "ref": "EN 347", "surface": "asphalt"}}, {"type": "Feature", "geometry": {"type": "LineString", "coordinates": [[-8.648851, 40.1538241], [-8.6488218, 40.153841], [-8.6488003, 40.1538637], [-8.6487887, 40.1538903], [-8.6487888, 40.1539226], [-8.6488024, 40.1539518], [-8.6488278, 40.153976], [-8.6488622, 40.1539925], [-8.6489017, 40.1539995], [-8.6489243, 40.1539989], [-8.6489464, 40.1539952], [-8.6489816, 40.1539814], [-8.6490093, 40.1539597], [-8.6490264, 40.1539323], [-8.6490311, 40.1539023], [-8.6490283, 40.1538861], [-8.6490219, 40.1538705], [-8.6490039, 40.1538474], [-8.648978, 40.1538292], [-8.6489463, 40.1538174], [-8.6489116, 40.1538129], [-8.6488804, 40.1538155], [-8.648851, 40.1538241]]}, "properties": {"highway": "primary", "junction": "roundabout", "ref": "EN 341;EN 347", "surface": "asphalt"}}, {"type": "Feature", "geometry": {"type": "LineString", "coordinates": [[-8.648851, 40.1538241], [-8.648671, 40.1537692]]}, "properties": {"highway": "primary", "lanes": "1", "oneway": "yes", "ref": "EN 341;EN 347", "surface": "asphalt"}}, {"type": "Feature", "geometry": {"type": "LineString", "coordinates": [[-8.648671, 40.1537692], [-8.6487575, 40.1538585], [-8.6487887, 40.1538903]]}, "properties": {"highway": "primary", "lanes": "1", "oneway": "yes", "ref": "EN 341;EN 347", "surface": "asphalt"}}, {"type": "Feature", "geometry": {"type": "LineString", "coordinates": [[-8.6476513, 40.1533819], [-8.6473932, 40.1533003]]}, "properties": {"bridge": "yes", "highway": "primary", "lanes": "2", "layer": "1", "ref": "EN 341;EN 347", "surface": "asphalt"}}, {"type": "Feature", "geometry": {"type": "LineString", "coordinates": [[-8.6487888, 40.1539226], [-8.6485299, 40.1541275]]}, "properties": {"highway": "primary", "lanes": "1", "oneway": "yes", "ref": "EN 347", "surface": "asphalt"}}, {"type": "Feature", "geometry": {"type": "LineString", "coordinates": [[-8.6690372, 40.1743009], [-8.6690606, 40.1742775], [-8.6690725, 40.1742515], [-8.6690737, 40.174224], [-8.6690639, 40.1741974], [-8.6690442, 40.1741744], [-8.6690138, 40.1741558], [-8.6689771, 40.1741458], [-8.6689382, 40.1741454], [-8.6689012, 40.1741547], [-8.6688701, 40.1741727], [-8.668851, 40.1741932], [-8.66884, 40.1742171], [-8.6688381, 40.1742423], [-8.6688453, 40.1742669], [-8.6688647, 40.1742924], [-8.6688937, 40.1743118], [-8.6689294, 40.174323], [-8.6689679, 40.1743249], [-8.6690051, 40.1743173], [-8.6690372, 40.1743009]]}, "properties": {"highway": "primary", "junction": "roundabout", "ref": "EN 347", "surface": "asphalt"}}, {"type": "Feature", "geometry": {"type": "LineString", "coordinates": [[-8.6687231, 40.1740395], [-8.6673711, 40.1729351]]}, "properties": {"bridge": "viaduct", "highway": "primary", "lanes": "2", "layer": "1", "ref": "EN 347", "surface": "asphalt"}}, {"type": "Feature", "geometry": {"type": "LineString", "coordinates": [[-8.3936497, 40.0289246], [-8.3935689, 40.029111], [-8.3934956, 40.0293634], [-8.393396, 40.0296642], [-8.3933414, 40.0299265], [-8.3933398, 40.0302142], [-8.3933644, 40.0303287]]}, "properties": {"highway": "primary", "lanes": "1", "lit": "yes", "oneway": "yes", "ref": "EN 347", "surface": "asphalt"}}, {"type": "Feature", "geometry": {"type": "LineString", "coordinates": [[-8.3936497, 40.0289246], [-8.3938359, 40.0282119], [-8.3939042, 40.0279503], [-8.3939027, 40.0278081], [-8.3939017, 40.0277151], [-8.3938999, 40.0275499], [-8.393836, 40.027235], [-8.3936897, 40.0269208], [-8.393644, 40.0268573], [-8.3935355, 40.0267065], [-8.3931802, 40.0263988], [-8.3925671, 40.0260761], [-8.3919068, 40.0257831], [-8.3911176, 40.0254328], [-8.3903623, 40.0249631], [-8.388087, 40.0234599]]}, "properties": {"highway": "primary", "lanes": "2", "lit": "yes", "ref": "EN 347", "surface": "asphalt"}}, {"type": "Feature", "geometry": {"type": "LineString", "coordinates": [[-8.6810072, 40.1777152], [-8.6810681, 40.1778606], [-8.681081, 40.1778994]]}, "properties": {"highway": "primary", "lanes": "1", "oneway": "yes", "ref": "EN 347", "surface": "asphalt"}}, {"type": "Feature", "geometry": {"type": "LineString", "coordinates": [[-8.681246, 40.1778338], [-8.6810072, 40.1777152]]}, "properties": {"highway": "primary", "lanes": "1", "oneway": "yes", "ref": "EN 347", "surface": "asphalt"}}, {"type": "Feature", "geometry": {"type": "LineString", "coordinates": [[-8.6649274, 40.1729539], [-8.656932, 40.1646169], [-8.6566882, 40.1642686], [-8.6566056, 40.163933], [-8.6566481, 40.1637072], [-8.6568359, 40.1630415]]}, "properties": {"highway": "primary", "lanes": "2", "ref": "EN 347", "surface": "asphalt"}}, {"type": "Feature", "geometry": {"type": "LineString", "coordinates": [[-8.6568359, 40.1630415], [-8.657477, 40.1610069]]}, "properties": {"bridge": "yes", "check_date": "2023-12-29", "highway": "primary", "lanes": "2", "layer": "1", "ref": "EN 347", "surface": "asphalt"}}, {"type": "Feature", "geometry": {"type": "LineString", "coordinates": [[-8.6717835, 40.1755513], [-8.6715581, 40.1755054], [-8.6713629, 40.17546], [-8.6710217, 40.1753628], [-8.6707231, 40.1752444], [-8.6704323, 40.175096], [-8.6692299, 40.1743793], [-8.6691045, 40.1743039], [-8.6690606, 40.1742775]]}, "properties": {"highway": "primary", "lanes": "2", "maxspeed": "50", "name": "Rua Casal Novo do Rio", "ref": "EN 347", "surface": "asphalt"}}, {"type": "Feature", "geometry": {"type": "LineString", "coordinates": [[-8.3859857, 40.0221237], [-8.3861976, 40.02225]]}, "properties": {"highway": "primary", "lanes": "1", "lit": "yes", "oneway": "yes", "ref": "EN 347", "surface": "asphalt"}}, {"type": "Feature", "geometry": {"type": "LineString", "coordinates": [[-8.3867508, 40.0225633], [-8.3860311, 40.0220781]]}, "properties": {"highway": "primary", "lanes": "2", "lit": "yes", "oneway": "yes", "ref": "EN 347", "surface": "asphalt", "turn:lanes": "left|through"}}, {"type": "Feature", "geometry": {"type": "LineString", "coordinates": [[-8.3873353, 40.0229771], [-8.3872876, 40.0229126], [-8.3870907, 40.022782], [-8.3867508, 40.0225633]]}, "properties": {"highway": "primary", "lanes": "1", "lit": "yes", "oneway": "yes", "ref": "EN 347", "surface": "asphalt"}}, {"type": "Feature", "geometry": {"type": "LineString", "coordinates": [[-8.3861976, 40.02225], [-8.3872533, 40.0229464], [-8.3873353, 40.0229771]]}, "properties": {"highway": "primary", "lanes": "1", "lit": "yes", "oneway": "yes", "ref": "EN 347", "surface": "asphalt"}}, {"type": "Feature", "geometry": {"type": "LineString", "coordinates": [[-8.6450631, 40.1551506], [-8.6448799, 40.1552003], [-8.6448239, 40.1552164]]}, "properties": {"highway": "primary", "lanes": "1", "oneway": "yes", "ref": "EN 341;EN 347", "surface": "asphalt"}}, {"type": "Feature", "geometry": {"type": "LineString", "coordinates": [[-8.6449488, 40.1553319], [-8.6450631, 40.1551506]]}, "properties": {"highway": "primary", "lanes": "1", "oneway": "yes", "ref": "EN 341;EN 347", "surface": "asphalt"}}, {"type": "Feature", "geometry": {"type": "LineString", "coordinates": [[-8.3962507, 40.0306102], [-8.3959527, 40.0307725], [-8.3955584, 40.0310051], [-8.3952299, 40.0311359]]}, "properties": {"highway": "primary", "lanes": "1", "lit": "yes", "oneway": "yes", "ref": "EN 347", "surface": "asphalt"}}, {"type": "Feature", "geometry": {"type": "LineString", "coordinates": [[-8.3933644, 40.0303287], [-8.3934271, 40.0305015], [-8.3935236, 40.0306797], [-8.3935809, 40.0307772], [-8.3936242, 40.0308423], [-8.3936558, 40.03089], [-8.3936887, 40.0309513]]}, "properties": {"highway": "primary", "lanes": "2", "lit": "yes", "oneway": "yes", "ref": "EN 347", "surface": "asphalt"}}, {"type": "Feature", "geometry": {"type": "LineString", "coordinates": [[-8.6673711, 40.1729351], [-8.6672112, 40.1728562], [-8.6670258, 40.1727989], [-8.6668066, 40.1727644], [-8.6666279, 40.1727693], [-8.6664566, 40.1728027], [-8.6662791, 40.1728588], [-8.6661391, 40.1729378], [-8.6660195, 40.1730325]]}, "properties": {"highway": "primary", "lanes": "2", "ref": "EN 347", "surface": "asphalt"}}, {"type": "Feature", "geometry": {"type": "LineString", "coordinates": [[-8.6652689, 40.173143], [-8.6649274, 40.1729539]]}, "properties": {"highway": "primary", "lanes": "2", "oneway": "yes", "ref": "EN 347", "surface": "asphalt"}}, {"type": "Feature", "geometry": {"type": "LineString", "coordinates": [[-8.6660195, 40.1730325], [-8.6657181, 40.1732537]]}, "properties": {"highway": "primary", "lanes": "2", "oneway": "yes", "ref": "EN 347", "surface": "asphalt"}}, {"type": "Feature", "geometry": {"type": "LineString", "coordinates": [[-8.6657181, 40.1732537], [-8.6656193, 40.1732625], [-8.6654873, 40.173266]]}, "properties": {"highway": "primary", "lanes": "2", "oneway": "yes", "ref": "EN 347", "surface": "asphalt"}}, {"type": "Feature", "geometry": {"type": "LineString", "coordinates": [[-8.6788503, 40.1766981], [-8.6789404, 40.1767582], [-8.6790238, 40.1768282]]}, "properties": {"highway": "primary", "maxspeed": "50", "name": "Rua do Prado", "oneway": "yes", "ref": "EN 347", "surface": "asphalt"}}, {"type": "Feature", "geometry": {"type": "LineString", "coordinates": [[-8.50471, 40.1086105], [-8.5046458, 40.1086153], [-8.5045862, 40.1086341], [-8.5045362, 40.1086653], [-8.5045003, 40.1087062]]}, "properties": {"highway": "primary", "junction": "roundabout", "lane_markings": "yes", "lanes": "1", "ref": "EN 342;EN 347", "surface": "asphalt"}}, {"type": "Feature", "geometry": {"type": "LineString", "coordinates": [[-8.5049184, 40.108787], [-8.5049115, 40.1087359], [-8.5048848, 40.1086888], [-8.5048407, 40.1086501], [-8.5047834, 40.1086233]]}, "properties": {"highway": "primary", "junction": "roundabout", "lane_markings": "yes", "lanes": "1", "ref": "EN 342;EN 347", "surface": "asphalt"}}, {"type": "Feature", "geometry": {"type": "LineString", "coordinates": [[-8.5047834, 40.1086233], [-8.5047474, 40.1086145], [-8.50471, 40.1086105]]}, "properties": {"highway": "primary", "junction": "roundabout", "lane_markings": "yes", "lanes": "1", "ref": "EN 342;EN 347", "surface": "asphalt"}}, {"type": "Feature", "geometry": {"type": "LineString", "coordinates": [[-8.4741098, 40.0934468], [-8.473732, 40.0933046], [-8.4732729, 40.0930303], [-8.4677853, 40.0877479], [-8.4657773, 40.0858104], [-8.4647496, 40.0852432], [-8.4558218, 40.0815724], [-8.4544365, 40.0812811], [-8.4543582, 40.0812646], [-8.4521818, 40.0808398], [-8.4517711, 40.0807205], [-8.4514201, 40.0805398], [-8.4510039, 40.0802098], [-8.4498347, 40.0785593], [-8.447259, 40.0748932], [-8.4472013, 40.0748207], [-8.4471744, 40.0747805], [-8.4471461, 40.0747384], [-8.4469575, 40.0744766], [-8.4448944, 40.0693062], [-8.4442985, 40.0686524], [-8.4414701, 40.0665458], [-8.4407641, 40.066233], [-8.4401608, 40.0660301], [-8.4396085, 40.0657657], [-8.4364294, 40.0638015], [-8.4358679, 40.063514], [-8.4356707, 40.0634428], [-8.4353972, 40.0633771], [-8.4350243, 40.0633402], [-8.4345841, 40.0633792], [-8.4341767, 40.063451], [-8.4335706, 40.0635865], [-8.4330032, 40.063663], [-8.4325486, 40.0636768], [-8.4320849, 40.0636244], [-8.431852, 40.0636157]]}, "properties": {"highway": "primary", "lanes": "2", "lit": "no", "ref": "EN 347", "surface": "asphalt"}}, {"type": "Feature", "geometry": {"type": "LineString", "coordinates": [[-8.388087, 40.0234599], [-8.3879393, 40.023363], [-8.3873353, 40.0229771]]}, "properties": {"highway": "primary", "lanes": "2", "lit": "yes", "ref": "EN 347", "surface": "asphalt"}}, {"type": "Feature", "geometry": {"type": "LineString", "coordinates": [[-8.4104172, 40.0333497], [-8.4100032, 40.0316072], [-8.4096427, 40.0312128], [-8.4091621, 40.0309302], [-8.4086588, 40.0307616], [-8.4084754, 40.0307002], [-8.4069305, 40.0302665], [-8.406261, 40.0302139], [-8.4058682, 40.0302889], [-8.4055057, 40.0304702], [-8.404613, 40.0311471], [-8.403214, 40.0316269], [-8.4028785, 40.0318024], [-8.4021647, 40.0322364], [-8.4017804, 40.0323381], [-8.4015317, 40.0323432], [-8.4004245, 40.0321592], [-8.3998752, 40.0320212], [-8.3994632, 40.0317649], [-8.398974, 40.0313508], [-8.3985448, 40.0308645], [-8.3980985, 40.0304702], [-8.3976779, 40.0303125], [-8.3971286, 40.0302665], [-8.3968201, 40.0303262], [-8.3962507, 40.0306102]]}, "properties": {"highway": "primary", "lanes": "2", "lit": "no", "ref": "EN 347", "surface": "asphalt"}}, {"type": "Feature", "geometry": {"type": "LineString", "coordinates": [[-8.4118271, 40.0360374], [-8.4115282, 40.0358612], [-8.4112429, 40.0355805], [-8.4110007, 40.0350947], [-8.4105499, 40.0339084], [-8.4104693, 40.0335691], [-8.4104172, 40.0333497]]}, "properties": {"highway": "primary", "lanes": "2", "lit": "yes", "ref": "EN 347", "surface": "asphalt"}}, {"type": "Feature", "geometry": {"type": "LineString", "coordinates": [[-8.4126252, 40.0404471], [-8.4126765, 40.0403948], [-8.4127261, 40.0403442], [-8.4131039, 40.0399592], [-8.413593, 40.039344], [-8.4138027, 40.0389802], [-8.4138841, 40.038739], [-8.4139878, 40.0384319], [-8.4139948, 40.038036], [-8.413883, 40.037624], [-8.4136664, 40.0372656], [-8.4131982, 40.0367787], [-8.4128069, 40.0364791], [-8.4123527, 40.0362491], [-8.4119684, 40.0361207], [-8.4118271, 40.0360374]]}, "properties": {"highway": "primary", "lanes": "2", "lit": "no", "ref": "EN 347", "surface": "asphalt"}}, {"type": "Feature", "geometry": {"type": "LineString", "coordinates": [[-8.4132949, 40.045832], [-8.4132122, 40.0456885], [-8.4131318, 40.0453542], [-8.4131256, 40.0434262], [-8.4130305, 40.043177], [-8.4128139, 40.0428721], [-8.4120383, 40.0422408], [-8.4118513, 40.0419124], [-8.4118077, 40.0415213], [-8.4121012, 40.040981], [-8.4126252, 40.0404471]]}, "properties": {"highway": "primary", "lanes": "2", "lit": "yes", "ref": "EN 347", "surface": "asphalt"}}, {"type": "Feature", "geometry": {"type": "LineString", "coordinates": [[-8.4286855, 40.0624538], [-8.4279405, 40.0621938], [-8.4276107, 40.0619669], [-8.4271386, 40.0616795], [-8.4261435, 40.0610041], [-8.4258756, 40.0607284], [-8.4255102, 40.0600416], [-8.4253288, 40.0592582], [-8.425177, 40.0589331], [-8.4248816, 40.0585791], [-8.4244484, 40.0582475], [-8.4239391, 40.0580037], [-8.4219433, 40.0571431], [-8.4208961, 40.0568995], [-8.4190329, 40.0563595], [-8.4183257, 40.0560912], [-8.4182224, 40.056052], [-8.4171672, 40.0555332], [-8.4164824, 40.0552872], [-8.4160806, 40.054993], [-8.4158221, 40.0546453], [-8.4157033, 40.0542067], [-8.4157941, 40.0533456], [-8.4156619, 40.0527892], [-8.4154727, 40.052423], [-8.4151094, 40.0520485], [-8.4148508, 40.0516955], [-8.4146971, 40.0513265], [-8.4143407, 40.0474805], [-8.4142669, 40.0471439], [-8.4139843, 40.0466701], [-8.4133555, 40.0459373], [-8.4132949, 40.045832]]}, "properties": {"highway": "primary", "lanes": "2", "lit": "no", "ref": "EN 347", "surface": "asphalt"}}, {"type": "Feature", "geometry": {"type": "LineString", "coordinates": [[-8.431852, 40.0636157], [-8.4309634, 40.063515], [-8.4305503, 40.0634682], [-8.4301765, 40.0633216], [-8.4295841, 40.062821], [-8.4292105, 40.0626371], [-8.4288972, 40.0625277], [-8.4286855, 40.0624538]]}, "properties": {"highway": "primary", "lanes": "2", "lit": "yes", "ref": "EN 347", "surface": "asphalt"}}, {"type": "Feature", "geometry": {"type": "LineString", "coordinates": [[-8.657477, 40.1610069], [-8.6575068, 40.1607314], [-8.6574301, 40.160542], [-8.6571586, 40.160383], [-8.6567923, 40.1603613], [-8.6557339, 40.1605783], [-8.6553067, 40.1605996], [-8.6539838, 40.1603889], [-8.6538234, 40.1603289], [-8.6537281, 40.1602213], [-8.653699, 40.1601262], [-8.6536643, 40.1600418], [-8.653557, 40.1598942], [-8.6532648, 40.159721]]}, "properties": {"highway": "primary", "lanes": "2", "ref": "EN 347", "surface": "asphalt"}}, {"type": "Feature", "geometry": {"type": "MultiPolygon", "coordinates": [[[[-8.3940719, 40.0309905], [-8.3940714, 40.0309491], [-8.3940582, 40.0309134], [-8.3940338, 40.0308814], [-8.393992, 40.0308505], [-8.39394, 40.0308305], [-8.3938911, 40.0308232], [-8.3938482, 40.0308274], [-8.3938041, 40.0308352], [-8.3937487, 40.0308628], [-8.3937087, 40.030903], [-8.3936887, 40.0309513], [-8.3936871, 40.0309771], [-8.3936914, 40.0310028], [-8.3937151, 40.0310481], [-8.3937566, 40.031085], [-8.3938116, 40.0311096], [-8.3938741, 40.0311191], [-8.3939077, 40.0311177], [-8.3939405, 40.0311118], [-8.393989, 40.0310936], [-8.3940291, 40.0310657], [-8.3940574, 40.0310304], [-8.3940719, 40.0309905]]]]}, "properties": {"highway": "primary", "junction": "roundabout", "lanes": "2", "lit": "yes", "ref": "EN 347;IC 3", "surface": "asphalt"}}, {"type": "Feature", "geometry": {"type": "MultiPolygon", "coordinates": [[[[-8.6806574, 40.177267], [-8.6806501, 40.1772466], [-8.6806357, 40.1772286], [-8.6806132, 40.1772133], [-8.6805857, 40.1772039], [-8.6805557, 40.1772013], [-8.6805262, 40.1772058], [-8.6804998, 40.1772169], [-8.6804798, 40.1772327], [-8.6804667, 40.1772522], [-8.6804616, 40.1772738], [-8.6804648, 40.1772957], [-8.6804762, 40.1773158], [-8.6804947, 40.1773326], [-8.6805214, 40.1773455], [-8.6805521, 40.1773513], [-8.6805836, 40.1773492], [-8.6806127, 40.1773397], [-8.6806337, 40.1773259], [-8.6806488, 40.1773083], [-8.6806569, 40.1772881], [-8.6806574, 40.177267]]]]}, "properties": {"highway": "primary", "iof": "road", "junction": "roundabout", "ref": "EN 347", "type": "minor"}}, {"type": "Feature", "geometry": {"type": "MultiPolygon", "coordinates": [[[[-8.6449533, 40.1553713], [-8.6449488, 40.1553319], [-8.6449244, 40.1552837], [-8.6448813, 40.1552438], [-8.6448239, 40.1552164], [-8.6447758, 40.1552059], [-8.6447259, 40.1552043], [-8.6446769, 40.1552117], [-8.6446344, 40.1552263], [-8.6445972, 40.1552477], [-8.644567, 40.1552748], [-8.6445453, 40.1553063], [-8.6445328, 40.1553423], [-8.6445315, 40.1553796], [-8.6445414, 40.1554162], [-8.644559, 40.1554461], [-8.644584, 40.1554727], [-8.6446156, 40.1554948], [-8.6446524, 40.1555117], [-8.6447113, 40.1555252], [-8.6447727, 40.1555252], [-8.6448316, 40.1555117], [-8.6448816, 40.1554867], [-8.6449204, 40.155452], [-8.644945, 40.1554104], [-8.6449533, 40.1553713]]]]}, "properties": {"highway": "primary", "junction": "roundabout", "ref": "EN 341;EN 347", "surface": "asphalt"}}, {"type": "Feature", "geometry": {"type": "MultiPolygon", "coordinates": [[[[-8.6490311, 40.1539023], [-8.6490283, 40.1538861], [-8.6490219, 40.1538705], [-8.6490039, 40.1538474], [-8.648978, 40.1538292], [-8.6489463, 40.1538174], [-8.6489116, 40.1538129], [-8.6488804, 40.1538155], [-8.648851, 40.1538241], [-8.6488218, 40.153841], [-8.6488003, 40.1538637], [-8.6487887, 40.1538903], [-8.6487888, 40.1539226], [-8.6488024, 40.1539518], [-8.6488278, 40.153976], [-8.6488622, 40.1539925], [-8.6489017, 40.1539995], [-8.6489243, 40.1539989], [-8.6489464, 40.1539952], [-8.6489816, 40.1539814], [-8.6490093, 40.1539597], [-8.6490264, 40.1539323], [-8.6490311, 40.1539023]]]]}, "properties": {"highway": "primary", "junction": "roundabout", "ref": "EN 341;EN 347", "surface": "asphalt"}}, {"type": "Feature", "geometry": {"type": "MultiPolygon", "coordinates": [[[[-8.6690737, 40.174224], [-8.6690639, 40.1741974], [-8.6690442, 40.1741744], [-8.6690138, 40.1741558], [-8.6689771, 40.1741458], [-8.6689382, 40.1741454], [-8.6689012, 40.1741547], [-8.6688701, 40.1741727], [-8.668851, 40.1741932], [-8.66884, 40.1742171], [-8.6688381, 40.1742423], [-8.6688453, 40.1742669], [-8.6688647, 40.1742924], [-8.6688937, 40.1743118], [-8.6689294, 40.174323], [-8.6689679, 40.1743249], [-8.6690051, 40.1743173], [-8.6690372, 40.1743009], [-8.6690606, 40.1742775], [-8.6690725, 40.1742515], [-8.6690737, 40.174224]]]]}, "properties": {"highway": "primary", "junction": "roundabout", "ref": "EN 347", "surface": "asphalt"}}]}