{"type": "FeatureCollection", "features": [{"type": "Feature", "geometry": {"type": "LineString", "coordinates": [[-8.9772247, 39.2203964], [-8.9791736, 39.2214867], [-8.9826615, 39.2233531], [-8.9844584, 39.2242372], [-8.9848373, 39.2244322], [-8.9850346, 39.2245421], [-8.9852241, 39.2246673], [-8.9853907, 39.2247913], [-8.9855493, 39.2249307], [-8.9884044, 39.2276998], [-8.9922149, 39.2314206], [-8.9923315, 39.2315197], [-8.9924561, 39.2316002], [-8.9926418, 39.2316691], [-8.9928939, 39.2317146], [-8.9948725, 39.2319465], [-8.9982576, 39.2323383]]}, "properties": {"highway": "primary", "lanes": "2", "maxspeed": "90", "ref": "EN 366", "surface": "asphalt"}}, {"type": "Feature", "geometry": {"type": "LineString", "coordinates": [[-8.9547475, 39.2217893], [-8.9544808, 39.2206605], [-8.9541561, 39.2192426], [-8.9538412, 39.2179465], [-8.9536591, 39.2171613], [-8.9534875, 39.216161], [-8.9535607, 39.215118], [-8.9537575, 39.2142451], [-8.9541905, 39.2127926], [-8.9543505, 39.2123034]]}, "properties": {"highway": "primary", "lanes": "2", "ref": "EN 366", "surface": "asphalt"}}, {"type": "Feature", "geometry": {"type": "LineString", "coordinates": [[-8.9230439, 39.1690898], [-8.9228999, 39.1689138]]}, "properties": {"highway": "primary", "lanes": "2", "ref": "EN 366", "surface": "asphalt"}}, {"type": "Feature", "geometry": {"type": "LineString", "coordinates": [[-8.9262748, 39.1714017], [-8.9259403, 39.1712475], [-8.9253589, 39.1709787], [-8.9247996, 39.1706509], [-8.9245243, 39.1704697]]}, "properties": {"highway": "primary", "lanes": "1", "oneway": "yes", "ref": "EN 366", "surface": "asphalt"}}, {"type": "Feature", "geometry": {"type": "LineString", "coordinates": [[-8.8514066, 39.0952229], [-8.8512591, 39.0951209], [-8.8510981, 39.0950398], [-8.8508861, 39.094944], [-8.8508244, 39.0949169], [-8.8507654, 39.0949045], [-8.8507146, 39.0949065]]}, "properties": {"highway": "primary", "oneway": "yes", "ref": "EN 366", "surface": "asphalt"}}, {"type": "Feature", "geometry": {"type": "LineString", "coordinates": [[-8.902135, 39.144782], [-8.9020197, 39.1449207], [-8.9019052, 39.1450004]]}, "properties": {"highway": "primary", "lanes": "1", "lit": "yes", "oneway": "yes", "ref": "EN 366"}}, {"type": "Feature", "geometry": {"type": "LineString", "coordinates": [[-8.9021591, 39.1450909], [-8.9021351, 39.1449997], [-8.9021191, 39.1449431], [-8.902135, 39.144782]]}, "properties": {"highway": "primary", "lanes": "1", "lit": "yes", "oneway": "yes", "ref": "EN 366"}}, {"type": "Feature", "geometry": {"type": "LineString", "coordinates": [[-8.903502, 39.1458337], [-8.903192, 39.145669], [-8.9024459, 39.1452859], [-8.9021898, 39.1451273]]}, "properties": {"highway": "primary", "lanes": "1", "lit": "yes", "oneway": "yes", "ref": "EN 366", "surface": "asphalt"}}, {"type": "Feature", "geometry": {"type": "LineString", "coordinates": [[-8.9022186, 39.1451873], [-8.9021898, 39.1451273], [-8.9021591, 39.1450909], [-8.9021078, 39.1450514], [-8.9020461, 39.1450221], [-8.9019773, 39.1450048], [-8.9019052, 39.1450004], [-8.9018441, 39.1450069], [-8.9017756, 39.1450266], [-8.9017149, 39.1450583], [-8.9016655, 39.1451001], [-8.9016302, 39.1451498], [-8.9016108, 39.1452045], [-8.9016085, 39.1452611], [-8.9016193, 39.1453061], [-8.9016389, 39.1453456], [-8.9016671, 39.1453819], [-8.9017031, 39.1454137], [-8.9017457, 39.1454401], [-8.9017937, 39.1454603], [-8.9018455, 39.1454737], [-8.9018828, 39.1454787], [-8.9019481, 39.1454789], [-8.9020119, 39.1454685], [-8.9020715, 39.145448], [-8.9021211, 39.1454204], [-8.9021753, 39.145372], [-8.9022111, 39.1453142], [-8.9022259, 39.1452512], [-8.9022186, 39.1451873]]}, "properties": {"highway": "primary", "junction": "roundabout", "lanes": "3", "ref": "EN 366", "surface": "asphalt"}}, {"type": "Feature", "geometry": {"type": "LineString", "coordinates": [[-8.9021211, 39.1454204], [-8.9021915, 39.1454236], [-8.9022908, 39.1454194], [-8.9023766, 39.1454298], [-8.9024516, 39.1454491], [-8.9025697, 39.145486], [-8.9031488, 39.1457131], [-8.903502, 39.1458337]]}, "properties": {"highway": "primary", "lanes": "1", "lit": "yes", "oneway": "yes", "ref": "EN 366", "surface": "asphalt"}}, {"type": "Feature", "geometry": {"type": "LineString", "coordinates": [[-8.9069195, 39.1483361], [-8.906051, 39.1476055], [-8.9053325, 39.147002], [-8.9051755, 39.1468932], [-8.9046032, 39.1464819], [-8.9044717, 39.1463873], [-8.9038248, 39.1460145], [-8.903502, 39.1458337]]}, "properties": {"highway": "primary", "lanes": "2", "ref": "EN 366", "surface": "asphalt"}}, {"type": "Feature", "geometry": {"type": "LineString", "coordinates": [[-8.9071468, 39.1485261], [-8.9069195, 39.1483361]]}, "properties": {"bridge": "yes", "highway": "primary", "lanes": "2", "layer": "1", "ref": "EN 366", "surface": "asphalt"}}, {"type": "Feature", "geometry": {"type": "LineString", "coordinates": [[-8.9533394, 39.2022987], [-8.9532104, 39.2013365], [-8.9530001, 39.1993357], [-8.9527512, 39.1965487], [-8.9525882, 39.1947416], [-8.9525038, 39.1943084], [-8.9523257, 39.1938193], [-8.9521331, 39.1934241], [-8.9518596, 39.1929543], [-8.9515109, 39.1925346], [-8.951132, 39.1921958], [-8.9509488, 39.192032], [-8.949627, 39.1910076], [-8.9465628, 39.1886061], [-8.9442454, 39.1868032], [-8.9425374, 39.1854527], [-8.941825, 39.1848806], [-8.9416631, 39.1847179], [-8.9415838, 39.1846383], [-8.9413615, 39.1844149], [-8.9408894, 39.183856], [-8.940486, 39.1832972], [-8.9402114, 39.1828714], [-8.939808, 39.1821529], [-8.9392501, 39.1809886], [-8.9378768, 39.1780744], [-8.9371644, 39.1765374], [-8.9367695, 39.1758055], [-8.9364726, 39.175426], [-8.9363061, 39.1752133], [-8.9358683, 39.1747875], [-8.9355202, 39.1745157], [-8.9352047, 39.1743057], [-8.9348005, 39.1740758], [-8.9343009, 39.1738431], [-8.9335547, 39.1735686], [-8.9320422, 39.1731134], [-8.9307553, 39.1727427], [-8.928758, 39.1721539], [-8.9268118, 39.1715802], [-8.9262748, 39.1714017]]}, "properties": {"highway": "primary", "lanes": "2", "ref": "EN 366", "surface": "asphalt"}}, {"type": "Feature", "geometry": {"type": "LineString", "coordinates": [[-8.8969645, 39.1339399], [-8.8971373, 39.1341511], [-8.8973428, 39.1344023]]}, "properties": {"highway": "primary", "ref": "EN 366", "surface": "asphalt"}}, {"type": "Feature", "geometry": {"type": "LineString", "coordinates": [[-8.8968339, 39.1337677], [-8.8969645, 39.1339399]]}, "properties": {"bridge": "yes", "highway": "primary", "ref": "EN 366", "surface": "asphalt"}}, {"type": "Feature", "geometry": {"type": "LineString", "coordinates": [[-9.059817, 39.2856202], [-9.0601427, 39.2842701], [-9.060167, 39.2841301], [-9.0601554, 39.283868], [-9.0601275, 39.2836951], [-9.060065, 39.2835221], [-9.0599474, 39.2832719], [-9.0595117, 39.2824377], [-9.0594115, 39.2822458], [-9.059144, 39.2817337], [-9.0588274, 39.2806733], [-9.0579937, 39.2788624], [-9.0576318, 39.2778969], [-9.0574315, 39.2775918], [-9.0570631, 39.2773617], [-9.055635, 39.2767164], [-9.0553441, 39.2765213], [-9.0527139, 39.2745702], [-9.0514278, 39.2741003], [-9.0511465, 39.2739975], [-9.0485229, 39.2730389], [-9.0483906, 39.2730044], [-9.0480352, 39.2729744], [-9.0477185, 39.2730394], [-9.0472855, 39.2731895], [-9.0466974, 39.2734046], [-9.0463162, 39.2734346], [-9.0458702, 39.2733796], [-9.0454179, 39.2731895], [-9.0448363, 39.2727993], [-9.0439444, 39.2721039], [-9.0437053, 39.2717987], [-9.0431819, 39.2709782], [-9.0429298, 39.2707331], [-9.0421867, 39.2701627], [-9.0408619, 39.2687469], [-9.0399571, 39.2679614], [-9.0397633, 39.2677062], [-9.0395371, 39.2667056], [-9.0393884, 39.2664204], [-9.0391687, 39.2662253], [-9.0353806, 39.2641199], [-9.034894, 39.2639258], [-9.0340609, 39.2637089], [-9.0332941, 39.2632009], [-9.0303082, 39.2622361], [-9.0296815, 39.2620934], [-9.0293128, 39.2618879], [-9.0290032, 39.2615682], [-9.0289037, 39.2613813], [-9.0288416, 39.2612587], [-9.0284429, 39.2604722], [-9.0284723, 39.257949], [-9.0283691, 39.2576807], [-9.0281995, 39.2574409], [-9.0278235, 39.2572182], [-9.0272558, 39.2571098], [-9.0268061, 39.2570298], [-9.0224713, 39.2556368], [-9.0219032, 39.2554542], [-9.0212175, 39.2551174], [-9.0210991, 39.2550292], [-9.0196619, 39.2539584], [-9.0184011, 39.2524854], [-9.0164049, 39.2506184], [-9.0162924, 39.2504899], [-9.016204, 39.2503387], [-9.0159902, 39.2496251], [-9.0157469, 39.2492882], [-9.0149728, 39.2485688], [-9.0140954, 39.248015], [-9.0137268, 39.2476267], [-9.0133752, 39.2469651], [-9.0125102, 39.2453371], [-9.0124228, 39.2449261], [-9.0123841, 39.244744], [-9.0123112, 39.2444007], [-9.01209, 39.2440752], [-9.0081456, 39.241323], [-9.0077106, 39.2411117], [-9.0040315, 39.2398212], [-9.0035671, 39.2395757], [-9.001788, 39.2384098], [-9.0015356, 39.2382444], [-9.001419, 39.238138], [-9.0013268, 39.2380229], [-9.0013025, 39.2379925], [-9.0011709, 39.2378226], [-9.0003746, 39.2362808], [-9.0000355, 39.2358296], [-8.9998443, 39.2356276], [-8.9996676, 39.2354408], [-8.9992925, 39.2350445], [-8.9988455, 39.2345407], [-8.9987681, 39.2344551], [-8.9985882, 39.2341773], [-8.9985314, 39.2340765], [-8.9984503, 39.233631], [-8.9984725, 39.2332141], [-8.9985829, 39.2327047]]}, "properties": {"highway": "primary", "lanes": "2", "maxspeed": "50", "ref": "EN 366", "surface": "asphalt"}}, {"type": "Feature", "geometry": {"type": "LineString", "coordinates": [[-9.0597905, 39.2858108], [-9.059817, 39.2856202]]}, "properties": {"highway": "primary", "lanes": "2", "maxspeed": "50", "ref": "EN 366", "surface": "asphalt"}}, {"type": "Feature", "geometry": {"type": "LineString", "coordinates": [[-8.9985296, 39.2322889], [-8.998441, 39.2323047], [-8.9982576, 39.2323383]]}, "properties": {"highway": "primary", "lanes": "1", "oneway": "yes", "ref": "EN 366", "surface": "asphalt"}}, {"type": "Feature", "geometry": {"type": "LineString", "coordinates": [[-8.9985548, 39.232464], [-8.9985765, 39.2325683], [-8.9985829, 39.2327047]]}, "properties": {"highway": "primary", "lanes": "1", "oneway": "yes", "ref": "EN 366", "surface": "asphalt"}}, {"type": "Feature", "geometry": {"type": "LineString", "coordinates": [[-8.9982576, 39.2323383], [-8.9984499, 39.2324013], [-8.9985197, 39.2324281]]}, "properties": {"highway": "primary", "lanes": "1", "oneway": "yes", "ref": "EN 366", "surface": "asphalt"}}, {"type": "Feature", "geometry": {"type": "LineString", "coordinates": [[-8.9985829, 39.2327047], [-8.9986842, 39.232552], [-8.9987205, 39.2324965]]}, "properties": {"highway": "primary", "lanes": "1", "oneway": "yes", "ref": "EN 366", "surface": "asphalt"}}, {"type": "Feature", "geometry": {"type": "LineString", "coordinates": [[-8.9767964, 39.2202259], [-8.9769112, 39.2202559], [-8.9770215, 39.2202946], [-8.9771264, 39.2203416], [-8.9772247, 39.2203964]]}, "properties": {"highway": "primary", "lanes": "1", "maxspeed": "90", "oneway": "yes", "placement": "left_of:1", "ref": "EN 366", "surface": "asphalt"}}, {"type": "Feature", "geometry": {"type": "LineString", "coordinates": [[-8.9772247, 39.2203964], [-8.9771554, 39.2203342], [-8.9771044, 39.2202623], [-8.977074, 39.2201836], [-8.9770655, 39.2201018]]}, "properties": {"highway": "primary", "lanes": "1", "maxspeed": "90", "oneway": "yes", "placement": "left_of:1", "ref": "EN 366", "surface": "asphalt"}}, {"type": "Feature", "geometry": {"type": "LineString", "coordinates": [[-8.8973428, 39.1344023], [-8.8976973, 39.1350412], [-8.8977245, 39.1350866], [-8.8977571, 39.1351422], [-8.8979335, 39.1354432], [-8.8979806, 39.1355258], [-8.8981, 39.1357274], [-8.8982395, 39.1360602], [-8.898399, 39.1362713], [-8.8985251, 39.1364892], [-8.8985764, 39.136565], [-8.8986171, 39.1366222], [-8.8986401, 39.1366545], [-8.8986629, 39.1366982], [-8.898801, 39.1368994], [-8.8988272, 39.1369738], [-8.898872, 39.1371527], [-8.8989465, 39.1374738], [-8.8989635, 39.137547], [-8.8989842, 39.1376361], [-8.8990764, 39.1379014], [-8.8991236, 39.1380151], [-8.899265, 39.1384039], [-8.8993231, 39.1385318], [-8.8993749, 39.138677], [-8.8994485, 39.138899], [-8.8995203, 39.139328], [-8.8996327, 39.1400277], [-8.8996665, 39.1402377], [-8.8996775, 39.140301], [-8.8998622, 39.1414754], [-8.899903, 39.1416401], [-8.9000588, 39.1419062], [-8.9001252, 39.142], [-8.9001574, 39.1420455], [-8.9002521, 39.1421654], [-8.9007007, 39.1427496], [-8.9008825, 39.142986], [-8.9010085, 39.1431576], [-8.901478, 39.1437535], [-8.9015328, 39.1438144], [-8.9015965, 39.1438963], [-8.9016316, 39.1439337]]}, "properties": {"highway": "primary", "lanes": "2", "name": "Rua Francisco Almeida Grandela", "ref": "EN 366", "surface": "asphalt"}}, {"type": "Feature", "geometry": {"type": "LineString", "coordinates": [[-8.8507146, 39.0949065], [-8.8507387, 39.0949586], [-8.8507843, 39.0950002], [-8.8508487, 39.0950314], [-8.8509585, 39.0950731], [-8.8511625, 39.0951459], [-8.8512832, 39.0951855], [-8.8514066, 39.0952229]]}, "properties": {"highway": "primary", "oneway": "yes", "ref": "EN 366", "surface": "asphalt"}}, {"type": "Feature", "geometry": {"type": "LineString", "coordinates": [[-8.8514066, 39.0952229], [-8.8516238, 39.0953358], [-8.8517935, 39.0954349], [-8.8520095, 39.0955969], [-8.8522614, 39.0958575], [-8.8527133, 39.0964822], [-8.8531747, 39.0971733], [-8.8536253, 39.0981558], [-8.8539509, 39.0989189], [-8.8542857, 39.0992449], [-8.854541, 39.0994934], [-8.855056, 39.0998848], [-8.8557319, 39.1001096], [-8.8560095, 39.1002326], [-8.8564148, 39.1004122], [-8.8570193, 39.1007673], [-8.8586571, 39.1021856], [-8.8592831, 39.1027572], [-8.8603345, 39.1040144], [-8.8627056, 39.1058543], [-8.8629808, 39.1061736], [-8.8633708, 39.1066369], [-8.8638107, 39.1069283], [-8.8655235, 39.107847], [-8.8661496, 39.1083103], [-8.8670685, 39.1093788], [-8.8675084, 39.1098949], [-8.868419, 39.1102823], [-8.8687107, 39.1104063], [-8.8689508, 39.1105085], [-8.8692824, 39.1106496], [-8.8696719, 39.1108441], [-8.8702158, 39.1111158], [-8.8709995, 39.1116881], [-8.8713101, 39.1119149], [-8.871881, 39.1120502], [-8.8731019, 39.1123395], [-8.8741924, 39.1130167], [-8.8750829, 39.113383], [-8.8760798, 39.1137145], [-8.8762888, 39.1138176], [-8.876452, 39.1139547], [-8.8766209, 39.1141709], [-8.8767364, 39.1144605], [-8.8769106, 39.1152364], [-8.877033, 39.1159172], [-8.8772217, 39.1163162], [-8.8803186, 39.1196677], [-8.8824754, 39.1218639], [-8.882662, 39.1220233], [-8.8828881, 39.1221467], [-8.8833801, 39.1223866], [-8.8858906, 39.123452], [-8.8863091, 39.1237346], [-8.8883583, 39.126656], [-8.8922066, 39.1290132], [-8.8924889, 39.1291861], [-8.8940767, 39.1301681], [-8.8943197, 39.1304544], [-8.8959131, 39.1325543], [-8.8959502, 39.1326032], [-8.8963464, 39.1331253], [-8.896421, 39.1332236], [-8.8968339, 39.1337677]]}, "properties": {"highway": "primary", "ref": "EN 366", "surface": "asphalt"}}, {"type": "Feature", "geometry": {"type": "LineString", "coordinates": [[-8.9539317, 39.2040091], [-8.9539066, 39.2039476], [-8.9538128, 39.2036916], [-8.9536037, 39.2031469], [-8.9533394, 39.2022987]]}, "properties": {"highway": "primary", "oneway": "yes", "ref": "EN 366", "surface": "asphalt"}}, {"type": "Feature", "geometry": {"type": "LineString", "coordinates": [[-8.9550364, 39.2098226], [-8.9552676, 39.2089914], [-8.9553615, 39.2082103], [-8.9553221, 39.2077604], [-8.9552041, 39.2071542], [-8.9548596, 39.206224], [-8.9545022, 39.2054149]]}, "properties": {"highway": "primary", "lanes": "2", "ref": "EN 366", "surface": "asphalt"}}, {"type": "Feature", "geometry": {"type": "LineString", "coordinates": [[-8.9550092, 39.2099201], [-8.9550364, 39.2098226]]}, "properties": {"bridge": "yes", "highway": "primary", "layer": "1", "ref": "EN 366", "surface": "asphalt"}}, {"type": "Feature", "geometry": {"type": "LineString", "coordinates": [[-8.9533394, 39.2022987], [-8.9533643, 39.2024631], [-8.95341, 39.2027781], [-8.9534689, 39.2030199], [-8.9535787, 39.2033113], [-8.9536925, 39.2035996], [-8.9538023, 39.2038768], [-8.9538157, 39.2039133], [-8.9538572, 39.2040265], [-8.9539283, 39.2042018], [-8.9540046, 39.2043895], [-8.9542211, 39.2048708], [-8.9545022, 39.2054149]]}, "properties": {"highway": "primary", "lanes": "1", "oneway": "yes", "ref": "EN 366", "surface": "asphalt"}}, {"type": "Feature", "geometry": {"type": "LineString", "coordinates": [[-8.9545022, 39.2054149], [-8.9541929, 39.2046344]]}, "properties": {"highway": "primary", "lanes": "1", "oneway": "yes", "ref": "EN 366", "surface": "asphalt"}}, {"type": "Feature", "geometry": {"type": "LineString", "coordinates": [[-8.9547648, 39.211023], [-8.9548251, 39.2108239], [-8.9549525, 39.210255], [-8.9549667, 39.2100822]]}, "properties": {"highway": "primary", "lanes": "1", "oneway": "yes", "ref": "EN 366", "surface": "asphalt"}}, {"type": "Feature", "geometry": {"type": "LineString", "coordinates": [[-8.9546761, 39.2110086], [-8.9546083, 39.2112495], [-8.9545289, 39.2115694], [-8.9543741, 39.2121375], [-8.9543505, 39.2123034]]}, "properties": {"highway": "primary", "lanes": "1", "oneway": "yes", "ref": "EN 366", "surface": "asphalt"}}, {"type": "Feature", "geometry": {"type": "LineString", "coordinates": [[-8.9549667, 39.2100822], [-8.9550092, 39.2099201]]}, "properties": {"highway": "primary", "lanes": "2", "ref": "EN 366", "surface": "asphalt"}}, {"type": "Feature", "geometry": {"type": "LineString", "coordinates": [[-8.9549667, 39.2100822], [-8.954897, 39.2102387], [-8.9548237, 39.2104908]]}, "properties": {"highway": "primary", "lanes": "1", "oneway": "yes", "ref": "EN 366", "surface": "asphalt"}}, {"type": "Feature", "geometry": {"type": "LineString", "coordinates": [[-8.9548237, 39.2104908], [-8.9547451, 39.2107665]]}, "properties": {"highway": "primary", "lanes": "2", "oneway": "yes", "ref": "EN 366", "surface": "asphalt", "turn:lanes": "left|through;slight_right"}}, {"type": "Feature", "geometry": {"type": "LineString", "coordinates": [[-8.9547451, 39.2107665], [-8.9546761, 39.2110086]]}, "properties": {"highway": "primary", "lanes": "2", "oneway": "yes", "ref": "EN 366", "surface": "asphalt", "turn:lanes": "left|through"}}, {"type": "Feature", "geometry": {"type": "LineString", "coordinates": [[-8.9543505, 39.2123034], [-8.9544112, 39.2121583], [-8.9545829, 39.2116204]]}, "properties": {"highway": "primary", "lanes": "1", "oneway": "yes", "ref": "EN 366", "surface": "asphalt"}}, {"type": "Feature", "geometry": {"type": "LineString", "coordinates": [[-8.9545829, 39.2116204], [-8.9546973, 39.2112447]]}, "properties": {"highway": "primary", "lanes": "2", "oneway": "yes", "ref": "EN 366", "surface": "asphalt", "turn:lanes": "left|through;slight_right"}}, {"type": "Feature", "geometry": {"type": "LineString", "coordinates": [[-8.9546973, 39.2112447], [-8.9547648, 39.211023]]}, "properties": {"highway": "primary", "lanes": "2", "oneway": "yes", "ref": "EN 366", "surface": "asphalt", "turn:lanes": "left|through"}}, {"type": "Feature", "geometry": {"type": "LineString", "coordinates": [[-8.9541929, 39.2046344], [-8.9539636, 39.2040822], [-8.9539317, 39.2040091]]}, "properties": {"highway": "primary", "lanes": "1", "oneway": "yes", "ref": "EN 366", "surface": "asphalt"}}, {"type": "Feature", "geometry": {"type": "LineString", "coordinates": [[-8.9228999, 39.1689138], [-8.9225391, 39.1685033], [-8.9212688, 39.1670127], [-8.9203881, 39.1659659], [-8.9201048, 39.1656293], [-8.9200735, 39.1655921], [-8.9199129, 39.1654012], [-8.9197067, 39.1651561], [-8.9179729, 39.1631197], [-8.9163507, 39.1611498], [-8.9162791, 39.1610488], [-8.915867, 39.1604673], [-8.9146002, 39.1586799], [-8.9144656, 39.15849], [-8.9143508, 39.158328], [-8.9139114, 39.1577], [-8.9136659, 39.1573493], [-8.913469, 39.1570678], [-8.912529, 39.1557244], [-8.9124958, 39.155677], [-8.9120316, 39.1550134], [-8.9119991, 39.154967], [-8.9112537, 39.1539093], [-8.9112079, 39.1538444], [-8.9100336, 39.1521782], [-8.9095204, 39.151442], [-8.9090197, 39.1507237], [-8.9084886, 39.1499618], [-8.9080251, 39.149376], [-8.9074071, 39.1487437], [-8.9071468, 39.1485261]]}, "properties": {"highway": "primary", "lanes": "2", "ref": "EN 366", "surface": "asphalt"}}, {"type": "Feature", "geometry": {"type": "LineString", "coordinates": [[-8.9241296, 39.1701678], [-8.9239341, 39.1700054], [-8.9231257, 39.1691535], [-8.9230439, 39.1690898]]}, "properties": {"highway": "primary", "lanes": "1", "oneway": "yes", "ref": "EN 366", "surface": "asphalt"}}, {"type": "Feature", "geometry": {"type": "LineString", "coordinates": [[-8.9245243, 39.1704697], [-8.9241296, 39.1701678]]}, "properties": {"bridge": "viaduct", "highway": "primary", "lanes": "1", "layer": "2", "oneway": "yes", "ref": "EN 366", "surface": "asphalt"}}, {"type": "Feature", "geometry": {"type": "LineString", "coordinates": [[-8.9244974, 39.1705162], [-8.9247727, 39.1706975], [-8.925332, 39.1710253], [-8.9255472, 39.1711248], [-8.9259133, 39.1712941], [-8.9262748, 39.1714017]]}, "properties": {"highway": "primary", "lanes": "1", "oneway": "yes", "ref": "EN 366", "surface": "asphalt"}}, {"type": "Feature", "geometry": {"type": "LineString", "coordinates": [[-8.9241044, 39.1702295], [-8.9244974, 39.1705162]]}, "properties": {"bridge": "viaduct", "highway": "primary", "lanes": "1", "layer": "2", "oneway": "yes", "ref": "EN 366", "surface": "asphalt"}}, {"type": "Feature", "geometry": {"type": "LineString", "coordinates": [[-8.9230439, 39.1690898], [-8.9231019, 39.1691881], [-8.9234467, 39.1695932], [-8.9236992, 39.1698677], [-8.9239136, 39.1700692], [-8.9241044, 39.1702295]]}, "properties": {"highway": "primary", "lanes": "1", "oneway": "yes", "ref": "EN 366", "surface": "asphalt"}}, {"type": "Feature", "geometry": {"type": "LineString", "coordinates": [[-8.9016316, 39.1439337], [-8.9020248, 39.144332], [-8.9021053, 39.1444422], [-8.9021481, 39.1445433], [-8.9021647, 39.1446226], [-8.9021595, 39.1446981], [-8.902135, 39.144782]]}, "properties": {"highway": "primary", "lanes": "2", "name": "Rua Francisco Almeida Grandela", "ref": "EN 366", "surface": "asphalt"}}, {"type": "Feature", "geometry": {"type": "MultiPolygon", "coordinates": [[[[-8.9022259, 39.1452512], [-8.9022186, 39.1451873], [-8.9021898, 39.1451273], [-8.9021591, 39.1450909], [-8.9021078, 39.1450514], [-8.9020461, 39.1450221], [-8.9019773, 39.1450048], [-8.9019052, 39.1450004], [-8.9018441, 39.1450069], [-8.9017756, 39.1450266], [-8.9017149, 39.1450583], [-8.9016655, 39.1451001], [-8.9016302, 39.1451498], [-8.9016108, 39.1452045], [-8.9016085, 39.1452611], [-8.9016193, 39.1453061], [-8.9016389, 39.1453456], [-8.9016671, 39.1453819], [-8.9017031, 39.1454137], [-8.9017457, 39.1454401], [-8.9017937, 39.1454603], [-8.9018455, 39.1454737], [-8.9018828, 39.1454787], [-8.9019481, 39.1454789], [-8.9020119, 39.1454685], [-8.9020715, 39.145448], [-8.9021211, 39.1454204], [-8.9021753, 39.145372], [-8.9022111, 39.1453142], [-8.9022259, 39.1452512]]]]}, "properties": {"highway": "primary", "junction": "roundabout", "lanes": "3", "ref": "EN 366", "surface": "asphalt"}}]}