{"type": "FeatureCollection", "features": [{"type": "Feature", "geometry": {"type": "Point", "coordinates": [-8.4711848, 40.9363178]}, "properties": {"distance": "11", "highway": "milestone", "ref": "EN 327"}}, {"type": "Feature", "geometry": {"type": "LineString", "coordinates": [[-8.6564972, 40.8653714], [-8.6565358, 40.8654145]]}, "properties": {"cycleway:right": "lane", "highway": "primary", "junction": "roundabout", "lanes": "2", "name": "Rotunda do Carregal", "ref": "EN 327", "sidewalk": "right", "surface": "asphalt"}}, {"type": "Feature", "geometry": {"type": "LineString", "coordinates": [[-8.6565418, 40.8657299], [-8.6564893, 40.8658881], [-8.6564687, 40.8659503], [-8.6564495, 40.866008], [-8.6564297, 40.8660677], [-8.6564074, 40.8661349], [-8.6563878, 40.866194]]}, "properties": {"cycleway:right": "separate", "highway": "primary", "lanes": "2", "name": "Avenida Dom Manuel I", "note": "name from street sign", "oneway": "no", "oneway:bicycle": "no", "ref": "EN 327", "segregated": "no", "surface": "asphalt"}}, {"type": "Feature", "geometry": {"type": "LineString", "coordinates": [[-8.637067, 40.8760566], [-8.6359769, 40.8765248], [-8.6357999, 40.8766008], [-8.6350236, 40.8769341], [-8.6348697, 40.8770002], [-8.6347099, 40.8770688], [-8.6345741, 40.8771272], [-8.6344489, 40.8771809], [-8.6343427, 40.8772265], [-8.6342431, 40.8772693], [-8.6341462, 40.8773109], [-8.6340684, 40.877342]]}, "properties": {"cycleway:right": "separate", "highway": "primary", "lanes": "2", "name": "Avenida Dom Manuel I", "oneway": "no", "oneway:bicycle": "no", "ref": "EN 327", "segregated": "no", "surface": "asphalt"}}, {"type": "Feature", "geometry": {"type": "LineString", "coordinates": [[-8.6321864, 40.8780581], [-8.631817, 40.8781854], [-8.631164, 40.8783691], [-8.6301973, 40.8785758], [-8.6293453, 40.8787045], [-8.6276496, 40.878861], [-8.6228537, 40.8793035], [-8.6219111, 40.8793479]]}, "properties": {"cycleway:right": "separate", "highway": "primary", "lanes": "1", "name": "Avenida Dom Manuel I", "oneway": "yes", "oneway:bicycle": "no", "parking:both": "no", "placement": "left_of:1", "ref": "EN 327", "segregated": "no", "source": "Bing", "surface": "asphalt"}}, {"type": "Feature", "geometry": {"type": "LineString", "coordinates": [[-8.6205957, 40.8793977], [-8.6203945, 40.8794857], [-8.6201563, 40.8795147], [-8.6190839, 40.8796454], [-8.619024, 40.8796527]]}, "properties": {"check_date:surface": "2025-02-23", "highway": "primary", "lanes": "2", "name": "Avenida Dom Manuel I", "oneway": "yes", "parking:both": "no", "ref": "EN 327", "smoothness": "good", "source": "Bing", "surface": "asphalt"}}, {"type": "Feature", "geometry": {"type": "LineString", "coordinates": [[-8.619024, 40.8796527], [-8.6186469, 40.8796896]]}, "properties": {"bridge": "yes", "highway": "primary", "lanes": "2", "layer": "1", "maxweight:signed": "no", "name": "Avenida Dom Manuel I", "oneway": "yes", "parking:both": "no", "ref": "EN 327", "source": "Bing", "surface": "asphalt"}}, {"type": "Feature", "geometry": {"type": "LineString", "coordinates": [[-8.6186469, 40.8796896], [-8.6181453, 40.8797393], [-8.6180182, 40.8797333], [-8.6178795, 40.8796976], [-8.6177875, 40.8796739]]}, "properties": {"check_date:surface": "2025-02-23", "highway": "primary", "lanes": "2", "name": "Avenida Dom Manuel I", "oneway": "yes", "parking:both": "no", "ref": "EN 327", "smoothness": "good", "source": "Bing", "surface": "asphalt"}}, {"type": "Feature", "geometry": {"type": "LineString", "coordinates": [[-8.6177752, 40.8798997], [-8.6180124, 40.8798135], [-8.6182524, 40.8797855], [-8.6186565, 40.8797517]]}, "properties": {"check_date:surface": "2025-02-23", "highway": "primary", "lanes": "1", "name": "Avenida Dom Manuel I", "oneway": "yes", "parking:both": "no", "placement": "left_of:1", "ref": "EN 327", "smoothness": "good", "source": "Bing", "surface": "asphalt"}}, {"type": "Feature", "geometry": {"type": "LineString", "coordinates": [[-8.6750358, 40.7909976], [-8.6750236, 40.7910511], [-8.6750017, 40.7912138], [-8.6749266, 40.7913681], [-8.6748138, 40.7915297]]}, "properties": {"highway": "primary", "lanes": "1", "name": "Rua Francisco Ramada", "oneway": "yes", "placement": "left_of:1", "ref": "EN 327", "surface": "asphalt"}}, {"type": "Feature", "geometry": {"type": "LineString", "coordinates": [[-8.6759432, 40.7905447], [-8.6757951, 40.7906135], [-8.6756994, 40.7906502], [-8.6755801, 40.7906804], [-8.6754474, 40.7907007], [-8.6752995, 40.7907198]]}, "properties": {"cycleway:left": "no", "cycleway:right": "separate", "highway": "primary", "lanes": "2", "oneway": "yes", "oneway:bicycle": "no", "ref": "EN 327", "segregated": "no", "surface": "asphalt"}}, {"type": "Feature", "geometry": {"type": "LineString", "coordinates": [[-8.6796127, 40.788206], [-8.6795585, 40.7882548], [-8.6795102, 40.7883117], [-8.6794459, 40.7883747], [-8.6793547, 40.7884457], [-8.6792581, 40.7885107], [-8.6790736, 40.7886354], [-8.6782237, 40.7891649], [-8.6773258, 40.7897159], [-8.6771355, 40.7898313], [-8.6769915, 40.7899187], [-8.6768593, 40.7899989], [-8.6767373, 40.7900729], [-8.6766234, 40.790142], [-8.6765224, 40.7902058], [-8.6764276, 40.7902622], [-8.6763418, 40.7903132], [-8.6762667, 40.7903579], [-8.676194, 40.790401], [-8.676127, 40.7904409], [-8.6760587, 40.7904808], [-8.6759432, 40.7905447]]}, "properties": {"bicycle": "yes", "cycleway:left": "no", "cycleway:right": "separate", "highway": "primary", "lanes": "2", "oneway": "yes", "oneway:bicycle": "no", "ref": "EN 327", "segregated": "no", "shoulder": "no", "surface": "asphalt"}}, {"type": "Feature", "geometry": {"type": "LineString", "coordinates": [[-8.6641747, 40.8365963], [-8.6642257, 40.8355672], [-8.6643025, 40.8345406], [-8.6643372, 40.8340637], [-8.6643391, 40.8340095], [-8.6643425, 40.8339144], [-8.6643684, 40.8331819], [-8.6644414, 40.8320872], [-8.6644502, 40.831923], [-8.6644785, 40.8313945], [-8.6645641, 40.8307709], [-8.6645748, 40.8306933], [-8.664712, 40.8300987], [-8.6648825, 40.8295799], [-8.6650937, 40.8290582], [-8.6655361, 40.8280969], [-8.6656237, 40.827928], [-8.6658007, 40.8275688], [-8.6659143, 40.8273421], [-8.6662591, 40.8266119], [-8.6663927, 40.8263291], [-8.6665911, 40.825909], [-8.6669306, 40.8251571], [-8.6671518, 40.8246779], [-8.667386, 40.8241706], [-8.6675117, 40.8238983], [-8.6676309, 40.82364], [-8.6679594, 40.822955], [-8.6681635, 40.8225246], [-8.6684355, 40.8219503], [-8.6685323, 40.8217626], [-8.6687146, 40.8213829], [-8.6690098, 40.8207431], [-8.6690689, 40.820615], [-8.6692403, 40.8202434], [-8.6693901, 40.8199188], [-8.6694314, 40.8198094], [-8.6695514, 40.8194912], [-8.669607, 40.8192744]]}, "properties": {"highway": "primary", "lanes": "2", "name": "Rua Francisco Ramada", "oneway": "no", "ref": "EN 327", "surface": "asphalt"}}, {"type": "Feature", "geometry": {"type": "LineString", "coordinates": [[-8.6568304, 40.86484], [-8.6568612, 40.8647474], [-8.6568797, 40.8646916], [-8.6569011, 40.8646272], [-8.6569205, 40.8645687], [-8.6569415, 40.8645055], [-8.6569674, 40.8644277], [-8.656994, 40.8643476], [-8.6570206, 40.8642675], [-8.657028, 40.8642442], [-8.6570595, 40.8641444], [-8.6570939, 40.8640354], [-8.6571146, 40.8639696], [-8.6571334, 40.8639122]]}, "properties": {"highway": "primary", "lanes": "2", "name": "Rua Fam\u00edlia Colares Pinto", "oneway": "no", "ref": "EN 327", "surface": "asphalt"}}, {"type": "Feature", "geometry": {"type": "LineString", "coordinates": [[-8.6748138, 40.7915297], [-8.6749663, 40.791402], [-8.6750537, 40.7913203], [-8.6751452, 40.7912526], [-8.6752186, 40.7912133], [-8.6752752, 40.7911892], [-8.6753315, 40.7911668], [-8.6754006, 40.7911373]]}, "properties": {"highway": "primary", "lanes": "1", "name": "Rua Francisco Ramada", "oneway": "yes", "placement": "left_of:1", "ref": "EN 327", "surface": "asphalt"}}, {"type": "Feature", "geometry": {"type": "LineString", "coordinates": [[-8.6030377, 40.8862361], [-8.6031645, 40.8861545], [-8.6032748, 40.8860805], [-8.6033821, 40.8860345], [-8.603669, 40.885939]]}, "properties": {"highway": "primary", "lanes": "1", "oneway": "yes", "placement": "left_of:1", "ref": "EN 327", "surface": "asphalt"}}, {"type": "Feature", "geometry": {"type": "LineString", "coordinates": [[-8.6025037, 40.8862099], [-8.6024182, 40.8863579], [-8.6023689, 40.8864371], [-8.6022993, 40.8865071], [-8.602138, 40.8866568]]}, "properties": {"highway": "primary", "lanes": "1", "oneway": "yes", "placement": "left_of:1", "ref": "EN 327", "surface": "asphalt"}}, {"type": "Feature", "geometry": {"type": "LineString", "coordinates": [[-8.602138, 40.8866568], [-8.6021632, 40.8866392], [-8.6022171, 40.8866014], [-8.6022699, 40.8865674], [-8.6023554, 40.8865122], [-8.6024925, 40.8864381], [-8.6026337, 40.8863979], [-8.6027727, 40.8863632]]}, "properties": {"highway": "primary", "lanes": "1", "oneway": "yes", "placement": "left_of:1", "ref": "EN 327", "surface": "asphalt"}}, {"type": "Feature", "geometry": {"type": "LineString", "coordinates": [[-8.596201, 40.8912388], [-8.5962231, 40.8910797], [-8.5963237, 40.8908755]]}, "properties": {"destination": "Ovar;Furadouro", "destination:ref": "EN 327", "highway": "primary", "lanes": "1", "oneway": "yes", "placement": "left_of:1", "ref": "EN 327", "surface": "asphalt"}}, {"type": "Feature", "geometry": {"type": "LineString", "coordinates": [[-8.616668, 40.8797514], [-8.6146364, 40.8797304], [-8.6137938, 40.8797403], [-8.6132887, 40.879766], [-8.6128805, 40.8798313], [-8.6125272, 40.8799144], [-8.6121137, 40.8800272], [-8.6117003, 40.8801617], [-8.6113941, 40.8803042], [-8.611012, 40.8805021], [-8.6106718, 40.8807158], [-8.6103369, 40.8809651], [-8.6099941, 40.8812856], [-8.6096277, 40.8816694], [-8.6094016, 40.8819321], [-8.6091985, 40.882168], [-8.6083585, 40.8831197], [-8.6077252, 40.8838399], [-8.6072463, 40.8843424], [-8.6069087, 40.8846352], [-8.606613, 40.8848311], [-8.6063539, 40.8849973], [-8.6059562, 40.8851991], [-8.6054694, 40.8853949], [-8.6048178, 40.8856106], [-8.603669, 40.885939]]}, "properties": {"highway": "primary", "lanes": "2", "oneway": "no", "ref": "EN 327", "sidewalk": "no", "smoothness": "good", "source": "Bing", "surface": "asphalt"}}, {"type": "Feature", "geometry": {"type": "LineString", "coordinates": [[-8.5963237, 40.8908755], [-8.5960631, 40.8910133], [-8.5959091, 40.8910698]]}, "properties": {"highway": "primary", "lanes": "2", "oneway": "yes", "ref": "EN 327", "surface": "asphalt"}}, {"type": "Feature", "geometry": {"type": "LineString", "coordinates": [[-8.6173423, 40.8796603], [-8.6173074, 40.8796688], [-8.6171329, 40.8797112], [-8.616668, 40.8797514]]}, "properties": {"check_date:surface": "2025-02-23", "highway": "primary", "lanes": "1", "oneway": "yes", "placement": "left_of:1", "ref": "EN 327", "smoothness": "good", "source": "Bing", "surface": "asphalt"}}, {"type": "Feature", "geometry": {"type": "LineString", "coordinates": [[-8.616668, 40.8797514], [-8.6171155, 40.8798046], [-8.6172228, 40.8798451], [-8.61733, 40.8798856]]}, "properties": {"check_date:surface": "2025-02-23", "highway": "primary", "lanes": "2", "oneway": "yes", "ref": "EN 327", "smoothness": "good", "source": "Bing", "surface": "asphalt"}}, {"type": "Feature", "geometry": {"type": "LineString", "coordinates": [[-8.5959091, 40.8910698], [-8.5958071, 40.891083], [-8.5957168, 40.8911214], [-8.5956489, 40.8911805], [-8.5956113, 40.8912534], [-8.5956083, 40.8913316]]}, "properties": {"highway": "primary", "junction": "roundabout", "lanes": "2", "ref": "EN 327", "surface": "asphalt"}}, {"type": "Feature", "geometry": {"type": "LineString", "coordinates": [[-8.602138, 40.8866568], [-8.6021123, 40.8866762], [-8.602054, 40.8867215], [-8.6019853, 40.886775], [-8.6019121, 40.886832], [-8.60183, 40.8868959], [-8.6018188, 40.8869046], [-8.6006162, 40.8878407], [-8.6002955, 40.8880913], [-8.5997428, 40.8885232], [-8.5993438, 40.8887903], [-8.5987517, 40.8891464], [-8.5978979, 40.889636], [-8.5974792, 40.8898982], [-8.5971619, 40.8901257], [-8.5968806, 40.8903606], [-8.5963237, 40.8908755]]}, "properties": {"highway": "primary", "lanes": "2", "ref": "EN 327", "sidewalk": "no", "surface": "asphalt"}}, {"type": "Feature", "geometry": {"type": "LineString", "coordinates": [[-8.6026821, 40.8859434], [-8.6026055, 40.8859744], [-8.6025447, 40.8860214], [-8.6025055, 40.88608], [-8.6024914, 40.8861448], [-8.6025037, 40.8862099]]}, "properties": {"highway": "primary", "junction": "roundabout", "lanes": "2", "ref": "EN 327", "surface": "asphalt"}}, {"type": "Feature", "geometry": {"type": "LineString", "coordinates": [[-8.6984954, 40.7653017], [-8.6983819, 40.765572], [-8.6983415, 40.7656884]]}, "properties": {"highway": "primary", "lanes": "1", "name": "Avenida Engenheiro Duarte Pacheco", "oneway": "yes", "placement": "left_of:1", "ref": "EN 327", "source": "Bing", "surface": "asphalt"}}, {"type": "Feature", "geometry": {"type": "LineString", "coordinates": [[-8.6925169, 40.7757257], [-8.6925484, 40.7757635], [-8.692594, 40.7757918], [-8.6926491, 40.7758078], [-8.692708, 40.7758097], [-8.6927648, 40.7757975], [-8.692813, 40.7757726], [-8.6928486, 40.7757376], [-8.6928673, 40.7756985], [-8.6928699, 40.7756569], [-8.6928578, 40.7756172], [-8.6928243, 40.7755784]]}, "properties": {"highway": "primary", "junction": "roundabout", "lanes": "2", "ref": "EN 327", "surface": "asphalt"}}, {"type": "Feature", "geometry": {"type": "LineString", "coordinates": [[-8.6878939, 40.7823089], [-8.6879104, 40.7823394], [-8.6879391, 40.7823641], [-8.687977, 40.7823804], [-8.6880198, 40.7823864], [-8.6880628, 40.7823814], [-8.6880798, 40.7823762], [-8.6880957, 40.7823692], [-8.6881244, 40.7823491], [-8.688144, 40.7823235], [-8.6881528, 40.7822946], [-8.68815, 40.7822651]]}, "properties": {"highway": "primary", "junction": "roundabout", "lanes": "2", "ref": "EN 327", "source": "Bing", "surface": "asphalt"}}, {"type": "Feature", "geometry": {"type": "LineString", "coordinates": [[-8.6798871, 40.7880404], [-8.6798204, 40.7880366], [-8.6797552, 40.7880479], [-8.6796973, 40.7880732]]}, "properties": {"cycleway:right": "lane", "highway": "primary", "junction": "roundabout", "lanes": "2", "oneway:bicycle": "no", "ref": "EN 327", "segregated": "no", "surface": "asphalt"}}, {"type": "Feature", "geometry": {"type": "LineString", "coordinates": [[-8.6210968, 40.8795317], [-8.6213115, 40.8794647], [-8.6219351, 40.8794164], [-8.6228696, 40.8793577], [-8.6267391, 40.8789974], [-8.6286057, 40.8788236]]}, "properties": {"highway": "primary", "lanes": "1", "name": "Avenida Dom Manuel I", "oneway": "yes", "parking:both": "no", "placement": "left_of:1", "ref": "EN 327", "source": "Bing", "surface": "asphalt"}}, {"type": "Feature", "geometry": {"type": "LineString", "coordinates": [[-8.6389563, 40.8750595], [-8.638929, 40.8751168], [-8.6389187, 40.8751948]]}, "properties": {"cycleway:right": "separate", "highway": "primary", "junction": "roundabout", "lanes": "2", "name": "Avenida Dom Manuel I", "oneway:bicycle": "no", "ref": "EN 327", "segregated": "no", "source": "Bing", "surface": "asphalt"}}, {"type": "Feature", "geometry": {"type": "LineString", "coordinates": [[-8.6331309, 40.877556], [-8.6330268, 40.8775496]]}, "properties": {"cycleway:right": "separate", "highway": "primary", "junction": "roundabout", "lanes": "2", "name": "Avenida Dom Manuel I", "oneway:bicycle": "no", "ref": "EN 327", "segregated": "no", "source": "Bing", "surface": "asphalt"}}, {"type": "Feature", "geometry": {"type": "LineString", "coordinates": [[-8.6389187, 40.8751948], [-8.638779, 40.875297], [-8.638641, 40.8753807]]}, "properties": {"cycleway:right": "separate", "highway": "primary", "lanes": "1", "name": "Avenida Dom Manuel I", "oneway": "yes", "placement": "left_of:1", "ref": "EN 327", "segregated": "no", "source": "Bing", "surface": "asphalt"}}, {"type": "Feature", "geometry": {"type": "LineString", "coordinates": [[-8.6394477, 40.8751563], [-8.6395645, 40.8750438], [-8.6397829, 40.8748933]]}, "properties": {"highway": "primary", "lanes": "1", "name": "Avenida Dom Manuel I", "oneway": "yes", "placement": "left_of:1", "ref": "EN 327", "source": "Bing", "surface": "asphalt"}}, {"type": "Feature", "geometry": {"type": "LineString", "coordinates": [[-8.638641, 40.8753807], [-8.638817, 40.8753593], [-8.6390138, 40.8753302]]}, "properties": {"highway": "primary", "lanes": "1", "name": "Avenida Dom Manuel I", "oneway": "yes", "placement": "left_of:1", "ref": "EN 327", "source": "Bing", "surface": "asphalt"}}, {"type": "Feature", "geometry": {"type": "LineString", "coordinates": [[-8.6397829, 40.8748933], [-8.6395007, 40.8749675], [-8.63926, 40.874983]]}, "properties": {"cycleway:right": "track", "highway": "primary", "lanes": "1", "name": "Avenida Dom Manuel I", "oneway": "yes", "oneway:bicycle": "no", "placement": "left_of:1", "ref": "EN 327", "segregated": "no", "source": "Bing", "surface": "asphalt"}}, {"type": "Feature", "geometry": {"type": "LineString", "coordinates": [[-8.632798, 40.8777323], [-8.6326391, 40.8778252], [-8.6325184, 40.8778946], [-8.6321864, 40.8780581]]}, "properties": {"cycleway:right": "separate", "highway": "primary", "lanes": "1", "name": "Avenida Dom Manuel I", "oneway": "yes", "oneway:bicycle": "no", "placement": "left_of:1", "ref": "EN 327", "segregated": "no", "source": "Bing", "surface": "asphalt"}}, {"type": "Feature", "geometry": {"type": "LineString", "coordinates": [[-8.6333133, 40.8778041], [-8.6334385, 40.8776432], [-8.6335288, 40.8775917], [-8.6338952, 40.8774295], [-8.6340684, 40.877342]]}, "properties": {"highway": "primary", "lanes": "1", "name": "Avenida Dom Manuel I", "oneway": "yes", "placement": "left_of:1", "ref": "EN 327", "source": "Bing", "surface": "asphalt"}}, {"type": "Feature", "geometry": {"type": "LineString", "coordinates": [[-8.6340684, 40.877342], [-8.6339854, 40.8773645], [-8.6339119, 40.8773879], [-8.6338383, 40.8774113], [-8.6334686, 40.8775126], [-8.6332815, 40.8775512], [-8.6332558, 40.877552], [-8.6331309, 40.877556]]}, "properties": {"cycleway:right": "separate", "highway": "primary", "lanes": "1", "name": "Avenida Dom Manuel I", "oneway": "yes", "oneway:bicycle": "no", "placement": "left_of:1", "ref": "EN 327", "segregated": "no", "source": "Bing", "surface": "asphalt"}}, {"type": "Feature", "geometry": {"type": "LineString", "coordinates": [[-8.6210858, 40.8793783], [-8.6210242, 40.879316], [-8.6209347, 40.8792757]]}, "properties": {"cycleway:right": "separate", "highway": "primary", "junction": "roundabout", "lanes": "1", "lit": "yes", "name": "Avenida Dom Manuel I", "oneway:bicycle": "no", "ref": "EN 327", "segregated": "no", "smoothness": "good", "source": "Bing", "surface": "asphalt"}}, {"type": "Feature", "geometry": {"type": "LineString", "coordinates": [[-8.6186565, 40.8797517], [-8.6190332, 40.8797123]]}, "properties": {"bridge": "yes", "highway": "primary", "lanes": "1", "layer": "1", "maxweight:signed": "no", "name": "Avenida Dom Manuel I", "oneway": "yes", "parking:both": "no", "ref": "EN 327", "source": "Bing", "surface": "asphalt"}}, {"type": "Feature", "geometry": {"type": "LineString", "coordinates": [[-8.6190332, 40.8797123], [-8.6200964, 40.8795889], [-8.6204061, 40.8795519], [-8.6205383, 40.8795556], [-8.6206674, 40.8796139]]}, "properties": {"highway": "primary", "lanes": "1", "name": "Avenida Dom Manuel I", "oneway": "yes", "parking:both": "no", "ref": "EN 327", "smoothness": "good", "source": "Bing", "surface": "asphalt"}}, {"type": "Feature", "geometry": {"type": "LineString", "coordinates": [[-8.6174194, 40.8796067], [-8.6173774, 40.8796306], [-8.6173423, 40.8796603], [-8.6173156, 40.8796946], [-8.6172982, 40.8797321], [-8.6172909, 40.8797715], [-8.6172939, 40.8798112], [-8.6173071, 40.8798497], [-8.61733, 40.8798856], [-8.6173617, 40.8799173]]}, "properties": {"highway": "primary", "junction": "roundabout", "lanes": "2", "ref": "EN 109;EN 327", "smoothness": "good", "surface": "asphalt"}}, {"type": "Feature", "geometry": {"type": "LineString", "coordinates": [[-8.6984954, 40.7653017], [-8.6988997, 40.7639939], [-8.6989885, 40.7637147], [-8.6991596, 40.7631766], [-8.6993943, 40.7626461], [-8.6996912, 40.7621321], [-8.7007139, 40.7607175], [-8.7008117, 40.7605823], [-8.701615, 40.7594187], [-8.7016671, 40.7593054], [-8.7017605, 40.759045]]}, "properties": {"highway": "primary", "lanes": "2", "lit": "yes", "name": "Avenida Engenheiro Duarte Pacheco", "oneway": "no", "ref": "EN 327", "sidewalk": "both", "source": "Bing", "surface": "asphalt"}}, {"type": "Feature", "geometry": {"type": "LineString", "coordinates": [[-8.6925169, 40.7757257], [-8.6925153, 40.7758002], [-8.6925148, 40.7758621], [-8.6925053, 40.7759212], [-8.6924869, 40.7759817], [-8.6921909, 40.7765334], [-8.691929, 40.7769587], [-8.6917966, 40.7771569], [-8.6917117, 40.7772796], [-8.6916125, 40.7774116], [-8.6911636, 40.778008], [-8.6908283, 40.7784629], [-8.690258, 40.7792355], [-8.6898788, 40.7797466], [-8.6891868, 40.7806768], [-8.6890407, 40.780872], [-8.6889504, 40.7809926], [-8.6888667, 40.7811045], [-8.6887895, 40.7812076], [-8.6887178, 40.7813034], [-8.6886496, 40.7813946], [-8.688592, 40.7814738], [-8.6885348, 40.781548], [-8.6884859, 40.7816132], [-8.6884433, 40.7816701], [-8.6884016, 40.7817259], [-8.6883574, 40.781785], [-8.6881266, 40.7820559], [-8.688063, 40.7821208], [-8.6880156, 40.7821622], [-8.6879652, 40.7821973]]}, "properties": {"cycleway:left": "no", "cycleway:right": "separate", "highway": "primary", "lanes": "2", "oneway": "yes", "oneway:bicycle": "no", "ref": "EN 327", "segregated": "no", "surface": "asphalt"}}, {"type": "Feature", "geometry": {"type": "LineString", "coordinates": [[-8.6928228, 40.77545], [-8.6928329, 40.7753886], [-8.6928785, 40.7752627], [-8.692959, 40.7750697], [-8.6929856, 40.7750097]]}, "properties": {"bicycle": "no", "highway": "primary", "lanes": "1", "oneway": "yes", "placement": "transition", "ref": "EN 327", "surface": "asphalt"}}, {"type": "Feature", "geometry": {"type": "LineString", "coordinates": [[-8.6980277, 40.7661148], [-8.6982017, 40.765993], [-8.6982843, 40.7659488]]}, "properties": {"cycleway:left": "no", "cycleway:right": "separate", "highway": "primary", "lanes": "1", "oneway": "yes", "placement": "transition", "ref": "EN 327", "surface": "asphalt"}}, {"type": "Feature", "geometry": {"type": "LineString", "coordinates": [[-8.6985734, 40.7656481], [-8.6985299, 40.7655997], [-8.6985058, 40.765557], [-8.6984818, 40.7655047], [-8.6984741, 40.7654637], [-8.6984954, 40.7653017]]}, "properties": {"highway": "primary", "lanes": "1", "name": "Avenida Engenheiro Duarte Pacheco", "oneway": "yes", "placement": "left_of:1", "ref": "EN 327", "source": "Bing", "surface": "asphalt"}}, {"type": "Feature", "geometry": {"type": "LineString", "coordinates": [[-8.7301767, 40.6609504], [-8.730466, 40.661358]]}, "properties": {"highway": "primary", "lanes": "1", "name": "Rua 25 de Abril", "oneway": "yes", "placement": "left_of:1", "ref": "EN 327", "source": "Bing", "surface": "asphalt"}}, {"type": "Feature", "geometry": {"type": "LineString", "coordinates": [[-8.7298303, 40.6632139], [-8.7298853, 40.6631233], [-8.7302312, 40.6625533]]}, "properties": {"highway": "primary", "lanes": "2", "maxspeed": "40", "name": "Rua 25 de Abril", "oneway": "no", "ref": "EN 327", "source": "Bing", "surface": "asphalt"}}, {"type": "Feature", "geometry": {"type": "LineString", "coordinates": [[-8.7303355, 40.6608741], [-8.7302713, 40.6608822], [-8.7302142, 40.6609116], [-8.7301767, 40.6609504]]}, "properties": {"highway": "primary", "lanes": "2", "name": "Avenida Marginal", "oneway": "yes", "ref": "EN 327", "surface": "asphalt"}}, {"type": "Feature", "geometry": {"type": "LineString", "coordinates": [[-8.7305605, 40.6615885], [-8.7305219, 40.6614518], [-8.730466, 40.661358]]}, "properties": {"highway": "primary", "lanes": "2", "name": "Rua 25 de Abril", "oneway": "no", "ref": "EN 327", "source": "Bing", "surface": "asphalt"}}, {"type": "Feature", "geometry": {"type": "LineString", "coordinates": [[-8.730466, 40.661358], [-8.7305351, 40.6612348], [-8.7305459, 40.6612029], [-8.7305449, 40.6611774], [-8.7303355, 40.6608741]]}, "properties": {"highway": "primary", "lanes": "1", "name": "Rua 25 de Abril", "oneway": "yes", "placement": "left_of:1", "ref": "EN 327", "surface": "asphalt"}}, {"type": "Feature", "geometry": {"type": "LineString", "coordinates": [[-8.6986421, 40.7658394], [-8.698663, 40.7658015], [-8.698668, 40.7657607], [-8.6986569, 40.7657205], [-8.6986305, 40.7656847], [-8.6985912, 40.7656564], [-8.6985734, 40.7656481], [-8.6985332, 40.7656361], [-8.6984904, 40.7656318], [-8.6984475, 40.7656352], [-8.6984068, 40.7656463], [-8.6983708, 40.7656644], [-8.6983415, 40.7656884], [-8.6983302, 40.7657019]]}, "properties": {"highway": "primary", "junction": "roundabout", "lanes": "2", "ref": "EN 327", "surface": "asphalt"}}, {"type": "Feature", "geometry": {"type": "LineString", "coordinates": [[-8.6755862, 40.7909746], [-8.6756201, 40.7909267], [-8.6756555, 40.7908779], [-8.6757017, 40.79082], [-8.6757499, 40.7907746], [-8.6757844, 40.7907473]]}, "properties": {"bicycle": "yes", "highway": "primary", "lanes": "1", "oneway": "yes", "placement": "left_of:1", "ref": "EN 327", "shoulder": "no", "surface": "asphalt"}}, {"type": "Feature", "geometry": {"type": "LineString", "coordinates": [[-8.6754351, 40.7911285], [-8.6754773, 40.791109], [-8.6755177, 40.7910816], [-8.6755593, 40.7910375], [-8.6755799, 40.7910006], [-8.6755862, 40.7909746], [-8.6755929, 40.7909467], [-8.6755914, 40.7909101], [-8.6755762, 40.7908617], [-8.6755503, 40.7908213], [-8.6755191, 40.7907901], [-8.6754766, 40.7907612], [-8.6754167, 40.7907358], [-8.6753763, 40.7907258], [-8.6752995, 40.7907198], [-8.6752579, 40.7907231], [-8.67521, 40.790733], [-8.6751533, 40.7907545], [-8.6751078, 40.7907823], [-8.6750861, 40.7908006], [-8.6750449, 40.7908537], [-8.6750288, 40.7908948], [-8.6750237, 40.7909335], [-8.6750297, 40.7909651], [-8.6750358, 40.7909976], [-8.6750528, 40.7910302], [-8.6751029, 40.7910845], [-8.6751548, 40.7911168], [-8.6752086, 40.7911372], [-8.6752832, 40.7911501], [-8.6753214, 40.7911507], [-8.6753625, 40.791147], [-8.6754006, 40.7911373], [-8.6754351, 40.7911285]]}, "properties": {"highway": "primary", "junction": "roundabout", "lanes": "2", "ref": "EN 327", "surface": "asphalt"}}, {"type": "Feature", "geometry": {"type": "LineString", "coordinates": [[-8.6878939, 40.7823089], [-8.6878841, 40.782341], [-8.6878627, 40.7823938], [-8.6878037, 40.7824953], [-8.687742, 40.7825786], [-8.6876508, 40.7826862], [-8.6875623, 40.7827695], [-8.6874231, 40.7828891], [-8.6870488, 40.7831551], [-8.6862343, 40.7837375], [-8.6854634, 40.7842867], [-8.683751, 40.7855123], [-8.6836162, 40.7856092], [-8.6832854, 40.7858415], [-8.6830364, 40.7860189], [-8.682747, 40.7862307], [-8.6823679, 40.786489], [-8.6820671, 40.7867033], [-8.6814893, 40.7871203], [-8.6813574, 40.7872115], [-8.6812262, 40.787299], [-8.6811076, 40.7873766], [-8.6809909, 40.7874507], [-8.6808958, 40.7875113], [-8.6808007, 40.7875719], [-8.680711, 40.7876292], [-8.6806364, 40.7876767], [-8.6805749, 40.7877159], [-8.6805112, 40.787756], [-8.6804386, 40.7878001], [-8.6803821, 40.7878345], [-8.6802773, 40.787895], [-8.6801863, 40.7879381], [-8.6800924, 40.7879821], [-8.6800308, 40.7880071], [-8.6799422, 40.7880315], [-8.6798871, 40.7880404]]}, "properties": {"cycleway:left": "no", "cycleway:right": "separate", "highway": "primary", "lanes": "2", "oneway": "yes", "oneway:bicycle": "no", "ref": "EN 327", "segregated": "no", "surface": "asphalt"}}, {"type": "Feature", "geometry": {"type": "LineString", "coordinates": [[-8.6800617, 40.788206], [-8.6800815, 40.7881631], [-8.68013, 40.7881127], [-8.6801753, 40.7880697], [-8.6802907, 40.7879762], [-8.6803872, 40.7878991], [-8.6805079, 40.7878158], [-8.680779, 40.7876416], [-8.6812135, 40.7873674], [-8.6818492, 40.7869206]]}, "properties": {"bicycle": "no", "highway": "primary", "lanes": "1", "oneway": "yes", "placement": "left_of:1", "ref": "EN 327", "surface": "asphalt"}}, {"type": "Feature", "geometry": {"type": "LineString", "coordinates": [[-8.6818492, 40.7869206], [-8.6821253, 40.7867263], [-8.6825625, 40.7864186], [-8.6833296, 40.7858722], [-8.6836351, 40.7856545], [-8.6837595, 40.785566], [-8.6838312, 40.7855149], [-8.6848316, 40.784796], [-8.6860683, 40.7839129], [-8.686249, 40.7837845], [-8.6868096, 40.7833862], [-8.6869391, 40.7832942], [-8.6870687, 40.7832021], [-8.6871366, 40.7831528], [-8.6871754, 40.7831247], [-8.6872821, 40.7830473], [-8.6873797, 40.7829765], [-8.6874624, 40.7829174], [-8.6875448, 40.7828539], [-8.6876067, 40.7828029], [-8.6876239, 40.7827887], [-8.6876641, 40.7827488], [-8.6877178, 40.7826952], [-8.6877715, 40.7826416], [-8.6879002, 40.7825136], [-8.6879511, 40.7824624], [-8.6879968, 40.7824263], [-8.6880628, 40.7823814]]}, "properties": {"bicycle": "no", "highway": "primary", "lanes": "1", "oneway": "yes", "placement": "left_of:1", "ref": "EN 327", "surface": "asphalt"}}, {"type": "Feature", "geometry": {"type": "LineString", "coordinates": [[-8.6881413, 40.7822455], [-8.6881632, 40.7821947], [-8.6882193, 40.7820967], [-8.6882749, 40.7820152], [-8.6884143, 40.7818099], [-8.6884355, 40.7817813], [-8.6886815, 40.781449], [-8.6891911, 40.7807607], [-8.6898866, 40.7798175], [-8.6904202, 40.7791041], [-8.6908108, 40.7785761], [-8.691781, 40.7772724], [-8.6919308, 40.7770469], [-8.6920134, 40.7769233], [-8.6920856, 40.7768096], [-8.6921551, 40.7766977], [-8.6922163, 40.7765961], [-8.692272, 40.7765036], [-8.6923236, 40.7764181], [-8.6923657, 40.7763482], [-8.6924089, 40.7762764], [-8.6924457, 40.7762161], [-8.6924788, 40.7761605], [-8.6925164, 40.7760966], [-8.6925781, 40.7759919], [-8.6926451, 40.7758903], [-8.6926854, 40.7758456], [-8.6927648, 40.7757975]]}, "properties": {"bicycle": "no", "highway": "primary", "lanes": "1", "oneway": "yes", "placement": "left_of:1", "ref": "EN 327", "surface": "asphalt"}}, {"type": "Feature", "geometry": {"type": "LineString", "coordinates": [[-8.6929856, 40.7750097], [-8.6932835, 40.7743264], [-8.6933787, 40.7741072], [-8.6937403, 40.7732892], [-8.6939174, 40.7728766], [-8.6941049, 40.7724416], [-8.6941674, 40.7723013], [-8.694282, 40.7720171], [-8.6942938, 40.7719906], [-8.6945346, 40.7714431], [-8.694608, 40.771275], [-8.6948912, 40.7706257], [-8.6949762, 40.7704308], [-8.6949943, 40.7703894]]}, "properties": {"bicycle": "no", "highway": "primary", "lanes": "1", "oneway": "yes", "ref": "EN 327", "surface": "asphalt"}}, {"type": "Feature", "geometry": {"type": "LineString", "coordinates": [[-8.698321, 40.7657163], [-8.6982697, 40.7657764], [-8.6982429, 40.7658191], [-8.6982009, 40.7658897], [-8.6981644, 40.7659413], [-8.6981222, 40.7659857], [-8.697913, 40.7661461], [-8.6969357, 40.7669031], [-8.6963322, 40.7673804], [-8.6962518, 40.7674495], [-8.6961722, 40.7675235], [-8.6961025, 40.7675945], [-8.6960354, 40.7676656], [-8.6959013, 40.7678322], [-8.695837, 40.7679257], [-8.695769, 40.7680203], [-8.6957082, 40.7681308], [-8.6956563, 40.7682336], [-8.6956036, 40.7683584], [-8.6955984, 40.768371], [-8.6955553, 40.7684741], [-8.6954615, 40.7687809], [-8.6950886, 40.7699977], [-8.6950515, 40.7701009]]}, "properties": {"cycleway:left": "no", "cycleway:right": "separate", "highway": "primary", "lanes": "2", "oneway": "yes", "ref": "EN 327", "surface": "asphalt"}}, {"type": "Feature", "geometry": {"type": "LineString", "coordinates": [[-8.6726467, 40.8052131], [-8.6727808, 40.8048424], [-8.6730733, 40.8041228], [-8.6731424, 40.8039529], [-8.6732662, 40.8036485], [-8.673449, 40.8031989], [-8.6740576, 40.801702], [-8.6744349, 40.8007912], [-8.6745189, 40.8004649], [-8.6745509, 40.800218], [-8.6745158, 40.7999349], [-8.6744684, 40.79972], [-8.6743694, 40.7993481], [-8.6742866, 40.799037], [-8.6740873, 40.7983352], [-8.674015, 40.7980831], [-8.6739388, 40.7978175], [-8.6734685, 40.7961006], [-8.6734492, 40.7959996], [-8.6734626, 40.7957963], [-8.6734711, 40.7956681], [-8.6735602, 40.7953108], [-8.6736362, 40.795006], [-8.6737407, 40.7945866], [-8.6740851, 40.7934172], [-8.6744287, 40.7921793], [-8.6745755, 40.7918852], [-8.6746728, 40.7917171], [-8.6748138, 40.7915297]]}, "properties": {"highway": "primary", "lanes": "2", "name": "Rua Francisco Ramada", "oneway": "no", "ref": "EN 327", "surface": "asphalt"}}, {"type": "Feature", "geometry": {"type": "LineString", "coordinates": [[-8.669607, 40.8192744], [-8.6697015, 40.8188414], [-8.6697882, 40.8184144]]}, "properties": {"highway": "primary", "lanes": "2", "name": "Rua Francisco Ramada", "oneway": "no", "ref": "EN 327", "surface": "asphalt"}}, {"type": "Feature", "geometry": {"type": "LineString", "coordinates": [[-8.603669, 40.885939], [-8.6033771, 40.8860033], [-8.6031841, 40.8860181], [-8.6029982, 40.8860101]]}, "properties": {"highway": "primary", "lanes": "1", "oneway": "yes", "placement": "left_of:1", "ref": "EN 327", "surface": "asphalt"}}, {"type": "Feature", "geometry": {"type": "LineString", "coordinates": [[-8.6565418, 40.8657299], [-8.6566653, 40.8655512]]}, "properties": {"highway": "primary", "lanes": "1", "name": "Avenida Dom Manuel I", "note": "name from street sign", "oneway": "yes", "placement": "left_of:1", "ref": "EN 327", "surface": "asphalt"}}, {"type": "Feature", "geometry": {"type": "LineString", "coordinates": [[-8.6565358, 40.8654145], [-8.6565539, 40.865528], [-8.6565418, 40.8657299]]}, "properties": {"cycleway:right": "separate", "destination:ref": "EN 327", "highway": "primary", "lanes": "1", "name": "Avenida Dom Manuel I", "note": "name from street sign", "oneway": "yes", "placement": "left_of:1", "ref": "EN 327", "surface": "asphalt"}}, {"type": "Feature", "geometry": {"type": "LineString", "coordinates": [[-8.6568965, 40.8651985], [-8.6568482, 40.8650579], [-8.6568304, 40.86484]]}, "properties": {"highway": "primary", "lanes": "1", "name": "Rua Fam\u00edlia Colares Pinto", "oneway": "yes", "placement": "left_of:1", "ref": "EN 327", "sidewalk": "separate", "surface": "asphalt"}}, {"type": "Feature", "geometry": {"type": "LineString", "coordinates": [[-8.6568304, 40.86484], [-8.6567392, 40.8650459], [-8.6566549, 40.8651261]]}, "properties": {"highway": "primary", "lanes": "1", "name": "Rua Fam\u00edlia Colares Pinto", "oneway": "yes", "placement": "left_of:1", "ref": "EN 327", "sidewalk": "separate", "surface": "asphalt"}}, {"type": "Feature", "geometry": {"type": "LineString", "coordinates": [[-8.6568965, 40.8651985], [-8.6568499, 40.8651603], [-8.6567905, 40.8651341], [-8.6567235, 40.8651224], [-8.6566549, 40.8651261]]}, "properties": {"highway": "primary", "junction": "roundabout", "lanes": "2", "name": "Rotunda do Carregal", "ref": "EN 327", "shoulder": "no", "sidewalk": "no", "surface": "asphalt"}}, {"type": "Feature", "geometry": {"type": "LineString", "coordinates": [[-8.6565908, 40.8651449], [-8.6565369, 40.8651772], [-8.656498, 40.86522], [-8.6564775, 40.8652697], [-8.6564772, 40.8653217], [-8.6564972, 40.8653714]]}, "properties": {"highway": "primary", "junction": "roundabout", "lanes": "2", "name": "Rotunda do Carregal", "ref": "EN 327", "shoulder": "no", "sidewalk": "no", "surface": "asphalt"}}, {"type": "Feature", "geometry": {"type": "LineString", "coordinates": [[-8.6568486, 40.8654331], [-8.6568955, 40.8653951], [-8.6569256, 40.8653483], [-8.6569361, 40.8652969], [-8.6569261, 40.8652455]]}, "properties": {"highway": "primary", "junction": "roundabout", "lanes": "2", "name": "Rotunda do Carregal", "ref": "EN 327", "shoulder": "no", "sidewalk": "no", "surface": "asphalt"}}, {"type": "Feature", "geometry": {"type": "LineString", "coordinates": [[-8.6569261, 40.8652455], [-8.6568965, 40.8651985]]}, "properties": {"highway": "primary", "junction": "roundabout", "lanes": "2", "lit": "yes", "name": "Rotunda do Carregal", "ref": "EN 327", "sidewalk": "separate", "surface": "asphalt"}}, {"type": "Feature", "geometry": {"type": "LineString", "coordinates": [[-8.6566549, 40.8651261], [-8.6565908, 40.8651449]]}, "properties": {"highway": "primary", "junction": "roundabout", "lanes": "2", "lit": "yes", "name": "Rotunda do Carregal", "ref": "EN 327", "sidewalk": "separate", "surface": "asphalt"}}, {"type": "Feature", "geometry": {"type": "LineString", "coordinates": [[-8.6565358, 40.8654145], [-8.6565894, 40.865447], [-8.6566533, 40.8654662], [-8.6567218, 40.8654703], [-8.6567889, 40.8654589]]}, "properties": {"highway": "primary", "junction": "roundabout", "lanes": "2", "name": "Rotunda do Carregal", "ref": "EN 327", "shoulder": "no", "sidewalk": "no", "surface": "asphalt"}}, {"type": "Feature", "geometry": {"type": "LineString", "coordinates": [[-8.6567889, 40.8654589], [-8.6568486, 40.8654331]]}, "properties": {"cycleway:right": "lane", "highway": "primary", "junction": "roundabout", "lanes": "2", "lit": "yes", "name": "Rotunda do Carregal", "ref": "EN 327", "sidewalk": "right", "surface": "asphalt"}}, {"type": "Feature", "geometry": {"type": "LineString", "coordinates": [[-8.6949497, 40.7703747], [-8.6947953, 40.7707098], [-8.6944503, 40.7715211], [-8.6939907, 40.7725746], [-8.6934283, 40.7738632], [-8.6933076, 40.7741378], [-8.6932498, 40.7742695], [-8.6931982, 40.774387], [-8.693148, 40.7745011], [-8.6931019, 40.7746062], [-8.6930587, 40.7747046], [-8.6930196, 40.7747935], [-8.6929848, 40.7748727], [-8.6929544, 40.7749418], [-8.6929268, 40.7750047], [-8.6928993, 40.7750686], [-8.6928719, 40.7751325], [-8.6927676, 40.7753248], [-8.692704, 40.7754234], [-8.6926442, 40.7754934], [-8.6926052, 40.7755459]]}, "properties": {"cycleway:left": "no", "cycleway:right": "separate", "highway": "primary", "lanes": "2", "oneway": "yes", "oneway:bicycle": "no", "ref": "EN 327", "segregated": "no", "surface": "asphalt"}}, {"type": "Feature", "geometry": {"type": "LineString", "coordinates": [[-8.6949943, 40.7703894], [-8.6950101, 40.7703514], [-8.6950727, 40.770201], [-8.6951059, 40.7701211]]}, "properties": {"bicycle": "no", "highway": "primary", "lanes": "1", "oneway": "yes", "ref": "EN 327", "surface": "asphalt"}}, {"type": "Feature", "geometry": {"type": "LineString", "coordinates": [[-8.6389187, 40.8751948], [-8.6389485, 40.8752697], [-8.6390138, 40.8753302]]}, "properties": {"highway": "primary", "junction": "roundabout", "lanes": "2", "name": "Avenida Dom Manuel I", "ref": "EN 327", "source": "Bing", "surface": "asphalt"}}, {"type": "Feature", "geometry": {"type": "LineString", "coordinates": [[-8.6390138, 40.8753302], [-8.6391056, 40.8753676], [-8.639208, 40.8753755], [-8.6393084, 40.8753526], [-8.639387, 40.8753043], [-8.6394376, 40.8752335], [-8.6394477, 40.8751563]]}, "properties": {"highway": "primary", "junction": "roundabout", "lanes": "2", "name": "Avenida Dom Manuel I", "ref": "EN 327", "source": "Bing", "surface": "asphalt"}}, {"type": "Feature", "geometry": {"type": "LineString", "coordinates": [[-8.6394477, 40.8751563], [-8.6394173, 40.8750803], [-8.6393514, 40.8750198], [-8.63926, 40.874983]]}, "properties": {"highway": "primary", "junction": "roundabout", "lanes": "2", "name": "Avenida Dom Manuel I", "ref": "EN 327", "source": "Bing", "surface": "asphalt"}}, {"type": "Feature", "geometry": {"type": "LineString", "coordinates": [[-8.63926, 40.874983], [-8.6391576, 40.8749754]]}, "properties": {"cycleway:right": "track", "highway": "primary", "junction": "roundabout", "lanes": "2", "name": "Avenida Dom Manuel I", "oneway:bicycle": "no", "ref": "EN 327", "segregated": "no", "source": "Bing", "surface": "asphalt"}}, {"type": "Feature", "geometry": {"type": "LineString", "coordinates": [[-8.6391576, 40.8749754], [-8.6390579, 40.8749982], [-8.6389563, 40.8750595]]}, "properties": {"highway": "primary", "junction": "roundabout", "lanes": "2", "name": "Avenida Dom Manuel I", "ref": "EN 327", "source": "Bing", "surface": "asphalt"}}, {"type": "Feature", "geometry": {"type": "LineString", "coordinates": [[-8.6482245, 40.8712678], [-8.6479042, 40.8714069], [-8.6452188, 40.8725598], [-8.6438705, 40.8731403], [-8.6414915, 40.8741646], [-8.6402734, 40.8746841], [-8.6397829, 40.8748933]]}, "properties": {"cycleway:right": "separate", "highway": "primary", "lanes": "2", "name": "Avenida Dom Manuel I", "oneway": "no", "oneway:bicycle": "no", "ref": "EN 327", "segregated": "no", "surface": "asphalt"}}, {"type": "Feature", "geometry": {"type": "LineString", "coordinates": [[-8.6329379, 40.8779241], [-8.6329845, 40.8779423], [-8.6330349, 40.8779457]]}, "properties": {"highway": "primary", "junction": "roundabout", "lanes": "2", "name": "Avenida Dom Manuel I", "ref": "EN 327", "source": "Bing", "surface": "asphalt"}}, {"type": "Feature", "geometry": {"type": "LineString", "coordinates": [[-8.6330268, 40.8775496], [-8.6329291, 40.8775733], [-8.6328499, 40.8776239], [-8.6328024, 40.8776934]]}, "properties": {"highway": "primary", "junction": "roundabout", "lanes": "2", "name": "Avenida Dom Manuel I", "ref": "EN 327", "source": "Bing", "surface": "asphalt"}}, {"type": "Feature", "geometry": {"type": "LineString", "coordinates": [[-8.6328024, 40.8776934], [-8.632798, 40.8777323]]}, "properties": {"cycleway:right": "separate", "highway": "primary", "junction": "roundabout", "lanes": "2", "name": "Avenida Dom Manuel I", "oneway:bicycle": "no", "ref": "EN 327", "segregated": "no", "source": "Bing", "surface": "asphalt"}}, {"type": "Feature", "geometry": {"type": "LineString", "coordinates": [[-8.6333133, 40.8778041], [-8.6333217, 40.877726], [-8.6332899, 40.8776515], [-8.6332234, 40.8775921], [-8.6331309, 40.877556]]}, "properties": {"highway": "primary", "junction": "roundabout", "lanes": "2", "name": "Avenida Dom Manuel I", "ref": "EN 327", "source": "Bing", "surface": "asphalt"}}, {"type": "Feature", "geometry": {"type": "LineString", "coordinates": [[-8.6330349, 40.8779457], [-8.6330854, 40.877949], [-8.6331869, 40.8779247], [-8.6332652, 40.8778746], [-8.6332893, 40.8778394]]}, "properties": {"highway": "primary", "junction": "roundabout", "lanes": "2", "name": "Avenida Dom Manuel I", "ref": "EN 327", "source": "Bing", "surface": "asphalt"}}, {"type": "Feature", "geometry": {"type": "LineString", "coordinates": [[-8.6332893, 40.8778394], [-8.6333133, 40.8778041]]}, "properties": {"highway": "primary", "junction": "roundabout", "lanes": "2", "name": "Avenida Dom Manuel I", "ref": "EN 327", "source": "Bing", "surface": "asphalt"}}, {"type": "Feature", "geometry": {"type": "LineString", "coordinates": [[-8.632798, 40.8777323], [-8.6327935, 40.8777712], [-8.6328251, 40.8778464], [-8.6328914, 40.8779059], [-8.6329379, 40.8779241]]}, "properties": {"highway": "primary", "junction": "roundabout", "lanes": "2", "name": "Avenida Dom Manuel I", "ref": "EN 327", "source": "Bing", "surface": "asphalt"}}, {"type": "Feature", "geometry": {"type": "LineString", "coordinates": [[-8.6205957, 40.8793977], [-8.6205806, 40.8794749], [-8.6206061, 40.8795514], [-8.6206674, 40.8796139]]}, "properties": {"highway": "primary", "junction": "roundabout", "lanes": "1", "lit": "yes", "name": "Avenida Dom Manuel I", "ref": "EN 327", "smoothness": "good", "source": "Bing", "surface": "asphalt"}}, {"type": "Feature", "geometry": {"type": "LineString", "coordinates": [[-8.6209347, 40.8792757], [-8.6208314, 40.8792645], [-8.620732, 40.8792836]]}, "properties": {"highway": "primary", "junction": "roundabout", "lanes": "1", "lit": "yes", "name": "Avenida Dom Manuel I", "ref": "EN 327", "smoothness": "good", "source": "Bing", "surface": "asphalt"}}, {"type": "Feature", "geometry": {"type": "LineString", "coordinates": [[-8.6563878, 40.866194], [-8.6563815, 40.8662122], [-8.6563542, 40.8662913], [-8.6563206, 40.8663885], [-8.6562857, 40.8664894], [-8.6562473, 40.8666006], [-8.656206, 40.8667201], [-8.6561605, 40.8668517], [-8.6560067, 40.8671746], [-8.6558297, 40.8674525], [-8.6556392, 40.8676837], [-8.6553817, 40.8679434], [-8.6550786, 40.8681888], [-8.6547326, 40.8684221], [-8.6545261, 40.8685316], [-8.6542874, 40.8686472], [-8.6541594, 40.8687122], [-8.6511693, 40.8700088], [-8.6486283, 40.8711017], [-8.6482245, 40.8712678]]}, "properties": {"cycleway:right": "separate", "highway": "primary", "lanes": "2", "name": "Avenida Dom Manuel I", "note": "name from street sign", "oneway": "no", "oneway:bicycle": "no", "ref": "EN 327", "segregated": "no", "surface": "asphalt"}}, {"type": "Feature", "geometry": {"type": "LineString", "coordinates": [[-8.6566653, 40.8655512], [-8.6567889, 40.8654589]]}, "properties": {"cycleway:right": "lane", "highway": "primary", "lanes": "1", "name": "Avenida Dom Manuel I", "note": "name from street sign", "oneway": "yes", "placement": "left_of:1", "ref": "EN 327", "surface": "asphalt"}}, {"type": "Feature", "geometry": {"type": "LineString", "coordinates": [[-8.620732, 40.8792836], [-8.6206488, 40.8793305], [-8.6205957, 40.8793977]]}, "properties": {"highway": "primary", "junction": "roundabout", "lanes": "1", "lit": "yes", "name": "Avenida Dom Manuel I", "ref": "EN 327", "smoothness": "good", "source": "Bing", "surface": "asphalt"}}, {"type": "Feature", "geometry": {"type": "LineString", "coordinates": [[-8.6206674, 40.8796139], [-8.6207574, 40.8796545]]}, "properties": {"highway": "primary", "junction": "roundabout", "lanes": "1", "lit": "yes", "name": "Avenida Dom Manuel I", "ref": "EN 327", "smoothness": "good", "source": "Bing", "surface": "asphalt"}}, {"type": "Feature", "geometry": {"type": "LineString", "coordinates": [[-8.6210968, 40.8795317], [-8.6211114, 40.8794541], [-8.6210858, 40.8793783]]}, "properties": {"highway": "primary", "junction": "roundabout", "lanes": "1", "lit": "yes", "name": "Avenida Dom Manuel I", "ref": "EN 327", "smoothness": "good", "source": "Bing", "surface": "asphalt"}}, {"type": "Feature", "geometry": {"type": "LineString", "coordinates": [[-8.6210431, 40.8795999], [-8.6210968, 40.8795317]]}, "properties": {"highway": "primary", "junction": "roundabout", "lanes": "1", "lit": "yes", "name": "Avenida Dom Manuel I", "ref": "EN 327", "smoothness": "good", "source": "Bing", "surface": "asphalt"}}, {"type": "Feature", "geometry": {"type": "LineString", "coordinates": [[-8.6207574, 40.8796545], [-8.6208576, 40.8796658], [-8.6209609, 40.8796463], [-8.6210431, 40.8795999]]}, "properties": {"highway": "primary", "junction": "roundabout", "lanes": "1", "lit": "yes", "name": "Avenida Dom Manuel I", "ref": "EN 327", "smoothness": "good", "source": "Bing", "surface": "asphalt"}}, {"type": "Feature", "geometry": {"type": "LineString", "coordinates": [[-8.6219111, 40.8793479], [-8.6213, 40.879395], [-8.6210858, 40.8793783]]}, "properties": {"cycleway:right": "separate", "highway": "primary", "lanes": "2", "name": "Avenida Dom Manuel I", "oneway": "yes", "oneway:bicycle": "no", "parking:both": "no", "ref": "EN 327", "segregated": "no", "source": "Bing", "surface": "asphalt"}}, {"type": "Feature", "geometry": {"type": "LineString", "coordinates": [[-8.6797872, 40.7883719], [-8.6798472, 40.7883761]]}, "properties": {"highway": "primary", "junction": "roundabout", "lanes": "2", "ref": "EN 327", "surface": "asphalt"}}, {"type": "Feature", "geometry": {"type": "LineString", "coordinates": [[-8.6796127, 40.788206], [-8.6796252, 40.7882622], [-8.6796616, 40.7883121], [-8.6797177, 40.7883501], [-8.6797872, 40.7883719]]}, "properties": {"highway": "primary", "junction": "roundabout", "lanes": "2", "ref": "EN 327", "surface": "asphalt"}}, {"type": "Feature", "geometry": {"type": "LineString", "coordinates": [[-8.6798472, 40.7883761], [-8.6799084, 40.7883674], [-8.6799519, 40.7883523], [-8.6799902, 40.7883306], [-8.6800215, 40.7883032]]}, "properties": {"highway": "primary", "junction": "roundabout", "lanes": "2", "ref": "EN 327", "surface": "asphalt"}}, {"type": "Feature", "geometry": {"type": "LineString", "coordinates": [[-8.6800215, 40.7883032], [-8.6800515, 40.7882569], [-8.6800617, 40.788206]]}, "properties": {"highway": "primary", "junction": "roundabout", "lanes": "2", "ref": "EN 327", "surface": "asphalt"}}, {"type": "Feature", "geometry": {"type": "LineString", "coordinates": [[-8.6800617, 40.788206], [-8.6800491, 40.7881499], [-8.6800127, 40.7881001], [-8.6799566, 40.7880622], [-8.6798871, 40.7880404]]}, "properties": {"highway": "primary", "junction": "roundabout", "lanes": "2", "ref": "EN 327", "surface": "asphalt"}}, {"type": "Feature", "geometry": {"type": "LineString", "coordinates": [[-8.6796973, 40.7880732], [-8.6796518, 40.7881103], [-8.6796227, 40.7881559], [-8.6796127, 40.788206]]}, "properties": {"cycleway:right": "track", "highway": "primary", "junction": "roundabout", "lanes": "2", "oneway:bicycle": "no", "ref": "EN 327", "segregated": "no", "surface": "asphalt"}}, {"type": "Feature", "geometry": {"type": "LineString", "coordinates": [[-8.68815, 40.7822651], [-8.6881413, 40.7822455], [-8.6881182, 40.7822193], [-8.6880855, 40.7822], [-8.6880465, 40.7821893], [-8.688005, 40.7821884], [-8.6879652, 40.7821973]]}, "properties": {"highway": "primary", "junction": "roundabout", "lanes": "2", "ref": "EN 327", "source": "Bing", "surface": "asphalt"}}, {"type": "Feature", "geometry": {"type": "LineString", "coordinates": [[-8.6879652, 40.7821973], [-8.6879293, 40.7822165], [-8.6879037, 40.7822436]]}, "properties": {"cycleway:right": "lane", "highway": "primary", "junction": "roundabout", "lanes": "2", "oneway:bicycle": "no", "ref": "EN 327", "segregated": "no", "source": "Bing", "surface": "asphalt"}}, {"type": "Feature", "geometry": {"type": "LineString", "coordinates": [[-8.6879037, 40.7822436], [-8.6878915, 40.7822756], [-8.6878939, 40.7823089]]}, "properties": {"cycleway:right": "track", "highway": "primary", "junction": "roundabout", "lanes": "2", "oneway:bicycle": "no", "ref": "EN 327", "segregated": "no", "source": "Bing", "surface": "asphalt"}}, {"type": "Feature", "geometry": {"type": "LineString", "coordinates": [[-8.6757844, 40.7907473], [-8.6758835, 40.7906673], [-8.675946, 40.7906211], [-8.6760259, 40.7905676], [-8.6761198, 40.7905087], [-8.6764124, 40.7903281], [-8.6771655, 40.7898679], [-8.6775388, 40.7896398], [-8.6776167, 40.7895916], [-8.6782749, 40.7891833], [-8.6784154, 40.7890962], [-8.6785471, 40.7890144], [-8.6786672, 40.788942], [-8.6787833, 40.7888701], [-8.6788829, 40.7888085], [-8.6789809, 40.7887478], [-8.6790634, 40.788697], [-8.6791401, 40.7886515], [-8.6792103, 40.7886094], [-8.6792764, 40.7885694], [-8.6793488, 40.7885305], [-8.679384, 40.7885125], [-8.6794941, 40.78846], [-8.6795773, 40.7884275], [-8.6796765, 40.788399], [-8.6797872, 40.7883719]]}, "properties": {"bicycle": "no", "highway": "primary", "lanes": "1", "oneway": "yes", "placement": "left_of:1", "ref": "EN 327", "surface": "asphalt"}}, {"type": "Feature", "geometry": {"type": "LineString", "coordinates": [[-8.6928243, 40.7755784], [-8.6927779, 40.7755499], [-8.692722, 40.7755342], [-8.6926623, 40.7755328], [-8.6926052, 40.7755459]]}, "properties": {"highway": "primary", "junction": "roundabout", "lanes": "2", "ref": "EN 327", "surface": "asphalt"}}, {"type": "Feature", "geometry": {"type": "LineString", "coordinates": [[-8.6926052, 40.7755459], [-8.6925632, 40.7755674], [-8.6925306, 40.7755968], [-8.6925097, 40.7756318]]}, "properties": {"cycleway:right": "lane", "highway": "primary", "junction": "roundabout", "lanes": "2", "oneway:bicycle": "no", "ref": "EN 327", "segregated": "no", "surface": "asphalt"}}, {"type": "Feature", "geometry": {"type": "LineString", "coordinates": [[-8.6925097, 40.7756318], [-8.6925026, 40.7756792], [-8.6925169, 40.7757257]]}, "properties": {"cycleway:right": "track", "highway": "primary", "junction": "roundabout", "lanes": "2", "oneway:bicycle": "no", "ref": "EN 327", "segregated": "no", "surface": "asphalt"}}, {"type": "Feature", "geometry": {"type": "LineString", "coordinates": [[-8.6951059, 40.7701211], [-8.6952363, 40.7697094], [-8.695242, 40.76969], [-8.6952935, 40.7695156], [-8.6955421, 40.7687239], [-8.6956594, 40.7683582], [-8.6957763, 40.7681314], [-8.6958942, 40.7679303], [-8.6960659, 40.7677192], [-8.6962113, 40.7675523], [-8.6963369, 40.7674466], [-8.6964852, 40.7673233], [-8.69792, 40.7661992], [-8.6980277, 40.7661148]]}, "properties": {"cycleway:left": "no", "cycleway:right": "separate", "highway": "primary", "lanes": "1", "oneway": "yes", "ref": "EN 327", "surface": "asphalt"}}, {"type": "Feature", "geometry": {"type": "LineString", "coordinates": [[-8.6950515, 40.7701009], [-8.6950243, 40.7701764], [-8.6950115, 40.7702105], [-8.6949648, 40.7703345], [-8.6949596, 40.7703483], [-8.6949497, 40.7703747]]}, "properties": {"cycleway:left": "no", "cycleway:right": "separate", "highway": "primary", "lanes": "2", "oneway": "yes", "ref": "EN 327", "segregated": "no", "surface": "asphalt"}}, {"type": "Feature", "geometry": {"type": "LineString", "coordinates": [[-8.6983302, 40.7657019], [-8.698321, 40.7657163], [-8.6983082, 40.7657553], [-8.6983109, 40.7657954], [-8.6983289, 40.7658332], [-8.6983606, 40.7658654], [-8.6984032, 40.7658892], [-8.6984532, 40.7659026]]}, "properties": {"highway": "primary", "junction": "roundabout", "lanes": "2", "ref": "EN 327", "surface": "asphalt"}}, {"type": "Feature", "geometry": {"type": "LineString", "coordinates": [[-8.6984532, 40.7659026], [-8.6985079, 40.7659043], [-8.6985608, 40.7658935], [-8.6986069, 40.7658712], [-8.6986421, 40.7658394]]}, "properties": {"cycleway:right": "track", "highway": "primary", "junction": "roundabout", "lanes": "2", "oneway:bicycle": "no", "ref": "EN 327", "segregated": "no", "surface": "asphalt"}}, {"type": "Feature", "geometry": {"type": "LineString", "coordinates": [[-8.6982843, 40.7659488], [-8.6983311, 40.7659309], [-8.6983744, 40.7659166], [-8.6984532, 40.7659026]]}, "properties": {"cycleway:left": "no", "cycleway:right": "separate", "highway": "primary", "lanes": "1", "oneway": "yes", "oneway:bicycle": "no", "placement": "left_of:1", "ref": "EN 327", "segregated": "no", "surface": "asphalt"}}, {"type": "Feature", "geometry": {"type": "LineString", "coordinates": [[-8.7017605, 40.759045], [-8.7017755, 40.758996], [-8.7017875, 40.7589535]]}, "properties": {"highway": "primary", "lanes": "2", "lit": "yes", "oneway": "no", "ref": "EN 327", "source": "Bing", "surface": "asphalt"}}, {"type": "Feature", "geometry": {"type": "LineString", "coordinates": [[-8.7017875, 40.7589535], [-8.7018141, 40.7588424], [-8.7018443, 40.758715]]}, "properties": {"highway": "primary", "lanes": "2", "lit": "yes", "oneway": "no", "ref": "EN 327", "source": "Bing", "surface": "asphalt"}}, {"type": "Feature", "geometry": {"type": "LineString", "coordinates": [[-8.7018443, 40.758715], [-8.7018789, 40.7585189], [-8.7020042, 40.7577551], [-8.702091, 40.7572057], [-8.7021922, 40.7564529], [-8.702202, 40.7564091], [-8.7022208, 40.75621], [-8.7022476, 40.7555334], [-8.7022423, 40.7548527]]}, "properties": {"highway": "primary", "lanes": "2", "lit": "yes", "oneway": "no", "ref": "EN 327", "sidewalk": "both", "source": "Bing", "surface": "asphalt"}}, {"type": "Feature", "geometry": {"type": "LineString", "coordinates": [[-8.7304745, 40.6621533], [-8.7305073, 40.6620792], [-8.7305703, 40.6619079], [-8.7305833, 40.6617629], [-8.7305605, 40.6615885]]}, "properties": {"highway": "primary", "lanes": "2", "maxspeed": "50", "name": "Rua 25 de Abril", "oneway": "no", "ref": "EN 327", "source": "Bing", "surface": "asphalt"}}, {"type": "Feature", "geometry": {"type": "LineString", "coordinates": [[-8.7302312, 40.6625533], [-8.7302741, 40.6624828], [-8.7304745, 40.6621533]]}, "properties": {"highway": "primary", "lanes": "2", "maxspeed": "40", "name": "Rua 25 de Abril", "oneway": "no", "ref": "EN 327", "source": "Bing", "surface": "asphalt"}}, {"type": "Feature", "geometry": {"type": "LineString", "coordinates": [[-8.7272814, 40.6671721], [-8.7284203, 40.665446], [-8.728798, 40.6648483]]}, "properties": {"highway": "primary", "lanes": "2", "name": "Rua 25 de Abril", "oneway": "no", "ref": "EN 327", "source": "Bing", "surface": "asphalt"}}, {"type": "Feature", "geometry": {"type": "LineString", "coordinates": [[-8.6928243, 40.7755784], [-8.6928219, 40.7754927], [-8.6928228, 40.77545]]}, "properties": {"bicycle": "no", "highway": "primary", "lanes": "1", "oneway": "yes", "placement": "left_of:1", "ref": "EN 327", "surface": "asphalt"}}, {"type": "Feature", "geometry": {"type": "LineString", "coordinates": [[-8.6624806, 40.8457098], [-8.6626337, 40.8452606], [-8.6626891, 40.8450561], [-8.6627572, 40.8448306], [-8.6627824, 40.8447429], [-8.662853, 40.8444973], [-8.6629483, 40.8441532], [-8.6630172, 40.8439047], [-8.663073, 40.8437057], [-8.6630772, 40.8436919], [-8.6630909, 40.8436434], [-8.6631054, 40.8435897], [-8.6631228, 40.8435261], [-8.6631403, 40.843464], [-8.6631629, 40.8433866], [-8.6631915, 40.8432861], [-8.6632212, 40.843182], [-8.6632473, 40.8430904], [-8.6632917, 40.8429538], [-8.6633202, 40.8428559], [-8.6633857, 40.8426387], [-8.6634207, 40.8425279], [-8.6635032, 40.8423016], [-8.6637548, 40.8413825], [-8.6638745, 40.840945], [-8.6639717, 40.8402788], [-8.6639939, 40.8400541], [-8.6640777, 40.838178], [-8.6641107, 40.8376403], [-8.6641704, 40.8366668], [-8.6641747, 40.8365963]]}, "properties": {"highway": "primary", "lanes": "2", "name": "Rua Francisco Ramada", "oneway": "no", "ref": "EN 327", "surface": "asphalt"}}, {"type": "Feature", "geometry": {"type": "LineString", "coordinates": [[-8.6588681, 40.8578289], [-8.6590283, 40.8549629], [-8.6591981, 40.8520253], [-8.6592317, 40.8511846], [-8.6592624, 40.8505077], [-8.6593122, 40.8496849], [-8.6593268, 40.8494446], [-8.659377, 40.8487079], [-8.6594394, 40.84844], [-8.6595521, 40.8481785], [-8.6596747, 40.8479601], [-8.659772, 40.8478295], [-8.6598711, 40.8477214], [-8.6599651, 40.8476299], [-8.6600506, 40.8475577], [-8.6601227, 40.8475026], [-8.6601837, 40.8474598], [-8.6602243, 40.8474314], [-8.6602668, 40.8474016], [-8.6603083, 40.8473725], [-8.6603497, 40.8473434], [-8.6608983, 40.8469688], [-8.6609406, 40.846938], [-8.661459, 40.8465714], [-8.6621695, 40.8460664], [-8.6623523, 40.8458988], [-8.6624806, 40.8457098]]}, "properties": {"highway": "primary", "lanes": "2", "name": "Rua Fam\u00edlia Colares Pinto", "oneway": "no", "ref": "EN 327", "surface": "asphalt"}}, {"type": "Feature", "geometry": {"type": "LineString", "coordinates": [[-8.7294548, 40.663839], [-8.7294892, 40.6637833], [-8.7295463, 40.6636879], [-8.7298303, 40.6632139]]}, "properties": {"highway": "primary", "lanes": "2", "name": "Rua 25 de Abril", "oneway": "no", "ref": "EN 327", "source": "Bing", "surface": "asphalt"}}, {"type": "Feature", "geometry": {"type": "LineString", "coordinates": [[-8.7024969, 40.7164364], [-8.7025566, 40.7164001], [-8.7034054, 40.7158836], [-8.7040426, 40.7154926], [-8.7043777, 40.715288], [-8.7052535, 40.7147538], [-8.7061236, 40.7142156], [-8.7067131, 40.7138058], [-8.7072319, 40.713323], [-8.7081009, 40.7123538], [-8.7082321, 40.7121992], [-8.7097731, 40.7104284], [-8.7103169, 40.7097568], [-8.7115277, 40.7083719], [-8.7119147, 40.707941], [-8.7125986, 40.7073692], [-8.7134645, 40.7066021], [-8.7142594, 40.7059738], [-8.7146398, 40.7056109], [-8.7149566, 40.7052073], [-8.7161845, 40.7033859], [-8.7162774, 40.7032481], [-8.7163466, 40.7031455], [-8.7164224, 40.7030331], [-8.7164815, 40.7029453], [-8.7165293, 40.7028744], [-8.7165644, 40.7028223], [-8.7165896, 40.7027849], [-8.7166153, 40.7027468], [-8.7166403, 40.7027098], [-8.7166514, 40.7026933], [-8.7166672, 40.70267], [-8.7167247, 40.7025852], [-8.7167971, 40.7024768], [-8.7169278, 40.7022772], [-8.7169517, 40.7022393], [-8.7169808, 40.7021946], [-8.7170038, 40.7021608], [-8.717031, 40.7021198], [-8.717067, 40.7020693], [-8.7171153, 40.7019982], [-8.7171724, 40.701914], [-8.7172413, 40.7018116], [-8.717323, 40.7016906], [-8.7174105, 40.7015587], [-8.7182728, 40.7002589], [-8.7186067, 40.699708], [-8.719828, 40.6973404], [-8.7202757, 40.6964685], [-8.7203255, 40.6963717], [-8.7203665, 40.6962553], [-8.72041, 40.6961338], [-8.7204393, 40.6959977], [-8.7204985, 40.6956528], [-8.7206264, 40.6945821], [-8.7207397, 40.6936019], [-8.7208079, 40.6929357], [-8.7208116, 40.6927375], [-8.7207976, 40.6925864], [-8.7207652, 40.6924377], [-8.7206996, 40.6922475], [-8.7203331, 40.6913788], [-8.7199601, 40.6904946], [-8.7198168, 40.690155], [-8.719687, 40.6898415], [-8.7196484, 40.6897292], [-8.7196142, 40.6895844], [-8.7195935, 40.6894461], [-8.7195888, 40.689328], [-8.7196125, 40.6891282], [-8.7196235, 40.6890666], [-8.7196404, 40.6889601], [-8.7197529, 40.6883619], [-8.7197724, 40.688177], [-8.7197795, 40.6880123], [-8.719778, 40.6878454], [-8.719759, 40.6876321], [-8.7195832, 40.6869189], [-8.7194231, 40.6862302], [-8.7192665, 40.6855568], [-8.7187134, 40.6831177], [-8.7183982, 40.6812966], [-8.7182877, 40.6806584], [-8.7182621, 40.6805107], [-8.7182432, 40.6804014], [-8.7182252, 40.6802975], [-8.718212, 40.680221], [-8.7182001, 40.6801524], [-8.7181919, 40.6801047], [-8.7181858, 40.6800698], [-8.7181788, 40.6800289], [-8.7181717, 40.6799916], [-8.7181657, 40.6799566], [-8.7181434, 40.67979], [-8.7181335, 40.6795762], [-8.7181301, 40.6795283], [-8.7181278, 40.679484], [-8.7181259, 40.6794456], [-8.7181241, 40.6794099], [-8.7181241, 40.6793484], [-8.7181254, 40.6792691], [-8.7181315, 40.6791714], [-8.7181368, 40.6790586], [-8.7181442, 40.6789263], [-8.7181576, 40.6787773], [-8.7181751, 40.6785012], [-8.7182009, 40.6781475], [-8.7182223, 40.6779929], [-8.718284, 40.6777814], [-8.718342, 40.6776357], [-8.7184017, 40.6775279], [-8.7185118, 40.6773645], [-8.7191198, 40.6766572], [-8.722513, 40.6727091], [-8.7225705, 40.6726517], [-8.7228969, 40.672326], [-8.7239349, 40.671461], [-8.7245263, 40.6709488], [-8.7247263, 40.6707756], [-8.7250775, 40.6704713], [-8.7253223, 40.6701764], [-8.7265363, 40.6683147]]}, "properties": {"highway": "primary", "lanes": "2", "oneway": "no", "ref": "EN 327", "source": "Bing", "surface": "asphalt"}}, {"type": "Feature", "geometry": {"type": "LineString", "coordinates": [[-8.4129524, 40.9341417], [-8.4124961, 40.9342479], [-8.4121566, 40.9343566], [-8.411863, 40.9344778], [-8.4115812, 40.9346235], [-8.411362, 40.9347575], [-8.4110702, 40.9349458], [-8.4108029, 40.9351407], [-8.4084158, 40.9369084], [-8.4081395, 40.9370947], [-8.407865, 40.937256], [-8.4075749, 40.937416], [-8.4072989, 40.9375501], [-8.4069859, 40.9376864], [-8.4065964, 40.9378388], [-8.4062514, 40.937942], [-8.4058861, 40.9380325], [-8.4055372, 40.9381014], [-8.4052155, 40.9381637], [-8.4048603, 40.938198], [-8.4045892, 40.9382129]]}, "properties": {"highway": "primary", "maxheight:signed": "no", "maxspeed": "90", "name": "Variante Feira-Arouca", "oneway": "no", "ref": "EN 327", "surface": "asphalt"}}, {"type": "Feature", "geometry": {"type": "LineString", "coordinates": [[-8.4017762, 40.9385452], [-8.4018204, 40.938509], [-8.4018523, 40.938466], [-8.4018709, 40.9384129], [-8.4018707, 40.9383581], [-8.4018516, 40.9383052], [-8.4018149, 40.9382578], [-8.4017505, 40.9382124], [-8.4016704, 40.9381847], [-8.4015938, 40.938177], [-8.4015174, 40.9381857], [-8.4014471, 40.93821], [-8.4013884, 40.938248], [-8.4013619, 40.9382748], [-8.4013293, 40.9383306], [-8.4013195, 40.9383912], [-8.4013331, 40.9384513], [-8.4013692, 40.9385058], [-8.401414, 40.9385436], [-8.4014696, 40.9385722], [-8.4015326, 40.9385898], [-8.4016187, 40.9385947], [-8.4017026, 40.9385793], [-8.4017762, 40.9385452]]}, "properties": {"highway": "primary", "junction": "roundabout", "lanes": "2", "name": "Rotunda de Escariz", "ref": "EN 327", "surface": "asphalt"}}, {"type": "Feature", "geometry": {"type": "LineString", "coordinates": [[-8.4735335, 40.9381017], [-8.473362, 40.938019], [-8.4731995, 40.937922], [-8.4729905, 40.9377693], [-8.4716907, 40.9366345], [-8.4714107, 40.9364392], [-8.4711848, 40.9363178], [-8.4710892, 40.9362664], [-8.4707273, 40.9361103], [-8.4701349, 40.9358501], [-8.4699831, 40.935771], [-8.4698462, 40.9356919], [-8.4697263, 40.9356097], [-8.4695773, 40.9355024], [-8.4694132, 40.9353714], [-8.4692592, 40.9352223], [-8.4690839, 40.9350223], [-8.4689323, 40.9348146], [-8.4677768, 40.9330916]]}, "properties": {"highway": "primary", "lanes": "2", "maxspeed": "50", "name": "Variante Feira-Arouca", "oneway": "no", "ref": "EN 327", "surface": "asphalt"}}, {"type": "Feature", "geometry": {"type": "LineString", "coordinates": [[-8.46125, 40.9297121], [-8.4600773, 40.9293092]]}, "properties": {"bridge": "viaduct", "highway": "primary", "lanes": "2", "layer": "1", "maxspeed": "90", "maxweight:signed": "no", "name": "Variante Feira-Arouca", "oneway": "no", "ref": "EN 327", "surface": "asphalt"}}, {"type": "Feature", "geometry": {"type": "LineString", "coordinates": [[-8.4600773, 40.9293092], [-8.4581787, 40.928698], [-8.4576461, 40.9285772], [-8.4570898, 40.9284998], [-8.4566199, 40.9284697], [-8.4561654, 40.9284834], [-8.4558196, 40.9285141], [-8.4555133, 40.9285532], [-8.4551626, 40.9286207]]}, "properties": {"highway": "primary", "lanes": "2", "maxspeed": "90", "name": "Variante Feira-Arouca", "oneway": "no", "ref": "EN 327", "surface": "asphalt"}}, {"type": "Feature", "geometry": {"type": "LineString", "coordinates": [[-8.4551626, 40.9286207], [-8.4549969, 40.928663], [-8.4548249, 40.9287141], [-8.454672, 40.9287634], [-8.4545262, 40.9288153], [-8.4542809, 40.9289092], [-8.4540708, 40.9290019], [-8.4538758, 40.9290959], [-8.4536931, 40.9291953], [-8.453543, 40.9292885], [-8.4533823, 40.9293936], [-8.4498779, 40.9319225]]}, "properties": {"bridge": "viaduct", "highway": "primary", "lanes": "2", "layer": "1", "maxspeed": "90", "maxweight:signed": "no", "name": "Variante Feira-Arouca", "oneway": "no", "ref": "EN 327", "surface": "asphalt"}}, {"type": "Feature", "geometry": {"type": "LineString", "coordinates": [[-8.4417301, 40.9353986], [-8.4414262, 40.9354458], [-8.4410997, 40.9354877], [-8.4408593, 40.9355072], [-8.4406144, 40.9355163], [-8.4403263, 40.935517], [-8.4399522, 40.9354931], [-8.4396752, 40.9354588], [-8.4394219, 40.9354166], [-8.4390178, 40.935331], [-8.437632, 40.9349708], [-8.4373821, 40.9349143], [-8.4371021, 40.9348738], [-8.4368215, 40.9348563], [-8.4366133, 40.9348471]]}, "properties": {"highway": "primary", "lanes": "2", "maxspeed": "90", "name": "Variante Feira-Arouca", "oneway": "no", "ref": "EN 327", "surface": "asphalt"}}, {"type": "Feature", "geometry": {"type": "LineString", "coordinates": [[-8.4366133, 40.9348471], [-8.4364182, 40.934846], [-8.4361479, 40.9348523], [-8.4358756, 40.9348696], [-8.4355937, 40.9349077], [-8.435256, 40.9349806], [-8.4349213, 40.935072], [-8.4345868, 40.9351902]]}, "properties": {"bridge": "viaduct", "highway": "primary", "layer": "1", "maxspeed": "90", "maxweight:signed": "no", "name": "Variante Feira-Arouca", "oneway": "no", "ref": "EN 327", "surface": "asphalt"}}, {"type": "Feature", "geometry": {"type": "LineString", "coordinates": [[-8.4345868, 40.9351902], [-8.4343154, 40.9353045], [-8.4340096, 40.9354566], [-8.4337492, 40.9356002], [-8.433069, 40.9360541], [-8.432725, 40.9362504], [-8.4323871, 40.9364189], [-8.4319389, 40.936595], [-8.4315024, 40.9367415], [-8.4311102, 40.9368261], [-8.4307175, 40.9368875], [-8.4302654, 40.9369276], [-8.4299458, 40.936946], [-8.4280046, 40.9369649]]}, "properties": {"highway": "primary", "lanes": "3", "lanes:backward": "1", "lanes:forward": "2", "maxheight:signed": "no", "maxspeed": "90", "name": "Variante Feira-Arouca", "oneway": "no", "ref": "EN 327", "surface": "asphalt"}}, {"type": "Feature", "geometry": {"type": "LineString", "coordinates": [[-8.4280046, 40.9369649], [-8.4258021, 40.9369615]]}, "properties": {"bridge": "viaduct", "highway": "primary", "layer": "1", "maxspeed": "90", "maxweight:signed": "no", "name": "Variante Feira-Arouca", "oneway": "no", "ref": "EN 327", "surface": "asphalt"}}, {"type": "Feature", "geometry": {"type": "LineString", "coordinates": [[-8.4258021, 40.9369615], [-8.4219196, 40.9369522], [-8.4216158, 40.9369397], [-8.4212474, 40.9369127], [-8.4208619, 40.936873], [-8.4204898, 40.9368129], [-8.4199688, 40.9367079], [-8.4195422, 40.9365928], [-8.419044, 40.9364313], [-8.4187094, 40.9363033], [-8.4182323, 40.9360843], [-8.4177424, 40.9358237], [-8.4160229, 40.9346588], [-8.4157845, 40.9345229], [-8.4155399, 40.9343965], [-8.4152529, 40.9342769], [-8.414986, 40.9341944], [-8.4147281, 40.9341372], [-8.4144849, 40.9340962]]}, "properties": {"highway": "primary", "maxheight:signed": "no", "maxspeed": "90", "name": "Variante Feira-Arouca", "oneway": "no", "ref": "EN 327", "surface": "asphalt"}}, {"type": "Feature", "geometry": {"type": "LineString", "coordinates": [[-8.4144849, 40.9340962], [-8.4142117, 40.9340658], [-8.4139743, 40.9340529], [-8.4137361, 40.9340531], [-8.4134899, 40.9340669], [-8.4132958, 40.9340884], [-8.4131032, 40.9341153], [-8.4129524, 40.9341417]]}, "properties": {"bridge": "viaduct", "highway": "primary", "layer": "1", "maxspeed": "90", "maxweight:signed": "no", "name": "Variante Feira-Arouca", "oneway": "no", "ref": "EN 327", "surface": "asphalt"}}, {"type": "Feature", "geometry": {"type": "LineString", "coordinates": [[-8.4498779, 40.9319225], [-8.4486089, 40.9328485], [-8.448306, 40.933059], [-8.4479362, 40.9332993], [-8.4475046, 40.9335429], [-8.4469873, 40.9337794], [-8.4465474, 40.9339411], [-8.446034, 40.9341095], [-8.4425562, 40.9351826], [-8.4422744, 40.9352643], [-8.4420006, 40.9353415], [-8.4417301, 40.9353986]]}, "properties": {"highway": "primary", "lanes": "2", "maxspeed": "90", "name": "Variante Feira-Arouca", "oneway": "no", "ref": "EN 327", "surface": "asphalt"}}, {"type": "Feature", "geometry": {"type": "LineString", "coordinates": [[-8.7022423, 40.7548527], [-8.7022316, 40.7544464], [-8.7022155, 40.7542208], [-8.7021811, 40.7540029], [-8.7021323, 40.7537048], [-8.702084, 40.7534], [-8.702002, 40.7530374], [-8.7019623, 40.7528894], [-8.7019219, 40.7527597], [-8.7018803, 40.7526384], [-8.7018534, 40.75256], [-8.7018263, 40.7524808], [-8.7018077, 40.7524266], [-8.7017929, 40.7523835], [-8.7017775, 40.7523386], [-8.701763, 40.7522964], [-8.701749, 40.7522556], [-8.7016669, 40.7520162], [-8.7015821, 40.7517897], [-8.7015651, 40.7517443], [-8.7015502, 40.7517047], [-8.7015349, 40.7516636], [-8.7015206, 40.7516255], [-8.7014988, 40.7515672], [-8.7014718, 40.7514953], [-8.7014335, 40.7513929], [-8.7013966, 40.7512944], [-8.7013502, 40.7511704], [-8.7013001, 40.7510366], [-8.7008194, 40.7497764], [-8.7006304, 40.7492808], [-8.7003125, 40.7484413], [-8.7001521, 40.7480116], [-8.699757, 40.7469826], [-8.699416, 40.7460609], [-8.6991054, 40.7452272], [-8.6974973, 40.7409939], [-8.6969791, 40.7396021], [-8.696909, 40.739337], [-8.6968737, 40.7391077], [-8.696868, 40.7388636], [-8.6968993, 40.738622], [-8.6975969, 40.7353414], [-8.6981222, 40.7328576], [-8.698147, 40.7327385], [-8.698493, 40.7310926], [-8.6985976, 40.7304458], [-8.6987699, 40.7280225], [-8.6988135, 40.7274724], [-8.6988465, 40.7272099], [-8.698898, 40.726966], [-8.6996061, 40.7248846], [-8.6997203, 40.724511], [-8.699751, 40.7242984], [-8.6997737, 40.7241055], [-8.6997341, 40.7236609], [-8.699609, 40.7231472], [-8.6992365, 40.7217846], [-8.6991863, 40.7215541], [-8.6991475, 40.7212582], [-8.6991501, 40.7210148], [-8.6992807, 40.7205819], [-8.6997084, 40.7194998], [-8.7001692, 40.71829], [-8.7002928, 40.7180218], [-8.7003985, 40.7178523], [-8.7005413, 40.7176885], [-8.7006476, 40.7175819], [-8.7008803, 40.7174065], [-8.7024438, 40.7164683], [-8.7024969, 40.7164364]]}, "properties": {"highway": "primary", "lanes": "2", "oneway": "no", "ref": "EN 327", "sidewalk": "no", "source": "Bing", "surface": "asphalt"}}, {"type": "Feature", "geometry": {"type": "LineString", "coordinates": [[-8.6697882, 40.8184144], [-8.6698636, 40.8180722], [-8.6700664, 40.8170959], [-8.6701711, 40.8166139], [-8.6704065, 40.8155309], [-8.6709604, 40.8129815], [-8.6709891, 40.8128493], [-8.6717508, 40.8093332], [-8.6726016, 40.8053498], [-8.6726467, 40.8052131]]}, "properties": {"highway": "primary", "lanes": "2", "name": "Rua Francisco Ramada", "oneway": "no", "ref": "EN 327", "surface": "asphalt"}}, {"type": "Feature", "geometry": {"type": "LineString", "coordinates": [[-8.4741158, 40.9380613], [-8.4739839, 40.9380864], [-8.4738468, 40.9381009], [-8.4735335, 40.9381017]]}, "properties": {"destination": "Arouca;Mansores;Escariz", "highway": "primary", "lanes": "1", "maxspeed": "50", "name": "Variante Feira-Arouca", "oneway": "yes", "ref": "EN 327", "surface": "asphalt"}}, {"type": "Feature", "geometry": {"type": "LineString", "coordinates": [[-8.4735335, 40.9381017], [-8.4738339, 40.9382087], [-8.4739402, 40.9382568], [-8.4740388, 40.938319]]}, "properties": {"highway": "primary", "lanes": "1", "maxspeed": "50", "name": "Variante Feira-Arouca", "oneway": "yes", "ref": "EN 327", "surface": "asphalt"}}, {"type": "Feature", "geometry": {"type": "LineString", "coordinates": [[-8.4018523, 40.938466], [-8.4019472, 40.9384049], [-8.4020368, 40.9383574], [-8.402201, 40.9382816]]}, "properties": {"highway": "primary", "lanes": "1", "name": "Variante \u00e0 EN326", "oneway": "yes", "ref": "EN 327", "surface": "asphalt"}}, {"type": "Feature", "geometry": {"type": "LineString", "coordinates": [[-8.402201, 40.9382816], [-8.4020428, 40.9382727], [-8.4018996, 40.9382657], [-8.4018149, 40.9382578]]}, "properties": {"highway": "primary", "lanes": "2", "name": "Variante \u00e0 EN326", "oneway": "yes", "ref": "EN 327", "surface": "asphalt"}}, {"type": "Feature", "geometry": {"type": "LineString", "coordinates": [[-8.4045892, 40.9382129], [-8.4042787, 40.9382254], [-8.4034895, 40.9382354], [-8.403325, 40.9382367], [-8.4031711, 40.9382379]]}, "properties": {"highway": "primary", "maxspeed": "70", "name": "Variante Feira-Arouca", "oneway": "no", "ref": "EN 327", "surface": "asphalt"}}, {"type": "Feature", "geometry": {"type": "LineString", "coordinates": [[-8.7265363, 40.6683147], [-8.7272814, 40.6671721]]}, "properties": {"highway": "primary", "lanes": "2", "name": "Rua 25 de Abril", "oneway": "no", "ref": "EN 327", "source": "Bing", "surface": "asphalt"}}, {"type": "Feature", "geometry": {"type": "LineString", "coordinates": [[-8.638641, 40.8753807], [-8.637067, 40.8760566]]}, "properties": {"cycleway:right": "separate", "highway": "primary", "lanes": "2", "name": "Avenida Dom Manuel I", "oneway": "no", "oneway:bicycle": "no", "ref": "EN 327", "segregated": "no", "surface": "asphalt"}}, {"type": "Feature", "geometry": {"type": "LineString", "coordinates": [[-8.6571334, 40.8639122], [-8.6571744, 40.8637866], [-8.6572335, 40.8636055], [-8.6573691, 40.8631902], [-8.6573748, 40.8631728], [-8.6578441, 40.8617356], [-8.6580729, 40.8610213], [-8.6585198, 40.8596782], [-8.658577, 40.8595062], [-8.6587538, 40.8589749], [-8.6587823, 40.8588416]]}, "properties": {"highway": "primary", "lanes": "2", "name": "Rua Fam\u00edlia Colares Pinto", "oneway": "no", "ref": "EN 327", "surface": "asphalt"}}, {"type": "Feature", "geometry": {"type": "LineString", "coordinates": [[-8.6587823, 40.8588416], [-8.6588105, 40.8587101], [-8.6588217, 40.858658], [-8.6588596, 40.8579803], [-8.6588681, 40.8578289]]}, "properties": {"highway": "primary", "lanes": "2", "name": "Rua Fam\u00edlia Colares Pinto", "oneway": "no", "ref": "EN 327", "surface": "asphalt"}}, {"type": "Feature", "geometry": {"type": "LineString", "coordinates": [[-8.6286057, 40.8788236], [-8.6293461, 40.8787547], [-8.6302158, 40.8786204], [-8.6311873, 40.8784133], [-8.6318294, 40.8782384]]}, "properties": {"highway": "primary", "lanes": "1", "name": "Avenida Dom Manuel I", "oneway": "yes", "placement": "left_of:1", "ref": "EN 327", "source": "Bing", "surface": "asphalt"}}, {"type": "Feature", "geometry": {"type": "LineString", "coordinates": [[-8.6318294, 40.8782384], [-8.6322345, 40.8781071], [-8.6325946, 40.8779944], [-8.6327896, 40.87794], [-8.6328392, 40.8779347], [-8.6329379, 40.8779241]]}, "properties": {"highway": "primary", "lanes": "1", "name": "Avenida Dom Manuel I", "oneway": "yes", "placement": "left_of:1", "ref": "EN 327", "source": "Bing", "surface": "asphalt"}}, {"type": "Feature", "geometry": {"type": "LineString", "coordinates": [[-8.4632183, 40.930278], [-8.462738, 40.9301516], [-8.4622679, 40.93002], [-8.4617852, 40.9298788], [-8.46125, 40.9297121]]}, "properties": {"highway": "primary", "lanes": "2", "maxspeed": "90", "name": "Variante Feira-Arouca", "oneway": "no", "ref": "EN 327", "surface": "asphalt"}}, {"type": "Feature", "geometry": {"type": "LineString", "coordinates": [[-8.4677768, 40.9330916], [-8.4670954, 40.932089], [-8.4669699, 40.9319055], [-8.4668268, 40.9316976], [-8.466671, 40.9315049], [-8.4664755, 40.9313287], [-8.4663014, 40.9311975], [-8.4660242, 40.9310293], [-8.4656763, 40.9308717], [-8.4653103, 40.9307599], [-8.4632183, 40.930278]]}, "properties": {"highway": "primary", "lanes": "2", "maxheight:signed": "no", "maxspeed": "70", "name": "Variante Feira-Arouca", "oneway": "no", "ref": "EN 327", "surface": "asphalt"}}, {"type": "Feature", "geometry": {"type": "LineString", "coordinates": [[-8.4031711, 40.9382379], [-8.4030271, 40.938239], [-8.4029082, 40.9382399], [-8.4029011, 40.9382401], [-8.4027841, 40.9382436], [-8.4026809, 40.9382467], [-8.4025808, 40.938252], [-8.4024991, 40.9382563], [-8.4024354, 40.9382597], [-8.402369, 40.9382632], [-8.4023566, 40.9382643], [-8.4022859, 40.9382704], [-8.402201, 40.9382816]]}, "properties": {"highway": "primary", "maxspeed": "50", "name": "Variante Feira-Arouca", "oneway": "no", "ref": "EN 327", "surface": "asphalt"}}, {"type": "Feature", "geometry": {"type": "LineString", "coordinates": [[-8.728798, 40.6648483], [-8.7291917, 40.6642444], [-8.7293424, 40.6640134], [-8.7294206, 40.6638936], [-8.7294401, 40.6638625], [-8.7294548, 40.663839]]}, "properties": {"highway": "primary", "lanes": "2", "name": "Rua 25 de Abril", "oneway": "no", "ref": "EN 327", "source": "Bing", "surface": "asphalt"}}, {"type": "Feature", "geometry": {"type": "LineString", "coordinates": [[-8.6173617, 40.8799173], [-8.617401, 40.8799438], [-8.6174464, 40.8799639], [-8.6174961, 40.879977], [-8.6175482, 40.8799824], [-8.6176007, 40.8799801], [-8.6176516, 40.8799701], [-8.6176989, 40.8799527]]}, "properties": {"highway": "primary", "junction": "roundabout", "lanes": "2", "ref": "EN 109;EN 327", "smoothness": "good", "surface": "asphalt"}}, {"type": "Feature", "geometry": {"type": "LineString", "coordinates": [[-8.5956083, 40.8913316], [-8.5956369, 40.8914011], [-8.5956929, 40.8914603], [-8.5957706, 40.8915033], [-8.5958623, 40.8915257]]}, "properties": {"highway": "primary", "junction": "roundabout", "lanes": "2", "ref": "EN 327", "surface": "asphalt"}}, {"type": "Feature", "geometry": {"type": "LineString", "coordinates": [[-8.596201, 40.8912388], [-8.5961601, 40.8911712], [-8.5960928, 40.891117], [-8.5960061, 40.891082], [-8.5959091, 40.8910698]]}, "properties": {"highway": "primary", "junction": "roundabout", "lanes": "2", "ref": "EN 327", "surface": "asphalt"}}, {"type": "Feature", "geometry": {"type": "LineString", "coordinates": [[-8.6025037, 40.8862099], [-8.6025429, 40.8862709], [-8.6026051, 40.8863197], [-8.6026844, 40.8863515], [-8.6027727, 40.8863632]]}, "properties": {"highway": "primary", "junction": "roundabout", "lanes": "2", "ref": "EN 327", "surface": "asphalt"}}, {"type": "Feature", "geometry": {"type": "LineString", "coordinates": [[-8.602906, 40.8859542], [-8.6028336, 40.8859353], [-8.6027571, 40.8859316], [-8.6026821, 40.8859434]]}, "properties": {"highway": "primary", "junction": "roundabout", "lanes": "2", "ref": "EN 327", "surface": "asphalt"}}, {"type": "Feature", "geometry": {"type": "LineString", "coordinates": [[-8.6177172, 40.8796163], [-8.6176719, 40.879596], [-8.6176223, 40.8795829], [-8.6175702, 40.8795773], [-8.6175177, 40.8795795], [-8.6174668, 40.8795894], [-8.6174194, 40.8796067]]}, "properties": {"highway": "primary", "junction": "roundabout", "lanes": "2", "ref": "EN 109;EN 327", "smoothness": "good", "surface": "asphalt"}}, {"type": "Feature", "geometry": {"type": "LineString", "coordinates": [[-8.6177875, 40.8796739], [-8.617756, 40.8796425], [-8.6177172, 40.8796163]]}, "properties": {"highway": "primary", "junction": "roundabout", "lanes": "2", "ref": "EN 109;EN 327", "smoothness": "good", "surface": "asphalt"}}, {"type": "Feature", "geometry": {"type": "LineString", "coordinates": [[-8.6177752, 40.8798997], [-8.617802, 40.8798653], [-8.6178194, 40.8798277], [-8.6178267, 40.8797882], [-8.6178237, 40.8797484], [-8.6178105, 40.8797098], [-8.6177875, 40.8796739]]}, "properties": {"highway": "primary", "junction": "roundabout", "lanes": "2", "ref": "EN 109;EN 327", "smoothness": "good", "surface": "asphalt"}}, {"type": "Feature", "geometry": {"type": "LineString", "coordinates": [[-8.6027727, 40.8863632], [-8.6028546, 40.8863552], [-8.6029302, 40.8863297], [-8.602993, 40.8862889], [-8.6030377, 40.8862361], [-8.60306, 40.8861787], [-8.6030606, 40.8861188], [-8.6030394, 40.8860612], [-8.6029982, 40.8860101], [-8.6029549, 40.8859779], [-8.602906, 40.8859542]]}, "properties": {"highway": "primary", "junction": "roundabout", "lanes": "2", "ref": "EN 327", "surface": "asphalt"}}, {"type": "Feature", "geometry": {"type": "LineString", "coordinates": [[-8.5958623, 40.8915257], [-8.595912, 40.8915283], [-8.5959615, 40.8915248], [-8.5960467, 40.8915031], [-8.5961196, 40.8914636], [-8.5961741, 40.8914096], [-8.5962053, 40.891346], [-8.5962116, 40.8912922], [-8.596201, 40.8912388]]}, "properties": {"highway": "primary", "junction": "roundabout", "lanes": "2", "ref": "EN 327", "surface": "asphalt"}}, {"type": "Feature", "geometry": {"type": "LineString", "coordinates": [[-8.6176989, 40.8799527], [-8.6177405, 40.879929], [-8.6177752, 40.8798997]]}, "properties": {"highway": "primary", "junction": "roundabout", "lanes": "2", "ref": "EN 109;EN 327", "smoothness": "good", "surface": "asphalt"}}, {"type": "Feature", "geometry": {"type": "MultiPolygon", "coordinates": [[[[-8.6755929, 40.7909467], [-8.6755914, 40.7909101], [-8.6755762, 40.7908617], [-8.6755503, 40.7908213], [-8.6755191, 40.7907901], [-8.6754766, 40.7907612], [-8.6754167, 40.7907358], [-8.6753763, 40.7907258], [-8.6752995, 40.7907198], [-8.6752579, 40.7907231], [-8.67521, 40.790733], [-8.6751533, 40.7907545], [-8.6751078, 40.7907823], [-8.6750861, 40.7908006], [-8.6750449, 40.7908537], [-8.6750288, 40.7908948], [-8.6750237, 40.7909335], [-8.6750297, 40.7909651], [-8.6750358, 40.7909976], [-8.6750528, 40.7910302], [-8.6751029, 40.7910845], [-8.6751548, 40.7911168], [-8.6752086, 40.7911372], [-8.6752832, 40.7911501], [-8.6753214, 40.7911507], [-8.6753625, 40.791147], [-8.6754006, 40.7911373], [-8.6754351, 40.7911285], [-8.6754773, 40.791109], [-8.6755177, 40.7910816], [-8.6755593, 40.7910375], [-8.6755799, 40.7910006], [-8.6755862, 40.7909746], [-8.6755929, 40.7909467]]]]}, "properties": {"highway": "primary", "junction": "roundabout", "lanes": "2", "ref": "EN 327", "surface": "asphalt"}}, {"type": "Feature", "geometry": {"type": "MultiPolygon", "coordinates": [[[[-8.4018709, 40.9384129], [-8.4018707, 40.9383581], [-8.4018516, 40.9383052], [-8.4018149, 40.9382578], [-8.4017505, 40.9382124], [-8.4016704, 40.9381847], [-8.4015938, 40.938177], [-8.4015174, 40.9381857], [-8.4014471, 40.93821], [-8.4013884, 40.938248], [-8.4013619, 40.9382748], [-8.4013293, 40.9383306], [-8.4013195, 40.9383912], [-8.4013331, 40.9384513], [-8.4013692, 40.9385058], [-8.401414, 40.9385436], [-8.4014696, 40.9385722], [-8.4015326, 40.9385898], [-8.4016187, 40.9385947], [-8.4017026, 40.9385793], [-8.4017762, 40.9385452], [-8.4018204, 40.938509], [-8.4018523, 40.938466], [-8.4018709, 40.9384129]]]]}, "properties": {"highway": "primary", "junction": "roundabout", "lanes": "2", "name": "Rotunda de Escariz", "ref": "EN 327", "surface": "asphalt"}}]}