{"type": "FeatureCollection", "features": [{"type": "Feature", "geometry": {"type": "LineString", "coordinates": [[-25.6791825, 37.7776166], [-25.6790673, 37.7777085], [-25.6786745, 37.7779546], [-25.678037, 37.7782914]]}, "properties": {"highway": "primary", "lanes": "1", "maxspeed": "80", "name": "Caminho da Serra Gorda", "oneway": "yes", "ref": "EN 4-1\u00aa", "source": "Bing", "surface": "asphalt"}}, {"type": "Feature", "geometry": {"type": "LineString", "coordinates": [[-25.6803991, 37.7763633], [-25.6801838, 37.7766616], [-25.6799121, 37.7769569], [-25.6797453, 37.7771209]]}, "properties": {"highway": "primary", "maxspeed": "80", "name": "Caminho da Serra Gorda", "oneway": "yes", "ref": "EN 4-1\u00aa", "surface": "asphalt"}}, {"type": "Feature", "geometry": {"type": "LineString", "coordinates": [[-25.6754576, 37.756257], [-25.6753935, 37.7565118], [-25.6753061, 37.7567467], [-25.6752349, 37.7569556], [-25.6752185, 37.7570619], [-25.6752204, 37.7572097]]}, "properties": {"highway": "primary", "lanes": "2", "maxspeed": "80", "oneway": "yes", "ref": "EN 4-1\u00aa", "surface": "asphalt"}}, {"type": "Feature", "geometry": {"type": "LineString", "coordinates": [[-25.6752759, 37.7574217], [-25.675329, 37.7575156], [-25.6753931, 37.757608], [-25.6754865, 37.7577009], [-25.6755765, 37.7577899], [-25.6756571, 37.757877], [-25.6757058, 37.7579775], [-25.6757544, 37.7581062], [-25.6758552, 37.7587251]]}, "properties": {"highway": "primary", "lanes": "1", "maxspeed": "80", "oneway": "yes", "ref": "EN 4-1\u00aa", "surface": "asphalt"}}, {"type": "Feature", "geometry": {"type": "LineString", "coordinates": [[-25.6752204, 37.7572097], [-25.6752759, 37.7574217]]}, "properties": {"bridge": "yes", "highway": "primary", "lanes": "1", "layer": "1", "maxspeed": "80", "oneway": "yes", "ref": "EN 4-1\u00aa", "surface": "asphalt"}}, {"type": "Feature", "geometry": {"type": "LineString", "coordinates": [[-25.6703634, 37.8139711], [-25.670311, 37.8141527], [-25.6702647, 37.8144594], [-25.6702568, 37.814539], [-25.6702444, 37.8147276], [-25.6702467, 37.8150817]]}, "properties": {"highway": "primary", "ref": "EN 4-1\u00aa", "source": "Bing", "surface": "paved"}}, {"type": "Feature", "geometry": {"type": "LineString", "coordinates": [[-25.6702467, 37.8150817], [-25.670269, 37.8155956], [-25.6702558, 37.8158892], [-25.6700353, 37.8164308], [-25.6699934, 37.8166174], [-25.6699779, 37.8168016], [-25.6699535, 37.8179577], [-25.669954, 37.8180257], [-25.6699629, 37.8180768], [-25.6699981, 37.8181677], [-25.6700961, 37.818335], [-25.670123, 37.8184423], [-25.6701031, 37.818698], [-25.6701338, 37.8188488], [-25.6701636, 37.8189617], [-25.670222, 37.8190848], [-25.670317, 37.8192123], [-25.6707305, 37.8196927], [-25.6707945, 37.8197646], [-25.6708434, 37.8198053], [-25.6709694, 37.8198777], [-25.6719806, 37.8204052], [-25.6722071, 37.820503], [-25.672336, 37.8205436], [-25.6724783, 37.8205737], [-25.6730536, 37.8206775], [-25.6732118, 37.8207001], [-25.6733794, 37.8207147], [-25.6737267, 37.8207302], [-25.6738183, 37.8207391], [-25.6738991, 37.8207542], [-25.673962, 37.8207803], [-25.6740008, 37.8208086], [-25.67403, 37.8208417], [-25.6740501, 37.820885], [-25.674068, 37.8209277], [-25.6740751, 37.8209941], [-25.6740726, 37.8210356], [-25.6740593, 37.8210739], [-25.6738302, 37.8212743], [-25.673717, 37.821432], [-25.6733643, 37.8219299], [-25.6728121, 37.8227092], [-25.6727652, 37.8227755], [-25.6727156, 37.8228454], [-25.6726901, 37.8228818], [-25.6726695, 37.8229265], [-25.6725949, 37.8233279], [-25.6725713, 37.8234767], [-25.6724726, 37.8240985], [-25.6724175, 37.824298], [-25.6723278, 37.8245392], [-25.6722734, 37.8247191], [-25.6722636, 37.8247646], [-25.6722613, 37.8248143], [-25.6722672, 37.8248588], [-25.6723164, 37.8249719]]}, "properties": {"highway": "primary", "ref": "EN 4-1\u00aa", "source": "Bing", "surface": "paved"}}, {"type": "Feature", "geometry": {"type": "LineString", "coordinates": [[-25.6715815, 37.8120946], [-25.6712414, 37.8125264], [-25.6708197, 37.8130328], [-25.6704521, 37.8137352], [-25.6703634, 37.8139711]]}, "properties": {"highway": "primary", "ref": "EN 4-1\u00aa", "source": "Bing", "surface": "paved"}}, {"type": "Feature", "geometry": {"type": "LineString", "coordinates": [[-25.6739262, 37.8065992], [-25.6738798, 37.8068455], [-25.6737542, 37.807301], [-25.6737047, 37.8075038], [-25.6736917, 37.8078057], [-25.6737003, 37.807917]]}, "properties": {"highway": "primary", "ref": "EN 4-1\u00aa", "source": "Bing", "surface": "paved"}}, {"type": "Feature", "geometry": {"type": "LineString", "coordinates": [[-25.6737003, 37.807917], [-25.6737585, 37.8083681], [-25.6737725, 37.8085672], [-25.6737923, 37.8088505], [-25.6737287, 37.8096554], [-25.6736437, 37.8099321], [-25.6733784, 37.8104519], [-25.6731505, 37.8108222], [-25.6730116, 37.811068], [-25.6728657, 37.8113088], [-25.6725814, 37.8115008], [-25.6719226, 37.8118453], [-25.6716997, 37.8119822], [-25.6715815, 37.8120946]]}, "properties": {"highway": "primary", "maxspeed": "50", "ref": "EN 4-1\u00aa", "source": "Bing", "surface": "paved"}}, {"type": "Feature", "geometry": {"type": "LineString", "coordinates": [[-25.6767199, 37.7897261], [-25.6772263, 37.7921255], [-25.6772496, 37.792339], [-25.6772595, 37.7925032], [-25.677249, 37.7926448]]}, "properties": {"highway": "primary", "lanes": "2", "maxspeed": "80", "ref": "EN 4-1\u00aa", "source": "Bing", "surface": "asphalt"}}, {"type": "Feature", "geometry": {"type": "LineString", "coordinates": [[-25.6738538, 37.8044535], [-25.6738741, 37.8045941], [-25.6739036, 37.8049315], [-25.6739504, 37.8053867], [-25.6739701, 37.8055608], [-25.673977, 37.80574], [-25.673947, 37.8064069], [-25.6739262, 37.8065992]]}, "properties": {"highway": "primary", "maxspeed": "80", "ref": "EN 4-1\u00aa", "source": "Bing", "surface": "paved"}}, {"type": "Feature", "geometry": {"type": "LineString", "coordinates": [[-25.6762846, 37.7799458], [-25.6762209, 37.7801104], [-25.67616, 37.7803068], [-25.6761161, 37.7804929], [-25.6760877, 37.7806984], [-25.676074, 37.7843491], [-25.6760907, 37.7852405], [-25.6761492, 37.7861127], [-25.676269, 37.787299], [-25.6763608, 37.7880663], [-25.6765838, 37.7890657], [-25.6767199, 37.7897261]]}, "properties": {"highway": "primary", "lanes": "2", "maxspeed": "80", "name": "Caminho da Serra Gorda", "ref": "EN 4-1\u00aa", "source": "Bing", "surface": "asphalt"}}, {"type": "Feature", "geometry": {"type": "LineString", "coordinates": [[-25.677615, 37.8006412], [-25.6774342, 37.8008188], [-25.6772812, 37.8009805], [-25.6770694, 37.8011723], [-25.6750394, 37.8025994], [-25.6748556, 37.8027538], [-25.6747169, 37.8029029], [-25.6745681, 37.8032262], [-25.6744428, 37.8035181], [-25.6742245, 37.8038066], [-25.6740088, 37.8041107], [-25.6738538, 37.8044535]]}, "properties": {"highway": "primary", "lanes": "2", "ref": "EN 4-1\u00aa", "source": "Bing", "surface": "asphalt"}}, {"type": "Feature", "geometry": {"type": "LineString", "coordinates": [[-25.678037, 37.7782914], [-25.6774936, 37.7786032], [-25.6772554, 37.7787684], [-25.6770477, 37.778943], [-25.6768426, 37.7791358], [-25.676636, 37.7793676], [-25.6764999, 37.77956], [-25.6763873, 37.7797373], [-25.6762846, 37.7799458]]}, "properties": {"highway": "primary", "lanes": "2", "maxspeed": "80", "name": "Caminho da Serra Gorda", "ref": "EN 4-1\u00aa", "source": "Bing", "surface": "asphalt"}}, {"type": "Feature", "geometry": {"type": "LineString", "coordinates": [[-25.6723164, 37.8249719], [-25.6729309, 37.8261971], [-25.6729493, 37.8262445], [-25.6729561, 37.8262986], [-25.6729495, 37.8263464], [-25.6727935, 37.8269429], [-25.6726481, 37.8276165], [-25.6723881, 37.8287255], [-25.6723369, 37.8289544], [-25.6722856, 37.8291945], [-25.6721809, 37.8297154], [-25.6721789, 37.8297244]]}, "properties": {"highway": "primary", "name": "Rua Infante Dom Henrique", "ref": "EN 4-1\u00aa", "source": "Bing", "surface": "paved"}}, {"type": "Feature", "geometry": {"type": "LineString", "coordinates": [[-25.6760892, 37.7604683], [-25.6760947, 37.7600374], [-25.6760756, 37.7597032], [-25.6760538, 37.7594543], [-25.6760459, 37.7593762], [-25.676013, 37.7590784], [-25.6759645, 37.7587635]]}, "properties": {"highway": "primary", "lanes": "1", "maxspeed": "80", "name": "Caminho da Serra Gorda", "oneway": "yes", "ref": "EN 4-1\u00aa", "surface": "asphalt"}}, {"type": "Feature", "geometry": {"type": "LineString", "coordinates": [[-25.6758691, 37.758792], [-25.6759374, 37.7592624], [-25.6760201, 37.7598261], [-25.6760892, 37.7604683]]}, "properties": {"highway": "primary", "lanes": "1", "maxspeed": "80", "name": "Caminho da Serra Gorda", "oneway": "yes", "ref": "EN 4-1\u00aa", "surface": "asphalt"}}, {"type": "Feature", "geometry": {"type": "LineString", "coordinates": [[-25.6772143, 37.7941489], [-25.6772429, 37.794268], [-25.6772737, 37.7943647], [-25.6773142, 37.7944718], [-25.6774192, 37.7947029], [-25.6775002, 37.7948714], [-25.6776205, 37.7951439], [-25.6777915, 37.795513], [-25.6778524, 37.7956405], [-25.6778988, 37.7957527], [-25.6779469, 37.7958579]]}, "properties": {"highway": "primary", "lanes": "1", "maxspeed": "60", "oneway": "yes", "ref": "EN 4-1\u00aa", "source": "Bing", "surface": "paved"}}, {"type": "Feature", "geometry": {"type": "LineString", "coordinates": [[-25.6779469, 37.7958579], [-25.678026, 37.7960614], [-25.6781195, 37.7962649], [-25.6782168, 37.7964689], [-25.6783148, 37.7966769], [-25.678446, 37.7969647]]}, "properties": {"highway": "primary", "lanes": "2", "maxspeed": "60", "oneway": "no", "ref": "EN 4-1\u00aa", "source": "Bing", "surface": "asphalt"}}, {"type": "Feature", "geometry": {"type": "LineString", "coordinates": [[-25.6803991, 37.7763633], [-25.6805072, 37.7761979], [-25.680633, 37.7759564], [-25.6807027, 37.7758047], [-25.6807332, 37.7757301], [-25.6807821, 37.7756101], [-25.6808553, 37.7754017], [-25.680925, 37.7751521], [-25.6809762, 37.7749013], [-25.6810046, 37.7746932], [-25.6810193, 37.7744556], [-25.6810208, 37.7741621], [-25.6809898, 37.7738625], [-25.6809449, 37.7735819], [-25.6808773, 37.7733042], [-25.6807871, 37.7730305], [-25.6806748, 37.7727619], [-25.6805408, 37.7724997], [-25.6803856, 37.7722448], [-25.6800915, 37.771714], [-25.679506, 37.7707968], [-25.678803, 37.7697358], [-25.6786572, 37.7695197], [-25.6783679, 37.7690929], [-25.6781465, 37.7686647], [-25.6778467, 37.7680281], [-25.6763744, 37.7648045], [-25.6762509, 37.7644971], [-25.6761167, 37.764082], [-25.6760247, 37.7637099], [-25.6759827, 37.7633617], [-25.6759406, 37.7626354], [-25.6760418, 37.7613432], [-25.6760892, 37.7604683]]}, "properties": {"highway": "primary", "lanes": "2", "maxspeed": "80", "name": "Caminho da Serra Gorda", "oneway": "no", "ref": "EN 4-1\u00aa", "surface": "asphalt"}}, {"type": "Feature", "geometry": {"type": "LineString", "coordinates": [[-25.6772954, 37.7939502], [-25.6772773, 37.7937582], [-25.677295, 37.7930095], [-25.677249, 37.7926448]]}, "properties": {"highway": "primary", "lanes": "1", "maxspeed": "60", "oneway": "yes", "ref": "EN 4-1\u00aa", "source": "Bing", "surface": "asphalt"}}, {"type": "Feature", "geometry": {"type": "LineString", "coordinates": [[-25.6758552, 37.7587251], [-25.6758691, 37.758792]]}, "properties": {"highway": "primary", "lanes": "2", "maxspeed": "80", "oneway": "yes", "ref": "EN 4-1\u00aa", "surface": "asphalt"}}, {"type": "Feature", "geometry": {"type": "LineString", "coordinates": [[-25.6759645, 37.7587635], [-25.6758078, 37.7578393], [-25.6757471, 37.7574865], [-25.6757245, 37.7572703]]}, "properties": {"highway": "primary", "lanes": "4", "maxspeed": "80", "oneway": "yes", "ref": "EN 4-1\u00aa", "surface": "asphalt"}}, {"type": "Feature", "geometry": {"type": "LineString", "coordinates": [[-25.6721789, 37.8297244], [-25.6721053, 37.8298511]]}, "properties": {"highway": "primary", "name": "Rua Infante Dom Henrique", "oneway": "yes", "ref": "EN 4-1\u00aa", "source": "Bing", "surface": "paved"}}, {"type": "Feature", "geometry": {"type": "LineString", "coordinates": [[-25.6795179, 37.7774434], [-25.6798151, 37.7772003], [-25.6800779, 37.7769205], [-25.6802442, 37.7766937], [-25.6803991, 37.7763633]]}, "properties": {"highway": "primary", "lane_markings": "no", "lanes": "1", "maxspeed": "80", "name": "Caminho da Serra Gorda", "oneway": "yes", "ref": "EN 4-1\u00aa", "surface": "asphalt"}}, {"type": "Feature", "geometry": {"type": "LineString", "coordinates": [[-25.6792307, 37.7776623], [-25.6795179, 37.7774434]]}, "properties": {"highway": "primary", "lanes": "1", "maxspeed": "80", "name": "Caminho da Serra Gorda", "oneway": "yes", "ref": "EN 4-1\u00aa", "surface": "asphalt"}}, {"type": "Feature", "geometry": {"type": "LineString", "coordinates": [[-25.6790131, 37.777816], [-25.6792307, 37.7776623]]}, "properties": {"highway": "primary", "lanes": "1", "maxspeed": "80", "name": "Caminho da Serra Gorda", "oneway": "yes", "ref": "EN 4-1\u00aa", "surface": "asphalt"}}, {"type": "Feature", "geometry": {"type": "LineString", "coordinates": [[-25.678037, 37.7782914], [-25.6783187, 37.7782], [-25.6786969, 37.7780156], [-25.6790131, 37.777816]]}, "properties": {"highway": "primary", "lanes": "1", "maxspeed": "80", "name": "Caminho da Serra Gorda", "oneway": "yes", "ref": "EN 4-1\u00aa", "surface": "asphalt"}}, {"type": "Feature", "geometry": {"type": "LineString", "coordinates": [[-25.6721442, 37.8300517], [-25.6721852, 37.8298485], [-25.6721789, 37.8297244]]}, "properties": {"highway": "primary", "name": "Rua Infante Dom Henrique", "oneway": "yes", "ref": "EN 4-1\u00aa", "source": "Bing", "surface": "paved"}}, {"type": "Feature", "geometry": {"type": "LineString", "coordinates": [[-25.6721053, 37.8298511], [-25.6720776, 37.830014], [-25.6720706, 37.8300464]]}, "properties": {"highway": "primary", "name": "Rua Infante Dom Henrique", "oneway": "yes", "ref": "EN 4-1\u00aa", "source": "Bing", "surface": "paved"}}, {"type": "Feature", "geometry": {"type": "LineString", "coordinates": [[-25.677249, 37.7926448], [-25.677208, 37.7930136], [-25.6771907, 37.793359], [-25.6771851, 37.7935411], [-25.677188, 37.7937026], [-25.6771832, 37.7938891]]}, "properties": {"highway": "primary", "lanes": "1", "maxspeed": "60", "oneway": "yes", "ref": "EN 4-1\u00aa", "source": "Bing", "surface": "asphalt"}}, {"type": "Feature", "geometry": {"type": "LineString", "coordinates": [[-25.6797453, 37.7771209], [-25.6795126, 37.7773468], [-25.6792798, 37.7775438], [-25.6791825, 37.7776166]]}, "properties": {"highway": "primary", "lanes": "2", "maxspeed": "80", "name": "Caminho da Serra Gorda", "oneway": "yes", "ref": "EN 4-1\u00aa", "surface": "asphalt", "turn:lanes": "left|through"}}, {"type": "Feature", "geometry": {"type": "LineString", "coordinates": [[-25.6771832, 37.7938891], [-25.6772143, 37.7941489]]}, "properties": {"highway": "primary", "lanes": "1", "maxspeed": "60", "oneway": "yes", "ref": "EN 4-1\u00aa", "source": "Bing", "surface": "asphalt"}}, {"type": "Feature", "geometry": {"type": "LineString", "coordinates": [[-25.6779469, 37.7958579], [-25.6778441, 37.7955477], [-25.6776934, 37.7951062], [-25.6775286, 37.7947625], [-25.6774331, 37.7945213], [-25.6773859, 37.7943981]]}, "properties": {"highway": "primary", "lanes": "1", "maxspeed": "60", "oneway": "yes", "ref": "EN 4-1\u00aa", "source": "Bing", "surface": "paved"}}, {"type": "Feature", "geometry": {"type": "LineString", "coordinates": [[-25.6773859, 37.7943981], [-25.6773517, 37.7943001], [-25.677329, 37.7942254], [-25.6773124, 37.7941004], [-25.6772974, 37.793999], [-25.6772954, 37.7939502]]}, "properties": {"highway": "primary", "lanes": "2", "maxspeed": "60", "oneway": "yes", "ref": "EN 4-1\u00aa", "surface": "asphalt", "turn:lanes": "left|through"}}, {"type": "Feature", "geometry": {"type": "LineString", "coordinates": [[-25.6785051, 37.7972622], [-25.6785077, 37.7973269], [-25.6784971, 37.7974055], [-25.6784584, 37.7976008], [-25.6784023, 37.7977895], [-25.6783428, 37.7979783], [-25.6781049, 37.7988825]]}, "properties": {"highway": "primary", "lanes": "1", "maxspeed": "60", "oneway": "yes", "ref": "EN 4-1\u00aa", "source": "Bing", "surface": "asphalt"}}, {"type": "Feature", "geometry": {"type": "LineString", "coordinates": [[-25.678446, 37.7969647], [-25.6784925, 37.797153], [-25.6785051, 37.7972622]]}, "properties": {"highway": "primary", "lanes": "2", "maxspeed": "60", "oneway": "yes", "ref": "EN 4-1\u00aa", "source": "Bing", "surface": "asphalt"}}]}