{"type": "FeatureCollection", "features": [{"type": "Feature", "geometry": {"type": "LineString", "coordinates": [[-8.6901456, 41.2179521], [-8.6899359, 41.2178597], [-8.6898474, 41.2177854], [-8.6898214, 41.2177141], [-8.6898486, 41.2176214]]}, "properties": {"highway": "primary", "lanes": "1", "oneway": "yes", "ref": "EN 531", "surface": "asphalt"}}, {"type": "Feature", "geometry": {"type": "LineString", "coordinates": [[-8.6898486, 41.2176214], [-8.6897173, 41.2177329], [-8.6896011, 41.2178914], [-8.6895534, 41.2179717]]}, "properties": {"highway": "primary", "oneway": "yes", "ref": "EN 531", "surface": "asphalt"}}, {"type": "Feature", "geometry": {"type": "LineString", "coordinates": [[-8.6966405, 41.2015326], [-8.6966646, 41.2014778], [-8.6966671, 41.2014202], [-8.696648, 41.2013644], [-8.6966087, 41.2013148]]}, "properties": {"highway": "primary", "junction": "roundabout", "lanes": "2", "lit": "yes", "ref": "EN 531", "surface": "asphalt"}}, {"type": "Feature", "geometry": {"type": "LineString", "coordinates": [[-8.6964314, 41.2012413], [-8.6963492, 41.2012435], [-8.6962717, 41.2012642], [-8.6962062, 41.2013017]]}, "properties": {"highway": "primary", "junction": "roundabout", "lanes": "2", "lit": "yes", "ref": "EN 531", "surface": "asphalt"}}, {"type": "Feature", "geometry": {"type": "LineString", "coordinates": [[-8.6964945, 41.2016317], [-8.6965538, 41.2016083], [-8.6966034, 41.2015745], [-8.6966405, 41.2015326]]}, "properties": {"highway": "primary", "junction": "roundabout", "lanes": "2", "lit": "yes", "ref": "EN 531", "surface": "asphalt"}}, {"type": "Feature", "geometry": {"type": "LineString", "coordinates": [[-8.6966087, 41.2013148], [-8.6965588, 41.201279], [-8.6964983, 41.201254], [-8.6964314, 41.2012413]]}, "properties": {"highway": "primary", "junction": "roundabout", "lanes": "2", "lit": "yes", "ref": "EN 531", "surface": "asphalt"}}, {"type": "Feature", "geometry": {"type": "LineString", "coordinates": [[-8.6961681, 41.2015453], [-8.6962148, 41.2015893], [-8.6962759, 41.201622], [-8.6963503, 41.201647], [-8.6964238, 41.2016484], [-8.6964945, 41.2016317]]}, "properties": {"highway": "primary", "junction": "roundabout", "lanes": "2", "lit": "yes", "ref": "EN 531", "surface": "asphalt"}}, {"type": "Feature", "geometry": {"type": "LineString", "coordinates": [[-8.6961391, 41.2013921], [-8.6961307, 41.2014445], [-8.6961406, 41.2014967], [-8.6961681, 41.2015453]]}, "properties": {"highway": "primary", "junction": "roundabout", "lanes": "2", "lit": "yes", "ref": "EN 531", "surface": "asphalt"}}, {"type": "Feature", "geometry": {"type": "LineString", "coordinates": [[-8.6962062, 41.2013017], [-8.6961648, 41.2013436], [-8.6961614, 41.20135], [-8.6961391, 41.2013921]]}, "properties": {"highway": "primary", "junction": "roundabout", "lanes": "2", "lit": "yes", "ref": "EN 531", "surface": "asphalt"}}, {"type": "Feature", "geometry": {"type": "LineString", "coordinates": [[-8.6895534, 41.2179717], [-8.6895409, 41.2180302], [-8.6895223, 41.2181167]]}, "properties": {"highway": "primary", "oneway": "yes", "ref": "EN 531", "surface": "asphalt"}}]}