{"type": "FeatureCollection", "features": [{"type": "Feature", "geometry": {"type": "LineString", "coordinates": [[-27.287392, 38.7180175], [-27.2874698, 38.7176714], [-27.2875031, 38.7175494], [-27.2875869, 38.7173845], [-27.2877195, 38.7172121], [-27.2878376, 38.7171104], [-27.2880598, 38.716952], [-27.2884063, 38.7167296], [-27.2886337, 38.7166081], [-27.2889286, 38.7165191], [-27.2892824, 38.7164585], [-27.2894257, 38.7164489], [-27.2914269, 38.7165427], [-27.2930873, 38.716629], [-27.2932498, 38.7166265], [-27.2934614, 38.7166054], [-27.2936453, 38.7165812], [-27.2939175, 38.716494], [-27.2948086, 38.7161679], [-27.2951993, 38.7160249], [-27.295543, 38.715908], [-27.295841, 38.7158346], [-27.2963656, 38.7157724], [-27.2968849, 38.7157768], [-27.2971603, 38.7157804], [-27.2974856, 38.7157908], [-27.2977188, 38.7157925], [-27.2979409, 38.7157825], [-27.2981218, 38.7157594], [-27.2982838, 38.71573], [-27.2985682, 38.7156715], [-27.2990401, 38.7155418], [-27.2994469, 38.7154736], [-27.2997936, 38.7153986], [-27.301109, 38.7151642], [-27.3030772, 38.7147609], [-27.3041951, 38.7145373], [-27.3044631, 38.7144446], [-27.3046088, 38.7143572], [-27.3051775, 38.7139596], [-27.3058817, 38.7134445], [-27.3062787, 38.7131544], [-27.306473, 38.7130471], [-27.3066584, 38.7129746], [-27.3068512, 38.7129341], [-27.3070694, 38.7129045], [-27.3082415, 38.7128715], [-27.3084229, 38.7128629], [-27.3085768, 38.7128425], [-27.3087914, 38.7127921], [-27.3089814, 38.7127169], [-27.3095816, 38.7124297], [-27.3102522, 38.7121095], [-27.3110519, 38.7117173], [-27.3113439, 38.7116407], [-27.3116671, 38.7116054], [-27.3122958, 38.7115981], [-27.3131946, 38.7116197], [-27.3134977, 38.7116302], [-27.3136854, 38.711626], [-27.3138851, 38.7115943], [-27.3140769, 38.7115368], [-27.314455, 38.711385], [-27.3146273, 38.7113066], [-27.3151026, 38.7110903], [-27.3155496, 38.7108956], [-27.3162878, 38.7105429], [-27.3164139, 38.7104853], [-27.3166009, 38.7104426], [-27.3167934, 38.7104383], [-27.3169563, 38.7104539], [-27.3178837, 38.7106452], [-27.3182068, 38.7107199], [-27.318487, 38.7107138], [-27.319346, 38.7104916], [-27.3195675, 38.7104394], [-27.3198342, 38.7104269], [-27.3200144, 38.7104263], [-27.3203704, 38.7104448], [-27.3208617, 38.7104903], [-27.3216915, 38.7105379], [-27.3219761, 38.7105523], [-27.3221197, 38.7105427], [-27.3222756, 38.7105154], [-27.3229149, 38.7103786], [-27.3232931, 38.7103075], [-27.3234884, 38.7102777], [-27.323659, 38.7102801], [-27.3238446, 38.7103105], [-27.3240559, 38.7103952], [-27.3244303, 38.7106193], [-27.3249772, 38.7109272], [-27.3255254, 38.7112219], [-27.3257525, 38.7113515], [-27.3259144, 38.7114387], [-27.3261192, 38.7115348], [-27.3263158, 38.7116149], [-27.3276754, 38.7119528], [-27.3292334, 38.7123356], [-27.3298551, 38.712488], [-27.3304545, 38.7126327], [-27.3307776, 38.7126858], [-27.3310399, 38.7127112], [-27.3316208, 38.7127507], [-27.3317208, 38.7127575], [-27.3325786, 38.7128062], [-27.3329915, 38.7128253], [-27.3331821, 38.7128177], [-27.3333577, 38.7127878], [-27.3337287, 38.7127024], [-27.3343813, 38.7125323], [-27.3345195, 38.7124957], [-27.3351551, 38.7123273], [-27.335676, 38.7121826], [-27.3358777, 38.7121286], [-27.336118, 38.7120986], [-27.3363426, 38.7121019], [-27.3365696, 38.7121421], [-27.3369831, 38.7123167], [-27.3376035, 38.7125867], [-27.3385226, 38.7129885], [-27.3393439, 38.7133485], [-27.3394887, 38.7134011], [-27.3396821, 38.713447], [-27.3398952, 38.7134717], [-27.3401991, 38.7134699], [-27.3406527, 38.7134668]]}, "properties": {"access": "permissive", "bicycle": "yes", "foot": "yes", "highway": "primary", "horse": "yes", "lanes": "2", "ref": "EN 5-2", "surface": "asphalt"}}, {"type": "Feature", "geometry": {"type": "LineString", "coordinates": [[-27.3407736, 38.7134676], [-27.341067, 38.7134592], [-27.3413123, 38.7134405], [-27.3415399, 38.7134006], [-27.3417302, 38.713345], [-27.3419734, 38.7132595], [-27.342387, 38.713107], [-27.3430838, 38.712841], [-27.3432697, 38.7127761], [-27.3434244, 38.7127395], [-27.3435904, 38.7127117], [-27.3442626, 38.7126317], [-27.3446556, 38.7125866], [-27.3449456, 38.7125578], [-27.3451521, 38.7125484], [-27.3453235, 38.7125433], [-27.3454281, 38.7125443], [-27.3455508, 38.7125518], [-27.3456706, 38.7125804], [-27.3457607, 38.7126181], [-27.3458559, 38.7126804], [-27.345937, 38.7127489], [-27.3462354, 38.7130136], [-27.3463809, 38.7131768], [-27.3465154, 38.7133051], [-27.3466032, 38.7133978], [-27.3466759, 38.7134967], [-27.3467519, 38.7136153], [-27.3468149, 38.7137242], [-27.3468651, 38.7138276], [-27.3469619, 38.7140301], [-27.3471152, 38.7143404], [-27.347274, 38.714649], [-27.347349, 38.7147726], [-27.3474295, 38.7148823], [-27.3475074, 38.714965], [-27.3476504, 38.7150894], [-27.3478249, 38.7152277], [-27.3481118, 38.7154305], [-27.349149, 38.7162049], [-27.3497006, 38.7166161], [-27.3503618, 38.7171066], [-27.3504114, 38.7171434], [-27.3511074, 38.7176597], [-27.3513437, 38.7178387], [-27.3514566, 38.7179213], [-27.3516722, 38.7180893], [-27.3517804, 38.7181783], [-27.3518514, 38.7182501], [-27.3519579, 38.7183677], [-27.352028, 38.7184577], [-27.3520853, 38.7185498], [-27.3521285, 38.7186298], [-27.3521891, 38.7187516], [-27.3523493, 38.7190963], [-27.3530073, 38.720473], [-27.3531426, 38.7207528], [-27.3532097, 38.7208591], [-27.3532643, 38.7209372], [-27.3533009, 38.7209798], [-27.3533485, 38.7210351], [-27.3534729, 38.7211596], [-27.3538526, 38.7215384], [-27.3540451, 38.721717], [-27.3548261, 38.7223798]]}, "properties": {"access": "permissive", "bicycle": "yes", "foot": "yes", "highway": "primary", "horse": "yes", "lanes": "2", "ref": "EN 5-2", "surface": "asphalt"}}, {"type": "Feature", "geometry": {"type": "LineString", "coordinates": [[-27.3406527, 38.7134668], [-27.3407736, 38.7134676]]}, "properties": {"access": "permissive", "bicycle": "yes", "bridge": "yes", "foot": "yes", "highway": "primary", "horse": "yes", "lanes": "2", "layer": "1", "ref": "EN 5-2", "surface": "asphalt"}}, {"type": "Feature", "geometry": {"type": "LineString", "coordinates": [[-27.3548969, 38.7224406], [-27.3549638, 38.7225024], [-27.3550421, 38.7226016], [-27.3552416, 38.7227821], [-27.3554488, 38.722956], [-27.3557181, 38.7230737], [-27.3564827, 38.7233432], [-27.3570154, 38.7235005], [-27.3571914, 38.7235834], [-27.3573454, 38.7236686], [-27.3574894, 38.7237694], [-27.3576267, 38.7239119], [-27.3578379, 38.7241749], [-27.3581316, 38.7244916], [-27.3582521, 38.7246328], [-27.3583119, 38.7246949], [-27.3583772, 38.7247475], [-27.3584489, 38.7247901], [-27.3585442, 38.7248353], [-27.3586463, 38.7248732], [-27.3590481, 38.7249837], [-27.3604249, 38.7253554], [-27.3604723, 38.7253677], [-27.3612038, 38.7255725], [-27.3622252, 38.7258655], [-27.3623501, 38.7259166], [-27.3624382, 38.7259726], [-27.3625017, 38.7260466], [-27.3626045, 38.7262156], [-27.3628453, 38.7267186], [-27.3630658, 38.7271741], [-27.3633016, 38.7276041], [-27.3635226, 38.7279232], [-27.3637935, 38.7282865], [-27.364003, 38.7285715], [-27.3643337, 38.7290375], [-27.3644253, 38.7291604], [-27.3645016, 38.7292432], [-27.3646418, 38.7293477], [-27.3648596, 38.7294527], [-27.3650162, 38.7295172], [-27.3651217, 38.7295607]]}, "properties": {"access": "permissive", "bicycle": "yes", "foot": "yes", "highway": "primary", "horse": "yes", "lanes": "1", "maxspeed": "50", "ref": "EN 5-2", "surface": "asphalt"}}, {"type": "Feature", "geometry": {"type": "LineString", "coordinates": [[-27.3548261, 38.7223798], [-27.3548969, 38.7224406]]}, "properties": {"access": "permissive", "bicycle": "yes", "bridge": "yes", "foot": "yes", "highway": "primary", "horse": "yes", "lanes": "2", "layer": "1", "ref": "EN 5-2", "surface": "asphalt"}}, {"type": "Feature", "geometry": {"type": "LineString", "coordinates": [[-27.3651217, 38.7295607], [-27.3651824, 38.7295719], [-27.3652527, 38.7295821], [-27.3653006, 38.729583], [-27.3653643, 38.7295811]]}, "properties": {"highway": "primary", "ref": "EN 5-2", "surface": "asphalt"}}, {"type": "Feature", "geometry": {"type": "LineString", "coordinates": [[-27.2499226, 38.7248239], [-27.2495561, 38.7247593]]}, "properties": {"access": "permissive", "bicycle": "yes", "foot": "yes", "highway": "primary", "horse": "yes", "lanes": "2", "oneway": "yes", "ref": "EN 5-2", "surface": "asphalt"}}, {"type": "Feature", "geometry": {"type": "LineString", "coordinates": [[-27.2803761, 38.7199601], [-27.2836004, 38.7197858], [-27.2839727, 38.7197657], [-27.2857087, 38.7196748], [-27.285951, 38.7196317], [-27.2862135, 38.7195317], [-27.286455, 38.7194029], [-27.2866148, 38.7192546], [-27.2869051, 38.7189005], [-27.2870676, 38.7186827], [-27.2871951, 38.7185166], [-27.2872875, 38.7183799], [-27.2873697, 38.7181292], [-27.287392, 38.7180175]]}, "properties": {"access": "permissive", "bicycle": "yes", "foot": "yes", "highway": "primary", "horse": "yes", "lanes": "2", "ref": "EN 5-2", "sidewalk:both": "no", "surface": "asphalt"}}, {"type": "Feature", "geometry": {"type": "LineString", "coordinates": [[-27.2499226, 38.7248239], [-27.2501836, 38.7248641], [-27.2507581, 38.72494], [-27.251514, 38.725072], [-27.2519958, 38.725167], [-27.2521495, 38.7251874], [-27.2522666, 38.725199], [-27.2523817, 38.7252015], [-27.2524681, 38.7251952], [-27.2525329, 38.7251869], [-27.2526384, 38.7251644], [-27.2527423, 38.7251407], [-27.2528239, 38.7251158], [-27.2529246, 38.7250746], [-27.2533308, 38.7249025], [-27.2536771, 38.7247462], [-27.2539151, 38.7246373], [-27.2541596, 38.7245402], [-27.2544138, 38.7244493], [-27.2550653, 38.7242645], [-27.2557311, 38.7240658], [-27.2564471, 38.7238519], [-27.2572102, 38.7236257], [-27.2575682, 38.7235192], [-27.2577425, 38.7234782], [-27.2579154, 38.7234581], [-27.2581458, 38.7234479], [-27.2598174, 38.7234504], [-27.2606528, 38.7234627], [-27.2614689, 38.7234639], [-27.2618276, 38.7234627], [-27.2620567, 38.7234484], [-27.2622272, 38.7234334], [-27.26237, 38.7234105], [-27.2625464, 38.7233748], [-27.2628086, 38.7233074], [-27.2632211, 38.7231916], [-27.26385, 38.7230211], [-27.2641664, 38.7229205], [-27.2642089, 38.7229009], [-27.2644197, 38.7228021], [-27.2645909, 38.7227114], [-27.2648528, 38.7225799], [-27.2669579, 38.7214678], [-27.2671808, 38.7213745], [-27.2674569, 38.7213011], [-27.26781, 38.721236], [-27.2689247, 38.7210472], [-27.2696865, 38.7209181], [-27.2716319, 38.7205906], [-27.2727261, 38.7204014], [-27.2731319, 38.7203411], [-27.2736316, 38.7202963], [-27.2746635, 38.7202324], [-27.2789501, 38.7200343], [-27.2803761, 38.7199601]]}, "properties": {"access": "permissive", "bicycle": "yes", "foot": "yes", "highway": "primary", "horse": "yes", "lanes": "2", "ref": "EN 5-2", "surface": "asphalt"}}]}