{"type": "FeatureCollection", "features": [{"type": "Feature", "geometry": {"type": "LineString", "coordinates": [[-8.6930434, 41.2020729], [-8.6931487, 41.2022358], [-8.6931836, 41.2023574], [-8.6931938, 41.2025077]]}, "properties": {"highway": "primary", "lit": "yes", "name": "Rua Veloso Salgado", "oneway": "yes", "ref": "EN 540-1", "surface": "asphalt"}}, {"type": "Feature", "geometry": {"type": "LineString", "coordinates": [[-8.6930434, 41.2020729], [-8.6931202, 41.2021047], [-8.6932056, 41.2021197], [-8.6932932, 41.2021168], [-8.6933765, 41.2020962], [-8.6934493, 41.2020595]]}, "properties": {"alt_name": "Rotunda da Exponor", "highway": "primary", "junction": "roundabout", "lanes": "2", "lit": "yes", "ref": "EN 540-1", "surface": "asphalt"}}, {"type": "Feature", "geometry": {"type": "LineString", "coordinates": [[-8.6931938, 41.2025077], [-8.6933405, 41.2022388], [-8.6934156, 41.202115], [-8.6934493, 41.2020595]]}, "properties": {"highway": "primary", "lanes": "1", "lit": "yes", "name": "Rua Veloso Salgado", "oneway": "yes", "ref": "EN 540-1", "surface": "asphalt"}}, {"type": "Feature", "geometry": {"type": "LineString", "coordinates": [[-8.6931938, 41.2025077], [-8.6930888, 41.202813], [-8.6930578, 41.202918], [-8.6929418, 41.2032905]]}, "properties": {"highway": "primary", "lanes": "2", "lanes:backward": "1", "lanes:forward": "1", "lit": "yes", "name": "Rua Veloso Salgado", "oneway": "no", "ref": "EN 540-1", "surface": "asphalt"}}, {"type": "Feature", "geometry": {"type": "LineString", "coordinates": [[-8.690598, 41.2045244], [-8.6899631, 41.2045374]]}, "properties": {"bridge": "yes", "highway": "primary", "layer": "1", "lit": "yes", "maxweight:signed": "no", "name": "Rua Veloso Salgado", "oneway": "no", "ref": "EN 540-1", "surface": "asphalt"}}, {"type": "Feature", "geometry": {"type": "LineString", "coordinates": [[-8.6899631, 41.2045374], [-8.6897013, 41.2045418], [-8.6895445, 41.2045442], [-8.6892796, 41.2045487], [-8.6886631, 41.2045618], [-8.6882474, 41.2045708], [-8.6881223, 41.2045739]]}, "properties": {"highway": "primary", "lanes": "2", "lit": "yes", "maxspeed:type": "PT:urban", "name": "Rua Veloso Salgado", "oneway": "no", "ref": "EN 540-1", "surface": "asphalt"}}, {"type": "Feature", "geometry": {"type": "LineString", "coordinates": [[-8.6874967, 41.2049297], [-8.6875736, 41.20491], [-8.6876444, 41.2048791], [-8.6877056, 41.2048386], [-8.6877551, 41.2047899]]}, "properties": {"highway": "primary", "junction": "roundabout", "lanes": "2", "ref": "EN 540-1", "surface": "asphalt"}}, {"type": "Feature", "geometry": {"type": "LineString", "coordinates": [[-8.6881223, 41.2045739], [-8.6879213, 41.2045463], [-8.6877801, 41.2044959]]}, "properties": {"highway": "primary", "oneway": "yes", "ref": "EN 540-1", "source": "bing", "surface": "asphalt"}}, {"type": "Feature", "geometry": {"type": "LineString", "coordinates": [[-8.6878119, 41.2046755], [-8.6879496, 41.204638], [-8.6881223, 41.2045739]]}, "properties": {"highway": "primary", "oneway": "yes", "ref": "EN 540-1", "source": "bing", "surface": "asphalt"}}, {"type": "Feature", "geometry": {"type": "LineString", "coordinates": [[-8.6929603, 41.2020044], [-8.6929975, 41.2020417], [-8.6930434, 41.2020729]]}, "properties": {"alt_name": "Rotunda da Exponor", "highway": "primary", "junction": "roundabout", "lanes": "2", "lit": "yes", "ref": "EN 540-1", "surface": "asphalt"}}, {"type": "Feature", "geometry": {"type": "LineString", "coordinates": [[-8.6929469, 41.2017708], [-8.6929204, 41.2018283], [-8.6929154, 41.2018735], [-8.6929137, 41.2018889], [-8.6929273, 41.2019489], [-8.6929603, 41.2020044]]}, "properties": {"alt_name": "Rotunda da Exponor", "highway": "primary", "junction": "roundabout", "lanes": "2", "lit": "yes", "ref": "EN 540-1", "surface": "asphalt"}}, {"type": "Feature", "geometry": {"type": "LineString", "coordinates": [[-8.6933739, 41.2016598], [-8.6932921, 41.20164], [-8.6932063, 41.2016372], [-8.6931225, 41.2016516], [-8.6930468, 41.2016821]]}, "properties": {"alt_name": "Rotunda da Exponor", "highway": "primary", "junction": "roundabout", "lanes": "2", "lit": "yes", "ref": "EN 540-1", "surface": "asphalt"}}, {"type": "Feature", "geometry": {"type": "LineString", "coordinates": [[-8.6934863, 41.2017266], [-8.6934351, 41.2016884], [-8.6933739, 41.2016598]]}, "properties": {"alt_name": "Rotunda da Exponor", "highway": "primary", "junction": "roundabout", "lanes": "2", "lit": "yes", "ref": "EN 540-1", "surface": "asphalt"}}, {"type": "Feature", "geometry": {"type": "LineString", "coordinates": [[-8.6935288, 41.2019783], [-8.6935538, 41.2019145], [-8.6935548, 41.2018479], [-8.6935317, 41.2017837], [-8.6934863, 41.2017266]]}, "properties": {"alt_name": "Rotunda da Exponor", "highway": "primary", "junction": "roundabout", "lanes": "2", "lit": "yes", "ref": "EN 540-1", "surface": "asphalt"}}, {"type": "Feature", "geometry": {"type": "LineString", "coordinates": [[-8.6934493, 41.2020595], [-8.6934947, 41.202022], [-8.6935288, 41.2019783]]}, "properties": {"alt_name": "Rotunda da Exponor", "highway": "primary", "junction": "roundabout", "lanes": "2", "lit": "yes", "ref": "EN 540-1", "surface": "asphalt"}}, {"type": "Feature", "geometry": {"type": "LineString", "coordinates": [[-8.6874162, 41.2049378], [-8.6874967, 41.2049297]]}, "properties": {"highway": "primary", "junction": "roundabout", "lanes": "2", "ref": "EN 540-1", "surface": "asphalt"}}, {"type": "Feature", "geometry": {"type": "LineString", "coordinates": [[-8.6871826, 41.204891], [-8.6872561, 41.2049182], [-8.6873351, 41.2049339], [-8.6874162, 41.2049378]]}, "properties": {"highway": "primary", "junction": "roundabout", "lanes": "2", "ref": "EN 540-1", "surface": "asphalt"}}, {"type": "Feature", "geometry": {"type": "LineString", "coordinates": [[-8.6869969, 41.2046966], [-8.6870231, 41.2047546], [-8.6870641, 41.2048078]]}, "properties": {"highway": "primary", "junction": "roundabout", "lanes": "2", "ref": "EN 540-1", "surface": "asphalt"}}, {"type": "Feature", "geometry": {"type": "LineString", "coordinates": [[-8.6869914, 41.2045746], [-8.6869862, 41.2046358], [-8.6869969, 41.2046966]]}, "properties": {"highway": "primary", "junction": "roundabout", "lanes": "2", "ref": "EN 540-1", "surface": "asphalt"}}, {"type": "Feature", "geometry": {"type": "LineString", "coordinates": [[-8.6871593, 41.2043711], [-8.6870979, 41.2044116], [-8.6870484, 41.2044603], [-8.6870123, 41.2045156], [-8.6869914, 41.2045746]]}, "properties": {"highway": "primary", "junction": "roundabout", "lanes": "2", "ref": "EN 540-1", "surface": "asphalt"}}, {"type": "Feature", "geometry": {"type": "LineString", "coordinates": [[-8.6875475, 41.2043323], [-8.6874687, 41.2043166], [-8.6873875, 41.2043126], [-8.6873067, 41.2043207], [-8.6872298, 41.2043404]]}, "properties": {"highway": "primary", "junction": "roundabout", "lanes": "2", "ref": "EN 540-1", "surface": "asphalt"}}, {"type": "Feature", "geometry": {"type": "LineString", "coordinates": [[-8.6877392, 41.2044426], [-8.6876854, 41.2043966], [-8.6876551, 41.2043792], [-8.6876206, 41.2043594], [-8.6875716, 41.2043404], [-8.6875475, 41.2043323]]}, "properties": {"highway": "primary", "junction": "roundabout", "lanes": "2", "ref": "EN 540-1", "surface": "asphalt"}}, {"type": "Feature", "geometry": {"type": "LineString", "coordinates": [[-8.6878119, 41.2046755], [-8.6878171, 41.2046144], [-8.6878063, 41.2045536], [-8.6877801, 41.2044959]]}, "properties": {"highway": "primary", "junction": "roundabout", "lanes": "2", "ref": "EN 540-1", "surface": "asphalt"}}, {"type": "Feature", "geometry": {"type": "LineString", "coordinates": [[-8.6877551, 41.2047899], [-8.6877909, 41.204735], [-8.6878119, 41.2046755]]}, "properties": {"highway": "primary", "junction": "roundabout", "lanes": "2", "ref": "EN 540-1", "surface": "asphalt"}}, {"type": "Feature", "geometry": {"type": "LineString", "coordinates": [[-8.6930468, 41.2016821], [-8.6929897, 41.2017219], [-8.6929469, 41.2017708]]}, "properties": {"alt_name": "Rotunda da Exponor", "highway": "primary", "junction": "roundabout", "lanes": "2", "lit": "yes", "ref": "EN 540-1", "surface": "asphalt"}}, {"type": "Feature", "geometry": {"type": "LineString", "coordinates": [[-8.6877801, 41.2044959], [-8.6877392, 41.2044426]]}, "properties": {"highway": "primary", "junction": "roundabout", "lanes": "2", "ref": "EN 540-1", "surface": "asphalt"}}, {"type": "Feature", "geometry": {"type": "LineString", "coordinates": [[-8.6872298, 41.2043404], [-8.6871593, 41.2043711]]}, "properties": {"highway": "primary", "junction": "roundabout", "lanes": "2", "ref": "EN 540-1", "surface": "asphalt"}}, {"type": "Feature", "geometry": {"type": "LineString", "coordinates": [[-8.6870641, 41.2048078], [-8.6871183, 41.2048541], [-8.6871826, 41.204891]]}, "properties": {"highway": "primary", "junction": "roundabout", "lanes": "2", "ref": "EN 540-1", "surface": "asphalt"}}, {"type": "Feature", "geometry": {"type": "LineString", "coordinates": [[-8.6928814, 41.2034902], [-8.6928317, 41.2036239], [-8.6927761, 41.2037733], [-8.6926687, 41.2039738], [-8.6924842, 41.2041675], [-8.6923943, 41.2042286], [-8.6922432, 41.2043152], [-8.6920804, 41.2043916], [-8.6918984, 41.2044517], [-8.6917302, 41.2044878], [-8.6915814, 41.2045036], [-8.6914855, 41.2045079], [-8.6906641, 41.2045235], [-8.690598, 41.2045244]]}, "properties": {"highway": "primary", "lanes": "2", "lanes:backward": "1", "lanes:forward": "1", "lit": "yes", "name": "Rua Veloso Salgado", "oneway": "no", "ref": "EN 540-1", "surface": "asphalt"}}, {"type": "Feature", "geometry": {"type": "LineString", "coordinates": [[-8.6929418, 41.2032905], [-8.6928814, 41.2034902]]}, "properties": {"highway": "primary", "lanes": "2", "lanes:backward": "1", "lanes:forward": "1", "lit": "yes", "name": "Rua Veloso Salgado", "oneway": "no", "ref": "EN 540-1", "surface": "asphalt"}}]}