{"type": "FeatureCollection", "features": [{"type": "Feature", "geometry": {"type": "LineString", "coordinates": [[-27.1537429, 38.7320131], [-27.1538097, 38.7319168], [-27.1538564, 38.7318616], [-27.1539614, 38.731745], [-27.1540996, 38.7315875], [-27.1542778, 38.7313754], [-27.1544911, 38.7311845], [-27.1548255, 38.730884], [-27.1551666, 38.7306162], [-27.1554492, 38.7304425], [-27.1557181, 38.7303108], [-27.1563586, 38.7300247], [-27.1592031, 38.7288571], [-27.1597749, 38.7286067], [-27.1602506, 38.728407], [-27.1605069, 38.7282865], [-27.1609868, 38.728082], [-27.1615915, 38.727886], [-27.1623925, 38.7276158], [-27.1644596, 38.72692], [-27.1668589, 38.7261296], [-27.1674335, 38.7259502], [-27.1677188, 38.7258555], [-27.1679827, 38.7257858], [-27.1682318, 38.7257343], [-27.1684788, 38.7256961], [-27.1693793, 38.7255483], [-27.1698285, 38.7254652], [-27.170035, 38.7254287], [-27.1701585, 38.7253988], [-27.1702883, 38.7253623], [-27.1704458, 38.7253091], [-27.1705906, 38.7252527], [-27.174064, 38.7240146], [-27.1744301, 38.7238833], [-27.1764727, 38.72315], [-27.1767281, 38.723052], [-27.176858, 38.7230022], [-27.1769815, 38.7229457], [-27.1770688, 38.7229025], [-27.1771667, 38.7228461], [-27.1772668, 38.7227846], [-27.1773902, 38.7227016], [-27.177552, 38.7225786], [-27.1776904, 38.7224557], [-27.1778054, 38.7223362], [-27.1778841, 38.7222415], [-27.1780076, 38.722077], [-27.1780885, 38.7219541], [-27.1781843, 38.7217731], [-27.1786232, 38.7209401], [-27.1786761, 38.7208729], [-27.1787506, 38.7207931], [-27.1788315, 38.7207234], [-27.1789443, 38.720632], [-27.1790678, 38.7205523], [-27.1791934, 38.7204809], [-27.1793232, 38.7204161], [-27.1794403, 38.7203713], [-27.1796021, 38.7203331], [-27.1798383, 38.7202993], [-27.1802022, 38.7202706], [-27.1821008, 38.720171], [-27.1824755, 38.7201478], [-27.18265, 38.7201279], [-27.1827735, 38.7201113], [-27.1828863, 38.7200897], [-27.1829694, 38.7200681], [-27.1831333, 38.7200083], [-27.1832695, 38.7199485], [-27.1833717, 38.7198953], [-27.1834973, 38.7198123], [-27.1835846, 38.7197475], [-27.1836783, 38.7196728], [-27.1837571, 38.7195914], [-27.1838273, 38.7195083], [-27.1838869, 38.7194136], [-27.1839934, 38.7192376], [-27.1846022, 38.7182709], [-27.1846697, 38.7181281], [-27.18474, 38.7179901], [-27.1847893, 38.7178679], [-27.1848212, 38.7177404], [-27.1848301, 38.7176357], [-27.1848688, 38.7172628], [-27.1843407, 38.7139606], [-27.1843354, 38.713867], [-27.1843614, 38.713765], [-27.1844192, 38.7136956], [-27.1845311, 38.7136538], [-27.1848531, 38.7135385], [-27.1850743, 38.7135057], [-27.1857822, 38.7134811], [-27.1874242, 38.71341], [-27.1875543, 38.713411], [-27.1876656, 38.7134163], [-27.1878158, 38.7134257], [-27.1879795, 38.7134414], [-27.1881404, 38.7134621], [-27.1884278, 38.7135269], [-27.1887238, 38.713613], [-27.1899029, 38.7139891], [-27.1930907, 38.7150262], [-27.1937583, 38.7152402], [-27.1938937, 38.7152831], [-27.1939836, 38.7153082], [-27.194046, 38.7153234], [-27.1941051, 38.7153333], [-27.1941702, 38.7153432], [-27.1942581, 38.7153518], [-27.1943578, 38.7153564], [-27.1952979, 38.7153899], [-27.1954346, 38.7153898], [-27.1955232, 38.7153846], [-27.1956009, 38.7153773], [-27.1956573, 38.7153679], [-27.1957163, 38.7153574], [-27.1957699, 38.7153427], [-27.1958316, 38.7153239], [-27.1958933, 38.7152998], [-27.1959604, 38.7152643], [-27.1960408, 38.7152157], [-27.1965848, 38.7148726], [-27.1967807, 38.714748], [-27.1969638, 38.7146567], [-27.1970447, 38.7146218], [-27.1971341, 38.7145902], [-27.1972235, 38.7145653], [-27.1972993, 38.7145515], [-27.1973704, 38.7145452], [-27.1974629, 38.7145441], [-27.1975684, 38.7145487], [-27.1997305, 38.7147109], [-27.2028628, 38.7149058], [-27.2031146, 38.7149108], [-27.2033211, 38.7149108], [-27.2035536, 38.7148982], [-27.2036923, 38.7148891], [-27.2043396, 38.7148243], [-27.206195, 38.7147029], [-27.2082391, 38.7145659], [-27.2090148, 38.714516], [-27.2118969, 38.7143565], [-27.2130878, 38.7142942], [-27.213264, 38.7142875], [-27.21338, 38.7142875], [-27.2134917, 38.7142942], [-27.2135905, 38.7143076], [-27.2136979, 38.7143445], [-27.2138289, 38.7143942], [-27.2139446, 38.7144745], [-27.2140343, 38.7145532], [-27.2141047, 38.7146211], [-27.214178, 38.7147009], [-27.2144913, 38.7152008], [-27.2161859, 38.717827], [-27.2161957, 38.7179377], [-27.2161974, 38.7180593], [-27.2161508, 38.7184488], [-27.2161113, 38.7189004], [-27.2160941, 38.7191587], [-27.2161025, 38.7193703], [-27.216149, 38.7195449], [-27.216195, 38.719649], [-27.216285, 38.7197983], [-27.2164189, 38.7199742], [-27.2173884, 38.7212598], [-27.2180739, 38.72217], [-27.2182261, 38.7223509], [-27.2183531, 38.7224624], [-27.2185593, 38.7226317], [-27.2188297, 38.7228161], [-27.2199284, 38.7235501], [-27.2213404, 38.7245085], [-27.2226082, 38.7253655], [-27.2227186, 38.7254151], [-27.2228554, 38.7254404], [-27.2229816, 38.7254427], [-27.223367, 38.7254062], [-27.2235977, 38.7253929], [-27.2238071, 38.7253907], [-27.2239816, 38.7254186], [-27.2241578, 38.7254713], [-27.2243158, 38.7255532], [-27.2244894, 38.7256662], [-27.2250098, 38.7260631], [-27.2255779, 38.7264596], [-27.2257938, 38.7265904], [-27.2259618, 38.7266667], [-27.2261208, 38.7267], [-27.2262373, 38.726707], [-27.2263567, 38.7266883], [-27.2264853, 38.7266455], [-27.2266087, 38.7265715], [-27.2283077, 38.7254674], [-27.2285751, 38.7253], [-27.2287747, 38.7252131], [-27.2291406, 38.7251399], [-27.2297838, 38.7250328], [-27.2304773, 38.7249107], [-27.2307676, 38.7248584], [-27.230926, 38.724845], [-27.2310961, 38.7248412], [-27.2315283, 38.7248685], [-27.2316727, 38.7248647], [-27.2317904, 38.724839], [-27.2319186, 38.7247915], [-27.2323885, 38.7245743], [-27.2329782, 38.724276], [-27.2333085, 38.7241603], [-27.2342542, 38.7239519], [-27.2343251, 38.7239393], [-27.2344344, 38.7239491], [-27.2345729, 38.7239752], [-27.2347477, 38.7240296], [-27.2355005, 38.7243484], [-27.2357606, 38.7244549], [-27.2361676, 38.7245863], [-27.2368062, 38.7248452], [-27.2369421, 38.724893], [-27.2370575, 38.724925], [-27.2372146, 38.7249586], [-27.2373551, 38.7249802], [-27.2376042, 38.7250101], [-27.238143, 38.7250732], [-27.2382705, 38.7250981], [-27.2384032, 38.7251311], [-27.238534, 38.7251816], [-27.238634, 38.7252411], [-27.2387985, 38.7253871], [-27.2391245, 38.7257187], [-27.239291, 38.7258625], [-27.2394075, 38.7259278], [-27.239538, 38.7259741], [-27.2397517, 38.7260037], [-27.2398157, 38.726008], [-27.2398824, 38.7260037], [-27.2399546, 38.7259889], [-27.2400213, 38.7259729], [-27.2402978, 38.7258986], [-27.2412094, 38.7256516], [-27.2419658, 38.7254455], [-27.2428421, 38.7252045], [-27.2430102, 38.7251552], [-27.2431829, 38.7251039], [-27.2438708, 38.7248613], [-27.2441822, 38.7247489], [-27.2443913, 38.7246818], [-27.2445022, 38.7246492], [-27.2446115, 38.7246241], [-27.2447932, 38.7245952], [-27.2449523, 38.7245802], [-27.245134, 38.7245676], [-27.2455568, 38.7245764], [-27.2458111, 38.724587], [-27.2458917, 38.7245903], [-27.2483448, 38.7247355], [-27.2488631, 38.7247727]]}, "properties": {"highway": "primary", "ref": "EN 5-2\u00aa", "surface": "asphalt"}}]}