{"type": "FeatureCollection", "features": [{"type": "Feature", "geometry": {"type": "LineString", "coordinates": [[-8.769271, 41.6414672], [-8.7692152, 41.6414293], [-8.7691493, 41.6413723], [-8.7690956, 41.6413426]]}, "properties": {"highway": "primary", "oneway": "yes", "ref": "EN13", "surface": "asphalt"}}, {"type": "Feature", "geometry": {"type": "LineString", "coordinates": [[-8.7692604, 41.6417564], [-8.7693408, 41.6418012], [-8.7693949, 41.6418309], [-8.7694639, 41.6418791]]}, "properties": {"highway": "primary", "oneway": "yes", "ref": "EN13", "surface": "asphalt"}}]}