{"type": "FeatureCollection", "features": [{"type": "Feature", "geometry": {"type": "LineString", "coordinates": [[-7.5004855, 40.2426061], [-7.5006508, 40.2421197], [-7.5009431, 40.2408625], [-7.5010321, 40.2401956], [-7.5010397, 40.2400548], [-7.5010375, 40.2399698], [-7.5010348, 40.2392102]]}, "properties": {"highway": "primary", "lanes": "2", "name": "Variante \u00e0 EN 18", "oneway": "yes", "ref": "EN18", "surface": "asphalt"}}, {"type": "Feature", "geometry": {"type": "LineString", "coordinates": [[-7.5010348, 40.2392102], [-7.5009297, 40.2386625], [-7.5007741, 40.238034], [-7.5001907, 40.2362246], [-7.4996483, 40.2345344]]}, "properties": {"highway": "primary", "lanes": "1", "name": "Variante \u00e0 EN 18", "oneway": "yes", "ref": "EN18", "surface": "asphalt"}}]}