{"type": "FeatureCollection", "features": [{"type": "Feature", "geometry": {"type": "LineString", "coordinates": [[-8.1252375, 40.4127445], [-8.1252564, 40.4127782], [-8.1252875, 40.4128062], [-8.125328, 40.4128259], [-8.1253744, 40.4128357], [-8.1254225, 40.4128347]]}, "properties": {"highway": "primary", "junction": "roundabout", "ref": "EN2", "surface": "asphalt"}}, {"type": "Feature", "geometry": {"type": "LineString", "coordinates": [[-8.1254225, 40.4128347], [-8.1254757, 40.4128187], [-8.1255146, 40.4127954], [-8.125543, 40.4127609], [-8.1255551, 40.4127212], [-8.1255496, 40.4126807], [-8.1255385, 40.4126627], [-8.1255269, 40.4126438]]}, "properties": {"highway": "primary", "junction": "roundabout", "ref": "EN2", "surface": "asphalt"}}, {"type": "Feature", "geometry": {"type": "LineString", "coordinates": [[-8.1253171, 40.4126054], [-8.1252874, 40.4126212], [-8.125263, 40.4126415], [-8.1252452, 40.4126655], [-8.1252351, 40.4126912], [-8.1252325, 40.412718], [-8.1252375, 40.4127445]]}, "properties": {"highway": "primary", "junction": "roundabout", "ref": "EN2", "surface": "asphalt"}}, {"type": "Feature", "geometry": {"type": "LineString", "coordinates": [[-8.1255269, 40.4126438], [-8.12549, 40.4126148], [-8.1254427, 40.4125964], [-8.1254003, 40.4125907], [-8.1253574, 40.4125938], [-8.1253171, 40.4126054]]}, "properties": {"highway": "primary", "junction": "roundabout", "ref": "EN2", "surface": "asphalt"}}]}