{"type": "FeatureCollection", "features": [{"type": "Feature", "geometry": {"type": "LineString", "coordinates": [[-7.4503169, 38.1374485], [-7.4502747, 38.1375468]]}, "properties": {"highway": "primary", "oneway": "yes", "ref": "EN255", "surface": "asphalt"}}, {"type": "Feature", "geometry": {"type": "LineString", "coordinates": [[-7.4503477, 38.1377027], [-7.4503427, 38.1376243]]}, "properties": {"highway": "primary", "oneway": "yes", "ref": "EN255"}}, {"type": "Feature", "geometry": {"type": "LineString", "coordinates": [[-7.4503327, 38.1375567], [-7.4503169, 38.1374485]]}, "properties": {"highway": "primary", "oneway": "yes", "ref": "EN255", "surface": "asphalt"}}]}