{"type": "FeatureCollection", "features": [{"type": "Feature", "geometry": {"type": "LineString", "coordinates": [[-8.4907131, 40.2018291], [-8.4912436, 40.2018944]]}, "properties": {"highway": "trunk", "lanes": "3", "motorroad": "yes", "oneway": "yes", "placement": "right_of:1", "ref": "EN341", "surface": "asphalt"}}, {"type": "Feature", "geometry": {"type": "LineString", "coordinates": [[-8.4579378, 40.2138977], [-8.4574218, 40.2140003], [-8.4569377, 40.2140833]]}, "properties": {"highway": "trunk", "lanes": "3", "motorroad": "yes", "oneway": "yes", "ref": "EN341", "surface": "asphalt", "turn:lanes": "through|through;right|right"}}]}