{"type": "FeatureCollection", "features": [{"type": "Feature", "geometry": {"type": "LineString", "coordinates": [[-9.2806734, 39.0972439], [-9.2806108, 39.0972521], [-9.2805544, 39.0972746], [-9.2805094, 39.0973093], [-9.2804801, 39.097353], [-9.2804692, 39.0974015], [-9.2804777, 39.0974502], [-9.2805048, 39.0974947], [-9.2805421, 39.097527], [-9.2805892, 39.0975503], [-9.2806426, 39.097563], [-9.2806939, 39.0975646], [-9.2807441, 39.0975562], [-9.2807901, 39.0975386], [-9.2808273, 39.0975142], [-9.2808567, 39.0974843], [-9.280875, 39.097449]]}, "properties": {"highway": "primary", "junction": "roundabout", "lanes": "2", "ref": "EN9", "surface": "asphalt"}}, {"type": "Feature", "geometry": {"type": "LineString", "coordinates": [[-9.2896275, 39.0960523], [-9.2893962, 39.0961602], [-9.2888273, 39.0963426], [-9.2882497, 39.0966579], [-9.2878411, 39.0969], [-9.2876105, 39.0970108], [-9.2871865, 39.0972034], [-9.2867077, 39.0972989], [-9.2861827, 39.097321], [-9.2856556, 39.0974114], [-9.2849703, 39.0975495], [-9.2845551, 39.097575], [-9.2837007, 39.0975239], [-9.2831814, 39.0974852], [-9.2830373, 39.0974745], [-9.2827321, 39.0974479], [-9.2824113, 39.0974199], [-9.2819347, 39.097321], [-9.2814624, 39.0972409], [-9.2811154, 39.0972597], [-9.2806734, 39.0972439]]}, "properties": {"highway": "primary", "lanes": "2", "oneway": "yes", "ref": "EN9", "surface": "asphalt"}}, {"type": "Feature", "geometry": {"type": "LineString", "coordinates": [[-9.280875, 39.097449], [-9.280883, 39.0973997], [-9.2808711, 39.0973508], [-9.2808406, 39.0973071], [-9.2807944, 39.0972727], [-9.2807368, 39.097251], [-9.2806734, 39.0972439]]}, "properties": {"highway": "primary", "junction": "roundabout", "lanes": "2", "ref": "EN9", "surface": "asphalt"}}]}