{"type": "FeatureCollection", "features": [{"type": "Feature", "geometry": {"type": "LineString", "coordinates": [[-7.9156102, 38.576244], [-7.9161828, 38.5765426]]}, "properties": {"highway": "primary", "lanes": "2", "name": "Avenida Condes Vilalva", "postal_code": "7000-744", "ref": "ER 114-4", "source": "bing", "surface": "asphalt"}}, {"type": "Feature", "geometry": {"type": "LineString", "coordinates": [[-8.0001847, 38.6414848], [-8.0001911, 38.641459], [-8.0002209, 38.6412769], [-8.0002258, 38.6412161], [-8.0002457, 38.6409688], [-8.0002404, 38.6406005], [-8.0002249, 38.6403959], [-8.000194, 38.6401635], [-8.0001488, 38.6399288], [-8.0000898, 38.6397081], [-8.0000067, 38.6394722], [-7.9999375, 38.6393081], [-7.9998463, 38.639116], [-7.9997765, 38.6389695], [-7.9996828, 38.6388015], [-7.999573, 38.6386551]]}, "properties": {"highway": "primary", "lanes": "2", "maxspeed": "80", "oneway": "yes", "ref": "ER 114-4"}}, {"type": "Feature", "geometry": {"type": "LineString", "coordinates": [[-7.9855991, 38.6211648], [-7.9852128, 38.6208573], [-7.9848002, 38.6204802], [-7.9839803, 38.6197971], [-7.9837629, 38.6196435], [-7.9835574, 38.619533], [-7.983291, 38.6194023], [-7.9828327, 38.6192213], [-7.9783111, 38.6175839], [-7.9764457, 38.6169166], [-7.9752709, 38.6164911], [-7.9735717, 38.6158841], [-7.9723647, 38.6154507], [-7.9707366, 38.6148648], [-7.9691555, 38.6142905], [-7.9685271, 38.6139994], [-7.9682127, 38.6138327], [-7.9679418, 38.6136723], [-7.967471, 38.6133685], [-7.966429, 38.6126569], [-7.9643959, 38.6112769], [-7.9603819, 38.6085473], [-7.9596712, 38.6080568], [-7.9586841, 38.6073857], [-7.9576622, 38.6066846], [-7.9557011, 38.6053411], [-7.9547614, 38.604702], [-7.9518102, 38.6027042], [-7.9501073, 38.6015262], [-7.9494689, 38.6010641], [-7.9489309, 38.6005857], [-7.9453745, 38.5964557], [-7.9440005, 38.5948535], [-7.9434365, 38.5941958], [-7.942499, 38.5931025], [-7.9418092, 38.5922956], [-7.9410665, 38.5914269], [-7.9409771, 38.5913428], [-7.9409084, 38.5912781], [-7.9406061, 38.5910453], [-7.940108, 38.5907014], [-7.9386698, 38.5899831], [-7.9382989, 38.5897933]]}, "properties": {"highway": "primary", "lanes": "2", "maxspeed": "90", "ref": "ER 114-4", "surface": "asphalt"}}, {"type": "Feature", "geometry": {"type": "LineString", "coordinates": [[-7.9861633, 38.621637], [-7.9855991, 38.6211648]]}, "properties": {"bridge": "yes", "highway": "primary", "lanes": "2", "layer": "1", "maxspeed": "90", "ref": "ER 114-4"}}, {"type": "Feature", "geometry": {"type": "LineString", "coordinates": [[-7.9150931, 38.5759621], [-7.9149228, 38.5758761], [-7.9147698, 38.5757989], [-7.9147046, 38.5757635], [-7.9146812, 38.5757507], [-7.9146249, 38.5757161], [-7.9146058, 38.5757008], [-7.9145938, 38.5756852], [-7.9145823, 38.5756532]]}, "properties": {"highway": "primary", "lanes": "2", "maxspeed": "50", "name": "Avenida Condes Vilalva", "oneway": "yes", "postal_code": "7000-744", "ref": "ER 114-4", "source": "bing", "surface": "asphalt"}}, {"type": "Feature", "geometry": {"type": "LineString", "coordinates": [[-7.9150554, 38.5760301], [-7.9156102, 38.576244]]}, "properties": {"highway": "primary", "lanes": "1", "maxspeed": "50", "name": "Avenida Condes Vilalva", "oneway": "yes", "postal_code": "7000-744", "ref": "ER 114-4", "surface": "asphalt"}}, {"type": "Feature", "geometry": {"type": "LineString", "coordinates": [[-7.9156102, 38.576244], [-7.9150931, 38.5759621]]}, "properties": {"highway": "primary", "lanes": "1", "maxspeed": "50", "name": "Avenida Condes Vilalva", "oneway": "yes", "postal_code": "7000-744", "ref": "ER 114-4", "surface": "asphalt"}}, {"type": "Feature", "geometry": {"type": "LineString", "coordinates": [[-7.9161828, 38.5765426], [-7.9162792, 38.5765958]]}, "properties": {"highway": "primary", "lanes": "2", "name": "Avenida Condes Vilalva", "postal_code": "7000-744", "ref": "ER 114-4", "source": "bing", "surface": "asphalt"}}, {"type": "Feature", "geometry": {"type": "LineString", "coordinates": [[-7.9162792, 38.5765958], [-7.9165374, 38.5767379], [-7.9165825, 38.5767632], [-7.9166275, 38.5767875], [-7.9166684, 38.5768094], [-7.9174798, 38.5772441], [-7.9179062, 38.5774726], [-7.9184176, 38.5777379]]}, "properties": {"alt_name": "Estrada de Arraiolos", "highway": "primary", "lanes": "2", "lit": "yes", "maxspeed": "50", "name": "Avenida Condes de Vilalva", "postal_code": "7000-744", "ref": "ER 114-4", "source": "bing", "surface": "asphalt"}}, {"type": "Feature", "geometry": {"type": "LineString", "coordinates": [[-7.9144554, 38.5757785], [-7.9145001, 38.5757856], [-7.9145538, 38.5757974], [-7.9146145, 38.5758184], [-7.9146454, 38.575831], [-7.9150554, 38.5760301]]}, "properties": {"highway": "primary", "lanes": "2", "maxspeed": "50", "name": "Avenida Condes Vilalva", "oneway": "yes", "postal_code": "7000-744", "ref": "ER 114-4", "source": "bing", "surface": "asphalt"}}, {"type": "Feature", "geometry": {"type": "LineString", "coordinates": [[-7.9925162, 38.6294151], [-7.9905234, 38.6268093], [-7.9895926, 38.6256766], [-7.988458, 38.6241271], [-7.9876108, 38.6230439], [-7.9873977, 38.6227702], [-7.9872287, 38.6225916], [-7.9870256, 38.6223791], [-7.9868218, 38.622192], [-7.9866808, 38.6220686], [-7.9861633, 38.621637]]}, "properties": {"highway": "primary", "lanes": "2", "maxspeed": "90", "ref": "ER 114-4"}}, {"type": "Feature", "geometry": {"type": "LineString", "coordinates": [[-7.920596, 38.5792547], [-7.9207476, 38.5793858]]}, "properties": {"alt_name": "Estrada de Arraiolos", "highway": "primary", "lanes": "2", "lit": "yes", "maxspeed": "50", "name": "Avenida Condes de Vilalva", "postal_code": "7000-744", "ref": "ER 114-4", "source": "bing", "surface": "asphalt"}}, {"type": "Feature", "geometry": {"type": "LineString", "coordinates": [[-7.9185805, 38.5778151], [-7.9188951, 38.5779946], [-7.9193868, 38.5782784], [-7.9198131, 38.5785773], [-7.920596, 38.5792547]]}, "properties": {"alt_name": "Estrada de Arraiolos", "highway": "primary", "lanes": "2", "lit": "yes", "maxspeed": "50", "name": "Avenida Condes de Vilalva", "postal_code": "7000-744", "ref": "ER 114-4", "surface": "asphalt"}}, {"type": "Feature", "geometry": {"type": "LineString", "coordinates": [[-7.9184176, 38.5777379], [-7.9185805, 38.5778151]]}, "properties": {"alt_name": "Estrada de Arraiolos", "highway": "primary", "lanes": "2", "lit": "yes", "maxspeed": "50", "name": "Avenida Condes de Vilalva", "postal_code": "7000-744", "ref": "ER 114-4", "source": "bing", "surface": "asphalt"}}, {"type": "Feature", "geometry": {"type": "LineString", "coordinates": [[-7.992652, 38.6295953], [-7.9925162, 38.6294151]]}, "properties": {"bridge": "yes", "highway": "primary", "lanes": "2", "layer": "1", "maxspeed": "90", "ref": "ER 114-4"}}, {"type": "Feature", "geometry": {"type": "LineString", "coordinates": [[-7.999573, 38.6386551], [-7.9994374, 38.6384428], [-7.9991894, 38.6381097], [-7.9983325, 38.6369761], [-7.9960625, 38.6340357], [-7.9939286, 38.6312502], [-7.992652, 38.6295953]]}, "properties": {"highway": "primary", "lanes": "2", "maxspeed": "90", "ref": "ER 114-4"}}, {"type": "Feature", "geometry": {"type": "LineString", "coordinates": [[-7.9211893, 38.5797679], [-7.9211606, 38.5797431], [-7.9209575, 38.5795675], [-7.9207476, 38.5793858]]}, "properties": {"highway": "primary", "lanes": "2", "maxspeed": "90", "ref": "ER 114-4", "surface": "asphalt"}}, {"type": "Feature", "geometry": {"type": "LineString", "coordinates": [[-7.9247443, 38.5824821], [-7.9242032, 38.58217], [-7.9236955, 38.5818599]]}, "properties": {"highway": "primary", "lanes": "2", "maxspeed": "70", "ref": "ER 114-4"}}, {"type": "Feature", "geometry": {"type": "LineString", "coordinates": [[-7.9343468, 38.5877358], [-7.9333732, 38.5872057], [-7.931693, 38.5862826], [-7.9303783, 38.5855603]]}, "properties": {"highway": "primary", "lanes": "2", "maxspeed": "90", "ref": "ER 114-4"}}, {"type": "Feature", "geometry": {"type": "LineString", "coordinates": [[-7.9228238, 38.5811751], [-7.9217511, 38.5802408], [-7.9212243, 38.5797982], [-7.9211893, 38.5797679]]}, "properties": {"highway": "primary", "lanes": "2", "maxspeed": "50", "ref": "ER 114-4"}}, {"type": "Feature", "geometry": {"type": "LineString", "coordinates": [[-7.9236955, 38.5818599], [-7.9236018, 38.5817726], [-7.9234821, 38.5816809], [-7.9233693, 38.581592], [-7.923212, 38.5814801], [-7.9230043, 38.5813365]]}, "properties": {"highway": "primary", "lanes": "1", "maxspeed": "70", "oneway": "yes", "ref": "ER 114-4"}}, {"type": "Feature", "geometry": {"type": "LineString", "coordinates": [[-7.9230043, 38.5813365], [-7.9228238, 38.5811751]]}, "properties": {"highway": "primary", "lanes": "2", "maxspeed": "70", "ref": "ER 114-4"}}, {"type": "Feature", "geometry": {"type": "LineString", "coordinates": [[-7.9230043, 38.5813365], [-7.923137, 38.5814648], [-7.9233212, 38.5816309], [-7.9234537, 38.581728], [-7.9235589, 38.5817887], [-7.9236955, 38.5818599]]}, "properties": {"highway": "primary", "lanes": "1", "maxspeed": "70", "oneway": "yes", "ref": "ER 114-4"}}, {"type": "Feature", "geometry": {"type": "LineString", "coordinates": [[-7.9303783, 38.5855603], [-7.9262445, 38.5833069], [-7.9247443, 38.5824821]]}, "properties": {"highway": "primary", "lanes": "2", "maxspeed": "90", "ref": "ER 114-4"}}, {"type": "Feature", "geometry": {"type": "LineString", "coordinates": [[-7.9382989, 38.5897933], [-7.9363052, 38.5888021], [-7.9343468, 38.5877358]]}, "properties": {"highway": "primary", "lanes": "2", "maxspeed": "90", "ref": "ER 114-4"}}]}