{"type": "FeatureCollection", "features": [{"type": "Feature", "geometry": {"type": "LineString", "coordinates": [[-9.0908783, 38.8487003], [-9.091103, 38.8487062], [-9.091767, 38.8487353], [-9.0923168, 38.8487583], [-9.0926218, 38.848768], [-9.0928419, 38.8487713], [-9.0930761, 38.8487607], [-9.0933303, 38.8487253], [-9.0935595, 38.8486651], [-9.0937837, 38.84857], [-9.0939369, 38.8484852], [-9.0940689, 38.8483976], [-9.0941943, 38.8482997], [-9.0942695, 38.8482218], [-9.0943536, 38.8481348], [-9.094449, 38.8480085], [-9.0945866, 38.8477399], [-9.094667, 38.8475491], [-9.0949035, 38.8467668], [-9.0949992, 38.8464731], [-9.095064, 38.8463175], [-9.0951668, 38.8461359], [-9.0952766, 38.8459874], [-9.0954288, 38.8458309], [-9.0956024, 38.8457048], [-9.0958037, 38.8455979], [-9.0960299, 38.8455103], [-9.0962642, 38.8454475], [-9.0964665, 38.8454124]]}, "properties": {"highway": "primary", "lanes": "3", "lanes:backward": "1", "lanes:forward": "2", "name": "Avenida de Santa Iria", "oneway": "no", "ref": "EN 115-5;ER 19", "source": "bing", "surface": "asphalt"}}, {"type": "Feature", "geometry": {"type": "LineString", "coordinates": [[-9.0973011, 38.8454866], [-9.0974659, 38.8454736], [-9.0976057, 38.8454809], [-9.1001713, 38.8456193], [-9.1004271, 38.8456544]]}, "properties": {"highway": "primary", "lanes": "2", "lit": "yes", "name": "Avenida de Santa Iria", "oneway": "yes", "ref": "EN 115-5;ER 19", "surface": "asphalt"}}, {"type": "Feature", "geometry": {"type": "LineString", "coordinates": [[-9.1007982, 38.8456824], [-9.1010118, 38.8456775], [-9.1012183, 38.845678], [-9.102346, 38.8457108], [-9.1027296, 38.8457234], [-9.1030244, 38.8457415], [-9.1032715, 38.8457672], [-9.1034974, 38.8458122], [-9.103729, 38.8458801], [-9.1039862, 38.8460188], [-9.104393, 38.8462938], [-9.10465, 38.8465402], [-9.1048485, 38.8470048], [-9.1048723, 38.8474796], [-9.1047432, 38.8478347], [-9.1042516, 38.8484505], [-9.1037725, 38.8490157], [-9.1035772, 38.8494975], [-9.103619, 38.8498532], [-9.1037744, 38.8502997], [-9.1040551, 38.8509125], [-9.1042867, 38.8515874], [-9.1042608, 38.8519486], [-9.1042219, 38.8522192], [-9.1040117, 38.8525908], [-9.1036649, 38.852934], [-9.1033804, 38.8531138], [-9.1026341, 38.8534735], [-9.1022814, 38.8536717], [-9.1020711, 38.8538311], [-9.1018931, 38.8540094], [-9.1017921, 38.8541384], [-9.1016911, 38.8542813], [-9.1016018, 38.8544409], [-9.101473, 38.8546724], [-9.1013612, 38.8548403], [-9.1012493, 38.8549896], [-9.1011163, 38.8551233], [-9.1009802, 38.8552314], [-9.1007923, 38.8553632], [-9.1004735, 38.8555602], [-9.1001169, 38.8557908], [-9.0999105, 38.8559535], [-9.0997823, 38.8560764], [-9.0996662, 38.8562088], [-9.0995532, 38.8563807], [-9.0994644, 38.8565648], [-9.0994146, 38.8567255], [-9.0993821, 38.8569122], [-9.0993717, 38.857126]]}, "properties": {"highway": "primary", "lanes": "1", "oneway": "yes", "ref": "EN 115-5;ER 19", "surface": "asphalt"}}, {"type": "Feature", "geometry": {"type": "LineString", "coordinates": [[-9.1004098, 38.8455213], [-9.1003005, 38.8455523], [-9.1001764, 38.8455583], [-9.0995148, 38.8455163], [-9.0980736, 38.8454248], [-9.097614, 38.8453956], [-9.0974541, 38.8453857], [-9.0973196, 38.8453536]]}, "properties": {"highway": "primary", "lit": "yes", "name": "Avenida de Santa Iria", "oneway": "yes", "ref": "EN 115-5;ER 19", "surface": "asphalt"}}, {"type": "Feature", "geometry": {"type": "LineString", "coordinates": [[-9.1046542, 38.8633494], [-9.10509, 38.8633599], [-9.1055902, 38.863346], [-9.1060312, 38.8632832], [-9.1074932, 38.8629863], [-9.1090535, 38.8626623], [-9.1097603, 38.8624822], [-9.11035, 38.8623116], [-9.1109077, 38.8621637], [-9.1113232, 38.8621137], [-9.1117495, 38.862062], [-9.1123987, 38.8619961]]}, "properties": {"foot": "no", "highway": "trunk", "lanes": "2", "maxheight:signed": "no", "note": "Esta estrada por ter um perfil semelhante ao de uma via r\u00e1pida e ter \"Via de Cintura\" no nome, usou-se highway=trunk. Para mais informa\u00e7\u00f5es, ver p\u00e1gina da Padroniza\u00e7\u00e3o das Estradas em Portugal. (ver note:ref=*)", "note:ref": "https://wiki.openstreetmap.org/wiki/Portugal/Padroniza%C3%A7%C3%A3o#Estradas", "oneway": "yes", "ref": "EN 115-5;ER 19", "source": "bing"}}, {"type": "Feature", "geometry": {"type": "LineString", "coordinates": [[-9.123272, 38.8612847], [-9.1233603, 38.8612453], [-9.1234338, 38.8612204], [-9.1235176, 38.8612023], [-9.123622, 38.8611865], [-9.1240148, 38.8611497], [-9.1241234, 38.8611346], [-9.1242626, 38.8611103], [-9.1252535, 38.8608707], [-9.1266453, 38.8605229]]}, "properties": {"foot": "no", "highway": "trunk", "lanes": "2", "name": "Via de Cintura da \u00c1rea Metropolitana de Lisboa - Norte", "note": "Esta estrada por ter um perfil semelhante ao de uma via r\u00e1pida e ter \"Via de Cintura\" no nome, usou-se highway=trunk. Para mais informa\u00e7\u00f5es, ver p\u00e1gina da Padroniza\u00e7\u00e3o das Estradas em Portugal. (ver note:ref=*)", "note:ref": "https://wiki.openstreetmap.org/wiki/Portugal/Padroniza%C3%A7%C3%A3o#Estradas", "oneway": "yes", "ref": "ER 19"}}, {"type": "Feature", "geometry": {"type": "LineString", "coordinates": [[-9.1204465, 38.8610842], [-9.1225039, 38.8611843], [-9.122623, 38.861206], [-9.1227586, 38.8612726]]}, "properties": {"foot": "no", "highway": "trunk", "lanes": "2", "name": "Via de Cintura da \u00c1rea Metropolitana de Lisboa - Norte", "note": "Esta estrada por ter um perfil semelhante ao de uma via r\u00e1pida e ter \"Via de Cintura\" no nome, usou-se highway=trunk. Para mais informa\u00e7\u00f5es, ver p\u00e1gina da Padroniza\u00e7\u00e3o das Estradas em Portugal. (ver note:ref=*)", "note:ref": "https://wiki.openstreetmap.org/wiki/Portugal/Padroniza%C3%A7%C3%A3o#Estradas", "oneway": "yes", "ref": "ER 19"}}, {"type": "Feature", "geometry": {"type": "LineString", "coordinates": [[-9.1216639, 38.8610531], [-9.1165266, 38.860797]]}, "properties": {"foot": "no", "highway": "trunk", "lanes": "2", "name": "Via de Cintura da \u00c1rea Metropolitana de Lisboa - Norte", "note": "Esta estrada por ter um perfil semelhante ao de uma via r\u00e1pida e ter \"Via de Cintura\" no nome, usou-se highway=trunk. Para mais informa\u00e7\u00f5es, ver p\u00e1gina da Padroniza\u00e7\u00e3o das Estradas em Portugal. (ver note:ref=*)", "note:ref": "https://wiki.openstreetmap.org/wiki/Portugal/Padroniza%C3%A7%C3%A3o#Estradas", "oneway": "yes", "ref": "EN 115-5;ER 19"}}, {"type": "Feature", "geometry": {"type": "LineString", "coordinates": [[-9.1454514, 38.8544606], [-9.1449868, 38.8548379], [-9.144504, 38.8553998], [-9.1441064, 38.8560094], [-9.1437416, 38.8569573], [-9.1435158, 38.8580488], [-9.1432983, 38.8589886], [-9.1428727, 38.8598898], [-9.1422332, 38.8605655], [-9.1413795, 38.8611413], [-9.1390724, 38.8623187], [-9.1378322, 38.8630153], [-9.1364701, 38.8637251], [-9.1363489, 38.8637748], [-9.1362604, 38.8638127], [-9.1361103, 38.8638693], [-9.1359572, 38.8639221], [-9.1356295, 38.8640126]]}, "properties": {"foot": "no", "highway": "trunk", "lanes": "2", "maxspeed": "80", "name": "Via de Cintura da \u00c1rea Metropolitana de Lisboa - Norte", "note": "Esta estrada por ter um perfil semelhante ao de uma via r\u00e1pida e ter \"Via de Cintura\" no nome, usou-se highway=trunk. Para mais informa\u00e7\u00f5es, ver p\u00e1gina da Padroniza\u00e7\u00e3o das Estradas em Portugal. (ver note:ref=*)", "note:ref": "https://wiki.openstreetmap.org/wiki/Portugal/Padroniza%C3%A7%C3%A3o#Estradas", "oneway": "yes", "ref": "ER 19"}}, {"type": "Feature", "geometry": {"type": "LineString", "coordinates": [[-9.1092224, 38.8625179], [-9.1077079, 38.8628765], [-9.105814, 38.863247], [-9.1053506, 38.8632958], [-9.1046649, 38.863274]]}, "properties": {"foot": "no", "highway": "trunk", "lanes": "2", "note": "Esta estrada por ter um perfil semelhante ao de uma via r\u00e1pida e ter \"Via de Cintura\" no nome, usou-se highway=trunk. Para mais informa\u00e7\u00f5es, ver p\u00e1gina da Padroniza\u00e7\u00e3o das Estradas em Portugal. (ver note:ref=*)", "note:ref": "https://wiki.openstreetmap.org/wiki/Portugal/Padroniza%C3%A7%C3%A3o#Estradas", "oneway": "yes", "ref": "EN 115-5;ER 19"}}, {"type": "Feature", "geometry": {"type": "LineString", "coordinates": [[-9.1472208, 38.8537568], [-9.1473008, 38.8536361], [-9.1474269, 38.8535421], [-9.1495995, 38.8527943], [-9.1505302, 38.8524517]]}, "properties": {"alt_name": "Via de Cintura da \u00c1rea Metropolitana de Lisboa - Norte", "highway": "trunk", "lanes": "2", "name": "Rua de S\u00e3o Roque", "note": "Esta estrada por ter um perfil semelhante ao de uma via r\u00e1pida e ter \"Via de Cintura\" no nome, usou-se highway=trunk. Para mais informa\u00e7\u00f5es, ver p\u00e1gina da Padroniza\u00e7\u00e3o das Estradas em Portugal. (ver note:ref=*)", "note:ref": "https://wiki.openstreetmap.org/wiki/Portugal/Padroniza%C3%A7%C3%A3o#Estradas", "oneway": "yes", "ref": "EN 115;ER 19"}}, {"type": "Feature", "geometry": {"type": "LineString", "coordinates": [[-9.1356782, 38.864082], [-9.1359003, 38.8640209], [-9.1360687, 38.8639679], [-9.13622, 38.863915], [-9.1363519, 38.8638603], [-9.1365763, 38.8637521], [-9.1378714, 38.8630917], [-9.1414242, 38.8612147], [-9.1422919, 38.8606295], [-9.1429477, 38.8599365], [-9.143382, 38.8590171], [-9.1436014, 38.8580693], [-9.1438261, 38.8569825], [-9.1441861, 38.8560472], [-9.1445764, 38.8554488], [-9.1450495, 38.8548982], [-9.1456661, 38.8544216], [-9.1461502, 38.8541379], [-9.1463194, 38.8541118]]}, "properties": {"foot": "no", "highway": "trunk", "lanes": "2", "name": "Via de Cintura da \u00c1rea Metropolitana de Lisboa - Norte", "note": "Esta estrada por ter um perfil semelhante ao de uma via r\u00e1pida e ter \"Via de Cintura\" no nome, usou-se highway=trunk. Para mais informa\u00e7\u00f5es, ver p\u00e1gina da Padroniza\u00e7\u00e3o das Estradas em Portugal. (ver note:ref=*)", "note:ref": "https://wiki.openstreetmap.org/wiki/Portugal/Padroniza%C3%A7%C3%A3o#Estradas", "oneway": "yes", "ref": "ER 19"}}, {"type": "Feature", "geometry": {"type": "LineString", "coordinates": [[-9.1356295, 38.8640126], [-9.135483, 38.8640415], [-9.1353215, 38.8640626], [-9.1352042, 38.8640765], [-9.135074, 38.8640871], [-9.1349543, 38.8640929], [-9.1348151, 38.8640945], [-9.1346816, 38.8640886], [-9.1345326, 38.86408], [-9.1344365, 38.8640711], [-9.1343259, 38.8640557], [-9.1342222, 38.8640375], [-9.1340539, 38.8640045], [-9.1338889, 38.8639669], [-9.133711, 38.8639227], [-9.1335347, 38.8638748], [-9.1326483, 38.8636091], [-9.1324622, 38.863555], [-9.1322379, 38.8634861]]}, "properties": {"bridge": "viaduct", "foot": "no", "highway": "trunk", "lanes": "2", "layer": "1", "maxspeed": "80", "name": "Via de Cintura da \u00c1rea Metropolitana de Lisboa - Norte", "note": "Esta estrada por ter um perfil semelhante ao de uma via r\u00e1pida e ter \"Via de Cintura\" no nome, usou-se highway=trunk. Para mais informa\u00e7\u00f5es, ver p\u00e1gina da Padroniza\u00e7\u00e3o das Estradas em Portugal. (ver note:ref=*)", "note:ref": "https://wiki.openstreetmap.org/wiki/Portugal/Padroniza%C3%A7%C3%A3o#Estradas", "oneway": "yes", "ref": "ER 19"}}, {"type": "Feature", "geometry": {"type": "LineString", "coordinates": [[-9.1316145, 38.8633364], [-9.1317079, 38.8633774], [-9.1318301, 38.8634319], [-9.1319522, 38.8634766], [-9.1321023, 38.8635275], [-9.132581, 38.86367], [-9.1336375, 38.8639929], [-9.133832, 38.8640442], [-9.1340166, 38.8640853], [-9.134193, 38.864119], [-9.1343555, 38.8641423], [-9.1344803, 38.8641555], [-9.1345844, 38.8641634], [-9.1347377, 38.8641702], [-9.1348759, 38.8641722], [-9.1349883, 38.8641712], [-9.1350949, 38.8641659], [-9.1352181, 38.8641566], [-9.1353392, 38.8641457], [-9.1354823, 38.8641239], [-9.1356782, 38.864082]]}, "properties": {"bridge": "viaduct", "foot": "no", "highway": "trunk", "lanes": "2", "layer": "1", "name": "Via de Cintura da \u00c1rea Metropolitana de Lisboa - Norte", "note": "Esta estrada por ter um perfil semelhante ao de uma via r\u00e1pida e ter \"Via de Cintura\" no nome, usou-se highway=trunk. Para mais informa\u00e7\u00f5es, ver p\u00e1gina da Padroniza\u00e7\u00e3o das Estradas em Portugal. (ver note:ref=*)", "note:ref": "https://wiki.openstreetmap.org/wiki/Portugal/Padroniza%C3%A7%C3%A3o#Estradas", "oneway": "yes", "ref": "ER 19"}}, {"type": "Feature", "geometry": {"type": "LineString", "coordinates": [[-9.1307079, 38.8621787], [-9.1306749, 38.8620202], [-9.1306266, 38.861687], [-9.1305726, 38.8612818], [-9.1305612, 38.8611552], [-9.1305383, 38.8609863], [-9.130495, 38.8608353], [-9.1304458, 38.86071], [-9.1303909, 38.8606002], [-9.1303043, 38.8604913], [-9.1302061, 38.8603964], [-9.1301022, 38.860313], [-9.1299867, 38.8602341], [-9.1298479, 38.8601726], [-9.1296948, 38.8601171], [-9.1295259, 38.8600803], [-9.1293396, 38.8600526], [-9.1292131, 38.8600505], [-9.1290314, 38.8600652], [-9.1288945, 38.8600802]]}, "properties": {"foot": "no", "highway": "trunk", "lanes": "2", "name": "Via de Cintura da \u00c1rea Metropolitana de Lisboa - Norte", "note": "Esta estrada por ter um perfil semelhante ao de uma via r\u00e1pida e ter \"Via de Cintura\" no nome, usou-se highway=trunk. Para mais informa\u00e7\u00f5es, ver p\u00e1gina da Padroniza\u00e7\u00e3o das Estradas em Portugal. (ver note:ref=*)", "note:ref": "https://wiki.openstreetmap.org/wiki/Portugal/Padroniza%C3%A7%C3%A3o#Estradas", "oneway": "yes", "ref": "ER 19"}}, {"type": "Feature", "geometry": {"type": "LineString", "coordinates": [[-9.3333117, 38.8687529], [-9.3335125, 38.868588], [-9.3336326, 38.8684824], [-9.3340924, 38.8680113], [-9.3350258, 38.8668901], [-9.3372921, 38.8640539], [-9.3377525, 38.8634778], [-9.3385686, 38.8624564], [-9.3391381, 38.8617064], [-9.3394791, 38.8611929], [-9.3398507, 38.8605668], [-9.3403042, 38.8597095], [-9.340615, 38.8590844], [-9.3408666, 38.8585847], [-9.3411461, 38.858117], [-9.3414181, 38.857775], [-9.3417157, 38.8574619], [-9.3422588, 38.8569787], [-9.3425734, 38.8567342]]}, "properties": {"highway": "trunk", "lanes": "2", "maxspeed": "100", "name": "Via de Cintura da \u00c1rea Metropolitana de Lisboa", "oneway": "yes", "ref": "ER 19;IC 30"}}, {"type": "Feature", "geometry": {"type": "LineString", "coordinates": [[-9.1028294, 38.8625151], [-9.1027402, 38.862336], [-9.102699, 38.8621964], [-9.1026485, 38.8616695], [-9.1026195, 38.8614078], [-9.1025136, 38.8611576], [-9.102159, 38.8607224], [-9.1017965, 38.8603106], [-9.1014555, 38.8599093], [-9.1011531, 38.8595571], [-9.100875, 38.8592364], [-9.1005904, 38.8589076], [-9.1001191, 38.8584011]]}, "properties": {"highway": "primary", "lanes": "2", "ref": "EN 115-5;ER 19", "surface": "asphalt"}}, {"type": "Feature", "geometry": {"type": "LineString", "coordinates": [[-9.3433293, 38.8559621], [-9.3424976, 38.8566704]]}, "properties": {"bridge": "yes", "highway": "trunk", "lanes": "2", "layer": "1", "maxspeed": "100", "oneway": "yes", "ref": "ER 19;IC 30", "source": "bing"}}, {"type": "Feature", "geometry": {"type": "LineString", "coordinates": [[-9.3425734, 38.8567342], [-9.3434248, 38.8560226]]}, "properties": {"bridge": "yes", "highway": "trunk", "lanes": "2", "layer": "1", "maxspeed": "100", "oneway": "yes", "ref": "ER 19;IC 30", "source": "bing"}}, {"type": "Feature", "geometry": {"type": "LineString", "coordinates": [[-9.3434248, 38.8560226], [-9.3437296, 38.8557607], [-9.3441531, 38.8554296], [-9.3444585, 38.8552547], [-9.3447547, 38.8551226], [-9.3451627, 38.8549823], [-9.3455566, 38.8548955], [-9.3468961, 38.8547215], [-9.3475987, 38.8545757], [-9.348154, 38.8543577], [-9.3485267, 38.8541458], [-9.3489037, 38.8538474], [-9.3491811, 38.8535327], [-9.349366, 38.8532669], [-9.3495057, 38.8529718], [-9.3496266, 38.8525214], [-9.3496625, 38.8521874], [-9.349664, 38.8518977], [-9.3496128, 38.8507524], [-9.3495515, 38.8499464], [-9.3496035, 38.8494488], [-9.3496974, 38.8486213], [-9.3497852, 38.8476942], [-9.3497985, 38.8472699], [-9.3497612, 38.8468456], [-9.3496799, 38.846423], [-9.349479, 38.8455102], [-9.3493672, 38.8449311], [-9.3493307, 38.8445303], [-9.3493589, 38.844049], [-9.3494393, 38.8436975], [-9.3495721, 38.8433521], [-9.3497383, 38.8430387], [-9.3499488, 38.842753], [-9.3503048, 38.842408]]}, "properties": {"bicycle": "no", "highway": "trunk", "lanes": "2", "maxspeed": "100", "name": "Via de Cintura da \u00c1rea Metropolitana de Lisboa - Norte", "oneway": "yes", "ref": "ER 19;IC 30"}}, {"type": "Feature", "geometry": {"type": "LineString", "coordinates": [[-9.1266453, 38.8605229], [-9.1268337, 38.8604851], [-9.1270596, 38.8604431], [-9.127388, 38.8603884], [-9.1277445, 38.8603333], [-9.1286453, 38.860198], [-9.1289323, 38.8601562]]}, "properties": {"bridge": "viaduct", "foot": "no", "highway": "trunk", "lanes": "2", "layer": "1", "name": "Via de Cintura da \u00c1rea Metropolitana de Lisboa - Norte", "note": "Esta estrada por ter um perfil semelhante ao de uma via r\u00e1pida e ter \"Via de Cintura\" no nome, usou-se highway=trunk. Para mais informa\u00e7\u00f5es, ver p\u00e1gina da Padroniza\u00e7\u00e3o das Estradas em Portugal. (ver note:ref=*)", "note:ref": "https://wiki.openstreetmap.org/wiki/Portugal/Padroniza%C3%A7%C3%A3o#Estradas", "oneway": "yes", "ref": "ER 19", "source": "bing"}}, {"type": "Feature", "geometry": {"type": "LineString", "coordinates": [[-9.1288945, 38.8600802], [-9.1286613, 38.860112], [-9.1282028, 38.8601855], [-9.1278804, 38.8602337], [-9.1275284, 38.8602903], [-9.1272261, 38.8603365], [-9.1270875, 38.8603585], [-9.1268898, 38.8603909], [-9.1267432, 38.8604171], [-9.1266019, 38.8604432]]}, "properties": {"bridge": "viaduct", "foot": "no", "highway": "trunk", "lanes": "2", "layer": "1", "name": "Via de Cintura da \u00c1rea Metropolitana de Lisboa - Norte", "note": "Esta estrada por ter um perfil semelhante ao de uma via r\u00e1pida e ter \"Via de Cintura\" no nome, usou-se highway=trunk. Para mais informa\u00e7\u00f5es, ver p\u00e1gina da Padroniza\u00e7\u00e3o das Estradas em Portugal. (ver note:ref=*)", "note:ref": "https://wiki.openstreetmap.org/wiki/Portugal/Padroniza%C3%A7%C3%A3o#Estradas", "oneway": "yes", "ref": "ER 19", "source": "bing"}}, {"type": "Feature", "geometry": {"type": "LineString", "coordinates": [[-9.1266019, 38.8604432], [-9.1252412, 38.8607841], [-9.1242217, 38.8610443], [-9.1241412, 38.8610619], [-9.1240118, 38.8610808], [-9.1238653, 38.861096], [-9.1237521, 38.8611051], [-9.1236538, 38.8611082], [-9.1235331, 38.8611055], [-9.1234543, 38.8610858], [-9.1233741, 38.8610586], [-9.1232827, 38.8610169]]}, "properties": {"foot": "no", "highway": "trunk", "lanes": "2", "name": "Via de Cintura da \u00c1rea Metropolitana de Lisboa - Norte", "note": "Esta estrada por ter um perfil semelhante ao de uma via r\u00e1pida e ter \"Via de Cintura\" no nome, usou-se highway=trunk. Para mais informa\u00e7\u00f5es, ver p\u00e1gina da Padroniza\u00e7\u00e3o das Estradas em Portugal. (ver note:ref=*)", "note:ref": "https://wiki.openstreetmap.org/wiki/Portugal/Padroniza%C3%A7%C3%A3o#Estradas", "oneway": "yes", "ref": "ER 19"}}, {"type": "Feature", "geometry": {"type": "LineString", "coordinates": [[-9.1289323, 38.8601562], [-9.1292276, 38.8601294], [-9.1294027, 38.8601376], [-9.129574, 38.8601687], [-9.1297405, 38.860227], [-9.1298752, 38.8602875], [-9.1300506, 38.8604062], [-9.1302104, 38.8605599], [-9.1302759, 38.860648], [-9.1303356, 38.8607586], [-9.1303826, 38.8608661], [-9.1304349, 38.8610525], [-9.1304873, 38.8613108], [-9.1305855, 38.8621216]]}, "properties": {"foot": "no", "highway": "trunk", "lanes": "2", "name": "Via de Cintura da \u00c1rea Metropolitana de Lisboa - Norte", "note": "Esta estrada por ter um perfil semelhante ao de uma via r\u00e1pida e ter \"Via de Cintura\" no nome, usou-se highway=trunk. Para mais informa\u00e7\u00f5es, ver p\u00e1gina da Padroniza\u00e7\u00e3o das Estradas em Portugal. (ver note:ref=*)", "note:ref": "https://wiki.openstreetmap.org/wiki/Portugal/Padroniza%C3%A7%C3%A3o#Estradas", "oneway": "yes", "ref": "ER 19"}}, {"type": "Feature", "geometry": {"type": "LineString", "coordinates": [[-9.3522341, 38.8411397], [-9.3519091, 38.8413335], [-9.3505974, 38.8420774], [-9.3502414, 38.8423436], [-9.3498752, 38.8427085], [-9.3496419, 38.8430161], [-9.3494683, 38.8433214], [-9.349337, 38.8436521], [-9.349236, 38.8440337], [-9.3492244, 38.8445963], [-9.3492688, 38.8450344], [-9.3495603, 38.8464525], [-9.3496461, 38.8468366], [-9.3496845, 38.8472544], [-9.3496714, 38.8476908], [-9.349585, 38.8486031], [-9.3494961, 38.849444], [-9.3494451, 38.8499183], [-9.3495012, 38.8507458], [-9.3495564, 38.8518623], [-9.349557, 38.8521763], [-9.3495194, 38.8524902], [-9.3493939, 38.852959], [-9.3492617, 38.8532339], [-9.3490856, 38.8534927], [-9.3488176, 38.8537933], [-9.3484625, 38.8540735], [-9.3480818, 38.854296], [-9.347565, 38.8544941], [-9.3468668, 38.8546405], [-9.3455317, 38.8548265], [-9.3451125, 38.8549132], [-9.3447197, 38.855041], [-9.3444016, 38.8551853], [-9.3440718, 38.8553705], [-9.3436398, 38.855695], [-9.3433293, 38.8559621]]}, "properties": {"bicycle": "no", "highway": "trunk", "lanes": "2", "maxspeed": "100", "name": "Via de Cintura da \u00c1rea Metropolitana de Lisboa - Norte", "oneway": "yes", "ref": "ER 19;IC 30", "surface": "asphalt"}}, {"type": "Feature", "geometry": {"type": "LineString", "coordinates": [[-9.0994358, 38.8571206], [-9.0994371, 38.8569308], [-9.099475, 38.8567483], [-9.0995316, 38.8565741], [-9.0996152, 38.8564], [-9.0997183, 38.8562438], [-9.0998287, 38.8561084], [-9.0999571, 38.855987], [-9.1001643, 38.8558273], [-9.1005127, 38.8555974], [-9.1008159, 38.8554137], [-9.101023, 38.8552777], [-9.1011654, 38.8551531], [-9.1013078, 38.8550099], [-9.1014183, 38.8548708], [-9.1015384, 38.8546771], [-9.1016585, 38.8544549], [-9.1017515, 38.8543053], [-9.1018494, 38.8541645], [-9.1019473, 38.8540378], [-9.1021159, 38.8538747], [-9.1023176, 38.8537187], [-9.1026762, 38.8535247], [-9.103482, 38.8531254], [-9.1038266, 38.8528548], [-9.1041062, 38.8525447], [-9.1043011, 38.8521509], [-9.1043632, 38.8518276], [-9.1043406, 38.8515042], [-9.104109, 38.8508465], [-9.1037842, 38.8502371], [-9.1036288, 38.8497906], [-9.1036973, 38.8493421], [-9.1038661, 38.8490184], [-9.1043717, 38.8484223], [-9.1047389, 38.8479603], [-9.1048943, 38.8476105], [-9.1049395, 38.8474169], [-9.1049112, 38.8469593], [-9.1046598, 38.8464776], [-9.1044028, 38.8462312], [-9.103996, 38.8459562], [-9.1037495, 38.8458314], [-9.1035272, 38.8457697], [-9.1033084, 38.8457247], [-9.1030733, 38.8456955], [-9.1027447, 38.8456718], [-9.1023735, 38.8456593], [-9.1013659, 38.8456378], [-9.1011248, 38.845616], [-9.1010256, 38.8456025], [-9.1009257, 38.8455666], [-9.1008229, 38.8454897]]}, "properties": {"highway": "primary", "lanes": "2", "oneway": "yes", "ref": "EN 115-5;ER 19", "surface": "asphalt"}}, {"type": "Feature", "geometry": {"type": "LineString", "coordinates": [[-9.1461634, 38.8539181], [-9.1460695, 38.8540396], [-9.1456166, 38.8543511], [-9.1454514, 38.8544606]]}, "properties": {"foot": "no", "highway": "trunk", "lanes": "2", "maxspeed": "80", "name": "Via de Cintura da \u00c1rea Metropolitana de Lisboa - Norte", "note": "Esta estrada por ter um perfil semelhante ao de uma via r\u00e1pida e ter \"Via de Cintura\" no nome, usou-se highway=trunk. Para mais informa\u00e7\u00f5es, ver p\u00e1gina da Padroniza\u00e7\u00e3o das Estradas em Portugal. (ver note:ref=*)", "note:ref": "https://wiki.openstreetmap.org/wiki/Portugal/Padroniza%C3%A7%C3%A3o#Estradas", "oneway": "yes", "ref": "ER 19"}}, {"type": "Feature", "geometry": {"type": "LineString", "coordinates": [[-9.1116126, 38.8619743], [-9.1109049, 38.8620888], [-9.1092224, 38.8625179]]}, "properties": {"foot": "no", "highway": "trunk", "lanes": "2", "note": "Esta estrada por ter um perfil semelhante ao de uma via r\u00e1pida e ter \"Via de Cintura\" no nome, usou-se highway=trunk. Para mais informa\u00e7\u00f5es, ver p\u00e1gina da Padroniza\u00e7\u00e3o das Estradas em Portugal. (ver note:ref=*)", "note:ref": "https://wiki.openstreetmap.org/wiki/Portugal/Padroniza%C3%A7%C3%A3o#Estradas", "oneway": "yes", "ref": "EN 115-5;ER 19", "source": "bing"}}, {"type": "Feature", "geometry": {"type": "LineString", "coordinates": [[-9.1144195, 38.8607637], [-9.1143648, 38.8608598], [-9.1142695, 38.8609407], [-9.1129575, 38.8617005], [-9.1125937, 38.8618406], [-9.1121419, 38.8619407], [-9.1116126, 38.8619743]]}, "properties": {"foot": "no", "highway": "trunk", "lanes": "2", "note": "Esta estrada por ter um perfil semelhante ao de uma via r\u00e1pida e ter \"Via de Cintura\" no nome, usou-se highway=trunk. Para mais informa\u00e7\u00f5es, ver p\u00e1gina da Padroniza\u00e7\u00e3o das Estradas em Portugal. (ver note:ref=*)", "note:ref": "https://wiki.openstreetmap.org/wiki/Portugal/Padroniza%C3%A7%C3%A3o#Estradas", "oneway": "yes", "ref": "EN 115-5;ER 19", "source": "bing"}}, {"type": "Feature", "geometry": {"type": "LineString", "coordinates": [[-9.1156189, 38.8607517], [-9.1152309, 38.8607281], [-9.1151213, 38.8607004], [-9.1150028, 38.8606335]]}, "properties": {"foot": "no", "highway": "trunk", "lanes": "2", "maxspeed": "50", "name": "Via de Cintura da \u00c1rea Metropolitana de Lisboa - Norte", "note": "Esta estrada por ter um perfil semelhante ao de uma via r\u00e1pida e ter \"Via de Cintura\" no nome, usou-se highway=trunk. Para mais informa\u00e7\u00f5es, ver p\u00e1gina da Padroniza\u00e7\u00e3o das Estradas em Portugal. (ver note:ref=*)", "note:ref": "https://wiki.openstreetmap.org/wiki/Portugal/Padroniza%C3%A7%C3%A3o#Estradas", "oneway": "yes", "ref": "EN 115-5;ER 19"}}, {"type": "Feature", "geometry": {"type": "LineString", "coordinates": [[-9.1227684, 38.8610051], [-9.122652, 38.8610714], [-9.1225048, 38.8610993], [-9.1216639, 38.8610531]]}, "properties": {"foot": "no", "highway": "trunk", "lanes": "2", "name": "Via de Cintura da \u00c1rea Metropolitana de Lisboa - Norte", "note": "Esta estrada por ter um perfil semelhante ao de uma via r\u00e1pida e ter \"Via de Cintura\" no nome, usou-se highway=trunk. Para mais informa\u00e7\u00f5es, ver p\u00e1gina da Padroniza\u00e7\u00e3o das Estradas em Portugal. (ver note:ref=*)", "note:ref": "https://wiki.openstreetmap.org/wiki/Portugal/Padroniza%C3%A7%C3%A3o#Estradas", "oneway": "yes", "ref": "EN 115-5;ER 19"}}, {"type": "Feature", "geometry": {"type": "LineString", "coordinates": [[-9.131096, 38.8628631], [-9.1310194, 38.8627813], [-9.130923, 38.8626583], [-9.1308616, 38.8625582], [-9.1308178, 38.8624647], [-9.1307416, 38.8622978], [-9.1307079, 38.8621787]]}, "properties": {"foot": "no", "highway": "trunk", "lanes": "2", "name": "Via de Cintura da \u00c1rea Metropolitana de Lisboa - Norte", "note": "Esta estrada por ter um perfil semelhante ao de uma via r\u00e1pida e ter \"Via de Cintura\" no nome, usou-se highway=trunk. Para mais informa\u00e7\u00f5es, ver p\u00e1gina da Padroniza\u00e7\u00e3o das Estradas em Portugal. (ver note:ref=*)", "note:ref": "https://wiki.openstreetmap.org/wiki/Portugal/Padroniza%C3%A7%C3%A3o#Estradas", "oneway": "yes", "ref": "ER 19"}}, {"type": "Feature", "geometry": {"type": "LineString", "coordinates": [[-9.1163459, 38.8608827], [-9.1169775, 38.8608875], [-9.1204465, 38.8610842]]}, "properties": {"foot": "no", "highway": "trunk", "lanes": "2", "name": "Via de Cintura da \u00c1rea Metropolitana de Lisboa - Norte", "note": "Esta estrada por ter um perfil semelhante ao de uma via r\u00e1pida e ter \"Via de Cintura\" no nome, usou-se highway=trunk. Para mais informa\u00e7\u00f5es, ver p\u00e1gina da Padroniza\u00e7\u00e3o das Estradas em Portugal. (ver note:ref=*)", "note:ref": "https://wiki.openstreetmap.org/wiki/Portugal/Padroniza%C3%A7%C3%A3o#Estradas", "oneway": "yes", "ref": "ER 19"}}, {"type": "Feature", "geometry": {"type": "LineString", "coordinates": [[-9.1149632, 38.8608997], [-9.1151216, 38.8608265], [-9.1152475, 38.8608111], [-9.1163459, 38.8608827]]}, "properties": {"foot": "no", "highway": "trunk", "lanes": "2", "name": "Via de Cintura da \u00c1rea Metropolitana de Lisboa - Norte", "note": "Esta estrada por ter um perfil semelhante ao de uma via r\u00e1pida e ter \"Via de Cintura\" no nome, usou-se highway=trunk. Para mais informa\u00e7\u00f5es, ver p\u00e1gina da Padroniza\u00e7\u00e3o das Estradas em Portugal. (ver note:ref=*)", "note:ref": "https://wiki.openstreetmap.org/wiki/Portugal/Padroniza%C3%A7%C3%A3o#Estradas", "oneway": "yes", "ref": "ER 19"}}, {"type": "Feature", "geometry": {"type": "LineString", "coordinates": [[-9.1033178, 38.8631716], [-9.1034785, 38.8631511], [-9.1038671, 38.8632067], [-9.1040817, 38.8632556], [-9.1046542, 38.8633494]]}, "properties": {"foot": "no", "highway": "trunk", "lanes": "2", "note": "Esta estrada por ter um perfil semelhante ao de uma via r\u00e1pida e ter \"Via de Cintura\" no nome, usou-se highway=trunk. Para mais informa\u00e7\u00f5es, ver p\u00e1gina da Padroniza\u00e7\u00e3o das Estradas em Portugal. (ver note:ref=*)", "note:ref": "https://wiki.openstreetmap.org/wiki/Portugal/Padroniza%C3%A7%C3%A3o#Estradas", "oneway": "yes", "ref": "EN 115-5;ER 19", "source": "bing"}}, {"type": "Feature", "geometry": {"type": "LineString", "coordinates": [[-9.1123987, 38.8619961], [-9.1126387, 38.8619315], [-9.1130102, 38.8617819], [-9.114329, 38.861022], [-9.1144886, 38.8609855], [-9.1146336, 38.860973]]}, "properties": {"foot": "no", "highway": "trunk", "lanes": "2", "note": "Esta estrada por ter um perfil semelhante ao de uma via r\u00e1pida e ter \"Via de Cintura\" no nome, usou-se highway=trunk. Para mais informa\u00e7\u00f5es, ver p\u00e1gina da Padroniza\u00e7\u00e3o das Estradas em Portugal. (ver note:ref=*)", "note:ref": "https://wiki.openstreetmap.org/wiki/Portugal/Padroniza%C3%A7%C3%A3o#Estradas", "oneway": "yes", "ref": "EN 115-5;ER 19", "source": "bing"}}, {"type": "Feature", "geometry": {"type": "LineString", "coordinates": [[-9.1305855, 38.8621216], [-9.1306499, 38.8623216], [-9.130685, 38.8624284], [-9.130717, 38.862511], [-9.1307778, 38.862616], [-9.1309005, 38.8627858], [-9.1309856, 38.8628907], [-9.1310453, 38.8629549], [-9.1311161, 38.8630205], [-9.1312353, 38.8631153], [-9.1313918, 38.8632163], [-9.1316145, 38.8633364]]}, "properties": {"foot": "no", "highway": "trunk", "lanes": "2", "name": "Via de Cintura da \u00c1rea Metropolitana de Lisboa - Norte", "note": "Esta estrada por ter um perfil semelhante ao de uma via r\u00e1pida e ter \"Via de Cintura\" no nome, usou-se highway=trunk. Para mais informa\u00e7\u00f5es, ver p\u00e1gina da Padroniza\u00e7\u00e3o das Estradas em Portugal. (ver note:ref=*)", "note:ref": "https://wiki.openstreetmap.org/wiki/Portugal/Padroniza%C3%A7%C3%A3o#Estradas", "oneway": "yes", "ref": "ER 19"}}, {"type": "Feature", "geometry": {"type": "LineString", "coordinates": [[-9.1046649, 38.863274], [-9.1035748, 38.8630613], [-9.1034634, 38.8630263], [-9.1033712, 38.8629912]]}, "properties": {"foot": "no", "highway": "trunk", "lanes": "2", "maxspeed": "50", "note": "Esta estrada por ter um perfil semelhante ao de uma via r\u00e1pida e ter \"Via de Cintura\" no nome, usou-se highway=trunk. Para mais informa\u00e7\u00f5es, ver p\u00e1gina da Padroniza\u00e7\u00e3o das Estradas em Portugal. (ver note:ref=*)", "note:ref": "https://wiki.openstreetmap.org/wiki/Portugal/Padroniza%C3%A7%C3%A3o#Estradas", "oneway": "yes", "ref": "EN 115-5;ER 19"}}, {"type": "Feature", "geometry": {"type": "LineString", "coordinates": [[-9.1165266, 38.860797], [-9.1156189, 38.8607517]]}, "properties": {"foot": "no", "highway": "trunk", "lanes": "2", "maxspeed": "50", "name": "Via de Cintura da \u00c1rea Metropolitana de Lisboa - Norte", "note": "Esta estrada por ter um perfil semelhante ao de uma via r\u00e1pida e ter \"Via de Cintura\" no nome, usou-se highway=trunk. Para mais informa\u00e7\u00f5es, ver p\u00e1gina da Padroniza\u00e7\u00e3o das Estradas em Portugal. (ver note:ref=*)", "note:ref": "https://wiki.openstreetmap.org/wiki/Portugal/Padroniza%C3%A7%C3%A3o#Estradas", "oneway": "yes", "ref": "EN 115-5;ER 19"}}, {"type": "Feature", "geometry": {"type": "LineString", "coordinates": [[-9.1317038, 38.8632849], [-9.1315226, 38.8631862], [-9.1313502, 38.8630766], [-9.1312209, 38.8629799], [-9.131096, 38.8628631]]}, "properties": {"foot": "no", "highway": "trunk", "lanes": "2", "maxspeed": "50", "name": "Via de Cintura da \u00c1rea Metropolitana de Lisboa - Norte", "note": "Esta estrada por ter um perfil semelhante ao de uma via r\u00e1pida e ter \"Via de Cintura\" no nome, usou-se highway=trunk. Para mais informa\u00e7\u00f5es, ver p\u00e1gina da Padroniza\u00e7\u00e3o das Estradas em Portugal. (ver note:ref=*)", "note:ref": "https://wiki.openstreetmap.org/wiki/Portugal/Padroniza%C3%A7%C3%A3o#Estradas", "oneway": "yes", "ref": "ER 19"}}, {"type": "Feature", "geometry": {"type": "LineString", "coordinates": [[-9.1322379, 38.8634861], [-9.132044, 38.8634232], [-9.1318955, 38.86337], [-9.1317881, 38.8633252], [-9.1317038, 38.8632849]]}, "properties": {"bridge": "viaduct", "foot": "no", "highway": "trunk", "lanes": "2", "layer": "1", "maxspeed": "50", "name": "Via de Cintura da \u00c1rea Metropolitana de Lisboa - Norte", "note": "Esta estrada por ter um perfil semelhante ao de uma via r\u00e1pida e ter \"Via de Cintura\" no nome, usou-se highway=trunk. Para mais informa\u00e7\u00f5es, ver p\u00e1gina da Padroniza\u00e7\u00e3o das Estradas em Portugal. (ver note:ref=*)", "note:ref": "https://wiki.openstreetmap.org/wiki/Portugal/Padroniza%C3%A7%C3%A3o#Estradas", "oneway": "yes", "ref": "ER 19"}}]}