{"type": "FeatureCollection", "features": [{"type": "Feature", "geometry": {"type": "LineString", "coordinates": [[-7.4505363, 41.405475], [-7.4506401, 41.4053406]]}, "properties": {"highway": "primary", "old_ref": "EN 15", "oneway": "yes", "ref": "ER 15", "surface": "asphalt"}}, {"type": "Feature", "geometry": {"type": "LineString", "coordinates": [[-7.4506404, 41.4048612], [-7.4505124, 41.4050869]]}, "properties": {"highway": "primary", "name": "Avenida dos Bombeiros Volunt\u00e1rios", "old_ref": "EN 15", "oneway": "yes", "ref": "ER 15", "surface": "asphalt"}}, {"type": "Feature", "geometry": {"type": "LineString", "coordinates": [[-7.4506404, 41.4048612], [-7.4506455, 41.4048313], [-7.4506665, 41.4047086], [-7.4507388, 41.4042852], [-7.4508483, 41.4038067], [-7.4509267, 41.40362], [-7.4513249, 41.4030458]]}, "properties": {"highway": "primary", "name": "Avenida dos Bombeiros Volunt\u00e1rios", "old_ref": "EN 15", "oneway": "no", "ref": "ER 15", "surface": "asphalt"}}, {"type": "Feature", "geometry": {"type": "LineString", "coordinates": [[-7.451811, 41.4024567], [-7.4517694, 41.4024839], [-7.4517529, 41.4025009], [-7.4517312, 41.4025396], [-7.451726, 41.4025813], [-7.4517377, 41.4026223], [-7.4517653, 41.4026588], [-7.4518062, 41.4026874], [-7.4518566, 41.4027054], [-7.4518771, 41.4027076], [-7.451912, 41.4027113], [-7.4519662, 41.4027046], [-7.4520154, 41.4026863], [-7.4520551, 41.4026579], [-7.4520819, 41.4026219], [-7.4520936, 41.4025794], [-7.452087, 41.4025363], [-7.4520629, 41.4024968], [-7.4520237, 41.4024649], [-7.4519732, 41.4024437], [-7.4519164, 41.4024353], [-7.4518616, 41.40244], [-7.451811, 41.4024567]]}, "properties": {"highway": "primary", "junction": "roundabout", "old_ref": "EN 15", "ref": "ER 15", "surface": "asphalt"}}, {"type": "Feature", "geometry": {"type": "LineString", "coordinates": [[-7.4616264, 41.4017176], [-7.4618448, 41.4017579], [-7.4620059, 41.4018225], [-7.462601, 41.4022682], [-7.4627063, 41.4023695], [-7.4627896, 41.4024767], [-7.4628564, 41.402575], [-7.4629039, 41.4026758], [-7.4629328, 41.4027815], [-7.462937, 41.402886], [-7.4628839, 41.403505], [-7.4628999, 41.4036272], [-7.462945, 41.403745], [-7.4630202, 41.4038486], [-7.4630988, 41.4039206], [-7.4631897, 41.4039829], [-7.4633069, 41.4040283], [-7.4634342, 41.4040617], [-7.4638127, 41.4041172], [-7.4641776, 41.4041627], [-7.464715, 41.4041736], [-7.4649236, 41.4041942], [-7.465062, 41.4042398], [-7.4651881, 41.4042975], [-7.4652846, 41.404361], [-7.4653538, 41.404427], [-7.4654341, 41.4045401], [-7.4656428, 41.40503], [-7.4657055, 41.4051951], [-7.4657139, 41.4053352], [-7.465691, 41.4054836], [-7.4654952, 41.4060923], [-7.4654421, 41.4063698], [-7.4654177, 41.4066473], [-7.4654341, 41.4067689], [-7.4654909, 41.4068873], [-7.4657331, 41.4071621], [-7.4657541, 41.4072328], [-7.4659334, 41.4084335], [-7.4659928, 41.4086984], [-7.4660651, 41.4088524], [-7.4662325, 41.4090189], [-7.4668967, 41.4095023], [-7.4672844, 41.4097562]]}, "properties": {"highway": "primary", "old_ref": "EN 15", "oneway": "no", "ref": "ER 15", "surface": "asphalt"}}, {"type": "Feature", "geometry": {"type": "LineString", "coordinates": [[-7.4507001, 41.4051128], [-7.4506902, 41.4050705], [-7.4506404, 41.4048612]]}, "properties": {"highway": "primary", "name": "Avenida dos Bombeiros Volunt\u00e1rios", "old_ref": "EN 15", "oneway": "yes", "ref": "ER 15", "surface": "asphalt"}}, {"type": "Feature", "geometry": {"type": "LineString", "coordinates": [[-7.4504782, 41.4051003], [-7.4504486, 41.4051188], [-7.4504248, 41.4051416], [-7.450407, 41.40517], [-7.4503984, 41.4052007], [-7.4503994, 41.405232], [-7.45041, 41.4052623], [-7.4504295, 41.40529], [-7.4504491, 41.4053079], [-7.4504725, 41.405323], [-7.4505109, 41.405339], [-7.4505534, 41.4053475], [-7.4505973, 41.405348], [-7.4506401, 41.4053406], [-7.4506735, 41.4053285], [-7.4507102, 41.405306], [-7.4507379, 41.4052772], [-7.4507546, 41.4052439], [-7.4507592, 41.4052084], [-7.4507513, 41.4051734], [-7.4507312, 41.4051405], [-7.4507001, 41.4051128], [-7.4506676, 41.4050951], [-7.4506307, 41.4050833], [-7.4505913, 41.4050779], [-7.4505512, 41.4050791], [-7.4505124, 41.4050869], [-7.4504782, 41.4051003]]}, "properties": {"highway": "primary", "junction": "roundabout", "old_ref": "EN 15", "ref": "ER 15", "surface": "asphalt"}}, {"type": "Feature", "geometry": {"type": "LineString", "coordinates": [[-7.450397, 41.4062096], [-7.4504156, 41.4061114], [-7.4504358, 41.4060049], [-7.4504455, 41.405954], [-7.4504671, 41.4058397], [-7.4505003, 41.4056647], [-7.4505225, 41.405548], [-7.4505363, 41.405475]]}, "properties": {"highway": "primary", "old_ref": "EN 15", "ref": "ER 15", "surface": "asphalt"}}, {"type": "Feature", "geometry": {"type": "LineString", "coordinates": [[-7.4517529, 41.4025009], [-7.4516938, 41.4025471], [-7.4515547, 41.402664], [-7.4514027, 41.4028594], [-7.4513249, 41.4030458]]}, "properties": {"highway": "primary", "name": "Avenida dos Bombeiros Volunt\u00e1rios", "old_ref": "EN 15", "oneway": "yes", "ref": "ER 15", "surface": "asphalt"}}, {"type": "Feature", "geometry": {"type": "LineString", "coordinates": [[-7.4504725, 41.405323], [-7.4505363, 41.405475]]}, "properties": {"highway": "primary", "old_ref": "EN 15", "oneway": "yes", "ref": "ER 15", "surface": "asphalt"}}, {"type": "Feature", "geometry": {"type": "LineString", "coordinates": [[-7.4527305, 41.4021764], [-7.4521719, 41.4023727], [-7.4520399, 41.4024199], [-7.4519732, 41.4024437]]}, "properties": {"highway": "primary", "name": "Avenida da Santa Casa da Miseric\u00f3rdia de Mur\u00e7a", "old_ref": "EN 15", "oneway": "yes", "ref": "ER 15"}}, {"type": "Feature", "geometry": {"type": "LineString", "coordinates": [[-7.4520936, 41.4025794], [-7.4521745, 41.4025401], [-7.4522761, 41.402489], [-7.4523951, 41.4023946], [-7.4527305, 41.4021764]]}, "properties": {"highway": "primary", "name": "Avenida da Santa Casa da Miseric\u00f3rdia de Mur\u00e7a", "old_ref": "EN 15", "oneway": "yes", "ref": "ER 15", "surface": "asphalt"}}, {"type": "Feature", "geometry": {"type": "LineString", "coordinates": [[-7.4513249, 41.4030458], [-7.4517162, 41.4027938], [-7.4518119, 41.4027425], [-7.4518771, 41.4027076]]}, "properties": {"highway": "primary", "name": "Avenida dos Bombeiros Volunt\u00e1rios", "old_ref": "EN 15", "oneway": "yes", "ref": "ER 15", "surface": "asphalt"}}, {"type": "Feature", "geometry": {"type": "LineString", "coordinates": [[-7.4202376, 41.4085044], [-7.4216745, 41.4085289], [-7.4220242, 41.4085126], [-7.422381, 41.408433], [-7.4230605, 41.4081666], [-7.4232389, 41.408109], [-7.4234604, 41.4080851], [-7.4236968, 41.4081038], [-7.4240353, 41.4082077], [-7.4244454, 41.4083792], [-7.4249335, 41.4085834], [-7.4253312, 41.408698], [-7.425617, 41.4087524], [-7.4271556, 41.4089592], [-7.4275539, 41.4090291], [-7.4278191, 41.4091566], [-7.4280149, 41.4092894], [-7.4294008, 41.4104922], [-7.4297272, 41.4106725], [-7.4301122, 41.4107996], [-7.4311287, 41.4111322], [-7.4314216, 41.4111913], [-7.4317272, 41.4112312], [-7.4325618, 41.4113135], [-7.433269, 41.411374], [-7.4340171, 41.4114419], [-7.4346155, 41.4115087], [-7.4348962, 41.4115285], [-7.4351812, 41.4115409], [-7.4353314, 41.4115303], [-7.4355226, 41.4114883], [-7.435629, 41.4114329], [-7.4357437, 41.4113755], [-7.4358108, 41.4113354], [-7.4363708, 41.4109562], [-7.4365195, 41.4108703], [-7.4366196, 41.4108193], [-7.4367364, 41.4107788], [-7.4368624, 41.4107468], [-7.437, 41.4107257], [-7.4371182, 41.4107176], [-7.4375089, 41.4107208], [-7.4376399, 41.4107271], [-7.437782, 41.4107335], [-7.4379376, 41.4107396], [-7.4380665, 41.4107357], [-7.4381901, 41.4107269], [-7.4383559, 41.4106878], [-7.4384712, 41.4106361], [-7.4386156, 41.4105417], [-7.4387035, 41.4104617], [-7.4387959, 41.4103635], [-7.4390392, 41.4099979], [-7.4393188, 41.4095753], [-7.4397258, 41.4090207], [-7.4398549, 41.4088892], [-7.4400087, 41.4087847], [-7.4401616, 41.4087217], [-7.4404162, 41.4086534], [-7.4406352, 41.4086299], [-7.4410833, 41.40861], [-7.4412181, 41.4085969], [-7.4413792, 41.4085643], [-7.44154, 41.4085029], [-7.4416875, 41.4084038], [-7.4420851, 41.4080999], [-7.4422605, 41.4079885], [-7.4424776, 41.4078913], [-7.4426226, 41.4078452], [-7.4427983, 41.4078085], [-7.4438394, 41.4077456], [-7.4440066, 41.40774], [-7.4441523, 41.4077351], [-7.444307, 41.40773], [-7.4448934, 41.4077103], [-7.4453011, 41.4077024], [-7.445459, 41.4076974], [-7.4455924, 41.4076913], [-7.4457887, 41.4076807], [-7.4460047, 41.4076653], [-7.4462303, 41.4076279], [-7.4464184, 41.4075727], [-7.4466263, 41.4074802], [-7.4469764, 41.4072942], [-7.4472943, 41.4071292], [-7.447423, 41.4070741], [-7.4475871, 41.4070308], [-7.4478526, 41.4069934], [-7.4480473, 41.4069974]]}, "properties": {"highway": "primary", "old_ref": "EN 15", "ref": "ER 15"}}, {"type": "Feature", "geometry": {"type": "LineString", "coordinates": [[-7.4502987, 41.4067277], [-7.4501612, 41.407275], [-7.4501492, 41.4073154], [-7.450132, 41.4073565], [-7.4501145, 41.407391]]}, "properties": {"highway": "primary", "lanes": "1", "old_ref": "EN 15", "oneway": "yes", "ref": "ER 15", "surface": "asphalt"}}, {"type": "Feature", "geometry": {"type": "LineString", "coordinates": [[-7.4500604, 41.407465], [-7.4499934, 41.407508], [-7.4499342, 41.4075429], [-7.4498724, 41.4075654], [-7.4498118, 41.4075829], [-7.4497409, 41.4075906], [-7.44967, 41.4075923], [-7.4495998, 41.4075843], [-7.4494289, 41.4075564]]}, "properties": {"highway": "primary", "name": "Rua Francisco Barros Carneiro Lopes", "old_ref": "EN 15", "oneway": "yes", "ref": "ER 15", "surface": "asphalt"}}, {"type": "Feature", "geometry": {"type": "LineString", "coordinates": [[-7.4494289, 41.4075564], [-7.4495015, 41.4075977], [-7.4495596, 41.4076269], [-7.4496183, 41.4076501], [-7.4496747, 41.4076654], [-7.449734, 41.4076721], [-7.4497901, 41.4076728], [-7.4498484, 41.407667], [-7.4498965, 41.4076582], [-7.4499473, 41.4076461], [-7.4499936, 41.4076326], [-7.450036, 41.4076196], [-7.4500748, 41.4076108], [-7.4501152, 41.4076024], [-7.4501634, 41.4075965]]}, "properties": {"highway": "primary", "name": "Rua Francisco Barros Carneiro Lopes", "old_ref": "EN 15", "oneway": "yes", "ref": "ER 15", "surface": "asphalt"}}, {"type": "Feature", "geometry": {"type": "LineString", "coordinates": [[-7.4500888, 41.4074122], [-7.4500704, 41.4074374], [-7.4500604, 41.407465], [-7.4500617, 41.407506], [-7.450081, 41.4075444], [-7.4501163, 41.4075757], [-7.4501634, 41.4075965], [-7.4502051, 41.4076038], [-7.450248, 41.4076026], [-7.4502889, 41.4075931], [-7.4503286, 41.4075736], [-7.450359, 41.4075463], [-7.4503776, 41.4075136], [-7.4503828, 41.4074783], [-7.4503741, 41.4074433], [-7.4503554, 41.407415], [-7.4503276, 41.4073913], [-7.4502888, 41.4073724], [-7.4502443, 41.4073625], [-7.450198, 41.4073624], [-7.4501535, 41.4073722], [-7.4501145, 41.407391], [-7.4500888, 41.4074122]]}, "properties": {"highway": "primary", "junction": "roundabout", "old_ref": "EN 15", "ref": "ER 15"}}, {"type": "Feature", "geometry": {"type": "LineString", "coordinates": [[-7.4503276, 41.4073913], [-7.4503088, 41.4073402], [-7.4503007, 41.4073055], [-7.4502977, 41.4072691], [-7.4502987, 41.4067277]]}, "properties": {"highway": "primary", "lanes": "1", "old_ref": "EN 15", "oneway": "yes", "ref": "ER 15", "surface": "asphalt"}}, {"type": "Feature", "geometry": {"type": "LineString", "coordinates": [[-7.4672844, 41.4097562], [-7.4673897, 41.4098126], [-7.4675757, 41.4099136], [-7.4676816, 41.4099639]]}, "properties": {"highway": "primary", "old_ref": "EN 15", "oneway": "no", "ref": "ER 15", "surface": "asphalt"}}, {"type": "Feature", "geometry": {"type": "LineString", "coordinates": [[-7.4676816, 41.4099639], [-7.4677594, 41.40999], [-7.4678434, 41.4100007], [-7.4679283, 41.4099954], [-7.4680088, 41.4099745], [-7.4680799, 41.4099393], [-7.468137, 41.4098919], [-7.4682757, 41.4096592], [-7.468446, 41.4093634], [-7.4685591, 41.4091547], [-7.4685678, 41.4091126], [-7.4685646, 41.4090466], [-7.4685242, 41.4089596]]}, "properties": {"bridge": "yes", "highway": "primary", "layer": "1", "old_ref": "EN 15", "oneway": "no", "ref": "ER 15", "surface": "asphalt"}}, {"type": "Feature", "geometry": {"type": "LineString", "coordinates": [[-7.4872984, 41.3986045], [-7.487002, 41.3987521], [-7.486207, 41.3990784], [-7.4850839, 41.3995459], [-7.4849401, 41.3996001], [-7.484805, 41.3996384], [-7.4846575, 41.3996573], [-7.484224, 41.3996925], [-7.4838897, 41.3997088], [-7.4835856, 41.3997346], [-7.4834468, 41.3997578], [-7.4833029, 41.3997941], [-7.4831323, 41.3998537], [-7.4830229, 41.3998991], [-7.4821033, 41.4004163], [-7.4814892, 41.4007689], [-7.480817, 41.4011424], [-7.4804239, 41.4013687], [-7.4802323, 41.4015027], [-7.4800352, 41.4016544], [-7.4795569, 41.4020484], [-7.4792476, 41.4023108], [-7.4791838, 41.4023738], [-7.4791364, 41.4024439], [-7.4791068, 41.4025173], [-7.4790864, 41.4026034], [-7.4790287, 41.4033466], [-7.4790166, 41.4035019], [-7.4789991, 41.4037769], [-7.4789769, 41.4038482], [-7.4789206, 41.4039522], [-7.4788573, 41.4040195], [-7.4787542, 41.4040655], [-7.4786644, 41.4040826], [-7.4785836, 41.4040794], [-7.4784824, 41.4040487], [-7.4784165, 41.4040047], [-7.4783649, 41.40395], [-7.4783342, 41.4038864], [-7.4783226, 41.4037828], [-7.4783023, 41.4029935], [-7.4782963, 41.402898], [-7.4782829, 41.4027894], [-7.4782272, 41.4025973], [-7.4779396, 41.4018929], [-7.4777197, 41.4013669], [-7.4776727, 41.4012698], [-7.4776096, 41.4011964], [-7.4775345, 41.4011436], [-7.4774582, 41.4011096], [-7.4773782, 41.4010882], [-7.4772907, 41.4010784], [-7.4772082, 41.4010882], [-7.4771091, 41.4011121], [-7.4765336, 41.4013193], [-7.4763102, 41.4014321], [-7.4762565, 41.4014759], [-7.4762082, 41.4015366], [-7.4761883, 41.4015762], [-7.4761758, 41.4016162], [-7.4761701, 41.4016675], [-7.476239, 41.4023031], [-7.4762738, 41.4023795], [-7.4763256, 41.4024449], [-7.4764042, 41.4025113], [-7.4765048, 41.4025561], [-7.4770595, 41.4027527], [-7.4771538, 41.4027901], [-7.4772317, 41.4028473], [-7.4773052, 41.4029242], [-7.4773375, 41.4029826], [-7.4773564, 41.4031981], [-7.4773454, 41.4033105], [-7.4773119, 41.4034219], [-7.4772362, 41.4035319], [-7.476803, 41.4039896], [-7.4767291, 41.4040894], [-7.4766743, 41.4041797], [-7.4766449, 41.4042659], [-7.4766279, 41.4043677], [-7.476629, 41.4045332], [-7.476619, 41.404963], [-7.4766223, 41.4050797], [-7.4766515, 41.405177], [-7.4766977, 41.4052494], [-7.4767682, 41.4053114], [-7.4768896, 41.4053842], [-7.4772764, 41.4055739], [-7.4774034, 41.4056558], [-7.4775052, 41.4057423], [-7.4777935, 41.4060889], [-7.4778719, 41.4061628], [-7.4779511, 41.4062135], [-7.4780364, 41.4062553], [-7.4781397, 41.4062829], [-7.4782417, 41.4062909], [-7.4784501, 41.4063111], [-7.4785568, 41.4063337], [-7.4786453, 41.4063699], [-7.4787177, 41.4064202], [-7.4787905, 41.4064882], [-7.4788375, 41.4065802], [-7.4789851, 41.406898], [-7.47902, 41.4069996], [-7.4790422, 41.4070942], [-7.4790497, 41.4071679], [-7.479042, 41.4072441], [-7.4790225, 41.4073013], [-7.4789826, 41.4073508], [-7.4789333, 41.4073849], [-7.4788693, 41.4074168], [-7.4787924, 41.4074387], [-7.4786916, 41.4074442], [-7.4786036, 41.4074343], [-7.4785197, 41.4074071], [-7.4784584, 41.407373], [-7.4783981, 41.4073165], [-7.4783272, 41.4072305], [-7.4781924, 41.4070112], [-7.478114, 41.4069], [-7.478031, 41.4068186], [-7.4779425, 41.4067582], [-7.477832, 41.4067098], [-7.4776267, 41.406651], [-7.4770172, 41.4064927], [-7.4768748, 41.4064459], [-7.4767226, 41.4063851], [-7.4765945, 41.4063247], [-7.4764288, 41.4062321], [-7.4762872, 41.4061406], [-7.4761603, 41.4060481], [-7.4760531, 41.4059525], [-7.4758128, 41.4057479], [-7.4755907, 41.4055386], [-7.4755021, 41.4054435], [-7.4754463, 41.405354], [-7.475358, 41.4051931], [-7.4753193, 41.4051468], [-7.4752792, 41.405108], [-7.4751979, 41.4050779], [-7.475135, 41.4050647], [-7.4750369, 41.4050606], [-7.4748539, 41.405068], [-7.4747392, 41.4050757], [-7.4746306, 41.4050737], [-7.4745379, 41.405064], [-7.4743824, 41.405008], [-7.4742931, 41.4049647], [-7.4740143, 41.4048063], [-7.4739813, 41.4047752], [-7.4739564, 41.4047359], [-7.4738028, 41.4044472], [-7.4737611, 41.4043411], [-7.4737449, 41.4042872], [-7.4737448, 41.4042304], [-7.4737516, 41.4041622], [-7.4737756, 41.4040845], [-7.4738904, 41.4038269], [-7.4738974, 41.4037454], [-7.4738822, 41.4036837], [-7.4738468, 41.4036259], [-7.4737932, 41.4035675], [-7.4737234, 41.4035293], [-7.4736403, 41.4035051], [-7.4734834, 41.403481], [-7.4727919, 41.4034143], [-7.472646, 41.4033908], [-7.472525, 41.4033583], [-7.4717987, 41.4031024], [-7.4717428, 41.4030776], [-7.4716926, 41.4030469], [-7.471623, 41.402978], [-7.4715669, 41.4029099], [-7.4715344, 41.4028275], [-7.4715315, 41.4027517], [-7.4715393, 41.4024036], [-7.4715505, 41.4022258], [-7.4715382, 41.4020732], [-7.4715024, 41.4019634], [-7.4714457, 41.4018963], [-7.471344, 41.4018342], [-7.4712547, 41.4018212], [-7.4711867, 41.4018191], [-7.4710894, 41.4018345], [-7.4709893, 41.4018657], [-7.470935, 41.4018992], [-7.4709007, 41.4019465], [-7.4708792, 41.4019959], [-7.4708672, 41.4020416], [-7.4708664, 41.4020956], [-7.4708909, 41.4021633], [-7.4709293, 41.4022195], [-7.4709854, 41.4022812], [-7.4711066, 41.40243], [-7.4711671, 41.4025356], [-7.4711963, 41.4026115], [-7.4712475, 41.4028652], [-7.4712746, 41.4030303], [-7.4713577, 41.403149], [-7.4714704, 41.4032677], [-7.4716179, 41.4033945], [-7.4717574, 41.4034951], [-7.4720283, 41.403648], [-7.4725528, 41.4039075], [-7.4726326, 41.4039573], [-7.4727175, 41.4040466], [-7.4727314, 41.4040813], [-7.4727327, 41.404166], [-7.4727085, 41.4042548], [-7.4726561, 41.4043363], [-7.4725697, 41.4044204], [-7.4721311, 41.4048081], [-7.472026, 41.4048815], [-7.4712065, 41.4054039], [-7.470979, 41.4055549], [-7.4708872, 41.4056303], [-7.4708, 41.4057275], [-7.4707303, 41.405812], [-7.4706832, 41.4059143], [-7.470666, 41.4059875], [-7.4706634, 41.4060388], [-7.4706679, 41.4060872], [-7.470687, 41.4061354], [-7.4707795, 41.406295], [-7.4708143, 41.40637], [-7.4708254, 41.4064202], [-7.4708258, 41.4064714], [-7.4708122, 41.4065591], [-7.4707787, 41.4066469], [-7.4707163, 41.4067329], [-7.4705218, 41.4069585], [-7.4704466, 41.4070689], [-7.4704192, 41.4071456], [-7.470408, 41.4072242], [-7.4704254, 41.4073104], [-7.4704603, 41.4073718], [-7.4705113, 41.4074161], [-7.4705959, 41.4074608], [-7.4706864, 41.4074925], [-7.4707624, 41.4075081], [-7.4708595, 41.4075161], [-7.4714127, 41.4075342], [-7.471565, 41.4075508], [-7.4717313, 41.407591], [-7.4719427, 41.4076689], [-7.4721096, 41.4077473], [-7.4722113, 41.4078269], [-7.4722407, 41.4078679], [-7.4722622, 41.4079089], [-7.4722689, 41.4079937], [-7.4722604, 41.4080428], [-7.4722406, 41.4080925], [-7.4722017, 41.4081644], [-7.4721252, 41.4082457], [-7.4720786, 41.4082844], [-7.4720189, 41.4083205], [-7.4719654, 41.4083441], [-7.4718969, 41.4083623], [-7.4717761, 41.4083776], [-7.4716367, 41.4083736], [-7.4715419, 41.4083565], [-7.4714368, 41.4083223], [-7.471331, 41.4082668], [-7.4711517, 41.4081668], [-7.4709822, 41.408092], [-7.4709057, 41.4080656], [-7.4708421, 41.4080544], [-7.470775, 41.4080511], [-7.4706544, 41.4080549], [-7.4706014, 41.4080594], [-7.470548, 41.4080705], [-7.47041, 41.4081076], [-7.4703039, 41.4081407], [-7.4702231, 41.4081623], [-7.4701376, 41.4081728], [-7.4700723, 41.4081747], [-7.4700062, 41.4081666], [-7.469861, 41.4081322], [-7.4696353, 41.4080611], [-7.4694104, 41.4079715], [-7.4693501, 41.4079361], [-7.4692831, 41.4078771], [-7.4692174, 41.4077963], [-7.4691636, 41.4077017], [-7.4691368, 41.4076419], [-7.4689305, 41.4069212], [-7.4688354, 41.4065545], [-7.4688317, 41.4065067], [-7.468837, 41.4064219], [-7.4688584, 41.4063382], [-7.4689095, 41.4062321], [-7.4689745, 41.4061436], [-7.4690349, 41.4060521], [-7.4690872, 41.4059533], [-7.4690974, 41.4058761], [-7.4690862, 41.4058098], [-7.4690527, 41.4057411], [-7.4690125, 41.4056888], [-7.4689273, 41.4056412], [-7.4688284, 41.4056256], [-7.4687454, 41.4056204], [-7.4686784, 41.4056273], [-7.4686154, 41.4056456], [-7.4685368, 41.4056917], [-7.4684834, 41.4057418], [-7.4684532, 41.4058042], [-7.4684403, 41.4058784], [-7.4684487, 41.405952], [-7.4685092, 41.4061647], [-7.4685117, 41.4062322], [-7.4684985, 41.4063237], [-7.4684851, 41.4063661], [-7.4684173, 41.4064909], [-7.4683349, 41.4065832], [-7.4682718, 41.4066455], [-7.4681153, 41.4068331], [-7.4679827, 41.4070261], [-7.4679538, 41.4071211], [-7.4679484, 41.4072184], [-7.4679658, 41.4072688], [-7.4679942, 41.4073175], [-7.4680627, 41.4073924], [-7.4682527, 41.4075621], [-7.4683037, 41.4076351], [-7.4683339, 41.4077077], [-7.4683425, 41.4077617], [-7.4683321, 41.4078124], [-7.4682959, 41.4079092], [-7.4682348, 41.4080767], [-7.4682226, 41.4081685], [-7.4682302, 41.4082622], [-7.4682616, 41.4083806], [-7.4683312, 41.4085698], [-7.4683964, 41.4087267], [-7.4684716, 41.4088693], [-7.4685242, 41.4089596]]}, "properties": {"highway": "primary", "old_ref": "EN 15", "oneway": "no", "ref": "ER 15", "surface": "asphalt"}}, {"type": "Feature", "geometry": {"type": "LineString", "coordinates": [[-7.4480473, 41.4069974], [-7.4482117, 41.4070248], [-7.4484278, 41.407098], [-7.4491966, 41.4074487], [-7.4493578, 41.407525]]}, "properties": {"highway": "primary", "name": "Rua Francisco Barros Carneiro Lopes", "old_ref": "EN 15", "ref": "ER 15"}}, {"type": "Feature", "geometry": {"type": "LineString", "coordinates": [[-7.4493578, 41.407525], [-7.4494289, 41.4075564]]}, "properties": {"highway": "primary", "name": "Rua Francisco Barros Carneiro Lopes", "old_ref": "EN 15", "ref": "ER 15"}}, {"type": "Feature", "geometry": {"type": "LineString", "coordinates": [[-7.4502987, 41.4067277], [-7.450325, 41.4065892], [-7.4503546, 41.4064332], [-7.450397, 41.4062096]]}, "properties": {"highway": "primary", "old_ref": "EN 15", "ref": "ER 15", "surface": "asphalt"}}, {"type": "Feature", "geometry": {"type": "LineString", "coordinates": [[-7.5010162, 41.3832043], [-7.5009197, 41.3832183], [-7.5008124, 41.3832365], [-7.5007406, 41.3832552], [-7.500711, 41.3832677], [-7.5006545, 41.3832993], [-7.5005862, 41.3833468], [-7.5005105, 41.3834058], [-7.5004031, 41.3835085], [-7.5003737, 41.3835366], [-7.4993221, 41.3846335], [-7.4989055, 41.3850525], [-7.4986996, 41.3852597], [-7.4983297, 41.3856317], [-7.4981473, 41.385849], [-7.4980068, 41.3860418], [-7.4979006, 41.3862595], [-7.4978362, 41.3864286], [-7.49723, 41.3880988], [-7.4970787, 41.3885451], [-7.4970208, 41.3886904], [-7.4969403, 41.3888031], [-7.4967419, 41.3889802], [-7.4964833, 41.3891851], [-7.4956582, 41.3898012], [-7.495405, 41.3900302], [-7.4952827, 41.3901715], [-7.4952023, 41.3903647], [-7.4951701, 41.3905337], [-7.4950293, 41.3915411], [-7.4949823, 41.3918778], [-7.4949555, 41.392063], [-7.4949019, 41.3921877], [-7.494816, 41.3923125], [-7.4943213, 41.393005], [-7.4943161, 41.3930123], [-7.4937324, 41.3938779], [-7.4936026, 41.3940627], [-7.4935178, 41.3941637], [-7.4932593, 41.3943725], [-7.4921553, 41.3951373], [-7.4921006, 41.3951814], [-7.4901157, 41.3965939], [-7.4880531, 41.3980683], [-7.488018, 41.3980938], [-7.4879331, 41.3981556], [-7.4876815, 41.3983407], [-7.4874944, 41.3984806], [-7.4872984, 41.3986045]]}, "properties": {"highway": "primary", "old_ref": "EN 15;IC 5", "ref": "ER 15;IC 5", "surface": "asphalt"}}, {"type": "Feature", "geometry": {"type": "LineString", "coordinates": [[-7.4527305, 41.4021764], [-7.4536958, 41.401723], [-7.4544088, 41.4013881], [-7.4548695, 41.4011717], [-7.4557769, 41.4007456], [-7.4560308, 41.4006553], [-7.4562754, 41.400605], [-7.4566551, 41.4006011], [-7.4578668, 41.4007187], [-7.4581706, 41.4007525], [-7.4584446, 41.4007829]]}, "properties": {"highway": "primary", "old_ref": "EN 15", "oneway": "no", "ref": "ER 15", "surface": "asphalt"}}, {"type": "Feature", "geometry": {"type": "LineString", "coordinates": [[-7.4584446, 41.4007829], [-7.4585519, 41.4007948], [-7.4587864, 41.4008341], [-7.4590441, 41.4009378], [-7.4601656, 41.4015632], [-7.4603196, 41.4016522], [-7.4604837, 41.4017184], [-7.4606225, 41.4017599], [-7.4607963, 41.4017727], [-7.4616264, 41.4017176]]}, "properties": {"highway": "primary", "name": "Rua das \u00c1rvores", "old_ref": "EN 15", "oneway": "no", "ref": "ER 15", "surface": "asphalt"}}, {"type": "Feature", "geometry": {"type": "MultiPolygon", "coordinates": [[[[-7.4520936, 41.4025794], [-7.452087, 41.4025363], [-7.4520629, 41.4024968], [-7.4520237, 41.4024649], [-7.4519732, 41.4024437], [-7.4519164, 41.4024353], [-7.4518616, 41.40244], [-7.451811, 41.4024567], [-7.4517694, 41.4024839], [-7.4517529, 41.4025009], [-7.4517312, 41.4025396], [-7.451726, 41.4025813], [-7.4517377, 41.4026223], [-7.4517653, 41.4026588], [-7.4518062, 41.4026874], [-7.4518566, 41.4027054], [-7.4518771, 41.4027076], [-7.451912, 41.4027113], [-7.4519662, 41.4027046], [-7.4520154, 41.4026863], [-7.4520551, 41.4026579], [-7.4520819, 41.4026219], [-7.4520936, 41.4025794]]]]}, "properties": {"highway": "primary", "junction": "roundabout", "old_ref": "EN 15", "ref": "ER 15", "surface": "asphalt"}}, {"type": "Feature", "geometry": {"type": "MultiPolygon", "coordinates": [[[[-7.4507592, 41.4052084], [-7.4507513, 41.4051734], [-7.4507312, 41.4051405], [-7.4507001, 41.4051128], [-7.4506676, 41.4050951], [-7.4506307, 41.4050833], [-7.4505913, 41.4050779], [-7.4505512, 41.4050791], [-7.4505124, 41.4050869], [-7.4504782, 41.4051003], [-7.4504486, 41.4051188], [-7.4504248, 41.4051416], [-7.450407, 41.40517], [-7.4503984, 41.4052007], [-7.4503994, 41.405232], [-7.45041, 41.4052623], [-7.4504295, 41.40529], [-7.4504491, 41.4053079], [-7.4504725, 41.405323], [-7.4505109, 41.405339], [-7.4505534, 41.4053475], [-7.4505973, 41.405348], [-7.4506401, 41.4053406], [-7.4506735, 41.4053285], [-7.4507102, 41.405306], [-7.4507379, 41.4052772], [-7.4507546, 41.4052439], [-7.4507592, 41.4052084]]]]}, "properties": {"highway": "primary", "junction": "roundabout", "old_ref": "EN 15", "ref": "ER 15", "surface": "asphalt"}}, {"type": "Feature", "geometry": {"type": "MultiPolygon", "coordinates": [[[[-7.4503828, 41.4074783], [-7.4503741, 41.4074433], [-7.4503554, 41.407415], [-7.4503276, 41.4073913], [-7.4502888, 41.4073724], [-7.4502443, 41.4073625], [-7.450198, 41.4073624], [-7.4501535, 41.4073722], [-7.4501145, 41.407391], [-7.4500888, 41.4074122], [-7.4500704, 41.4074374], [-7.4500604, 41.407465], [-7.4500617, 41.407506], [-7.450081, 41.4075444], [-7.4501163, 41.4075757], [-7.4501634, 41.4075965], [-7.4502051, 41.4076038], [-7.450248, 41.4076026], [-7.4502889, 41.4075931], [-7.4503286, 41.4075736], [-7.450359, 41.4075463], [-7.4503776, 41.4075136], [-7.4503828, 41.4074783]]]]}, "properties": {"highway": "primary", "junction": "roundabout", "old_ref": "EN 15", "ref": "ER 15"}}]}