{"type": "FeatureCollection", "features": [{"type": "Feature", "geometry": {"type": "LineString", "coordinates": [[-7.6436084, 39.505508], [-7.6435585, 39.5042961], [-7.6435252, 39.5034485], [-7.6435093, 39.5030437], [-7.6433566, 39.4991565], [-7.6432633, 39.4984233], [-7.6429449, 39.4977333], [-7.6414148, 39.4948399], [-7.6410464, 39.4942684], [-7.6410053, 39.4942046], [-7.6384383, 39.49063], [-7.6364066, 39.4878899], [-7.6361715, 39.4872366], [-7.6361649, 39.4871561], [-7.6361276, 39.4866973], [-7.6359832, 39.4849232], [-7.6359682, 39.4841565], [-7.6361294, 39.4803843], [-7.6361299, 39.4803623], [-7.6361684, 39.4786407]]}, "properties": {"highway": "primary", "name": "Estrada de Alpalh\u00e3o", "ref": "ER 18"}}, {"type": "Feature", "geometry": {"type": "LineString", "coordinates": [[-7.6519374, 39.5210947], [-7.6519847, 39.5211438], [-7.6520342, 39.5211886], [-7.6520765, 39.5212234], [-7.6521164, 39.5212521], [-7.6521645, 39.521284], [-7.6522108, 39.5213119], [-7.6522605, 39.5213378], [-7.652321, 39.5213668], [-7.6523786, 39.5213906], [-7.6524403, 39.521415], [-7.6525081, 39.5214359], [-7.6525629, 39.5214508], [-7.6526256, 39.5214639], [-7.6526938, 39.5214763], [-7.6527594, 39.5214869], [-7.6528245, 39.5214964], [-7.6529077, 39.521506], [-7.6530928, 39.5215246], [-7.6532511, 39.5215396], [-7.6534146, 39.5215573], [-7.6534925, 39.5215686], [-7.6535649, 39.5215843], [-7.6536211, 39.5215995], [-7.6536768, 39.5216196], [-7.6537269, 39.521644], [-7.6537785, 39.5216736], [-7.6538153, 39.5216981], [-7.6538449, 39.5217269], [-7.6538686, 39.5217533], [-7.6538938, 39.5217838], [-7.6539128, 39.5218112], [-7.6539298, 39.5218434], [-7.6539572, 39.5218957], [-7.6539759, 39.5219423], [-7.6539942, 39.521997], [-7.6540184, 39.5220771], [-7.6540528, 39.5222093], [-7.6541075, 39.5224291], [-7.6541261, 39.5225237], [-7.6541382, 39.5226107], [-7.6541453, 39.5226814], [-7.6541484, 39.5227347], [-7.6541507, 39.5228062], [-7.6541501, 39.5228829], [-7.6541486, 39.522969], [-7.6541312, 39.5232628], [-7.6541117, 39.5236237], [-7.6540897, 39.524001], [-7.6540656, 39.5244322], [-7.6540364, 39.5249344], [-7.6540152, 39.5253378], [-7.6539584, 39.5262906], [-7.653921, 39.5268488], [-7.653886, 39.5275278], [-7.6538463, 39.5281842], [-7.6536388, 39.5316392], [-7.6535912, 39.5324311], [-7.6535611, 39.532991], [-7.6533937, 39.5358001], [-7.6533101, 39.5373228], [-7.6532348, 39.5384837], [-7.6532245, 39.5386284], [-7.6532038, 39.5390026], [-7.6531825, 39.5392157], [-7.6531684, 39.5392981], [-7.653147, 39.5393665], [-7.6531156, 39.5394424], [-7.653082, 39.5395138], [-7.653047, 39.5395769], [-7.6530083, 39.5396368], [-7.6529466, 39.5397324], [-7.6528836, 39.5398255], [-7.6528187, 39.5399248], [-7.6527311, 39.5400506], [-7.6526572, 39.5401593], [-7.6524196, 39.5405094], [-7.651568, 39.5417702], [-7.6511328, 39.5424096], [-7.6510241, 39.5425619], [-7.6509462, 39.5426671], [-7.6509011, 39.5427221], [-7.6508492, 39.542783], [-7.6507276, 39.5429213], [-7.6505803, 39.543088], [-7.6504708, 39.5432048], [-7.6503566, 39.5433256], [-7.6502837, 39.5434115], [-7.650215, 39.5434971], [-7.650137, 39.5435983], [-7.6500447, 39.5437267], [-7.649912, 39.543911], [-7.6497471, 39.5441394], [-7.6496494, 39.5442767], [-7.6496043, 39.5443542], [-7.6495666, 39.5444278], [-7.6495311, 39.5445049], [-7.6495053, 39.5445698], [-7.6494728, 39.5446569], [-7.6494293, 39.5447749], [-7.6493574, 39.5449582], [-7.6492796, 39.5451744], [-7.649155, 39.5455055], [-7.6490882, 39.5456865], [-7.6490584, 39.5457825], [-7.649048, 39.5458182], [-7.6490385, 39.5458566], [-7.6490335, 39.5458811], [-7.6490307, 39.5459023], [-7.6490289, 39.5459256], [-7.6490281, 39.545955], [-7.6490289, 39.5459818], [-7.6490339, 39.5460108], [-7.6490406, 39.5460371], [-7.649051, 39.5460656], [-7.6490618, 39.5460882], [-7.6490763, 39.5461144], [-7.6490889, 39.5461349], [-7.649108, 39.5461606], [-7.649128, 39.5461809], [-7.6491455, 39.5461974], [-7.6491704, 39.5462203], [-7.6491942, 39.5462416], [-7.6492307, 39.5462669], [-7.6492626, 39.5462879], [-7.6492988, 39.54631], [-7.6493487, 39.5463377], [-7.6494576, 39.5463924], [-7.6495983, 39.5464581], [-7.6496906, 39.5465014], [-7.6497868, 39.5465509], [-7.6498118, 39.5465656], [-7.6498385, 39.546583], [-7.6498637, 39.5466017], [-7.6498844, 39.5466188], [-7.6499077, 39.5466408], [-7.6499266, 39.5466596], [-7.649941, 39.5466766], [-7.6499636, 39.5467063], [-7.6499806, 39.5467318], [-7.6499972, 39.5467581], [-7.6500119, 39.5467869], [-7.6500271, 39.5468233], [-7.6500363, 39.5468574], [-7.6500434, 39.5468911], [-7.6500471, 39.5469297], [-7.6500458, 39.5469786], [-7.6500387, 39.5470296], [-7.6500297, 39.547073], [-7.6500161, 39.5471232], [-7.649991, 39.5472001], [-7.6499543, 39.5473115], [-7.6499213, 39.5474281], [-7.6499042, 39.5474866], [-7.649893, 39.5475233], [-7.6498867, 39.5475493], [-7.6498807, 39.5475724], [-7.6498768, 39.5475915], [-7.6498734, 39.5476259], [-7.6498735, 39.5476563], [-7.6498741, 39.5476854], [-7.6498766, 39.5477188], [-7.6498826, 39.5477479], [-7.6498873, 39.547772], [-7.6498952, 39.5477995], [-7.6499044, 39.5478252], [-7.6499151, 39.5478498], [-7.6499306, 39.5478756], [-7.6499472, 39.5479011], [-7.6499665, 39.5479267], [-7.6499889, 39.5479535], [-7.6500081, 39.5479744], [-7.6500589, 39.5480254], [-7.6501849, 39.5481492], [-7.6502595, 39.5482204], [-7.6503082, 39.548273], [-7.6503477, 39.5483169], [-7.6503741, 39.5483493], [-7.6504005, 39.5483813], [-7.6504201, 39.5484104], [-7.650444, 39.5484524], [-7.6504741, 39.5485047], [-7.6505009, 39.5485609], [-7.650522, 39.5486138], [-7.6505471, 39.5486828], [-7.650565, 39.5487436], [-7.6505771, 39.5488022], [-7.6505881, 39.5488686], [-7.6506, 39.5489472], [-7.6506091, 39.549018], [-7.6506182, 39.5491159], [-7.6506322, 39.5492495], [-7.6506419, 39.5493246], [-7.650655, 39.5493907], [-7.6506702, 39.5494481], [-7.6506885, 39.5494964], [-7.6507017, 39.5495239], [-7.6507245, 39.5495682], [-7.6507583, 39.5496247], [-7.6508009, 39.5496974], [-7.6508358, 39.5497488], [-7.6508792, 39.549809], [-7.6509537, 39.549918], [-7.6510238, 39.5500313], [-7.6510531, 39.5500945], [-7.651074, 39.5501436], [-7.6510854, 39.5501806], [-7.6510971, 39.5502262], [-7.6511063, 39.5502865], [-7.6511071, 39.5503764], [-7.6510932, 39.5504544], [-7.6510721, 39.5505403], [-7.6510225, 39.5506452], [-7.6508457, 39.5508843], [-7.6507625, 39.5510117], [-7.6506989, 39.5511425], [-7.6506338, 39.5513265], [-7.650563, 39.5515743], [-7.6505366, 39.5517216], [-7.6505383, 39.5522133], [-7.6504659, 39.5525324], [-7.6503598, 39.5526619], [-7.6499887, 39.552948], [-7.6498738, 39.553132], [-7.6498533, 39.5536066], [-7.6495999, 39.5540789], [-7.6495292, 39.554222], [-7.6495469, 39.5543787], [-7.6498473, 39.554767], [-7.6498915, 39.554951], [-7.6498199, 39.5551449], [-7.6491888, 39.5562389], [-7.6489699, 39.5566183], [-7.6488312, 39.5568517], [-7.6488066, 39.5570649], [-7.6488799, 39.5575782], [-7.6490558, 39.5583263], [-7.6490861, 39.5584551], [-7.6492553, 39.5591748], [-7.6493348, 39.5593315], [-7.6496441, 39.5595767], [-7.6521324, 39.5610722], [-7.6533999, 39.5618766], [-7.6540645, 39.5625258], [-7.6546233, 39.5627795], [-7.6548233, 39.5629073], [-7.6549184, 39.563099], [-7.6549232, 39.5633008], [-7.6549449, 39.5635848], [-7.6550765, 39.5637366], [-7.6553679, 39.5640062], [-7.6554781, 39.5641682], [-7.6554838, 39.5644138], [-7.6554312, 39.5650532], [-7.6555169, 39.5652496], [-7.6559749, 39.5656183], [-7.6560503, 39.5657319], [-7.6560715, 39.5658081], [-7.6560727, 39.5658885], [-7.6560564, 39.5659826], [-7.6560451, 39.5660229], [-7.6559478, 39.5663707], [-7.6559065, 39.5665628], [-7.6559024, 39.5666556], [-7.6559311, 39.5667781], [-7.655971, 39.5669105], [-7.6560126, 39.5670568], [-7.6560241, 39.5671429], [-7.6560035, 39.5674238], [-7.655977, 39.567638], [-7.6559343, 39.5678283], [-7.6558741, 39.5679867], [-7.6558083, 39.5681227], [-7.6557351, 39.5682483], [-7.655638, 39.5683569], [-7.6554059, 39.5685388], [-7.6552847, 39.5686538], [-7.6552, 39.5687571], [-7.6550704, 39.568973], [-7.6548321, 39.5694158], [-7.6548085, 39.5694755], [-7.6547858, 39.569559], [-7.6547805, 39.5696267], [-7.6547844, 39.5696892], [-7.6548005, 39.569771], [-7.6548669, 39.569943], [-7.6548871, 39.5700187], [-7.6548903, 39.5700762], [-7.6548704, 39.5701448], [-7.6548382, 39.5702051], [-7.6546545, 39.5703973], [-7.654591, 39.5704687], [-7.6545589, 39.5705294], [-7.654539, 39.5705939], [-7.6545024, 39.5707839], [-7.6544703, 39.57086], [-7.6544259, 39.5709214], [-7.6543599, 39.5709801], [-7.6542775, 39.5710307], [-7.6539122, 39.5712051], [-7.6538212, 39.5712665], [-7.6537516, 39.5713214], [-7.6537068, 39.5713906], [-7.6536924, 39.571459], [-7.6536933, 39.5715233], [-7.6537114, 39.5716009], [-7.6537628, 39.5716869], [-7.6539343, 39.5719165], [-7.6540047, 39.5720284], [-7.6540442, 39.5721061], [-7.6540619, 39.5721758], [-7.6540623, 39.5722521], [-7.6540031, 39.5726395], [-7.6539933, 39.5727264], [-7.6539969, 39.5727894], [-7.6540052, 39.5728392], [-7.6540279, 39.5729016], [-7.6540583, 39.5729564], [-7.6541094, 39.5730169], [-7.6541834, 39.573086], [-7.6544603, 39.5733227], [-7.6545903, 39.5734638]]}, "properties": {"highway": "primary", "lanes": "2", "ref": "ER 18", "surface": "asphalt"}}, {"type": "Feature", "geometry": {"type": "LineString", "coordinates": [[-7.675993, 39.6462724], [-7.6769542, 39.647589]]}, "properties": {"bridge": "yes", "highway": "primary", "lanes": "2", "layer": "1", "maxweight:signed": "no", "name": "Ponte das Portas de R\u00f3d\u00e3o", "ref": "ER 18", "surface": "asphalt", "wikidata": "Q7228140", "wikipedia": "pt:Ponte de Portas de R\u00f3d\u00e3o"}}, {"type": "Feature", "geometry": {"type": "LineString", "coordinates": [[-7.6769542, 39.647589], [-7.6770133, 39.6476861], [-7.6770185, 39.6477803], [-7.6769644, 39.647869], [-7.6768476, 39.647979], [-7.6764319, 39.6482817], [-7.6754966, 39.6489859], [-7.6745726, 39.6496724], [-7.6742488, 39.6498877], [-7.6739258, 39.6501239], [-7.6738079, 39.6502736], [-7.6736951, 39.6504273], [-7.6735682, 39.6506793], [-7.6733832, 39.6512414], [-7.6733275, 39.6514113], [-7.6732268, 39.6517184], [-7.6731453, 39.6518544], [-7.6730637, 39.6519786], [-7.672636, 39.6525259], [-7.6726022, 39.6525657], [-7.6724818, 39.6526627], [-7.6723216, 39.6527157], [-7.6721045, 39.6527396], [-7.671365, 39.6528241], [-7.6709516, 39.6528713], [-7.6701805, 39.6529593], [-7.6700382, 39.653015], [-7.6699014, 39.6531035], [-7.6698063, 39.6532272], [-7.6697452, 39.6533341], [-7.669668, 39.6538199], [-7.6696044, 39.6539638], [-7.6695581, 39.6540122]]}, "properties": {"highway": "primary", "lanes": "2", "ref": "ER 18", "surface": "asphalt"}}, {"type": "Feature", "geometry": {"type": "LineString", "coordinates": [[-7.6489995, 39.5143625], [-7.6490115, 39.514502], [-7.6490144, 39.5146173], [-7.6490117, 39.5147536], [-7.6489964, 39.5149396], [-7.6489786, 39.5151065], [-7.6489737, 39.515171], [-7.6489659, 39.5152436], [-7.6490067, 39.5153423], [-7.6490726, 39.5153939], [-7.6491527, 39.5154658]]}, "properties": {"abutters": "residential", "highway": "primary", "maxspeed": "50", "name": "Pra\u00e7a da Rep\u00fablica", "postal_code": "6050-999;6050-350", "postal_code:description": "6050-999:Loja CTT Nisa", "ref": "ER 18"}}, {"type": "Feature", "geometry": {"type": "LineString", "coordinates": [[-7.6212464, 39.4154329], [-7.621262, 39.4154604], [-7.6212795, 39.4154784], [-7.6213012, 39.4154935], [-7.6213398, 39.4155093], [-7.6213827, 39.4155157], [-7.6214261, 39.4155122], [-7.6214664, 39.4154992], [-7.6214967, 39.4154804], [-7.6215197, 39.4154562], [-7.6215338, 39.4154282], [-7.621538, 39.4153984], [-7.6215321, 39.4153687], [-7.6215165, 39.4153412], [-7.621499, 39.4153232], [-7.6214773, 39.4153082], [-7.6214432, 39.4152937], [-7.6214053, 39.4152866], [-7.6213664, 39.4152873], [-7.6213248, 39.4152973], [-7.6212887, 39.4153162], [-7.6212612, 39.4153423], [-7.6212448, 39.4153735], [-7.6212405, 39.4154033], [-7.6212464, 39.4154329]]}, "properties": {"highway": "primary", "junction": "roundabout", "lanes": "1", "name": "Rotunda Comendador Francisco Ramos", "ref": "ER 18", "source": "survey"}}, {"type": "Feature", "geometry": {"type": "LineString", "coordinates": [[-7.6549984, 39.5739553], [-7.6555109, 39.5745843], [-7.6556617, 39.5747715], [-7.6558, 39.574969], [-7.6559932, 39.5754083], [-7.6560962, 39.5756345], [-7.6561213, 39.5757334], [-7.6561187, 39.5757845], [-7.6561087, 39.5758344], [-7.6560805, 39.5758987], [-7.6560367, 39.5759604], [-7.6559556, 39.5760311], [-7.6556831, 39.5762157], [-7.6554897, 39.5763688], [-7.6553623, 39.5764914], [-7.6552534, 39.5766212], [-7.6551792, 39.5767139], [-7.6550934, 39.5768371], [-7.6550034, 39.5770083], [-7.6549511, 39.5771463], [-7.6549334, 39.5772097], [-7.6549223, 39.5772821], [-7.6549212, 39.5773481], [-7.6549249, 39.5774199], [-7.6549332, 39.577488], [-7.6549502, 39.5775547], [-7.6549848, 39.5776351], [-7.655123, 39.577869], [-7.6551828, 39.5779684], [-7.6552329, 39.5780723], [-7.6552621, 39.5781846], [-7.6552716, 39.5782959], [-7.6552461, 39.5786692], [-7.6550755, 39.5794452], [-7.6550231, 39.5797111], [-7.6549884, 39.5799584], [-7.6549563, 39.5801196], [-7.6549153, 39.5802256], [-7.6548614, 39.5803012], [-7.6545968, 39.5806089], [-7.6545578, 39.5806665], [-7.6545208, 39.5807383], [-7.6543659, 39.581066], [-7.6543112, 39.581153], [-7.6540957, 39.5814267], [-7.6539896, 39.5816493], [-7.6539579, 39.5817304], [-7.6539391, 39.5818157], [-7.6539349, 39.5819025], [-7.6539431, 39.5819851], [-7.6539583, 39.5820504], [-7.6540834, 39.5823645], [-7.6542682, 39.5827522], [-7.6544106, 39.5831145], [-7.6544292, 39.583198], [-7.6544333, 39.5832685], [-7.6544238, 39.5833425], [-7.6543943, 39.5834048], [-7.6543595, 39.5834636], [-7.6541542, 39.5836406], [-7.6540875, 39.5837243], [-7.6540465, 39.5838087], [-7.6540216, 39.5839049], [-7.6540361, 39.5839977], [-7.6540658, 39.5840788], [-7.6542198, 39.5843209], [-7.6542593, 39.5843973], [-7.6542913, 39.5844881], [-7.6543115, 39.5846837], [-7.6543731, 39.5850637], [-7.6544613, 39.5853461], [-7.6544983, 39.5855458], [-7.6544984, 39.5856374], [-7.6544866, 39.5857106], [-7.6544523, 39.5857972], [-7.6543877, 39.5858987], [-7.6541733, 39.5861598], [-7.6541017, 39.5862732], [-7.6540632, 39.5863765], [-7.6540513, 39.5864926], [-7.6540601, 39.5865762], [-7.654088, 39.5866437], [-7.6541287, 39.5867206], [-7.6542975, 39.587005], [-7.6543535, 39.5871193], [-7.6543833, 39.587215], [-7.6544024, 39.587336], [-7.6544014, 39.5874818], [-7.6543804, 39.5875838], [-7.65431, 39.5877882], [-7.6542917, 39.5878881], [-7.6542901, 39.5879773], [-7.6542981, 39.5880966], [-7.6543296, 39.5881888], [-7.6543857, 39.5883025], [-7.6547383, 39.5888072], [-7.6548552, 39.5890262], [-7.65515, 39.5895341], [-7.6551991, 39.5896376], [-7.6552406, 39.5897638], [-7.6552751, 39.5899575], [-7.6553009, 39.5900494], [-7.6553382, 39.5901283], [-7.6553722, 39.5901805], [-7.6554241, 39.5902346], [-7.6555065, 39.590294], [-7.655594, 39.5903367], [-7.6556848, 39.5903717], [-7.6562315, 39.5905397], [-7.6564965, 39.5906329], [-7.6567459, 39.5907267], [-7.6568527, 39.5907701], [-7.6569497, 39.5908149], [-7.657067, 39.5908888], [-7.6571323, 39.5909367], [-7.6571912, 39.5909906], [-7.6572488, 39.5910996], [-7.657278, 39.591225], [-7.6573374, 39.5916945], [-7.6573796, 39.5918207], [-7.6574578, 39.5919935], [-7.6575782, 39.5921916], [-7.6591608, 39.5944965], [-7.6592145, 39.5945985], [-7.6592628, 39.5947194], [-7.6592754, 39.5948414], [-7.6592652, 39.5949897], [-7.6592434, 39.5952165], [-7.6592454, 39.5953056], [-7.6592523, 39.5953772], [-7.6592661, 39.5954539], [-7.6592873, 39.5955239], [-7.6593211, 39.5956095], [-7.6593635, 39.5956937], [-7.6595029, 39.5958953], [-7.6595931, 39.5960456], [-7.6596609, 39.5961821], [-7.6597281, 39.5963924], [-7.6597553, 39.596561], [-7.6597593, 39.5967804], [-7.65975, 39.59704], [-7.6596668, 39.5977293], [-7.6596625, 39.5978631], [-7.6596719, 39.5979819], [-7.6596897, 39.5980669], [-7.6597214, 39.5981471], [-7.6597674, 39.5982415], [-7.6598055, 39.598298], [-7.6598486, 39.5983446], [-7.65992, 39.5984167], [-7.660018, 39.5984811], [-7.6601211, 39.5985333], [-7.6602286, 39.5985736], [-7.6603761, 39.5986096], [-7.6605282, 39.5986252], [-7.6606515, 39.5986208], [-7.6607569, 39.5986038], [-7.6608778, 39.598574], [-7.6609947, 39.5985271], [-7.6615401, 39.5982777], [-7.6616579, 39.5982376], [-7.6617718, 39.598224], [-7.6618952, 39.5982305], [-7.6619984, 39.5982671], [-7.6620667, 39.5983106], [-7.6621245, 39.5983706], [-7.6621873, 39.5984645], [-7.662378, 39.5989209], [-7.6624713, 39.5992205], [-7.6625012, 39.5994021], [-7.6625164, 39.5997266], [-7.6625065, 39.5999649], [-7.662461, 39.600236], [-7.6624118, 39.6003538], [-7.6623438, 39.6004574], [-7.662254, 39.6005521], [-7.6621423, 39.6006358], [-7.6620166, 39.6006998], [-7.6618888, 39.6007485], [-7.6617379, 39.6007961], [-7.6615518, 39.6008382], [-7.660962, 39.6009685], [-7.6606973, 39.6010246], [-7.6603684, 39.6010889], [-7.6601468, 39.6011369], [-7.659986, 39.6011754], [-7.6598951, 39.6012166], [-7.6598332, 39.6012561], [-7.659796, 39.6012894], [-7.6597664, 39.6013316], [-7.6597455, 39.6013723], [-7.659737, 39.6014188], [-7.6597408, 39.6014785], [-7.6597554, 39.6015229], [-7.6597805, 39.6015872], [-7.6598332, 39.601665], [-7.6601664, 39.6020465], [-7.6602602, 39.602166], [-7.660305, 39.6022307], [-7.6603416, 39.6022916], [-7.6603607, 39.6023426], [-7.6603777, 39.6024011], [-7.6603881, 39.6024876], [-7.6603962, 39.6026849], [-7.6604028, 39.6027999], [-7.6604146, 39.6028715], [-7.6604281, 39.6029163], [-7.660443, 39.6029557], [-7.6606127, 39.6033239], [-7.6606684, 39.6035237], [-7.6607, 39.6037057], [-7.660714, 39.6038681], [-7.6607012, 39.603974], [-7.6606656, 39.604093], [-7.6605186, 39.604486], [-7.660512, 39.6045729], [-7.6605358, 39.6046503], [-7.6605731, 39.6047146], [-7.6606557, 39.6047859], [-7.6607827, 39.6048652], [-7.661614, 39.6052255], [-7.6618264, 39.6053245], [-7.6619483, 39.6053996], [-7.6620226, 39.6054584], [-7.6620949, 39.6055311], [-7.6622733, 39.6058233], [-7.6627755, 39.6069049], [-7.6631123, 39.6076768], [-7.6632683, 39.6080883], [-7.6634322, 39.6088271], [-7.6634901, 39.6092295], [-7.6635331, 39.6106103], [-7.6635642, 39.6115952], [-7.6635601, 39.6118463], [-7.6635531, 39.6119034], [-7.6635387, 39.6119564], [-7.6635168, 39.6119957], [-7.6634817, 39.6120445], [-7.6634314, 39.6120915], [-7.6633727, 39.61213], [-7.663226, 39.612217], [-7.6629949, 39.6123176], [-7.6628827, 39.6123765], [-7.6628155, 39.6124222], [-7.6627705, 39.612467], [-7.6627353, 39.6125193], [-7.6627005, 39.6125931], [-7.6626907, 39.6126766], [-7.6627014, 39.6127884], [-7.6628392, 39.61333], [-7.6631129, 39.6144124], [-7.6631768, 39.61469], [-7.6631946, 39.6148179], [-7.663238, 39.6154629], [-7.6632641, 39.6157342], [-7.6634071, 39.6164103], [-7.6634383, 39.6168832], [-7.6635951, 39.6176089], [-7.6640594, 39.6191951], [-7.6641782, 39.6198633], [-7.6644216, 39.62141], [-7.6646357, 39.6222031], [-7.6648176, 39.6229377], [-7.6648819, 39.6233265], [-7.6649257, 39.6236585], [-7.6649276, 39.623812], [-7.6649171, 39.6239646], [-7.6648235, 39.6243073], [-7.6647276, 39.6245058], [-7.6646302, 39.6246779], [-7.6645771, 39.6247485], [-7.66449, 39.6248353], [-7.6644139, 39.6248971]]}, "properties": {"highway": "primary", "lanes": "2", "ref": "ER 18", "surface": "asphalt"}}, {"type": "Feature", "geometry": {"type": "LineString", "coordinates": [[-7.6545903, 39.5734638], [-7.6549984, 39.5739553]]}, "properties": {"bridge": "yes", "highway": "primary", "lanes": "2", "layer": "1", "maxweight:signed": "no", "ref": "ER 18", "surface": "asphalt"}}, {"type": "Feature", "geometry": {"type": "LineString", "coordinates": [[-7.6504544, 39.516587], [-7.6505884, 39.516721], [-7.6506517, 39.5167774], [-7.6507316, 39.516851], [-7.6512398, 39.5173097], [-7.6513489, 39.5174229], [-7.6514402, 39.5175349], [-7.6515226, 39.5176658], [-7.6515858, 39.5178004], [-7.6516403, 39.517962], [-7.6516629, 39.5180772], [-7.6516729, 39.5182418], [-7.6516719, 39.5182901], [-7.6517062, 39.5191017], [-7.6517166, 39.5202619], [-7.6517192, 39.520433], [-7.6517282, 39.5205998], [-7.6517476, 39.5207507], [-7.6517724, 39.5208293], [-7.651799, 39.5208898], [-7.6518313, 39.5209491], [-7.6518542, 39.5209829], [-7.6518801, 39.5210226], [-7.6519111, 39.5210656], [-7.6519374, 39.5210947]]}, "properties": {"abutters": "residential", "highway": "primary", "lanes": "2", "lit": "yes", "maxspeed": "50", "name": "Estrada das Amoreiras", "postal_code": "6050-385", "ref": "ER 18", "surface": "asphalt"}}, {"type": "Feature", "geometry": {"type": "LineString", "coordinates": [[-7.6315088, 39.4600883], [-7.6296249, 39.4540766], [-7.6277183, 39.4476633], [-7.6264026, 39.4433863], [-7.6263627, 39.4432561], [-7.6219899, 39.4289932], [-7.6213116, 39.4267686]]}, "properties": {"highway": "primary", "name": "Estrada de Nisa", "ref": "ER 18"}}, {"type": "Feature", "geometry": {"type": "LineString", "coordinates": [[-7.6213012, 39.4154935], [-7.6213301, 39.4156453]]}, "properties": {"highway": "primary", "oneway": "yes", "ref": "ER 18"}}, {"type": "Feature", "geometry": {"type": "LineString", "coordinates": [[-7.6361684, 39.4786407], [-7.6361945, 39.4778392]]}, "properties": {"bridge": "yes", "highway": "primary", "layer": "1", "oneway": "no", "ref": "ER 18", "source": "bing"}}, {"type": "Feature", "geometry": {"type": "LineString", "coordinates": [[-7.6213301, 39.4156453], [-7.6214119, 39.4155576], [-7.6214664, 39.4154992]]}, "properties": {"highway": "primary", "oneway": "yes", "ref": "ER 18"}}, {"type": "Feature", "geometry": {"type": "LineString", "coordinates": [[-7.6657768, 39.656107], [-7.6657063, 39.6561449], [-7.665167, 39.6564352], [-7.6648494, 39.6565608], [-7.6645061, 39.6566401], [-7.6639911, 39.6566599], [-7.6635362, 39.6566533], [-7.6629018, 39.6566376]]}, "properties": {"highway": "primary", "lanes": "2", "ref": "ER 18", "surface": "asphalt"}}, {"type": "Feature", "geometry": {"type": "LineString", "coordinates": [[-7.6695581, 39.6540122], [-7.6694581, 39.6540956], [-7.669014, 39.6543473]]}, "properties": {"bridge": "yes", "highway": "primary", "lanes": "2", "layer": "1", "maxweight:signed": "no", "ref": "ER 18", "surface": "asphalt"}}, {"type": "Feature", "geometry": {"type": "LineString", "coordinates": [[-7.620591, 39.424405], [-7.6205113, 39.4241435], [-7.6196615, 39.421356], [-7.6196407, 39.4211468], [-7.6196405, 39.4210446], [-7.6196481, 39.4209619], [-7.6196653, 39.4208605], [-7.6196868, 39.4207651], [-7.6197728, 39.4204651]]}, "properties": {"highway": "primary", "maxspeed": "50", "name": "Estrada de Nisa", "postal_code": "6050-017", "ref": "ER 18"}}, {"type": "Feature", "geometry": {"type": "LineString", "coordinates": [[-7.6197728, 39.4204651], [-7.6206408, 39.4177736]]}, "properties": {"highway": "primary", "maxspeed": "50", "name": "Estrada das Amoreiras", "postal_code": "6050-016", "ref": "ER 18"}}, {"type": "Feature", "geometry": {"type": "LineString", "coordinates": [[-7.6206408, 39.4177736], [-7.6206739, 39.4176703], [-7.620739, 39.4174667], [-7.6209026, 39.4169556], [-7.6210399, 39.4165265], [-7.6212115, 39.4159903], [-7.62123, 39.4159333], [-7.6213301, 39.4156453]]}, "properties": {"highway": "primary", "lanes": "2", "maxspeed": "50", "name": "Largo da Devesa", "postal_code": "6050-030", "ref": "ER 18", "surface": "asphalt"}}, {"type": "Feature", "geometry": {"type": "LineString", "coordinates": [[-7.6413121, 39.6710263], [-7.6402511, 39.6725586], [-7.640167, 39.67268], [-7.640097, 39.6727811], [-7.6379428, 39.6757363], [-7.6374785, 39.676046], [-7.6369213, 39.6761651], [-7.6364459, 39.6761346], [-7.6348413, 39.67554], [-7.6343461, 39.6755552], [-7.6340921, 39.6759302], [-7.6339975, 39.6760598], [-7.6338448, 39.6761829], [-7.6336131, 39.6762413], [-7.6333164, 39.6762165], [-7.6329624, 39.67622], [-7.6326692, 39.6762473], [-7.6321822, 39.6763375], [-7.631959, 39.6764005], [-7.6318153, 39.6764823], [-7.6316951, 39.676624], [-7.6316223, 39.6767797], [-7.6316003, 39.676966], [-7.6316335, 39.6771489], [-7.6319095, 39.6783301], [-7.6317511, 39.678879], [-7.6308794, 39.6802968], [-7.630305, 39.6807695], [-7.6298633, 39.6809825], [-7.6288193, 39.681486], [-7.6284429, 39.6818824], [-7.6273281, 39.683943], [-7.6273032, 39.6840334], [-7.6272858, 39.6840963], [-7.6272956, 39.6842088], [-7.6273177, 39.6842851], [-7.6273387, 39.684343], [-7.6273607, 39.6844031], [-7.6289777, 39.6862729], [-7.629156, 39.6870199], [-7.6294532, 39.6883766], [-7.6294135, 39.6891083], [-7.6291164, 39.6897638], [-7.6289579, 39.6901449], [-7.6287202, 39.6904345], [-7.6283636, 39.6906174], [-7.6278486, 39.6908156], [-7.6274128, 39.69109], [-7.6263034, 39.6923857], [-7.625828, 39.6930259], [-7.6257316, 39.6933396], [-7.625729, 39.6936966], [-7.625698, 39.6945686], [-7.6256894, 39.6948093], [-7.6255705, 39.6952818], [-7.6254419, 39.6956225], [-7.6248005, 39.6965867], [-7.6240055, 39.6977815], [-7.6236094, 39.6984217], [-7.6234707, 39.699077], [-7.6235499, 39.6995648], [-7.6239065, 39.6999915], [-7.6242594, 39.7002478], [-7.6247494, 39.7004605], [-7.6257547, 39.7006396], [-7.626244, 39.7007536], [-7.6267227, 39.7009475], [-7.6271315, 39.7013062], [-7.6273189, 39.7016729], [-7.6274109, 39.7023298], [-7.6277495, 39.7053258], [-7.6278486, 39.7070479], [-7.6279674, 39.7094253], [-7.6280696, 39.7119027], [-7.6281655, 39.7142255], [-7.6282041, 39.7151164], [-7.6282039, 39.7157997], [-7.6281604, 39.7159937], [-7.6279278, 39.7166636], [-7.6273732, 39.7178979], [-7.6267251, 39.7188869], [-7.6265955, 39.7191089], [-7.626458, 39.7193503], [-7.626364, 39.7195938], [-7.6261461, 39.7209732], [-7.6259007, 39.722546], [-7.6258715, 39.7227838], [-7.6256527, 39.7241833], [-7.6256107, 39.7244404], [-7.6255321, 39.7246558], [-7.6254354, 39.7248748], [-7.6252913, 39.7250585], [-7.6250669, 39.7252666], [-7.6245645, 39.7256904], [-7.6244171, 39.7258665], [-7.6243124, 39.7260679], [-7.6242238, 39.7262883], [-7.6241717, 39.7266166], [-7.6240063, 39.7276424], [-7.6238959, 39.7281896], [-7.6236534, 39.7289609], [-7.6231236, 39.7301029], [-7.6226962, 39.7308976], [-7.6224356, 39.7315046], [-7.6220301, 39.7324868], [-7.6216384, 39.7333311], [-7.6215956, 39.7334907], [-7.6215597, 39.7337042], [-7.6215368, 39.7342552], [-7.6214983, 39.7350592], [-7.6214351, 39.7365595], [-7.6213497, 39.7376201], [-7.621311, 39.738437], [-7.6212703, 39.739025], [-7.6212181, 39.7394981], [-7.6212193, 39.7395649], [-7.6211355, 39.7403345], [-7.6210191, 39.7411713], [-7.6209864, 39.7415312], [-7.6210068, 39.7418628], [-7.6210757, 39.7427514], [-7.6210982, 39.7430413], [-7.6210827, 39.7435185], [-7.6210762, 39.7435702], [-7.6210169, 39.7440397], [-7.6208578, 39.7445681], [-7.620654, 39.7457603], [-7.6205939, 39.7462183], [-7.6205005, 39.7472826], [-7.6204677, 39.7476415], [-7.6204474, 39.7479666], [-7.620426, 39.7483685], [-7.6204104, 39.7486627], [-7.6203941, 39.7489482], [-7.6203783, 39.7492352], [-7.6203639, 39.7495278], [-7.6203519, 39.7497369], [-7.6203476, 39.749812], [-7.6203362, 39.7500278], [-7.6203339, 39.7501045], [-7.6203319, 39.7501723]]}, "properties": {"highway": "primary", "lanes": "2", "ref": "ER 18", "surface": "asphalt"}}, {"type": "Feature", "geometry": {"type": "LineString", "coordinates": [[-7.6589862, 39.6563873], [-7.6576531, 39.6565738]]}, "properties": {"bridge": "yes", "highway": "primary", "lanes": "2", "layer": "1", "maxweight:signed": "no", "ref": "ER 18", "surface": "asphalt"}}, {"type": "Feature", "geometry": {"type": "LineString", "coordinates": [[-7.6612613, 39.6565124], [-7.6609396, 39.656461], [-7.6605459, 39.6563986]]}, "properties": {"highway": "primary", "lanes": "2", "ref": "ER 18", "surface": "asphalt"}}, {"type": "Feature", "geometry": {"type": "LineString", "coordinates": [[-7.6602446, 39.65635], [-7.6601371, 39.6563395]]}, "properties": {"highway": "primary", "lanes": "2", "ref": "ER 18", "surface": "asphalt"}}, {"type": "Feature", "geometry": {"type": "LineString", "coordinates": [[-7.6599558, 39.6563102], [-7.6589862, 39.6563873]]}, "properties": {"highway": "primary", "lanes": "2", "ref": "ER 18", "surface": "asphalt"}}, {"type": "Feature", "geometry": {"type": "LineString", "coordinates": [[-7.6601371, 39.6563395], [-7.6599558, 39.6563102]]}, "properties": {"highway": "primary", "lanes": "2", "ref": "ER 18", "surface": "asphalt"}}, {"type": "Feature", "geometry": {"type": "LineString", "coordinates": [[-7.6602906, 39.6563575], [-7.6602446, 39.65635]]}, "properties": {"highway": "primary", "lanes": "2", "ref": "ER 18", "surface": "asphalt"}}, {"type": "Feature", "geometry": {"type": "LineString", "coordinates": [[-7.6605459, 39.6563986], [-7.6603975, 39.656375], [-7.6602906, 39.6563575]]}, "properties": {"highway": "primary", "lanes": "2", "ref": "ER 18", "surface": "asphalt"}}, {"type": "Feature", "geometry": {"type": "LineString", "coordinates": [[-7.6756171, 39.6460774], [-7.67577, 39.6461071], [-7.6758456, 39.6461396], [-7.6759305, 39.6461975], [-7.675993, 39.6462724]]}, "properties": {"highway": "primary", "lanes": "2", "oneway": "no", "ref": "ER 18", "surface": "asphalt"}}, {"type": "Feature", "geometry": {"type": "LineString", "coordinates": [[-7.6638242, 39.6252527], [-7.6637308, 39.6253217], [-7.6636282, 39.6254127], [-7.6633371, 39.6257025], [-7.6632042, 39.6258468], [-7.6630859, 39.6259876], [-7.6629902, 39.6261235], [-7.6629378, 39.6262285], [-7.662898, 39.6263371], [-7.6628824, 39.6264515], [-7.6628828, 39.6265499], [-7.662895, 39.6266427], [-7.6629191, 39.6268493], [-7.6629206, 39.6269569], [-7.6629135, 39.6270493], [-7.6628721, 39.6272672], [-7.6628404, 39.6274806], [-7.6628268, 39.6276447], [-7.6628294, 39.6278069], [-7.6628423, 39.6279171], [-7.6628605, 39.6280147], [-7.6628909, 39.6281392], [-7.6629388, 39.6282963], [-7.6629824, 39.6284282], [-7.6630168, 39.6285841], [-7.6630214, 39.6287826], [-7.6630194, 39.6289568], [-7.6630279, 39.6290846], [-7.6630539, 39.6292114], [-7.6630837, 39.6293028], [-7.6631134, 39.6293737], [-7.6632775, 39.6296864], [-7.6633705, 39.6298627], [-7.6634436, 39.630038], [-7.6634631, 39.6301091], [-7.6634728, 39.6301735], [-7.6635033, 39.6304163], [-7.6635465, 39.6308137], [-7.6635636, 39.630914], [-7.6635853, 39.6310044], [-7.6635977, 39.6310519], [-7.6636112, 39.6310925], [-7.6636442, 39.6311734], [-7.6636996, 39.6312805], [-7.6637421, 39.6313541], [-7.6638596, 39.6315423], [-7.6642065, 39.6320409], [-7.6643124, 39.6321862], [-7.6644241, 39.6323194], [-7.664654, 39.6325533], [-7.6648047, 39.6327055], [-7.6648808, 39.6328046], [-7.6649282, 39.6328827], [-7.6649732, 39.63296], [-7.6650108, 39.6330351], [-7.6650901, 39.6332006], [-7.6651294, 39.633292], [-7.6651744, 39.6334107], [-7.6652385, 39.6336035], [-7.6652742, 39.6336907], [-7.665358, 39.6338211], [-7.665692, 39.6342158], [-7.6660245, 39.6346493], [-7.6663452, 39.6351043], [-7.6663689, 39.6351457], [-7.6663899, 39.6351933], [-7.6664082, 39.6352404], [-7.6664184, 39.6352836], [-7.6664491, 39.6357427], [-7.6664645, 39.6358153], [-7.666488, 39.6358891], [-7.6665208, 39.6359529], [-7.6666941, 39.6361982], [-7.6668458, 39.6364045], [-7.6670225, 39.6366248], [-7.6672434, 39.636845], [-7.6673037, 39.636915], [-7.6673492, 39.636977], [-7.6673817, 39.6370302], [-7.6674039, 39.6370825], [-7.6674183, 39.6371416], [-7.6674291, 39.637226], [-7.6674122, 39.6375815], [-7.6674206, 39.6376655], [-7.6674332, 39.6377355], [-7.667449, 39.6377993], [-7.6674936, 39.6379468], [-7.6675566, 39.638115], [-7.6675999, 39.6382109], [-7.6676419, 39.6382806], [-7.6676858, 39.638344], [-7.6678826, 39.6386095], [-7.6680416, 39.6388159], [-7.6681366, 39.6389561], [-7.6682729, 39.6391682], [-7.668408, 39.6394178], [-7.6685453, 39.6396886], [-7.6688149, 39.6402399], [-7.6693549, 39.6419683], [-7.6695101, 39.6423595], [-7.6695812, 39.6425171], [-7.6696284, 39.642608], [-7.6696855, 39.6426918], [-7.6697586, 39.6427847], [-7.6698203, 39.6428521], [-7.6699071, 39.6429467], [-7.6699561, 39.6430275], [-7.6699903, 39.6431129], [-7.6700194, 39.6431875], [-7.6700597, 39.643268], [-7.6700993, 39.6433273], [-7.670157, 39.6433942], [-7.6703018, 39.6435204], [-7.6703556, 39.6435722], [-7.6703993, 39.6436221], [-7.670436, 39.6437017], [-7.6704587, 39.6437781], [-7.670468, 39.6438572], [-7.6704584, 39.6439575], [-7.670405, 39.6441366], [-7.6703791, 39.6442696], [-7.6703814, 39.6443779], [-7.6704, 39.6444736], [-7.6704333, 39.6445653], [-7.6704957, 39.6447027], [-7.6705632, 39.6448338], [-7.670621, 39.6449079], [-7.6706734, 39.6449601], [-7.6707551, 39.6450147], [-7.6708256, 39.6450563], [-7.6709937, 39.6451568], [-7.6710418, 39.6451918], [-7.6711277, 39.645278], [-7.6712537, 39.6454335], [-7.6713724, 39.6455724], [-7.6714602, 39.6456639], [-7.6715547, 39.6457432], [-7.6716786, 39.6458177], [-7.6718522, 39.6459027], [-7.6721701, 39.6460356], [-7.6730047, 39.6463509], [-7.673279, 39.64644], [-7.6734404, 39.6464755], [-7.6735932, 39.6464982], [-7.6737055, 39.6465028], [-7.673818, 39.6464954], [-7.6739207, 39.6464682], [-7.6740038, 39.6464386], [-7.6740822, 39.646399], [-7.6741591, 39.6463532], [-7.6742557, 39.6463019], [-7.6743359, 39.6462678], [-7.6744039, 39.646249], [-7.6744871, 39.6462326], [-7.674862, 39.6461738], [-7.6752941, 39.6461014], [-7.6754171, 39.6460793], [-7.6755244, 39.6460718], [-7.6756171, 39.6460774]]}, "properties": {"highway": "primary", "lanes": "2", "ref": "ER 18", "surface": "asphalt"}}, {"type": "Feature", "geometry": {"type": "LineString", "coordinates": [[-7.6644139, 39.6248971], [-7.663975, 39.6251619], [-7.6638242, 39.6252527]]}, "properties": {"highway": "primary", "lanes": "2", "ref": "ER 18", "surface": "asphalt"}}, {"type": "Feature", "geometry": {"type": "LineString", "coordinates": [[-7.6491833, 39.5154931], [-7.6492263, 39.5155296], [-7.6494947, 39.5157628], [-7.6496255, 39.5158724], [-7.649729, 39.5159371], [-7.6498951, 39.516009], [-7.6499955, 39.5160525], [-7.6501101, 39.5161304], [-7.6503817, 39.5163873]]}, "properties": {"abutters": "residential", "highway": "primary", "lanes": "2", "maxspeed": "50", "name": "Pra\u00e7a da Rep\u00fablica", "postal_code": "6050-999;6050-350", "postal_code:description": "6050-999:Loja CTT Nisa", "ref": "ER 18", "surface": "sett"}}, {"type": "Feature", "geometry": {"type": "LineString", "coordinates": [[-7.6361945, 39.4778392], [-7.6361916, 39.4767519], [-7.6361899, 39.4761082], [-7.6360899, 39.4752416], [-7.6359, 39.4743866]]}, "properties": {"highway": "primary", "oneway": "no", "ref": "ER 18"}}, {"type": "Feature", "geometry": {"type": "LineString", "coordinates": [[-7.6213116, 39.4267686], [-7.620591, 39.424405]]}, "properties": {"highway": "primary", "name": "Estrada de Nisa", "ref": "ER 18"}}, {"type": "Feature", "geometry": {"type": "LineString", "coordinates": [[-7.6359, 39.4743866], [-7.6316709, 39.4606054], [-7.6315088, 39.4600883]]}, "properties": {"highway": "primary", "lanes": "2", "oneway": "no", "ref": "ER 18", "surface": "asphalt"}}, {"type": "Feature", "geometry": {"type": "LineString", "coordinates": [[-7.6576531, 39.6565738], [-7.6575029, 39.6565975], [-7.6569772, 39.6566533], [-7.6563548, 39.6567822], [-7.655414, 39.6573176]]}, "properties": {"highway": "primary", "lanes": "2", "ref": "ER 18", "surface": "asphalt"}}, {"type": "Feature", "geometry": {"type": "LineString", "coordinates": [[-7.6491527, 39.5154658], [-7.6491833, 39.5154931]]}, "properties": {"abutters": "residential", "highway": "primary", "ref": "ER 18"}}, {"type": "Feature", "geometry": {"type": "LineString", "coordinates": [[-7.655414, 39.6573176], [-7.6543846, 39.6581193], [-7.6529237, 39.6589199], [-7.6508731, 39.6599891], [-7.6482437, 39.66136], [-7.6476989, 39.6618747], [-7.6420594, 39.6699471], [-7.6413617, 39.6709546]]}, "properties": {"highway": "primary", "lanes": "2", "ref": "ER 18", "surface": "asphalt"}}, {"type": "Feature", "geometry": {"type": "LineString", "coordinates": [[-7.6413617, 39.6709546], [-7.6413121, 39.6710263]]}, "properties": {"bridge": "yes", "highway": "primary", "lanes": "2", "layer": "1", "maxweight:signed": "no", "ref": "ER 18", "surface": "asphalt"}}, {"type": "Feature", "geometry": {"type": "LineString", "coordinates": [[-7.6488158, 39.5134741], [-7.6488868, 39.5137841], [-7.648892, 39.5138115], [-7.6489995, 39.5143625]]}, "properties": {"abutters": "residential", "highway": "primary", "maxspeed": "50", "name": "Largo Heliodoro Salgado", "postal_code": "6050-342", "ref": "ER 18"}}, {"type": "Feature", "geometry": {"type": "LineString", "coordinates": [[-7.6488158, 39.5134741], [-7.6468401, 39.5105702], [-7.6461346, 39.5095011], [-7.6453013, 39.5083154], [-7.6451677, 39.5081253], [-7.6447858, 39.5075818], [-7.6438391, 39.5061867], [-7.6437398, 39.5060127], [-7.6436749, 39.5058591], [-7.6436377, 39.5057124], [-7.6436084, 39.505508]]}, "properties": {"highway": "primary", "lane_markings": "no", "maxspeed": "50", "name": "Rua 25 de Abril", "postal_code": "6050-343", "ref": "ER 18", "surface": "asphalt"}}, {"type": "Feature", "geometry": {"type": "LineString", "coordinates": [[-7.6661533, 39.6559004], [-7.6661525, 39.6558947], [-7.6661276, 39.6558656], [-7.6660929, 39.6558432], [-7.6660513, 39.6558294], [-7.6660063, 39.6558254], [-7.6659617, 39.6558315], [-7.6659225, 39.6558465], [-7.6658902, 39.6558693], [-7.6658674, 39.6558981], [-7.6658559, 39.6559306], [-7.6658565, 39.6559577], [-7.6658566, 39.6559643], [-7.6658694, 39.6559965]]}, "properties": {"highway": "primary", "ref": "ER 18", "surface": "asphalt"}}, {"type": "Feature", "geometry": {"type": "LineString", "coordinates": [[-7.6658694, 39.6559965], [-7.6658933, 39.6560248], [-7.6659051, 39.6560349], [-7.6659265, 39.6560468], [-7.6659663, 39.6560609], [-7.6660096, 39.6560659], [-7.666053, 39.6560615], [-7.6660931, 39.6560479], [-7.6661277, 39.6560255], [-7.6661424, 39.6560082], [-7.6661526, 39.6559963], [-7.6661655, 39.6559629], [-7.6661655, 39.6559281], [-7.6661533, 39.6559004]]}, "properties": {"fixme": "position", "highway": "primary", "ref": "ER 18", "surface": "asphalt"}}, {"type": "Feature", "geometry": {"type": "LineString", "coordinates": [[-7.669014, 39.6543473], [-7.6684954, 39.6545993], [-7.6683195, 39.6546913], [-7.6682082, 39.6547495], [-7.6679136, 39.6549154], [-7.6677722, 39.6549945], [-7.6668759, 39.6554958], [-7.6663546, 39.6557879], [-7.6662384, 39.6558532]]}, "properties": {"highway": "primary", "lanes": "2", "ref": "ER 18", "surface": "asphalt"}}, {"type": "Feature", "geometry": {"type": "MultiPolygon", "coordinates": [[[[-7.621538, 39.4153984], [-7.6215321, 39.4153687], [-7.6215165, 39.4153412], [-7.621499, 39.4153232], [-7.6214773, 39.4153082], [-7.6214432, 39.4152937], [-7.6214053, 39.4152866], [-7.6213664, 39.4152873], [-7.6213248, 39.4152973], [-7.6212887, 39.4153162], [-7.6212612, 39.4153423], [-7.6212448, 39.4153735], [-7.6212405, 39.4154033], [-7.6212464, 39.4154329], [-7.621262, 39.4154604], [-7.6212795, 39.4154784], [-7.6213012, 39.4154935], [-7.6213398, 39.4155093], [-7.6213827, 39.4155157], [-7.6214261, 39.4155122], [-7.6214664, 39.4154992], [-7.6214967, 39.4154804], [-7.6215197, 39.4154562], [-7.6215338, 39.4154282], [-7.621538, 39.4153984]]]]}, "properties": {"highway": "primary", "junction": "roundabout", "lanes": "1", "name": "Rotunda Comendador Francisco Ramos", "ref": "ER 18", "source": "survey"}}]}