{"type": "FeatureCollection", "features": [{"type": "Feature", "geometry": {"type": "LineString", "coordinates": [[-8.6927066, 38.006506], [-8.692725, 38.0064268], [-8.6928032, 38.0063108]]}, "properties": {"highway": "primary", "oneway": "yes", "ref": "ER 120"}}, {"type": "Feature", "geometry": {"type": "LineString", "coordinates": [[-8.6928512, 38.0072032], [-8.6928973, 38.0073825], [-8.6930125, 38.0079502], [-8.6930419, 38.0081399], [-8.6930749, 38.008286], [-8.6931029, 38.0084269], [-8.6931735, 38.0087888], [-8.6931803, 38.0088226], [-8.6932734, 38.0092876], [-8.6933124, 38.0095291], [-8.6933383, 38.0097541], [-8.6933472, 38.0098631], [-8.6933539, 38.0100529], [-8.6933312, 38.010306]]}, "properties": {"highway": "primary", "maxspeed": "40", "name": "Avenida Dom Nuno Alvares Pereira", "postal_code": "7543-301;7540-103;7540-104", "postal_code:description": "7543-301:Cacifo CTT GALP ;7540-103:EDF Vila Rosa BL A;7540-103:EDF Vila Rosa BL B;7540-104:Galp", "ref": "ER 120", "surface": "asphalt"}}, {"type": "Feature", "geometry": {"type": "LineString", "coordinates": [[-8.692465, 38.0065839], [-8.6926035, 38.0067458], [-8.6926501, 38.0067995], [-8.6928512, 38.0072032]]}, "properties": {"highway": "primary", "oneway": "yes", "ref": "ER 120"}}, {"type": "Feature", "geometry": {"type": "LineString", "coordinates": [[-8.7105267, 37.8517305], [-8.7105363, 37.8531433], [-8.7105312, 37.8550776], [-8.7105336, 37.8560143], [-8.710536, 37.8575761]]}, "properties": {"highway": "primary", "lanes": "2", "ref": "ER 120;EN 120"}}, {"type": "Feature", "geometry": {"type": "LineString", "coordinates": [[-8.7011706, 37.9317413], [-8.7012551, 37.9318507], [-8.7013058, 37.9319901], [-8.7013189, 37.9321291], [-8.701387, 37.9331291], [-8.7014093, 37.9333768], [-8.7015005, 37.9335505], [-8.7016681, 37.9336823], [-8.703237, 37.934614], [-8.7035162, 37.9347625], [-8.7038142, 37.9348395]]}, "properties": {"highway": "primary", "lanes": "2", "oneway": "no", "ref": "ER 120;EN 120", "source": "GPS"}}, {"type": "Feature", "geometry": {"type": "LineString", "coordinates": [[-8.7038142, 37.9348395], [-8.7040186, 37.9349169], [-8.7041731, 37.9350862], [-8.7041988, 37.9352106], [-8.7043678, 37.9367629], [-8.7044464, 37.9370749], [-8.7045046, 37.9373072], [-8.7044676, 37.9374553], [-8.7043839, 37.9375733], [-8.7041084, 37.9377882], [-8.7039842, 37.9379234], [-8.7038075, 37.938205], [-8.7036688, 37.938331], [-8.7034526, 37.9384656], [-8.7033005, 37.9385971], [-8.7032311, 37.9387112], [-8.7032439, 37.9388076], [-8.7033306, 37.9389938], [-8.703341, 37.9391129], [-8.703308, 37.9392093], [-8.7031702, 37.9393071], [-8.7029459, 37.9394613], [-8.7028311, 37.9396051], [-8.7027708, 37.9397936], [-8.7028328, 37.9399717], [-8.7029454, 37.9401052], [-8.7031431, 37.940223], [-8.7034848, 37.9403032], [-8.7044067, 37.9404434], [-8.7047124, 37.9404936], [-8.704905, 37.940586], [-8.7054318, 37.9408989], [-8.7059894, 37.9413725], [-8.7061085, 37.941478], [-8.7061466, 37.9416136], [-8.7061359, 37.9417249], [-8.7060251, 37.9418573], [-8.7052816, 37.9423525], [-8.7048455, 37.9426334], [-8.7047704, 37.9427846], [-8.7046927, 37.9432135], [-8.7046639, 37.9433727], [-8.7046934, 37.9437689], [-8.7047605, 37.9440887], [-8.7048857, 37.9444235], [-8.7050434, 37.9446426], [-8.705269, 37.944822], [-8.7055351, 37.9449259], [-8.7059331, 37.9449434], [-8.7062534, 37.9449917], [-8.7064079, 37.9450769], [-8.7065999, 37.9452463], [-8.7067099, 37.9454595], [-8.7066935, 37.9456814], [-8.7065857, 37.9458794], [-8.7064537, 37.9460277], [-8.706241, 37.9461203], [-8.7059945, 37.9461827], [-8.705788, 37.9462555], [-8.7056236, 37.9463644], [-8.7054986, 37.9465139], [-8.7051269, 37.9474089], [-8.7046808, 37.9487099], [-8.7046341, 37.9492056], [-8.7045555, 37.949772], [-8.7045647, 37.9500743], [-8.7046154, 37.9504459], [-8.7047639, 37.9511661], [-8.7047468, 37.951461], [-8.7047242, 37.951849], [-8.7047503, 37.9519727], [-8.7048871, 37.9521121], [-8.7052306, 37.9522737], [-8.7053873, 37.9523545], [-8.7054501, 37.95246], [-8.7054514, 37.952636], [-8.7054015, 37.953038], [-8.705391, 37.9532134], [-8.7054286, 37.9533481], [-8.705548, 37.9534693], [-8.7057577, 37.9536051], [-8.705994, 37.9537573], [-8.7061244, 37.9539052], [-8.7061984, 37.9540868], [-8.7062523, 37.9542863], [-8.7063446, 37.9545352], [-8.7064449, 37.9546744], [-8.7065937, 37.9548245], [-8.7068062, 37.9549732], [-8.7070301, 37.9550963], [-8.707289, 37.9552371], [-8.7074633, 37.9553869], [-8.7075829, 37.955515], [-8.7076312, 37.955654], [-8.7076575, 37.955923], [-8.7076924, 37.9560664], [-8.7083369, 37.9570504], [-8.7090262, 37.9576164], [-8.709129, 37.9577416], [-8.7093063, 37.9580076], [-8.7094313, 37.9581461], [-8.7096139, 37.9582428], [-8.709851, 37.9583083], [-8.709991, 37.958391], [-8.7101007, 37.9585095], [-8.7101351, 37.9586524], [-8.7101184, 37.9587945], [-8.7099873, 37.9589438], [-8.7098446, 37.9590496], [-8.7097757, 37.9591648], [-8.7097596, 37.9593084], [-8.7098132, 37.9594721], [-8.709869, 37.9595986], [-8.7098778, 37.959713], [-8.7098494, 37.9598251], [-8.7096402, 37.9602081], [-8.7095946, 37.9603559], [-8.7096107, 37.9605128], [-8.7097075, 37.9606534], [-8.7099023, 37.9609448], [-8.7099532, 37.9610787], [-8.7099154, 37.9612113], [-8.7098199, 37.9613086], [-8.7096536, 37.9613728], [-8.7092183, 37.961431], [-8.7089624, 37.9614678], [-8.7088012, 37.9615306], [-8.7086875, 37.9616456], [-8.7086566, 37.961799], [-8.7087116, 37.9619643], [-8.7087427, 37.9620777], [-8.7087261, 37.9621792], [-8.7086531, 37.9622769], [-8.7085929, 37.9623319], [-8.7085153, 37.9623682], [-8.7083077, 37.9624258], [-8.7081671, 37.9625044], [-8.7080561, 37.9626193], [-8.7080044, 37.9626879], [-8.7076858, 37.9632861], [-8.7075995, 37.9633704], [-8.7075125, 37.9634203], [-8.7074234, 37.9634466], [-8.7073287, 37.9634588], [-8.7072298, 37.9634556], [-8.7068727, 37.963417], [-8.7065657, 37.9633845], [-8.7064288, 37.9633953], [-8.7062947, 37.9634389], [-8.7061455, 37.963536], [-8.706064, 37.9636468], [-8.7060428, 37.9637331], [-8.7060469, 37.9638309], [-8.7061928, 37.9645938], [-8.7061999, 37.9647101], [-8.7061904, 37.9648003], [-8.7061724, 37.9648681], [-8.7061371, 37.9649404], [-8.7060675, 37.9650217], [-8.7056944, 37.9653245], [-8.7054289, 37.9655618], [-8.7053734, 37.9656191], [-8.7053348, 37.9656841], [-8.7053128, 37.9657658], [-8.7052908, 37.965905], [-8.705096, 37.9674729], [-8.705112, 37.9688516], [-8.7050791, 37.9697712], [-8.7050971, 37.9700408], [-8.705254, 37.9706762], [-8.7053905, 37.9710024], [-8.705486, 37.9712585], [-8.7055007, 37.9714733], [-8.7053194, 37.9722045], [-8.7050691, 37.9728331], [-8.7049442, 37.9731467], [-8.7047082, 37.9737328], [-8.7044992, 37.9740138], [-8.7043485, 37.9742153], [-8.7035781, 37.9752452], [-8.7033365, 37.9753826], [-8.7027462, 37.9755727], [-8.7017065, 37.9759074], [-8.7014874, 37.9760347], [-8.7013632, 37.976222], [-8.7012394, 37.9763471], [-8.7010196, 37.9764349], [-8.7008164, 37.9764531], [-8.7004107, 37.9764099], [-8.6999124, 37.9764013], [-8.6994313, 37.9764346], [-8.6991469, 37.9764627], [-8.6989216, 37.9764823], [-8.6986389, 37.9764586], [-8.6983333, 37.9763974], [-8.6980088, 37.9763242], [-8.697762, 37.9763492], [-8.6975104, 37.9764697], [-8.6973626, 37.9766179], [-8.6973097, 37.9767956], [-8.6972183, 37.9770288], [-8.6970635, 37.9771364], [-8.6966228, 37.9772505], [-8.6963145, 37.9773463], [-8.6960696, 37.9774348], [-8.6958375, 37.9775538], [-8.6955128, 37.9777349], [-8.6953014, 37.9778923], [-8.6951157, 37.978201], [-8.6949653, 37.9785293], [-8.6948731, 37.9790828], [-8.6948484, 37.9792312], [-8.6948768, 37.9795889], [-8.6949521, 37.9801388], [-8.6949682, 37.9802562], [-8.6951211, 37.9813764], [-8.6952091, 37.9817033], [-8.6963246, 37.9846949], [-8.6963694, 37.9849398], [-8.6963415, 37.9859701], [-8.6962999, 37.9860814], [-8.6962565, 37.9861974], [-8.6961557, 37.9864261], [-8.6959191, 37.9868199], [-8.695867, 37.9869066], [-8.6954851, 37.9875421], [-8.6952957, 37.9876954], [-8.69509, 37.9877966], [-8.694874, 37.9878701], [-8.6946456, 37.9879478], [-8.6938141, 37.9882027], [-8.693603, 37.9882873], [-8.6935115, 37.98835], [-8.693422, 37.9884259], [-8.6933653, 37.9885064], [-8.6933254, 37.988605], [-8.6933023, 37.9887083], [-8.6933064, 37.9888289], [-8.6933389, 37.9889519], [-8.6933948, 37.9890602], [-8.6934914, 37.9891638], [-8.6936137, 37.9892611], [-8.693934, 37.9894753], [-8.6940429, 37.9895584], [-8.6941341, 37.9896418], [-8.6942121, 37.9897501], [-8.6943857, 37.9901143], [-8.6944288, 37.9902652], [-8.6944469, 37.990398], [-8.6944785, 37.9907929], [-8.6944731, 37.9909606], [-8.6944581, 37.9910677], [-8.6944265, 37.9911702], [-8.6940122, 37.9923003], [-8.6936051, 37.9933514], [-8.6935716, 37.9934739], [-8.6935638, 37.9935754], [-8.6935671, 37.9936646], [-8.6935818, 37.9937634], [-8.6938879, 37.9950228], [-8.6939661, 37.9952591], [-8.6940104, 37.9953584], [-8.6940643, 37.9954519], [-8.6942577, 37.9956962], [-8.6946514, 37.9962187], [-8.6947166, 37.9963354], [-8.6947642, 37.996491], [-8.6949835, 37.9974088], [-8.6949908, 37.9975927], [-8.6949865, 37.9976453], [-8.6949776, 37.9977527], [-8.6945056, 37.9996937], [-8.6945324, 37.9999405], [-8.6946163, 38.0001185], [-8.6946855, 38.0002589]]}, "properties": {"highway": "primary", "lanes": "2", "ref": "ER 120;EN 120"}}, {"type": "Feature", "geometry": {"type": "LineString", "coordinates": [[-8.6897502, 37.9092086], [-8.6897047, 37.9093257], [-8.6896556, 37.9095107], [-8.6896677, 37.909656], [-8.6897277, 37.9098215], [-8.6898739, 37.9099735], [-8.6910562, 37.9108007], [-8.6912089, 37.9109044], [-8.6912984, 37.9110739], [-8.6914428, 37.9116791], [-8.6914594, 37.9118454], [-8.691413, 37.9120488], [-8.6913655, 37.9122143], [-8.6913915, 37.9123529], [-8.6914757, 37.9124754], [-8.6917169, 37.9126849], [-8.6929381, 37.9136231], [-8.6931714, 37.9138024], [-8.6933329, 37.9139654], [-8.6934448, 37.9141294], [-8.6934853, 37.9142525], [-8.6934974, 37.9143115], [-8.6935174, 37.9144095], [-8.6935891, 37.9153345], [-8.6936349, 37.9154815], [-8.6937851, 37.9156028], [-8.6946598, 37.9160298], [-8.6947877, 37.9161254], [-8.6949076, 37.9162477], [-8.6952457, 37.9166859], [-8.695321, 37.9168433], [-8.6953922, 37.9171513], [-8.6954213, 37.9172924], [-8.6955115, 37.9173957], [-8.6958003, 37.9176556], [-8.6959831, 37.9178093], [-8.6960696, 37.9179469], [-8.6961588, 37.9181736], [-8.6969311, 37.9207475], [-8.6974712, 37.9225566], [-8.6975203, 37.9227064], [-8.6975707, 37.9228655], [-8.6975946, 37.9229444], [-8.6977072, 37.9233145], [-8.698097, 37.9244663], [-8.6982287, 37.9246904], [-8.6984263, 37.9249253], [-8.6996194, 37.9262419], [-8.7000393, 37.9267169], [-8.7001501, 37.9268606], [-8.7001957, 37.9269536], [-8.7002117, 37.927056], [-8.7001832, 37.9272572], [-8.6997058, 37.9286235], [-8.6996994, 37.9288171], [-8.7001524, 37.9302843], [-8.7002055, 37.930459], [-8.7002967, 37.9306097], [-8.7011706, 37.9317413]]}, "properties": {"highway": "primary", "lanes": "2", "oneway": "no", "ref": "ER 120;EN 120", "source": "GPS"}}, {"type": "Feature", "geometry": {"type": "LineString", "coordinates": [[-8.6898891, 37.9069656], [-8.6898991, 37.9078037], [-8.6899004, 37.9078546], [-8.6899187, 37.9085816], [-8.6898889, 37.9088104], [-8.6898476, 37.9089763], [-8.6897502, 37.9092086]]}, "properties": {"highway": "primary", "lanes": "2", "oneway": "no", "ref": "ER 120;EN 120", "source": "GPS"}}, {"type": "Feature", "geometry": {"type": "LineString", "coordinates": [[-8.7086644, 37.8621609], [-8.7077026, 37.8642745], [-8.7070623, 37.8656507], [-8.7066855, 37.8664802], [-8.7056375, 37.8687377], [-8.7048259, 37.8704895], [-8.7045344, 37.8711294]]}, "properties": {"highway": "primary", "ref": "ER 120;EN 120"}}, {"type": "Feature", "geometry": {"type": "LineString", "coordinates": [[-8.6932206, 38.0105842], [-8.6932495, 38.0105892], [-8.6932789, 38.0105875], [-8.6933066, 38.0105794], [-8.6933303, 38.0105655], [-8.6933481, 38.0105469], [-8.6933585, 38.0105251], [-8.6933607, 38.0105019], [-8.6933545, 38.0104791], [-8.6933404, 38.0104586], [-8.6933196, 38.0104421], [-8.6932938, 38.0104309], [-8.6932619, 38.0104257], [-8.6932295, 38.0104285]]}, "properties": {"highway": "primary", "junction": "roundabout", "lanes": "1", "maxspeed": "50", "old_ref": "EN 120", "oneway": "yes", "ref": "ER 120", "surface": "asphalt"}}, {"type": "Feature", "geometry": {"type": "LineString", "coordinates": [[-8.7045344, 37.8711294], [-8.7045247, 37.8711512], [-8.7044892, 37.8712308], [-8.7044452, 37.8713249], [-8.7044318, 37.8713574], [-8.7044159, 37.8713956], [-8.7044089, 37.8714127], [-8.7043771, 37.8714993], [-8.7043591, 37.871559], [-8.7043557, 37.8715708], [-8.7043457, 37.8716064], [-8.7043282, 37.8716846], [-8.7043144, 37.8717706], [-8.704221, 37.8724895], [-8.7041844, 37.872612], [-8.7041408, 37.8727036], [-8.7040821, 37.8727904], [-8.7040051, 37.872864], [-8.703777, 37.8730688], [-8.7034925, 37.8733664], [-8.7034023, 37.8734985], [-8.7033369, 37.8736266], [-8.7032952, 37.8737243], [-8.7032672, 37.8738367], [-8.7032535, 37.8739474], [-8.7032741, 37.8740667], [-8.7033172, 37.8741667], [-8.7033791, 37.8742652], [-8.7045234, 37.8754493], [-8.7045538, 37.8754942], [-8.7045922, 37.8755566], [-8.7046147, 37.8756144], [-8.7046234, 37.8756817], [-8.7046252, 37.8757448], [-8.7045891, 37.8758342], [-8.7044909, 37.8760002], [-8.7043307, 37.8761988], [-8.7041709, 37.8763798], [-8.7038798, 37.8766697], [-8.7023422, 37.8779911], [-8.7021592, 37.8781293], [-8.7020713, 37.8781895], [-8.7019285, 37.8782609], [-8.7017611, 37.87833], [-8.7015685, 37.8784089], [-8.7014412, 37.8784908], [-8.7013834, 37.8785406], [-8.7013267, 37.8786112], [-8.7012847, 37.87872], [-8.7012685, 37.8788117], [-8.7012401, 37.8790471], [-8.7012451, 37.8791938], [-8.7012551, 37.8792884], [-8.7012856, 37.8793858], [-8.7013464, 37.8795054], [-8.701414, 37.8796204], [-8.7014296, 37.8796857], [-8.7014387, 37.879765], [-8.7014364, 37.879827], [-8.7013849, 37.8800875], [-8.7013869, 37.8802262], [-8.7013992, 37.8803664], [-8.7014255, 37.8804846], [-8.7014556, 37.8805796], [-8.7022244, 37.8820701], [-8.7022547, 37.8822642], [-8.7022427, 37.8824469], [-8.7021692, 37.8826599], [-8.7020366, 37.8828431], [-8.7014332, 37.8834798], [-8.7013564, 37.8835608], [-8.6999916, 37.8850182], [-8.6993933, 37.8856719], [-8.6991693, 37.885915], [-8.6989318, 37.8862271], [-8.6981588, 37.8872557], [-8.6969869, 37.8887878], [-8.6967941, 37.8889913], [-8.6965733, 37.8892104], [-8.6964223, 37.8893209], [-8.6953767, 37.8899672], [-8.6952879, 37.8900497], [-8.6952327, 37.8901267], [-8.6952114, 37.8902067], [-8.6952069, 37.8902698], [-8.69523, 37.8903796], [-8.6953228, 37.8906261], [-8.6953293, 37.8907226], [-8.6953328, 37.8907734], [-8.6952949, 37.8908966], [-8.6952134, 37.8909849], [-8.6951084, 37.8910638], [-8.6950163, 37.8911331], [-8.6949481, 37.8912465], [-8.6949066, 37.8914178], [-8.6948918, 37.8918714], [-8.6948961, 37.8921104], [-8.6949361, 37.8923688], [-8.6949835, 37.8925792], [-8.6949489, 37.8927416], [-8.6948419, 37.8929238], [-8.6947741, 37.8930204], [-8.6936199, 37.894665], [-8.6921106, 37.8969884], [-8.6918285, 37.8974654], [-8.6916458, 37.8977743], [-8.6914865, 37.8981091], [-8.6913969, 37.8983567], [-8.6913812, 37.8984189], [-8.6913009, 37.8987373], [-8.6912955, 37.8989157], [-8.691314, 37.8991422], [-8.6913585, 37.8994273], [-8.6914454, 37.8995733], [-8.691994, 37.9002304], [-8.6923129, 37.9006125], [-8.6923869, 37.9007283], [-8.6924234, 37.9008442], [-8.6924242, 37.9009475], [-8.6924063, 37.9010205], [-8.6923408, 37.9011028], [-8.6922061, 37.9011979], [-8.6920995, 37.9012758], [-8.6920505, 37.901341], [-8.6920231, 37.9014123], [-8.6920092, 37.9014864], [-8.6920229, 37.9015748], [-8.6921833, 37.9018492], [-8.6921942, 37.9019361], [-8.6921854, 37.9019892], [-8.6921592, 37.9020691], [-8.6918244, 37.9026117], [-8.6916965, 37.9027107], [-8.6909786, 37.9032212], [-8.6903173, 37.9036915], [-8.69004, 37.9038758], [-8.6899502, 37.9039603], [-8.6899006, 37.9040241], [-8.6898696, 37.9040844], [-8.6898388, 37.9041708], [-8.6898337, 37.9043459], [-8.6898495, 37.904622], [-8.6898685, 37.9052309], [-8.6898891, 37.9069656]]}, "properties": {"highway": "primary", "ref": "ER 120;EN 120"}}, {"type": "Feature", "geometry": {"type": "LineString", "coordinates": [[-8.7105375, 37.8578094], [-8.7105383, 37.8581833], [-8.7105341, 37.8584326], [-8.7105125, 37.8585813], [-8.7104684, 37.8587058], [-8.7104041, 37.8588258], [-8.7103051, 37.8589511], [-8.7101407, 37.8591457], [-8.7100004, 37.8593148], [-8.7098636, 37.8595589], [-8.7096958, 37.8599305], [-8.7094471, 37.8604752], [-8.709004, 37.8614296], [-8.7086644, 37.8621609]]}, "properties": {"highway": "primary", "lanes": "2", "ref": "ER 120;EN 120", "source": "GPS"}}, {"type": "Feature", "geometry": {"type": "LineString", "coordinates": [[-8.710536, 37.8575761], [-8.7105375, 37.8578094]]}, "properties": {"bridge": "yes", "highway": "primary", "lanes": "2", "layer": "1", "ref": "ER 120;EN 120"}}, {"type": "Feature", "geometry": {"type": "LineString", "coordinates": [[-8.6927033, 38.006534], [-8.6927066, 38.006506], [-8.6926997, 38.0064754], [-8.6926821, 38.0064476], [-8.6926554, 38.0064247], [-8.6926216, 38.0064087], [-8.6925834, 38.0064009], [-8.6925639, 38.0064002], [-8.6925183, 38.0064073], [-8.6924781, 38.0064258], [-8.6924479, 38.0064538], [-8.6924312, 38.006488]]}, "properties": {"highway": "primary", "junction": "roundabout", "ref": "ER 120"}}, {"type": "Feature", "geometry": {"type": "LineString", "coordinates": [[-8.692465, 38.0065839], [-8.6924998, 38.0066056], [-8.6925414, 38.0066175], [-8.6925857, 38.0066185], [-8.6926282, 38.0066085], [-8.6926645, 38.0065885], [-8.692691, 38.0065605], [-8.6927033, 38.006534]]}, "properties": {"highway": "primary", "junction": "roundabout", "ref": "ER 120"}}, {"type": "Feature", "geometry": {"type": "LineString", "coordinates": [[-8.6928512, 38.0072032], [-8.6927127, 38.0067749], [-8.6927058, 38.0067138], [-8.692691, 38.0065605]]}, "properties": {"highway": "primary", "oneway": "yes", "ref": "ER 120"}}, {"type": "Feature", "geometry": {"type": "LineString", "coordinates": [[-8.6928032, 38.0063108], [-8.6926904, 38.0063559], [-8.6925834, 38.0064009]]}, "properties": {"highway": "primary", "oneway": "yes", "ref": "ER 120"}}, {"type": "Feature", "geometry": {"type": "LineString", "coordinates": [[-8.6946855, 38.0002589], [-8.6948785, 38.0005385], [-8.6949639, 38.0006975], [-8.6949921, 38.0008106], [-8.6949918, 38.0009073], [-8.6949671, 38.0010206], [-8.6949371, 38.0011276], [-8.6948596, 38.001239], [-8.6947949, 38.0013073], [-8.694678, 38.0013925]]}, "properties": {"highway": "primary", "lanes": "2", "ref": "ER 120;EN 120"}}, {"type": "Feature", "geometry": {"type": "LineString", "coordinates": [[-8.6937248, 38.0037644], [-8.6936952, 38.0038615], [-8.6936669, 38.00394], [-8.6933527, 38.0046519], [-8.6933164, 38.004755], [-8.6932969, 38.0048321], [-8.6932869, 38.0048892], [-8.6932788, 38.0049595], [-8.6932708, 38.0051946], [-8.6932371, 38.005713], [-8.6932155, 38.0057963], [-8.6931246, 38.0059776], [-8.6930434, 38.0060849], [-8.6929408, 38.0061879], [-8.6928477, 38.0062737], [-8.6928032, 38.0063108]]}, "properties": {"highway": "primary", "lanes": "2", "ref": "ER 120;EN 120"}}, {"type": "Feature", "geometry": {"type": "LineString", "coordinates": [[-8.694678, 38.0013925], [-8.6945265, 38.0014739], [-8.6942751, 38.0015959], [-8.6941619, 38.0016518], [-8.6940675, 38.0017097], [-8.6940137, 38.0017628], [-8.6939648, 38.0018237], [-8.6939266, 38.0018927], [-8.6938957, 38.001971], [-8.6938766, 38.002059], [-8.6937438, 38.0036388], [-8.6937248, 38.0037644]]}, "properties": {"highway": "primary", "lanes": "2", "name": "Rua Alberto Perninha", "postal_code": "7540-221", "ref": "ER 120;EN 120"}}, {"type": "Feature", "geometry": {"type": "LineString", "coordinates": [[-8.6933004, 38.0107382], [-8.6933045, 38.0106928], [-8.6933081, 38.0106649], [-8.6933125, 38.0106379], [-8.6933176, 38.0106122], [-8.693324, 38.0105879], [-8.6933303, 38.0105655]]}, "properties": {"highway": "primary", "lanes": "1", "maxspeed": "50", "old_ref": "EN 120", "oneway": "yes", "ref": "ER 120", "surface": "asphalt"}}, {"type": "Feature", "geometry": {"type": "LineString", "coordinates": [[-8.6932206, 38.0105842], [-8.6932387, 38.0106101], [-8.6932509, 38.0106283], [-8.6932631, 38.0106475], [-8.6932745, 38.0106684], [-8.693284, 38.0106906], [-8.6932922, 38.0107118], [-8.6933004, 38.0107382]]}, "properties": {"highway": "primary", "lanes": "1", "maxspeed": "50", "old_ref": "EN 120", "oneway": "yes", "ref": "ER 120", "surface": "asphalt"}}, {"type": "Feature", "geometry": {"type": "LineString", "coordinates": [[-8.6933312, 38.010306], [-8.693322, 38.0103309], [-8.6933121, 38.0103499], [-8.6932987, 38.0103683], [-8.6932831, 38.0103859], [-8.6932644, 38.0104024], [-8.6932465, 38.0104161], [-8.6932295, 38.0104285]]}, "properties": {"highway": "primary", "lanes": "1", "maxspeed": "50", "old_ref": "EN 120", "oneway": "yes", "ref": "ER 120", "surface": "asphalt"}}, {"type": "Feature", "geometry": {"type": "LineString", "coordinates": [[-8.6933545, 38.0104791], [-8.6933476, 38.0104513], [-8.6933435, 38.0104303], [-8.6933399, 38.0104089], [-8.6933377, 38.0103884], [-8.6933312, 38.010306]]}, "properties": {"highway": "primary", "lanes": "1", "maxspeed": "50", "old_ref": "EN 120", "oneway": "yes", "ref": "ER 120", "surface": "asphalt"}}, {"type": "Feature", "geometry": {"type": "LineString", "coordinates": [[-8.6932295, 38.0104285], [-8.6931998, 38.0104391], [-8.6931758, 38.0104563], [-8.6931597, 38.0104786], [-8.6931531, 38.0105038], [-8.6931568, 38.0105293], [-8.6931703, 38.0105526], [-8.6931923, 38.0105715], [-8.6932206, 38.0105842]]}, "properties": {"highway": "primary", "junction": "roundabout", "lanes": "1", "maxspeed": "50", "old_ref": "EN 120", "oneway": "yes", "ref": "ER 120", "surface": "asphalt"}}]}