{"type": "FeatureCollection", "features": [{"type": "Feature", "geometry": {"type": "LineString", "coordinates": [[-27.9987806, 38.643714], [-27.9978346, 38.6411409], [-27.9969335, 38.6386339], [-27.9966275, 38.637772], [-27.9963018, 38.636899], [-27.9957095, 38.6352283], [-27.9956281, 38.6350295], [-27.9952629, 38.6340088], [-27.9949034, 38.6330204], [-27.9948691, 38.6328531], [-27.9948761, 38.632683], [-27.994967, 38.6324706], [-27.9950956, 38.6322729], [-27.99527, 38.6320868], [-27.9957117, 38.6317121], [-27.9960683, 38.6314062], [-27.9967115, 38.630861], [-27.9968805, 38.6307184], [-27.9970193, 38.630561], [-27.9971171, 38.6304254], [-27.997319, 38.6301078], [-27.9976115, 38.629632], [-27.9977253, 38.6294561], [-27.997847, 38.6292744], [-27.9979501, 38.6290894], [-27.9980261, 38.6289312], [-27.9980914, 38.6287413], [-27.9981187, 38.6286319], [-27.9981275, 38.6285114], [-27.9981239, 38.6282727], [-27.9980058, 38.6271756], [-27.9978826, 38.6260329], [-27.9978421, 38.6257038], [-27.9978312, 38.6255392], [-27.9978338, 38.6253931], [-27.9978632, 38.625249], [-27.9979161, 38.6251236], [-27.9980334, 38.6249814], [-27.9982953, 38.6247338], [-27.9985524, 38.6245148], [-27.9986398, 38.6244378], [-27.9987671, 38.6243161], [-27.9989222, 38.6241148], [-27.9990086, 38.6239431], [-27.9990407, 38.6237925], [-27.9990327, 38.6236099], [-27.9989866, 38.6234277], [-27.998912, 38.6232537], [-27.9985365, 38.622581], [-27.9981336, 38.6218232], [-27.9978817, 38.6214416], [-27.9977131, 38.621086], [-27.9976247, 38.6208371], [-27.9975792, 38.6205967], [-27.9975807, 38.6204011], [-27.9976223, 38.6201386], [-27.9977213, 38.619824], [-27.9977642, 38.6197328], [-27.9978662, 38.6195484], [-27.9979573, 38.6194048], [-27.9980446, 38.6192948], [-27.9981907, 38.6191628], [-27.9995954, 38.6181266], [-28.000005, 38.6178244], [-28.0008721, 38.6171809], [-28.0017512, 38.6165486], [-28.0018844, 38.6164487], [-28.0021025, 38.6162885], [-28.0023668, 38.616094], [-28.0025215, 38.6159386], [-28.0026061, 38.6158329], [-28.0026854, 38.6157017], [-28.0027737, 38.6155329], [-28.0028248, 38.6154105], [-28.002878, 38.6152626], [-28.0029093, 38.6151307], [-28.0029201, 38.6149907], [-28.0029161, 38.6148224], [-28.0028935, 38.6146732], [-28.0028316, 38.6145068], [-28.0027385, 38.6143041], [-28.0026542, 38.6141715], [-28.0025133, 38.6140071], [-28.0021062, 38.6135885], [-28.0019208, 38.6134137], [-28.0017018, 38.6132001], [-28.0015288, 38.6130545], [-28.0014173, 38.6129773], [-28.0013058, 38.6129212], [-28.001185, 38.6128783], [-28.0009284, 38.612802], [-28.0005336, 38.6126842], [-28.0001086, 38.6125614], [-27.999359, 38.6123463], [-27.9989149, 38.6122155], [-27.9986656, 38.6121449], [-27.9984925, 38.6120821], [-27.9982917, 38.6119872], [-27.9981554, 38.6119046], [-27.9980193, 38.6117897], [-27.9979199, 38.6116619], [-27.9978301, 38.6115237], [-27.9977773, 38.6113874], [-27.9977517, 38.6112338], [-27.9977558, 38.6110761], [-27.9977923, 38.6109279], [-27.997852, 38.610777], [-27.9979309, 38.6106357], [-27.9980455, 38.6104991], [-27.9981948, 38.6103853], [-27.9983549, 38.6103022], [-27.9985263, 38.6102449], [-27.9987332, 38.6101934], [-27.9989136, 38.6101687], [-27.9991219, 38.6101604], [-27.9993441, 38.610171], [-27.9995705, 38.6102], [-27.9997655, 38.6102301], [-27.9999456, 38.6102621], [-28.0001636, 38.6103037], [-28.0005015, 38.6103686], [-28.0006569, 38.6103908], [-28.0007975, 38.6103907], [-28.0009442, 38.6103624], [-28.0010407, 38.6103225], [-28.0011512, 38.6102403], [-28.0012171, 38.6101473], [-28.0012475, 38.6100416], [-28.0012568, 38.609936], [-28.0012278, 38.6098212], [-28.0011782, 38.6097353], [-28.0010809, 38.6096197], [-28.0008979, 38.6094895], [-28.0007665, 38.6094111], [-28.00021, 38.6090642], [-27.9995305, 38.6086467], [-27.9993264, 38.608527], [-27.9991886, 38.6084459], [-27.9990807, 38.6083756], [-27.9985012, 38.6080264], [-27.9981376, 38.607861], [-27.9977335, 38.6077], [-27.9967862, 38.6073274], [-27.9967004, 38.6072872], [-27.9966227, 38.6072357], [-27.9965571, 38.6071726], [-27.9965189, 38.6071202], [-27.9964927, 38.6070405], [-27.9964876, 38.606932], [-27.9964881, 38.606833]]}, "properties": {"highway": "primary", "lanes": "2", "ref": "ER 1-2", "surface": "asphalt"}}, {"type": "Feature", "geometry": {"type": "LineString", "coordinates": [[-28.009739, 38.6473681], [-28.0122997, 38.6492301], [-28.012533, 38.6494044], [-28.012889, 38.6496859], [-28.0133289, 38.6500043], [-28.0141656, 38.6506136], [-28.0144608, 38.6508506], [-28.0145788, 38.6509679], [-28.01467, 38.6510789], [-28.0147686, 38.6511707], [-28.0149141, 38.6512758], [-28.0150321, 38.6513575], [-28.0153685, 38.6515752], [-28.0155391, 38.6517136], [-28.0156785, 38.6518561], [-28.0159414, 38.6521305], [-28.0161098, 38.652254], [-28.0162203, 38.6523274], [-28.0166334, 38.6525285], [-28.0170103, 38.6526976], [-28.0171672, 38.6527421], [-28.0173368, 38.6527605], [-28.0175212, 38.6527673], [-28.0176781, 38.6527735], [-28.0178109, 38.6528029], [-28.0179481, 38.6528627], [-28.0180684, 38.6529516], [-28.01827, 38.6531046], [-28.0184841, 38.6532553], [-28.0186992, 38.6533738], [-28.0188322, 38.6534194], [-28.0189857, 38.6534396], [-28.0191444, 38.6534314], [-28.0196589, 38.6533873], [-28.0197972, 38.6533873], [-28.0199433, 38.6534179], [-28.0201122, 38.6534857], [-28.0203724, 38.6536407], [-28.0210816, 38.6540547], [-28.0213782, 38.6542356], [-28.0216357, 38.6544136], [-28.0219843, 38.6546706], [-28.0224493, 38.6549903], [-28.0235317, 38.6556739], [-28.0244304, 38.6562014], [-28.0245405, 38.6562485], [-28.0246639, 38.6562883], [-28.0250893, 38.6563917], [-28.0253425, 38.6564747], [-28.0254926, 38.6565408], [-28.0256081, 38.656615], [-28.0256966, 38.6567093], [-28.0259083, 38.656987], [-28.0260238, 38.6571282], [-28.0261311, 38.6572162], [-28.0262397, 38.6572746], [-28.0263698, 38.6573125], [-28.0265066, 38.6573439], [-28.0266473, 38.6574039], [-28.0273248, 38.6577601], [-28.0278918, 38.6580237], [-28.02812, 38.6581401], [-28.0285344, 38.6583367], [-28.0289463, 38.6585276], [-28.0292335, 38.6586145], [-28.0294678, 38.658653], [-28.0296503, 38.6586731], [-28.0302309, 38.6587437], [-28.0311278, 38.658865], [-28.0315758, 38.6589065], [-28.0320776, 38.6589718], [-28.0323233, 38.6590339], [-28.0326375, 38.659147], [-28.0329181, 38.6592687], [-28.0330837, 38.6593611], [-28.0332403, 38.6594666], [-28.0334723, 38.6596593], [-28.033715, 38.6598759], [-28.0338745, 38.6600419], [-28.0340039, 38.6601509], [-28.0342086, 38.6603025], [-28.0343239, 38.6603797], [-28.0345064, 38.6604668], [-28.0346517, 38.6605459], [-28.0348477, 38.6606726], [-28.0350247, 38.6607618], [-28.0352431, 38.6608467], [-28.0355743, 38.6609629], [-28.0358179, 38.6610594], [-28.0360846, 38.6611951], [-28.0362857, 38.6613124], [-28.0363888, 38.6613976], [-28.0365171, 38.6615355], [-28.0366237, 38.661602], [-28.0367715, 38.6616395], [-28.0376322, 38.6617445], [-28.0381718, 38.6618044], [-28.0387046, 38.6618531], [-28.0392177, 38.6618961], [-28.0393965, 38.6619329], [-28.0395306, 38.6619911], [-28.0400041, 38.6622886], [-28.0402236, 38.662466], [-28.0403609, 38.6626211], [-28.0405272, 38.6627863], [-28.0407334, 38.662927], [-28.0410888, 38.6631249], [-28.0420323, 38.6636069], [-28.0421653, 38.6636649], [-28.0422999, 38.6636864], [-28.0425999, 38.6636922], [-28.0428453, 38.6636779]]}, "properties": {"highway": "primary", "ref": "ER 1-2", "surface": "asphalt"}}, {"type": "Feature", "geometry": {"type": "LineString", "coordinates": [[-28.079839, 38.675004], [-28.0808622, 38.6750229], [-28.0809957, 38.6750028], [-28.0811486, 38.6749504], [-28.0813578, 38.6748667], [-28.081955, 38.6746746], [-28.0820981, 38.6746489], [-28.0822429, 38.6746426], [-28.0823877, 38.6746609], [-28.0825641, 38.6747201], [-28.0827633, 38.6748164], [-28.083179, 38.6750472], [-28.0834177, 38.6751619], [-28.0836466, 38.6752206], [-28.0838469, 38.6752478], [-28.0844039, 38.6752756], [-28.0847421, 38.6753139], [-28.0849868, 38.6753713], [-28.0852416, 38.6754425], [-28.086373, 38.6758046], [-28.087005, 38.6760011], [-28.087299, 38.6760856], [-28.0875186, 38.6761423], [-28.0877264, 38.676183], [-28.0883331, 38.6762689], [-28.088644, 38.6763098], [-28.0888451, 38.6763302], [-28.0891779, 38.6763599], [-28.08942, 38.6763913], [-28.0895378, 38.6764167], [-28.0896595, 38.6764562], [-28.0897608, 38.6764999], [-28.0898436, 38.6765512], [-28.0899805, 38.6766409], [-28.0902625, 38.6768098], [-28.0904857, 38.6769311], [-28.0905932, 38.6769774], [-28.0906935, 38.6770116], [-28.0909402, 38.6770841], [-28.0910438, 38.6771286], [-28.0911673, 38.6772054], [-28.0912731, 38.6772728], [-28.0913218, 38.6773118], [-28.091424, 38.6774157], [-28.0915475, 38.6775304], [-28.0916944, 38.6776567], [-28.0918606, 38.6777743], [-28.0920648, 38.6778894], [-28.0923437, 38.678024], [-28.0925741, 38.6781105], [-28.0928056, 38.6781786], [-28.0930653, 38.6782368], [-28.0933055, 38.67828], [-28.0937979, 38.678364], [-28.0940683, 38.67841], [-28.0942912, 38.6784549], [-28.094739, 38.6785637], [-28.0949771, 38.678624], [-28.0951814, 38.6786954], [-28.0954646, 38.6787869], [-28.0956945, 38.6788483], [-28.0958371, 38.6788805], [-28.0961057, 38.6789396], [-28.0963481, 38.6789913], [-28.0966078, 38.6790411], [-28.0970516, 38.6791075], [-28.0974998, 38.6791674], [-28.0979516, 38.6792336], [-28.0983513, 38.6793054], [-28.0984961, 38.679332], [-28.0986278, 38.6793397], [-28.0987847, 38.6793308], [-28.0990006, 38.6792937], [-28.0996315, 38.6791594], [-28.1007846, 38.6788999], [-28.1010462, 38.6788418], [-28.1012658, 38.678835], [-28.1015063, 38.6788583], [-28.1017219, 38.678895], [-28.1018351, 38.6789258], [-28.1019884, 38.6789721], [-28.1020926, 38.6790274], [-28.1021918, 38.6791007], [-28.1023018, 38.6791938], [-28.1023943, 38.6793069], [-28.1024909, 38.6794566], [-28.1027377, 38.6798733], [-28.1031792, 38.6806867], [-28.1032902, 38.6808574], [-28.1034055, 38.6809768], [-28.1035404, 38.681063], [-28.1039084, 38.6812478], [-28.1039801, 38.681308], [-28.1040301, 38.6814053], [-28.104035, 38.6815047], [-28.1039822, 38.6816337], [-28.1037352, 38.6819162], [-28.103577, 38.6821023], [-28.1035531, 38.6821731], [-28.103548, 38.6822629], [-28.1035671, 38.6823267], [-28.1036124, 38.6823793], [-28.1036693, 38.6824364], [-28.1037542, 38.6824983], [-28.1038855, 38.682567], [-28.1041206, 38.6826973], [-28.1042333, 38.6827831], [-28.1043377, 38.6828884], [-28.104474, 38.6830508], [-28.1045883, 38.6831728], [-28.1046847, 38.6832523], [-28.1047976, 38.6833221], [-28.1049125, 38.683367], [-28.1050487, 38.6834123], [-28.1055984, 38.6835533], [-28.1059322, 38.6836628], [-28.1062441, 38.6837924], [-28.1065899, 38.6839748], [-28.1071375, 38.6842852], [-28.1072989, 38.6843432], [-28.1075183, 38.684394], [-28.107818, 38.6844484], [-28.1081811, 38.684532], [-28.1084695, 38.6846733], [-28.1094662, 38.6854941], [-28.1096724, 38.6856315], [-28.1099047, 38.6857616], [-28.110456, 38.6860555], [-28.11067, 38.686162], [-28.1108606, 38.6862203], [-28.1110828, 38.686241], [-28.111363, 38.6862402], [-28.1124467, 38.6862006], [-28.1131747, 38.6861638], [-28.1133854, 38.6861388], [-28.1137431, 38.686079], [-28.1139325, 38.6860541], [-28.1140929, 38.6860453], [-28.1143328, 38.6860458], [-28.1146011, 38.6860548], [-28.1147798, 38.6860691], [-28.1149672, 38.6860956], [-28.1155185, 38.6861904], [-28.1163041, 38.68632], [-28.1170982, 38.6864513], [-28.1177411, 38.6865842], [-28.1179679, 38.6866132], [-28.1181924, 38.6866291], [-28.1184372, 38.6866241], [-28.1188116, 38.6866053], [-28.1191036, 38.6866091], [-28.119276, 38.6866291], [-28.119413, 38.6866571], [-28.1196209, 38.6867155], [-28.1198295, 38.6868019], [-28.120251, 38.6869897], [-28.1210728, 38.6873536], [-28.1213193, 38.6874502], [-28.1215347, 38.6875231], [-28.1217753, 38.6875879], [-28.1222245, 38.6876992], [-28.1231012, 38.6879211], [-28.1233847, 38.6879817], [-28.1236338, 38.6880183], [-28.1240535, 38.6880488], [-28.1247529, 38.688087], [-28.1250952, 38.6880923], [-28.1254439, 38.6880797], [-28.1258423, 38.6880467], [-28.1262861, 38.6880033], [-28.1269052, 38.6879446], [-28.1271619, 38.6879238], [-28.1274784, 38.6878924], [-28.1276806, 38.6879017], [-28.1279209, 38.6879468], [-28.1284413, 38.688085], [-28.1294417, 38.6883592], [-28.1297421, 38.6884283], [-28.1299284, 38.6884493], [-28.1301525, 38.6884681], [-28.1304503, 38.6884681], [-28.1313917, 38.6884514], [-28.132773, 38.6884283], [-28.1328901, 38.6884507], [-28.1330359, 38.6885037], [-28.1331483, 38.6885766], [-28.1334141, 38.6887947], [-28.1336384, 38.6889549], [-28.1338111, 38.6890522], [-28.134082, 38.6891611], [-28.1346517, 38.6893951], [-28.1351441, 38.6895819], [-28.1356671, 38.6897703], [-28.1358598, 38.6898143], [-28.1360534, 38.6898478], [-28.1364933, 38.6898897], [-28.1373157, 38.6899603], [-28.1376976, 38.6899985], [-28.1379846, 38.6900425], [-28.1382018, 38.6900927], [-28.1385832, 38.6902242], [-28.138977, 38.6903502], [-28.1392238, 38.6904612], [-28.1393609, 38.6905521], [-28.139956, 38.6910872], [-28.1403213, 38.6913664], [-28.1405756, 38.6915163], [-28.1409082, 38.6916713], [-28.1411818, 38.6917738], [-28.141398, 38.6918373], [-28.1416672, 38.6919036], [-28.1420106, 38.6919685], [-28.1426755, 38.692095], [-28.143089, 38.6923905], [-28.1433251, 38.6927834], [-28.1434268, 38.6929985], [-28.1435367, 38.6932456], [-28.1436574, 38.6934348], [-28.1438157, 38.6936664], [-28.1439739, 38.6938359], [-28.1441126, 38.6939665], [-28.1442556, 38.694062], [-28.1443451, 38.6941106]]}, "properties": {"highway": "primary", "ref": "ER 1-2", "surface": "asphalt"}}, {"type": "Feature", "geometry": {"type": "LineString", "coordinates": [[-28.2005029, 38.6854757], [-28.2004361, 38.685412], [-28.2003829, 38.6853676], [-28.2003189, 38.6853056], [-28.2002382, 38.6852162], [-28.2001841, 38.6851484], [-28.2001263, 38.6850611], [-28.200069, 38.6849587], [-28.1999183, 38.6846692], [-28.1998314, 38.6845021], [-28.1998011, 38.684444], [-28.1997345, 38.6843116], [-28.1996019, 38.684048], [-28.1995174, 38.6839071], [-28.1993984, 38.6837776], [-28.1992135, 38.6836411], [-28.1989682, 38.6835165], [-28.1987084, 38.6834035], [-28.1985238, 38.683324], [-28.1984508, 38.6832872], [-28.198378, 38.6832397]]}, "properties": {"highway": "primary", "lanes": "2", "ref": "ER 1-2", "surface": "asphalt"}}, {"type": "Feature", "geometry": {"type": "LineString", "coordinates": [[-28.208812, 38.6916095], [-28.2090305, 38.6918145], [-28.2095677, 38.6923255], [-28.2097019, 38.6924832], [-28.209768, 38.69261], [-28.209807, 38.6927019], [-28.2098302, 38.6928153], [-28.2098332, 38.6929905], [-28.2098062, 38.6931279], [-28.2097322, 38.6932737], [-28.2096466, 38.6933771], [-28.2091333, 38.69391], [-28.2089419, 38.6941132], [-28.2087869, 38.6943182], [-28.2086017, 38.6945786], [-28.2084693, 38.6947712], [-28.2083973, 38.694906], [-28.2083609, 38.6950047], [-28.2083416, 38.6950968], [-28.2083352, 38.6952198], [-28.2083578, 38.6953423], [-28.2084223, 38.6955286], [-28.2084885, 38.695695], [-28.2085587, 38.6958711], [-28.2086588, 38.6961236], [-28.2086906, 38.6962486], [-28.2086886, 38.6963612], [-28.2086663, 38.6964553], [-28.2086311, 38.696549], [-28.2085698, 38.696638], [-28.2084757, 38.6967384], [-28.2083644, 38.69682], [-28.2082514, 38.6968825], [-28.2081202, 38.6969328], [-28.2079988, 38.6969581], [-28.2078711, 38.6969694], [-28.2077497, 38.6969709], [-28.2076073, 38.6969593], [-28.2074368, 38.6969461], [-28.2070099, 38.6968991], [-28.2065469, 38.6968497], [-28.2063321, 38.6968374], [-28.2061872, 38.6968414], [-28.2059721, 38.696863], [-28.2056367, 38.6969028], [-28.2054747, 38.6969243]]}, "properties": {"highway": "primary", "lanes": "2", "ref": "ER 1-2", "surface": "asphalt"}}, {"type": "Feature", "geometry": {"type": "LineString", "coordinates": [[-28.0723158, 38.673822], [-28.072771, 38.6740264], [-28.0729468, 38.6740818], [-28.0731602, 38.6741294], [-28.074553, 38.6743492], [-28.0760881, 38.6746005], [-28.0765084, 38.6746525], [-28.076917, 38.6746479], [-28.0771843, 38.6745981], [-28.0774636, 38.6745907], [-28.0777916, 38.6747226], [-28.0781399, 38.6748865], [-28.078463, 38.6749613], [-28.0791134, 38.6749942]]}, "properties": {"highway": "primary", "ref": "ER 1-2", "surface": "asphalt"}}, {"type": "Feature", "geometry": {"type": "LineString", "coordinates": [[-28.1829187, 38.6698917], [-28.1828981, 38.6698223], [-28.1827668, 38.6696839], [-28.1826361, 38.6696002], [-28.1825697, 38.66957], [-28.1824161, 38.6695189], [-28.1822439, 38.6695027], [-28.1821201, 38.669525]]}, "properties": {"highway": "primary", "oneway": "yes", "ref": "ER 1-2", "surface": "asphalt"}}, {"type": "Feature", "geometry": {"type": "LineString", "coordinates": [[-28.0607336, 38.6698324], [-28.0609545, 38.6699083], [-28.0610827, 38.6699393], [-28.0612185, 38.6699465], [-28.0613967, 38.6699442], [-28.0617528, 38.6699198], [-28.0620534, 38.6699136], [-28.0625817, 38.6699126], [-28.0629849, 38.6699354], [-28.0631505, 38.6699714], [-28.0632817, 38.6700206], [-28.0634192, 38.6700922], [-28.0636847, 38.6702681], [-28.0638403, 38.6703581], [-28.0639851, 38.6704147], [-28.0641463, 38.6704441], [-28.0644438, 38.6704587], [-28.0651059, 38.6704615], [-28.0652645, 38.6704775], [-28.0654914, 38.6705395], [-28.0659356, 38.6707502], [-28.0665277, 38.6710622], [-28.0666392, 38.671144], [-28.066757, 38.6712546], [-28.0669366, 38.6714645], [-28.0670531, 38.6715819], [-28.0671091, 38.6716294], [-28.0682832, 38.672312], [-28.0685232, 38.6724368], [-28.0686871, 38.6725067], [-28.0688743, 38.6725605], [-28.0690706, 38.672603], [-28.0693562, 38.6726346], [-28.0698361, 38.6726769], [-28.0699898, 38.6727059], [-28.0701554, 38.6727494], [-28.0702771, 38.6727995], [-28.0704136, 38.6728625], [-28.0712723, 38.6733048], [-28.0723158, 38.673822]]}, "properties": {"highway": "primary", "ref": "ER 1-2", "surface": "asphalt"}}, {"type": "Feature", "geometry": {"type": "LineString", "coordinates": [[-28.0594059, 38.6695229], [-28.0599993, 38.6696252], [-28.0600485, 38.6696373], [-28.06018, 38.6696696], [-28.0603279, 38.66971], [-28.0607336, 38.6698324]]}, "properties": {"highway": "primary", "ref": "ER 1-2", "surface": "asphalt"}}, {"type": "Feature", "geometry": {"type": "LineString", "coordinates": [[-28.0492463, 38.6647126], [-28.0494008, 38.6648177], [-28.0495023, 38.664935], [-28.0496875, 38.6652392], [-28.0497811, 38.6654121], [-28.0498578, 38.6655766], [-28.0499472, 38.6657163], [-28.0500534, 38.6658314], [-28.0502729, 38.6659988], [-28.0504367, 38.6661002], [-28.0505667, 38.6661451], [-28.0507115, 38.6661833], [-28.0509196, 38.6662176], [-28.0515048, 38.666317], [-28.0525232, 38.6664733], [-28.0529733, 38.6665456], [-28.0531463, 38.6665655], [-28.0532479, 38.6665697], [-28.0534239, 38.6665697], [-28.0535863, 38.6665873], [-28.0537553, 38.6666229], [-28.0540662, 38.6667055], [-28.0542428, 38.6667698], [-28.0549568, 38.6670451], [-28.055158, 38.6671352], [-28.0553538, 38.6672941], [-28.0555066, 38.6675017], [-28.0558537, 38.6679879], [-28.0563828, 38.6686816], [-28.0565263, 38.6688089], [-28.0566774, 38.6688997], [-28.0569202, 38.6690192], [-28.0571575, 38.6691072], [-28.057311, 38.6691437], [-28.0574482, 38.6691572], [-28.0575877, 38.669157], [-28.0579369, 38.6691454], [-28.058088, 38.6691454], [-28.0581916, 38.6691555], [-28.058286, 38.6691836], [-28.0586395, 38.6693093], [-28.0588278, 38.6693749], [-28.0590734, 38.6694484], [-28.0594059, 38.6695229]]}, "properties": {"highway": "primary", "ref": "ER 1-2", "surface": "asphalt"}}, {"type": "Feature", "geometry": {"type": "LineString", "coordinates": [[-28.0454766, 38.6639841], [-28.0455109, 38.6639836], [-28.0456229, 38.6639795], [-28.0457221, 38.6639658], [-28.0458502, 38.6639432], [-28.0459935, 38.663913], [-28.0465878, 38.6637598], [-28.0471161, 38.6636119], [-28.0472414, 38.6636185], [-28.0473487, 38.6636493], [-28.0474412, 38.6637264], [-28.0475694, 38.6639188], [-28.0476523, 38.6640341], [-28.0477484, 38.6640977], [-28.0478779, 38.6641338], [-28.0480717, 38.6641737], [-28.0483271, 38.6642468], [-28.048567, 38.6643491], [-28.0488317, 38.6644928], [-28.0492463, 38.6647126]]}, "properties": {"highway": "primary", "ref": "ER 1-2", "surface": "asphalt"}}, {"type": "Feature", "geometry": {"type": "LineString", "coordinates": [[-27.9964881, 38.606833], [-27.9964906, 38.6067432], [-27.9964888, 38.6066921], [-27.9965284, 38.6066405], [-27.9965848, 38.6065908], [-27.9966363, 38.6065607], [-27.9967357, 38.6065116]]}, "properties": {"highway": "primary", "oneway": "yes", "ref": "ER 1-2", "surface": "asphalt"}}, {"type": "Feature", "geometry": {"type": "LineString", "coordinates": [[-27.9967357, 38.6065116], [-27.9976025, 38.6064049], [-27.9978298, 38.6063863], [-27.9979917, 38.6063853], [-27.9980942, 38.6063869], [-27.9981949, 38.6063983], [-27.9982848, 38.6064139], [-27.9984112, 38.6064451], [-27.998834, 38.6065555], [-27.9990622, 38.6066126], [-27.9991794, 38.606637], [-27.9992594, 38.6066471], [-27.9993395, 38.606653], [-27.9994474, 38.6066525], [-27.9999919, 38.6066274], [-28.0001534, 38.6066251], [-28.0003275, 38.6066357], [-28.000506, 38.606653], [-28.0006671, 38.6066793], [-28.0013655, 38.6068273], [-28.0017385, 38.6069128], [-28.0018865, 38.6069438], [-28.0019873, 38.6069612], [-28.0020947, 38.6069684], [-28.0021842, 38.6069709], [-28.0022711, 38.6069604], [-28.0023724, 38.6069353], [-28.0026154, 38.6068514], [-28.0029921, 38.6067268], [-28.0034126, 38.6065851], [-28.0038127, 38.6064491], [-28.0041211, 38.6063485], [-28.0042027, 38.6063251], [-28.0043004, 38.6063061], [-28.0043839, 38.6062963], [-28.0044576, 38.6062967], [-28.0045838, 38.6063109], [-28.0047561, 38.6063412], [-28.0050603, 38.6063941], [-28.0052213, 38.6064109], [-28.0053872, 38.6064055]]}, "properties": {"highway": "primary", "lanes": "2", "ref": "ER 1-2", "surface": "asphalt"}}, {"type": "Feature", "geometry": {"type": "LineString", "coordinates": [[-28.0428453, 38.6636779], [-28.0429906, 38.6636672], [-28.0435019, 38.6636654], [-28.0436335, 38.663672], [-28.0437904, 38.6636982], [-28.0438897, 38.663729], [-28.0439608, 38.6637568], [-28.0440493, 38.6638018], [-28.0441395, 38.6638515], [-28.0442286, 38.6639007], [-28.0442996, 38.6639329], [-28.0443754, 38.6639595], [-28.044451, 38.6639831], [-28.0445204, 38.6639931], [-28.044597, 38.664002], [-28.044686, 38.6640018], [-28.0448276, 38.6639986], [-28.0448816, 38.6639949], [-28.0449807, 38.6639842], [-28.0450479, 38.6639814], [-28.0451439, 38.6639821], [-28.0452155, 38.6639809], [-28.0453379, 38.6639827], [-28.045432, 38.6639847], [-28.0454766, 38.6639841]]}, "properties": {"highway": "primary", "ref": "ER 1-2", "surface": "asphalt"}}, {"type": "Feature", "geometry": {"type": "LineString", "coordinates": [[-28.2082261, 38.69102], [-28.2081681, 38.690979], [-28.207869, 38.6906952], [-28.2071834, 38.6900498], [-28.2063354, 38.6892398], [-28.2061211, 38.6890527], [-28.2059124, 38.6889091], [-28.205702, 38.6888021], [-28.2054793, 38.6886989], [-28.2049077, 38.6884503], [-28.2044009, 38.6882274], [-28.2042317, 38.6881469], [-28.2041183, 38.6880839], [-28.203995, 38.6880001], [-28.2036452, 38.687746], [-28.2023176, 38.6867886], [-28.2021725, 38.6866833], [-28.2019314, 38.6865083], [-28.2011495, 38.6859408], [-28.2007074, 38.6856289]]}, "properties": {"highway": "primary", "lanes": "2", "ref": "ER 1-2", "surface": "asphalt"}}, {"type": "Feature", "geometry": {"type": "LineString", "coordinates": [[-28.2005029, 38.6854757], [-28.2006056, 38.6855541], [-28.2007074, 38.6856289]]}, "properties": {"admin_level": "8", "border_type": "freguesia", "boundary": "administrative", "highway": "primary", "ref": "ER 1-2", "source": "DGT - CAOP 2022", "surface": "asphalt"}}, {"type": "Feature", "geometry": {"type": "LineString", "coordinates": [[-28.198378, 38.6832397], [-28.1982997, 38.6831775], [-28.1982379, 38.6831077], [-28.1981867, 38.6830399]]}, "properties": {"highway": "primary", "ref": "ER 1-2", "surface": "asphalt"}}, {"type": "Feature", "geometry": {"type": "LineString", "coordinates": [[-28.1981867, 38.6830399], [-28.1981541, 38.6829892], [-28.1981253, 38.6829296]]}, "properties": {"highway": "primary", "ref": "ER 1-2", "surface": "asphalt"}}, {"type": "Feature", "geometry": {"type": "LineString", "coordinates": [[-28.1981253, 38.6829296], [-28.1980301, 38.6826984]]}, "properties": {"highway": "primary", "ref": "ER 1-2", "surface": "asphalt"}}, {"type": "Feature", "geometry": {"type": "LineString", "coordinates": [[-28.1980301, 38.6826984], [-28.197759, 38.6820076], [-28.1974613, 38.6812687], [-28.1973843, 38.6810753], [-28.1973098, 38.6809027]]}, "properties": {"highway": "primary", "lanes": "2", "ref": "ER 1-2", "surface": "asphalt"}}, {"type": "Feature", "geometry": {"type": "LineString", "coordinates": [[-28.2082261, 38.69102], [-28.2082383, 38.6910558], [-28.2082599, 38.6910946], [-28.2084459, 38.6912685], [-28.2085234, 38.6913415], [-28.2085507, 38.691367], [-28.2086077, 38.6914255], [-28.208812, 38.6916095]]}, "properties": {"highway": "primary", "oneway": "yes", "ref": "ER 1-2", "surface": "asphalt"}}, {"type": "Feature", "geometry": {"type": "LineString", "coordinates": [[-28.208812, 38.6916095], [-28.2087282, 38.6914847], [-28.2087168, 38.6914265], [-28.2087214, 38.6913924], [-28.2087451, 38.6913329]]}, "properties": {"highway": "primary", "oneway": "yes", "ref": "ER 1-2", "surface": "asphalt"}}, {"type": "Feature", "geometry": {"type": "LineString", "coordinates": [[-28.2086812, 38.6911743], [-28.2085659, 38.6911544], [-28.2084636, 38.6911217], [-28.2083831, 38.6910913], [-28.2083054, 38.6910589], [-28.2082261, 38.69102]]}, "properties": {"highway": "primary", "ref": "ER 1-2", "surface": "asphalt"}}, {"type": "Feature", "geometry": {"type": "LineString", "coordinates": [[-28.2085507, 38.691367], [-28.2085963, 38.6913787], [-28.2086449, 38.691379], [-28.20868, 38.6913725], [-28.2087131, 38.6913591], [-28.2087451, 38.6913329], [-28.2087567, 38.6912901], [-28.2087561, 38.6912469], [-28.2087296, 38.6912078], [-28.2086812, 38.6911743], [-28.2086159, 38.6911872], [-28.2085599, 38.6912085], [-28.208525, 38.6912483], [-28.2085119, 38.691286], [-28.2085234, 38.6913415]]}, "properties": {"highway": "primary", "oneway": "yes", "ref": "ER 1-2", "surface": "asphalt"}}, {"type": "Feature", "geometry": {"type": "LineString", "coordinates": [[-28.0058108, 38.6460189], [-28.0059372, 38.6460204], [-28.0064002, 38.6460125], [-28.0066152, 38.6460209], [-28.0068192, 38.6460494], [-28.0072187, 38.6461222], [-28.0078314, 38.6462673], [-28.0081871, 38.6463761], [-28.0084083, 38.6464714], [-28.0087305, 38.6466422], [-28.0091409, 38.646931], [-28.009739, 38.6473681]]}, "properties": {"highway": "primary", "ref": "ER 1-2", "surface": "asphalt"}}, {"type": "Feature", "geometry": {"type": "LineString", "coordinates": [[-28.0018746, 38.6458423], [-28.002123, 38.6458927], [-28.0024606, 38.6459656], [-28.0026297, 38.645987], [-28.0027798, 38.6459823], [-28.0028935, 38.645967], [-28.0030166, 38.6459253], [-28.0035093, 38.6456534], [-28.0037008, 38.6455732], [-28.0038552, 38.6455235], [-28.0040765, 38.6454731], [-28.004306, 38.6454335], [-28.0045684, 38.6453972], [-28.0047137, 38.6453874], [-28.0048853, 38.6454062], [-28.0050054, 38.6454351], [-28.005121, 38.645504], [-28.0054012, 38.6458194], [-28.005529, 38.6459132], [-28.0056737, 38.6459835], [-28.0058108, 38.6460189]]}, "properties": {"highway": "primary", "ref": "ER 1-2", "surface": "asphalt"}}, {"type": "Feature", "geometry": {"type": "LineString", "coordinates": [[-28.1380224, 38.6512559], [-28.1381227, 38.6512392], [-28.1382364, 38.6512335], [-28.1384494, 38.6512302]]}, "properties": {"highway": "primary", "lanes": "2", "maxspeed": "50", "maxspeed:type": "sign", "ref": "ER 1-2", "surface": "asphalt"}}, {"type": "Feature", "geometry": {"type": "LineString", "coordinates": [[-28.1384494, 38.6512302], [-28.1386001, 38.6512381], [-28.1387812, 38.6512517], [-28.1390256, 38.6512663], [-28.1394826, 38.6512842], [-28.1401417, 38.651317], [-28.1404696, 38.6513345], [-28.1408143, 38.6513544], [-28.1414448, 38.6513876], [-28.1418347, 38.6514105], [-28.1424342, 38.6514458], [-28.1429628, 38.6514727], [-28.1435159, 38.6514989], [-28.1439672, 38.6515251], [-28.1443656, 38.6515481], [-28.1451962, 38.6515892], [-28.145413, 38.6516026], [-28.1456839, 38.6516152], [-28.1460795, 38.651633], [-28.1465542, 38.651655], [-28.1467507, 38.651677], [-28.1469485, 38.6517115], [-28.1471933, 38.6517731], [-28.1473656, 38.6518257], [-28.1475507, 38.6519011], [-28.1477229, 38.6519846], [-28.148071, 38.6521745], [-28.1484653, 38.6523965], [-28.1491915, 38.6528146], [-28.1494309, 38.6529526], [-28.1497125, 38.6531181], [-28.1499808, 38.6532731], [-28.1506278, 38.6536438], [-28.1514775, 38.654137], [-28.1518166, 38.6543339], [-28.1521064, 38.6545037], [-28.1524273, 38.6547045], [-28.1527756, 38.6549509], [-28.1531489, 38.6552376], [-28.1543224, 38.656196], [-28.1546089, 38.6564338], [-28.1549282, 38.6566914], [-28.1554856, 38.6571593], [-28.1559735, 38.6575609], [-28.1564259, 38.6579396], [-28.1564845, 38.6579888], [-28.1568272, 38.658284], [-28.1571316, 38.6585384], [-28.1574146, 38.6587666], [-28.1575041, 38.6588609], [-28.157629, 38.6589946], [-28.1577404, 38.6591452], [-28.1578367, 38.65929], [-28.1579023, 38.6593961], [-28.158394, 38.6601758], [-28.1587156, 38.6606725], [-28.1588602, 38.6608424], [-28.1589853, 38.6609908], [-28.1590747, 38.6610793], [-28.1593791, 38.6613792], [-28.1596461, 38.6616302], [-28.1597216, 38.661701], [-28.1598225, 38.66178], [-28.1600581, 38.6619312], [-28.1605497, 38.6622164], [-28.1607818, 38.6623881], [-28.1611488, 38.6626943], [-28.1615364, 38.6630404], [-28.1616739, 38.6631451], [-28.1618411, 38.6632414], [-28.1620788, 38.6633504], [-28.1623774, 38.6634856], [-28.162489, 38.663555], [-28.1625526, 38.6636021], [-28.1626173, 38.6636665], [-28.1626806, 38.663733], [-28.1627433, 38.6638051], [-28.1628158, 38.6638861], [-28.1628747, 38.663938], [-28.1629324, 38.66398], [-28.16298, 38.6640121]]}, "properties": {"highway": "primary", "lanes": "2", "ref": "ER 1-2", "surface": "asphalt"}}, {"type": "Feature", "geometry": {"type": "LineString", "coordinates": [[-28.0359866, 38.6157855], [-28.036186, 38.615932], [-28.0362603, 38.6159862], [-28.0363526, 38.6160246], [-28.0364394, 38.6160482], [-28.0366219, 38.6160839], [-28.0368635, 38.616138], [-28.0369688, 38.6161701], [-28.0370545, 38.6161987], [-28.0371232, 38.6162305], [-28.0373366, 38.6163453], [-28.0375141, 38.6164311], [-28.0376374, 38.6164694], [-28.037788, 38.6165007], [-28.0380964, 38.6165477], [-28.0383378, 38.6165875], [-28.0385041, 38.6166242], [-28.03859, 38.6166588], [-28.0386822, 38.6167127], [-28.0388233, 38.6168181], [-28.0390996, 38.6170235], [-28.0392635, 38.6171065], [-28.0394483, 38.6171785], [-28.0398104, 38.6172938], [-28.040269, 38.6174321], [-28.0406982, 38.6175495], [-28.0409986, 38.617627], [-28.0412319, 38.6177025], [-28.0414282, 38.6178059], [-28.0415726, 38.6179078], [-28.0419052, 38.6181467], [-28.0423504, 38.6184967], [-28.0426668, 38.6187743], [-28.042848, 38.6189256], [-28.0429861, 38.6189934], [-28.0431846, 38.6190625], [-28.0434367, 38.619138], [-28.0436915, 38.6192218], [-28.0442158, 38.6194383], [-28.0444372, 38.6195341], [-28.0446276, 38.6196284], [-28.044818, 38.6197457], [-28.0450487, 38.6199176], [-28.045324, 38.6201125], [-28.0454591, 38.6201984], [-28.0455905, 38.6202696], [-28.0458105, 38.6203493], [-28.0460733, 38.6204373], [-28.0462169, 38.6204941], [-28.0463764, 38.6205798], [-28.0466312, 38.6207328], [-28.0474547, 38.6212105], [-28.0486799, 38.6219084], [-28.0488011, 38.6219964], [-28.0488843, 38.6220907], [-28.0489326, 38.622164], [-28.0490157, 38.6223233], [-28.0490881, 38.6224595], [-28.0491418, 38.6225287], [-28.0492102, 38.6225772], [-28.0493054, 38.6226125], [-28.0494797, 38.622646], [-28.0496836, 38.6226837], [-28.0498472, 38.6227277], [-28.0499537, 38.6227797], [-28.0500269, 38.6228451], [-28.0500859, 38.6229331], [-28.0501771, 38.6230525], [-28.050267, 38.6231533], [-28.0503595, 38.6232244], [-28.050499, 38.6232956], [-28.0506787, 38.6233648], [-28.0507918, 38.6234237], [-28.0508986, 38.6235156], [-28.0509871, 38.6236309], [-28.0510917, 38.6237902], [-28.0512086, 38.6239777], [-28.0512822, 38.6240626], [-28.051388, 38.6241501], [-28.0515397, 38.6242491], [-28.0519259, 38.6244712], [-28.0522585, 38.6246745], [-28.0525225, 38.6248648], [-28.0527627, 38.62506], [-28.0529666, 38.6252402], [-28.0530766, 38.625345], [-28.0531839, 38.6255085], [-28.0532429, 38.6256111], [-28.0533099, 38.625697], [-28.0533904, 38.625762], [-28.0534886, 38.625809], [-28.0535674, 38.6258353], [-28.0540529, 38.6259527], [-28.0545883, 38.6260925], [-28.0548012, 38.6261685], [-28.054989, 38.6262523], [-28.0551917, 38.6263612], [-28.0553001, 38.6264325], [-28.0553994, 38.6265143], [-28.0555147, 38.62664], [-28.0558151, 38.626969], [-28.0563311, 38.6275097], [-28.0565447, 38.6277066], [-28.0566573, 38.6277799], [-28.0567464, 38.6278158], [-28.0568746, 38.6278449], [-28.0570462, 38.6278721], [-28.0571938, 38.6278993], [-28.0573359, 38.6279475], [-28.0574834, 38.6280167], [-28.0576471, 38.6281131], [-28.0578012, 38.6281993], [-28.0580092, 38.6283163], [-28.0581567, 38.6284148], [-28.058264, 38.628507], [-28.0584812, 38.6287626], [-28.0586183, 38.6289356], [-28.0586717, 38.629035], [-28.0587038, 38.6291356], [-28.0587119, 38.6292383], [-28.0587065, 38.629355], [-28.0586245, 38.6297022], [-28.0586341, 38.6297831], [-28.0586851, 38.6298606], [-28.0587521, 38.629913], [-28.0588535, 38.6299709], [-28.0592575, 38.6301947], [-28.0595192, 38.6303341], [-28.059766, 38.6304305], [-28.0600274, 38.6305127], [-28.0602166, 38.6305604], [-28.0603883, 38.6305856], [-28.0607027, 38.6306219], [-28.0610883, 38.6306631], [-28.0615953, 38.6307134], [-28.0619493, 38.6307553], [-28.0621611, 38.6307959], [-28.0623356, 38.6308475], [-28.0625796, 38.6309418], [-28.0629256, 38.6310822], [-28.063167, 38.6311806], [-28.0633092, 38.6312183], [-28.063476, 38.6312485], [-28.0640009, 38.6313167], [-28.0644518, 38.6313671], [-28.0647293, 38.6313951], [-28.0650285, 38.631409], [-28.0653343, 38.6314132], [-28.0657983, 38.63143], [-28.0659736, 38.6314532], [-28.0661014, 38.6314886], [-28.0662382, 38.6315473], [-28.0665278, 38.6316521], [-28.0667156, 38.6317024], [-28.0668643, 38.6317143], [-28.0671609, 38.6317149], [-28.0674237, 38.6317191], [-28.0676656, 38.631747], [-28.0682741, 38.6318508], [-28.0687487, 38.6319454], [-28.0691184, 38.6320592], [-28.0698019, 38.6323494], [-28.071278, 38.6330014], [-28.0715511, 38.6330761], [-28.0718413, 38.6331062], [-28.0728847, 38.6331334], [-28.073324, 38.6331721], [-28.0740221, 38.6333662], [-28.0741673, 38.633402], [-28.0743708, 38.6334165], [-28.0745326, 38.633426], [-28.0748886, 38.6334244], [-28.075456, 38.6334336], [-28.0756293, 38.6334623], [-28.0757995, 38.633529], [-28.0761083, 38.6336938], [-28.0762521, 38.6337647], [-28.0763703, 38.6337982], [-28.0764534, 38.6338192], [-28.0765473, 38.6338349], [-28.0766573, 38.6338417], [-28.0767539, 38.6338448], [-28.0768612, 38.6338459], [-28.0773585, 38.6338392], [-28.0779454, 38.6338347], [-28.0780536, 38.6338347], [-28.078133, 38.6338354], [-28.0781955, 38.6338387], [-28.0782546, 38.6338459], [-28.0783248, 38.6338578], [-28.0784016, 38.6338769], [-28.0784692, 38.6338967], [-28.0785199, 38.6339185], [-28.0785639, 38.6339423], [-28.0786044, 38.6339674], [-28.0786509, 38.634001], [-28.0787016, 38.6340518], [-28.078743, 38.6341053], [-28.0787835, 38.6341693], [-28.0788156, 38.634232], [-28.078846, 38.6343026], [-28.0790692, 38.6348424], [-28.0791006, 38.6349188], [-28.0791497, 38.6350005], [-28.0791869, 38.6350533], [-28.0792231, 38.6350998], [-28.079269, 38.6351446], [-28.0793239, 38.6351895], [-28.0793737, 38.6352258], [-28.0794193, 38.6352528], [-28.0794717, 38.6352832], [-28.0795461, 38.6353214], [-28.0799387, 38.6355379], [-28.0817608, 38.6365806], [-28.0821995, 38.6368401], [-28.0824648, 38.6370302], [-28.0826515, 38.6372047], [-28.0831559, 38.6377627], [-28.0835242, 38.6381771], [-28.0836937, 38.6383572], [-28.0838115, 38.6384741], [-28.0839517, 38.6385678], [-28.0841202, 38.6386231], [-28.0848151, 38.6387493], [-28.0853998, 38.6388397], [-28.0857445, 38.6389149], [-28.0860454, 38.639017], [-28.0864271, 38.6392119], [-28.0867177, 38.6393293], [-28.0869712, 38.6393872], [-28.0874679, 38.63946], [-28.0878941, 38.639508], [-28.088811, 38.6396058], [-28.0893317, 38.6396672], [-28.089787, 38.6397143], [-28.0902982, 38.6397728], [-28.0904249, 38.639782], [-28.0905532, 38.6397798], [-28.0907155, 38.6397635], [-28.0915512, 38.6396501], [-28.091943, 38.6395844], [-28.092123, 38.639559], [-28.0922413, 38.639551], [-28.0923748, 38.6395629], [-28.0925644, 38.6395989], [-28.0930679, 38.6397565], [-28.0934962, 38.6398873], [-28.0937966, 38.640009], [-28.0941084, 38.640137], [-28.0942308, 38.640182], [-28.0943466, 38.6402083], [-28.094492, 38.6402109], [-28.0946154, 38.6401964], [-28.0950472, 38.6400627], [-28.0954695, 38.6399386], [-28.095575, 38.6399166], [-28.0956849, 38.6399087], [-28.0958217, 38.6399153], [-28.0959427, 38.639934], [-28.0964715, 38.6400944], [-28.0967832, 38.64017], [-28.0971279, 38.6402334], [-28.0975858, 38.640298], [-28.0979716, 38.640343], [-28.0982414, 38.6403574], [-28.0984895, 38.6403483], [-28.0986942, 38.6403165], [-28.0989003, 38.640265], [-28.0990926, 38.6402541], [-28.0992887, 38.640283], [-28.0994292, 38.6403271], [-28.0995795, 38.6404151], [-28.100051, 38.6406808], [-28.100512, 38.640924], [-28.1010246, 38.6411916], [-28.1012879, 38.6412839], [-28.1015436, 38.6413483], [-28.1020246, 38.6414581], [-28.1025788, 38.6415963], [-28.1030435, 38.6417432], [-28.1038788, 38.6420511], [-28.1046629, 38.6423385], [-28.1051285, 38.6425469], [-28.1055657, 38.6427788], [-28.1062227, 38.6431836], [-28.1067337, 38.643505], [-28.1068766, 38.6435794], [-28.1070666, 38.6436476], [-28.1072592, 38.6436924], [-28.1074427, 38.6437199], [-28.1078697, 38.6437719], [-28.1081412, 38.6438152], [-28.1083558, 38.643864], [-28.1089185, 38.6440356], [-28.1091844, 38.644092], [-28.109395, 38.6441161], [-28.1097194, 38.6441398], [-28.1100048, 38.6441847], [-28.1102145, 38.6442639], [-28.1104658, 38.6443952], [-28.1108115, 38.6446206], [-28.1110255, 38.644739], [-28.1112478, 38.6448432], [-28.1114654, 38.6449085], [-28.1117082, 38.6449501], [-28.1121931, 38.6450148], [-28.1125834, 38.6450874], [-28.112876, 38.6451833], [-28.1133201, 38.6454213], [-28.113809, 38.6457005], [-28.1150233, 38.6465417], [-28.1161635, 38.6473223], [-28.1163717, 38.6474496], [-28.1166404, 38.6475908], [-28.117007, 38.6477769], [-28.1175493, 38.6480878], [-28.1184145, 38.6485554], [-28.1188606, 38.6488141], [-28.1192433, 38.6490318], [-28.119697, 38.6492628], [-28.120215, 38.649532], [-28.1206495, 38.6497571], [-28.1210238, 38.6499316], [-28.1214333, 38.6501053], [-28.1223884, 38.650472], [-28.1233918, 38.6508385], [-28.1237324, 38.6509499], [-28.1238665, 38.6509881], [-28.1240325, 38.6510214], [-28.1241923, 38.6510396], [-28.1244753, 38.6510563], [-28.1250182, 38.6510796], [-28.12518, 38.6510863], [-28.12541, 38.6511012], [-28.1255474, 38.6511193], [-28.1256967, 38.6511669], [-28.1263508, 38.6513931], [-28.1265299, 38.6514432], [-28.1266549, 38.6514736], [-28.1267884, 38.6514973], [-28.1269219, 38.6515092], [-28.1270621, 38.6515118], [-28.1272903, 38.6515079], [-28.1281815, 38.6515038], [-28.1283859, 38.6515056], [-28.1285141, 38.6515174], [-28.1286421, 38.6515463], [-28.1287565, 38.6515829], [-28.1288572, 38.651626], [-28.1290099, 38.6517013], [-28.129478, 38.6519731], [-28.1295946, 38.6520351], [-28.1297129, 38.652084], [-28.1298227, 38.652117], [-28.1299139, 38.652142], [-28.1300356, 38.6521671], [-28.1301505, 38.6521829], [-28.1302519, 38.6521869], [-28.1303685, 38.6521842], [-28.1304595, 38.6521741], [-28.130514, 38.6521654], [-28.130583, 38.6521526], [-28.1307402, 38.6521143], [-28.1310276, 38.6520374], [-28.1312091, 38.6520023], [-28.1313024, 38.6519861], [-28.1313623, 38.6519779], [-28.1314333, 38.6519713], [-28.1315267, 38.6519675], [-28.1316084, 38.6519683], [-28.1316963, 38.6519762], [-28.1317791, 38.6519894], [-28.1319379, 38.6520302], [-28.132548, 38.6522102], [-28.1325852, 38.6522211], [-28.1329444, 38.6523263], [-28.133121, 38.6523781], [-28.1331974, 38.6523928], [-28.133298, 38.6523991], [-28.1333744, 38.652397], [-28.1334508, 38.6523949], [-28.1335389, 38.6523893], [-28.1339155, 38.6523571], [-28.1344853, 38.6523181], [-28.1345975, 38.6523047], [-28.1347115, 38.6522838], [-28.1348322, 38.6522503], [-28.1350454, 38.6521675], [-28.1356033, 38.65195], [-28.1356758, 38.6519183], [-28.1360436, 38.6517899], [-28.1365744, 38.651646], [-28.1376338, 38.6513599], [-28.1380224, 38.6512559]]}, "properties": {"highway": "primary", "lanes": "2", "ref": "ER 1-2", "surface": "asphalt"}}, {"type": "Feature", "geometry": {"type": "LineString", "coordinates": [[-28.0280604, 38.612769], [-28.0281049, 38.6128347]]}, "properties": {"bridge": "yes", "highway": "primary", "layer": "1", "ref": "ER 1-2", "surface": "asphalt"}}, {"type": "Feature", "geometry": {"type": "LineString", "coordinates": [[-28.1829187, 38.6698917], [-28.1830066, 38.6700072], [-28.1831926, 38.6702748], [-28.1833092, 38.6704474], [-28.1834657, 38.6706662], [-28.1835336, 38.6707666], [-28.1835658, 38.670869], [-28.1835658, 38.6709687], [-28.1835509, 38.6711133], [-28.1835261, 38.6713751], [-28.1835211, 38.6715471], [-28.1835381, 38.6716685], [-28.1835699, 38.6717746], [-28.1836403, 38.6719012], [-28.1837765, 38.672064], [-28.1840378, 38.6723374], [-28.1841682, 38.6724629], [-28.1843233, 38.6725745], [-28.1844578, 38.6726441], [-28.1845898, 38.6726906], [-28.1848128, 38.672748], [-28.1850113, 38.6728203], [-28.1851816, 38.672905], [-28.1853553, 38.6730169], [-28.1855441, 38.6731531], [-28.1857232, 38.6732956], [-28.1859635, 38.6734766], [-28.186176, 38.6735963], [-28.1865227, 38.6737643], [-28.1869127, 38.6739551], [-28.1872574, 38.6741293], [-28.1875514, 38.6742559], [-28.188038, 38.6744327], [-28.1884131, 38.674562], [-28.1888052, 38.6746991], [-28.1890496, 38.6748009], [-28.1892343, 38.6749128], [-28.1894248, 38.6750559], [-28.1898242, 38.6753959], [-28.1900001, 38.6755236], [-28.1901653, 38.6755975], [-28.1903611, 38.6756673], [-28.1906392, 38.6757428], [-28.190875, 38.6758006], [-28.1910372, 38.6758517], [-28.1911149, 38.6758864], [-28.1912214, 38.6759497], [-28.1913126, 38.6760156], [-28.1914323, 38.6761219], [-28.191561, 38.6762359], [-28.1917182, 38.6763718], [-28.1919497, 38.6765749], [-28.1922173, 38.676804], [-28.192492, 38.6770406], [-28.1926627, 38.6771989], [-28.192759, 38.6772925], [-28.1928672, 38.6774086], [-28.1930172, 38.677579], [-28.1932575, 38.6778703], [-28.1934687, 38.6781275], [-28.1935549, 38.6782225], [-28.19369, 38.6783597], [-28.1938928, 38.6785602], [-28.1940286, 38.6786785], [-28.194126, 38.6787488], [-28.1943068, 38.6788596], [-28.1945848, 38.6790162], [-28.1948956, 38.679194], [-28.1950416, 38.6792568], [-28.1951873, 38.6793104], [-28.1953491, 38.6793619], [-28.1955662, 38.679425], [-28.1957344, 38.6794765], [-28.1958711, 38.6795319], [-28.1959962, 38.6796062], [-28.19616, 38.6797213], [-28.1963262, 38.6798505], [-28.1965221, 38.6799984], [-28.1966498, 38.6801131], [-28.1967969, 38.6802653], [-28.1971437, 38.6806432], [-28.1972331, 38.6807629], [-28.1973098, 38.6809027]]}, "properties": {"highway": "primary", "lanes": "2", "ref": "ER 1-2", "surface": "asphalt"}}, {"type": "Feature", "geometry": {"type": "LineString", "coordinates": [[-28.0153072, 38.605761], [-28.0154296, 38.6057958], [-28.0162715, 38.6060585], [-28.0164886, 38.606135], [-28.0166036, 38.6061849], [-28.0167249, 38.6062548], [-28.0172555, 38.6065897], [-28.0173145, 38.606619], [-28.0173775, 38.606641], [-28.0174379, 38.6066599], [-28.017513, 38.6066756], [-28.0175854, 38.6066872], [-28.0176763, 38.6066925], [-28.0184229, 38.6067318], [-28.0184905, 38.6067384], [-28.0185436, 38.6067483], [-28.0185884, 38.6067593], [-28.0186357, 38.6067728], [-28.0186804, 38.6067914], [-28.0192454, 38.6070722], [-28.0193018, 38.6070984], [-28.0193675, 38.6071215], [-28.0194627, 38.6071477], [-28.0195713, 38.6071739], [-28.0201638, 38.6073053], [-28.0202576, 38.6073336], [-28.02033, 38.6073609], [-28.0204038, 38.6074017], [-28.0204722, 38.6074541], [-28.0205765, 38.6075415], [-28.0207172, 38.607666], [-28.0209325, 38.6078533], [-28.0212297, 38.6081103], [-28.0212968, 38.6081575], [-28.0213598, 38.6082004], [-28.0214674, 38.6082595], [-28.0215465, 38.6082888], [-28.0216458, 38.6083119], [-28.0217702, 38.6083321], [-28.0218982, 38.60835], [-28.0220178, 38.6083648], [-28.0221147, 38.6083737], [-28.0222267, 38.6083938], [-28.0223228, 38.6084192], [-28.0224054, 38.6084577], [-28.0225225, 38.6085229], [-28.0227311, 38.6086518], [-28.0229279, 38.6087764], [-28.0230436, 38.6088354], [-28.0232026, 38.6088813], [-28.0234491, 38.6089332], [-28.0236522, 38.6089932], [-28.0237865, 38.6090634], [-28.0240267, 38.6092802], [-28.0242061, 38.6094322], [-28.0243372, 38.609507], [-28.0248099, 38.6097391], [-28.0249023, 38.6098039], [-28.0250224, 38.6099084], [-28.0251345, 38.6099977], [-28.0252757, 38.6100747], [-28.025495, 38.6101762], [-28.025585, 38.6102263], [-28.0256525, 38.6102843], [-28.0257207, 38.6103708], [-28.0258228, 38.6105006], [-28.0260086, 38.6107291], [-28.0261335, 38.6108543], [-28.026258, 38.6109557], [-28.0264487, 38.6111028], [-28.0274142, 38.6117882], [-28.0275315, 38.6119026], [-28.0276579, 38.612051], [-28.0277431, 38.6121774], [-28.0278644, 38.6123837], [-28.0279943, 38.6126365], [-28.0280604, 38.612769]]}, "properties": {"highway": "primary", "lanes": "2", "ref": "ER 1-2", "surface": "asphalt"}}, {"type": "Feature", "geometry": {"type": "LineString", "coordinates": [[-28.0127267, 38.605902], [-28.012831, 38.6058973]]}, "properties": {"bridge": "yes", "highway": "primary", "layer": "1", "ref": "ER 1-2", "surface": "asphalt"}}, {"type": "Feature", "geometry": {"type": "LineString", "coordinates": [[-28.0055061, 38.6063728], [-28.0056027, 38.6063069], [-28.0057513, 38.6061815], [-28.0058865, 38.6060785], [-28.0059943, 38.6060174], [-28.0061636, 38.6059438], [-28.0063732, 38.6058883], [-28.0065925, 38.6058447], [-28.0068429, 38.6058118], [-28.0070085, 38.6057959], [-28.00712, 38.6057933], [-28.0072822, 38.6058038], [-28.0074748, 38.605817], [-28.0076675, 38.605825], [-28.0078567, 38.6058197], [-28.0081034, 38.6058038], [-28.008634, 38.6057695], [-28.0088289, 38.6057506], [-28.0090226, 38.6057246], [-28.0093402, 38.6056824], [-28.009543, 38.6056586], [-28.0097271, 38.6056526], [-28.0099654, 38.6056718], [-28.0101812, 38.6057062], [-28.0104254, 38.6057594]]}, "properties": {"highway": "primary", "lanes": "2", "ref": "ER 1-2", "surface": "asphalt"}}, {"type": "Feature", "geometry": {"type": "LineString", "coordinates": [[-28.0053872, 38.6064055], [-28.0055061, 38.6063728]]}, "properties": {"bridge": "yes", "highway": "primary", "layer": "1", "ref": "ER 1-2", "surface": "asphalt"}}, {"type": "Feature", "geometry": {"type": "LineString", "coordinates": [[-28.0147315, 38.6058157], [-28.0148392, 38.6058172], [-28.01491, 38.6058101], [-28.014949, 38.6058032], [-28.0150056, 38.6057612], [-28.0150638, 38.6056866]]}, "properties": {"highway": "primary", "oneway": "yes", "ref": "ER 1-2", "surface": "asphalt"}}, {"type": "Feature", "geometry": {"type": "LineString", "coordinates": [[-28.0149561, 38.605657], [-28.0149399, 38.6056903], [-28.0149213, 38.6057167], [-28.0148807, 38.605751], [-28.014806, 38.60579], [-28.0147315, 38.6058157]]}, "properties": {"highway": "primary", "oneway": "yes", "ref": "ER 1-2", "surface": "asphalt"}}, {"type": "Feature", "geometry": {"type": "LineString", "coordinates": [[-28.012831, 38.6058973], [-28.0137265, 38.6058585], [-28.0142118, 38.6058369], [-28.0143582, 38.6058304], [-28.0147315, 38.6058157]]}, "properties": {"highway": "primary", "ref": "ER 1-2", "surface": "asphalt"}}, {"type": "Feature", "geometry": {"type": "LineString", "coordinates": [[-28.0153072, 38.605761], [-28.0150638, 38.6056866], [-28.0149561, 38.605657]]}, "properties": {"highway": "primary", "oneway": "no", "ref": "ER 1-2", "surface": "asphalt"}}, {"type": "Feature", "geometry": {"type": "LineString", "coordinates": [[-28.1821201, 38.669525], [-28.1823502, 38.6695486], [-28.1825202, 38.6696068], [-28.1826019, 38.669653], [-28.1826751, 38.6696944], [-28.1827678, 38.6697602], [-28.1829187, 38.6698917]]}, "properties": {"highway": "primary", "oneway": "yes", "ref": "ER 1-2", "surface": "asphalt"}}, {"type": "Feature", "geometry": {"type": "LineString", "coordinates": [[-28.16298, 38.6640121], [-28.1630281, 38.6640396], [-28.1631246, 38.6640849], [-28.1632193, 38.6641267], [-28.1633901, 38.6641478], [-28.1638598, 38.664199], [-28.1642488, 38.6642398], [-28.1646636, 38.6642948], [-28.1650526, 38.6644003], [-28.1653493, 38.6644989], [-28.1656532, 38.6646117], [-28.1659698, 38.664738], [-28.1661176, 38.6648038], [-28.1661841, 38.664842], [-28.1662485, 38.6648955], [-28.1663094, 38.6649518], [-28.166445, 38.6650728], [-28.1666684, 38.6652817], [-28.166766, 38.6653681], [-28.166829, 38.6654238], [-28.166896, 38.665479], [-28.1669898, 38.6655394], [-28.1670767, 38.6655859], [-28.167162, 38.6656243], [-28.1672293, 38.6656476], [-28.167309, 38.6656662], [-28.1673999, 38.6656761], [-28.1676474, 38.66569], [-28.1680422, 38.6657043], [-28.1684577, 38.665714], [-28.168851, 38.6657212], [-28.1690511, 38.6657345], [-28.1692349, 38.6657633], [-28.1695131, 38.6658326], [-28.1697409, 38.6659024], [-28.1699532, 38.665992], [-28.170398, 38.6662136], [-28.1705551, 38.6662817], [-28.1706636, 38.6663183], [-28.1709557, 38.6664201], [-28.1712527, 38.6664936], [-28.1720778, 38.6666565], [-28.172317, 38.666711], [-28.172479, 38.6667598], [-28.172849, 38.6668815], [-28.1732288, 38.667028], [-28.173443, 38.6671391], [-28.1736092, 38.6672671], [-28.1737525, 38.6674283], [-28.1738616, 38.6675596], [-28.173952, 38.667644], [-28.1740694, 38.667706], [-28.1741711, 38.6677325], [-28.1744414, 38.6677857], [-28.1748175, 38.6678529], [-28.1752057, 38.6679336], [-28.1754372, 38.6680044], [-28.1755633, 38.668065], [-28.175696, 38.6681538], [-28.1766001, 38.6688379], [-28.1773687, 38.6693826], [-28.1777029, 38.6695825], [-28.1778519, 38.669649], [-28.1779562, 38.6696789], [-28.1781033, 38.6697012], [-28.1785343, 38.6697247], [-28.1789, 38.6697446], [-28.1791377, 38.6697519], [-28.1794381, 38.6697487], [-28.1797015, 38.669726], [-28.1800778, 38.6696733], [-28.1804882, 38.6696011], [-28.1806746, 38.669577], [-28.1808246, 38.6695673], [-28.181606, 38.6695373], [-28.1821201, 38.669525]]}, "properties": {"highway": "primary", "lanes": "2", "ref": "ER 1-2", "surface": "asphalt"}}, {"type": "Feature", "geometry": {"type": "LineString", "coordinates": [[-28.0295706, 38.6142338], [-28.029648, 38.6142616], [-28.0299559, 38.6143661], [-28.0302672, 38.6144678], [-28.030574, 38.6145603], [-28.0311042, 38.6147079], [-28.0313163, 38.6147744], [-28.0314331, 38.6148212], [-28.0315743, 38.6148866], [-28.0316827, 38.6149379], [-28.0317698, 38.6149641], [-28.0318479, 38.6149695], [-28.031917, 38.6149637], [-28.0319709, 38.6149533], [-28.032087, 38.6149212], [-28.0322394, 38.6148718], [-28.0323507, 38.6148327], [-28.0324274, 38.6148071], [-28.0325681, 38.614763], [-28.0326793, 38.614739], [-28.0328142, 38.6147208], [-28.0329681, 38.6147089], [-28.0332707, 38.6146932], [-28.0334984, 38.6146801], [-28.0336024, 38.6146818], [-28.0337087, 38.6146962], [-28.0338053, 38.6147191], [-28.0339301, 38.6147648], [-28.0341847, 38.6148793], [-28.0342919, 38.6149386], [-28.0343963, 38.6150082], [-28.034519, 38.6151156], [-28.0345831, 38.6151734], [-28.0346768, 38.6152458], [-28.03475, 38.6152969], [-28.0348465, 38.6153507], [-28.034941, 38.6153904], [-28.0350609, 38.6154279], [-28.0354949, 38.6155558], [-28.0356912, 38.6156199], [-28.0358328, 38.6156918], [-28.0359866, 38.6157855]]}, "properties": {"highway": "primary", "lanes": "2", "ref": "ER 1-2", "surface": "asphalt"}}, {"type": "Feature", "geometry": {"type": "LineString", "coordinates": [[-28.0281049, 38.6128347], [-28.0282542, 38.6130644], [-28.0284775, 38.6133984], [-28.028677, 38.6137044], [-28.0287494, 38.6138192], [-28.028794, 38.613884], [-28.0288302, 38.6139238], [-28.0288797, 38.613963], [-28.0289265, 38.6139988], [-28.0289953, 38.6140376], [-28.0291259, 38.6140946], [-28.0292259, 38.614127], [-28.0295706, 38.6142338]]}, "properties": {"highway": "primary", "lanes": "2", "ref": "ER 1-2", "surface": "asphalt"}}, {"type": "Feature", "geometry": {"type": "LineString", "coordinates": [[-28.0118184, 38.6059365], [-28.0127267, 38.605902]]}, "properties": {"highway": "primary", "lanes": "2", "ref": "ER 1-2", "surface": "asphalt"}}, {"type": "Feature", "geometry": {"type": "LineString", "coordinates": [[-28.0104254, 38.6057594], [-28.0106176, 38.6058012], [-28.0111223, 38.6059047], [-28.0113814, 38.6059385], [-28.011632, 38.6059419], [-28.0118184, 38.6059365]]}, "properties": {"highway": "primary", "lanes": "2", "ref": "ER 1-2", "surface": "asphalt"}}, {"type": "Feature", "geometry": {"type": "LineString", "coordinates": [[-28.0791134, 38.6749942], [-28.0791477, 38.6749959], [-28.079839, 38.675004]]}, "properties": {"highway": "primary", "ref": "ER 1-2", "surface": "asphalt"}}, {"type": "Feature", "geometry": {"type": "LineString", "coordinates": [[-27.9987806, 38.643714], [-27.9988655, 38.6438587], [-27.9990771, 38.6441253], [-27.9993476, 38.6444628], [-27.9996021, 38.6447809], [-27.9997195, 38.6449302], [-27.9999038, 38.6451482], [-28.000029, 38.6452918], [-28.0001274, 38.645356], [-28.0002998, 38.6454342], [-28.0004167, 38.6454783], [-28.0013496, 38.6457185], [-28.0018746, 38.6458423]]}, "properties": {"highway": "primary", "ref": "ER 1-2", "surface": "asphalt"}}, {"type": "Feature", "geometry": {"type": "LineString", "coordinates": [[-28.2054747, 38.6969243], [-28.2052661, 38.6969537], [-28.2049704, 38.6969985], [-28.2046976, 38.6970399], [-28.2045883, 38.6970615], [-28.2044702, 38.6970935], [-28.2043046, 38.6971475], [-28.2039838, 38.6972716], [-28.2035967, 38.6974152], [-28.2031932, 38.6975654], [-28.2030053, 38.6976341], [-28.20286, 38.6976856], [-28.2027234, 38.6977239], [-28.2025355, 38.6977726], [-28.2021998, 38.6978455], [-28.2018735, 38.6979175], [-28.2015692, 38.6979848], [-28.2013004, 38.6980469], [-28.2011584, 38.6980838], [-28.2009977, 38.6981404], [-28.2008847, 38.6981999], [-28.2007918, 38.6982619], [-28.2006902, 38.6983428], [-28.2005924, 38.6984386], [-28.2005437, 38.6985021], [-28.2005129, 38.698566], [-28.2004606, 38.6986878], [-28.2004236, 38.6988142], [-28.2003718, 38.6991495]]}, "properties": {"highway": "primary", "lanes": "2", "maxspeed:type": "PT:urban", "ref": "ER 1-2", "surface": "asphalt"}}, {"type": "Feature", "geometry": {"type": "LineString", "coordinates": [[-28.1980958, 38.7072401], [-28.1981541, 38.7071366], [-28.1982216, 38.7069544], [-28.1984966, 38.7061591], [-28.1987159, 38.7055493], [-28.1987916, 38.7053815], [-28.1988841, 38.7052161], [-28.1990281, 38.7049906], [-28.1991267, 38.7048251], [-28.1993508, 38.7044497], [-28.1995432, 38.7041018], [-28.1996486, 38.7038692], [-28.1997384, 38.7035269], [-28.1997933, 38.7031775], [-28.1999718, 38.70209], [-28.2000671, 38.7013786], [-28.2001125, 38.7010311], [-28.2001308, 38.7009004], [-28.2001869, 38.7004997], [-28.2002954, 38.6996299], [-28.2003718, 38.6991495]]}, "properties": {"highway": "primary", "lanes": "2", "ref": "ER 1-2", "surface": "asphalt"}}, {"type": "Feature", "geometry": {"type": "LineString", "coordinates": [[-28.1521292, 38.6966628], [-28.1522464, 38.6966733]]}, "properties": {"highway": "primary", "ref": "ER 1-2", "surface": "asphalt"}}, {"type": "Feature", "geometry": {"type": "LineString", "coordinates": [[-28.1449083, 38.6944105], [-28.1451944, 38.6945393], [-28.1453794, 38.6945979], [-28.1455294, 38.694627], [-28.1459641, 38.694688], [-28.1463075, 38.6947403], [-28.146475, 38.6947753], [-28.1466213, 38.6948157], [-28.1468305, 38.6949161], [-28.1476539, 38.6953453], [-28.1486211, 38.6958504], [-28.1492391, 38.6961827], [-28.1495637, 38.6963355], [-28.1498394, 38.6964372], [-28.1500733, 38.6964925], [-28.1503764, 38.6965281], [-28.1514406, 38.6966139], [-28.1521292, 38.6966628]]}, "properties": {"highway": "primary", "ref": "ER 1-2", "surface": "asphalt"}}, {"type": "Feature", "geometry": {"type": "LineString", "coordinates": [[-28.1522464, 38.6966733], [-28.1526318, 38.6967151], [-28.1528284, 38.6967559], [-28.1529737, 38.6968007], [-28.1530987, 38.696864], [-28.1532455, 38.6969536], [-28.1537913, 38.6974587], [-28.1545468, 38.6981089], [-28.1547248, 38.6982578], [-28.1548611, 38.6983383], [-28.1550587, 38.6984267], [-28.1553114, 38.6985053], [-28.1556163, 38.6985928], [-28.1558782, 38.6986535], [-28.1562331, 38.6987208], [-28.156485, 38.6987842], [-28.156696, 38.6988579], [-28.1569377, 38.6989568], [-28.1573533, 38.6991216], [-28.1575003, 38.6991704], [-28.1577147, 38.6992334], [-28.1579836, 38.6993023], [-28.1585277, 38.6994302], [-28.1588977, 38.6995265], [-28.1591976, 38.6996183], [-28.1596293, 38.6997823], [-28.1600264, 38.6999313], [-28.1607133, 38.7002022], [-28.1619741, 38.7007343], [-28.1621926, 38.7008228], [-28.1623531, 38.7008795], [-28.1625897, 38.7009599], [-28.1628186, 38.7010201], [-28.1631625, 38.7011102], [-28.1639093, 38.7012922], [-28.1641092, 38.701351], [-28.1642794, 38.7014254], [-28.16457, 38.7016153], [-28.1648555, 38.7018183], [-28.1650009, 38.7019172], [-28.1651428, 38.701995], [-28.1659251, 38.7024236], [-28.1660749, 38.7025208], [-28.1662175, 38.7026572], [-28.1663168, 38.7027661], [-28.1664364, 38.7029286], [-28.1665501, 38.7030759], [-28.1666842, 38.7032119], [-28.1668784, 38.7033813], [-28.1670919, 38.7035322], [-28.1672609, 38.7036285], [-28.1673718, 38.7036782], [-28.1675774, 38.7037122], [-28.168031, 38.7037344], [-28.1684947, 38.7037247], [-28.1686704, 38.703716], [-28.1689024, 38.7036808], [-28.1691894, 38.7036033], [-28.1696706, 38.7034773], [-28.1700006, 38.7034112], [-28.170222, 38.7033809], [-28.1704475, 38.7033682], [-28.1707137, 38.7033783], [-28.1709135, 38.703405], [-28.1711141, 38.7034521], [-28.1713203, 38.7035286], [-28.1715749, 38.7036513], [-28.1723983, 38.7041246], [-28.1725944, 38.7042209], [-28.1728647, 38.7043092], [-28.1730928, 38.7043514], [-28.1735304, 38.7044279], [-28.1743306, 38.7045669], [-28.1751914, 38.7047299], [-28.175435, 38.7047969], [-28.1756205, 38.7048709], [-28.1757817, 38.7049638], [-28.1759923, 38.7051254], [-28.176148, 38.7052766], [-28.1764806, 38.7056555], [-28.1766327, 38.7058071], [-28.1768, 38.7059353], [-28.176974, 38.7060498], [-28.1772156, 38.7061763], [-28.1774941, 38.7063007], [-28.1777157, 38.7063926], [-28.1783274, 38.7066233], [-28.1785279, 38.7067008], [-28.1787279, 38.7068053], [-28.1790759, 38.7070044], [-28.1795323, 38.707281], [-28.1802503, 38.7077309], [-28.1804022, 38.7078173], [-28.1805662, 38.7078944], [-28.1807673, 38.7079709], [-28.1814347, 38.7082135], [-28.1817845, 38.7083361], [-28.181993, 38.7083914], [-28.1822002, 38.7084337], [-28.1827578, 38.7085128], [-28.1833384, 38.7085858], [-28.1836601, 38.7086236], [-28.1838966, 38.7086552], [-28.1841129, 38.708704], [-28.18429, 38.7087579], [-28.1844255, 38.7088121], [-28.1846756, 38.7089215], [-28.1848851, 38.7090007], [-28.1850205, 38.7090298], [-28.1851858, 38.7090415], [-28.1853805, 38.7090222], [-28.1855728, 38.7089901], [-28.1863652, 38.7087686], [-28.1866521, 38.7087027], [-28.1868857, 38.7086842], [-28.1873537, 38.7086842], [-28.1883979, 38.7086934], [-28.1903147, 38.7087112], [-28.1907973, 38.7086987], [-28.1912467, 38.7086737], [-28.1919332, 38.708629], [-28.1924092, 38.7085814], [-28.1927877, 38.7085154], [-28.193019, 38.7084586], [-28.1932135, 38.7083981], [-28.193712, 38.7081977], [-28.194452, 38.7079107], [-28.1947309, 38.7078153], [-28.1949539, 38.7077533], [-28.195204, 38.7077045], [-28.195378, 38.7076795], [-28.1955195, 38.7076696], [-28.1956906, 38.7076689], [-28.1960256, 38.7076793], [-28.1966422, 38.7077071], [-28.1971237, 38.7077269], [-28.1973332, 38.7077052], [-28.1975455, 38.7076462], [-28.1977291, 38.7075673], [-28.1979023, 38.707461], [-28.1979995, 38.7073663], [-28.1980958, 38.7072401]]}, "properties": {"highway": "primary", "lanes": "2", "ref": "ER 1-2", "surface": "asphalt"}}, {"type": "Feature", "geometry": {"type": "LineString", "coordinates": [[-28.1443451, 38.6941106], [-28.144631, 38.6942661], [-28.1449083, 38.6944105]]}, "properties": {"highway": "primary", "ref": "ER 1-2", "surface": "asphalt"}}]}