{"type": "FeatureCollection", "features": [{"type": "Feature", "geometry": {"type": "LineString", "coordinates": [[-7.0916128, 40.3537707], [-7.0916631, 40.35379], [-7.0917185, 40.3537982], [-7.0917695, 40.3537954], [-7.0918303, 40.3537781], [-7.091881, 40.3537473], [-7.0919165, 40.353706], [-7.0919303, 40.3536734], [-7.0919336, 40.3536275], [-7.0919192, 40.3535829], [-7.0918884, 40.3535434], [-7.0918439, 40.3535125], [-7.0917834, 40.3534913], [-7.0917172, 40.3534861], [-7.0916522, 40.3534973], [-7.0915954, 40.3535237], [-7.0915776, 40.353537], [-7.091562, 40.3535517], [-7.0915357, 40.3535906], [-7.0915246, 40.3536334], [-7.0915294, 40.3536769], [-7.0915453, 40.3537111], [-7.0915712, 40.3537416], [-7.0916128, 40.3537707]]}, "properties": {"highway": "primary", "junction": "roundabout", "name": "Avenida Infante Dom Henrique", "ref": "ER 233-3", "surface": "asphalt"}}, {"type": "Feature", "geometry": {"type": "MultiPolygon", "coordinates": [[[[-7.0919336, 40.3536275], [-7.0919192, 40.3535829], [-7.0918884, 40.3535434], [-7.0918439, 40.3535125], [-7.0917834, 40.3534913], [-7.0917172, 40.3534861], [-7.0916522, 40.3534973], [-7.0915954, 40.3535237], [-7.0915776, 40.353537], [-7.091562, 40.3535517], [-7.0915357, 40.3535906], [-7.0915246, 40.3536334], [-7.0915294, 40.3536769], [-7.0915453, 40.3537111], [-7.0915712, 40.3537416], [-7.0916128, 40.3537707], [-7.0916631, 40.35379], [-7.0917185, 40.3537982], [-7.0917695, 40.3537954], [-7.0918303, 40.3537781], [-7.091881, 40.3537473], [-7.0919165, 40.353706], [-7.0919303, 40.3536734], [-7.0919336, 40.3536275]]]]}, "properties": {"highway": "primary", "junction": "roundabout", "name": "Avenida Infante Dom Henrique", "ref": "ER 233-3", "surface": "asphalt"}}]}