{"type": "FeatureCollection", "features": [{"type": "Feature", "geometry": {"type": "LineString", "coordinates": [[-7.8334548, 40.9093956], [-7.8333382, 40.9093517], [-7.8332944, 40.9093332], [-7.8332037, 40.909295], [-7.8331527, 40.9092735], [-7.833106, 40.9092538], [-7.8328804, 40.9091516], [-7.8326, 40.9090142], [-7.8324047, 40.9089185], [-7.8320665, 40.9087529], [-7.8310867, 40.9082696], [-7.8305839, 40.9080216], [-7.8286428, 40.9070642], [-7.8282402, 40.9068657], [-7.827692, 40.9065411], [-7.8272769, 40.906204], [-7.8269639, 40.9058738], [-7.8266535, 40.9054685], [-7.82629, 40.9050144], [-7.8254705, 40.9039682], [-7.8248946, 40.9032372], [-7.824688, 40.9030055], [-7.8244383, 40.9027853], [-7.8241308, 40.9025497], [-7.8237547, 40.9023126], [-7.8233801, 40.9021144], [-7.8229418, 40.9019305], [-7.8222705, 40.9017437], [-7.8217663, 40.9016164], [-7.8215663, 40.9015659], [-7.8186792, 40.9008369], [-7.8179274, 40.9006337], [-7.8175269, 40.9005072], [-7.8174975, 40.9004957], [-7.8172109, 40.9003838], [-7.8169312, 40.900252], [-7.8166758, 40.900117], [-7.8160301, 40.8997073], [-7.8145796, 40.898814], [-7.8141647, 40.8985517], [-7.8138319, 40.8983568], [-7.8135368, 40.898216], [-7.8131288, 40.8980673], [-7.8128165, 40.8979765], [-7.8124715, 40.8979095], [-7.8121777, 40.8978748], [-7.8090506, 40.8975838]]}, "properties": {"highway": "primary", "old_ref": "EN 225", "ref": "ER 225"}}, {"type": "Feature", "geometry": {"type": "LineString", "coordinates": [[-7.9162391, 40.9001046], [-7.9164299, 40.9001276], [-7.9167316, 40.9001191], [-7.9213113, 40.8991107], [-7.9214386, 40.8990586]]}, "properties": {"highway": "primary", "old_ref": "EN 225", "ref": "ER 225", "surface": "asphalt"}}, {"type": "Feature", "geometry": {"type": "LineString", "coordinates": [[-7.7494714, 40.8645781], [-7.7495451, 40.8645203], [-7.749611, 40.8644759], [-7.7496798, 40.864443], [-7.7497545, 40.864418], [-7.7498276, 40.8644039], [-7.7498959, 40.8643954]]}, "properties": {"highway": "primary", "maxspeed": "30", "old_ref": "EN 225", "oneway": "yes", "ref": "ER 225"}}, {"type": "Feature", "geometry": {"type": "LineString", "coordinates": [[-7.7498959, 40.8643954], [-7.7498074, 40.86438], [-7.7494599, 40.8643648], [-7.7492798, 40.8643605]]}, "properties": {"highway": "primary", "maxspeed": "30", "old_ref": "EN 225", "oneway": "yes", "ref": "ER 225"}}, {"type": "Feature", "geometry": {"type": "LineString", "coordinates": [[-7.9217922, 40.8987483], [-7.9218204, 40.8986847], [-7.9218426, 40.8985516], [-7.9218332, 40.8984085], [-7.9217033, 40.8977441], [-7.9216939, 40.8976005], [-7.9217104, 40.8974075], [-7.9218145, 40.8971542], [-7.9219054, 40.8970419]]}, "properties": {"highway": "primary", "old_ref": "EN 225", "ref": "ER 225", "surface": "asphalt"}}, {"type": "Feature", "geometry": {"type": "LineString", "coordinates": [[-7.9214386, 40.8990586], [-7.9216617, 40.8989053], [-7.9217592, 40.898797]]}, "properties": {"bridge": "yes", "highway": "primary", "layer": "1", "old_ref": "EN 225", "ref": "ER 225"}}, {"type": "Feature", "geometry": {"type": "LineString", "coordinates": [[-7.7899375, 40.8739899], [-7.7888064, 40.8730716], [-7.7879282, 40.8723525], [-7.7873227, 40.8718731], [-7.7870825, 40.8716829], [-7.7866222, 40.8713906], [-7.7859341, 40.871003], [-7.7851081, 40.8705378], [-7.7846708, 40.8703061], [-7.7845, 40.8702365], [-7.7843186, 40.8701859], [-7.7841078, 40.8701482], [-7.7837724, 40.8700912], [-7.7834386, 40.8700288], [-7.7832334, 40.8699626], [-7.7830751, 40.8698978], [-7.7829113, 40.8697974], [-7.7826862, 40.8696164], [-7.7820367, 40.8690424], [-7.781996, 40.8690092], [-7.7818091, 40.8688565], [-7.7816562, 40.8687563], [-7.7815534, 40.8687036], [-7.7813978, 40.8686377], [-7.7811351, 40.8685583], [-7.7810166, 40.8685303], [-7.7808846, 40.868499], [-7.7805616, 40.8684397], [-7.778647, 40.8680854], [-7.7785663, 40.8680705], [-7.7775574, 40.8678852], [-7.7765818, 40.8676957], [-7.7765129, 40.8676823], [-7.7755204, 40.8675018], [-7.7751656, 40.8674649], [-7.774931, 40.867486], [-7.7746458, 40.8675597], [-7.7743063, 40.8676672], [-7.7736291, 40.8678834], [-7.7733621, 40.8679427], [-7.773059, 40.8679559], [-7.7728282, 40.8679214], [-7.7724805, 40.8678024], [-7.7719475, 40.8676393], [-7.7712088, 40.8673853]]}, "properties": {"highway": "primary", "old_ref": "EN 225", "ref": "ER 225"}}, {"type": "Feature", "geometry": {"type": "LineString", "coordinates": [[-7.7938119, 40.8789275], [-7.7936973, 40.878765]]}, "properties": {"bridge": "yes", "highway": "primary", "layer": "1", "old_ref": "EN 225", "ref": "ER 225"}}, {"type": "Feature", "geometry": {"type": "LineString", "coordinates": [[-7.9151925, 40.8988483], [-7.9151584, 40.8983734]]}, "properties": {"highway": "primary", "old_ref": "EN 225", "ref": "ER 225", "surface": "asphalt"}}, {"type": "Feature", "geometry": {"type": "LineString", "coordinates": [[-7.9152249, 40.8995017], [-7.9151925, 40.8988483]]}, "properties": {"highway": "primary", "old_ref": "EN 225", "ref": "ER 225", "surface": "asphalt"}}, {"type": "Feature", "geometry": {"type": "LineString", "coordinates": [[-7.761674, 40.8678715], [-7.7612323, 40.8677505], [-7.7610319, 40.8676809], [-7.7608393, 40.8675789], [-7.7606706, 40.8674391], [-7.7605414, 40.867273], [-7.7604558, 40.8670699], [-7.760444, 40.8668172], [-7.7605622, 40.8655617], [-7.7606152, 40.8649533], [-7.760602, 40.8647391], [-7.760546, 40.8645579], [-7.7604636, 40.8644096], [-7.7603204, 40.864211], [-7.7601812, 40.8640908], [-7.7600215, 40.8640089], [-7.7598148, 40.863943], [-7.7597207, 40.8639315], [-7.7596283, 40.8639202], [-7.759368, 40.8639004], [-7.7578558, 40.8637715], [-7.7570045, 40.863687], [-7.7566131, 40.8636829], [-7.7560941, 40.8637035], [-7.7553018, 40.8637895], [-7.755114, 40.863829], [-7.754936, 40.8638916], [-7.7545768, 40.8640367], [-7.7540802, 40.8642688], [-7.7538235, 40.8643647], [-7.7535417, 40.8644239], [-7.7532904, 40.8644335], [-7.7528462, 40.8644316], [-7.7506929, 40.8644051]]}, "properties": {"highway": "primary", "old_ref": "EN 225", "ref": "ER 225"}}, {"type": "Feature", "geometry": {"type": "LineString", "coordinates": [[-7.7712088, 40.8673853], [-7.7711078, 40.8673506]]}, "properties": {"bridge": "yes", "highway": "primary", "layer": "1", "old_ref": "EN 225", "ref": "ER 225"}}, {"type": "Feature", "geometry": {"type": "LineString", "coordinates": [[-7.7936973, 40.878765], [-7.7933974, 40.8783714], [-7.7933681, 40.8783265], [-7.7933418, 40.878289], [-7.7929608, 40.8777135], [-7.7923453, 40.8768395], [-7.7918559, 40.8761439], [-7.7915209, 40.8756793], [-7.7909603, 40.8749515], [-7.7905977, 40.8745568], [-7.7905759, 40.8745372]]}, "properties": {"highway": "primary", "old_ref": "EN 225", "ref": "ER 225"}}, {"type": "Feature", "geometry": {"type": "LineString", "coordinates": [[-7.7905759, 40.8745372], [-7.7905064, 40.8744747]]}, "properties": {"bridge": "yes", "highway": "primary", "layer": "1", "old_ref": "EN 225", "ref": "ER 225"}}, {"type": "Feature", "geometry": {"type": "LineString", "coordinates": [[-7.7711078, 40.8673506], [-7.7707253, 40.8672191], [-7.7699002, 40.8669627], [-7.7695762, 40.8668738], [-7.769291, 40.866843], [-7.7690201, 40.8668676], [-7.7687692, 40.8669397], [-7.7685331, 40.8670515], [-7.7685003, 40.8670788], [-7.768286, 40.8672575], [-7.7681165, 40.8674715], [-7.7676316, 40.8680838], [-7.7671229, 40.868726], [-7.767, 40.8688812], [-7.7667992, 40.8690408], [-7.7666087, 40.8691489], [-7.7663819, 40.869216], [-7.7661282, 40.8692489]]}, "properties": {"highway": "primary", "old_ref": "EN 225", "ref": "ER 225"}}, {"type": "Feature", "geometry": {"type": "LineString", "coordinates": [[-7.7617777, 40.8678999], [-7.761674, 40.8678715]]}, "properties": {"bridge": "yes", "highway": "primary", "layer": "1", "old_ref": "EN 225", "ref": "ER 225"}}, {"type": "Feature", "geometry": {"type": "LineString", "coordinates": [[-7.7660314, 40.8692442], [-7.7659177, 40.8692386], [-7.7659016, 40.8692378], [-7.7656751, 40.869212], [-7.7656318, 40.8691929], [-7.7654544, 40.8691148], [-7.764543, 40.8686815], [-7.764493, 40.8686639], [-7.7642583, 40.8685813], [-7.7636791, 40.8684146], [-7.7629971, 40.868234], [-7.7617777, 40.8678999]]}, "properties": {"highway": "primary", "old_ref": "EN 225", "ref": "ER 225"}}, {"type": "Feature", "geometry": {"type": "LineString", "coordinates": [[-7.7661282, 40.8692489], [-7.7660314, 40.8692442]]}, "properties": {"bridge": "yes", "highway": "primary", "layer": "1", "old_ref": "EN 225", "ref": "ER 225"}}, {"type": "Feature", "geometry": {"type": "LineString", "coordinates": [[-7.8940551, 40.9059672], [-7.8939398, 40.9060074], [-7.8938149, 40.906051], [-7.8935364, 40.9061963], [-7.8934153, 40.9063053], [-7.8933075, 40.9064298], [-7.8932679, 40.9064869], [-7.8932014, 40.9066035], [-7.8931527, 40.90675], [-7.8931418, 40.9067829], [-7.8929069, 40.9078272], [-7.8927637, 40.9083941], [-7.892692, 40.9086776], [-7.8925481, 40.9089497], [-7.892529, 40.9089858], [-7.8923295, 40.9091969], [-7.8922316, 40.9093008], [-7.8919643, 40.9094881], [-7.8916349, 40.90964], [-7.8898229, 40.910368], [-7.8881569, 40.9110259], [-7.886216, 40.9118019], [-7.8847879, 40.9123639], [-7.88451, 40.9124199], [-7.8841683, 40.9124262], [-7.8836025, 40.9123668], [-7.8807539, 40.9119834], [-7.8804413, 40.9119491], [-7.8801944, 40.9119758], [-7.8799398, 40.9120564], [-7.8797698, 40.912179], [-7.8796112, 40.9123653], [-7.8786267, 40.9138574], [-7.878435, 40.9140851], [-7.8782083, 40.9142711], [-7.8779054, 40.9144222], [-7.877577, 40.914531], [-7.8772248, 40.9145888], [-7.8769269, 40.9146048], [-7.8766291, 40.9145853], [-7.876352, 40.9145249], [-7.8760877, 40.9144419], [-7.8758274, 40.9143031], [-7.8743074, 40.9132753], [-7.8740087, 40.9131657], [-7.8737088, 40.9131038], [-7.8733383, 40.9130826], [-7.8720128, 40.9131806], [-7.8714996, 40.9132028]]}, "properties": {"highway": "primary", "old_ref": "EN 225", "ref": "ER 225"}}, {"type": "Feature", "geometry": {"type": "LineString", "coordinates": [[-7.8548243, 40.9199417], [-7.8547177, 40.9199202]]}, "properties": {"bridge": "yes", "highway": "primary", "layer": "1", "old_ref": "EN 225", "ref": "ER 225"}}, {"type": "Feature", "geometry": {"type": "LineString", "coordinates": [[-7.7506929, 40.8644051], [-7.7498959, 40.8643954]]}, "properties": {"highway": "primary", "maxspeed": "30", "old_ref": "EN 225", "ref": "ER 225"}}, {"type": "Feature", "geometry": {"type": "LineString", "coordinates": [[-7.8582454, 40.9200124], [-7.8579494, 40.9200497], [-7.8576293, 40.9200612], [-7.8551294, 40.9199788], [-7.854871, 40.9199511], [-7.8548243, 40.9199417]]}, "properties": {"highway": "primary", "old_ref": "EN 225", "ref": "ER 225"}}, {"type": "Feature", "geometry": {"type": "LineString", "coordinates": [[-7.8603489, 40.9191519], [-7.8602778, 40.9191861], [-7.8589832, 40.9198101], [-7.8586034, 40.9199406], [-7.8584264, 40.9199833]]}, "properties": {"highway": "primary", "old_ref": "EN 225", "ref": "ER 225"}}, {"type": "Feature", "geometry": {"type": "LineString", "coordinates": [[-7.9217592, 40.898797], [-7.9217922, 40.8987483]]}, "properties": {"highway": "primary", "old_ref": "EN 225", "ref": "ER 225", "surface": "asphalt"}}, {"type": "Feature", "geometry": {"type": "LineString", "coordinates": [[-7.8607377, 40.9189684], [-7.8605297, 40.9190689]]}, "properties": {"highway": "primary", "old_ref": "EN 225", "ref": "ER 225"}}, {"type": "Feature", "geometry": {"type": "LineString", "coordinates": [[-7.8605297, 40.9190689], [-7.8604627, 40.9190997], [-7.8603489, 40.9191519]]}, "properties": {"highway": "primary", "old_ref": "EN 225", "ref": "ER 225"}}, {"type": "Feature", "geometry": {"type": "LineString", "coordinates": [[-7.8584264, 40.9199833], [-7.8582454, 40.9200124]]}, "properties": {"highway": "primary", "old_ref": "EN 225", "ref": "ER 225"}}, {"type": "Feature", "geometry": {"type": "LineString", "coordinates": [[-7.9061515, 40.8978527], [-7.9059832, 40.897929], [-7.9045199, 40.898592], [-7.9033377, 40.89917], [-7.9029611, 40.8994505], [-7.9027198, 40.8997035], [-7.9014286, 40.901439], [-7.9004186, 40.9027792], [-7.9001517, 40.9030757], [-7.8998421, 40.9033464], [-7.8994032, 40.9036357], [-7.8976136, 40.9047435], [-7.8969042, 40.9052023], [-7.8961758, 40.9056325], [-7.8957694, 40.905783], [-7.8954724, 40.9058288], [-7.8952359, 40.9058462], [-7.8951219, 40.9058546], [-7.8943107, 40.9059145]]}, "properties": {"highway": "primary", "old_ref": "EN 225", "ref": "ER 225"}}, {"type": "Feature", "geometry": {"type": "LineString", "coordinates": [[-7.8943107, 40.9059145], [-7.8940551, 40.9059672]]}, "properties": {"highway": "primary", "old_ref": "EN 225", "ref": "ER 225"}}, {"type": "Feature", "geometry": {"type": "LineString", "coordinates": [[-7.8547177, 40.9199202], [-7.8544604, 40.9198521], [-7.8540736, 40.919717], [-7.8537163, 40.9195209], [-7.8534155, 40.9192572], [-7.8530423, 40.9187572], [-7.8524296, 40.9178828], [-7.8522085, 40.9175673], [-7.8518645, 40.9170881], [-7.8516704, 40.9168565], [-7.8514796, 40.9166936], [-7.8512378, 40.9165029], [-7.8508452, 40.916291], [-7.8504577, 40.9161275], [-7.8502905, 40.9160604], [-7.8495916, 40.9158027], [-7.8494108, 40.9157349], [-7.8487965, 40.9155038], [-7.8482321, 40.9152759], [-7.8476739, 40.9150546], [-7.847476, 40.9149829], [-7.8470593, 40.9148851], [-7.8466611, 40.9148513], [-7.8463099, 40.9148666], [-7.8459767, 40.9149172], [-7.8456425, 40.9149605], [-7.8450891, 40.9150455], [-7.844401, 40.9151497], [-7.8434534, 40.9152976], [-7.8432469, 40.9153251], [-7.8429248, 40.915368], [-7.8423342, 40.9154523], [-7.8421444, 40.9154682], [-7.841919, 40.9154424], [-7.8417047, 40.9153817], [-7.8415123, 40.9152669], [-7.8413655, 40.9151252], [-7.8412629, 40.9149769], [-7.8412191, 40.914847], [-7.8412293, 40.9146311], [-7.8412754, 40.9143819], [-7.8413966, 40.9138309], [-7.8414477, 40.9135832], [-7.8414629, 40.9133571], [-7.8414342, 40.9131226], [-7.8413701, 40.9129066], [-7.8412548, 40.9126889], [-7.8411224, 40.9125026], [-7.8409475, 40.9123066], [-7.8406868, 40.9121024], [-7.8404037, 40.9119306], [-7.8399548, 40.9117483], [-7.8395819, 40.9116134], [-7.8393608, 40.9115333], [-7.8392479, 40.9114925], [-7.8375578, 40.9108807], [-7.8373374, 40.9108009], [-7.8367581, 40.9105913], [-7.8361212, 40.9103607], [-7.8349863, 40.9099499], [-7.8346486, 40.9098277], [-7.8339669, 40.909581], [-7.8338689, 40.9095455]]}, "properties": {"highway": "primary", "old_ref": "EN 225", "ref": "ER 225"}}, {"type": "Feature", "geometry": {"type": "LineString", "coordinates": [[-7.7955679, 40.8866748], [-7.7955273, 40.8864437], [-7.7954994, 40.8861081], [-7.7955378, 40.8857157], [-7.7956253, 40.8853077], [-7.7959996, 40.8836037], [-7.7960454, 40.8833996], [-7.7960791, 40.8830916], [-7.7960812, 40.8827774], [-7.796036, 40.8825215], [-7.7959509, 40.8822463], [-7.7958401, 40.8819575], [-7.7956307, 40.8815446], [-7.795412, 40.8812217], [-7.7947702, 40.8803106], [-7.7946798, 40.8801769], [-7.7945779, 40.8800437], [-7.7943447, 40.879695], [-7.7942053, 40.8794942], [-7.7941131, 40.8793613]]}, "properties": {"highway": "primary", "old_ref": "EN 225", "ref": "ER 225"}}, {"type": "Feature", "geometry": {"type": "LineString", "coordinates": [[-7.7905064, 40.8744747], [-7.7903667, 40.874349], [-7.7903116, 40.8742994], [-7.7901746, 40.8741871], [-7.7900825, 40.8741108]]}, "properties": {"highway": "primary", "old_ref": "EN 225", "ref": "ER 225"}}, {"type": "Feature", "geometry": {"type": "LineString", "coordinates": [[-7.7900825, 40.8741108], [-7.7899375, 40.8739899]]}, "properties": {"highway": "primary", "old_ref": "EN 225", "ref": "ER 225"}}, {"type": "Feature", "geometry": {"type": "LineString", "coordinates": [[-7.7956352, 40.8869128], [-7.7955745, 40.8867065]]}, "properties": {"highway": "primary", "old_ref": "EN 225", "ref": "ER 225"}}, {"type": "Feature", "geometry": {"type": "LineString", "coordinates": [[-7.8336566, 40.9094686], [-7.8334548, 40.9093956]]}, "properties": {"highway": "primary", "old_ref": "EN 225", "ref": "ER 225"}}, {"type": "Feature", "geometry": {"type": "LineString", "coordinates": [[-7.808714, 40.8975525], [-7.8084839, 40.8975311], [-7.8021275, 40.8969395], [-7.801783, 40.8968945], [-7.8014435, 40.896822], [-7.8010192, 40.8967039], [-7.8005917, 40.8965505], [-7.8002586, 40.8963808], [-7.8000083, 40.896246], [-7.7997155, 40.8960637], [-7.7993974, 40.8958305], [-7.7990611, 40.8955308], [-7.7987795, 40.8952128], [-7.798535, 40.8948338], [-7.7983726, 40.8944932], [-7.7981075, 40.8937795], [-7.7978141, 40.8929635], [-7.7972969, 40.8915237], [-7.7965402, 40.8893947], [-7.7961224, 40.8882083], [-7.7957696, 40.8872615], [-7.7956352, 40.8869128]]}, "properties": {"highway": "primary", "old_ref": "EN 225", "ref": "ER 225"}}, {"type": "Feature", "geometry": {"type": "LineString", "coordinates": [[-7.808799, 40.8975604], [-7.808714, 40.8975525]]}, "properties": {"highway": "primary", "old_ref": "EN 225", "ref": "ER 225"}}, {"type": "Feature", "geometry": {"type": "LineString", "coordinates": [[-7.8090506, 40.8975838], [-7.808799, 40.8975604]]}, "properties": {"highway": "primary", "old_ref": "EN 225", "ref": "ER 225"}}, {"type": "Feature", "geometry": {"type": "LineString", "coordinates": [[-7.7941131, 40.8793613], [-7.7938119, 40.8789275]]}, "properties": {"highway": "primary", "old_ref": "EN 225", "ref": "ER 225"}}, {"type": "Feature", "geometry": {"type": "LineString", "coordinates": [[-7.7955745, 40.8867065], [-7.7955679, 40.8866748]]}, "properties": {"highway": "primary", "old_ref": "EN 225", "ref": "ER 225"}}, {"type": "Feature", "geometry": {"type": "LineString", "coordinates": [[-7.8338689, 40.9095455], [-7.8336788, 40.9094767]]}, "properties": {"highway": "primary", "old_ref": "EN 225", "ref": "ER 225"}}, {"type": "Feature", "geometry": {"type": "LineString", "coordinates": [[-7.8336788, 40.9094767], [-7.8336566, 40.9094686]]}, "properties": {"highway": "primary", "old_ref": "EN 225", "ref": "ER 225"}}, {"type": "Feature", "geometry": {"type": "LineString", "coordinates": [[-7.9151584, 40.8983734], [-7.9151348, 40.8982331], [-7.9151275, 40.89819], [-7.9150783, 40.8980285], [-7.9149974, 40.8979005], [-7.9148947, 40.8977835], [-7.9147215, 40.8976743], [-7.9145701, 40.8976035], [-7.9143941, 40.8975401], [-7.914218, 40.8975096], [-7.9140045, 40.8975117], [-7.9138056, 40.8975468], [-7.9124859, 40.897941], [-7.9113984, 40.8982705], [-7.9110898, 40.8984071], [-7.9093277, 40.8994551], [-7.9091281, 40.8995293], [-7.9089114, 40.8995518], [-7.9085983, 40.8995214], [-7.9082827, 40.8994059], [-7.9081301, 40.8992671], [-7.9079775, 40.8990702], [-7.9074396, 40.8981086], [-7.907317, 40.8979773], [-7.907126, 40.897859], [-7.9069553, 40.8977908], [-7.906798, 40.8977649], [-7.9067121, 40.8977591], [-7.9066276, 40.8977611], [-7.9065606, 40.8977655]]}, "properties": {"highway": "primary", "old_ref": "EN 225", "ref": "ER 225"}}, {"type": "Feature", "geometry": {"type": "LineString", "coordinates": [[-7.9065606, 40.8977655], [-7.9064746, 40.8977729], [-7.9063942, 40.8977843], [-7.9063221, 40.8977974], [-7.9062368, 40.897819], [-7.9061515, 40.8978527]]}, "properties": {"highway": "primary", "old_ref": "EN 225", "ref": "ER 225"}}, {"type": "Feature", "geometry": {"type": "LineString", "coordinates": [[-7.8710159, 40.9132344], [-7.8708963, 40.9132458], [-7.8708093, 40.9132574], [-7.8707221, 40.9132772], [-7.870658, 40.9132989], [-7.8703489, 40.913389], [-7.870029, 40.913552], [-7.8685979, 40.9146098], [-7.8667109, 40.9159982], [-7.8661977, 40.9162959], [-7.8656852, 40.9165677], [-7.8655987, 40.9166136], [-7.8641502, 40.9173139], [-7.8640372, 40.9173729], [-7.8635967, 40.9175853], [-7.8632363, 40.917759], [-7.8625062, 40.9181101], [-7.8623859, 40.9181702], [-7.8607377, 40.9189684]]}, "properties": {"highway": "primary", "old_ref": "EN 225", "ref": "ER 225"}}, {"type": "Feature", "geometry": {"type": "LineString", "coordinates": [[-7.8712614, 40.9132194], [-7.8710159, 40.9132344]]}, "properties": {"highway": "primary", "old_ref": "EN 225", "ref": "ER 225"}}, {"type": "Feature", "geometry": {"type": "LineString", "coordinates": [[-7.8714996, 40.9132028], [-7.8712614, 40.9132194]]}, "properties": {"highway": "primary", "old_ref": "EN 225", "ref": "ER 225"}}]}