{"type": "FeatureCollection", "features": [{"type": "Feature", "geometry": {"type": "LineString", "coordinates": [[-7.9018421, 39.0684585], [-7.9004319, 39.0673609]]}, "properties": {"bridge": "yes", "highway": "primary", "lanes": "2", "layer": "1", "lit": "no", "maxspeed": "90", "maxweight:signed": "no", "ref": "ER 244", "surface": "asphalt"}}, {"type": "Feature", "geometry": {"type": "LineString", "coordinates": [[-7.9004319, 39.0673609], [-7.8986099, 39.0659616], [-7.8985047, 39.0658808], [-7.8978664, 39.0653958], [-7.8975391, 39.0650868], [-7.8974372, 39.064973], [-7.8973594, 39.0648585], [-7.8972763, 39.0647335], [-7.8972116, 39.0645944], [-7.8969308, 39.0637999]]}, "properties": {"highway": "primary", "lanes": "2", "lit": "no", "maxspeed": "90", "ref": "ER 244", "surface": "asphalt"}}, {"type": "Feature", "geometry": {"type": "LineString", "coordinates": [[-7.9961788, 39.2038246], [-7.996326, 39.203673], [-7.996476, 39.2035891], [-7.9968956, 39.2034499], [-7.9973091, 39.2033101], [-7.9974969, 39.203182], [-7.9975658, 39.2030884], [-7.9975969, 39.2029879], [-7.997623, 39.2028712], [-7.9972872, 39.2016774], [-7.9971036, 39.2013302], [-7.9968917, 39.2010205]]}, "properties": {"highway": "primary", "lanes": "2", "lit": "no", "maxspeed": "60", "ref": "ER 244", "surface": "asphalt"}}, {"type": "Feature", "geometry": {"type": "LineString", "coordinates": [[-7.9968242, 39.1553265], [-7.9968053, 39.1552235], [-7.9967676, 39.1549873], [-7.9967711, 39.1547658], [-7.9968191, 39.1545116], [-7.9969366, 39.1541548]]}, "properties": {"highway": "primary", "lanes": "2", "lit": "yes", "maxspeed": "50", "ref": "ER 244;EN 244", "surface": "asphalt"}}, {"type": "Feature", "geometry": {"type": "LineString", "coordinates": [[-7.9954278, 39.2140267], [-7.9953351, 39.2136409], [-7.9953606, 39.2132438], [-7.9955162, 39.2127733], [-7.9958163, 39.2120313], [-7.9959198, 39.2116309], [-7.9958967, 39.2112741], [-7.9957897, 39.2109386], [-7.9957036, 39.2107659]]}, "properties": {"highway": "primary", "lanes": "2", "lit": "no", "maxspeed": "70", "ref": "ER 244", "source": "Bing", "surface": "asphalt"}}]}