{"type": "FeatureCollection", "features": [{"type": "Feature", "geometry": {"type": "LineString", "coordinates": [[-7.4850015, 38.5370785], [-7.4854863, 38.5367149], [-7.4884987, 38.534425], [-7.4893646, 38.5337575], [-7.4893839, 38.533743], [-7.4895696, 38.5336035], [-7.4897494, 38.5334684], [-7.4897888, 38.5334388], [-7.4905105, 38.5328777], [-7.4908728, 38.5325768], [-7.4913005, 38.5321216], [-7.4916717, 38.5315125], [-7.492468, 38.5299136], [-7.4936017, 38.5274716], [-7.4939099, 38.5268077], [-7.4941595, 38.5262907], [-7.4950426, 38.5243105], [-7.4962848, 38.5208535], [-7.4968974, 38.5191689], [-7.4996287, 38.5116607], [-7.5024814, 38.5038121], [-7.5030627, 38.5022134], [-7.5035012, 38.5015452], [-7.5058326, 38.4986207], [-7.5078033, 38.4959905], [-7.5090312, 38.4940042], [-7.5092592, 38.4936354], [-7.5175723, 38.4801855], [-7.5196189, 38.4768734], [-7.5214278, 38.4739457]]}, "properties": {"highway": "primary", "lanes": "2", "ref": "ER 255", "surface": "asphalt"}}, {"type": "Feature", "geometry": {"type": "LineString", "coordinates": [[-7.5420287, 38.2150408], [-7.5447397, 38.2167189], [-7.5458387, 38.2174303], [-7.5499518, 38.2200109], [-7.5528644, 38.2218464], [-7.5538783, 38.2226079], [-7.5560295, 38.2244182], [-7.5566263, 38.2249371], [-7.5573392, 38.2255569], [-7.5588474, 38.2268582], [-7.5594672, 38.227393], [-7.5605087, 38.2282461], [-7.5616527, 38.2288624], [-7.5628852, 38.2292467], [-7.5637666, 38.2295221], [-7.5646234, 38.2298899], [-7.5650634, 38.2301841], [-7.5654502, 38.2304723], [-7.5669503, 38.2319159], [-7.5669943, 38.2319583], [-7.5689416, 38.2338379], [-7.5698359, 38.2346728], [-7.5698571, 38.2346883], [-7.5703629, 38.2350571], [-7.5729059, 38.2364774], [-7.5737084, 38.2370004], [-7.5744294, 38.2375503], [-7.576307, 38.2397484], [-7.5781263, 38.2419111], [-7.5787022, 38.2425547], [-7.5792735, 38.2431591], [-7.5803074, 38.2438484], [-7.5804062, 38.2439142], [-7.5813975, 38.2445751], [-7.5827067, 38.2454099], [-7.5832431, 38.2458851], [-7.5836445, 38.2463681], [-7.5838838, 38.2466994], [-7.5840992, 38.2469733], [-7.5841162, 38.2470003]]}, "properties": {"highway": "primary", "lanes": "2", "ref": "ER 255", "surface": "asphalt"}}, {"type": "Feature", "geometry": {"type": "LineString", "coordinates": [[-7.4862943, 38.1982212], [-7.483303, 38.1988122], [-7.4821234, 38.1990409], [-7.4813839, 38.199174], [-7.4808234, 38.1993065], [-7.4806237, 38.1993458], [-7.4803973, 38.1993838], [-7.4802021, 38.1994161], [-7.4799912, 38.1994425], [-7.4797671, 38.1994634], [-7.4795466, 38.199478], [-7.4791157, 38.1994947], [-7.4787072, 38.199501], [-7.4782295, 38.1995072], [-7.4748832, 38.1995293], [-7.4676039, 38.1996328], [-7.4667903, 38.1996487], [-7.4660309, 38.1996559], [-7.4657268, 38.1996507], [-7.4653921, 38.1996348], [-7.4650286, 38.199593], [-7.4646906, 38.1995322], [-7.4604313, 38.1985834], [-7.4558568, 38.1975635], [-7.454998, 38.1973742], [-7.4538262, 38.197116], [-7.4531837, 38.196966], [-7.4524643, 38.1967735], [-7.4520112, 38.1966319], [-7.4516204, 38.1964937], [-7.4513319, 38.1963832], [-7.451084, 38.1962769], [-7.4506492, 38.1960795], [-7.4504087, 38.1959609], [-7.450178, 38.1958412], [-7.4498587, 38.1956634], [-7.449605, 38.1955178], [-7.4493305, 38.1953494], [-7.4490596, 38.1951622], [-7.4486194, 38.194853], [-7.4476405, 38.1941306], [-7.4468137, 38.1935298], [-7.4466817, 38.193427], [-7.4406716, 38.1890259], [-7.4401405, 38.1886031], [-7.4394713, 38.1880128], [-7.4392959, 38.1878154], [-7.4389672, 38.1874251], [-7.4320918, 38.179132], [-7.4311949, 38.1780501], [-7.4294774, 38.1760184], [-7.4292554, 38.1757964], [-7.4290191, 38.175569], [-7.4285689, 38.1751805], [-7.4221429, 38.1700513]]}, "properties": {"highway": "primary", "ref": "ER 255"}}, {"type": "Feature", "geometry": {"type": "LineString", "coordinates": [[-7.4989052, 38.1946769], [-7.4985914, 38.1947285], [-7.4983338, 38.1948461], [-7.4982052, 38.1949446], [-7.4980912, 38.195069], [-7.4980174, 38.1952144], [-7.4979832, 38.1954221], [-7.4978149, 38.1960018], [-7.4977639, 38.1961709], [-7.4976426, 38.196456], [-7.4975447, 38.1966331], [-7.4974206, 38.1968191], [-7.4972731, 38.1969925], [-7.4970867, 38.197168], [-7.4968486, 38.1973387], [-7.4965489, 38.1974984], [-7.4962874, 38.1976001], [-7.495999, 38.1976802], [-7.4956108, 38.1977492], [-7.4952299, 38.1977835], [-7.4949925, 38.1977898], [-7.4947297, 38.1977835], [-7.4944232, 38.1977508], [-7.4940866, 38.1976944], [-7.4939156, 38.1976668], [-7.4935877, 38.1976069], [-7.4934013, 38.197588], [-7.4932417, 38.1975869], [-7.493062, 38.1976059], [-7.4925725, 38.1977492], [-7.4920766, 38.197923], [-7.4918859, 38.1979779], [-7.4916995, 38.1980106], [-7.4914648, 38.1980285], [-7.4900676, 38.1980512], [-7.4884413, 38.1980792], [-7.4879384, 38.1980975]]}, "properties": {"highway": "primary", "layer": "1", "name": "Barragem de Alqueva", "ref": "ER 255"}}, {"type": "Feature", "geometry": {"type": "LineString", "coordinates": [[-7.4008718, 38.6330182], [-7.4004059, 38.6331556], [-7.4001288, 38.6332298], [-7.3993483, 38.63341], [-7.3991767, 38.6334592], [-7.399009, 38.6335221], [-7.3988132, 38.633609], [-7.398659, 38.6336949], [-7.3984994, 38.6338028], [-7.3983586, 38.6339223], [-7.3980716, 38.6341517], [-7.3977993, 38.6343947], [-7.3976384, 38.6345718], [-7.3975848, 38.6346891], [-7.3975595, 38.6348036], [-7.3975526, 38.63495], [-7.3975633, 38.6351417], [-7.3975891, 38.6353976], [-7.3977622, 38.6373419], [-7.397804, 38.6377026], [-7.3978446, 38.6378484], [-7.3978993, 38.6379482], [-7.3979705, 38.6380347], [-7.3982828, 38.6383064], [-7.3984045, 38.6384284], [-7.3984532, 38.6385251], [-7.3984812, 38.6386045], [-7.3986, 38.6397529], [-7.3999203, 38.6420113], [-7.4014304, 38.6440524], [-7.4033703, 38.6464503], [-7.4038594, 38.647007], [-7.4040437, 38.647261], [-7.4041684, 38.6474797], [-7.4042511, 38.6476898], [-7.4044152, 38.6481715], [-7.4047899, 38.6493927], [-7.4049866, 38.650007], [-7.4055999, 38.651922], [-7.4057057, 38.6522556], [-7.4064998, 38.6547598], [-7.4067046, 38.6552905], [-7.4067541, 38.6555495], [-7.406752, 38.6559606], [-7.4067413, 38.6561845], [-7.4067253, 38.6564171], [-7.4066003, 38.6590514], [-7.4065626, 38.6593404], [-7.4064803, 38.6595672], [-7.4063902, 38.6597154], [-7.4059168, 38.6604169], [-7.4055402, 38.6610201], [-7.405154, 38.6615218], [-7.4043104, 38.6621895], [-7.403489, 38.6628327], [-7.4034038, 38.6629403], [-7.4033655, 38.6630674], [-7.4033539, 38.6632715], [-7.4033301, 38.6636889], [-7.4033679, 38.6642005], [-7.4036023, 38.6651201], [-7.4036147, 38.665237], [-7.4036223, 38.665339], [-7.4036105, 38.6654539], [-7.4035878, 38.6655673], [-7.4034985, 38.6658473], [-7.4034805, 38.6659327], [-7.403493, 38.6660503], [-7.4035327, 38.6661891], [-7.4037208, 38.6665843], [-7.40436, 38.6677015], [-7.4045425, 38.6679438], [-7.4046844, 38.6682739], [-7.4047, 38.6686805], [-7.4047201, 38.66974], [-7.4040201, 38.6713225], [-7.4037869, 38.671864], [-7.4036386, 38.6721513], [-7.4035498, 38.6722799], [-7.4034409, 38.6724292], [-7.4033482, 38.6725342], [-7.4027239, 38.6730965], [-7.4024402, 38.6734334], [-7.4022123, 38.6738855], [-7.4020946, 38.6742845], [-7.40205, 38.675091], [-7.4020491, 38.6751074], [-7.4019521, 38.6765183], [-7.4019226, 38.6766303], [-7.4018823, 38.6767375], [-7.4018126, 38.6768554], [-7.4017075, 38.6769982], [-7.4005429, 38.6783355], [-7.400376, 38.6785395], [-7.4002227, 38.6787797], [-7.3997069, 38.6800072], [-7.3996597, 38.6801376], [-7.3996125, 38.680358], [-7.3996402, 38.68061], [-7.3999699, 38.6819118], [-7.4001333, 38.6825121], [-7.4001693, 38.6828605], [-7.4001423, 38.6834391]]}, "properties": {"highway": "primary", "lanes": "2", "maxspeed": "90", "ref": "ER 255"}}, {"type": "Feature", "geometry": {"type": "LineString", "coordinates": [[-7.4008568, 38.5978373], [-7.400993, 38.597068], [-7.402919, 38.5848826], [-7.4034746, 38.5814823], [-7.4035365, 38.5811343], [-7.4036164, 38.5809429], [-7.4037418, 38.5807393], [-7.4039002, 38.5805068], [-7.4041264, 38.5803105], [-7.404445, 38.5801185]]}, "properties": {"highway": "primary", "lanes": "2", "ref": "ER 255", "surface": "asphalt"}}, {"type": "Feature", "geometry": {"type": "LineString", "coordinates": [[-7.5359118, 38.4176721], [-7.5359045, 38.4176233], [-7.5358795, 38.4175783], [-7.5358388, 38.4175409], [-7.535786, 38.4175145], [-7.5357493, 38.4175046], [-7.5356906, 38.4174999], [-7.5356325, 38.4175081], [-7.5355795, 38.4175285], [-7.5355356, 38.4175594], [-7.5355087, 38.4175915], [-7.5354876, 38.417645], [-7.5354903, 38.4177009], [-7.5355164, 38.417753], [-7.535563, 38.4177954], [-7.5355887, 38.4178097], [-7.5356561, 38.4178303], [-7.5357284, 38.4178321], [-7.5357973, 38.4178148], [-7.5358548, 38.4177804], [-7.5358719, 38.4177641], [-7.5359005, 38.4177204], [-7.5359118, 38.4176721]]}, "properties": {"highway": "primary", "junction": "roundabout", "ref": "EN 256;ER 255", "surface": "asphalt"}}, {"type": "Feature", "geometry": {"type": "LineString", "coordinates": [[-7.5279667, 38.4202598], [-7.5279064, 38.420232], [-7.5278377, 38.4202216], [-7.5277804, 38.4202268], [-7.5277272, 38.4202443], [-7.5276752, 38.4202787], [-7.5276403, 38.4203245], [-7.5276261, 38.4203766], [-7.5276343, 38.4204296], [-7.527664, 38.4204775], [-7.527693, 38.4205033], [-7.5277406, 38.420529], [-7.5277953, 38.4205433], [-7.527853, 38.4205453], [-7.5279092, 38.4205347], [-7.5279541, 38.4205154], [-7.5279988, 38.4204811], [-7.5280284, 38.4204378], [-7.52804, 38.4203896], [-7.5280364, 38.4203531], [-7.5280118, 38.4203018], [-7.5279667, 38.4202598]]}, "properties": {"highway": "primary", "junction": "roundabout", "lanes": "1", "ref": "EN 256;ER 255", "surface": "asphalt"}}, {"type": "Feature", "geometry": {"type": "LineString", "coordinates": [[-7.5226313, 38.425001], [-7.5226307, 38.4249307], [-7.5226028, 38.424864], [-7.5225503, 38.424807], [-7.5225353, 38.424796], [-7.5224629, 38.4247596], [-7.52238, 38.4247414], [-7.522294, 38.424743], [-7.5222123, 38.4247643], [-7.5221446, 38.4248016], [-7.5220904, 38.4248559], [-7.5220595, 38.4249204], [-7.5220546, 38.4249892], [-7.5220762, 38.425056], [-7.5221224, 38.4251147], [-7.5221701, 38.4251498], [-7.5222266, 38.4251756], [-7.5223072, 38.4251932], [-7.5223908, 38.425192], [-7.5224706, 38.4251722], [-7.5225144, 38.4251517], [-7.5225529, 38.4251255], [-7.5226045, 38.425068], [-7.5226313, 38.425001]]}, "properties": {"highway": "primary", "junction": "roundabout", "lanes": "1", "ref": "EN 256;ER 255", "surface": "asphalt"}}, {"type": "Feature", "geometry": {"type": "LineString", "coordinates": [[-7.4205674, 38.167817], [-7.4205395, 38.1668756], [-7.4205298, 38.1665481], [-7.4205243, 38.1663646], [-7.4205115, 38.1659353], [-7.4205074, 38.1657972]]}, "properties": {"bridge": "yes", "highway": "primary", "layer": "1", "ref": "ER 255", "surface": "asphalt"}}, {"type": "Feature", "geometry": {"type": "LineString", "coordinates": [[-7.4413566, 38.1463681], [-7.4417008, 38.1462642]]}, "properties": {"bridge": "yes", "highway": "primary", "layer": "1", "maxweight:signed": "no", "ref": "ER 255", "surface": "asphalt"}}, {"type": "Feature", "geometry": {"type": "LineString", "coordinates": [[-7.4252269, 38.1573362], [-7.4256149, 38.1573348], [-7.4257647, 38.1573391], [-7.425984, 38.1573312], [-7.4262314, 38.1573085], [-7.4267451, 38.1572395], [-7.4277187, 38.1570976], [-7.4278233, 38.1570765], [-7.4279065, 38.1570533], [-7.4279816, 38.1570164], [-7.42806, 38.156969], [-7.4281961, 38.1568466], [-7.4285086, 38.1565366], [-7.4304877, 38.1545147], [-7.4309156, 38.1540776], [-7.4343441, 38.1505752], [-7.434512, 38.1504016], [-7.4346683, 38.1502667], [-7.4349634, 38.1500457], [-7.435033, 38.1499973], [-7.435374, 38.1497604], [-7.4362356, 38.1492297], [-7.4363442, 38.1491628], [-7.4399727, 38.1469394], [-7.440127, 38.1468431], [-7.4402563, 38.1467672], [-7.440415, 38.146684], [-7.4406283, 38.146598], [-7.4408755, 38.1465141], [-7.4413566, 38.1463681]]}, "properties": {"highway": "primary", "lanes": "2", "ref": "ER 255", "surface": "asphalt"}}, {"type": "Feature", "geometry": {"type": "LineString", "coordinates": [[-7.4417008, 38.1462642], [-7.4417651, 38.1462425], [-7.4418189, 38.146218], [-7.4418712, 38.1461867], [-7.4419166, 38.146155], [-7.4423079, 38.1458426], [-7.4424115, 38.1457726], [-7.4424963, 38.145728], [-7.4425817, 38.1457003], [-7.4426785, 38.145679], [-7.4427863, 38.1456759], [-7.4428203, 38.145679], [-7.4428969, 38.145686], [-7.4429888, 38.1456986], [-7.4430921, 38.1457288], [-7.4434197, 38.1458466], [-7.4436253, 38.1459176], [-7.4437558, 38.1459517], [-7.4438429, 38.1459659], [-7.4439144, 38.145969], [-7.4440217, 38.145971], [-7.4441076, 38.145966], [-7.4442757, 38.1459429], [-7.4443798, 38.145922], [-7.4445016, 38.1458848], [-7.4447163, 38.1458006], [-7.4449114, 38.1457113], [-7.4451042, 38.1456052], [-7.4457825, 38.1451669]]}, "properties": {"highway": "primary", "ref": "ER 255", "surface": "asphalt"}}, {"type": "Feature", "geometry": {"type": "LineString", "coordinates": [[-7.5557596, 38.2951378], [-7.555923, 38.2943323], [-7.5560548, 38.2939041], [-7.5562106, 38.2936328], [-7.5564059, 38.2934042]]}, "properties": {"highway": "primary", "ref": "ER 255", "surface": "asphalt"}}, {"type": "Feature", "geometry": {"type": "LineString", "coordinates": [[-7.5150071, 38.3688496], [-7.514853, 38.3685597], [-7.5147862, 38.3683805], [-7.5147233, 38.3681869], [-7.5146879, 38.3680475], [-7.5146585, 38.3679223], [-7.5146248, 38.3677238], [-7.5146077, 38.3676052], [-7.5145829, 38.3669636], [-7.5145868, 38.3667329], [-7.5145919, 38.3664329], [-7.5146212, 38.3653333]]}, "properties": {"highway": "primary", "postal_code": "7200-071", "ref": "ER 255"}}, {"type": "Feature", "geometry": {"type": "LineString", "coordinates": [[-7.5145063, 38.3352603], [-7.516032, 38.3353078], [-7.5164694, 38.3353091], [-7.5168847, 38.3352987], [-7.5173133, 38.3352394], [-7.5175198, 38.3351914]]}, "properties": {"highway": "primary", "oneway": "yes", "ref": "ER 255"}}, {"type": "Feature", "geometry": {"type": "LineString", "coordinates": [[-7.5242645, 38.4250204], [-7.5240819, 38.425016], [-7.5239349, 38.4250124], [-7.5237372, 38.4250065], [-7.523303, 38.4249936]]}, "properties": {"highway": "primary", "lanes": "2", "name": "Rua da Junqueira", "old_ref": "EN 256", "postal_code": "7200-209", "ref": "ER 255", "surface": "asphalt"}}, {"type": "Feature", "geometry": {"type": "LineString", "coordinates": [[-7.5281071, 38.428054], [-7.5278234, 38.4279768], [-7.5269802, 38.4277706], [-7.5268439, 38.4277373], [-7.5267353, 38.4277088], [-7.5258137, 38.4274672], [-7.5256884, 38.4274139], [-7.5255831, 38.427363]]}, "properties": {"highway": "primary", "name": "Rua Jos\u00e9 Maria Carvalho", "postal_code": "7200-410", "ref": "ER 255"}}, {"type": "Feature", "geometry": {"type": "LineString", "coordinates": [[-7.5284756, 38.4283478], [-7.5288011, 38.4287604], [-7.5288553, 38.4288296], [-7.5289718, 38.4290015], [-7.5290648, 38.4291387], [-7.5291931, 38.4293279], [-7.5296805, 38.4300468], [-7.5304197, 38.431137], [-7.5309998, 38.4320446], [-7.5310978, 38.4321503], [-7.5312014, 38.4322224], [-7.5313223, 38.4323021], [-7.5314074, 38.4323469], [-7.5315117, 38.4323861], [-7.5317895, 38.4324551], [-7.5321542, 38.4325393], [-7.5325757, 38.4326188]]}, "properties": {"bicycle": "yes", "foot": "yes", "highway": "primary", "name": "Rua Doutor M\u00e1rio Jacinto Machado", "postal_code": "7200-204", "ref": "ER 255", "surface": "asphalt"}}, {"type": "Feature", "geometry": {"type": "LineString", "coordinates": [[-7.5376946, 38.2123413], [-7.5371567, 38.2119781], [-7.5358633, 38.2111312], [-7.5349444, 38.2105631], [-7.5337098, 38.2097008], [-7.5329904, 38.2092301], [-7.5325352, 38.208895], [-7.5322921, 38.2086789], [-7.5306718, 38.2069924], [-7.5294944, 38.2057669], [-7.5290619, 38.2053185], [-7.5286544, 38.2049411], [-7.5280872, 38.2045332], [-7.5274944, 38.2041802], [-7.5259916, 38.2033219], [-7.5256822, 38.2031452], [-7.5226791, 38.2014818], [-7.5218839, 38.2010516], [-7.5215366, 38.2008752], [-7.5213043, 38.2007652], [-7.5208496, 38.2006001], [-7.5204925, 38.2004946], [-7.5195432, 38.2002915], [-7.5165855, 38.1997005], [-7.5163122, 38.1996439], [-7.5156351, 38.1995037], [-7.5151871, 38.1994027], [-7.5148425, 38.199301], [-7.5144348, 38.1991516], [-7.511212, 38.1978279]]}, "properties": {"highway": "primary", "lanes": "2", "ref": "ER 255", "surface": "asphalt"}}, {"type": "Feature", "geometry": {"type": "LineString", "coordinates": [[-7.5409935, 38.2143979], [-7.540291, 38.213966], [-7.5401787, 38.2138973], [-7.5401308, 38.213868], [-7.5400552, 38.2138218], [-7.5398264, 38.2136794], [-7.5386308, 38.2129348]]}, "properties": {"highway": "primary", "ref": "ER 255"}}, {"type": "Feature", "geometry": {"type": "LineString", "coordinates": [[-7.509879, 38.1975112], [-7.5092441, 38.1974983], [-7.5085584, 38.1975168], [-7.5078464, 38.1975961], [-7.5065368, 38.197762], [-7.5039356, 38.1980685], [-7.503325, 38.1980681], [-7.5032193, 38.198064], [-7.5021648, 38.1980233], [-7.5012347, 38.1979862], [-7.5011173, 38.1979435], [-7.5007301, 38.1978026], [-7.5004318, 38.1975872], [-7.5002009, 38.1972792], [-7.5000984, 38.1968248], [-7.5000264, 38.1962773], [-7.4998909, 38.1953019], [-7.4998292, 38.195147], [-7.4997072, 38.1949868], [-7.4995449, 38.1948519], [-7.4993156, 38.1947359], [-7.4991399, 38.1946917], [-7.4989052, 38.1946769]]}, "properties": {"highway": "primary", "ref": "ER 255"}}, {"type": "Feature", "geometry": {"type": "LineString", "coordinates": [[-7.4872202, 38.1982984], [-7.4872979, 38.1982795], [-7.4873691, 38.1982351], [-7.4874103, 38.19818], [-7.4874249, 38.1981206], [-7.4874129, 38.1980574], [-7.4873867, 38.1980149], [-7.4873707, 38.1980016], [-7.4873309, 38.1979683], [-7.487263, 38.1979407], [-7.4871824, 38.1979319], [-7.4870995, 38.1979463], [-7.4870312, 38.1979811], [-7.4869995, 38.1980096], [-7.4869821, 38.1980385], [-7.4869648, 38.1980674], [-7.4869574, 38.1981311], [-7.486969, 38.1981749], [-7.487008, 38.1982309], [-7.4870602, 38.1982686], [-7.4871346, 38.1982945], [-7.4872202, 38.1982984]]}, "properties": {"highway": "primary", "junction": "roundabout", "ref": "ER 255"}}, {"type": "Feature", "geometry": {"type": "LineString", "coordinates": [[-7.5277272, 38.4202443], [-7.5275793, 38.4202403], [-7.5273862, 38.4202382], [-7.5271877, 38.4202235], [-7.5270402, 38.4201962], [-7.5269345, 38.4202003], [-7.5268793, 38.4202025], [-7.5268141, 38.420213], [-7.5266853, 38.420236], [-7.5265747, 38.4202693], [-7.5264064, 38.4203346], [-7.5262824, 38.4204005], [-7.5261375, 38.420493], [-7.5259485, 38.4206574]]}, "properties": {"highway": "primary", "lanes": "1", "maxspeed": "50", "name": "Via do Grande Lago", "oneway": "yes", "postal_code": "7200-232", "ref": "EN 256;ER 255", "surface": "asphalt"}}, {"type": "Feature", "geometry": {"type": "LineString", "coordinates": [[-7.5259485, 38.4206574], [-7.5263435, 38.4204403], [-7.5264885, 38.4203688], [-7.5266162, 38.4203231], [-7.5267022, 38.420301], [-7.5268286, 38.4202805], [-7.5269717, 38.4202696], [-7.5272195, 38.4202984], [-7.5272592, 38.4203102], [-7.5274743, 38.4203741], [-7.527664, 38.4204775]]}, "properties": {"highway": "primary", "lanes": "1", "maxspeed": "50", "name": "Via do Grande Lago", "oneway": "yes", "postal_code": "7200-232", "ref": "EN 256;ER 255", "surface": "asphalt"}}, {"type": "Feature", "geometry": {"type": "LineString", "coordinates": [[-7.5280364, 38.4203531], [-7.5280621, 38.4202508], [-7.5281752, 38.4201366]]}, "properties": {"highway": "primary", "lanes": "1", "maxspeed": "50", "oneway": "yes", "ref": "EN 256;ER 255", "surface": "asphalt"}}, {"type": "Feature", "geometry": {"type": "LineString", "coordinates": [[-7.5259485, 38.4206574], [-7.5254486, 38.4209736], [-7.5247739, 38.4214234], [-7.5242574, 38.4218592], [-7.5242292, 38.421883], [-7.5232636, 38.422816], [-7.5227829, 38.4232861], [-7.5225737, 38.4235623], [-7.5224615, 38.4237771], [-7.5224354, 38.4238778], [-7.5223838, 38.4240768]]}, "properties": {"highway": "primary", "lanes": "2", "maxspeed": "50", "name": "Via do Grande Lago", "oneway": "no", "postal_code": "7200-232", "ref": "EN 256;ER 255", "surface": "asphalt"}}, {"type": "Feature", "geometry": {"type": "LineString", "coordinates": [[-7.5281752, 38.4201366], [-7.5281068, 38.4201546], [-7.5278377, 38.4202216]]}, "properties": {"highway": "primary", "lanes": "1", "maxspeed": "50", "oneway": "yes", "ref": "EN 256;ER 255", "surface": "asphalt"}}, {"type": "Feature", "geometry": {"type": "LineString", "coordinates": [[-7.5225529, 38.4251255], [-7.5226441, 38.4250818], [-7.5228234, 38.4250203], [-7.5230514, 38.4250056], [-7.523303, 38.4249936]]}, "properties": {"highway": "primary", "lanes": "1", "oneway": "yes", "ref": "ER 255", "surface": "asphalt"}}, {"type": "Feature", "geometry": {"type": "LineString", "coordinates": [[-7.5225353, 38.424796], [-7.522444, 38.4246658], [-7.5223944, 38.4244847], [-7.5223838, 38.4240768]]}, "properties": {"highway": "primary", "lanes": "1", "maxspeed": "50", "oneway": "yes", "ref": "EN 256;ER 255", "surface": "asphalt"}}, {"type": "Feature", "geometry": {"type": "LineString", "coordinates": [[-7.523303, 38.4249936], [-7.5230782, 38.4249572], [-7.522767, 38.4248879], [-7.5226377, 38.4248447], [-7.5225503, 38.424807]]}, "properties": {"highway": "primary", "lanes": "1", "oneway": "yes", "ref": "ER 255", "surface": "asphalt"}}, {"type": "Feature", "geometry": {"type": "LineString", "coordinates": [[-7.5223838, 38.4240768], [-7.5223567, 38.4241776], [-7.5223276, 38.4243737], [-7.5222793, 38.4245418], [-7.5222356, 38.4246392], [-7.5222091, 38.4246983], [-7.5222123, 38.4247643]]}, "properties": {"highway": "primary", "lanes": "1", "maxspeed": "50", "oneway": "yes", "ref": "EN 256;ER 255", "surface": "asphalt"}}, {"type": "Feature", "geometry": {"type": "LineString", "coordinates": [[-7.5255831, 38.427363], [-7.5255301, 38.4273297], [-7.5254707, 38.427281], [-7.5254121, 38.4272101], [-7.52501, 38.4265443], [-7.5246047, 38.4258756], [-7.5241927, 38.4251758]]}, "properties": {"highway": "primary", "name": "Rua da Horta da Santinha", "postal_code": "7200-410", "ref": "ER 255"}}, {"type": "Feature", "geometry": {"type": "LineString", "coordinates": [[-7.5328815, 38.4330228], [-7.5328074, 38.4336141], [-7.5327006, 38.4346652], [-7.5322934, 38.438302], [-7.5322491, 38.438677], [-7.5321378, 38.4396718], [-7.5320037, 38.4408572], [-7.5319675, 38.4410289], [-7.5319185, 38.4411891], [-7.5317924, 38.4415012], [-7.5311517, 38.4427487], [-7.530055, 38.444949], [-7.5295098, 38.4460745], [-7.5271582, 38.450784], [-7.5269514, 38.451186], [-7.5268017, 38.4514999], [-7.5266953, 38.4517563], [-7.5266061, 38.4519885], [-7.5265329, 38.4522635], [-7.5264677, 38.4525795], [-7.5264418, 38.4528134], [-7.5264317, 38.4530046], [-7.5264219, 38.4561553], [-7.5263428, 38.4622269], [-7.5263904, 38.4652135], [-7.5261282, 38.4662256], [-7.525824, 38.466831], [-7.5226959, 38.4718934], [-7.5217994, 38.4733442], [-7.5215056, 38.4738196]]}, "properties": {"bicycle": "yes", "foot": "yes", "highway": "primary", "ref": "ER 255", "surface": "asphalt"}}, {"type": "Feature", "geometry": {"type": "LineString", "coordinates": [[-7.5357493, 38.4175046], [-7.5355911, 38.4172583]]}, "properties": {"highway": "primary", "lanes": "1", "oneway": "yes", "ref": "ER 255", "surface": "asphalt"}}, {"type": "Feature", "geometry": {"type": "LineString", "coordinates": [[-7.5355911, 38.4172583], [-7.5355356, 38.4175594]]}, "properties": {"highway": "primary", "lanes": "1", "oneway": "yes", "ref": "ER 255", "surface": "asphalt"}}, {"type": "Feature", "geometry": {"type": "LineString", "coordinates": [[-7.5355087, 38.4175915], [-7.5354165, 38.4176332], [-7.5353075, 38.4176746], [-7.5350637, 38.4177293]]}, "properties": {"highway": "primary", "maxspeed": "50", "oneway": "yes", "ref": "EN 256;ER 255", "surface": "asphalt"}}, {"type": "Feature", "geometry": {"type": "LineString", "coordinates": [[-7.5355911, 38.4172583], [-7.535501, 38.4170474], [-7.535162, 38.4165072], [-7.5342607, 38.4151553], [-7.5330712, 38.4132711], [-7.532977, 38.4130241], [-7.5328351, 38.4123317], [-7.5325182, 38.4104803], [-7.5324029, 38.4101573], [-7.5323386, 38.4100429], [-7.5321727, 38.4097481], [-7.5321364, 38.4096836], [-7.5295635, 38.4048601], [-7.5291843, 38.4041491], [-7.5273943, 38.4008216], [-7.5224125, 38.3914445], [-7.5222342, 38.3910001], [-7.5220889, 38.3905905], [-7.5220156, 38.3901874], [-7.5219831, 38.3897112], [-7.5220029, 38.3894224]]}, "properties": {"highway": "primary", "lanes": "2", "oneway": "no", "ref": "ER 255", "surface": "asphalt"}}, {"type": "Feature", "geometry": {"type": "LineString", "coordinates": [[-7.5350637, 38.4177293], [-7.535331, 38.4177416], [-7.5354509, 38.4177597], [-7.535563, 38.4177954]]}, "properties": {"highway": "primary", "maxspeed": "50", "oneway": "yes", "ref": "EN 256;ER 255", "surface": "asphalt"}}, {"type": "Feature", "geometry": {"type": "LineString", "coordinates": [[-7.5350637, 38.4177293], [-7.5341639, 38.4178254], [-7.5337975, 38.4178664], [-7.5335204, 38.4179239], [-7.5331554, 38.4180464], [-7.5326677, 38.4182937], [-7.5325028, 38.4183768], [-7.5314497, 38.4189074], [-7.5298771, 38.4196998], [-7.5297099, 38.4197755], [-7.5294524, 38.4198821], [-7.5291915, 38.4199469], [-7.5284327, 38.4200689], [-7.5281752, 38.4201366]]}, "properties": {"highway": "primary", "lanes": "2", "maxspeed": "50", "name": "Via do Grande Lago", "oneway": "no", "postal_code": "7200-232", "ref": "EN 256;ER 255", "surface": "asphalt"}}, {"type": "Feature", "geometry": {"type": "LineString", "coordinates": [[-7.5224166, 38.3876223], [-7.5223227, 38.387863], [-7.5222768, 38.3879779], [-7.522228, 38.3880651], [-7.5221566, 38.388164], [-7.5220696, 38.3882471], [-7.5219563, 38.3883037]]}, "properties": {"highway": "primary", "oneway": "yes", "ref": "ER 255"}}, {"type": "Feature", "geometry": {"type": "LineString", "coordinates": [[-7.5218008, 38.3887142], [-7.5218948, 38.388819], [-7.5219648, 38.3889583], [-7.521991, 38.3891571], [-7.5220029, 38.3894224]]}, "properties": {"highway": "primary", "oneway": "yes", "ref": "ER 255"}}, {"type": "Feature", "geometry": {"type": "LineString", "coordinates": [[-7.5224166, 38.3876223], [-7.5225238, 38.3872054], [-7.5225657, 38.3869045], [-7.5225717, 38.3866369], [-7.522506, 38.3863055], [-7.5224083, 38.386039], [-7.5222805, 38.385787], [-7.5219432, 38.3852667], [-7.5214574, 38.3845492], [-7.5206351, 38.3833122], [-7.5202703, 38.3827528], [-7.5200413, 38.3823736], [-7.5199068, 38.3820722], [-7.5196914, 38.3814679], [-7.5190362, 38.3796825], [-7.5187008, 38.3784901], [-7.517792, 38.3742257], [-7.5176305, 38.3738201], [-7.5159236, 38.3706187], [-7.5151839, 38.3691752]]}, "properties": {"highway": "primary", "ref": "ER 255"}}, {"type": "Feature", "geometry": {"type": "LineString", "coordinates": [[-7.5221892, 38.3884676], [-7.5221906, 38.3883453], [-7.5222904, 38.3880568], [-7.5223647, 38.3878592], [-7.5224166, 38.3876223]]}, "properties": {"highway": "primary", "oneway": "yes", "ref": "ER 255"}}, {"type": "Feature", "geometry": {"type": "LineString", "coordinates": [[-7.5220029, 38.3894224], [-7.5220368, 38.3892568], [-7.5220506, 38.3889818], [-7.5220533, 38.3888323], [-7.522081, 38.3887522], [-7.5221435, 38.3886468]]}, "properties": {"highway": "primary", "oneway": "yes", "ref": "ER 255"}}, {"type": "Feature", "geometry": {"type": "LineString", "coordinates": [[-7.5219563, 38.3883037], [-7.5218765, 38.3883046], [-7.5218004, 38.3883233], [-7.5217343, 38.3883582], [-7.5216836, 38.3884065], [-7.5216526, 38.3884641], [-7.5216439, 38.3885262], [-7.5216571, 38.3885853], [-7.5216905, 38.3886393], [-7.5217414, 38.388684], [-7.5218008, 38.3887142], [-7.5219245, 38.3887355], [-7.5220473, 38.3887113], [-7.5221435, 38.3886468], [-7.5221916, 38.3885612], [-7.5221892, 38.3884676], [-7.5221425, 38.3883894], [-7.5220605, 38.3883317], [-7.5219563, 38.3883037]]}, "properties": {"highway": "primary", "junction": "roundabout", "ref": "ER 255"}}, {"type": "Feature", "geometry": {"type": "LineString", "coordinates": [[-7.5064719, 38.3405552], [-7.5062011, 38.3402405], [-7.5061079, 38.3400913], [-7.5060255, 38.3399298], [-7.5059488, 38.3397247], [-7.5058936, 38.3395091], [-7.5058717, 38.3393557], [-7.505865, 38.3391824], [-7.5058951, 38.3388952], [-7.5059438, 38.338724], [-7.506002, 38.3385685], [-7.506186, 38.338254], [-7.5063866, 38.3379944], [-7.5066875, 38.3377111], [-7.5086234, 38.3363028], [-7.5090971, 38.3360222], [-7.5091149, 38.3360117], [-7.5095713, 38.3357835], [-7.5099525, 38.3356262], [-7.5103938, 38.3354964], [-7.5108903, 38.3353784], [-7.5115674, 38.3352879], [-7.5121391, 38.3352564], [-7.5145063, 38.3352603]]}, "properties": {"highway": "primary", "ref": "ER 255"}}, {"type": "Feature", "geometry": {"type": "LineString", "coordinates": [[-7.5121074, 38.3460039], [-7.5105669, 38.3444867], [-7.510551, 38.344471], [-7.5094459, 38.3433827], [-7.5090099, 38.3429542], [-7.5088373, 38.3427846], [-7.5077557, 38.3417218]]}, "properties": {"highway": "primary", "ref": "ER 255"}}, {"type": "Feature", "geometry": {"type": "LineString", "coordinates": [[-7.5146501, 38.3642866], [-7.5146678, 38.363456], [-7.5147121, 38.361374], [-7.5149306, 38.3511089], [-7.5148885, 38.3503937], [-7.5148691, 38.3501843], [-7.5147074, 38.3495922], [-7.5145594, 38.3491547], [-7.5142919, 38.3485796], [-7.5140922, 38.3482149], [-7.5138777, 38.3478885], [-7.5136556, 38.3475987], [-7.5132649, 38.3471547]]}, "properties": {"highway": "primary", "ref": "ER 255"}}, {"type": "Feature", "geometry": {"type": "LineString", "coordinates": [[-7.5564989, 38.2817434], [-7.5565663, 38.2816687], [-7.5566067, 38.2816002], [-7.5566569, 38.281484], [-7.5566813, 38.2813859], [-7.5566921, 38.2812968], [-7.556701, 38.2811761], [-7.5567321, 38.2808645], [-7.5567688, 38.280665], [-7.5568253, 38.2804391], [-7.556897, 38.280203], [-7.5570267, 38.2798985], [-7.5571781, 38.2796086], [-7.5573728, 38.2793078], [-7.5574898, 38.2791498], [-7.5576645, 38.2789372], [-7.5578814, 38.2786975], [-7.5583395, 38.2782005], [-7.55898, 38.2775044], [-7.5600198, 38.2762666], [-7.5601797, 38.2760489], [-7.5603533, 38.2757235], [-7.5603845, 38.2755368], [-7.5603902, 38.2755031], [-7.5604382, 38.2752159], [-7.5604332, 38.2749711], [-7.5603747, 38.274672], [-7.5602297, 38.2742501], [-7.5599478, 38.2736881], [-7.5597738, 38.2732772], [-7.5594871, 38.2726667], [-7.5594508, 38.2724258], [-7.5594367, 38.2722091], [-7.5594676, 38.2720176], [-7.5595215, 38.2717966], [-7.5596239, 38.2715852], [-7.5599075, 38.2712324], [-7.5603779, 38.2708088], [-7.5605707, 38.270601], [-7.5607183, 38.2703901], [-7.5608253, 38.2701229], [-7.5608756, 38.2697934], [-7.5608537, 38.2694881], [-7.5608113, 38.2692979], [-7.56038, 38.2673609], [-7.5603532, 38.2669139], [-7.5604163, 38.2666829], [-7.5604559, 38.2665379], [-7.560734, 38.2661252], [-7.5609593, 38.2659025], [-7.5619477, 38.2649254], [-7.5629013, 38.2639828], [-7.5650902, 38.2618296], [-7.5656479, 38.2613899], [-7.5662763, 38.2610377], [-7.5692796, 38.2598259], [-7.5705241, 38.2592869], [-7.5709597, 38.2588653], [-7.5711703, 38.2584365], [-7.5712974, 38.2580079], [-7.5715621, 38.2574972], [-7.572043, 38.2569849], [-7.5730744, 38.2562585], [-7.5737586, 38.2558611], [-7.5740853, 38.2557692], [-7.574457, 38.2556974], [-7.5748782, 38.2557053], [-7.5752341, 38.2557564], [-7.5763606, 38.2561325], [-7.5767469, 38.2561755], [-7.5772194, 38.2561496], [-7.5777125, 38.2560468], [-7.5782274, 38.2557893], [-7.5790737, 38.2551715], [-7.5805939, 38.2540617], [-7.5814362, 38.2534657], [-7.5817215, 38.2532658], [-7.5819307, 38.2530602], [-7.5820896, 38.2528729], [-7.582218, 38.2526515], [-7.5822932, 38.2523722], [-7.5823259, 38.25212], [-7.5822906, 38.2516222]]}, "properties": {"highway": "primary", "ref": "ER 255"}}, {"type": "Feature", "geometry": {"type": "LineString", "coordinates": [[-7.5822287, 38.2510249], [-7.5822094, 38.2507482], [-7.5822205, 38.2504551], [-7.5822424, 38.2502198], [-7.5822776, 38.2499624], [-7.5823172, 38.2497978], [-7.5823971, 38.2495497], [-7.5825318, 38.2491902], [-7.5828433, 38.2485643], [-7.5831572, 38.2479514], [-7.5833826, 38.2474951], [-7.5835045, 38.2473541]]}, "properties": {"highway": "primary", "ref": "ER 255"}}, {"type": "Feature", "geometry": {"type": "LineString", "coordinates": [[-7.5822906, 38.2516222], [-7.5822287, 38.2510249]]}, "properties": {"bridge": "yes", "highway": "primary", "layer": "1", "ref": "ER 255"}}, {"type": "Feature", "geometry": {"type": "LineString", "coordinates": [[-7.402006, 38.5999107], [-7.4021191, 38.6000221], [-7.4021956, 38.6000914], [-7.4022842, 38.6001578], [-7.4024631, 38.6002477], [-7.4027695, 38.6003666], [-7.4034797, 38.6006712], [-7.4038409, 38.6008716], [-7.4040629, 38.6011342], [-7.404635, 38.6020088], [-7.4060518, 38.6042951], [-7.4066158, 38.6051917], [-7.4069229, 38.6056743], [-7.4070664, 38.605896], [-7.4072085, 38.606083], [-7.4073198, 38.6061926], [-7.4074224, 38.6062759], [-7.4076578, 38.6064299], [-7.407926, 38.6065934], [-7.4081064, 38.6067103], [-7.4082667, 38.6068303], [-7.4083277, 38.6069031], [-7.408378, 38.6069849], [-7.4084196, 38.6071033], [-7.4084591, 38.6073118], [-7.4085248, 38.607742], [-7.408608, 38.6082466], [-7.4086502, 38.6084384], [-7.4086884, 38.6085595], [-7.4087475, 38.6087046], [-7.4088252, 38.6088518], [-7.4089111, 38.6089865], [-7.4090432, 38.6092165], [-7.4090955, 38.6093664], [-7.4091089, 38.6094796], [-7.4091055, 38.6095901], [-7.4090827, 38.6097143], [-7.409023, 38.6098652], [-7.4089513, 38.6099805], [-7.4086744, 38.6103221], [-7.4085872, 38.6104521], [-7.4085134, 38.6106061], [-7.4084926, 38.6107188], [-7.4085074, 38.6108424], [-7.408549, 38.6109619], [-7.4086475, 38.6111069], [-7.4114585, 38.6149907], [-7.4115747, 38.6151742], [-7.4116201, 38.6152619], [-7.4116457, 38.615335], [-7.4116593, 38.6154558], [-7.4116481, 38.6155498], [-7.4116157, 38.6156626]]}, "properties": {"highway": "primary", "lanes": "2", "ref": "ER 255", "surface": "asphalt"}}, {"type": "Feature", "geometry": {"type": "LineString", "coordinates": [[-7.4018485, 38.5997486], [-7.402006, 38.5999107]]}, "properties": {"bridge": "yes", "highway": "primary", "lanes": "2", "layer": "1", "ref": "ER 255", "surface": "asphalt"}}, {"type": "Feature", "geometry": {"type": "LineString", "coordinates": [[-7.4135122, 38.5754293], [-7.413886, 38.5752294]]}, "properties": {"bridge": "yes", "highway": "primary", "lanes": "2", "layer": "1", "ref": "ER 255", "surface": "asphalt"}}, {"type": "Feature", "geometry": {"type": "LineString", "coordinates": [[-7.4027199, 38.6312626], [-7.4023162, 38.6317298]]}, "properties": {"bridge": "yes", "highway": "primary", "lanes": "2", "layer": "1", "maxspeed": "90", "ref": "ER 255"}}, {"type": "Feature", "geometry": {"type": "LineString", "coordinates": [[-7.4110008, 38.6214797], [-7.4109699, 38.6215598], [-7.4109348, 38.6216403], [-7.4108468, 38.6217789], [-7.4106523, 38.6220231], [-7.4105212, 38.6221662]]}, "properties": {"highway": "primary", "lanes": "2", "maxspeed": "50", "ref": "ER 255"}}, {"type": "Feature", "geometry": {"type": "LineString", "coordinates": [[-7.4105681, 38.6180107], [-7.4105852, 38.6183704], [-7.4106008, 38.6185746], [-7.4106043, 38.6186201], [-7.4106271, 38.618999], [-7.4106522, 38.6194598], [-7.4106536, 38.6194888], [-7.4106864, 38.6201212], [-7.4106868, 38.6201285], [-7.4106976, 38.6202536], [-7.4107067, 38.6203666], [-7.4107293, 38.6204578], [-7.4107767, 38.6205674], [-7.4108773, 38.6207817], [-7.4109781, 38.6209977], [-7.4110115, 38.6210853], [-7.4110335, 38.6211808], [-7.4110268, 38.6213057], [-7.4110103, 38.6214162], [-7.4110008, 38.6214797]]}, "properties": {"highway": "primary", "lanes": "2", "maxspeed": "50", "name": "Rua Jo\u00e3o Anast\u00e1cio Rosa", "ref": "ER 255"}}, {"type": "Feature", "geometry": {"type": "LineString", "coordinates": [[-7.5211072, 38.3325159], [-7.5206886, 38.3327654], [-7.5201393, 38.3331551], [-7.5199429, 38.3332998], [-7.5187145, 38.3343391], [-7.5183121, 38.334701], [-7.51815, 38.3348027], [-7.5179098, 38.3349535], [-7.5176916, 38.3350466], [-7.5174739, 38.335112], [-7.5172992, 38.3351453]]}, "properties": {"highway": "primary", "oneway": "yes", "ref": "ER 255"}}, {"type": "Feature", "geometry": {"type": "LineString", "coordinates": [[-7.5211072, 38.3325159], [-7.5217232, 38.3320108], [-7.5219389, 38.3317945], [-7.5221947, 38.3315033], [-7.5224053, 38.3312122], [-7.5228432, 38.3305518], [-7.5231246, 38.3302392], [-7.5233875, 38.3300168], [-7.5237233, 38.329811], [-7.5238107, 38.3297574], [-7.5242442, 38.3295817], [-7.5246283, 38.329485], [-7.5250263, 38.3294202], [-7.5256165, 38.3294133], [-7.5277206, 38.3295936], [-7.5281018, 38.3296188], [-7.5284669, 38.329622], [-7.5287638, 38.3296157], [-7.5291249, 38.3295936], [-7.5324269, 38.3293223], [-7.532688, 38.3292886], [-7.5328581, 38.3292615], [-7.5330193, 38.3292234], [-7.5333671, 38.329119], [-7.5336462, 38.328992], [-7.5338908, 38.3288402], [-7.5341549, 38.3286242], [-7.5348701, 38.3279361], [-7.5350389, 38.3276674], [-7.5351512, 38.3274439], [-7.5352154, 38.3272173], [-7.5352274, 38.3270159], [-7.5351993, 38.3267955], [-7.5350629, 38.3262195], [-7.5350228, 38.3260055], [-7.5350308, 38.3257663], [-7.535079, 38.3254862], [-7.5351993, 38.3252218], [-7.5353478, 38.3249794], [-7.5364832, 38.3237141], [-7.5366718, 38.3235598], [-7.5369326, 38.3234056], [-7.5374903, 38.3230971], [-7.5377511, 38.322902], [-7.538048, 38.322625], [-7.5395766, 38.3203712], [-7.5397652, 38.3201477], [-7.5399779, 38.3199431], [-7.5402266, 38.3197794], [-7.5424012, 38.318514], [-7.5429148, 38.3181362], [-7.5458477, 38.3154982], [-7.5462205, 38.3151967], [-7.5476732, 38.3140218], [-7.5480263, 38.3136472], [-7.5481988, 38.3133733], [-7.5482871, 38.3131152], [-7.5483272, 38.3127689], [-7.5482791, 38.3124415], [-7.5482637, 38.3123976], [-7.5481788, 38.312155], [-7.5472023, 38.3100238], [-7.5467464, 38.3090194], [-7.5466782, 38.3087675], [-7.5466622, 38.308481], [-7.5467143, 38.3081788], [-7.5468748, 38.307886], [-7.5469892, 38.3077544], [-7.5471075, 38.3076436], [-7.5472401, 38.3075392], [-7.5473964, 38.3074484], [-7.5475967, 38.3073486], [-7.5478739, 38.3072469], [-7.5500525, 38.3067116], [-7.5504296, 38.3065763], [-7.5507506, 38.3063905], [-7.5510274, 38.3061512], [-7.5513791, 38.3057404], [-7.5514066, 38.3057061], [-7.5516784, 38.3053663], [-7.5525025, 38.3043362], [-7.5528636, 38.3037947], [-7.5539707, 38.3018041], [-7.5542903, 38.3011581], [-7.5546524, 38.3001984], [-7.5548269, 38.2996205], [-7.5549798, 38.2989449], [-7.5550648, 38.2985232]]}, "properties": {"highway": "primary", "ref": "ER 255"}}, {"type": "Feature", "geometry": {"type": "LineString", "coordinates": [[-7.4221429, 38.1700513], [-7.4213653, 38.1693776], [-7.421074, 38.1691178]]}, "properties": {"highway": "primary", "oneway": "yes", "ref": "ER 255"}}, {"type": "Feature", "geometry": {"type": "LineString", "coordinates": [[-7.4205674, 38.167817], [-7.4205888, 38.1682539], [-7.420621, 38.1684394], [-7.4206746, 38.1686292], [-7.4208205, 38.1689118], [-7.4209493, 38.169072], [-7.4210039, 38.1691276]]}, "properties": {"highway": "primary", "oneway": "yes", "ref": "ER 255", "surface": "asphalt"}}, {"type": "Feature", "geometry": {"type": "LineString", "coordinates": [[-7.452706, 38.1393258], [-7.4523676, 38.1393057], [-7.4523245, 38.1393053], [-7.4522688, 38.1393148], [-7.4522406, 38.1393209], [-7.4522135, 38.1393296], [-7.4521765, 38.1393435], [-7.4521493, 38.1393569], [-7.4521267, 38.1393748], [-7.4519126, 38.1395877], [-7.451901, 38.1395967], [-7.4516899, 38.1398054], [-7.4515307, 38.1399629], [-7.4514719, 38.1399896], [-7.451419, 38.1399992], [-7.451357, 38.1399849], [-7.4512715, 38.1399496]]}, "properties": {"highway": "primary", "name": "Rua Defensores de Santo Aleixo", "ref": "ER 255"}}, {"type": "Feature", "geometry": {"type": "LineString", "coordinates": [[-7.5215056, 38.4738196], [-7.5214278, 38.4739457]]}, "properties": {"bicycle": "yes", "bridge": "yes", "foot": "yes", "highway": "primary", "layer": "1", "ref": "ER 255", "surface": "asphalt"}}, {"type": "Feature", "geometry": {"type": "LineString", "coordinates": [[-7.5581612, 38.291688], [-7.558083, 38.2918599], [-7.5579807, 38.2920304], [-7.5577048, 38.2923374], [-7.5574797, 38.2925223], [-7.5571714, 38.2927773]]}, "properties": {"highway": "primary", "maxspeed": "50", "overtaking": "no", "ref": "ER 255", "surface": "asphalt"}}, {"type": "Feature", "geometry": {"type": "LineString", "coordinates": [[-7.5564059, 38.2934042], [-7.5568453, 38.2930433], [-7.5571714, 38.2927773]]}, "properties": {"highway": "primary", "maxspeed": "50", "overtaking": "no", "ref": "ER 255", "surface": "asphalt"}}, {"type": "Feature", "geometry": {"type": "LineString", "coordinates": [[-7.5581612, 38.291688], [-7.5581925, 38.2915982], [-7.5582122, 38.2914853], [-7.5582263, 38.2913091], [-7.5582285, 38.2911545], [-7.5582164, 38.2909558], [-7.5581802, 38.2907898], [-7.5581175, 38.2906044], [-7.5580598, 38.2904745], [-7.5579535, 38.2903168], [-7.5577877, 38.2901316], [-7.5576259, 38.2899652], [-7.5574417, 38.2897941], [-7.5571933, 38.2895859], [-7.5561664, 38.2888406], [-7.5554302, 38.2883165], [-7.5550841, 38.2880646], [-7.5547308, 38.2877988], [-7.5543821, 38.2875043], [-7.5541111, 38.2872448], [-7.5539087, 38.2870269], [-7.5537562, 38.2868073], [-7.5536384, 38.286605], [-7.5535512, 38.2864162], [-7.5534823, 38.286216], [-7.553435, 38.2860055], [-7.5534118, 38.2857715], [-7.5534008, 38.285583], [-7.5534321, 38.285362], [-7.5534826, 38.2851624], [-7.5535526, 38.2849474], [-7.5536429, 38.284753], [-7.5537531, 38.2845487], [-7.5539176, 38.2843186], [-7.5540839, 38.2841067], [-7.5545051, 38.2836496], [-7.5556611, 38.2825494]]}, "properties": {"highway": "primary", "ref": "ER 255", "surface": "asphalt"}}, {"type": "Feature", "geometry": {"type": "LineString", "coordinates": [[-7.5281071, 38.428054], [-7.5282135, 38.4281191], [-7.5282389, 38.4281496]]}, "properties": {"highway": "primary", "name": "Rua Jos\u00e9 Maria Carvalho", "oneway": "yes", "postal_code": "7200-410", "ref": "ER 255"}}, {"type": "Feature", "geometry": {"type": "LineString", "coordinates": [[-7.5284756, 38.4283478], [-7.5284416, 38.4282501], [-7.5284253, 38.4282233]]}, "properties": {"bicycle": "yes", "foot": "yes", "highway": "primary", "name": "Rua Doutor M\u00e1rio Jacinto Machado", "oneway": "yes", "postal_code": "7200-204", "ref": "ER 255", "surface": "asphalt"}}, {"type": "Feature", "geometry": {"type": "LineString", "coordinates": [[-7.4111756, 38.6164366], [-7.4109203, 38.6168472], [-7.4108034, 38.6170495], [-7.4107289, 38.6172222], [-7.4106489, 38.6174143], [-7.4106046, 38.617562], [-7.4105727, 38.6176966], [-7.4105617, 38.617877], [-7.4105681, 38.6180107]]}, "properties": {"highway": "primary", "lanes": "2", "maxspeed": "50", "name": "Rua Jo\u00e3o Anast\u00e1cio Rosa", "ref": "ER 255", "surface": "asphalt"}}, {"type": "Feature", "geometry": {"type": "LineString", "coordinates": [[-7.4116157, 38.6156626], [-7.411525, 38.6158597], [-7.4113994, 38.6160822], [-7.4111756, 38.6164366]]}, "properties": {"highway": "primary", "lanes": "2", "ref": "ER 255", "surface": "asphalt"}}, {"type": "Feature", "geometry": {"type": "LineString", "coordinates": [[-7.4023162, 38.6317298], [-7.4016121, 38.6325373], [-7.4014136, 38.6327133], [-7.4012178, 38.6328453], [-7.4010488, 38.6329396], [-7.4008718, 38.6330182]]}, "properties": {"highway": "primary", "lanes": "2", "maxspeed": "90", "ref": "ER 255"}}, {"type": "Feature", "geometry": {"type": "LineString", "coordinates": [[-7.4059736, 38.6274654], [-7.4042004, 38.6295524], [-7.4037321, 38.630087], [-7.4027199, 38.6312626]]}, "properties": {"highway": "primary", "lanes": "2", "maxspeed": "90", "ref": "ER 255"}}, {"type": "Feature", "geometry": {"type": "LineString", "coordinates": [[-7.4494128, 38.1447929], [-7.4499268, 38.1448959], [-7.4508988, 38.145087], [-7.4509681, 38.1450963], [-7.4510158, 38.1450993], [-7.4510569, 38.1450958], [-7.4510976, 38.145089], [-7.451131, 38.1450768], [-7.4511712, 38.1450578], [-7.4512071, 38.1450334], [-7.4516977, 38.1445577], [-7.4517902, 38.1444595], [-7.452088, 38.1441402], [-7.452165, 38.1440441], [-7.4522357, 38.1439409], [-7.452482, 38.1435488], [-7.4525559, 38.1434325]]}, "properties": {"highway": "primary", "name": "Rua da Amareleja", "postal_code": "7860-112", "ref": "ER 255", "surface": "asphalt"}}, {"type": "Feature", "geometry": {"type": "LineString", "coordinates": [[-7.4525559, 38.1434325], [-7.4525991, 38.143382], [-7.452661, 38.1433195], [-7.4534615, 38.142763], [-7.453504, 38.1427136], [-7.4535255, 38.1426615]]}, "properties": {"highway": "primary", "name": "Rua do Sequeiro", "postal_code": "7860-168", "ref": "ER 255", "surface": "asphalt"}}, {"type": "Feature", "geometry": {"type": "LineString", "coordinates": [[-7.4535255, 38.1426615], [-7.4535298, 38.1426008], [-7.4535043, 38.142547], [-7.4534149, 38.1424156], [-7.4532335, 38.1421108], [-7.4531253, 38.1419353], [-7.4530915, 38.1418316], [-7.4530763, 38.1412362], [-7.4530834, 38.1411375], [-7.4531381, 38.141051], [-7.4533057, 38.1409085], [-7.453791, 38.1405589], [-7.4540696, 38.1403448], [-7.4542702, 38.1401906], [-7.4543789, 38.1401412]]}, "properties": {"highway": "primary", "name": "Rua do Matadouro", "postal_code": "7860-164", "ref": "ER 255", "surface": "sett"}}, {"type": "Feature", "geometry": {"type": "LineString", "coordinates": [[-7.400855, 38.5984464], [-7.4008649, 38.5984949], [-7.4009039, 38.5986391], [-7.4009463, 38.59876], [-7.4009975, 38.5988414]]}, "properties": {"highway": "primary", "lanes": "2", "ref": "ER 255", "surface": "asphalt"}}, {"type": "Feature", "geometry": {"type": "LineString", "coordinates": [[-7.4008568, 38.5978373], [-7.4008395, 38.5979548], [-7.4008299, 38.5980771], [-7.4008308, 38.5982277], [-7.400845, 38.5983791], [-7.400855, 38.5984464]]}, "properties": {"highway": "primary", "lanes": "2", "ref": "ER 255", "surface": "asphalt"}}, {"type": "Feature", "geometry": {"type": "LineString", "coordinates": [[-7.4009975, 38.5988414], [-7.4010689, 38.5989261], [-7.4011879, 38.5990625], [-7.4013648, 38.5992386], [-7.4018485, 38.5997486]]}, "properties": {"highway": "primary", "lanes": "2", "ref": "ER 255", "surface": "asphalt"}}, {"type": "Feature", "geometry": {"type": "LineString", "coordinates": [[-7.4210039, 38.1691276], [-7.4210387, 38.1691618]]}, "properties": {"highway": "primary", "oneway": "yes", "ref": "ER 255", "surface": "asphalt"}}, {"type": "Feature", "geometry": {"type": "LineString", "coordinates": [[-7.421074, 38.1691178], [-7.4208583, 38.1688283], [-7.4206891, 38.1684371], [-7.4205674, 38.167817]]}, "properties": {"highway": "primary", "oneway": "yes", "ref": "ER 255", "surface": "asphalt"}}, {"type": "Feature", "geometry": {"type": "LineString", "coordinates": [[-7.4210387, 38.1691618], [-7.4212146, 38.1693381], [-7.4212647, 38.1693884], [-7.4217529, 38.1697679], [-7.4221429, 38.1700513]]}, "properties": {"highway": "primary", "oneway": "yes", "ref": "ER 255"}}, {"type": "Feature", "geometry": {"type": "LineString", "coordinates": [[-7.5175198, 38.3351914], [-7.5178239, 38.3351021], [-7.5179472, 38.335047], [-7.518193, 38.3349013], [-7.518539, 38.3346705], [-7.5192871, 38.333979], [-7.519852, 38.3335146], [-7.5202262, 38.3332347], [-7.5202739, 38.333199], [-7.5211072, 38.3325159]]}, "properties": {"highway": "primary", "oneway": "yes", "ref": "ER 255"}}, {"type": "Feature", "geometry": {"type": "LineString", "coordinates": [[-7.5172992, 38.3351453], [-7.5171588, 38.3351723], [-7.5168637, 38.3352018], [-7.5161127, 38.3352102], [-7.5153148, 38.3352102], [-7.5145063, 38.3352603]]}, "properties": {"highway": "primary", "oneway": "yes", "ref": "ER 255"}}, {"type": "Feature", "geometry": {"type": "LineString", "coordinates": [[-7.4043219, 38.6925027], [-7.404308, 38.6926872], [-7.4042718, 38.6931674], [-7.4042239, 38.6938192], [-7.4042179, 38.6940384], [-7.4042239, 38.694218], [-7.40424, 38.6944059], [-7.4042608, 38.6945582], [-7.4042984, 38.6947037], [-7.4043173, 38.6947709], [-7.4043243, 38.694788], [-7.4043413, 38.6948293], [-7.4043828, 38.6949329], [-7.4044439, 38.6950485], [-7.4045364, 38.6952234], [-7.4046779, 38.695428], [-7.4048073, 38.6956023], [-7.4050815, 38.6959252], [-7.4052296, 38.6960963], [-7.4053274, 38.6962049], [-7.4056986, 38.6966421], [-7.4058607, 38.6968149], [-7.4059967, 38.6969476], [-7.4060866, 38.6970597], [-7.4063991, 38.6974376], [-7.4065264, 38.6975915], [-7.4069034, 38.6980253], [-7.4071893, 38.6983423], [-7.4072874, 38.6984511], [-7.4073956, 38.6985932], [-7.4074264, 38.69863], [-7.4078086, 38.6990866], [-7.4084891, 38.6999628]]}, "properties": {"highway": "primary", "lanes": "2", "maxspeed": "50", "ref": "ER 255"}}, {"type": "Feature", "geometry": {"type": "LineString", "coordinates": [[-7.4105212, 38.6221662], [-7.4087803, 38.6241987], [-7.4075467, 38.6256374], [-7.4064206, 38.6269507], [-7.4059736, 38.6274654]]}, "properties": {"highway": "primary", "lanes": "2", "maxspeed": "50", "ref": "ER 255"}}, {"type": "Feature", "geometry": {"type": "LineString", "coordinates": [[-7.4046521, 38.5799938], [-7.404841, 38.5798965]]}, "properties": {"highway": "primary", "lanes": "2", "ref": "ER 255", "surface": "asphalt"}}, {"type": "Feature", "geometry": {"type": "LineString", "coordinates": [[-7.404841, 38.5798965], [-7.4135122, 38.5754293]]}, "properties": {"highway": "primary", "lanes": "2", "ref": "ER 255", "surface": "asphalt"}}, {"type": "Feature", "geometry": {"type": "LineString", "coordinates": [[-7.404445, 38.5801185], [-7.4046521, 38.5799938]]}, "properties": {"highway": "primary", "lanes": "2", "ref": "ER 255", "surface": "asphalt"}}, {"type": "Feature", "geometry": {"type": "LineString", "coordinates": [[-7.413886, 38.5752294], [-7.4143628, 38.5749832], [-7.4153206, 38.5744855], [-7.4198469, 38.5721425], [-7.4325824, 38.5656073], [-7.4346561, 38.5645432], [-7.4396685, 38.5618825], [-7.439782, 38.5618223], [-7.4482461, 38.5574796], [-7.4507425, 38.5562018], [-7.4510215, 38.556059]]}, "properties": {"highway": "primary", "lanes": "2", "ref": "ER 255", "surface": "asphalt"}}, {"type": "Feature", "geometry": {"type": "LineString", "coordinates": [[-7.4510215, 38.556059], [-7.4511082, 38.5560146]]}, "properties": {"bridge": "yes", "highway": "primary", "lanes": "2", "layer": "1", "ref": "ER 255", "surface": "asphalt"}}, {"type": "Feature", "geometry": {"type": "LineString", "coordinates": [[-7.4511082, 38.5560146], [-7.4519509, 38.5555833], [-7.4538167, 38.5546268], [-7.4590738, 38.5518905], [-7.4591519, 38.5518459], [-7.4623783, 38.5501799], [-7.4636021, 38.5495451], [-7.4636667, 38.5495174], [-7.4638405, 38.5494428], [-7.4639859, 38.5493684], [-7.4645986, 38.5490549], [-7.4663957, 38.5481236], [-7.4679085, 38.547381], [-7.4694053, 38.5466041], [-7.4704503, 38.5460901], [-7.4720301, 38.5452694], [-7.4726921, 38.5449218], [-7.4741806, 38.5441402], [-7.4749347, 38.5437487], [-7.4779902, 38.5419872], [-7.4800491, 38.5406935], [-7.4813151, 38.5398429], [-7.4814384, 38.539751], [-7.4849208, 38.5371391]]}, "properties": {"highway": "primary", "lanes": "2", "ref": "ER 255", "surface": "asphalt"}}, {"type": "Feature", "geometry": {"type": "LineString", "coordinates": [[-7.4849208, 38.5371391], [-7.4850015, 38.5370785]]}, "properties": {"bridge": "yes", "highway": "primary", "lanes": "2", "layer": "1", "ref": "ER 255", "surface": "asphalt"}}, {"type": "Feature", "geometry": {"type": "LineString", "coordinates": [[-7.4457825, 38.1451669], [-7.4459133, 38.1451132], [-7.4460567, 38.1450753], [-7.4469004, 38.1449864], [-7.4471632, 38.1449556], [-7.44864, 38.1447637], [-7.4490557, 38.1447525], [-7.449385, 38.1447873], [-7.4494128, 38.1447929]]}, "properties": {"highway": "primary", "lanes": "2", "ref": "ER 255", "surface": "asphalt"}}, {"type": "Feature", "geometry": {"type": "LineString", "coordinates": [[-7.4503169, 38.1374485], [-7.4502293, 38.1367419], [-7.450223, 38.1366907]]}, "properties": {"highway": "primary", "ref": "ER 255", "surface": "asphalt"}}, {"type": "Feature", "geometry": {"type": "LineString", "coordinates": [[-7.4509785, 38.1396698], [-7.4506256, 38.1393741], [-7.4505661, 38.1393231], [-7.4504814, 38.1392498], [-7.4504766, 38.139019], [-7.4504681, 38.1389009], [-7.4504866, 38.1384558], [-7.4504898, 38.1383443], [-7.4504899, 38.1383097], [-7.4504888, 38.1382289], [-7.4504866, 38.1381547], [-7.4504723, 38.1380723], [-7.4504433, 38.1379824], [-7.450372, 38.1378057], [-7.4503477, 38.1377027]]}, "properties": {"highway": "primary", "ref": "ER 255"}}, {"type": "Feature", "geometry": {"type": "LineString", "coordinates": [[-7.4512715, 38.1399496], [-7.4509785, 38.1396698]]}, "properties": {"highway": "primary", "name": "Rua Lu\u00eds de Cam\u00f5es", "postal_code": "7860-060", "ref": "ER 255"}}, {"type": "Feature", "geometry": {"type": "LineString", "coordinates": [[-7.5241927, 38.4251758], [-7.5242391, 38.4250725], [-7.5242511, 38.4250477], [-7.5242645, 38.4250204]]}, "properties": {"highway": "primary", "lanes": "1", "oneway": "yes", "ref": "ER 255", "surface": "asphalt"}}, {"type": "Feature", "geometry": {"type": "LineString", "coordinates": [[-7.5240819, 38.425016], [-7.5241517, 38.4251167], [-7.5241927, 38.4251758]]}, "properties": {"highway": "primary", "lanes": "1", "oneway": "yes", "ref": "ER 255", "surface": "asphalt"}}, {"type": "Feature", "geometry": {"type": "LineString", "coordinates": [[-7.4205074, 38.1657972], [-7.4204725, 38.1654657], [-7.4203885, 38.1648723], [-7.4203958, 38.1646936], [-7.4208684, 38.1640129], [-7.4209491, 38.1637697], [-7.4211453, 38.1618555], [-7.4211883, 38.1615855], [-7.4212508, 38.1613927], [-7.4213471, 38.1611964], [-7.421446, 38.1610087], [-7.4216386, 38.1606521], [-7.4218466, 38.1602835], [-7.4220727, 38.1599006], [-7.4222698, 38.1595678], [-7.4223355, 38.1594434], [-7.4223945, 38.1593179], [-7.4224502, 38.1591339], [-7.42253, 38.1588128], [-7.4225501, 38.1587226], [-7.4225783, 38.1586204], [-7.4226379, 38.1585023], [-7.4227144, 38.1583889], [-7.4228304, 38.1582587], [-7.4229772, 38.15812], [-7.4230825, 38.1580314], [-7.423232, 38.1579202], [-7.423391, 38.1578126], [-7.4235895, 38.1576803], [-7.4237832, 38.1575569], [-7.4239334, 38.1574635], [-7.4240716, 38.1573955], [-7.4242593, 38.1573333], [-7.4243753, 38.1573154], [-7.4245235, 38.1573064], [-7.4247146, 38.1573096], [-7.4249427, 38.1573235]]}, "properties": {"highway": "primary", "lanes": "2", "ref": "ER 255", "surface": "asphalt"}}, {"type": "Feature", "geometry": {"type": "LineString", "coordinates": [[-7.4249427, 38.1573235], [-7.4252269, 38.1573362]]}, "properties": {"bridge": "yes", "highway": "primary", "lanes": "2", "layer": "1", "ref": "ER 255", "surface": "asphalt"}}, {"type": "Feature", "geometry": {"type": "LineString", "coordinates": [[-7.4546303, 38.1398157], [-7.4545265, 38.139803], [-7.4544319, 38.1397913], [-7.4540532, 38.139741], [-7.4537762, 38.1396995], [-7.4536701, 38.1396742], [-7.4535304, 38.1396251], [-7.4529022, 38.1393958], [-7.452706, 38.1393258]]}, "properties": {"highway": "primary", "name": "Avenida dos Bombeiros Volunt\u00e1rios de Moura", "ref": "ER 255"}}, {"type": "Feature", "geometry": {"type": "LineString", "coordinates": [[-7.4028426, 38.6899785], [-7.4029958, 38.6901657], [-7.4034284, 38.6907042], [-7.4036576, 38.6910112], [-7.4038103, 38.6912157], [-7.4042371, 38.6917871], [-7.4043518, 38.6920371], [-7.4043219, 38.6925027]]}, "properties": {"highway": "primary", "lanes": "2", "maxspeed": "90", "ref": "ER 255"}}, {"type": "Feature", "geometry": {"type": "LineString", "coordinates": [[-7.4084891, 38.6999628], [-7.4085698, 38.7000999], [-7.4087886, 38.7008048], [-7.4088417, 38.7011573], [-7.4089902, 38.7020606], [-7.4090139, 38.7022194], [-7.4090504, 38.7026194]]}, "properties": {"highway": "primary", "lanes": "2", "maxspeed": "90", "ref": "ER 255"}}, {"type": "Feature", "geometry": {"type": "MultiPolygon", "coordinates": [[[[-7.5359118, 38.4176721], [-7.5359045, 38.4176233], [-7.5358795, 38.4175783], [-7.5358388, 38.4175409], [-7.535786, 38.4175145], [-7.5357493, 38.4175046], [-7.5356906, 38.4174999], [-7.5356325, 38.4175081], [-7.5355795, 38.4175285], [-7.5355356, 38.4175594], [-7.5355087, 38.4175915], [-7.5354876, 38.417645], [-7.5354903, 38.4177009], [-7.5355164, 38.417753], [-7.535563, 38.4177954], [-7.5355887, 38.4178097], [-7.5356561, 38.4178303], [-7.5357284, 38.4178321], [-7.5357973, 38.4178148], [-7.5358548, 38.4177804], [-7.5358719, 38.4177641], [-7.5359005, 38.4177204], [-7.5359118, 38.4176721]]]]}, "properties": {"highway": "primary", "junction": "roundabout", "ref": "EN 256;ER 255", "surface": "asphalt"}}, {"type": "Feature", "geometry": {"type": "MultiPolygon", "coordinates": [[[[-7.52804, 38.4203896], [-7.5280364, 38.4203531], [-7.5280118, 38.4203018], [-7.5279667, 38.4202598], [-7.5279064, 38.420232], [-7.5278377, 38.4202216], [-7.5277804, 38.4202268], [-7.5277272, 38.4202443], [-7.5276752, 38.4202787], [-7.5276403, 38.4203245], [-7.5276261, 38.4203766], [-7.5276343, 38.4204296], [-7.527664, 38.4204775], [-7.527693, 38.4205033], [-7.5277406, 38.420529], [-7.5277953, 38.4205433], [-7.527853, 38.4205453], [-7.5279092, 38.4205347], [-7.5279541, 38.4205154], [-7.5279988, 38.4204811], [-7.5280284, 38.4204378], [-7.52804, 38.4203896]]]]}, "properties": {"highway": "primary", "junction": "roundabout", "lanes": "1", "ref": "EN 256;ER 255", "surface": "asphalt"}}, {"type": "Feature", "geometry": {"type": "MultiPolygon", "coordinates": [[[[-7.5226313, 38.425001], [-7.5226307, 38.4249307], [-7.5226028, 38.424864], [-7.5225503, 38.424807], [-7.5225353, 38.424796], [-7.5224629, 38.4247596], [-7.52238, 38.4247414], [-7.522294, 38.424743], [-7.5222123, 38.4247643], [-7.5221446, 38.4248016], [-7.5220904, 38.4248559], [-7.5220595, 38.4249204], [-7.5220546, 38.4249892], [-7.5220762, 38.425056], [-7.5221224, 38.4251147], [-7.5221701, 38.4251498], [-7.5222266, 38.4251756], [-7.5223072, 38.4251932], [-7.5223908, 38.425192], [-7.5224706, 38.4251722], [-7.5225144, 38.4251517], [-7.5225529, 38.4251255], [-7.5226045, 38.425068], [-7.5226313, 38.425001]]]]}, "properties": {"highway": "primary", "junction": "roundabout", "lanes": "1", "ref": "EN 256;ER 255", "surface": "asphalt"}}, {"type": "Feature", "geometry": {"type": "MultiPolygon", "coordinates": [[[[-7.4874249, 38.1981206], [-7.4874129, 38.1980574], [-7.4873867, 38.1980149], [-7.4873707, 38.1980016], [-7.4873309, 38.1979683], [-7.487263, 38.1979407], [-7.4871824, 38.1979319], [-7.4870995, 38.1979463], [-7.4870312, 38.1979811], [-7.4869995, 38.1980096], [-7.4869821, 38.1980385], [-7.4869648, 38.1980674], [-7.4869574, 38.1981311], [-7.486969, 38.1981749], [-7.487008, 38.1982309], [-7.4870602, 38.1982686], [-7.4871346, 38.1982945], [-7.4872202, 38.1982984], [-7.4872979, 38.1982795], [-7.4873691, 38.1982351], [-7.4874103, 38.19818], [-7.4874249, 38.1981206]]]]}, "properties": {"highway": "primary", "junction": "roundabout", "ref": "ER 255"}}, {"type": "Feature", "geometry": {"type": "MultiPolygon", "coordinates": [[[[-7.5221916, 38.3885612], [-7.5221892, 38.3884676], [-7.5221425, 38.3883894], [-7.5220605, 38.3883317], [-7.5219563, 38.3883037], [-7.5218765, 38.3883046], [-7.5218004, 38.3883233], [-7.5217343, 38.3883582], [-7.5216836, 38.3884065], [-7.5216526, 38.3884641], [-7.5216439, 38.3885262], [-7.5216571, 38.3885853], [-7.5216905, 38.3886393], [-7.5217414, 38.388684], [-7.5218008, 38.3887142], [-7.5219245, 38.3887355], [-7.5220473, 38.3887113], [-7.5221435, 38.3886468], [-7.5221916, 38.3885612]]]]}, "properties": {"highway": "primary", "junction": "roundabout", "ref": "ER 255"}}]}