{"type": "FeatureCollection", "features": [{"type": "Feature", "geometry": {"type": "LineString", "coordinates": [[-7.8962684, 39.0617812], [-7.8960894, 39.0611806], [-7.896047, 39.0609971], [-7.8960156, 39.0608724], [-7.8960022, 39.0607578], [-7.8959963, 39.0605579], [-7.8960425, 39.0603309], [-7.8961068, 39.0601257], [-7.8961873, 39.0599585], [-7.8968954, 39.0585208], [-7.8969147, 39.0579645], [-7.8967452, 39.0574265], [-7.8966379, 39.0572548], [-7.8964069, 39.056867], [-7.8955694, 39.0555797]]}, "properties": {"highway": "primary", "lanes": "2", "lit": "no", "maxspeed": "90", "ref": "ER 243", "surface": "asphalt"}}, {"type": "Feature", "geometry": {"type": "LineString", "coordinates": [[-7.8966306, 39.0628657], [-7.8962684, 39.0617812]]}, "properties": {"bridge": "yes", "highway": "primary", "lanes": "2", "layer": "1", "lit": "yes", "maxspeed": "90", "maxweight:signed": "no", "ref": "ER 243", "surface": "asphalt"}}, {"type": "Feature", "geometry": {"type": "LineString", "coordinates": [[-7.6401908, 39.0419488], [-7.6403058, 39.0419492], [-7.6403786, 39.0419286], [-7.6404432, 39.0418848], [-7.6404743, 39.0418346], [-7.6404908, 39.0417618], [-7.6404829, 39.0416967], [-7.6404405, 39.0416343], [-7.6403863, 39.0415844], [-7.6402899, 39.0415572], [-7.6402086, 39.0415575], [-7.6401267, 39.0415787], [-7.6400623, 39.0416135]]}, "properties": {"highway": "primary", "junction": "roundabout", "lanes": "1", "ref": "ER 243", "surface": "asphalt"}}, {"type": "Feature", "geometry": {"type": "LineString", "coordinates": [[-7.6391988, 39.0417175], [-7.6396051, 39.0417301]]}, "properties": {"highway": "primary", "ref": "ER 243"}}, {"type": "Feature", "geometry": {"type": "LineString", "coordinates": [[-7.6413235, 39.0417996], [-7.6434864, 39.0418783], [-7.6475387, 39.0420257]]}, "properties": {"highway": "primary", "ref": "ER 243"}}, {"type": "Feature", "geometry": {"type": "LineString", "coordinates": [[-7.6409521, 39.0417723], [-7.6413235, 39.0417996]]}, "properties": {"highway": "primary", "ref": "ER 243"}}, {"type": "Feature", "geometry": {"type": "LineString", "coordinates": [[-7.6478498, 39.0420371], [-7.648659, 39.0420715], [-7.6511807, 39.0421583], [-7.6523334, 39.0422258], [-7.6559843, 39.0424395]]}, "properties": {"highway": "primary", "ref": "ER 243"}}, {"type": "Feature", "geometry": {"type": "LineString", "coordinates": [[-7.6475387, 39.0420257], [-7.6478498, 39.0420371]]}, "properties": {"bridge": "yes", "highway": "primary", "layer": "1", "ref": "ER 243"}}, {"type": "Feature", "geometry": {"type": "LineString", "coordinates": [[-7.4963633, 39.0341493], [-7.4970939, 39.0340559]]}, "properties": {"bridge": "yes", "highway": "primary", "layer": "1", "ref": "ER 243"}}, {"type": "Feature", "geometry": {"type": "LineString", "coordinates": [[-7.5274328, 39.0284411], [-7.5393693, 39.0276591], [-7.5405519, 39.0275907], [-7.5409757, 39.0275719], [-7.5412197, 39.0275688], [-7.5414933, 39.027574], [-7.5418058, 39.0275938], [-7.5420681, 39.0276204], [-7.5424013, 39.0276647], [-7.5427431, 39.0277334], [-7.5489526, 39.0291173], [-7.5495543, 39.0292427], [-7.5502806, 39.0294416], [-7.5508755, 39.0296656], [-7.5513766, 39.0299404], [-7.5514833, 39.0299929], [-7.5521726, 39.0305006], [-7.5529323, 39.0310812], [-7.5638713, 39.0392493], [-7.5642971, 39.0395402], [-7.5648504, 39.0398047], [-7.5655308, 39.0400396], [-7.5774162, 39.0427605], [-7.5799153, 39.0433326], [-7.5813373, 39.043665], [-7.5819147, 39.0437313], [-7.5825126, 39.0437404], [-7.5825505, 39.043741], [-7.5832263, 39.0436832], [-7.5847361, 39.0433497], [-7.5892458, 39.0423047], [-7.5896872, 39.0421587], [-7.5900419, 39.0419774], [-7.5903947, 39.0417728], [-7.5907273, 39.0415002], [-7.5910346, 39.0411563], [-7.5913032, 39.0407511], [-7.5917716, 39.039979]]}, "properties": {"highway": "primary", "ref": "ER 243"}}, {"type": "Feature", "geometry": {"type": "LineString", "coordinates": [[-7.8948507, 39.0544631], [-7.8947798, 39.0543325], [-7.8946772, 39.0541731], [-7.8944448, 39.05383]]}, "properties": {"highway": "primary", "lanes": "2", "lit": "yes", "maxspeed": "50", "ref": "ER 243", "surface": "asphalt"}}, {"type": "Feature", "geometry": {"type": "LineString", "coordinates": [[-7.7593728, 39.0299913], [-7.7598004, 39.0300425]]}, "properties": {"bridge": "yes", "highway": "primary", "layer": "1", "ref": "ER 243"}}, {"type": "Feature", "geometry": {"type": "LineString", "coordinates": [[-7.7598004, 39.0300425], [-7.7608051, 39.0302127], [-7.7618303, 39.0307915], [-7.7630959, 39.0311484], [-7.7637297, 39.0312693], [-7.7642125, 39.0311915], [-7.766397, 39.0301784], [-7.7673128, 39.0299582], [-7.7679542, 39.0299308], [-7.7686113, 39.0299803], [-7.7709166, 39.0305175], [-7.77177, 39.0306396], [-7.7815266, 39.0303601], [-7.7835648, 39.0302944], [-7.7841884, 39.0302859], [-7.7845923, 39.0302629], [-7.7859592, 39.0301982], [-7.7871041, 39.0301874]]}, "properties": {"highway": "primary", "ref": "ER 243"}}, {"type": "Feature", "geometry": {"type": "LineString", "coordinates": [[-7.8969308, 39.0637999], [-7.8966306, 39.0628657]]}, "properties": {"highway": "primary", "lanes": "2", "lit": "yes", "maxspeed": "90", "ref": "ER 243", "surface": "asphalt"}}, {"type": "Feature", "geometry": {"type": "LineString", "coordinates": [[-7.4518757, 39.0392348], [-7.4581106, 39.0390907], [-7.4590477, 39.0389556], [-7.4596331, 39.0388074], [-7.4601954, 39.0386079], [-7.4634781, 39.0372627], [-7.4642789, 39.0369728], [-7.4708969, 39.035286], [-7.4721057, 39.0350669], [-7.4728393, 39.0350639], [-7.4747442, 39.0353149], [-7.4751621, 39.0353289], [-7.4755804, 39.035286], [-7.476093, 39.0351715], [-7.4765876, 39.0349957], [-7.4786719, 39.0340282], [-7.4795621, 39.0338353], [-7.4801141, 39.0338163], [-7.4806746, 39.0338518], [-7.4836379, 39.0345466], [-7.4882349, 39.0348478], [-7.4890506, 39.0348662], [-7.4923106, 39.0346613], [-7.4963633, 39.0341493]]}, "properties": {"highway": "primary", "ref": "ER 243"}}, {"type": "Feature", "geometry": {"type": "LineString", "coordinates": [[-7.4515173, 39.0391738], [-7.4513593, 39.0391635], [-7.451322, 39.0391656], [-7.4512706, 39.0391717], [-7.451231, 39.0391817]]}, "properties": {"highway": "primary", "lanes": "1", "oneway": "yes", "ref": "ER 243"}}, {"type": "Feature", "geometry": {"type": "LineString", "coordinates": [[-7.4518757, 39.0392348], [-7.4516702, 39.0392092], [-7.4515879, 39.0391924], [-7.4515173, 39.0391738]]}, "properties": {"highway": "primary", "lanes": "1", "oneway": "yes", "ref": "ER 243"}}, {"type": "Feature", "geometry": {"type": "LineString", "coordinates": [[-7.4514932, 39.0392863], [-7.451635, 39.0392654], [-7.4518757, 39.0392348]]}, "properties": {"highway": "primary", "lanes": "1", "oneway": "yes", "ref": "ER 243"}}, {"type": "Feature", "geometry": {"type": "LineString", "coordinates": [[-7.8166403, 39.0438238], [-7.816878, 39.0438847], [-7.8171416, 39.0439257], [-7.817387, 39.0439411], [-7.8177871, 39.0439336], [-7.820746, 39.0438781], [-7.8241387, 39.0438044], [-7.8249128, 39.0438777], [-7.8281295, 39.0443446], [-7.8347325, 39.0453029], [-7.8366579, 39.0452417], [-7.8374361, 39.045217], [-7.840333, 39.045217], [-7.8425666, 39.0451468], [-7.8491104, 39.0448196], [-7.8598969, 39.0442802], [-7.8693132, 39.0437932], [-7.8733346, 39.0435852], [-7.8736622, 39.043581]]}, "properties": {"highway": "primary", "lit": "no", "ref": "ER 243"}}, {"type": "Feature", "geometry": {"type": "LineString", "coordinates": [[-7.8116371, 39.0413312], [-7.8121845, 39.0416114], [-7.8123772, 39.0417073], [-7.8126226, 39.0418295], [-7.812857, 39.0419462], [-7.8134462, 39.0422395], [-7.8136627, 39.0423483], [-7.8143987, 39.0427262]]}, "properties": {"highway": "primary", "maxspeed": "50", "name": "Rua Francisco Velez Grilo", "postal_code": "7480-297", "ref": "ER 243"}}, {"type": "Feature", "geometry": {"type": "LineString", "coordinates": [[-7.6396051, 39.0417301], [-7.6397481, 39.0417657], [-7.6399484, 39.0418243], [-7.640027, 39.0418664]]}, "properties": {"highway": "primary", "lanes": "1", "oneway": "yes", "ref": "ER 243", "surface": "asphalt"}}, {"type": "Feature", "geometry": {"type": "LineString", "coordinates": [[-7.6400183, 39.0416685], [-7.6399353, 39.0417118], [-7.6398545, 39.0417246], [-7.6396893, 39.041731], [-7.6396051, 39.0417301]]}, "properties": {"highway": "primary", "lanes": "1", "oneway": "yes", "ref": "ER 243", "surface": "asphalt"}}, {"type": "Feature", "geometry": {"type": "LineString", "coordinates": [[-7.5917716, 39.039979], [-7.5919961, 39.0396089]]}, "properties": {"bridge": "yes", "highway": "primary", "layer": "1", "ref": "ER 243"}}, {"type": "Feature", "geometry": {"type": "LineString", "coordinates": [[-7.6404743, 39.0418346], [-7.6405361, 39.0417992], [-7.6406218, 39.0417784], [-7.6407057, 39.0417743], [-7.6408382, 39.04178], [-7.6409521, 39.0417723]]}, "properties": {"highway": "primary", "lanes": "1", "oneway": "yes", "ref": "ER 243", "surface": "asphalt"}}, {"type": "Feature", "geometry": {"type": "LineString", "coordinates": [[-7.5919961, 39.0396089], [-7.5924983, 39.0387811], [-7.5927183, 39.0384814], [-7.5929837, 39.038183], [-7.5933461, 39.0378971], [-7.5944085, 39.037185], [-7.5951367, 39.0367068], [-7.5957498, 39.0363953], [-7.5962229, 39.0362168], [-7.5966304, 39.0361128], [-7.5971375, 39.0360213], [-7.6001764, 39.035579], [-7.6034642, 39.0351005], [-7.6072828, 39.0345152], [-7.6076788, 39.0344762], [-7.6083333, 39.0344619], [-7.6089508, 39.0345263], [-7.6095256, 39.0346286], [-7.6103334, 39.0349107], [-7.6110324, 39.0352816], [-7.6134038, 39.0366647], [-7.614984, 39.0375825], [-7.6174964, 39.0390596], [-7.6186229, 39.039694], [-7.6190725, 39.0399035], [-7.6195294, 39.0400742], [-7.6202493, 39.0402902], [-7.6207882, 39.0404103], [-7.6216619, 39.0405483], [-7.6229055, 39.0407405], [-7.6242059, 39.0409567], [-7.6255832, 39.0411514], [-7.6262661, 39.0412136], [-7.627225, 39.0412507], [-7.6281546, 39.0412869], [-7.6391988, 39.0417175]]}, "properties": {"highway": "primary", "ref": "ER 243"}}, {"type": "Feature", "geometry": {"type": "LineString", "coordinates": [[-7.6409521, 39.0417723], [-7.6406907, 39.0417112], [-7.6405253, 39.0416604], [-7.6404405, 39.0416343]]}, "properties": {"highway": "primary", "lanes": "1", "oneway": "yes", "ref": "ER 243", "surface": "asphalt"}}, {"type": "Feature", "geometry": {"type": "LineString", "coordinates": [[-7.6573043, 39.0425107], [-7.6593215, 39.0426736], [-7.6628566, 39.0431356], [-7.6646806, 39.0433706], [-7.6664673, 39.0434694], [-7.6683283, 39.0435433], [-7.668683, 39.0435492], [-7.6702658, 39.0440764], [-7.6775228, 39.0465735], [-7.6778192, 39.0466416], [-7.6781142, 39.0466341], [-7.6784455, 39.0465049], [-7.6807736, 39.0454413], [-7.6839939, 39.0442841], [-7.6844552, 39.0441812], [-7.6868622, 39.0440427], [-7.6891422, 39.0441656], [-7.689497, 39.0441491], [-7.6899985, 39.0440354], [-7.6907516, 39.0436077], [-7.6914864, 39.0428507], [-7.6919128, 39.0425917], [-7.6927631, 39.0424661], [-7.6940398, 39.0423396], [-7.6943418, 39.0424173], [-7.695699, 39.0430598], [-7.6965627, 39.04345], [-7.6974478, 39.0437475], [-7.6985567, 39.0440468], [-7.6998675, 39.0443253], [-7.7002653, 39.0444807], [-7.700942, 39.0449763], [-7.7015404, 39.0453577], [-7.701885, 39.0454359], [-7.7022108, 39.0453717], [-7.7026845, 39.0450931], [-7.7030448, 39.0448812], [-7.7035208, 39.0446953], [-7.7039914, 39.0446164], [-7.7057966, 39.0445866], [-7.7068148, 39.0445772], [-7.70848, 39.0445737], [-7.7103391, 39.0446314], [-7.7106907, 39.0446484], [-7.711125, 39.0445882], [-7.7115314, 39.0444669], [-7.7129617, 39.0434995], [-7.7136472, 39.0431941], [-7.7137728, 39.0431585], [-7.7143887, 39.0430472], [-7.7152391, 39.0431424], [-7.7171097, 39.0436764], [-7.7180772, 39.0437734], [-7.7205033, 39.0438876], [-7.7225614, 39.0436394], [-7.723456, 39.0434803], [-7.7240725, 39.0432802], [-7.726047, 39.0424201], [-7.7264057, 39.0423323], [-7.7266676, 39.042305], [-7.7331175, 39.0427448], [-7.7339922, 39.0427448], [-7.7348552, 39.0426035], [-7.7399806, 39.0411018], [-7.7425604, 39.040346], [-7.7431833, 39.0399749], [-7.7448677, 39.0385652], [-7.7454256, 39.0382218], [-7.7484589, 39.0368496], [-7.7489232, 39.0366554], [-7.7497179, 39.0361985], [-7.7499146, 39.0360543]]}, "properties": {"highway": "primary", "ref": "ER 243"}}, {"type": "Feature", "geometry": {"type": "LineString", "coordinates": [[-7.7503305, 39.0357571], [-7.7525496, 39.034059], [-7.7537084, 39.0332437], [-7.7552962, 39.0314627], [-7.7557468, 39.0310764], [-7.7580545, 39.0300121], [-7.7586404, 39.0299067], [-7.7593728, 39.0299913]]}, "properties": {"highway": "primary", "ref": "ER 243"}}, {"type": "Feature", "geometry": {"type": "LineString", "coordinates": [[-7.7499146, 39.0360543], [-7.7503305, 39.0357571]]}, "properties": {"highway": "primary", "ref": "ER 243"}}, {"type": "Feature", "geometry": {"type": "LineString", "coordinates": [[-7.6400183, 39.0416685], [-7.6399913, 39.041741], [-7.6399943, 39.0418014], [-7.640027, 39.0418664], [-7.6401014, 39.0419222], [-7.6401908, 39.0419488]]}, "properties": {"highway": "primary", "junction": "roundabout", "lanes": "1", "ref": "ER 243", "surface": "asphalt"}}, {"type": "Feature", "geometry": {"type": "LineString", "coordinates": [[-7.8944448, 39.05383], [-7.8941737, 39.0534934], [-7.8941106, 39.0534152], [-7.8939741, 39.0532676], [-7.8939017, 39.0531928], [-7.8937575, 39.0530483], [-7.8937548, 39.0530456], [-7.8935635, 39.0528814], [-7.8933713, 39.0527264]]}, "properties": {"highway": "primary", "lanes": "2", "lit": "yes", "maxspeed": "50", "ref": "ER 243", "surface": "asphalt"}}, {"type": "Feature", "geometry": {"type": "LineString", "coordinates": [[-7.8955694, 39.0555797], [-7.8953143, 39.0551858], [-7.895205, 39.0549971]]}, "properties": {"highway": "primary", "lanes": "2", "lit": "yes", "maxspeed": "90", "ref": "ER 243", "surface": "asphalt"}}, {"type": "Feature", "geometry": {"type": "LineString", "coordinates": [[-7.8918882, 39.0518207], [-7.891736, 39.0517527], [-7.8912193, 39.051562], [-7.8907976, 39.0514256], [-7.8903874, 39.0513147], [-7.8899859, 39.0512315], [-7.8896251, 39.051175]]}, "properties": {"highway": "primary", "lanes": "2", "lit": "yes", "maxspeed": "50", "ref": "ER 243", "surface": "asphalt"}}, {"type": "Feature", "geometry": {"type": "LineString", "coordinates": [[-7.8927751, 39.0522959], [-7.8926809, 39.0522414], [-7.8918882, 39.0518207]]}, "properties": {"highway": "primary", "lanes": "2", "lit": "yes", "maxspeed": "50", "ref": "ER 243", "surface": "asphalt"}}, {"type": "Feature", "geometry": {"type": "LineString", "coordinates": [[-7.8933713, 39.0527264], [-7.8928899, 39.0523694], [-7.8927751, 39.0522959]]}, "properties": {"highway": "primary", "lanes": "2", "lit": "yes", "maxspeed": "50", "ref": "ER 243", "surface": "asphalt"}}, {"type": "Feature", "geometry": {"type": "LineString", "coordinates": [[-7.8831489, 39.0498873], [-7.8817478, 39.0489168], [-7.8789568, 39.046998], [-7.8782802, 39.0465303], [-7.8757382, 39.0447899], [-7.8748422, 39.0441594], [-7.8742952, 39.043815], [-7.8739705, 39.0436654], [-7.8736622, 39.043581]]}, "properties": {"highway": "primary", "lanes": "2", "lit": "no", "maxspeed": "90", "ref": "ER 243", "surface": "asphalt"}}, {"type": "Feature", "geometry": {"type": "LineString", "coordinates": [[-7.8948507, 39.0544631], [-7.894919, 39.0546833], [-7.894928, 39.0547429]]}, "properties": {"highway": "primary", "lit": "yes", "oneway": "yes", "ref": "ER 243"}}, {"type": "Feature", "geometry": {"type": "LineString", "coordinates": [[-7.8950492, 39.054682], [-7.8950247, 39.054658], [-7.8950026, 39.0546345], [-7.8949612, 39.0545939], [-7.8948507, 39.0544631]]}, "properties": {"highway": "primary", "lit": "yes", "oneway": "yes", "ref": "ER 243"}}, {"type": "Feature", "geometry": {"type": "LineString", "coordinates": [[-7.895205, 39.0549971], [-7.8951807, 39.0549367], [-7.8951619, 39.0548902], [-7.895155, 39.0548503], [-7.8951447, 39.0547987]]}, "properties": {"highway": "primary", "lit": "yes", "oneway": "yes", "ref": "ER 243"}}, {"type": "Feature", "geometry": {"type": "LineString", "coordinates": [[-7.8950336, 39.0548588], [-7.8950731, 39.0548902], [-7.8951224, 39.0549225], [-7.895205, 39.0549971]]}, "properties": {"highway": "primary", "lit": "yes", "oneway": "yes", "ref": "ER 243"}}, {"type": "Feature", "geometry": {"type": "LineString", "coordinates": [[-7.4970939, 39.0340559], [-7.5109603, 39.03227], [-7.5132503, 39.0316504], [-7.5173155, 39.0298995], [-7.5192366, 39.0291031], [-7.520317, 39.0288852], [-7.5273287, 39.0284476]]}, "properties": {"highway": "primary", "ref": "ER 243"}}, {"type": "Feature", "geometry": {"type": "LineString", "coordinates": [[-7.5273287, 39.0284476], [-7.5274328, 39.0284411]]}, "properties": {"bridge": "yes", "highway": "primary", "layer": "1", "ref": "ER 243"}}, {"type": "Feature", "geometry": {"type": "LineString", "coordinates": [[-7.7871041, 39.0301874], [-7.7904198, 39.0306566], [-7.7911523, 39.0307783], [-7.7918386, 39.0309905], [-7.7999814, 39.0352976], [-7.8007544, 39.0357065], [-7.8042766, 39.0375692], [-7.8066874, 39.038844], [-7.8116371, 39.0413312]]}, "properties": {"highway": "primary", "ref": "ER 243"}}, {"type": "Feature", "geometry": {"type": "LineString", "coordinates": [[-7.8891844, 39.0512076], [-7.8893077, 39.0511803], [-7.8893818, 39.051172], [-7.8896251, 39.051175]]}, "properties": {"highway": "primary", "lanes": "1", "lit": "yes", "maxspeed": "50", "oneway": "yes", "ref": "ER 243", "surface": "asphalt"}}, {"type": "Feature", "geometry": {"type": "LineString", "coordinates": [[-7.8886849, 39.0510592], [-7.8888438, 39.0511357], [-7.8889532, 39.0511952]]}, "properties": {"highway": "primary", "lanes": "1", "lit": "yes", "maxspeed": "50", "oneway": "yes", "ref": "ER 243"}}, {"type": "Feature", "geometry": {"type": "LineString", "coordinates": [[-7.8896251, 39.051175], [-7.8894309, 39.0511356], [-7.8893413, 39.0510973], [-7.889204, 39.0510212]]}, "properties": {"highway": "primary", "lanes": "1", "lit": "yes", "maxspeed": "50", "oneway": "yes", "ref": "ER 243", "surface": "asphalt"}}, {"type": "Feature", "geometry": {"type": "LineString", "coordinates": [[-7.8889595, 39.0510137], [-7.8888282, 39.0510446], [-7.8886849, 39.0510592]]}, "properties": {"highway": "primary", "lanes": "1", "lit": "yes", "maxspeed": "50", "oneway": "yes", "ref": "ER 243"}}, {"type": "Feature", "geometry": {"type": "LineString", "coordinates": [[-7.8886849, 39.0510592], [-7.8885386, 39.0510372], [-7.888082, 39.0509767], [-7.8876255, 39.0509199], [-7.8867077, 39.0508135], [-7.8847237, 39.0505871]]}, "properties": {"highway": "primary", "lanes": "2", "lit": "yes", "maxspeed": "50", "ref": "ER 243"}}, {"type": "Feature", "geometry": {"type": "LineString", "coordinates": [[-7.8840625, 39.0504606], [-7.8842509, 39.0506407]]}, "properties": {"highway": "primary", "lanes": "1", "lit": "yes", "maxspeed": "90", "oneway": "yes", "ref": "ER 243", "surface": "asphalt"}}, {"type": "Feature", "geometry": {"type": "LineString", "coordinates": [[-7.8847237, 39.0505871], [-7.8844402, 39.0505333]]}, "properties": {"highway": "primary", "lanes": "1", "lit": "yes", "maxspeed": "50", "oneway": "yes", "ref": "ER 243"}}, {"type": "Feature", "geometry": {"type": "LineString", "coordinates": [[-7.8844888, 39.0506482], [-7.8847237, 39.0505871]]}, "properties": {"highway": "primary", "lanes": "1", "lit": "yes", "maxspeed": "50", "oneway": "yes", "ref": "ER 243"}}, {"type": "Feature", "geometry": {"type": "LineString", "coordinates": [[-7.8843306, 39.0505226], [-7.8840625, 39.0504606]]}, "properties": {"highway": "primary", "lanes": "1", "lit": "yes", "maxspeed": "90", "oneway": "yes", "ref": "ER 243", "surface": "asphalt"}}, {"type": "Feature", "geometry": {"type": "LineString", "coordinates": [[-7.8840625, 39.0504606], [-7.883194, 39.0499256], [-7.8831489, 39.0498873]]}, "properties": {"highway": "primary", "lanes": "2", "lit": "yes", "maxspeed": "90", "ref": "ER 243", "surface": "asphalt"}}, {"type": "Feature", "geometry": {"type": "LineString", "coordinates": [[-7.6400623, 39.0416135], [-7.6400183, 39.0416685]]}, "properties": {"highway": "primary", "junction": "roundabout", "lanes": "1", "ref": "ER 243", "surface": "asphalt"}}, {"type": "Feature", "geometry": {"type": "LineString", "coordinates": [[-7.451231, 39.0391817], [-7.4512652, 39.0392301], [-7.4513055, 39.0392575], [-7.4513645, 39.0392759], [-7.4514227, 39.0392821], [-7.4514932, 39.0392863]]}, "properties": {"highway": "primary", "lanes": "1", "oneway": "yes", "ref": "ER 243"}}, {"type": "Feature", "geometry": {"type": "LineString", "coordinates": [[-7.8143987, 39.0427262], [-7.8161763, 39.0436308], [-7.8164217, 39.0437409], [-7.8166403, 39.0438238]]}, "properties": {"highway": "primary", "maxspeed": "50", "name": "Rua Francisco Velez Grilo", "postal_code": "7480-297", "ref": "ER 243"}}]}