{"type": "FeatureCollection", "features": [{"type": "Feature", "geometry": {"type": "LineString", "coordinates": [[-8.0093525, 40.9665375], [-8.0095517, 40.9665906], [-8.0097154, 40.966635], [-8.0102022, 40.9668043], [-8.01068, 40.9670033], [-8.0111595, 40.9672091], [-8.0116386, 40.9673942], [-8.0123611, 40.967638], [-8.0130848, 40.9678598], [-8.0138015, 40.9680763], [-8.0143749, 40.9682487], [-8.0145329, 40.9683025], [-8.0146262, 40.9683462], [-8.0147253, 40.968397], [-8.0148919, 40.9685194], [-8.0150049, 40.9686201], [-8.0151038, 40.9687349], [-8.0154366, 40.9693537], [-8.0160649, 40.9705161], [-8.0161844, 40.9707049], [-8.0162878, 40.9708141], [-8.0163958, 40.9709116], [-8.0165515, 40.9710252], [-8.0167214, 40.9711134], [-8.0168877, 40.9711748], [-8.0170771, 40.9712163], [-8.0172346, 40.9712416], [-8.0174911, 40.9712523], [-8.0177389, 40.9712376], [-8.0181105, 40.9711829], [-8.0186626, 40.9710933], [-8.0188697, 40.9710813], [-8.0190646, 40.9710943], [-8.0192448, 40.9711187], [-8.0194502, 40.9711787], [-8.019881, 40.9714859], [-8.0209102, 40.9725782], [-8.0209767, 40.9730059], [-8.0206044, 40.975058], [-8.0205884, 40.9754415], [-8.0208171, 40.9763169], [-8.022708, 40.9785335], [-8.0231415, 40.9787905], [-8.0235351, 40.9788407], [-8.0246361, 40.9786138], [-8.0248781, 40.9786419], [-8.0250935, 40.9787563], [-8.0252344, 40.9790193], [-8.0252185, 40.9792462], [-8.0245297, 40.9806416], [-8.0244978, 40.9809046], [-8.0245483, 40.9811455], [-8.0247504, 40.9814306], [-8.0249661, 40.9816136], [-8.025293, 40.98179], [-8.0256573, 40.9818883], [-8.0268837, 40.9819735], [-8.027362, 40.9820289], [-8.0276386, 40.9821634], [-8.0277923, 40.9822758], [-8.0278965, 40.9824043], [-8.0279661, 40.9825536], [-8.027979, 40.9827135], [-8.0276519, 40.9846669], [-8.0276891, 40.9848797], [-8.0280232, 40.9855284], [-8.0280489, 40.9855784], [-8.0281123, 40.9857554], [-8.0281403, 40.9859751], [-8.0280805, 40.9862099], [-8.0279606, 40.9865516], [-8.0278327, 40.9869735], [-8.0277739, 40.9872433], [-8.0277813, 40.9874131], [-8.0278523, 40.9876489], [-8.0283965, 40.9887742], [-8.0286066, 40.9891315], [-8.0287369, 40.9892801], [-8.0289576, 40.9894146], [-8.0292369, 40.9894668], [-8.0301836, 40.9893704], [-8.0304496, 40.9893905]]}, "properties": {"highway": "primary", "old_ref": "EN 321", "ref": "ER 321", "status": "incomplete"}}, {"type": "Feature", "geometry": {"type": "LineString", "coordinates": [[-8.0922342, 41.0744857], [-8.0922276, 41.0744219], [-8.0922207, 41.07435], [-8.092203, 41.0741424], [-8.092192, 41.0740717], [-8.0921818, 41.0740201], [-8.0921709, 41.0739774], [-8.0921531, 41.0739188], [-8.0921278, 41.0738551], [-8.0921058, 41.0738048], [-8.0920771, 41.0737558], [-8.0920408, 41.073708], [-8.0919943, 41.0736571], [-8.0919368, 41.0735997], [-8.0918752, 41.0735501], [-8.0918329, 41.0735208], [-8.0917831, 41.0734978], [-8.0917324, 41.0734775], [-8.0916893, 41.0734635], [-8.091638, 41.0734533]]}, "properties": {"highway": "primary", "name": "Rua Capit\u00e3o Salgueiro Maia", "old_ref": "EN 321", "oneway": "yes", "ref": "ER 321"}}, {"type": "Feature", "geometry": {"type": "LineString", "coordinates": [[-8.0901854, 41.0739535], [-8.0902172, 41.0739693], [-8.0902539, 41.0739771], [-8.090292, 41.0739763], [-8.0903214, 41.0739693], [-8.0903476, 41.0739572], [-8.0903691, 41.0739406], [-8.0903875, 41.0739151], [-8.0903947, 41.0738866], [-8.0903901, 41.0738578], [-8.0903741, 41.0738314], [-8.0903482, 41.0738099], [-8.0903174, 41.0737961], [-8.0902826, 41.0737894], [-8.0902468, 41.0737904], [-8.0902088, 41.0738006], [-8.0901771, 41.0738194], [-8.0901549, 41.0738448], [-8.0901446, 41.0738742], [-8.0901472, 41.0739045], [-8.0901613, 41.0739312], [-8.0901854, 41.0739535]]}, "properties": {"highway": "primary", "junction": "roundabout", "old_ref": "EN 321", "ref": "ER 321"}}, {"type": "Feature", "geometry": {"type": "LineString", "coordinates": [[-8.0903691, 41.0739406], [-8.0905444, 41.0738911], [-8.0905968, 41.0738771], [-8.0906407, 41.0738637], [-8.0906779, 41.0738503], [-8.0907176, 41.0738331], [-8.0911406, 41.0735994], [-8.0912001, 41.0735743], [-8.0912627, 41.0735539], [-8.0913294, 41.0735367], [-8.0913873, 41.0735256], [-8.091446, 41.0735163], [-8.0915068, 41.0735112], [-8.0915583, 41.0735125], [-8.0916183, 41.0735176], [-8.0916606, 41.0735278], [-8.0917045, 41.0735405], [-8.0917535, 41.0735583], [-8.0918076, 41.0735889], [-8.0918498, 41.0736239], [-8.0918921, 41.0736666], [-8.0919394, 41.0737169], [-8.0919782, 41.0737647], [-8.092001, 41.0737985], [-8.0920247, 41.0738373], [-8.0920484, 41.0738787], [-8.092072, 41.0739373], [-8.0920906, 41.0739978], [-8.0921041, 41.0740583], [-8.0921159, 41.0741226], [-8.0921219, 41.0741755], [-8.0921252, 41.0742315], [-8.0921303, 41.0743526], [-8.0921278, 41.0744022], [-8.092121, 41.0744392], [-8.0921092, 41.0744672], [-8.0920886, 41.0745123]]}, "properties": {"highway": "primary", "name": "Rua Capit\u00e3o Salgueiro Maia", "old_ref": "EN 321", "oneway": "yes", "ref": "ER 321"}}, {"type": "Feature", "geometry": {"type": "LineString", "coordinates": [[-8.0357871, 40.9941539], [-8.0366195, 40.9957738], [-8.0368428, 40.9959986], [-8.0373242, 40.9962194], [-8.0376752, 40.9962254], [-8.0391938, 40.9957697], [-8.0395395, 40.9957657], [-8.0402469, 40.9958601], [-8.0404517, 40.9959584], [-8.040598, 40.9961772], [-8.0406113, 40.9963699], [-8.0403613, 40.9969139], [-8.04034, 40.9971868], [-8.0404304, 40.9973193], [-8.0410421, 40.9978111], [-8.0411298, 40.9980379], [-8.041082, 40.999483], [-8.0409836, 40.9997861], [-8.0401884, 41.0014299], [-8.0400315, 41.0016687], [-8.038872, 41.002598], [-8.0387018, 41.0028769], [-8.0386858, 41.0032121], [-8.038755, 41.0044043], [-8.0391119, 41.0051703], [-8.0396592, 41.006345], [-8.0396007, 41.0074086], [-8.0396938, 41.0076755], [-8.0398453, 41.0079063], [-8.0413399, 41.0096222], [-8.0414782, 41.0099834], [-8.0414144, 41.0102423], [-8.0412867, 41.010451], [-8.0407283, 41.0111313], [-8.0406405, 41.0114062], [-8.0406857, 41.0117273], [-8.040816, 41.0119881], [-8.0410314, 41.0121547], [-8.0418647, 41.0124935], [-8.0419543, 41.0125299], [-8.0424888, 41.0127186], [-8.0430154, 41.0128049], [-8.0434595, 41.0127888], [-8.0448717, 41.0123634], [-8.0452413, 41.0123233], [-8.0453955, 41.0123281], [-8.0455711, 41.0123734], [-8.0458454, 41.0124954], [-8.0463849, 41.0128089], [-8.0467412, 41.0129453], [-8.0469168, 41.0129596], [-8.047071, 41.0129172], [-8.0475337, 41.0127808], [-8.048281, 41.0124236], [-8.0486374, 41.0121527], [-8.0494068, 41.0110478], [-8.0496799, 41.0106556], [-8.0499325, 41.0103707], [-8.0502065, 41.0102101], [-8.0504866, 41.0101305], [-8.0506017, 41.0100978], [-8.0517284, 41.0097776], [-8.0520282, 41.0096924], [-8.0524803, 41.0094094], [-8.0528021, 41.0090924], [-8.0541344, 41.0069651], [-8.054562, 41.0059703], [-8.055169, 41.0049401], [-8.0553844, 41.0047234], [-8.0556344, 41.0046571], [-8.0558843, 41.0046591], [-8.0561476, 41.0047394], [-8.0564668, 41.0050545], [-8.0565465, 41.0052632], [-8.0563311, 41.0057007], [-8.0562381, 41.0071838], [-8.056012, 41.0080749], [-8.0561662, 41.0095339], [-8.0563471, 41.0101399], [-8.0563391, 41.0114885], [-8.0560891, 41.0121768], [-8.0560758, 41.0123875], [-8.0564316, 41.0135525], [-8.0566024, 41.0141473], [-8.0565306, 41.0143199], [-8.0559216, 41.0151045], [-8.055818, 41.0153409], [-8.0558417, 41.0155772], [-8.055963, 41.0158347], [-8.0560373, 41.0160051], [-8.0561954, 41.0163308], [-8.0565452, 41.0170511], [-8.0566051, 41.0173078], [-8.0565519, 41.0174944], [-8.0554288, 41.0188466], [-8.0553068, 41.0189559]]}, "properties": {"highway": "primary", "lanes": "2", "name": "Rua de Tendais", "old_ref": "EN 321", "ref": "ER 321", "status": "incomplete"}}, {"type": "Feature", "geometry": {"type": "LineString", "coordinates": [[-8.0865633, 41.0732338], [-8.0864825, 41.0732985], [-8.0864188, 41.0733495], [-8.0862742, 41.0735467], [-8.0862808, 41.0737423], [-8.0863881, 41.0743166], [-8.0864401, 41.0745627], [-8.0864753, 41.0747163], [-8.0865813, 41.0748019], [-8.0867422, 41.07481], [-8.0870372, 41.0747372], [-8.0873698, 41.0745835], [-8.087748, 41.074447], [-8.0879018, 41.074359], [-8.0879974, 41.0742519], [-8.0880548, 41.0741549], [-8.088241, 41.0739579]]}, "properties": {"highway": "primary", "name": "Rua Conselheiro Martins de Carvalho", "old_ref": "EN 321", "oneway": "yes", "ref": "ER 321"}}, {"type": "Feature", "geometry": {"type": "LineString", "coordinates": [[-8.091638, 41.0734533], [-8.0915862, 41.0734482], [-8.0915279, 41.0734475], [-8.0914705, 41.0734501], [-8.0914147, 41.0734558], [-8.0913615, 41.0734641], [-8.0913066, 41.0734736], [-8.0912424, 41.0734902], [-8.0911765, 41.0735119], [-8.0911283, 41.0735291], [-8.0910819, 41.0735482], [-8.0910134, 41.0735813], [-8.0908241, 41.0736866], [-8.0907041, 41.0737548], [-8.0906543, 41.0737803], [-8.0906137, 41.0737994], [-8.0905655, 41.0738153], [-8.0905334, 41.0738229], [-8.0904785, 41.0738261], [-8.0904565, 41.0738248], [-8.0904346, 41.0738236], [-8.090394, 41.0738198], [-8.0903482, 41.0738099]]}, "properties": {"highway": "primary", "name": "Rua Capit\u00e3o Salgueiro Maia", "old_ref": "EN 321", "oneway": "yes", "ref": "ER 321"}}, {"type": "Feature", "geometry": {"type": "LineString", "coordinates": [[-7.9164708, 40.9322052], [-7.9165064, 40.932288], [-7.91741, 40.9334901], [-7.9175288, 40.9337621], [-7.9179608, 40.9357936], [-7.918886, 40.9383745], [-7.9190912, 40.938709], [-7.919223, 40.9388156]]}, "properties": {"highway": "primary", "old_ref": "EN 321", "ref": "ER 321", "status": "incomplete"}}, {"type": "Feature", "geometry": {"type": "LineString", "coordinates": [[-7.919223, 40.9388156], [-7.9193472, 40.9388871]]}, "properties": {"bridge": "yes", "highway": "primary", "layer": "1", "old_ref": "EN 321", "ref": "ER 321", "status": "incomplete"}}, {"type": "Feature", "geometry": {"type": "LineString", "coordinates": [[-7.9162548, 40.9301797], [-7.9163549, 40.9302598], [-7.91642, 40.9303569], [-7.9164524, 40.930599], [-7.916294, 40.9315183], [-7.9163264, 40.9318691], [-7.9164708, 40.9322052]]}, "properties": {"highway": "primary", "old_ref": "EN 321", "ref": "ER 321", "status": "incomplete"}}, {"type": "Feature", "geometry": {"type": "LineString", "coordinates": [[-8.0871942, 41.0725678], [-8.0872669, 41.0726399], [-8.0873039, 41.0727073], [-8.0873096, 41.0727517]]}, "properties": {"highway": "primary", "lanes": "1", "name": "Rua de Santa B\u00e1rbara", "old_ref": "EN 321", "oneway": "yes", "ref": "ER 321"}}, {"type": "Feature", "geometry": {"type": "LineString", "coordinates": [[-8.0871873, 41.0729413], [-8.0873194, 41.0728937], [-8.0873471, 41.0728818], [-8.0873988, 41.0728449]]}, "properties": {"highway": "primary", "lanes": "1", "name": "Rua Conselheiro Martins de Carvalho", "old_ref": "EN 321", "oneway": "yes", "ref": "ER 321"}}, {"type": "Feature", "geometry": {"type": "LineString", "coordinates": [[-8.0865633, 41.0732338], [-8.0865851, 41.073217], [-8.0867343, 41.073102], [-8.0870386, 41.0729866], [-8.0871873, 41.0729413]]}, "properties": {"highway": "primary", "name": "Rua Conselheiro Martins de Carvalho", "old_ref": "EN 321", "oneway": "no", "ref": "ER 321"}}, {"type": "Feature", "geometry": {"type": "LineString", "coordinates": [[-8.0901472, 41.0739045], [-8.0900417, 41.0738981], [-8.0899902, 41.0738962], [-8.089926, 41.0738968], [-8.0898466, 41.0738981], [-8.0897832, 41.0738968], [-8.0897182, 41.0738936], [-8.0896497, 41.0738898], [-8.0887787, 41.0737669], [-8.0887365, 41.0737644], [-8.0886993, 41.0737644], [-8.0886655, 41.0737669], [-8.088619, 41.0737739], [-8.088565, 41.0737866], [-8.0884974, 41.0738108], [-8.0884382, 41.0738414], [-8.088241, 41.0739579]]}, "properties": {"highway": "primary", "name": "Rua Capit\u00e3o Salgueiro Maia", "old_ref": "EN 321", "oneway": "no", "ref": "ER 321"}}, {"type": "Feature", "geometry": {"type": "LineString", "coordinates": [[-7.9469886, 40.949347], [-7.9472007, 40.9493779], [-7.9474253, 40.9494426], [-7.9480152, 40.9498535], [-7.9486029, 40.9504063], [-7.9487689, 40.9507545], [-7.9488357, 40.9511485], [-7.9494275, 40.9546396], [-7.9494163, 40.9550366], [-7.949345, 40.9552415], [-7.9490065, 40.955807], [-7.9488179, 40.9561222], [-7.94872, 40.9565636], [-7.9488959, 40.9575468], [-7.9489303, 40.9577395], [-7.9490551, 40.9584369], [-7.9489115, 40.9591257], [-7.9488929, 40.9596579], [-7.9498104, 40.9621602], [-7.9498264, 40.9624173], [-7.9497519, 40.9626181], [-7.9493025, 40.9631563], [-7.9491748, 40.9635499], [-7.9494381, 40.965048], [-7.9495498, 40.9653031], [-7.9497785, 40.9654718], [-7.9500158, 40.9655447]]}, "properties": {"highway": "primary", "old_ref": "EN 321", "ref": "ER 321", "status": "incomplete"}}, {"type": "Feature", "geometry": {"type": "LineString", "coordinates": [[-7.9500158, 40.9655447], [-7.9500923, 40.9655682]]}, "properties": {"bridge": "yes", "highway": "primary", "layer": "1", "old_ref": "EN 321", "ref": "ER 321", "status": "incomplete"}}, {"type": "Feature", "geometry": {"type": "LineString", "coordinates": [[-7.9238812, 40.936204], [-7.9239975, 40.9362254], [-7.9242457, 40.9363339], [-7.9253012, 40.9370447], [-7.9256396, 40.9373873], [-7.9257764, 40.9378116], [-7.9257795, 40.9409442], [-7.9258972, 40.9415214]]}, "properties": {"highway": "primary", "old_ref": "EN 321", "ref": "ER 321", "status": "incomplete"}}, {"type": "Feature", "geometry": {"type": "LineString", "coordinates": [[-7.9509236, 40.9650865], [-7.9509646, 40.9649215], [-7.9509061, 40.9639596], [-7.9509646, 40.9637026], [-7.9511907, 40.9635058], [-7.9514513, 40.9634053], [-7.9517651, 40.9633913], [-7.9525875, 40.9636366], [-7.952773, 40.9636544], [-7.9529061, 40.9636521], [-7.9530815, 40.9636022], [-7.953548, 40.9633758], [-7.9543738, 40.962975], [-7.9560441, 40.9621643], [-7.956318, 40.9619514], [-7.9564563, 40.9617044], [-7.9565042, 40.9613569], [-7.9564643, 40.9606279], [-7.9565893, 40.9603809], [-7.9568074, 40.9601781], [-7.9587115, 40.9593306], [-7.9592328, 40.959186], [-7.9610332, 40.9590012], [-7.9613098, 40.9588285], [-7.9617645, 40.9582039], [-7.9619374, 40.9581015], [-7.9622565, 40.9580131], [-7.9636315, 40.9581095], [-7.9640011, 40.9582059], [-7.9648974, 40.9586303]]}, "properties": {"highway": "primary", "old_ref": "EN 321", "ref": "ER 321", "status": "incomplete"}}, {"type": "Feature", "geometry": {"type": "LineString", "coordinates": [[-7.9655314, 40.9586544], [-7.9656978, 40.9586035], [-7.9658269, 40.9585289], [-7.9659398, 40.9584328], [-7.9660675, 40.9581798], [-7.9662191, 40.9575391], [-7.9662901, 40.9573935], [-7.9663122, 40.9573483], [-7.9665143, 40.9571696], [-7.9668866, 40.9569908], [-7.9703439, 40.9559304], [-7.9707295, 40.9558561], [-7.9716319, 40.9558275]]}, "properties": {"highway": "primary", "old_ref": "EN 321", "ref": "ER 321", "status": "incomplete"}}, {"type": "Feature", "geometry": {"type": "LineString", "coordinates": [[-7.9716319, 40.9558275], [-7.9722424, 40.9558048], [-7.9724325, 40.9557664], [-7.9725698, 40.9557135], [-7.9727319, 40.95561], [-7.9728623, 40.9554825], [-7.9731868, 40.9549964]]}, "properties": {"highway": "primary", "old_ref": "EN 321", "ref": "ER 321", "status": "incomplete"}}, {"type": "Feature", "geometry": {"type": "LineString", "coordinates": [[-7.9747894, 40.9544996], [-7.974863, 40.95449]]}, "properties": {"bridge": "yes", "highway": "primary", "layer": "1", "ref": "ER 321", "status": "incomplete"}}, {"type": "Feature", "geometry": {"type": "LineString", "coordinates": [[-7.974863, 40.95449], [-7.975075, 40.9544622], [-7.9754047, 40.9543417], [-7.9761015, 40.9537954], [-7.9763834, 40.9536648], [-7.9767823, 40.9535805], [-7.9789099, 40.9535343], [-7.9793646, 40.9535423], [-7.9803406, 40.9536829], [-7.980705, 40.9536969]]}, "properties": {"highway": "primary", "old_ref": "EN 321", "ref": "ER 321", "status": "incomplete"}}, {"type": "Feature", "geometry": {"type": "LineString", "coordinates": [[-7.980705, 40.9536969], [-7.9808819, 40.9536628], [-7.9810454, 40.9536206]]}, "properties": {"highway": "primary", "old_ref": "EN 321", "ref": "ER 321", "status": "incomplete"}}, {"type": "Feature", "geometry": {"type": "LineString", "coordinates": [[-7.9648974, 40.9586303], [-7.9651395, 40.9586777], [-7.9653548, 40.9586799], [-7.9655314, 40.9586544]]}, "properties": {"highway": "primary", "old_ref": "EN 321", "ref": "ER 321", "status": "incomplete"}}, {"type": "Feature", "geometry": {"type": "LineString", "coordinates": [[-7.9930221, 40.9532688], [-7.9932362, 40.9534017], [-7.9934942, 40.9536407], [-7.9937309, 40.9539822], [-7.9959169, 40.9595013], [-7.9961164, 40.9597563], [-7.9964116, 40.9598894], [-7.9966881, 40.9599391], [-7.9970445, 40.959911], [-7.9984327, 40.9593707], [-7.9987997, 40.9593004], [-7.9991614, 40.9593205], [-7.9995444, 40.959425], [-7.9998316, 40.9596218], [-8.0002491, 40.9601781], [-8.0021559, 40.9633351], [-8.0024325, 40.9636142], [-8.0026346, 40.9637106], [-8.0027596, 40.9637459], [-8.0028846, 40.9637568], [-8.0042063, 40.9637066], [-8.0046053, 40.9637367], [-8.004935, 40.963815], [-8.0051665, 40.9639073], [-8.0053605, 40.9640118], [-8.0062302, 40.9647629], [-8.0071334, 40.9656443], [-8.007304, 40.9658108], [-8.0074929, 40.9659839], [-8.0076057, 40.9660677], [-8.0076566, 40.9661045], [-8.0077142, 40.9661378], [-8.007796, 40.9661782], [-8.0078823, 40.9662108], [-8.0080395, 40.9662578], [-8.0082251, 40.9662963], [-8.0083793, 40.9663214]]}, "properties": {"highway": "primary", "old_ref": "EN 321", "ref": "ER 321", "status": "incomplete"}}, {"type": "Feature", "geometry": {"type": "LineString", "coordinates": [[-8.0083793, 40.9663214], [-8.008859, 40.9664181], [-8.0093525, 40.9665375]]}, "properties": {"highway": "primary", "old_ref": "EN 321", "ref": "ER 321", "status": "incomplete"}}, {"type": "Feature", "geometry": {"type": "LineString", "coordinates": [[-8.0874001, 41.0727005], [-8.0873543, 41.072658], [-8.0873008, 41.072619], [-8.0871942, 41.0725678]]}, "properties": {"highway": "primary", "lanes": "1", "name": "Rua de Santa B\u00e1rbara", "old_ref": "EN 321", "oneway": "yes", "ref": "ER 321"}}, {"type": "Feature", "geometry": {"type": "LineString", "coordinates": [[-8.0858466, 41.0718623], [-8.0859108, 41.0718982], [-8.0861596, 41.0720286], [-8.0868847, 41.0724063], [-8.0871942, 41.0725678]]}, "properties": {"highway": "primary", "lanes": "2", "name": "Rua de Santa B\u00e1rbara", "old_ref": "EN 321", "ref": "ER 321", "status": "incomplete"}}, {"type": "Feature", "geometry": {"type": "LineString", "coordinates": [[-8.0726068, 41.0420963], [-8.0735983, 41.0436196], [-8.0736593, 41.0437827], [-8.0736476, 41.0439225], [-8.0736079, 41.0440481], [-8.0729841, 41.0452915], [-8.0728395, 41.0454445], [-8.0726763, 41.0455553], [-8.0713383, 41.0460797], [-8.0711634, 41.0461809], [-8.0710258, 41.0463033], [-8.0709394, 41.0464278], [-8.0708731, 41.0465581], [-8.0706508, 41.0470939], [-8.0705461, 41.0473513], [-8.0704819, 41.0474997], [-8.0702619, 41.0485994], [-8.0701814, 41.0490017], [-8.0701987, 41.0491818], [-8.0702828, 41.0493356], [-8.0704137, 41.0494473], [-8.0706293, 41.049554], [-8.0715697, 41.0497881], [-8.0718223, 41.0498884], [-8.0719488, 41.0499888], [-8.0720566, 41.0501244], [-8.0727398, 41.0517174], [-8.0735406, 41.0527628], [-8.073725, 41.0529312], [-8.0738828, 41.0530359], [-8.0740966, 41.0531195], [-8.0750489, 41.0533648], [-8.0753381, 41.0534763], [-8.0759955, 41.0539683], [-8.0767586, 41.0545389], [-8.0768994, 41.0546894], [-8.0770122, 41.0548822], [-8.0773332, 41.0558908], [-8.0773644, 41.0559888], [-8.0774576, 41.0562817], [-8.0774526, 41.0564531], [-8.0774103, 41.0566386], [-8.0769783, 41.057678], [-8.076952, 41.0578251], [-8.0769631, 41.0579581], [-8.0770295, 41.0581448], [-8.077129, 41.0582772], [-8.0772821, 41.0583935], [-8.0775327, 41.0585067], [-8.0779549, 41.0586522], [-8.0794878, 41.0591513], [-8.0799787, 41.0593111], [-8.0801729, 41.059354], [-8.0804123, 41.059356], [-8.0819852, 41.059015], [-8.0822788, 41.0590098], [-8.0824972, 41.0590773], [-8.0826781, 41.0592096], [-8.0827694, 41.0593204], [-8.0827976, 41.059494], [-8.0827697, 41.0596606], [-8.0820283, 41.0615153], [-8.0820048, 41.0615741], [-8.0819753, 41.0616464], [-8.0814143, 41.0630282], [-8.0813759, 41.063139], [-8.0813578, 41.0632032], [-8.081344, 41.0632714], [-8.0813303, 41.0634046], [-8.081326, 41.0637957], [-8.0813289, 41.0640064], [-8.0813429, 41.0650298], [-8.0813472, 41.065082], [-8.0813568, 41.065143], [-8.0813632, 41.0651799], [-8.0813738, 41.0652152], [-8.0813962, 41.0652706], [-8.0814281, 41.0653252], [-8.081459, 41.0653709], [-8.0814898, 41.065411], [-8.0815313, 41.0654584], [-8.0815771, 41.0655057], [-8.0821349, 41.0660683], [-8.0821796, 41.0661116], [-8.0822168, 41.0661542], [-8.0822488, 41.0661991], [-8.0822828, 41.0662521], [-8.0823073, 41.0663035], [-8.082319, 41.066346], [-8.0823243, 41.066399], [-8.0823222, 41.0664559], [-8.0823111, 41.0665085], [-8.0822999, 41.0665442], [-8.082285, 41.0665819], [-8.0822594, 41.0666261], [-8.0822285, 41.0666638], [-8.0821934, 41.0667023], [-8.082154, 41.0667368], [-8.0819933, 41.0668516], [-8.0811103, 41.0674846], [-8.0810365, 41.0675433], [-8.0809748, 41.0675918]]}, "properties": {"highway": "primary", "lanes": "2", "name": "Rua Central de Travassos", "old_ref": "EN 321", "ref": "ER 321", "status": "incomplete"}}, {"type": "Feature", "geometry": {"type": "LineString", "coordinates": [[-8.0550785, 41.0190893], [-8.0544474, 41.0194516], [-8.0542971, 41.0195442], [-8.0541719, 41.0196637], [-8.0533818, 41.0208412], [-8.0532409, 41.0211502], [-8.0531717, 41.0220752], [-8.0535919, 41.0231867], [-8.0535839, 41.0234556], [-8.0533792, 41.0243424], [-8.0534086, 41.024591], [-8.0536504, 41.0253095], [-8.053637, 41.0256074], [-8.0532812, 41.0268403], [-8.0532622, 41.0270469], [-8.0533707, 41.0274373], [-8.05356, 41.0278755], [-8.0536616, 41.0280343], [-8.0537063, 41.0281042], [-8.05391, 41.0282839], [-8.0544149, 41.0287291], [-8.0545506, 41.0288063], [-8.0545984, 41.0288335], [-8.0547913, 41.0289027], [-8.0561902, 41.0291234], [-8.0563877, 41.0291209], [-8.0565386, 41.0290973], [-8.0567055, 41.0290401], [-8.0568585, 41.0289441], [-8.0573125, 41.0284212], [-8.0575465, 41.0281718], [-8.0577805, 41.0279859], [-8.058081, 41.0278635], [-8.0582579, 41.0278158], [-8.0584347, 41.0278033], [-8.0586169, 41.0278128], [-8.0587991, 41.0278434], [-8.0591661, 41.0279798], [-8.0593854, 41.0281164], [-8.0595767, 41.0283375], [-8.0606399, 41.0300869], [-8.0606941, 41.0302662], [-8.0607297, 41.030456], [-8.0606995, 41.0306694], [-8.0606226, 41.0308687], [-8.0598203, 41.0326422], [-8.0597432, 41.0329351], [-8.0597622, 41.0337839], [-8.0597471, 41.0340339], [-8.0595477, 41.0349503], [-8.059559, 41.0351931], [-8.0595889, 41.0353584], [-8.0599639, 41.0361307], [-8.0601793, 41.0363333], [-8.0606288, 41.0365981], [-8.0607837, 41.0366917], [-8.0609293, 41.0368488], [-8.0610124, 41.0369787], [-8.0610769, 41.0371755], [-8.0610921, 41.0378751], [-8.0611447, 41.0380464], [-8.0613043, 41.038245], [-8.061444, 41.0383492], [-8.0616678, 41.0384252], [-8.0630941, 41.0387645], [-8.0634908, 41.0388672], [-8.063754, 41.0389875], [-8.0639015, 41.0390941], [-8.0642945, 41.0394283], [-8.0651035, 41.0401414], [-8.0652588, 41.040305], [-8.0653604, 41.040458], [-8.0654766, 41.0407564], [-8.0655647, 41.0408928], [-8.065812, 41.0411535], [-8.0661285, 41.0413942], [-8.0663608, 41.0415149], [-8.0666124, 41.0416013], [-8.0668733, 41.0416595], [-8.0671807, 41.0416925], [-8.0675247, 41.0416854], [-8.0677992, 41.0416411], [-8.068294, 41.0415426], [-8.0685273, 41.0415146], [-8.0687719, 41.0415206], [-8.0691083, 41.0415636], [-8.0700705, 41.0417052], [-8.0704703, 41.041762], [-8.0710045, 41.0418235], [-8.0718485, 41.0418943], [-8.0720138, 41.0419077]]}, "properties": {"highway": "primary", "lanes": "2", "name": "Rua de Tendais", "old_ref": "EN 321", "ref": "ER 321", "status": "incomplete"}}, {"type": "Feature", "geometry": {"type": "LineString", "coordinates": [[-8.0720138, 41.0419077], [-8.0721122, 41.0419134], [-8.0722433, 41.0419298], [-8.0723701, 41.0419659], [-8.0724931, 41.042017], [-8.0726068, 41.0420963]]}, "properties": {"bridge": "yes", "highway": "primary", "lanes": "2", "layer": "1", "name": "Rua de Tendais", "old_ref": "EN 321", "ref": "ER 321", "status": "incomplete"}}, {"type": "Feature", "geometry": {"type": "LineString", "coordinates": [[-8.0873096, 41.0727517], [-8.0872947, 41.0728072], [-8.0872606, 41.0728555], [-8.0871873, 41.0729413]]}, "properties": {"highway": "primary", "lanes": "1", "name": "Rua Conselheiro Martins de Carvalho", "old_ref": "EN 321", "oneway": "yes", "ref": "ER 321"}}, {"type": "Feature", "geometry": {"type": "LineString", "coordinates": [[-8.0809748, 41.0675918], [-8.0809198, 41.0676424], [-8.0808769, 41.0676909], [-8.0808421, 41.0677455], [-8.0808032, 41.0678062], [-8.0807683, 41.067887], [-8.0807442, 41.067974], [-8.0807334, 41.0680306], [-8.0807267, 41.0681014], [-8.0807079, 41.0684502], [-8.0806999, 41.0686413], [-8.0807053, 41.0687495], [-8.0807173, 41.0688375], [-8.0807334, 41.0689052], [-8.0807576, 41.068977], [-8.0807898, 41.0690528], [-8.0808407, 41.0691448], [-8.0809038, 41.0692348], [-8.0809695, 41.0693097], [-8.0810285, 41.0693663], [-8.0810942, 41.0694199], [-8.0811465, 41.0694563], [-8.0812055, 41.0694947], [-8.081286, 41.0695402], [-8.0813745, 41.0695826], [-8.0814737, 41.0696241], [-8.0815676, 41.0696554], [-8.0816789, 41.0696827], [-8.0817835, 41.069702], [-8.0819029, 41.0697151], [-8.0820035, 41.0697202], [-8.0821027, 41.0697202], [-8.0821939, 41.0697131], [-8.0823052, 41.0696969], [-8.0823951, 41.0696797], [-8.0824688, 41.0696595], [-8.0825359, 41.0696403], [-8.082607, 41.069616], [-8.0826955, 41.0695796], [-8.0827826, 41.0695382], [-8.0828882, 41.0694859], [-8.0838431, 41.0689887], [-8.0840228, 41.0689018], [-8.0841153, 41.0688644], [-8.0842038, 41.0688381], [-8.0842843, 41.0688239], [-8.0843661, 41.0688189], [-8.0844359, 41.0688209], [-8.0845177, 41.068834], [-8.0845981, 41.0688502], [-8.0846625, 41.0688694], [-8.0847282, 41.0688967], [-8.0847926, 41.0689372], [-8.0848462, 41.0689817], [-8.0848985, 41.0690312], [-8.0849361, 41.0690848], [-8.0849616, 41.0691333], [-8.0849756, 41.0691723], [-8.0849816, 41.0692035], [-8.084983, 41.0692415], [-8.0849857, 41.0693133], [-8.084979, 41.0694023], [-8.0849616, 41.0694973], [-8.0847524, 41.0708056], [-8.0847537, 41.070932], [-8.0847644, 41.0709977], [-8.0847859, 41.0710645], [-8.0848127, 41.0711322], [-8.0848476, 41.0711999], [-8.0849012, 41.0712768], [-8.0849482, 41.0713324], [-8.0849884, 41.0713718], [-8.0850259, 41.0714042], [-8.0850756, 41.0714386], [-8.085152, 41.0714861], [-8.0852539, 41.0715437], [-8.0853371, 41.0715892], [-8.0854471, 41.0716499], [-8.085734, 41.0717995], [-8.0858466, 41.0718623]]}, "properties": {"highway": "primary", "lanes": "2", "name": "Rua de Luvid\u00e3es", "old_ref": "EN 321", "ref": "ER 321", "status": "incomplete"}}, {"type": "Feature", "geometry": {"type": "LineString", "coordinates": [[-8.0304496, 40.9893905], [-8.0306083, 40.989434], [-8.0307395, 40.989519], [-8.0309043, 40.9896996], [-8.0315985, 40.9918917], [-8.0320772, 40.9926063], [-8.0322979, 40.9928271], [-8.0326675, 40.9929676], [-8.0329973, 40.9930077], [-8.0331582, 40.9930109], [-8.0333191, 40.9929957], [-8.0342153, 40.992797], [-8.0343372, 40.9927862], [-8.0344712, 40.992803], [-8.0346621, 40.9928612], [-8.0349972, 40.9931362], [-8.0357871, 40.9941539]]}, "properties": {"highway": "primary", "name": "Rua de Tendais", "old_ref": "EN 321", "ref": "ER 321", "status": "incomplete"}}, {"type": "Feature", "geometry": {"type": "LineString", "coordinates": [[-8.0874117, 41.0727926], [-8.0874149, 41.0727505], [-8.0874001, 41.0727005]]}, "properties": {"highway": "primary", "lanes": "1", "name": "Rua Conselheiro Martins de Carvalho", "old_ref": "EN 321", "oneway": "yes", "ref": "ER 321"}}, {"type": "Feature", "geometry": {"type": "LineString", "coordinates": [[-8.0873988, 41.0728449], [-8.0874105, 41.0728088], [-8.0874117, 41.0727926]]}, "properties": {"highway": "primary", "lanes": "1", "name": "Rua Conselheiro Martins de Carvalho", "old_ref": "EN 321", "oneway": "yes", "ref": "ER 321"}}, {"type": "Feature", "geometry": {"type": "LineString", "coordinates": [[-7.9810454, 40.9536206], [-7.9812381, 40.9535235], [-7.9813619, 40.9534218], [-7.9823113, 40.952295], [-7.9825746, 40.95207], [-7.9829469, 40.9518752], [-7.9845106, 40.9513891], [-7.9848776, 40.9512144], [-7.9857818, 40.9506198], [-7.9859527, 40.9505472], [-7.9861488, 40.9504873], [-7.986407, 40.9504491], [-7.9866914, 40.9504411], [-7.9873296, 40.9504772], [-7.9878961, 40.9504471], [-7.9891141, 40.950182], [-7.9895024, 40.9501358], [-7.9899571, 40.9502021], [-7.9902789, 40.9503808], [-7.9905635, 40.9509051], [-7.9908667, 40.9519375], [-7.9910422, 40.9521865], [-7.9912895, 40.9524095], [-7.9928479, 40.9531607], [-7.9930221, 40.9532688]]}, "properties": {"highway": "primary", "old_ref": "EN 321", "ref": "ER 321", "status": "incomplete"}}, {"type": "Feature", "geometry": {"type": "LineString", "coordinates": [[-7.9258972, 40.9415214], [-7.9267417, 40.9436008], [-7.9269952, 40.9440183], [-7.927277, 40.9443088], [-7.9277292, 40.9445959], [-7.9281815, 40.9448055], [-7.9294574, 40.9451653], [-7.9298354, 40.9453501], [-7.9300735, 40.9455943], [-7.9310349, 40.946931], [-7.9311965, 40.9471109], [-7.9314827, 40.9472809], [-7.9318411, 40.94737]]}, "properties": {"highway": "primary", "old_ref": "EN 321", "ref": "ER 321", "status": "incomplete"}}, {"type": "Feature", "geometry": {"type": "LineString", "coordinates": [[-7.9318411, 40.94737], [-7.9322693, 40.9473551], [-7.9326713, 40.9472132], [-7.9345633, 40.9457561], [-7.9348109, 40.9455759]]}, "properties": {"highway": "primary", "old_ref": "EN 321", "ref": "ER 321", "status": "incomplete"}}, {"type": "Feature", "geometry": {"type": "LineString", "coordinates": [[-7.9348109, 40.9455759], [-7.9350158, 40.9454869], [-7.9352319, 40.945393], [-7.9356295, 40.9453353], [-7.9360184, 40.9453369], [-7.9364051, 40.9453996], [-7.9386361, 40.9462252], [-7.9416224, 40.9473304], [-7.9418977, 40.9473881], [-7.9421774, 40.9474179], [-7.9424352, 40.9473634], [-7.943154, 40.9469376], [-7.9432446, 40.9469116], [-7.9433899, 40.94687], [-7.9436696, 40.9468452], [-7.9439318, 40.9468947], [-7.9441896, 40.9470449], [-7.9443425, 40.9472281], [-7.9445719, 40.9489047], [-7.9446943, 40.9491737], [-7.944928, 40.9493882], [-7.9454043, 40.9495713], [-7.9457779, 40.9495713], [-7.9467908, 40.9493872], [-7.9469886, 40.949347]]}, "properties": {"highway": "primary", "old_ref": "EN 321", "ref": "ER 321", "status": "incomplete"}}, {"type": "Feature", "geometry": {"type": "LineString", "coordinates": [[-7.9500923, 40.9655682], [-7.9504301, 40.9655601], [-7.9506667, 40.9654617], [-7.9508848, 40.9652428], [-7.9509236, 40.9650865]]}, "properties": {"highway": "primary", "old_ref": "EN 321", "ref": "ER 321", "status": "incomplete"}}, {"type": "Feature", "geometry": {"type": "LineString", "coordinates": [[-7.9193472, 40.9388871], [-7.9196672, 40.9389783], [-7.9200668, 40.9389619], [-7.9204484, 40.9387988], [-7.9214799, 40.9377435], [-7.9226695, 40.9365103], [-7.9228259, 40.9363697], [-7.9230233, 40.936259], [-7.9231923, 40.9361975], [-7.9234205, 40.9361651], [-7.9236643, 40.9361674], [-7.923781, 40.9361871], [-7.9238812, 40.936204]]}, "properties": {"highway": "primary", "old_ref": "EN 321", "ref": "ER 321", "status": "incomplete"}}, {"type": "Feature", "geometry": {"type": "LineString", "coordinates": [[-7.9731868, 40.9549964], [-7.9733944, 40.9547991], [-7.9736655, 40.9546329], [-7.973917, 40.954561], [-7.9742485, 40.9545188], [-7.9747894, 40.9544996]]}, "properties": {"highway": "primary", "old_ref": "EN 321", "ref": "ER 321", "status": "incomplete"}}, {"type": "Feature", "geometry": {"type": "MultiPolygon", "coordinates": [[[[-8.0903947, 41.0738866], [-8.0903901, 41.0738578], [-8.0903741, 41.0738314], [-8.0903482, 41.0738099], [-8.0903174, 41.0737961], [-8.0902826, 41.0737894], [-8.0902468, 41.0737904], [-8.0902088, 41.0738006], [-8.0901771, 41.0738194], [-8.0901549, 41.0738448], [-8.0901446, 41.0738742], [-8.0901472, 41.0739045], [-8.0901613, 41.0739312], [-8.0901854, 41.0739535], [-8.0902172, 41.0739693], [-8.0902539, 41.0739771], [-8.090292, 41.0739763], [-8.0903214, 41.0739693], [-8.0903476, 41.0739572], [-8.0903691, 41.0739406], [-8.0903875, 41.0739151], [-8.0903947, 41.0738866]]]]}, "properties": {"highway": "primary", "junction": "roundabout", "old_ref": "EN 321", "ref": "ER 321"}}]}