{"type": "FeatureCollection", "features": [{"type": "Feature", "geometry": {"type": "LineString", "coordinates": [[-7.31645, 40.9585005], [-7.3158012, 40.958305], [-7.3147369, 40.958124], [-7.3135064, 40.9580974], [-7.3122663, 40.9582688], [-7.3118232, 40.9584069], [-7.3112743, 40.9585781], [-7.3112212, 40.9585946], [-7.3111177, 40.958641], [-7.3107577, 40.9588022], [-7.3098213, 40.959367], [-7.3085652, 40.9604797], [-7.3080998, 40.9608284], [-7.3078463, 40.9610183], [-7.3073283, 40.9614065], [-7.305757, 40.9624108], [-7.3043293, 40.9633232], [-7.3038942, 40.9636012], [-7.3035633, 40.9638127], [-7.3026684, 40.9642737], [-7.3020835, 40.964515], [-7.30117, 40.9647995], [-7.3010832, 40.9648265], [-7.2997664, 40.9652366], [-7.2986075, 40.9657573], [-7.2975432, 40.9664765], [-7.2970255, 40.9669592], [-7.2962232, 40.9679173], [-7.295405, 40.9686099], [-7.2949001, 40.9688826], [-7.2941713, 40.9691794], [-7.2934458, 40.9693628], [-7.2926436, 40.9694545], [-7.2919373, 40.9694569], [-7.2912693, 40.9693725], [-7.2906205, 40.9692204], [-7.2901733, 40.9690545], [-7.2901457, 40.9690443], [-7.2898982, 40.9689525], [-7.2889494, 40.9685314], [-7.2889318, 40.9685236], [-7.2837448, 40.9662218], [-7.2833589, 40.9660505], [-7.2826501, 40.965736], [-7.2804147, 40.9647439], [-7.2797945, 40.9644686], [-7.2789627, 40.9641805], [-7.2785311, 40.9640311], [-7.2774174, 40.9638049], [-7.2771793, 40.9637826], [-7.2766191, 40.96373], [-7.2765735, 40.9637257], [-7.2759542, 40.9637257], [-7.2740507, 40.9638333], [-7.2736227, 40.9638558]]}, "properties": {"highway": "primary", "old_ref": "EN 331", "ref": "ER 331"}}, {"type": "Feature", "geometry": {"type": "LineString", "coordinates": [[-7.3176008, 40.9590334], [-7.3172458, 40.9588408], [-7.3167856, 40.9586284], [-7.31645, 40.9585005]]}, "properties": {"bridge": "yes", "highway": "primary", "layer": "1", "old_ref": "EN 331", "ref": "ER 331"}}, {"type": "Feature", "geometry": {"type": "LineString", "coordinates": [[-7.328446, 41.0017798], [-7.3280208, 41.0016248], [-7.3278928, 41.0015464], [-7.3277109, 41.0014349], [-7.3275384, 41.0012667], [-7.3274863, 41.0012158], [-7.3273642, 41.001025], [-7.32728, 41.0008234], [-7.327189, 41.0005757], [-7.3271879, 41.0005641]]}, "properties": {"highway": "primary", "old_ref": "EN 331", "oneway": "yes", "ref": "ER 331"}}, {"type": "Feature", "geometry": {"type": "LineString", "coordinates": [[-7.3271879, 41.0005641], [-7.3271648, 41.0007735], [-7.3272291, 41.0009334], [-7.3273141, 41.0010995], [-7.3273471, 41.0011642], [-7.3275027, 41.0013585], [-7.3275221, 41.0013748], [-7.3276813, 41.0015087], [-7.3276905, 41.0015164], [-7.3278273, 41.0015953], [-7.3280146, 41.0017001], [-7.3282081, 41.0017553], [-7.328446, 41.0017798]]}, "properties": {"highway": "primary", "old_ref": "EN 331", "oneway": "yes", "ref": "ER 331"}}, {"type": "Feature", "geometry": {"type": "LineString", "coordinates": [[-7.3271879, 41.0005641], [-7.3271336, 40.9999779], [-7.3271148, 40.9997755], [-7.3269333, 40.9978162], [-7.3269238, 40.997575], [-7.3270164, 40.997066], [-7.3270375, 40.9969974], [-7.327944, 40.9940534], [-7.3279978, 40.99388], [-7.3280295, 40.9937756], [-7.3280392, 40.9937442], [-7.3282501, 40.9934692], [-7.3283584, 40.9933735], [-7.3284402, 40.9933012], [-7.3284821, 40.9932642], [-7.3291674, 40.9926587], [-7.3293492, 40.9924466], [-7.3295095, 40.9922596], [-7.3295893, 40.9921666], [-7.3296553, 40.9920936], [-7.3297683, 40.9918168], [-7.3298051, 40.9916675], [-7.3298018, 40.9915381], [-7.3297846, 40.9913064], [-7.3297619, 40.9912136], [-7.3296053, 40.990818], [-7.3292665, 40.9904199], [-7.3276266, 40.9895311], [-7.3274638, 40.9894429], [-7.3263763, 40.9888707], [-7.3261533, 40.9887533], [-7.3258499, 40.9885937], [-7.3256638, 40.9884678], [-7.3255111, 40.9883645], [-7.3249614, 40.9878361], [-7.3247504, 40.9875394], [-7.324565, 40.987151], [-7.3245573, 40.9871155], [-7.3244532, 40.9866323], [-7.3244436, 40.9862969], [-7.3244881, 40.9861216], [-7.324744, 40.9851123], [-7.3247568, 40.9848155], [-7.3246449, 40.9842703], [-7.3245203, 40.983988], [-7.3240749, 40.9833071], [-7.3238843, 40.9830156], [-7.3237468, 40.9825645], [-7.3237404, 40.9823015], [-7.3239066, 40.9817634], [-7.3240441, 40.9815414], [-7.3249115, 40.9806617], [-7.3249933, 40.9805787], [-7.3253385, 40.9800286], [-7.3255079, 40.9794568], [-7.3255111, 40.9788825], [-7.3254344, 40.9785399], [-7.3251205, 40.9778691], [-7.324907, 40.977413], [-7.3246449, 40.9765878], [-7.32445, 40.9747515], [-7.3241911, 40.9739721], [-7.3239482, 40.9735281], [-7.3236318, 40.9730985], [-7.3228775, 40.9722877], [-7.3227177, 40.9720561], [-7.3225547, 40.9717182], [-7.3224684, 40.9713466], [-7.3224652, 40.9709798], [-7.3225355, 40.9706082], [-7.323488, 40.9687813], [-7.3235014, 40.9687357], [-7.3235838, 40.9684555], [-7.3235806, 40.9677581], [-7.3232962, 40.9669907], [-7.3230852, 40.9667035], [-7.3227656, 40.9663801], [-7.3215767, 40.9654316], [-7.3209183, 40.9645942], [-7.3206498, 40.9640898], [-7.3195887, 40.9611381], [-7.3192092, 40.9604536], [-7.318614, 40.9597989], [-7.3185084, 40.9596827], [-7.3180706, 40.9593255], [-7.3176008, 40.9590334]]}, "properties": {"highway": "primary", "old_ref": "EN 331", "ref": "ER 331"}}, {"type": "Feature", "geometry": {"type": "LineString", "coordinates": [[-7.3413896, 40.9934685], [-7.3412003, 40.9933829], [-7.3410138, 40.9933471], [-7.3407099, 40.9933985], [-7.3406849, 40.9934027], [-7.3404279, 40.9936151], [-7.3394574, 40.995753], [-7.3393246, 40.9960456], [-7.3380046, 40.9978065], [-7.336397, 40.9996084], [-7.3362532, 40.9998303], [-7.3359272, 41.0006432], [-7.3356715, 41.0009495], [-7.3350003, 41.0013065], [-7.3347446, 41.0013958], [-7.3330283, 41.00176], [-7.3321014, 41.0022689], [-7.3316028, 41.0023992], [-7.3312928, 41.0023968], [-7.3284643, 41.0017865], [-7.328446, 41.0017798]]}, "properties": {"highway": "primary", "old_ref": "EN 331", "ref": "ER 331"}}, {"type": "Feature", "geometry": {"type": "LineString", "coordinates": [[-7.3418015, 40.9937927], [-7.3413896, 40.9934685]]}, "properties": {"bridge": "yes", "highway": "primary", "layer": "1", "old_ref": "EN 331", "ref": "ER 331"}}, {"type": "Feature", "geometry": {"type": "LineString", "coordinates": [[-7.3858991, 40.99214], [-7.3742245, 40.9937916], [-7.3734015, 40.9938097], [-7.3725585, 40.993674], [-7.3716636, 40.9933453], [-7.3711084, 40.9930781], [-7.3710389, 40.9930447], [-7.3687321, 40.9919344], [-7.3687065, 40.9919221], [-7.3650358, 40.9901553], [-7.3635375, 40.9894342], [-7.3627865, 40.9891326], [-7.3618995, 40.9889637], [-7.3555617, 40.9881876], [-7.3552923, 40.9881491], [-7.3538719, 40.9879742], [-7.3537984, 40.9879651], [-7.3532311, 40.987947], [-7.3528995, 40.9879802], [-7.3523042, 40.988143], [-7.3517929, 40.9884174], [-7.3506692, 40.9892477], [-7.3504745, 40.9893915], [-7.3501209, 40.989777], [-7.350079, 40.9898227], [-7.3498912, 40.9902118], [-7.3497034, 40.9921809], [-7.3495915, 40.9926061], [-7.349224, 40.9931398], [-7.3481733, 40.9942194], [-7.3479535, 40.994343], [-7.3476899, 40.9944184], [-7.3473703, 40.9944425], [-7.3461392, 40.9943496], [-7.3425304, 40.9940772], [-7.3423364, 40.9940626], [-7.3422495, 40.9940284], [-7.3419529, 40.9939118], [-7.3418015, 40.9937927]]}, "properties": {"highway": "primary", "old_ref": "EN 331", "ref": "ER 331"}}, {"type": "Feature", "geometry": {"type": "LineString", "coordinates": [[-7.3869291, 40.9919316], [-7.3865668, 40.9919899], [-7.3862304, 40.9920584], [-7.3858991, 40.99214]]}, "properties": {"highway": "primary", "old_ref": "EN 331", "oneway": "yes", "ref": "ER 331"}}, {"type": "Feature", "geometry": {"type": "LineString", "coordinates": [[-7.2736227, 40.9638558], [-7.2734998, 40.9638486], [-7.2734641, 40.9638458], [-7.2734261, 40.9638416], [-7.2733855, 40.9638363], [-7.2733511, 40.9638309], [-7.2733087, 40.963823]]}, "properties": {"highway": "primary", "old_ref": "EN 331", "oneway": "yes", "ref": "ER 331"}}, {"type": "Feature", "geometry": {"type": "LineString", "coordinates": [[-7.2732721, 40.9639215], [-7.2732999, 40.9639115], [-7.2733275, 40.963903], [-7.273358, 40.9638953], [-7.2733908, 40.9638886], [-7.273423, 40.9638832], [-7.2736227, 40.9638558]]}, "properties": {"highway": "primary", "old_ref": "EN 331", "oneway": "yes", "ref": "ER 331"}}, {"type": "Feature", "geometry": {"type": "LineString", "coordinates": [[-7.3858991, 40.99214], [-7.386229, 40.9921239], [-7.3865623, 40.9921022], [-7.3868389, 40.9920723]]}, "properties": {"highway": "primary", "old_ref": "EN 331", "oneway": "yes", "ref": "ER 331"}}]}