{"type": "FeatureCollection", "features": [{"type": "Feature", "geometry": {"type": "LineString", "coordinates": [[-8.4584563, 37.7321462], [-8.4586778, 37.7321229], [-8.4588835, 37.7321279], [-8.4591127, 37.7321466], [-8.4593691, 37.7321745], [-8.4600157, 37.7322697], [-8.4602499, 37.732311], [-8.4604756, 37.7323796], [-8.4607508, 37.7324772], [-8.4609773, 37.73257]]}, "properties": {"highway": "primary", "maxspeed": "50", "ref": "ER 389"}}, {"type": "Feature", "geometry": {"type": "LineString", "coordinates": [[-8.3420712, 37.7118673], [-8.3412642, 37.711463]]}, "properties": {"highway": "primary", "lanes": "2", "maxspeed": "70", "postal_code": "7670-135", "ref": "ER 389", "source": "GPS", "surface": "asphalt"}}, {"type": "Feature", "geometry": {"type": "LineString", "coordinates": [[-8.3423979, 37.7120232], [-8.3420712, 37.7118673]]}, "properties": {"bridge": "yes", "highway": "primary", "lanes": "2", "layer": "1", "ref": "ER 389", "source": "GPS"}}, {"type": "Feature", "geometry": {"type": "LineString", "coordinates": [[-8.4807121, 37.7449176], [-8.4808427, 37.7449881]]}, "properties": {"bridge": "yes", "highway": "primary", "layer": "1", "ref": "ER 389"}}, {"type": "Feature", "geometry": {"type": "LineString", "coordinates": [[-8.568221, 37.7788237], [-8.5688591, 37.7789272], [-8.5731137, 37.779613], [-8.5734972, 37.7796789], [-8.5736991, 37.7797184], [-8.5738682, 37.7797658], [-8.5750866, 37.7801563], [-8.5752125, 37.7801986], [-8.5758402, 37.7804045], [-8.5760931, 37.7804815], [-8.576268, 37.780532], [-8.5764546, 37.7805751], [-8.5767194, 37.7806365], [-8.5768704, 37.7806656], [-8.577039, 37.7806889], [-8.5771993, 37.7806912], [-8.577345, 37.7806826], [-8.57764, 37.7806546], [-8.5785679, 37.7805712], [-8.5788874, 37.7805495], [-8.5794994, 37.7805079], [-8.5813958, 37.7804372], [-8.5822432, 37.7804419], [-8.5832317, 37.7804933], [-8.5844474, 37.7805644], [-8.5849807, 37.7805998], [-8.5852742, 37.7806403], [-8.585539, 37.780689], [-8.5857815, 37.7807487], [-8.5860388, 37.7808234], [-8.5863384, 37.7809093], [-8.586621, 37.7809829], [-8.5867949, 37.7810125], [-8.5870045, 37.7810456], [-8.5872324, 37.7810565], [-8.5874425, 37.7810513], [-8.5877508, 37.7810289], [-8.5880875, 37.7810003], [-8.588706, 37.7809614], [-8.5895646, 37.7808909], [-8.5904178, 37.780816], [-8.5912345, 37.7807789], [-8.5918604, 37.7807635], [-8.5921373, 37.7807551], [-8.5959803, 37.7807078], [-8.5991152, 37.7806614], [-8.5991386, 37.7806618], [-8.6016936, 37.7806181], [-8.6026195, 37.7806104], [-8.6036502, 37.7805946], [-8.6038021, 37.7805925], [-8.6043763, 37.7806045], [-8.6047052, 37.7806301], [-8.6049943, 37.7806699], [-8.6057812, 37.7807594], [-8.6059569, 37.7807838], [-8.6061515, 37.7808257], [-8.6065069, 37.7809332], [-8.6066433, 37.7809842], [-8.6068063, 37.7810684], [-8.6069748, 37.7811555], [-8.6084324, 37.7819735], [-8.6084694, 37.781994], [-8.6105437, 37.7831312], [-8.6113833, 37.7836071], [-8.611558, 37.7836987], [-8.6117176, 37.7837586], [-8.6118525, 37.7838015], [-8.6119706, 37.7838302], [-8.6121895, 37.7838751], [-8.6123962, 37.7839101], [-8.6126412, 37.7839566], [-8.6127953, 37.7839923], [-8.6128836, 37.7840202], [-8.6129812, 37.7840604], [-8.6130536, 37.7841002], [-8.6131308, 37.7841514], [-8.6132793, 37.7842804], [-8.613344, 37.7843595], [-8.6134598, 37.7845396], [-8.6140461, 37.7856762], [-8.614333, 37.7862316], [-8.6145292, 37.7866269], [-8.614634, 37.7868403], [-8.614682, 37.7869249], [-8.6147245, 37.7869896], [-8.614788, 37.7870724], [-8.6148426, 37.7871354], [-8.6148825, 37.7871746], [-8.6150541, 37.7873104], [-8.6179373, 37.789605], [-8.619748, 37.7910507], [-8.6198294, 37.7911043], [-8.6198951, 37.7911409], [-8.6199638, 37.7911737], [-8.6200514, 37.7912083], [-8.6202067, 37.7912521], [-8.6204331, 37.7913084], [-8.6218301, 37.791669], [-8.6219681, 37.7917016], [-8.622064, 37.7917178], [-8.6221594, 37.7917278], [-8.6222405, 37.7917237], [-8.6223085, 37.7917101], [-8.6224061, 37.7916734], [-8.6225125, 37.7916231], [-8.6227778, 37.7914983], [-8.6233133, 37.7912383], [-8.6249974, 37.7904474], [-8.6250909, 37.7904126], [-8.625206, 37.7903893], [-8.6253157, 37.7903732], [-8.6256336, 37.790336], [-8.6275671, 37.7900893], [-8.62771, 37.7900701], [-8.6278529, 37.7900552], [-8.627941, 37.7900496], [-8.6280383, 37.7900583], [-8.6281616, 37.790085], [-8.6283006, 37.7901262], [-8.6300631, 37.7906472], [-8.633392, 37.7915898], [-8.6335278, 37.7916213], [-8.6336347, 37.791641], [-8.6337229, 37.7916514], [-8.6338346, 37.7916558], [-8.6342479, 37.7916302], [-8.634355, 37.7916352], [-8.6344466, 37.7916507], [-8.6345435, 37.7916815], [-8.6346266, 37.7917177], [-8.6347765, 37.7918029], [-8.6349321, 37.7918978], [-8.6351203, 37.792018], [-8.6352343, 37.7920807], [-8.6353686, 37.7921366], [-8.6356704, 37.7922491], [-8.6373186, 37.7928244], [-8.640376, 37.7939224], [-8.6418101, 37.7944101], [-8.6419303, 37.7944542], [-8.6420238, 37.7944955], [-8.6420749, 37.7945222], [-8.6421214, 37.7945531], [-8.6421924, 37.7946024], [-8.6423016, 37.7947082], [-8.6425, 37.7949206], [-8.6429437, 37.7954035]]}, "properties": {"highway": "primary", "lanes": "2", "maxspeed": "90", "ref": "ER 389", "surface": "asphalt"}}, {"type": "Feature", "geometry": {"type": "LineString", "coordinates": [[-8.4108344, 37.7268817], [-8.4111046, 37.7269045], [-8.412293, 37.7269968], [-8.4135185, 37.7270758], [-8.413937, 37.7271055], [-8.415533, 37.7272223], [-8.4156152, 37.7272283], [-8.4164257, 37.7272877], [-8.4168361, 37.7273209], [-8.4172207, 37.7273644], [-8.4177747, 37.7274343], [-8.418361, 37.7275203], [-8.4201919, 37.7277414], [-8.420395, 37.7277716], [-8.4204746, 37.7277869], [-8.4205568, 37.7278082], [-8.4206926, 37.7278532], [-8.4207781, 37.7278891], [-8.4208553, 37.7279218], [-8.4209308, 37.7279579], [-8.4210097, 37.7279981], [-8.421098, 37.7280584], [-8.4212705, 37.7281759], [-8.4214138, 37.7282736], [-8.4218402, 37.7286067], [-8.4220883, 37.7288133], [-8.4222821, 37.7290011], [-8.422996, 37.7296761], [-8.4268997, 37.733481], [-8.4270965, 37.7336646], [-8.4272358, 37.733784], [-8.42739, 37.7339128], [-8.4275977, 37.7340656], [-8.4277557, 37.7341782], [-8.4278977, 37.7342713], [-8.4282429, 37.734485], [-8.4284382, 37.7346028], [-8.4286112, 37.7346964], [-8.4287334, 37.7347474], [-8.4288539, 37.7347874], [-8.4289939, 37.7348237], [-8.4291725, 37.7348525], [-8.4293165, 37.7348669], [-8.4294828, 37.7348731], [-8.4298805, 37.7348615], [-8.4303083, 37.7348484], [-8.430458, 37.734852], [-8.430586, 37.7348634], [-8.4307173, 37.7348944], [-8.4308217, 37.7349333], [-8.4310753, 37.7350697], [-8.4312995, 37.7352068], [-8.4314163, 37.7353109], [-8.4314866, 37.7354103], [-8.4315256, 37.7355217], [-8.431528, 37.7355971], [-8.4315163, 37.7356783], [-8.4314507, 37.7358697], [-8.4314363, 37.7359551], [-8.4314437, 37.7360289], [-8.4314792, 37.7361084], [-8.4315209, 37.7361732], [-8.4315847, 37.7362278], [-8.4316677, 37.7362862], [-8.4317562, 37.7363256], [-8.4318334, 37.7363492], [-8.4319376, 37.7363695], [-8.4321036, 37.7363812], [-8.432329, 37.7363794], [-8.4324863, 37.7363789], [-8.4326285, 37.7363915], [-8.4327659, 37.7364145], [-8.4329053, 37.7364526], [-8.4330441, 37.7365093], [-8.4331264, 37.7365474], [-8.4332122, 37.7365983], [-8.4333098, 37.7366767], [-8.4333846, 37.7367492], [-8.4334589, 37.7368415], [-8.4335073, 37.7369304], [-8.4335373, 37.7370057], [-8.4335536, 37.7370689], [-8.4335624, 37.7371616], [-8.4335656, 37.7372653], [-8.4335532, 37.7373836], [-8.4335485, 37.7374724], [-8.4335509, 37.7375492], [-8.4335686, 37.737629], [-8.4335917, 37.7376956], [-8.433625, 37.737756], [-8.4336565, 37.7378027], [-8.4336956, 37.7378506], [-8.4337371, 37.7378916]]}, "properties": {"highway": "primary", "ref": "ER 389"}}, {"type": "Feature", "geometry": {"type": "LineString", "coordinates": [[-8.4108344, 37.7268817], [-8.4107047, 37.7268252], [-8.4106394, 37.7267815], [-8.4105842, 37.726713]]}, "properties": {"highway": "primary", "lanes": "1", "oneway": "yes", "ref": "ER 389"}}, {"type": "Feature", "geometry": {"type": "LineString", "coordinates": [[-8.4100129, 37.7266918], [-8.409911, 37.7267361], [-8.4098165, 37.7267633], [-8.4096882, 37.7267847]]}, "properties": {"highway": "primary", "lanes": "1", "oneway": "yes", "ref": "ER 389"}}, {"type": "Feature", "geometry": {"type": "LineString", "coordinates": [[-8.4096882, 37.7267847], [-8.4083529, 37.7267075], [-8.4068858, 37.7265914], [-8.4035578, 37.7263633], [-8.4028285, 37.7263084], [-8.4014091, 37.7262015], [-8.3999147, 37.7260296], [-8.398425, 37.7258598], [-8.3979418, 37.725814], [-8.3976571, 37.7257743], [-8.3974624, 37.7257421], [-8.3973436, 37.7257131], [-8.3972097, 37.7256731], [-8.3969876, 37.7256036], [-8.3965554, 37.7254706], [-8.3934664, 37.7244628], [-8.3919135, 37.7239658], [-8.3912285, 37.7237225], [-8.3904711, 37.7234406], [-8.3895146, 37.7230744], [-8.3874105, 37.7222689], [-8.3864486, 37.7218996], [-8.3858807, 37.7216936], [-8.3856755, 37.7216255], [-8.385482, 37.7215688], [-8.3852569, 37.7215134], [-8.3848723, 37.7214483], [-8.3840737, 37.7213237], [-8.3816253, 37.7209615], [-8.3809094, 37.7208529], [-8.380817, 37.7208396], [-8.3805928, 37.720801], [-8.3803996, 37.7207624], [-8.3801324, 37.7207011], [-8.37992, 37.7206437], [-8.37972, 37.7205862], [-8.3793597, 37.7204829], [-8.3696119, 37.7177016], [-8.3598448, 37.7149475], [-8.3587107, 37.714636], [-8.3579101, 37.7144291], [-8.3570699, 37.7142378], [-8.3559267, 37.7139749], [-8.3557244, 37.7139261], [-8.3555313, 37.7138875], [-8.3553229, 37.7138529], [-8.3550553, 37.7138198], [-8.354764, 37.7137881], [-8.3522732, 37.713554], [-8.3521448, 37.713544], [-8.3493695, 37.7132841], [-8.3491987, 37.7132617], [-8.3490547, 37.7132431], [-8.348865, 37.7132045], [-8.3487142, 37.7131644], [-8.3484782, 37.7130981], [-8.3483058, 37.7130427], [-8.3481024, 37.7129718], [-8.3476857, 37.71283], [-8.3466378, 37.7124739], [-8.3463135, 37.7123621], [-8.3461279, 37.7122908], [-8.3459516, 37.7122144], [-8.3456702, 37.7120804], [-8.345441, 37.7119643]]}, "properties": {"highway": "primary", "lanes": "2", "maxspeed": "90", "ref": "ER 389", "source": "GPS", "surface": "asphalt"}}, {"type": "Feature", "geometry": {"type": "LineString", "coordinates": [[-8.4105059, 37.726876], [-8.4106397, 37.7268729], [-8.4108344, 37.7268817]]}, "properties": {"highway": "primary", "lanes": "1", "oneway": "yes", "ref": "ER 389", "source": "Bing"}}, {"type": "Feature", "geometry": {"type": "LineString", "coordinates": [[-8.4096882, 37.7267847], [-8.4098165, 37.7268103], [-8.4099131, 37.7268383], [-8.4099858, 37.72687]]}, "properties": {"highway": "primary", "lanes": "1", "oneway": "yes", "ref": "ER 389", "source": "GPS"}}, {"type": "Feature", "geometry": {"type": "LineString", "coordinates": [[-8.3453351, 37.711908], [-8.3452178, 37.7118503], [-8.3451311, 37.7118264], [-8.3450376, 37.711803], [-8.3449357, 37.7117914], [-8.3448254, 37.7117879], [-8.3447272, 37.7117982], [-8.3446575, 37.7118077], [-8.3445864, 37.7118166], [-8.3444976, 37.7118358], [-8.3443905, 37.7118613], [-8.3441812, 37.7119159], [-8.3437072, 37.7120363], [-8.3434048, 37.7121074], [-8.3431934, 37.7121561], [-8.3431155, 37.7121711], [-8.343023, 37.7121822], [-8.3429022, 37.7121822], [-8.3427994, 37.7121714], [-8.3426888, 37.7121416], [-8.3425919, 37.7121091], [-8.3425074, 37.7120758], [-8.3423979, 37.7120232]]}, "properties": {"highway": "primary", "lanes": "2", "maxspeed": "70", "ref": "ER 389", "source": "GPS", "surface": "asphalt"}}, {"type": "Feature", "geometry": {"type": "LineString", "coordinates": [[-8.345441, 37.7119643], [-8.3453351, 37.711908]]}, "properties": {"bridge": "yes", "highway": "primary", "lanes": "2", "layer": "1", "maxspeed": "70", "ref": "ER 389", "source": "GPS", "surface": "asphalt"}}, {"type": "Feature", "geometry": {"type": "LineString", "coordinates": [[-8.4337371, 37.7378916], [-8.4338003, 37.7379469], [-8.4338715, 37.7379908], [-8.4339309, 37.7380135], [-8.4339947, 37.7380328], [-8.4340716, 37.7380481], [-8.4341613, 37.7380527], [-8.4342867, 37.7380435], [-8.4344809, 37.7380161], [-8.4371068, 37.7376287], [-8.4372659, 37.7376162], [-8.4374081, 37.7376131], [-8.4375464, 37.7376191], [-8.4377097, 37.7376366], [-8.4379109, 37.7376686], [-8.4390776, 37.7378859], [-8.4396437, 37.737984], [-8.4399572, 37.7380316], [-8.4402559, 37.7380643], [-8.442894, 37.7383089], [-8.443107, 37.7383287], [-8.4434019, 37.7383548], [-8.4435999, 37.7383663], [-8.4437457, 37.7383673], [-8.4438524, 37.7383644], [-8.4439498, 37.7383531], [-8.4440717, 37.7383305], [-8.444196, 37.7382989], [-8.4443042, 37.7382609], [-8.4444161, 37.7382138], [-8.4445442, 37.7381473], [-8.444676, 37.7380622], [-8.4447513, 37.7379978], [-8.4448161, 37.7379435], [-8.4448886, 37.7378639], [-8.4449728, 37.7377615], [-8.445208, 37.73747], [-8.4452982, 37.7373907], [-8.4453777, 37.737326], [-8.4455279, 37.7372381], [-8.4456833, 37.7371713], [-8.4461893, 37.7370151], [-8.449991, 37.7358809], [-8.451306, 37.735495]]}, "properties": {"highway": "primary", "lanes": "2", "maxspeed": "90", "ref": "ER 389", "source": "Bing", "surface": "asphalt"}}, {"type": "Feature", "geometry": {"type": "LineString", "coordinates": [[-8.4644631, 37.737173], [-8.4646103, 37.7372882], [-8.4647366, 37.7373605], [-8.4648826, 37.7374368], [-8.4650438, 37.737509], [-8.465202, 37.7375692], [-8.4674426, 37.7383832], [-8.4686778, 37.7388478], [-8.4698143, 37.7392462], [-8.4711815, 37.739688], [-8.4724837, 37.7401207], [-8.4727778, 37.7402241], [-8.4729509, 37.7403003], [-8.4730782, 37.7403658], [-8.4732193, 37.7404623], [-8.4734887, 37.740667], [-8.4741864, 37.7411916], [-8.4747359, 37.7416197], [-8.4751961, 37.7419765], [-8.4754578, 37.7421586], [-8.4756497, 37.7422791], [-8.47586, 37.7423998], [-8.4763071, 37.7426354], [-8.4785175, 37.7437692], [-8.4807121, 37.7449176]]}, "properties": {"highway": "primary", "lanes": "2", "maxspeed": "90", "ref": "ER 389", "surface": "asphalt"}}, {"type": "Feature", "geometry": {"type": "LineString", "coordinates": [[-8.4609773, 37.73257], [-8.4613461, 37.7327334], [-8.4615646, 37.7328365], [-8.4616767, 37.7329021], [-8.4618126, 37.733004], [-8.4619148, 37.7330907], [-8.4619703, 37.7331474], [-8.4620258, 37.7332144], [-8.4620789, 37.7332812], [-8.4621629, 37.7334019], [-8.4623072, 37.7336037], [-8.462355, 37.73367], [-8.4624253, 37.7337596], [-8.4629531, 37.7345071], [-8.4629905, 37.7345614], [-8.4631975, 37.7348595], [-8.4634327, 37.735204], [-8.4635022, 37.7353336], [-8.4637749, 37.7359808]]}, "properties": {"highway": "primary", "lanes": "2", "maxspeed": "50", "name": "Rua da Estrada Nacional", "postal_code": "7630-284", "ref": "ER 389", "surface": "asphalt"}}, {"type": "Feature", "geometry": {"type": "LineString", "coordinates": [[-8.3412642, 37.711463], [-8.3412231, 37.7114424], [-8.3411367, 37.7114034]]}, "properties": {"highway": "primary", "lanes": "2", "maxspeed": "70", "ref": "ER 389", "source": "GPS", "surface": "asphalt"}}, {"type": "Feature", "geometry": {"type": "LineString", "coordinates": [[-8.3410105, 37.7113464], [-8.3408951, 37.7112913]]}, "properties": {"highway": "primary", "lanes": "2", "maxspeed": "70", "postal_code": "7670-135", "ref": "ER 389", "source": "GPS", "surface": "asphalt"}}, {"type": "Feature", "geometry": {"type": "LineString", "coordinates": [[-8.3411367, 37.7114034], [-8.3410105, 37.7113464]]}, "properties": {"highway": "primary", "lanes": "2", "maxspeed": "70", "ref": "ER 389", "source": "GPS", "surface": "asphalt"}}, {"type": "Feature", "geometry": {"type": "LineString", "coordinates": [[-8.3407534, 37.7112267], [-8.340696, 37.7112014]]}, "properties": {"highway": "primary", "lanes": "2", "maxspeed": "70", "postal_code": "7670-135", "ref": "ER 389", "source": "GPS", "surface": "asphalt"}}, {"type": "Feature", "geometry": {"type": "LineString", "coordinates": [[-8.3408951, 37.7112913], [-8.3408414, 37.7112656], [-8.3407534, 37.7112267]]}, "properties": {"highway": "primary", "lanes": "2", "maxspeed": "70", "postal_code": "7670-135", "ref": "ER 389", "source": "GPS", "surface": "asphalt"}}, {"type": "Feature", "geometry": {"type": "LineString", "coordinates": [[-8.340696, 37.7112014], [-8.3405406, 37.7111147], [-8.3403858, 37.7110416], [-8.3402429, 37.7109905], [-8.3400687, 37.7109366], [-8.3399303, 37.7109108], [-8.3397535, 37.7108983], [-8.3395716, 37.7109063], [-8.3393256, 37.7109287], [-8.3390354, 37.7109666], [-8.3385808, 37.7110417]]}, "properties": {"highway": "primary", "lanes": "2", "maxspeed": "70", "postal_code": "7670-135", "ref": "ER 389", "source": "GPS", "surface": "asphalt"}}, {"type": "Feature", "geometry": {"type": "LineString", "coordinates": [[-8.3385808, 37.7110417], [-8.3381338, 37.7111205]]}, "properties": {"highway": "primary", "lanes": "2", "maxspeed": "70", "postal_code": "7670-135", "ref": "ER 389", "source": "GPS", "surface": "asphalt"}}, {"type": "Feature", "geometry": {"type": "LineString", "coordinates": [[-8.5497988, 37.7730608], [-8.5509734, 37.7734336], [-8.5530484, 37.7741027], [-8.5591133, 37.7762956], [-8.5607509, 37.7768918], [-8.5615847, 37.7771941], [-8.5621298, 37.7773871], [-8.5624472, 37.7774815], [-8.5628079, 37.7775753]]}, "properties": {"highway": "primary", "lanes": "2", "maxspeed": "90", "ref": "ER 389", "surface": "asphalt"}}, {"type": "Feature", "geometry": {"type": "LineString", "coordinates": [[-8.5496542, 37.7730168], [-8.5497988, 37.7730608]]}, "properties": {"bridge": "yes", "highway": "primary", "lanes": "2", "layer": "1", "maxspeed": "90", "ref": "ER 389", "surface": "asphalt"}}, {"type": "Feature", "geometry": {"type": "LineString", "coordinates": [[-8.5628079, 37.7775753], [-8.5645008, 37.7780128], [-8.5645403, 37.7780217], [-8.5664736, 37.7785217], [-8.5666554, 37.7785618], [-8.5668479, 37.7785979], [-8.5670782, 37.7786383], [-8.5671745, 37.7786506], [-8.568221, 37.7788237]]}, "properties": {"highway": "primary", "lanes": "2", "maxspeed": "50", "name": "Rua da Estrada Nacional 389", "ref": "ER 389", "surface": "asphalt"}}, {"type": "Feature", "geometry": {"type": "LineString", "coordinates": [[-8.5187289, 37.7619182], [-8.5188457, 37.7619543], [-8.5189933, 37.7619942], [-8.5191714, 37.7620353], [-8.5193351, 37.7620678], [-8.521283, 37.7624723], [-8.5232048, 37.7629241], [-8.5253663, 37.7634152], [-8.5258581, 37.7635412], [-8.526055, 37.7636024], [-8.5262213, 37.7636691], [-8.5265934, 37.7638522], [-8.5267492, 37.7639374], [-8.5274838, 37.7643468], [-8.5281958, 37.7647318], [-8.5289061, 37.7651222], [-8.5292731, 37.7653227], [-8.5294498, 37.7654082], [-8.5296162, 37.7654803], [-8.5297983, 37.7655523], [-8.5316907, 37.7663088], [-8.5328389, 37.7667512], [-8.5331564, 37.7668753], [-8.5333262, 37.7669379], [-8.5334857, 37.7669871], [-8.5336224, 37.7670234], [-8.5340779, 37.7671479], [-8.534234, 37.7671863], [-8.5343937, 37.7672232], [-8.5346089, 37.7672631], [-8.5348327, 37.7672959], [-8.5351007, 37.7673367], [-8.5353443, 37.7673771], [-8.5355637, 37.7674333], [-8.5356843, 37.7674773], [-8.5359067, 37.7675559], [-8.536187, 37.7676636], [-8.5362846, 37.7677011], [-8.5363475, 37.7677257], [-8.540838, 37.7694672], [-8.5416578, 37.769777], [-8.5420559, 37.7699222], [-8.542275, 37.7700122], [-8.5423777, 37.7700583], [-8.5424776, 37.7701071], [-8.5427924, 37.7702828], [-8.5432107, 37.7705517], [-8.5434437, 37.7706908], [-8.5435779, 37.7707602], [-8.5437019, 37.7708176], [-8.5438667, 37.7708897], [-8.5440581, 37.7709624], [-8.5483605, 37.772591], [-8.5488224, 37.7727448], [-8.5496542, 37.7730168]]}, "properties": {"highway": "primary", "lanes": "2", "maxspeed": "90", "ref": "ER 389", "surface": "asphalt"}}, {"type": "Feature", "geometry": {"type": "LineString", "coordinates": [[-8.6430174, 37.7954837], [-8.6439554, 37.7965045], [-8.6440026, 37.7965718], [-8.644042, 37.7966294], [-8.6440695, 37.7966885], [-8.6440921, 37.7967597], [-8.6441095, 37.7968255], [-8.6441155, 37.7968958], [-8.6441178, 37.7972796], [-8.6441205, 37.7974375], [-8.6441294, 37.797502], [-8.6441467, 37.7975598], [-8.644164, 37.7976], [-8.644224, 37.7977047], [-8.6443983, 37.7979334], [-8.6447374, 37.7983711], [-8.6449307, 37.7986076], [-8.6449338, 37.7986114], [-8.6450617, 37.798734], [-8.6452071, 37.7988443], [-8.645462, 37.7990201], [-8.6457067, 37.7991796], [-8.6457906, 37.7992245], [-8.6458652, 37.7992553], [-8.6459724, 37.7992869], [-8.6460561, 37.7993042], [-8.6462009, 37.7993222], [-8.6463814, 37.7993423], [-8.6476643, 37.7994771]]}, "properties": {"highway": "primary", "lanes": "2", "maxspeed": "90", "ref": "ER 389", "surface": "asphalt"}}, {"type": "Feature", "geometry": {"type": "LineString", "coordinates": [[-8.6429437, 37.7954035], [-8.6430174, 37.7954837]]}, "properties": {"bridge": "yes", "highway": "primary", "lanes": "2", "layer": "1", "maxspeed": "90", "ref": "ER 389", "surface": "asphalt"}}, {"type": "Feature", "geometry": {"type": "LineString", "coordinates": [[-8.6477661, 37.7994878], [-8.6525617, 37.7999915]]}, "properties": {"highway": "primary", "lanes": "2", "maxspeed": "90", "ref": "ER 389", "surface": "asphalt"}}, {"type": "Feature", "geometry": {"type": "LineString", "coordinates": [[-8.6476643, 37.7994771], [-8.6477661, 37.7994878]]}, "properties": {"bridge": "yes", "highway": "primary", "lanes": "2", "layer": "1", "maxspeed": "90", "ref": "ER 389", "surface": "asphalt"}}, {"type": "Feature", "geometry": {"type": "LineString", "coordinates": [[-8.4808427, 37.7449881], [-8.481231, 37.7451788], [-8.4814431, 37.7452762], [-8.4816942, 37.7453779], [-8.4819347, 37.7454791], [-8.4820431, 37.745521], [-8.4825716, 37.7457371], [-8.4828601, 37.7458547], [-8.4831259, 37.7459583], [-8.4835966, 37.7461349], [-8.4840955, 37.7463164], [-8.4850592, 37.7466578], [-8.4861044, 37.7470286], [-8.4871398, 37.7474074], [-8.4874433, 37.7475277], [-8.4877233, 37.7476425], [-8.4882817, 37.7478945], [-8.4910163, 37.7491155]]}, "properties": {"highway": "primary", "lanes": "2", "maxspeed": "90", "ref": "ER 389", "surface": "asphalt"}}, {"type": "Feature", "geometry": {"type": "LineString", "coordinates": [[-8.4910163, 37.7491155], [-8.4911055, 37.7491553]]}, "properties": {"bridge": "yes", "highway": "primary", "lanes": "2", "layer": "1", "maxspeed": "90", "ref": "ER 389", "surface": "asphalt"}}, {"type": "Feature", "geometry": {"type": "LineString", "coordinates": [[-8.4911055, 37.7491553], [-8.4982031, 37.7523244], [-8.5014534, 37.7537767], [-8.5015162, 37.7538047], [-8.5017101, 37.7538954], [-8.5057812, 37.7557069], [-8.5077384, 37.7565861], [-8.5078146, 37.7566204], [-8.5081049, 37.7567541], [-8.5083041, 37.7568439], [-8.5085516, 37.7569665], [-8.5086943, 37.7570481], [-8.5088173, 37.7571317], [-8.5091007, 37.7573454], [-8.5095141, 37.757679], [-8.5098806, 37.7579611], [-8.5100754, 37.7581345], [-8.5102251, 37.7582497], [-8.5103652, 37.7583556], [-8.510521, 37.7584572], [-8.5106705, 37.7585388], [-8.5109004, 37.7586538], [-8.511358, 37.7588627], [-8.5147311, 37.7603778], [-8.5151413, 37.7605479], [-8.5151831, 37.760569], [-8.5162538, 37.761028], [-8.5166748, 37.7612069], [-8.517011, 37.7613322], [-8.5174223, 37.7614746], [-8.5180565, 37.7617], [-8.5183909, 37.7618146], [-8.5186523, 37.7618954]]}, "properties": {"highway": "primary", "lanes": "2", "maxspeed": "90", "ref": "ER 389", "surface": "asphalt"}}, {"type": "Feature", "geometry": {"type": "LineString", "coordinates": [[-8.5186523, 37.7618954], [-8.5187289, 37.7619182]]}, "properties": {"bridge": "yes", "highway": "primary", "lanes": "2", "layer": "1", "maxspeed": "90", "ref": "ER 389", "surface": "asphalt"}}, {"type": "Feature", "geometry": {"type": "LineString", "coordinates": [[-8.451306, 37.735495], [-8.4514972, 37.73544], [-8.4516674, 37.7353838], [-8.4518371, 37.7353274], [-8.4520183, 37.7352527], [-8.4521617, 37.7351839], [-8.4523413, 37.7350978], [-8.4539922, 37.7342649], [-8.4543734, 37.7340726], [-8.4571595, 37.7326548], [-8.4577255, 37.7323668], [-8.4578946, 37.7322986], [-8.4580505, 37.7322384], [-8.4582294, 37.7321905]]}, "properties": {"highway": "primary", "lanes": "2", "maxspeed": "50", "ref": "ER 389", "source": "Bing", "surface": "asphalt"}}, {"type": "Feature", "geometry": {"type": "LineString", "coordinates": [[-8.4637749, 37.7359808], [-8.463955, 37.7364171], [-8.4640473, 37.7366146], [-8.464119, 37.7367462], [-8.46418, 37.7368551], [-8.4642315, 37.7369302], [-8.4643661, 37.7370791], [-8.4644631, 37.737173]]}, "properties": {"highway": "primary", "lanes": "2", "maxspeed": "50", "ref": "ER 389", "surface": "asphalt"}}]}