{"type": "FeatureCollection", "features": [{"type": "Feature", "geometry": {"type": "LineString", "coordinates": [[-25.5457777, 37.8064988], [-25.5458566, 37.8064414], [-25.5459161, 37.8063954], [-25.5459669, 37.8063665], [-25.5460751, 37.8063183], [-25.5461915, 37.8062779], [-25.5463464, 37.8062255], [-25.5465824, 37.8061283]]}, "properties": {"destination": "Capelas;Pico da Pedra;Rabo de Peixe", "highway": "primary", "lanes": "2", "oneway": "yes", "ref": "ER 3-1\u00aa", "surface": "asphalt"}}, {"type": "Feature", "geometry": {"type": "LineString", "coordinates": [[-25.5465824, 37.8061283], [-25.5467492, 37.80608], [-25.5477007, 37.8058041], [-25.5482109, 37.8056563]]}, "properties": {"highway": "primary", "maxspeed:backward": "60", "maxspeed:forward": "90", "ref": "ER 3-1\u00aa", "source": "Bing", "surface": "asphalt"}}, {"type": "Feature", "geometry": {"type": "LineString", "coordinates": [[-25.5465824, 37.8061283], [-25.5462914, 37.8061745], [-25.5460595, 37.8062281], [-25.5459528, 37.8062517], [-25.5458662, 37.8062559], [-25.5457955, 37.8062508], [-25.545715, 37.8062371], [-25.5456551, 37.806227]]}, "properties": {"highway": "primary", "lanes": "1", "oneway": "yes", "ref": "ER 3-1\u00aa", "surface": "asphalt"}}, {"type": "Feature", "geometry": {"type": "LineString", "coordinates": [[-25.5450314, 37.8072248], [-25.5450941, 37.8071818], [-25.545173, 37.8071049], [-25.5452632, 37.8069637], [-25.5453257, 37.8069034], [-25.5454318, 37.8068427]]}, "properties": {"highway": "primary", "lanes": "1", "lit": "yes", "maxspeed": "40", "oneway": "yes", "ref": "ER 3-1\u00aa", "sidewalk": "no", "source:maxspeed": "sign", "surface": "asphalt"}}, {"type": "Feature", "geometry": {"type": "LineString", "coordinates": [[-25.5450544, 37.8068031], [-25.5451102, 37.8069235], [-25.5451182, 37.8069773], [-25.5451154, 37.8070184], [-25.5450314, 37.8072248]]}, "properties": {"highway": "primary", "lanes": "1", "lit": "yes", "oneway": "yes", "ref": "ER 3-1\u00aa", "surface": "asphalt"}}, {"type": "Feature", "geometry": {"type": "LineString", "coordinates": [[-25.5450314, 37.8072248], [-25.5447253, 37.8074901], [-25.5441686, 37.8079617]]}, "properties": {"highway": "primary", "lanes": "2", "lit": "yes", "maxspeed": "60", "ref": "ER 3-1\u00aa", "shoulder:left": "yes", "shoulder:right": "yes", "sidewalk": "no", "smoothness": "good", "source:maxspeed": "sign", "surface": "asphalt"}}, {"type": "Feature", "geometry": {"type": "LineString", "coordinates": [[-25.5482109, 37.8056563], [-25.5493038, 37.8053385], [-25.5518244, 37.804589], [-25.55213, 37.8044955], [-25.5523045, 37.8044352], [-25.5524758, 37.8043678], [-25.5526948, 37.8042791], [-25.5529854, 37.8041515], [-25.5532829, 37.8040047], [-25.5560326, 37.8025387], [-25.5568881, 37.8020404], [-25.5577263, 37.8015307], [-25.5585413, 37.8010166], [-25.5597885, 37.8002217], [-25.5600939, 37.8000533], [-25.560301, 37.7999591], [-25.5604493, 37.7998991], [-25.5605689, 37.7998546], [-25.5606845, 37.7998171], [-25.5608229, 37.7997738], [-25.5610174, 37.7997219], [-25.5613113, 37.7996521]]}, "properties": {"highway": "primary", "maxspeed": "90", "ref": "ER 3-1\u00aa", "source": "Bing", "surface": "asphalt"}}, {"type": "Feature", "geometry": {"type": "LineString", "coordinates": [[-25.5731305, 37.7972395], [-25.5734749, 37.7971034], [-25.5735456, 37.7970717], [-25.5738564, 37.796909], [-25.5752276, 37.7959168], [-25.5755111, 37.7957117], [-25.5762677, 37.7951643], [-25.5763846, 37.7950797], [-25.579045, 37.7931849], [-25.579231, 37.7930681], [-25.5793299, 37.793011], [-25.5794343, 37.7929561]]}, "properties": {"highway": "primary", "lanes": "2", "maxspeed": "80", "ref": "ER 3-1\u00aa", "source": "Bing", "surface": "asphalt"}}, {"type": "Feature", "geometry": {"type": "LineString", "coordinates": [[-25.5441686, 37.8079617], [-25.543858, 37.808246], [-25.5437347, 37.8083588], [-25.5431297, 37.808872], [-25.5427581, 37.8091729], [-25.5421963, 37.8096659], [-25.541692, 37.8100853], [-25.5414703, 37.8102736]]}, "properties": {"highway": "primary", "lanes": "2", "lit": "yes", "maxspeed": "80", "ref": "ER 3-1\u00aa", "shoulder:left": "yes", "shoulder:right": "yes", "sidewalk": "no", "smoothness": "good", "source:maxspeed": "sign", "surface": "asphalt"}}, {"type": "Feature", "geometry": {"type": "LineString", "coordinates": [[-25.5414703, 37.8102736], [-25.5412556, 37.8104429], [-25.5409141, 37.8107733], [-25.5407351, 37.8110131], [-25.5406903, 37.8110868], [-25.5406382, 37.8111664], [-25.540521, 37.8113888], [-25.5403672, 37.8116819], [-25.5402259, 37.8120561]]}, "properties": {"highway": "primary", "lanes": "1", "maxspeed": "80", "oneway": "yes", "ref": "ER 3-1\u00aa", "surface": "asphalt"}}, {"type": "Feature", "geometry": {"type": "LineString", "coordinates": [[-25.5407389, 37.8111792], [-25.5407725, 37.811132], [-25.5408594, 37.8110098], [-25.5410069, 37.810799], [-25.5412986, 37.810481], [-25.5414703, 37.8102736]]}, "properties": {"highway": "primary", "lanes": "1", "maxspeed": "80", "oneway": "yes", "ref": "ER 3-1\u00aa", "surface": "asphalt"}}, {"type": "Feature", "geometry": {"type": "LineString", "coordinates": [[-25.5402259, 37.8120561], [-25.5392795, 37.813756], [-25.5385037, 37.8151344]]}, "properties": {"foot": "no", "highway": "primary", "lanes": "2", "lit": "yes", "maxspeed": "80", "ref": "ER 3-1\u00aa", "sidewalk": "no", "source:maxspeed": "sign", "surface": "asphalt", "width": "7"}}, {"type": "Feature", "geometry": {"type": "LineString", "coordinates": [[-25.5381578, 37.8157818], [-25.5381912, 37.8157266], [-25.5382218, 37.8156641], [-25.5383063, 37.8155054]]}, "properties": {"destination": "Ponta Delgada;Nordeste;Povoa\u00e7\u00e3o;Furnas", "highway": "primary", "lanes": "1", "maxspeed": "50", "oneway": "yes", "ref": "ER 3-1\u00aa", "source:maxspeed": "PT:urban", "surface": "asphalt"}}, {"type": "Feature", "geometry": {"type": "LineString", "coordinates": [[-25.5405495, 37.811511], [-25.5406913, 37.8112621], [-25.5407226, 37.811206], [-25.5407389, 37.8111792]]}, "properties": {"highway": "primary", "lanes": "2", "maxspeed": "80", "oneway": "yes", "placement": "middle_of:2", "ref": "ER 3-1\u00aa", "surface": "asphalt", "turn:lanes": "left|through"}}, {"type": "Feature", "geometry": {"type": "LineString", "coordinates": [[-25.5402259, 37.8120561], [-25.5404584, 37.811672], [-25.5405495, 37.811511]]}, "properties": {"highway": "primary", "lanes": "1", "maxspeed": "80", "oneway": "yes", "ref": "ER 3-1\u00aa", "surface": "asphalt"}}, {"type": "Feature", "geometry": {"type": "LineString", "coordinates": [[-25.5385037, 37.8151344], [-25.5383063, 37.8155054]]}, "properties": {"highway": "primary", "lanes": "2", "lit": "yes", "maxspeed": "50", "ref": "ER 3-1\u00aa", "sidewalk": "no", "source:maxspeed": "PT:urban", "surface": "asphalt", "width": "7"}}, {"type": "Feature", "geometry": {"type": "LineString", "coordinates": [[-25.5827065, 37.7932042], [-25.5828235, 37.7932435], [-25.5830148, 37.7933017], [-25.583198, 37.7933407], [-25.5833635, 37.7933705], [-25.5835397, 37.7933898], [-25.5837141, 37.7933962], [-25.5839367, 37.7933813], [-25.5847038, 37.7932838], [-25.5854927, 37.7931784], [-25.5856625, 37.7931546], [-25.5858833, 37.7931118], [-25.5860393, 37.7930652], [-25.586207, 37.7930088], [-25.586372, 37.7929355], [-25.5865543, 37.7928308], [-25.5867642, 37.7926802], [-25.5873225, 37.792264], [-25.5877907, 37.7919466], [-25.5879546, 37.7918625], [-25.5880888, 37.7917991], [-25.5882282, 37.7917486], [-25.5883601, 37.791713], [-25.5885308, 37.7916849], [-25.5886913, 37.7916649], [-25.5889126, 37.7916449], [-25.5891374, 37.7916302], [-25.5894669, 37.7916088], [-25.5900494, 37.7915801], [-25.5902532, 37.791556], [-25.5906458, 37.7914946], [-25.5911958, 37.7913894], [-25.591298, 37.791367], [-25.5922734, 37.7911566], [-25.5932314, 37.7909499]]}, "properties": {"highway": "primary", "lanes": "2", "maxspeed": "80", "ref": "ER 3-1\u00aa", "source": "Bing", "surface": "asphalt"}}, {"type": "Feature", "geometry": {"type": "LineString", "coordinates": [[-25.5794343, 37.7929561], [-25.5795023, 37.7929383], [-25.5796338, 37.7928874], [-25.5797759, 37.7928408], [-25.5799315, 37.7927984], [-25.5800897, 37.7927666], [-25.5804036, 37.7927242], [-25.5805806, 37.7927094], [-25.5807603, 37.7927051], [-25.5809615, 37.7927157], [-25.580986, 37.7927172], [-25.5810977, 37.7927238], [-25.5811036, 37.7927242], [-25.5812377, 37.7927433], [-25.5814308, 37.7927857], [-25.581565, 37.7928217], [-25.5817339, 37.7928747], [-25.5818033, 37.7929001], [-25.5819244, 37.7929446], [-25.5821229, 37.7930146], [-25.5823857, 37.7931036], [-25.5825386, 37.7931587], [-25.5827065, 37.7932042]]}, "properties": {"highway": "primary", "oneway": "yes", "ref": "ER 3-1\u00aa", "surface": "asphalt"}}, {"type": "Feature", "geometry": {"type": "LineString", "coordinates": [[-25.5827065, 37.7932042], [-25.5825949, 37.793129], [-25.5821389, 37.7929489], [-25.5819753, 37.792881], [-25.5817393, 37.792792], [-25.5815676, 37.792739], [-25.581396, 37.7926945], [-25.581219, 37.7926627], [-25.581104, 37.792652], [-25.5809966, 37.792642], [-25.5808998, 37.792633], [-25.5807978, 37.7926267], [-25.5806423, 37.7926246], [-25.5805001, 37.7926309], [-25.5803901, 37.7926415], [-25.5802453, 37.7926627], [-25.5801246, 37.7926903], [-25.5799932, 37.7927242], [-25.5798081, 37.7927835], [-25.5796204, 37.7928492], [-25.5794782, 37.7929086], [-25.5794343, 37.7929561]]}, "properties": {"highway": "primary", "oneway": "yes", "ref": "ER 3-1\u00aa", "surface": "asphalt"}}, {"type": "Feature", "geometry": {"type": "LineString", "coordinates": [[-25.5642236, 37.7990932], [-25.5648206, 37.7989686], [-25.5650292, 37.7989234], [-25.5654827, 37.798825], [-25.56559, 37.7987741]]}, "properties": {"highway": "primary", "maxspeed": "90", "oneway": "yes", "ref": "ER 3-1\u00aa", "source": "Bing", "surface": "asphalt"}}, {"type": "Feature", "geometry": {"type": "LineString", "coordinates": [[-25.56559, 37.7987741], [-25.5706235, 37.7978179], [-25.5727636, 37.7973429], [-25.5731305, 37.7972395]]}, "properties": {"highway": "primary", "lanes": "2", "maxspeed": "90", "ref": "ER 3-1\u00aa", "source": "Bing", "surface": "asphalt"}}, {"type": "Feature", "geometry": {"type": "LineString", "coordinates": [[-25.5613113, 37.7996521], [-25.5614865, 37.7996333], [-25.561526, 37.7996247], [-25.5621632, 37.7994943], [-25.5631967, 37.7992922], [-25.5634329, 37.7992472], [-25.5636028, 37.7992149], [-25.5640373, 37.7991314], [-25.5641007, 37.7991184], [-25.5641207, 37.7991143], [-25.5641921, 37.7990997], [-25.5642236, 37.7990932]]}, "properties": {"highway": "primary", "maxspeed": "90", "oneway": "yes", "ref": "ER 3-1\u00aa", "source": "Bing", "surface": "asphalt"}}, {"type": "Feature", "geometry": {"type": "LineString", "coordinates": [[-25.56559, 37.7987741], [-25.5654747, 37.7987757], [-25.5650594, 37.7988557], [-25.5647795, 37.7989096], [-25.5643576, 37.7989908], [-25.564163, 37.7990303], [-25.5641401, 37.799035], [-25.564083, 37.7990466], [-25.5635697, 37.7991508], [-25.5633035, 37.7992049], [-25.5629454, 37.7992865], [-25.5627093, 37.7993384], [-25.5625283, 37.7993734], [-25.562158, 37.7994571], [-25.5614964, 37.7995892], [-25.5614544, 37.7995993], [-25.5613113, 37.7996521]]}, "properties": {"highway": "primary", "oneway": "yes", "ref": "ER 3-1\u00aa", "surface": "asphalt"}}]}