{"type": "FeatureCollection", "features": [{"type": "Feature", "geometry": {"type": "LineString", "coordinates": [[-7.4754177, 41.2755101], [-7.4754409, 41.2754302], [-7.4754478, 41.2754063], [-7.4754616, 41.2753728], [-7.4754754, 41.2753468], [-7.4755299, 41.2752519], [-7.4756757, 41.2749979], [-7.4772695, 41.2723314], [-7.4776139, 41.2717567], [-7.4782853, 41.2706085]]}, "properties": {"highway": "primary", "name": "Avenida 25 de Abril", "old_ref": "EN 322", "oneway": "yes", "ref": "ER 322", "surface": "asphalt"}}, {"type": "Feature", "geometry": {"type": "LineString", "coordinates": [[-7.4781893, 41.2705807], [-7.4759297, 41.2744474], [-7.4754659, 41.2752289], [-7.4754484, 41.2752562], [-7.4754272, 41.2752831], [-7.475402, 41.2753106], [-7.4753719, 41.2753368], [-7.4753381, 41.2753603], [-7.475291, 41.2753868]]}, "properties": {"highway": "primary", "name": "Avenida 25 de Abril", "old_ref": "EN 322", "oneway": "yes", "ref": "ER 322", "surface": "asphalt"}}, {"type": "Feature", "geometry": {"type": "LineString", "coordinates": [[-7.472707, 41.2765353], [-7.4728072, 41.2764887], [-7.4728926, 41.2764205], [-7.4730329, 41.2762958], [-7.4731829, 41.2761959], [-7.4733213, 41.2761386], [-7.4738731, 41.2759434], [-7.474925, 41.2755642]]}, "properties": {"highway": "primary", "lanes": "2", "name": "Rua Comendador Doutor Jos\u00e9 Rufino", "old_ref": "EN 322", "oneway": "no", "ref": "ER 322", "surface": "asphalt"}}, {"type": "Feature", "geometry": {"type": "LineString", "coordinates": [[-7.5007107, 41.2672448], [-7.5012346, 41.2677571], [-7.501423, 41.2679132], [-7.501626, 41.2680621], [-7.5019016, 41.2682249], [-7.5024279, 41.2685017], [-7.503033, 41.268826], [-7.503231, 41.268955], [-7.5032804, 41.2689992], [-7.503393, 41.2691], [-7.503536, 41.269256], [-7.503681, 41.269421], [-7.503825, 41.269588], [-7.503969, 41.269756], [-7.5041429, 41.2699266]]}, "properties": {"highway": "primary", "lanes": "2", "name": "Avenida Nossa Senhora do Socorro", "old_ref": "EN 322", "oneway": "no", "ref": "ER 322", "surface": "asphalt"}}, {"type": "Feature", "geometry": {"type": "LineString", "coordinates": [[-7.5314018, 41.2831134], [-7.5318354, 41.2828401], [-7.5318976, 41.2828092], [-7.5319634, 41.2827883], [-7.5320362, 41.2827723], [-7.5321067, 41.2827644], [-7.5321774, 41.2827623], [-7.5322402, 41.2827642], [-7.5323055, 41.2827677], [-7.5327477, 41.2828165], [-7.5328368, 41.2828182], [-7.5329135, 41.2828126], [-7.5329823, 41.2827976], [-7.5330475, 41.282776], [-7.5331052, 41.2827459], [-7.5331479, 41.2827157], [-7.5331802, 41.2826832], [-7.5335953, 41.2821643], [-7.5336478, 41.282097], [-7.533708, 41.2820328], [-7.5337772, 41.2819724], [-7.5338549, 41.28192], [-7.5339342, 41.2818712], [-7.5340213, 41.2818229], [-7.5349981, 41.2812858], [-7.535062, 41.2812472], [-7.5351188, 41.2812028], [-7.5351628, 41.2811584], [-7.5351948, 41.2811083], [-7.5352128, 41.2810614], [-7.5352232, 41.2810145], [-7.5353441, 41.2797592], [-7.5353564, 41.27969], [-7.5353758, 41.2796314], [-7.5354021, 41.2795841], [-7.5354351, 41.2795378], [-7.5354718, 41.2794936], [-7.53553, 41.2794338], [-7.5355915, 41.2793834], [-7.5356556, 41.2793386], [-7.5357211, 41.2793], [-7.5357961, 41.2792655], [-7.5360383, 41.2791714], [-7.5361241, 41.2791424], [-7.5362067, 41.2791207], [-7.5362897, 41.2791049], [-7.5363704, 41.2790911], [-7.5364487, 41.2790807], [-7.5366553, 41.2790558], [-7.5370189, 41.279012], [-7.5370746, 41.2790087], [-7.5371261, 41.2790094], [-7.5371829, 41.2790161], [-7.5372309, 41.2790267], [-7.537275, 41.2790462], [-7.5373058, 41.2790689], [-7.5373331, 41.2790952], [-7.5373569, 41.2791228], [-7.5373774, 41.2791523], [-7.5373947, 41.2791824], [-7.5374475, 41.2793102], [-7.5374618, 41.2793547], [-7.537472, 41.2794007], [-7.5374794, 41.2794453], [-7.5374829, 41.2794933], [-7.5374833, 41.2795443], [-7.5374751, 41.2796321]]}, "properties": {"highway": "primary", "lanes": "2", "maxspeed": "50", "name": "Rua da Estrada Nacional 322", "old_ref": "EN 322", "oneway": "no", "ref": "ER 322", "surface": "asphalt"}}, {"type": "Feature", "geometry": {"type": "LineString", "coordinates": [[-7.478353, 41.2701444], [-7.478408, 41.2697434], [-7.4784619, 41.2695059], [-7.478574, 41.2692642], [-7.4786168, 41.2692044], [-7.4789323, 41.2687633], [-7.4789591, 41.2687265], [-7.4791167, 41.2685098], [-7.4791629, 41.2684259], [-7.4791703, 41.2684125], [-7.4792079, 41.2683441], [-7.4794249, 41.267259], [-7.4795449, 41.2666588], [-7.4795624, 41.2665717], [-7.4796776, 41.2659922], [-7.4797329, 41.2656806], [-7.4799228, 41.2646117], [-7.4799348, 41.2645744], [-7.4799487, 41.2645297], [-7.4799649, 41.2644945], [-7.4799841, 41.264457], [-7.4800102, 41.2644176], [-7.480039, 41.2643832], [-7.480076, 41.2643525], [-7.4801162, 41.2643277], [-7.4801618, 41.2643066], [-7.4802163, 41.2642904], [-7.4802739, 41.2642769], [-7.4803441, 41.264268], [-7.4804185, 41.2642601], [-7.4804938, 41.2642552], [-7.4805671, 41.2642537], [-7.4825561, 41.264255], [-7.482944, 41.264333], [-7.4839181, 41.264529], [-7.4846886, 41.2645617], [-7.4847182, 41.2645574], [-7.4848709, 41.2645354], [-7.4865467, 41.2642735], [-7.4869544, 41.2642207], [-7.4887544, 41.2642074], [-7.4891242, 41.2642716], [-7.4894381, 41.26437], [-7.4897827, 41.2644939], [-7.4907313, 41.2648348], [-7.4907639, 41.2648419], [-7.4911424, 41.2649243]]}, "properties": {"highway": "primary", "lanes": "2", "old_ref": "EN 322", "oneway": "no", "ref": "ER 322", "surface": "asphalt"}}, {"type": "Feature", "geometry": {"type": "LineString", "coordinates": [[-7.4974015, 41.2672053], [-7.497546, 41.2671747], [-7.4983148, 41.2670081], [-7.4991145, 41.2668292], [-7.4992582, 41.2667999], [-7.4995129, 41.2667433], [-7.4997211, 41.2666909], [-7.4998603, 41.2666382], [-7.4999826, 41.26658]]}, "properties": {"highway": "primary", "lanes": "2", "name": "Rua Direita", "old_ref": "EN 322", "oneway": "no", "ref": "ER 322", "surface": "cobblestone"}}, {"type": "Feature", "geometry": {"type": "LineString", "coordinates": [[-7.4999826, 41.26658], [-7.5001152, 41.2666985], [-7.5002863, 41.2668312], [-7.5006529, 41.2671847], [-7.5007107, 41.2672448]]}, "properties": {"highway": "primary", "lanes": "2", "old_ref": "EN 322", "oneway": "no", "ref": "ER 322", "surface": "cobblestone"}}, {"type": "Feature", "geometry": {"type": "LineString", "coordinates": [[-7.4919334, 41.2651013], [-7.4924002, 41.2651829], [-7.4924913, 41.2652157], [-7.4925398, 41.2652331], [-7.4926519, 41.2653049], [-7.4926958, 41.2653694], [-7.4938379, 41.2670463], [-7.4939139, 41.2671435], [-7.4940164, 41.2672342], [-7.4941325, 41.2672975], [-7.4942648, 41.2673241], [-7.4944057, 41.2673433], [-7.4951318, 41.26739], [-7.49549, 41.267413], [-7.4960391, 41.2674482], [-7.4962422, 41.2674474], [-7.4964426, 41.267423], [-7.4974015, 41.2672053]]}, "properties": {"highway": "primary", "lanes": "2", "old_ref": "EN 322", "oneway": "no", "ref": "ER 322", "surface": "asphalt"}}, {"type": "Feature", "geometry": {"type": "LineString", "coordinates": [[-7.5041429, 41.2699266], [-7.5045654, 41.2704066], [-7.5047001, 41.2705692], [-7.5047945, 41.2707019], [-7.5048732, 41.2708368], [-7.5049408, 41.2709776], [-7.505005, 41.2711153], [-7.5054504, 41.2720416], [-7.5055095, 41.2721588], [-7.5055649, 41.272257], [-7.5057806, 41.2725226], [-7.5057979, 41.2725425], [-7.5059235, 41.272688], [-7.5060386, 41.2728199], [-7.506168, 41.272998], [-7.506346, 41.273203], [-7.506498, 41.273413], [-7.506595, 41.273631], [-7.506643, 41.273853], [-7.5066707, 41.2740776], [-7.5066117, 41.2743062], [-7.5066066, 41.2745397], [-7.5066891, 41.2746985], [-7.5067381, 41.2747658], [-7.5068033, 41.274818], [-7.5068862, 41.2748699], [-7.5069789, 41.27491], [-7.5077371, 41.2751988], [-7.5079587, 41.2752831], [-7.5080028, 41.2753016], [-7.5080249, 41.2753109], [-7.5080926, 41.2753419], [-7.5081621, 41.27538], [-7.5081827, 41.2753947], [-7.5082306, 41.2754291], [-7.50829, 41.2754806], [-7.508798, 41.2760697], [-7.508948, 41.276169], [-7.5095147, 41.2763801], [-7.5097236, 41.2764837], [-7.5098545, 41.2765903], [-7.5099497, 41.2767083], [-7.5100249, 41.2768299], [-7.5109604, 41.2785772], [-7.5111514, 41.2788105], [-7.5118803, 41.2795781], [-7.5123251, 41.2800448], [-7.5123862, 41.2801089], [-7.5124992, 41.280261], [-7.5125715, 41.2804391], [-7.5126553, 41.2808847], [-7.5127921, 41.281612], [-7.5124273, 41.2826561], [-7.5121108, 41.2831318], [-7.5118855, 41.2835869], [-7.5112364, 41.2838409], [-7.5107321, 41.2837889], [-7.5099489, 41.283595], [-7.5097397, 41.2836196], [-7.5095734, 41.2837764], [-7.5094715, 41.2842117], [-7.5096056, 41.2843452], [-7.5106302, 41.2847402], [-7.5111613, 41.2850784], [-7.5119177, 41.2852924], [-7.5125829, 41.2859374], [-7.5149486, 41.2871547], [-7.5154861, 41.2876394], [-7.5158069, 41.2879287], [-7.5159303, 41.2883519], [-7.5161341, 41.2885252], [-7.5165525, 41.2885252], [-7.5168021, 41.2884918], [-7.5169441, 41.2884728], [-7.5171949, 41.288553], [-7.5172338, 41.2885655], [-7.5174875, 41.2887431], [-7.5180975, 41.2891702], [-7.5181936, 41.2891803], [-7.5182852, 41.2891742], [-7.518532, 41.2890815], [-7.5186647, 41.2889561], [-7.5188646, 41.2887671], [-7.519165, 41.2886256], [-7.5192754, 41.2886371], [-7.5195137, 41.2886619], [-7.5196912, 41.2887568], [-7.5198373, 41.2888769], [-7.5200046, 41.2890629], [-7.5200394, 41.2891016], [-7.520077, 41.2895007], [-7.5201001, 41.2895442], [-7.5201232, 41.2895876], [-7.5202486, 41.2897989], [-7.5202, 41.290676], [-7.5202038, 41.290712], [-7.5202003, 41.2907824], [-7.5204042, 41.2909759], [-7.5208586, 41.2910318], [-7.5209252, 41.2910435], [-7.5209885, 41.2910596], [-7.5210505, 41.2910847], [-7.5211068, 41.2911193], [-7.5211502, 41.2911622], [-7.521186, 41.2912155], [-7.5212254, 41.2912963], [-7.5213509, 41.2916262], [-7.5213711, 41.2916792]]}, "properties": {"highway": "primary", "lanes": "2", "old_ref": "EN 322", "oneway": "no", "ref": "ER 322", "surface": "asphalt"}}, {"type": "Feature", "geometry": {"type": "LineString", "coordinates": [[-7.5213711, 41.2916792], [-7.5228236, 41.2914576], [-7.5229048, 41.2914427], [-7.52298, 41.2914271], [-7.5230546, 41.2914099], [-7.5231143, 41.2913939], [-7.5231712, 41.2913753], [-7.5244493, 41.2909001], [-7.5245248, 41.2908712], [-7.5245978, 41.2908399], [-7.5246672, 41.2908035], [-7.5247269, 41.2907639], [-7.5247759, 41.2907261], [-7.5249187, 41.2905909], [-7.5253135, 41.2902172], [-7.5253712, 41.2901693], [-7.5254312, 41.2901245], [-7.5254873, 41.2900876], [-7.5259946, 41.2897582], [-7.5260393, 41.2897242], [-7.5260812, 41.2896877], [-7.5261196, 41.2896488], [-7.5261556, 41.2896037], [-7.5261866, 41.289562], [-7.5275621, 41.2875986], [-7.5275958, 41.2875554], [-7.527637, 41.2875147], [-7.5276836, 41.2874799], [-7.5277398, 41.287445], [-7.5277929, 41.2874166], [-7.5278487, 41.2873897], [-7.5286595, 41.2870201], [-7.5287147, 41.2869895], [-7.5287663, 41.286952], [-7.5288029, 41.286914], [-7.5288347, 41.2868678], [-7.5288587, 41.2868204], [-7.5288781, 41.2867736], [-7.5288961, 41.2867204], [-7.5293231, 41.285043], [-7.529336, 41.2849768], [-7.5293384, 41.2849227], [-7.5293291, 41.2848691], [-7.5292426, 41.2846265], [-7.5292303, 41.2845725], [-7.5292307, 41.2845222], [-7.5292456, 41.284474], [-7.5292684, 41.2844282], [-7.5292984, 41.2843823], [-7.5294874, 41.2841415], [-7.5295263, 41.2840929], [-7.5295752, 41.2840428], [-7.5296268, 41.2839927], [-7.529865, 41.2837766], [-7.5299417, 41.2837118], [-7.5300259, 41.2836477], [-7.5301194, 41.2835838], [-7.5302211, 41.2835187], [-7.5303088, 41.2834741], [-7.5303855, 41.2834389], [-7.5304612, 41.283414], [-7.530529, 41.2833995], [-7.5309147, 41.2833453], [-7.5309968, 41.2833301], [-7.5310737, 41.2833066], [-7.5311397, 41.2832754], [-7.5311998, 41.2832408], [-7.5314018, 41.2831134]]}, "properties": {"highway": "primary", "lanes": "2", "old_ref": "EN 322", "oneway": "no", "ref": "ER 322", "surface": "asphalt"}}, {"type": "Feature", "geometry": {"type": "LineString", "coordinates": [[-7.5387164, 41.282331], [-7.5388002, 41.2828631], [-7.5388018, 41.2829094], [-7.5387894, 41.2829503], [-7.5387689, 41.2829853], [-7.5387346, 41.2830155], [-7.5386907, 41.2830403], [-7.538552, 41.2830995], [-7.5385125, 41.2831191], [-7.5384809, 41.2831439], [-7.5384583, 41.2831767], [-7.5384494, 41.2832157], [-7.5384502, 41.2832511], [-7.5384696, 41.2832848], [-7.5384967, 41.283314], [-7.5385281, 41.2833368], [-7.538567, 41.2833564], [-7.5387509, 41.2834463], [-7.5388, 41.2834737], [-7.538824, 41.2834912], [-7.5388443, 41.2835059], [-7.5388775, 41.2835378], [-7.5389105, 41.283573], [-7.5389393, 41.283608], [-7.5390136, 41.2837051], [-7.5390352, 41.2837237], [-7.5390588, 41.2837376], [-7.5390866, 41.283748], [-7.5391187, 41.2837559], [-7.5391542, 41.2837591], [-7.5392004, 41.2837588], [-7.5392402, 41.2837515], [-7.5392758, 41.283739], [-7.5393036, 41.2837212], [-7.5393248, 41.2837001], [-7.5393444, 41.2836759], [-7.5393604, 41.28365], [-7.5393883, 41.2836008]]}, "properties": {"hgv": "no", "highway": "primary", "lanes": "2", "maxspeed": "50", "name": "Rua Central", "old_ref": "EN 322", "oneway": "no", "ref": "ER 322", "surface": "sett"}}, {"type": "Feature", "geometry": {"type": "LineString", "coordinates": [[-7.5374751, 41.2796321], [-7.5374609, 41.2797407], [-7.5374525, 41.279793], [-7.5374173, 41.279966], [-7.5374115, 41.2800141], [-7.5374191, 41.2800633], [-7.5374397, 41.2801078], [-7.5374674, 41.2801456], [-7.5375041, 41.280179], [-7.537551, 41.280212], [-7.5375996, 41.2802427], [-7.5376568, 41.2802715], [-7.5377212, 41.2802998], [-7.5377818, 41.2803236], [-7.5381527, 41.2804559], [-7.5382098, 41.2804813], [-7.5382552, 41.2805091], [-7.5382938, 41.2805416], [-7.5383238, 41.280578], [-7.5383478, 41.2806173], [-7.5384233, 41.2807755], [-7.5384505, 41.2808164], [-7.5384882, 41.2808574], [-7.5385372, 41.2808899], [-7.5385661, 41.2809039], [-7.5385903, 41.2809156], [-7.5386448, 41.2809337], [-7.5391036, 41.2810611], [-7.5391549, 41.2810816], [-7.5391932, 41.2811046], [-7.5392221, 41.2811389]]}, "properties": {"highway": "primary", "lanes": "2", "maxspeed": "50", "name": "Avenida Doutor Porf\u00edrio Teixeira Rebelo", "old_ref": "EN 322", "oneway": "no", "ref": "ER 322", "surface": "asphalt"}}, {"type": "Feature", "geometry": {"type": "LineString", "coordinates": [[-7.5392221, 41.2811389], [-7.5392353, 41.2811738], [-7.5392395, 41.2812124], [-7.5392384, 41.2812538], [-7.5392324, 41.2812915], [-7.5392202, 41.281329], [-7.5392049, 41.2813623], [-7.5391844, 41.2814005], [-7.5387366, 41.2821489]]}, "properties": {"hgv": "no", "highway": "primary", "lanes": "2", "maxspeed": "50", "name": "Avenida Doutor Porf\u00edrio Teixeira Rebelo", "old_ref": "EN 322", "oneway": "no", "ref": "ER 322", "surface": "asphalt"}}, {"type": "Feature", "geometry": {"type": "LineString", "coordinates": [[-7.5387366, 41.2821489], [-7.5387199, 41.2821907], [-7.5387113, 41.2822351], [-7.5387108, 41.2822831], [-7.5387164, 41.282331]]}, "properties": {"hgv": "no", "highway": "primary", "lanes": "2", "maxspeed": "50", "name": "Rua Central", "old_ref": "EN 322", "oneway": "no", "ref": "ER 322", "surface": "asphalt"}}, {"type": "Feature", "geometry": {"type": "LineString", "coordinates": [[-7.5393883, 41.2836008], [-7.5394625, 41.2834757], [-7.5394846, 41.283448], [-7.539508, 41.2834258], [-7.5395406, 41.2834067], [-7.5395758, 41.2833939], [-7.5396109, 41.2833833], [-7.5399398, 41.2833], [-7.5399747, 41.283292], [-7.5400085, 41.2832852], [-7.5400424, 41.2832798], [-7.5400869, 41.2832753], [-7.5401297, 41.2832731], [-7.5401634, 41.2832713], [-7.5401928, 41.2832679], [-7.5402202, 41.2832623], [-7.5402452, 41.2832547]]}, "properties": {"hgv": "no", "highway": "primary", "lanes": "2", "maxspeed": "50", "name": "Rua Central", "old_ref": "EN 322", "oneway": "yes", "ref": "ER 322", "surface": "sett"}}, {"type": "Feature", "geometry": {"type": "LineString", "coordinates": [[-7.5402452, 41.2832547], [-7.5403458, 41.2832171], [-7.5404585, 41.2831749]]}, "properties": {"hgv": "no", "highway": "primary", "lanes": "2", "maxspeed": "50", "name": "Largo Engenheiro Teixeira de Sousa", "old_ref": "EN 322", "ref": "ER 322", "surface": "sett"}}, {"type": "Feature", "geometry": {"type": "LineString", "coordinates": [[-7.5439589, 41.2828686], [-7.5438682, 41.282886], [-7.5437942, 41.2829021], [-7.5437254, 41.2829199], [-7.5435439, 41.2829655], [-7.5434802, 41.2829804], [-7.5434158, 41.2829918], [-7.5433551, 41.2829961], [-7.5432903, 41.2829939], [-7.5432301, 41.2829863], [-7.5420035, 41.2827568], [-7.5419257, 41.2827465], [-7.5418437, 41.2827415], [-7.5417587, 41.2827418], [-7.5416644, 41.2827482], [-7.5415736, 41.2827607], [-7.5414868, 41.2827794], [-7.5414173, 41.2828023], [-7.5413436, 41.2828292], [-7.5405688, 41.2831337], [-7.5404585, 41.2831749]]}, "properties": {"highway": "primary", "lanes": "2", "maxspeed": "50", "name": "Rua da Estrada Nacional 322", "old_ref": "EN 322", "oneway": "no", "ref": "ER 322", "source": "Plano Director Municipal de Alij\u00f3", "surface": "asphalt"}}, {"type": "Feature", "geometry": {"type": "LineString", "coordinates": [[-7.4751398, 41.2754566], [-7.474969, 41.2755421], [-7.474925, 41.2755642]]}, "properties": {"highway": "primary", "lanes": "1", "old_ref": "EN 322", "oneway": "yes", "ref": "ER 322", "surface": "asphalt"}}, {"type": "Feature", "geometry": {"type": "LineString", "coordinates": [[-7.474925, 41.2755642], [-7.4749766, 41.2755595], [-7.4750178, 41.2755564], [-7.4750552, 41.2755553], [-7.4750909, 41.2755561], [-7.4751618, 41.2755616]]}, "properties": {"highway": "primary", "lanes": "1", "old_ref": "EN 322", "oneway": "yes", "ref": "ER 322", "surface": "asphalt"}}]}