{"type": "FeatureCollection", "features": [{"type": "Feature", "geometry": {"type": "LineString", "coordinates": [[-7.6591408, 40.3543523], [-7.6592636, 40.3542999], [-7.6593764, 40.3542516], [-7.6596171, 40.3541395], [-7.6596795, 40.3541104], [-7.6603146, 40.3538382], [-7.6605763, 40.3537456], [-7.6609037, 40.3536453], [-7.6622607, 40.3532668], [-7.6629396, 40.3530733], [-7.6630832, 40.3530445], [-7.6631712, 40.3530347], [-7.6632703, 40.3530379], [-7.6633454, 40.3530501], [-7.6634385, 40.3530744], [-7.6637359, 40.3531771], [-7.663871, 40.3532206], [-7.6639583, 40.353239], [-7.664056, 40.3532502], [-7.6641565, 40.3532541], [-7.6643054, 40.3532399], [-7.6655548, 40.3530043], [-7.665659, 40.3529767], [-7.6657331, 40.3529333], [-7.6657987, 40.3528804], [-7.6658341, 40.352826], [-7.6658505, 40.3527666], [-7.6658461, 40.352609], [-7.6656787, 40.3512277], [-7.6656609, 40.3509874], [-7.6656643, 40.3508841], [-7.6656725, 40.3508019], [-7.6657115, 40.3506093], [-7.6658163, 40.3501905], [-7.6658344, 40.3500604], [-7.6658301, 40.3499697], [-7.665803, 40.3498958], [-7.6657586, 40.3498252], [-7.665711, 40.3497668], [-7.6656013, 40.3496842], [-7.6655275, 40.3496384], [-7.6654469, 40.3496054], [-7.6653397, 40.3495786], [-7.6652186, 40.3495638], [-7.6650804, 40.3495763], [-7.6649734, 40.3496042], [-7.6648345, 40.349667], [-7.6647415, 40.3497125], [-7.6643797, 40.3499383], [-7.6641249, 40.3500804], [-7.6639897, 40.3501514], [-7.6638683, 40.3501884], [-7.6637207, 40.3502286], [-7.6635654, 40.3502449], [-7.6634217, 40.350256], [-7.6632941, 40.3502563], [-7.6631629, 40.3502464], [-7.6630364, 40.3502241], [-7.662837, 40.3501801], [-7.6624382, 40.3500579], [-7.6622382, 40.3499966], [-7.6621289, 40.3499599], [-7.6620413, 40.3499187], [-7.6619532, 40.3498601], [-7.6619176, 40.3498343], [-7.6618577, 40.3497756], [-7.6618088, 40.3497017], [-7.66177, 40.3496314], [-7.6617459, 40.3495487], [-7.6617383, 40.3494653], [-7.6617561, 40.3493656], [-7.6618382, 40.3492082], [-7.6629718, 40.3477642], [-7.6630389, 40.3476646], [-7.6630783, 40.3475783], [-7.6631039, 40.3475104], [-7.6631133, 40.3473824], [-7.6630969, 40.3473077], [-7.6630731, 40.3472346], [-7.6630378, 40.3471554], [-7.6624107, 40.3461965], [-7.6622287, 40.3459307], [-7.6621635, 40.3458689], [-7.6620914, 40.3458139], [-7.6620177, 40.3457709], [-7.6619282, 40.3457368], [-7.6618631, 40.3457214], [-7.6617511, 40.3457173], [-7.6616544, 40.3457257], [-7.6615522, 40.345758], [-7.6614266, 40.3458098], [-7.6612011, 40.3459119], [-7.6609435, 40.3460412], [-7.6599602, 40.3465264], [-7.6597227, 40.3466079], [-7.6595611, 40.3466417], [-7.6594194, 40.3466611], [-7.6591875, 40.3466735], [-7.6581806, 40.3467056], [-7.6563982, 40.3467571], [-7.6555167, 40.3467864], [-7.6550884, 40.3468044], [-7.6549106, 40.346819], [-7.6547588, 40.3468366], [-7.654562, 40.3468708], [-7.6543304, 40.3469302], [-7.6541436, 40.3469922], [-7.6539288, 40.3470844], [-7.6533052, 40.3474022], [-7.6529202, 40.3475908], [-7.6527306, 40.3476677], [-7.6526397, 40.3476841], [-7.6525545, 40.3476819], [-7.652461, 40.3476707], [-7.6523723, 40.3476449], [-7.6522611, 40.3475922], [-7.6521271, 40.3475202], [-7.6519758, 40.3474324], [-7.6517169, 40.3472957], [-7.6515455, 40.347227], [-7.6513884, 40.3471732], [-7.6512047, 40.3471254], [-7.651101, 40.3471045], [-7.6509208, 40.3470738], [-7.650729, 40.3470514], [-7.6505859, 40.3470457], [-7.6504368, 40.3470442], [-7.6503424, 40.3470461], [-7.6495271, 40.3471154], [-7.6485572, 40.3471736], [-7.6481062, 40.3471994], [-7.6479698, 40.3471941], [-7.6478302, 40.3471604], [-7.6476651, 40.3470813], [-7.6476029, 40.3470278], [-7.6474863, 40.3468883], [-7.6473984, 40.3467511], [-7.6471893, 40.3463926], [-7.6471252, 40.3463124], [-7.6470178, 40.3461933], [-7.6469488, 40.3461359], [-7.6468383, 40.3460768], [-7.6467471, 40.3460336], [-7.646638, 40.3459951], [-7.6465533, 40.3459747], [-7.6464772, 40.3459641], [-7.6463644, 40.3459599], [-7.6438839, 40.3460538], [-7.6417561, 40.3461424], [-7.6415572, 40.3461289], [-7.6414251, 40.3461069], [-7.6413169, 40.3460745], [-7.6412235, 40.3460379], [-7.641139, 40.3459876], [-7.6410477, 40.3459188], [-7.6409411, 40.3457961], [-7.640726, 40.3455231], [-7.640507, 40.3452703], [-7.6403353, 40.345126], [-7.6402156, 40.3450553], [-7.6401218, 40.3450132], [-7.6399843, 40.3449697], [-7.6398878, 40.3449474], [-7.6397728, 40.3449245], [-7.6394632, 40.3448703], [-7.6392326, 40.3448329], [-7.6373885, 40.3445032], [-7.6356009, 40.3441925], [-7.633708, 40.343854], [-7.6335488, 40.3438155], [-7.6333565, 40.3437532], [-7.6332769, 40.3437179], [-7.6332136, 40.343684], [-7.633136, 40.3436361], [-7.6330387, 40.343549], [-7.6322615, 40.3428152], [-7.6321087, 40.3426965], [-7.632001, 40.3426434], [-7.6318865, 40.3426027], [-7.6317392, 40.3425701], [-7.6315868, 40.3425613], [-7.631441, 40.3425724], [-7.6312766, 40.3425917], [-7.6311124, 40.3426046], [-7.6309073, 40.342604], [-7.6307201, 40.3425791], [-7.6300623, 40.3424693], [-7.6297384, 40.3424131], [-7.6295331, 40.3423733], [-7.6293306, 40.3423184], [-7.628978, 40.3421996], [-7.6285199, 40.3420367], [-7.6271768, 40.3415472], [-7.6267867, 40.3414125], [-7.6265901, 40.3413577], [-7.626387, 40.3413257], [-7.6262213, 40.3413132], [-7.6260261, 40.3413161], [-7.6258123, 40.3413303], [-7.6255907, 40.3413718], [-7.6248014, 40.3415353], [-7.6245728, 40.341571], [-7.6242588, 40.3416024], [-7.6225964, 40.3417396], [-7.6224192, 40.3417526], [-7.6223157, 40.3417626], [-7.6222091, 40.3417697], [-7.6220705, 40.3417558], [-7.6219639, 40.3417268], [-7.6218409, 40.3416878], [-7.6210498, 40.3414053], [-7.6206693, 40.3412694], [-7.6200307, 40.3410365], [-7.6198918, 40.3409745], [-7.6198149, 40.34092], [-7.6197561, 40.3408714], [-7.6196454, 40.3407561], [-7.6195187, 40.3405617], [-7.6194464, 40.3404509], [-7.6193564, 40.3403204], [-7.619277, 40.3401937], [-7.6192034, 40.3400926], [-7.6191189, 40.3399927], [-7.6190219, 40.3399007], [-7.6189486, 40.3398369], [-7.6188139, 40.3397393], [-7.6184668, 40.3395202], [-7.6181382, 40.3393141], [-7.616951, 40.3385942], [-7.6163252, 40.3382031], [-7.6161583, 40.3380828], [-7.6160402, 40.3379721], [-7.6159478, 40.3378558], [-7.6158895, 40.3377291], [-7.6158591, 40.3376065], [-7.615844, 40.3374951], [-7.6158447, 40.3373778], [-7.6158726, 40.3372656], [-7.6159181, 40.337146], [-7.6160598, 40.3368635], [-7.61644, 40.3361289], [-7.616539, 40.3359247], [-7.616603, 40.3358189], [-7.6166554, 40.335751], [-7.6167746, 40.3356147], [-7.6168793, 40.3355023], [-7.6172864, 40.3351004], [-7.6173607, 40.3350198], [-7.6174125, 40.3349287], [-7.6174589, 40.3348387], [-7.617492, 40.334759], [-7.6175243, 40.3346566], [-7.6175478, 40.3345567], [-7.6175692, 40.3344334], [-7.6177349, 40.3337898], [-7.6177758, 40.3335911], [-7.6177992, 40.3334405], [-7.6177899, 40.3332962], [-7.6177669, 40.3331413], [-7.6177195, 40.3329383], [-7.6176627, 40.3327812], [-7.6175735, 40.3326023], [-7.6174531, 40.332419], [-7.6170489, 40.3319669], [-7.6166157, 40.3315093], [-7.6164427, 40.3313226], [-7.616379, 40.3312539], [-7.6162567, 40.3311488], [-7.6160428, 40.3310116], [-7.6159095, 40.3309515], [-7.6157525, 40.3308943], [-7.615586, 40.3308493], [-7.6154396, 40.3308216], [-7.6152812, 40.3308015], [-7.6150262, 40.3307954], [-7.6144325, 40.3308277], [-7.6141729, 40.3308513], [-7.6139485, 40.3308718], [-7.6127119, 40.3309611], [-7.61225, 40.3309929], [-7.6120649, 40.3309858], [-7.6119664, 40.330972], [-7.6118651, 40.330952], [-7.6117752, 40.330926], [-7.6117092, 40.330899], [-7.6115989, 40.3308529], [-7.6114755, 40.3307844], [-7.6111376, 40.3305753], [-7.6106668, 40.3302757], [-7.6104879, 40.3301622], [-7.6099493, 40.3298171], [-7.6089501, 40.3291818], [-7.6087296, 40.3290494], [-7.6086102, 40.3289727], [-7.6083997, 40.3288521], [-7.6081668, 40.3287231], [-7.6080008, 40.3286475], [-7.6079062, 40.3285955]]}, "properties": {"highway": "primary", "oneway": "no", "ref": "ER 338", "scenic": "yes"}}]}