{"type": "FeatureCollection", "features": [{"type": "Feature", "geometry": {"type": "LineString", "coordinates": [[-8.8731453, 39.8469054], [-8.8731933, 39.8469041], [-8.8732401, 39.8468959]]}, "properties": {"highway": "primary", "junction": "roundabout", "lanes": "2", "lit": "yes", "name": "Variante de Monte Real", "ref": "ER 349", "surface": "asphalt"}}, {"type": "Feature", "geometry": {"type": "LineString", "coordinates": [[-8.864001, 39.845356], [-8.8639917, 39.8453247], [-8.8639697, 39.8452868], [-8.8639377, 39.8452533], [-8.863897, 39.845226], [-8.8638496, 39.845206], [-8.8638035, 39.8451952], [-8.8637556, 39.8451913], [-8.8636713, 39.8452021], [-8.8635966, 39.845234]]}, "properties": {"highway": "primary", "junction": "roundabout", "lanes": "2", "name": "Variante de Monte Real", "ref": "ER 349", "surface": "asphalt"}}, {"type": "Feature", "geometry": {"type": "LineString", "coordinates": [[-8.8635966, 39.845234], [-8.8634247, 39.8451961], [-8.8632474, 39.845161], [-8.8629869, 39.8451183]]}, "properties": {"highway": "primary", "lanes": "1", "name": "Variante de Monte Real", "oneway": "yes", "ref": "ER 349", "surface": "asphalt"}}, {"type": "Feature", "geometry": {"type": "LineString", "coordinates": [[-8.8534836, 39.8518618], [-8.8534421, 39.8517459], [-8.8534234, 39.8516747], [-8.8534222, 39.8515971], [-8.8534365, 39.851536], [-8.8534601, 39.8514618], [-8.8534979, 39.8513838], [-8.8535695, 39.8512453], [-8.853596, 39.8511415]]}, "properties": {"highway": "primary", "lanes": "1", "lit": "yes", "name": "Variante de Monte Real", "oneway": "yes", "ref": "ER 349", "surface": "asphalt"}}, {"type": "Feature", "geometry": {"type": "LineString", "coordinates": [[-8.853596, 39.8511415], [-8.8535242, 39.8511709], [-8.8534491, 39.8512545], [-8.853389, 39.8513487], [-8.8533354, 39.8514584], [-8.8532929, 39.8515788], [-8.8532332, 39.8517901], [-8.8532197, 39.8518377]]}, "properties": {"highway": "primary", "lanes": "1", "lit": "yes", "name": "Variante de Monte Real", "oneway": "yes", "ref": "ER 349", "surface": "asphalt"}}, {"type": "Feature", "geometry": {"type": "LineString", "coordinates": [[-8.8629869, 39.8451183], [-8.8628562, 39.8450784], [-8.8626713, 39.8450246], [-8.8624225, 39.8449749], [-8.8621685, 39.8449433], [-8.8619535, 39.8449298], [-8.8616568, 39.8449302], [-8.8613593, 39.8449488], [-8.8611179, 39.8449905], [-8.8608734, 39.8450451], [-8.8606227, 39.8451145], [-8.8603482, 39.8452102], [-8.8600553, 39.8453301], [-8.8587689, 39.8458869], [-8.8583495, 39.8460667], [-8.8579558, 39.8462471], [-8.8576711, 39.8464049], [-8.8574057, 39.8465691], [-8.8569919, 39.8468398], [-8.8561299, 39.8474499], [-8.8555451, 39.8478698], [-8.8554135, 39.8479787], [-8.8553235, 39.8480665], [-8.8552219, 39.848182], [-8.8551565, 39.8482705], [-8.8551112, 39.8483487], [-8.8550721, 39.848422], [-8.8550283, 39.8485204], [-8.8550001, 39.8486035], [-8.8549765, 39.8486838], [-8.8549592, 39.8487836], [-8.8549522, 39.8488936], [-8.8549556, 39.8490168], [-8.8549744, 39.8492526], [-8.8549806, 39.849477], [-8.8549789, 39.8496474], [-8.8549478, 39.8498053], [-8.8549021, 39.849937], [-8.8548448, 39.8500543], [-8.8547634, 39.8501774], [-8.8546839, 39.8502745], [-8.8545887, 39.8503788], [-8.8544323, 39.8505083], [-8.8540507, 39.8507739], [-8.8538665, 39.8508845], [-8.8537927, 39.8509418], [-8.8536904, 39.8510405], [-8.853596, 39.8511415]]}, "properties": {"highway": "primary", "lanes": "2", "lit": "no", "name": "Variante de Monte Real", "ref": "ER 349", "surface": "asphalt"}}, {"type": "Feature", "geometry": {"type": "LineString", "coordinates": [[-8.8730731, 39.8465225], [-8.8729706, 39.8465017], [-8.8728993, 39.8464867], [-8.8728254, 39.8464653], [-8.8727669, 39.8464399], [-8.8726833, 39.8463979], [-8.872542, 39.846324], [-8.8724496, 39.8463007]]}, "properties": {"destination": "Leiria;Figueira da Foz", "highway": "primary", "lanes": "1", "name": "Variante de Monte Real", "oneway": "yes", "ref": "ER 349", "surface": "asphalt"}}, {"type": "Feature", "geometry": {"type": "LineString", "coordinates": [[-8.8638869, 39.8455453], [-8.8640303, 39.8455302], [-8.8641762, 39.845533], [-8.8643026, 39.8455387], [-8.8645253, 39.8455402]]}, "properties": {"highway": "primary", "lanes": "1", "name": "Variante de Monte Real", "oneway": "yes", "ref": "ER 349", "surface": "asphalt"}}, {"type": "Feature", "geometry": {"type": "LineString", "coordinates": [[-8.8534836, 39.8518618], [-8.8534004, 39.8518324], [-8.8533095, 39.8518241], [-8.8532197, 39.8518377]]}, "properties": {"highway": "primary", "junction": "roundabout", "lanes": "2", "lit": "yes", "name": "Variante de Monte Real", "ref": "ER 349", "surface": "asphalt"}}, {"type": "Feature", "geometry": {"type": "LineString", "coordinates": [[-8.836092, 39.8542789], [-8.8361835, 39.8542302], [-8.8362684, 39.854188], [-8.8363559, 39.8541395]]}, "properties": {"access": "yes", "bicycle": "yes", "cycleway": "no", "highway": "primary", "lanes": "1", "lit": "yes", "name": "Variante de Monte Real", "oneway": "yes", "ref": "ER 349", "sidewalk": "no", "surface": "asphalt"}}, {"type": "Feature", "geometry": {"type": "LineString", "coordinates": [[-8.8516452, 39.8521788], [-8.8515304, 39.852185], [-8.8511403, 39.8522061], [-8.8509619, 39.8522134], [-8.8507629, 39.8522187], [-8.8505311, 39.8522181], [-8.8503158, 39.8522072], [-8.8500759, 39.8521903], [-8.8491048, 39.8520162]]}, "properties": {"highway": "primary", "lanes": "2", "lit": "no", "name": "Variante de Monte Real", "ref": "ER 349", "surface": "asphalt"}}, {"type": "Feature", "geometry": {"type": "LineString", "coordinates": [[-8.8527498, 39.8520988], [-8.8516452, 39.8521788]]}, "properties": {"bridge": "yes", "highway": "primary", "lanes": "2", "layer": "1", "lit": "no", "name": "Variante de Monte Real", "ref": "ER 349", "surface": "asphalt"}}, {"type": "Feature", "geometry": {"type": "LineString", "coordinates": [[-8.8530596, 39.8519462], [-8.8529842, 39.8519996], [-8.8529314, 39.8520277], [-8.852869, 39.8520516], [-8.8527498, 39.8520988]]}, "properties": {"highway": "primary", "lanes": "1", "lit": "yes", "name": "Variante de Monte Real", "oneway": "yes", "ref": "ER 349", "surface": "asphalt"}}, {"type": "Feature", "geometry": {"type": "LineString", "coordinates": [[-8.8527498, 39.8520988], [-8.8528642, 39.8521177], [-8.8529443, 39.8521349], [-8.8530063, 39.8521498], [-8.8530683, 39.8521647]]}, "properties": {"highway": "primary", "lanes": "1", "lit": "yes", "name": "Variante de Monte Real", "oneway": "yes", "ref": "ER 349", "surface": "asphalt"}}, {"type": "Feature", "geometry": {"type": "LineString", "coordinates": [[-8.8491048, 39.8520162], [-8.8474615, 39.8517209]]}, "properties": {"bridge": "yes", "highway": "primary", "lanes": "2", "layer": "1", "lit": "no", "maxweight:signed": "no", "name": "Variante de Monte Real", "ref": "ER 349", "surface": "asphalt"}}, {"type": "Feature", "geometry": {"type": "LineString", "coordinates": [[-8.8363559, 39.8541395], [-8.8362731, 39.8541161], [-8.8361655, 39.8540995], [-8.8361151, 39.8540925], [-8.8360423, 39.854068]]}, "properties": {"highway": "primary", "lanes": "1", "lit": "yes", "name": "Variante de Monte Real", "oneway": "yes", "ref": "ER 349", "surface": "asphalt"}}, {"type": "Feature", "geometry": {"type": "LineString", "coordinates": [[-8.8443582, 39.8513991], [-8.8442239, 39.8514802], [-8.8440169, 39.8515559], [-8.8438714, 39.8516093], [-8.8437641, 39.8516858]]}, "properties": {"highway": "primary", "lanes": "1", "lit": "yes", "name": "Variante de Monte Real", "oneway": "yes", "ref": "ER 349", "surface": "asphalt"}}, {"type": "Feature", "geometry": {"type": "LineString", "coordinates": [[-8.8437641, 39.8516858], [-8.8438914, 39.851671], [-8.8440679, 39.8516079], [-8.8441358, 39.851584], [-8.8441948, 39.8515729], [-8.844251, 39.8515703], [-8.8443238, 39.851565], [-8.8443967, 39.8515665]]}, "properties": {"highway": "primary", "lanes": "1", "lit": "yes", "name": "Variante de Monte Real", "oneway": "yes", "ref": "ER 349", "surface": "asphalt"}}, {"type": "Feature", "geometry": {"type": "LineString", "coordinates": [[-8.8363559, 39.8541395], [-8.8363985, 39.854134], [-8.8367874, 39.8540833]]}, "properties": {"highway": "primary", "lanes": "2", "lit": "no", "name": "Variante de Monte Real", "ref": "ER 349", "sidewalk": "no", "surface": "asphalt"}}, {"type": "Feature", "geometry": {"type": "LineString", "coordinates": [[-8.8431915, 39.8519097], [-8.84289, 39.8520423], [-8.8423767, 39.8522705], [-8.8416582, 39.8525851], [-8.8413808, 39.8527023], [-8.8411253, 39.8528048], [-8.8405226, 39.8530297], [-8.8400058, 39.8532282], [-8.8395259, 39.8534234]]}, "properties": {"highway": "primary", "lanes": "3", "lanes:backward": "1", "lanes:forward": "2", "lit": "no", "name": "Variante de Monte Real", "ref": "ER 349", "surface": "asphalt"}}, {"type": "Feature", "geometry": {"type": "LineString", "coordinates": [[-8.8461517, 39.8514699], [-8.8457234, 39.851336], [-8.8454384, 39.8512776], [-8.8453131, 39.8512607], [-8.8451649, 39.8512633], [-8.845035, 39.8512703], [-8.8449352, 39.8512738], [-8.8448887, 39.8512695], [-8.8448279, 39.8512609]]}, "properties": {"highway": "primary", "lanes": "1", "lit": "yes", "name": "Variante de Monte Real", "oneway": "yes", "ref": "ER 349", "surface": "asphalt"}}, {"type": "Feature", "geometry": {"type": "LineString", "coordinates": [[-8.8474615, 39.8517209], [-8.8461517, 39.8514699]]}, "properties": {"highway": "primary", "lanes": "2", "lit": "no", "name": "Variante de Monte Real", "ref": "ER 349", "surface": "asphalt"}}, {"type": "Feature", "geometry": {"type": "LineString", "coordinates": [[-8.8449445, 39.8514883], [-8.8450213, 39.8514304], [-8.8451015, 39.8513917], [-8.845193, 39.8513665], [-8.8453359, 39.8513651], [-8.8457105, 39.8514143], [-8.8461517, 39.8514699]]}, "properties": {"highway": "primary", "lanes": "1", "lit": "yes", "name": "Variante de Monte Real", "oneway": "yes", "ref": "ER 349", "surface": "asphalt"}}, {"type": "Feature", "geometry": {"type": "LineString", "coordinates": [[-8.8645253, 39.8455402], [-8.8643208, 39.8454729], [-8.8642192, 39.8454423], [-8.864117, 39.8454051], [-8.8640634, 39.8453792], [-8.864001, 39.845356]]}, "properties": {"highway": "primary", "lanes": "1", "name": "Variante de Monte Real", "oneway": "yes", "ref": "ER 349", "surface": "asphalt"}}, {"type": "Feature", "geometry": {"type": "LineString", "coordinates": [[-8.8629869, 39.8451183], [-8.8632094, 39.8452251], [-8.8633681, 39.8452977], [-8.8634339, 39.8453387], [-8.8635049, 39.8453996]]}, "properties": {"highway": "primary", "lanes": "1", "name": "Variante de Monte Real", "oneway": "yes", "ref": "ER 349", "surface": "asphalt"}}, {"type": "Feature", "geometry": {"type": "LineString", "coordinates": [[-8.8724496, 39.8463007], [-8.8720866, 39.8460884], [-8.8716809, 39.8458624], [-8.8713501, 39.8456757], [-8.8710681, 39.8455361], [-8.870859, 39.8454438], [-8.8705733, 39.845344], [-8.8703935, 39.8453], [-8.870184, 39.8452554], [-8.8699818, 39.8452294], [-8.8697857, 39.8452105], [-8.8695108, 39.8452008], [-8.8692016, 39.8452158], [-8.8688664, 39.8452456], [-8.8685138, 39.8452908], [-8.8669944, 39.8454875], [-8.8660815, 39.8455977], [-8.8658493, 39.8456123], [-8.8656043, 39.8456202], [-8.8652269, 39.8456118], [-8.865049, 39.8456016], [-8.8648691, 39.8455883], [-8.8645253, 39.8455402]]}, "properties": {"highway": "primary", "lanes": "2", "name": "Variante de Monte Real", "ref": "ER 349", "surface": "asphalt"}}, {"type": "Feature", "geometry": {"type": "LineString", "coordinates": [[-8.8724496, 39.8463007], [-8.8725104, 39.8463725], [-8.8726164, 39.8464472], [-8.8727131, 39.846522], [-8.8728009, 39.8465846], [-8.8728671, 39.84665], [-8.8729032, 39.8467001]]}, "properties": {"highway": "primary", "lanes": "1", "name": "Variante de Monte Real", "oneway": "yes", "ref": "ER 349", "surface": "asphalt"}}, {"type": "Feature", "geometry": {"type": "LineString", "coordinates": [[-8.8760602, 39.8493091], [-8.8760482, 39.8491273], [-8.8760248, 39.8490391], [-8.8759936, 39.848955], [-8.8759314, 39.8487897], [-8.8758838, 39.8486825], [-8.8757873, 39.8485125], [-8.8757355, 39.8484343], [-8.8756863, 39.8483681], [-8.8755517, 39.8481998], [-8.8754362, 39.8480775], [-8.8753273, 39.8479722], [-8.8752151, 39.847875], [-8.875112, 39.8478017], [-8.8747755, 39.8475862], [-8.874385, 39.8473634], [-8.8739996, 39.8471406], [-8.8736298, 39.8469252], [-8.8735657, 39.8468844], [-8.8735172, 39.8468455], [-8.8734657, 39.8467879], [-8.8734582, 39.8467796], [-8.8734168, 39.8467215]]}, "properties": {"highway": "primary", "lanes": "1", "name": "Variante de Monte Real", "oneway": "yes", "ref": "ER 349", "surface": "asphalt"}}, {"type": "Feature", "geometry": {"type": "LineString", "coordinates": [[-8.8769306, 39.8522345], [-8.8768699, 39.8521438], [-8.8767546, 39.85194], [-8.8766884, 39.8518037]]}, "properties": {"highway": "primary", "lanes": "1", "name": "Variante de Monte Real", "oneway": "yes", "ref": "ER 349", "surface": "asphalt"}}, {"type": "Feature", "geometry": {"type": "LineString", "coordinates": [[-8.8766884, 39.8518037], [-8.8760602, 39.8493091]]}, "properties": {"highway": "primary", "lanes": "2", "name": "Variante de Monte Real", "ref": "ER 349", "surface": "asphalt"}}, {"type": "Feature", "geometry": {"type": "LineString", "coordinates": [[-8.8732401, 39.8468959], [-8.8732978, 39.8469076], [-8.8733607, 39.8469215], [-8.8734521, 39.8469407], [-8.8735018, 39.8469592], [-8.8735489, 39.846985], [-8.8739454, 39.8472004], [-8.874725, 39.847645], [-8.8748951, 39.8477517], [-8.8750561, 39.8478633], [-8.8751505, 39.8479336], [-8.8752268, 39.847996], [-8.8753299, 39.8480893], [-8.8754641, 39.8482263], [-8.8755769, 39.8483606], [-8.875701, 39.8485382], [-8.8757484, 39.8486188], [-8.8757933, 39.8486974], [-8.8758392, 39.8487932], [-8.8759019, 39.8489557], [-8.8759633, 39.849144], [-8.8760602, 39.8493091]]}, "properties": {"destination": "Vieira", "highway": "primary", "lanes": "1", "name": "Variante de Monte Real", "oneway": "yes", "ref": "ER 349", "surface": "asphalt"}}, {"type": "Feature", "geometry": {"type": "LineString", "coordinates": [[-8.8766884, 39.8518037], [-8.8766793, 39.8519723], [-8.8766797, 39.8520495], [-8.8766759, 39.8520967], [-8.8766632, 39.8521405], [-8.8766507, 39.8521739], [-8.876627, 39.8522311]]}, "properties": {"highway": "primary", "lanes": "1", "name": "Variante de Monte Real", "oneway": "yes", "ref": "ER 349", "surface": "asphalt"}}, {"type": "Feature", "geometry": {"type": "LineString", "coordinates": [[-8.8437641, 39.8516858], [-8.8435584, 39.8517672]]}, "properties": {"highway": "primary", "lanes": "2", "lit": "no", "name": "Variante de Monte Real", "ref": "ER 349", "surface": "asphalt", "traffic_calming:backward": "rumble_strip"}}, {"type": "Feature", "geometry": {"type": "LineString", "coordinates": [[-8.8435584, 39.8517672], [-8.8431915, 39.8519097]]}, "properties": {"highway": "primary", "lanes": "3", "lanes:backward": "1", "lanes:forward": "2", "lit": "no", "name": "Variante de Monte Real", "ref": "ER 349", "surface": "asphalt", "traffic_calming:backward": "rumble_strip"}}, {"type": "Feature", "geometry": {"type": "LineString", "coordinates": [[-8.8367874, 39.8540833], [-8.8375791, 39.8539787]]}, "properties": {"highway": "primary", "lanes": "2", "lit": "no", "name": "Variante de Monte Real", "ref": "ER 349", "surface": "asphalt", "traffic_calming:backward": "rumble_strip"}}, {"type": "Feature", "geometry": {"type": "LineString", "coordinates": [[-8.8395259, 39.8534234], [-8.8390932, 39.853591], [-8.8386887, 39.8537398], [-8.8384857, 39.8537998], [-8.8382788, 39.8538538], [-8.8380835, 39.8538942], [-8.8375791, 39.8539787]]}, "properties": {"highway": "primary", "lanes": "3", "lanes:backward": "1", "lanes:forward": "2", "lit": "no", "name": "Variante de Monte Real", "ref": "ER 349", "surface": "asphalt", "turn:lanes:forward": "none|merge_to_left"}}, {"type": "Feature", "geometry": {"type": "LineString", "coordinates": [[-8.8732209, 39.8465176], [-8.8731877, 39.8465119], [-8.8731296, 39.8465122], [-8.8730731, 39.8465225]]}, "properties": {"highway": "primary", "junction": "roundabout", "lanes": "2", "lit": "yes", "name": "Variante de Monte Real", "ref": "ER 349", "surface": "asphalt"}}, {"type": "Feature", "geometry": {"type": "LineString", "coordinates": [[-8.8729505, 39.8468226], [-8.8729888, 39.8468555], [-8.8730356, 39.846881], [-8.8730887, 39.8468979], [-8.8731453, 39.8469054]]}, "properties": {"highway": "primary", "junction": "roundabout", "lanes": "2", "lit": "yes", "name": "Variante de Monte Real", "ref": "ER 349", "surface": "asphalt"}}, {"type": "Feature", "geometry": {"type": "LineString", "coordinates": [[-8.8734059, 39.8466551], [-8.8733918, 39.8466224], [-8.8733548, 39.8465792], [-8.8733046, 39.8465449], [-8.8732444, 39.8465217], [-8.8732209, 39.8465176]]}, "properties": {"highway": "primary", "junction": "roundabout", "lanes": "2", "lit": "yes", "name": "Variante de Monte Real", "ref": "ER 349", "surface": "asphalt"}}, {"type": "Feature", "geometry": {"type": "LineString", "coordinates": [[-8.8734168, 39.8467215], [-8.8734126, 39.8466707], [-8.8734059, 39.8466551]]}, "properties": {"highway": "primary", "junction": "roundabout", "lanes": "2", "lit": "yes", "name": "Variante de Monte Real", "ref": "ER 349", "surface": "asphalt"}}, {"type": "Feature", "geometry": {"type": "LineString", "coordinates": [[-8.8732401, 39.8468959], [-8.8733081, 39.8468698], [-8.8733632, 39.8468295], [-8.8734005, 39.8467786], [-8.8734168, 39.8467215]]}, "properties": {"highway": "primary", "junction": "roundabout", "lanes": "2", "lit": "yes", "name": "Variante de Monte Real", "ref": "ER 349", "surface": "asphalt"}}, {"type": "Feature", "geometry": {"type": "LineString", "coordinates": [[-8.8729032, 39.8467001], [-8.872907, 39.8467433], [-8.8729231, 39.8467848], [-8.8729505, 39.8468226]]}, "properties": {"highway": "primary", "junction": "roundabout", "lanes": "2", "lit": "yes", "name": "Variante de Monte Real", "ref": "ER 349", "surface": "asphalt"}}, {"type": "Feature", "geometry": {"type": "LineString", "coordinates": [[-8.8730731, 39.8465225], [-8.8730063, 39.84655], [-8.8729529, 39.8465914], [-8.8729175, 39.8466429], [-8.8729032, 39.8467001]]}, "properties": {"highway": "primary", "junction": "roundabout", "lanes": "2", "lit": "yes", "name": "Variante de Monte Real", "ref": "ER 349", "surface": "asphalt"}}, {"type": "Feature", "geometry": {"type": "LineString", "coordinates": [[-8.8449445, 39.8514883], [-8.8449483, 39.8514241], [-8.8449289, 39.8513617], [-8.8448877, 39.8513058], [-8.8448279, 39.8512609]]}, "properties": {"highway": "primary", "junction": "roundabout", "lanes": "2", "lit": "yes", "name": "Variante de Monte Real", "ref": "ER 349", "surface": "asphalt"}}, {"type": "Feature", "geometry": {"type": "LineString", "coordinates": [[-8.8635049, 39.8453996], [-8.8635138, 39.8454363], [-8.8635431, 39.8454861], [-8.8635895, 39.8455275], [-8.8636492, 39.8455572], [-8.8637287, 39.8455738], [-8.8638109, 39.8455697], [-8.8638869, 39.8455453]]}, "properties": {"highway": "primary", "junction": "roundabout", "lanes": "2", "name": "Variante de Monte Real", "ref": "ER 349", "surface": "asphalt"}}, {"type": "Feature", "geometry": {"type": "LineString", "coordinates": [[-8.8638869, 39.8455453], [-8.8639413, 39.8455097], [-8.8639804, 39.8454636], [-8.8640008, 39.845411], [-8.864001, 39.845356]]}, "properties": {"highway": "primary", "junction": "roundabout", "lanes": "2", "name": "Variante de Monte Real", "ref": "ER 349", "surface": "asphalt"}}, {"type": "Feature", "geometry": {"type": "LineString", "coordinates": [[-8.8635966, 39.845234], [-8.8635544, 39.8452676], [-8.8635239, 39.845308], [-8.8635071, 39.8453529], [-8.8635049, 39.8453996]]}, "properties": {"highway": "primary", "junction": "roundabout", "lanes": "2", "name": "Variante de Monte Real", "ref": "ER 349", "surface": "asphalt"}}, {"type": "Feature", "geometry": {"type": "LineString", "coordinates": [[-8.8443582, 39.8513991], [-8.8443523, 39.8514568], [-8.8443654, 39.8515138], [-8.8443967, 39.8515665]]}, "properties": {"highway": "primary", "junction": "roundabout", "lanes": "2", "lit": "yes", "name": "Variante de Monte Real", "ref": "ER 349", "surface": "asphalt"}}, {"type": "Feature", "geometry": {"type": "LineString", "coordinates": [[-8.8448279, 39.8512609], [-8.8447376, 39.8512261], [-8.8446374, 39.8512165], [-8.8445387, 39.851233]]}, "properties": {"highway": "primary", "junction": "roundabout", "lanes": "2", "lit": "yes", "name": "Variante de Monte Real", "ref": "ER 349", "surface": "asphalt"}}, {"type": "Feature", "geometry": {"type": "LineString", "coordinates": [[-8.8443967, 39.8515665], [-8.8444539, 39.8516183], [-8.8445186, 39.8516515], [-8.8445922, 39.8516707], [-8.8446698, 39.8516747], [-8.8447296, 39.851667], [-8.8447861, 39.8516503], [-8.8448603, 39.8516093], [-8.844915, 39.851553], [-8.8449329, 39.8515215], [-8.8449445, 39.8514883]]}, "properties": {"highway": "primary", "junction": "roundabout", "lanes": "2", "lit": "yes", "name": "Variante de Monte Real", "ref": "ER 349", "surface": "asphalt"}}, {"type": "Feature", "geometry": {"type": "LineString", "coordinates": [[-8.8530683, 39.8521647], [-8.8530977, 39.852196], [-8.8531335, 39.8522231], [-8.8532135, 39.8522593], [-8.8533043, 39.8522745], [-8.8533967, 39.8522671]]}, "properties": {"highway": "primary", "junction": "roundabout", "lanes": "2", "lit": "yes", "name": "Variante de Monte Real", "ref": "ER 349", "surface": "asphalt"}}, {"type": "Feature", "geometry": {"type": "LineString", "coordinates": [[-8.8532197, 39.8518377], [-8.8531353, 39.8518745], [-8.8530926, 39.8519074], [-8.8530596, 39.8519462]]}, "properties": {"highway": "primary", "junction": "roundabout", "lanes": "2", "lit": "yes", "name": "Variante de Monte Real", "ref": "ER 349", "surface": "asphalt"}}, {"type": "Feature", "geometry": {"type": "LineString", "coordinates": [[-8.8530596, 39.8519462], [-8.8530342, 39.8519997], [-8.8530272, 39.8520563], [-8.8530388, 39.8521125], [-8.8530683, 39.8521647]]}, "properties": {"highway": "primary", "junction": "roundabout", "lanes": "2", "lit": "yes", "name": "Variante de Monte Real", "ref": "ER 349", "surface": "asphalt"}}, {"type": "Feature", "geometry": {"type": "LineString", "coordinates": [[-8.8445387, 39.851233], [-8.844474, 39.8512607], [-8.8444201, 39.8512998], [-8.8443805, 39.8513479]]}, "properties": {"highway": "primary", "junction": "roundabout", "lanes": "2", "lit": "yes", "name": "Variante de Monte Real", "ref": "ER 349", "surface": "asphalt"}}, {"type": "Feature", "geometry": {"type": "LineString", "coordinates": [[-8.8443805, 39.8513479], [-8.8443582, 39.8513991]]}, "properties": {"highway": "primary", "junction": "roundabout", "lanes": "2", "lit": "yes", "name": "Variante de Monte Real", "ref": "ER 349", "surface": "asphalt"}}, {"type": "Feature", "geometry": {"type": "LineString", "coordinates": [[-8.8536115, 39.852081], [-8.8536137, 39.8520336], [-8.8536029, 39.8519869], [-8.8535763, 39.8519384], [-8.8535358, 39.8518959], [-8.8534836, 39.8518618]]}, "properties": {"highway": "primary", "junction": "roundabout", "lanes": "2", "lit": "yes", "name": "Variante de Monte Real", "ref": "ER 349", "surface": "asphalt"}}, {"type": "Feature", "geometry": {"type": "LineString", "coordinates": [[-8.8533967, 39.8522671], [-8.8534752, 39.8522411], [-8.8535405, 39.8521989], [-8.8535873, 39.8521439], [-8.8536115, 39.852081]]}, "properties": {"highway": "primary", "junction": "roundabout", "lanes": "2", "lit": "yes", "name": "Variante de Monte Real", "ref": "ER 349", "surface": "asphalt"}}]}