{"type": "FeatureCollection", "features": [{"type": "Feature", "geometry": {"type": "LineString", "coordinates": [[-8.7901298, 39.9913876], [-8.7901629, 39.9913249], [-8.7901691, 39.9912574], [-8.7901478, 39.9911917], [-8.7901012, 39.9911342]]}, "properties": {"highway": "primary", "junction": "roundabout", "lanes": "2", "lit": "yes", "ref": "ER 342", "surface": "asphalt"}}, {"type": "Feature", "geometry": {"type": "LineString", "coordinates": [[-8.7896159, 39.991214], [-8.7896042, 39.99127], [-8.7896118, 39.9913265], [-8.7896384, 39.9913796], [-8.789682, 39.9914255]]}, "properties": {"highway": "primary", "junction": "roundabout", "lanes": "2", "lit": "yes", "ref": "ER 342", "surface": "asphalt"}}]}