{"type": "FeatureCollection", "features": [{"type": "Feature", "geometry": {"type": "LineString", "coordinates": [[-7.0810501, 39.0054858], [-7.08125, 39.0058197], [-7.0813766, 39.0061049], [-7.0814436, 39.0063261], [-7.081457, 39.0064778], [-7.081442, 39.0066517], [-7.0813908, 39.0068283], [-7.0813362, 39.0069717], [-7.0813004, 39.0070555], [-7.0812543, 39.0071522], [-7.0798483, 39.0096742], [-7.0797851, 39.0097776], [-7.0797252, 39.0098604], [-7.0796397, 39.0099682], [-7.0795242, 39.0100876], [-7.0793346, 39.0102589], [-7.0790039, 39.0105623], [-7.0789216, 39.0106473], [-7.0788514, 39.0107421], [-7.0787799, 39.010856], [-7.0787243, 39.0109753], [-7.0787005, 39.0110833], [-7.0786917, 39.0111899], [-7.078699, 39.0112756], [-7.0787109, 39.0113682]]}, "properties": {"highway": "primary", "lanes": "2", "name": "Variante Poente a Campo Maior", "oneway": "no", "ref": "ER 371", "surface": "asphalt"}}, {"type": "Feature", "geometry": {"type": "LineString", "coordinates": [[-7.0810138, 39.0053811], [-7.0810548, 39.0053475], [-7.0810765, 39.0053143], [-7.0810867, 39.0052779], [-7.0810848, 39.0052407], [-7.0810715, 39.0052062], [-7.0810477, 39.0051753], [-7.0810149, 39.0051498], [-7.0809922, 39.005138], [-7.0809537, 39.0051252], [-7.0809125, 39.0051193], [-7.0808707, 39.0051206], [-7.0808348, 39.0051278], [-7.0808014, 39.0051403], [-7.0807718, 39.0051576], [-7.0807471, 39.0051791], [-7.0807284, 39.005204], [-7.0807151, 39.0052355], [-7.0807112, 39.0052685], [-7.0807187, 39.0053061], [-7.0807384, 39.005341], [-7.0807691, 39.0053707], [-7.0807979, 39.0053883], [-7.0808306, 39.0054012], [-7.080866, 39.005409], [-7.0809025, 39.0054113], [-7.0809613, 39.0054032], [-7.0810138, 39.0053811]]}, "properties": {"highway": "primary", "junction": "roundabout", "name": "Variante Poente a Campo Maior", "oneway": "yes", "ref": "ER 371", "surface": "asphalt"}}, {"type": "Feature", "geometry": {"type": "LineString", "coordinates": [[-7.0810501, 39.0054858], [-7.0810436, 39.005429], [-7.0810456, 39.0053945], [-7.0810548, 39.0053475]]}, "properties": {"highway": "primary", "name": "Variante Poente a Campo Maior", "oneway": "yes", "ref": "ER 371", "surface": "asphalt"}}, {"type": "Feature", "geometry": {"type": "LineString", "coordinates": [[-7.0787109, 39.0113682], [-7.0787071, 39.0114122], [-7.0786994, 39.0114472], [-7.0786785, 39.0115089]]}, "properties": {"highway": "primary", "name": "Variante Poente a Campo Maior", "oneway": "yes", "ref": "ER 371", "surface": "asphalt"}}, {"type": "Feature", "geometry": {"type": "LineString", "coordinates": [[-7.0788339, 39.0114652], [-7.0787769, 39.0114292], [-7.0787448, 39.0114025], [-7.0787109, 39.0113682]]}, "properties": {"highway": "primary", "name": "Variante Poente a Campo Maior", "oneway": "yes", "ref": "ER 371", "surface": "asphalt"}}, {"type": "Feature", "geometry": {"type": "LineString", "coordinates": [[-7.0809025, 39.0054113], [-7.0809458, 39.0054285], [-7.0809801, 39.005444], [-7.0810501, 39.0054858]]}, "properties": {"highway": "primary", "name": "Variante Poente a Campo Maior", "oneway": "yes", "ref": "ER 371", "surface": "asphalt"}}, {"type": "Feature", "geometry": {"type": "MultiPolygon", "coordinates": [[[[-7.0810867, 39.0052779], [-7.0810848, 39.0052407], [-7.0810715, 39.0052062], [-7.0810477, 39.0051753], [-7.0810149, 39.0051498], [-7.0809922, 39.005138], [-7.0809537, 39.0051252], [-7.0809125, 39.0051193], [-7.0808707, 39.0051206], [-7.0808348, 39.0051278], [-7.0808014, 39.0051403], [-7.0807718, 39.0051576], [-7.0807471, 39.0051791], [-7.0807284, 39.005204], [-7.0807151, 39.0052355], [-7.0807112, 39.0052685], [-7.0807187, 39.0053061], [-7.0807384, 39.005341], [-7.0807691, 39.0053707], [-7.0807979, 39.0053883], [-7.0808306, 39.0054012], [-7.080866, 39.005409], [-7.0809025, 39.0054113], [-7.0809613, 39.0054032], [-7.0810138, 39.0053811], [-7.0810548, 39.0053475], [-7.0810765, 39.0053143], [-7.0810867, 39.0052779]]]]}, "properties": {"highway": "primary", "junction": "roundabout", "name": "Variante Poente a Campo Maior", "oneway": "yes", "ref": "ER 371", "surface": "asphalt"}}]}