{"type": "FeatureCollection", "features": [{"type": "Feature", "geometry": {"type": "LineString", "coordinates": [[-8.6159907, 40.5733146], [-8.6161466, 40.5733234], [-8.6164061, 40.57335], [-8.6168103, 40.5734296], [-8.6170348, 40.5734618]]}, "properties": {"highway": "primary", "lanes": "1", "lit": "yes", "oneway": "yes", "ref": "ER 335", "smoothness": "excellent", "surface": "asphalt"}}, {"type": "Feature", "geometry": {"type": "LineString", "coordinates": [[-8.6213936, 40.5742653], [-8.6216555, 40.5742994], [-8.6217977, 40.5743297], [-8.6218812, 40.5743645]]}, "properties": {"highway": "primary", "lanes": "1", "lit": "yes", "oneway": "yes", "ref": "ER 335", "smoothness": "excellent", "surface": "asphalt"}}, {"type": "Feature", "geometry": {"type": "LineString", "coordinates": [[-8.6170348, 40.5734618], [-8.6197369, 40.5740644], [-8.6204292, 40.5741826], [-8.6209342, 40.5742352], [-8.6213936, 40.5742653]]}, "properties": {"highway": "primary", "lanes": "2", "lit": "no", "ref": "ER 335", "smoothness": "excellent", "surface": "asphalt"}}, {"type": "Feature", "geometry": {"type": "LineString", "coordinates": [[-8.6159082, 40.5730307], [-8.6158394, 40.5730174], [-8.6157685, 40.5730204], [-8.615702, 40.5730394], [-8.6156461, 40.5730726], [-8.615602, 40.5731232], [-8.6155828, 40.5731822], [-8.6155908, 40.5732426], [-8.6156127, 40.5732827], [-8.6156467, 40.5733176], [-8.6156908, 40.5733452], [-8.6157628, 40.5733683], [-8.6158407, 40.5733722], [-8.615916, 40.5733564], [-8.6159561, 40.5733384], [-8.6159907, 40.5733146], [-8.6160242, 40.5732784], [-8.6160449, 40.5732369], [-8.6160515, 40.5731929], [-8.6160436, 40.573149], [-8.6160152, 40.5730996], [-8.6159686, 40.5730589], [-8.6159082, 40.5730307]]}, "properties": {"highway": "primary", "junction": "roundabout", "lanes": "2", "lit": "yes", "maxspeed": "40", "ref": "ER 335", "smoothness": "good", "surface": "asphalt"}}, {"type": "Feature", "geometry": {"type": "LineString", "coordinates": [[-8.6219142, 40.5742118], [-8.6217304, 40.5742464], [-8.6213936, 40.5742653]]}, "properties": {"highway": "primary", "lanes": "1", "lit": "yes", "oneway": "yes", "ref": "ER 335", "smoothness": "excellent", "surface": "asphalt"}}, {"type": "Feature", "geometry": {"type": "LineString", "coordinates": [[-8.6170348, 40.5734618], [-8.6168477, 40.5734049], [-8.6164086, 40.5732969], [-8.6162339, 40.5732344], [-8.6160436, 40.573149]]}, "properties": {"highway": "primary", "lanes": "1", "lit": "yes", "oneway": "yes", "ref": "ER 335", "smoothness": "excellent", "surface": "asphalt"}}, {"type": "Feature", "geometry": {"type": "MultiPolygon", "coordinates": [[[[-8.6160515, 40.5731929], [-8.6160436, 40.573149], [-8.6160152, 40.5730996], [-8.6159686, 40.5730589], [-8.6159082, 40.5730307], [-8.6158394, 40.5730174], [-8.6157685, 40.5730204], [-8.615702, 40.5730394], [-8.6156461, 40.5730726], [-8.615602, 40.5731232], [-8.6155828, 40.5731822], [-8.6155908, 40.5732426], [-8.6156127, 40.5732827], [-8.6156467, 40.5733176], [-8.6156908, 40.5733452], [-8.6157628, 40.5733683], [-8.6158407, 40.5733722], [-8.615916, 40.5733564], [-8.6159561, 40.5733384], [-8.6159907, 40.5733146], [-8.6160242, 40.5732784], [-8.6160449, 40.5732369], [-8.6160515, 40.5731929]]]]}, "properties": {"highway": "primary", "junction": "roundabout", "lanes": "2", "lit": "yes", "maxspeed": "40", "ref": "ER 335", "smoothness": "good", "surface": "asphalt"}}]}