{"type": "FeatureCollection", "features": [{"type": "Feature", "geometry": {"type": "LineString", "coordinates": [[-8.6921292, 38.5845495], [-8.692208, 38.584556], [-8.6922827, 38.5845612], [-8.6924464, 38.5845603]]}, "properties": {"highway": "primary", "lanes": "1", "lit": "yes", "maxspeed": "50", "name": "Avenida da Liberdade", "old_ref": "EN 5", "oneway": "yes", "postal_code": "2965-999;2965-575", "postal_code:description": "2965-999:Posto Correios de \u00c1guas de Moura", "ref": "ER 5", "surface": "asphalt"}}, {"type": "Feature", "geometry": {"type": "LineString", "coordinates": [[-8.9392618, 38.6840274], [-8.9399325, 38.6842135], [-8.9399814, 38.6842264], [-8.9400358, 38.6842398], [-8.9400931, 38.6842532], [-8.9401502, 38.6842658], [-8.9402012, 38.6842765], [-8.9402465, 38.6842849], [-8.9402911, 38.684293], [-8.9403365, 38.6843005], [-8.9403922, 38.6843102], [-8.9404394, 38.6843175], [-8.9404975, 38.6843263], [-8.9405463, 38.684332], [-8.9405837, 38.6843358], [-8.9406179, 38.684338], [-8.9406504, 38.6843393], [-8.9406871, 38.6843402], [-8.9407412, 38.6843432], [-8.9407628, 38.684341], [-8.9407926, 38.6843409], [-8.9408205, 38.6843401], [-8.9408479, 38.6843388], [-8.9408858, 38.6843359], [-8.9409272, 38.6843313], [-8.9409648, 38.6843257], [-8.9410036, 38.6843195], [-8.9410448, 38.684312], [-8.9410945, 38.6843014], [-8.9411584, 38.6842865], [-8.9412402, 38.6842653], [-8.9413119, 38.6842453], [-8.941367, 38.68423], [-8.9414143, 38.684216], [-8.9414924, 38.6841918], [-8.9415938, 38.6841592], [-8.9416742, 38.6841325]]}, "properties": {"highway": "primary", "lanes": "2", "maxheight": "default", "official_ref": "EN 5", "ref": "ER 5", "surface": "asphalt"}}, {"type": "Feature", "geometry": {"type": "LineString", "coordinates": [[-8.941815, 38.6840502], [-8.9416742, 38.6841325]]}, "properties": {"highway": "primary", "lanes": "1", "old_ref": "EN 5", "oneway": "yes", "ref": "ER 5", "surface": "asphalt"}}, {"type": "Feature", "geometry": {"type": "LineString", "coordinates": [[-8.6923531, 38.5844904], [-8.6922617, 38.5844955], [-8.6922193, 38.5845095], [-8.6921292, 38.5845495]]}, "properties": {"highway": "primary", "lanes": "1", "lit": "yes", "maxspeed": "50", "name": "Avenida da Liberdade", "old_ref": "EN 5", "oneway": "yes", "postal_code": "2965-999;2965-575", "postal_code:description": "2965-999:Posto Correios de \u00c1guas de Moura", "ref": "ER 5", "surface": "asphalt"}}, {"type": "Feature", "geometry": {"type": "LineString", "coordinates": [[-8.6921292, 38.5845495], [-8.6920813, 38.5844648], [-8.6920359, 38.5844164], [-8.6919866, 38.5843779]]}, "properties": {"highway": "primary", "lane_markings": "no", "maxspeed": "50", "name": "Avenida da Liberdade", "old_ref": "EN 5", "postal_code": "2965-999;2965-575", "postal_code:description": "2965-999:Posto Correios de \u00c1guas de Moura", "ref": "ER 5", "surface": "asphalt"}}, {"type": "Feature", "geometry": {"type": "LineString", "coordinates": [[-8.9389019, 38.6839258], [-8.939058, 38.6839699], [-8.9392618, 38.6840274]]}, "properties": {"highway": "primary", "lanes": "2", "official_ref": "EN 5", "ref": "ER 5", "surface": "asphalt"}}, {"type": "Feature", "geometry": {"type": "LineString", "coordinates": [[-8.9388106, 38.6839], [-8.9389019, 38.6839258]]}, "properties": {"highway": "primary", "lanes": "2", "official_ref": "EN 5", "ref": "ER 5", "surface": "asphalt"}}, {"type": "Feature", "geometry": {"type": "LineString", "coordinates": [[-8.6924464, 38.5845603], [-8.6926948, 38.5845417]]}, "properties": {"highway": "primary", "lanes": "1", "lit": "yes", "maxspeed": "50", "name": "Avenida da Liberdade", "old_ref": "EN 5", "oneway": "yes", "postal_code": "2965-999;2965-575", "postal_code:description": "2965-999:Posto Correios de \u00c1guas de Moura", "ref": "ER 5", "surface": "asphalt"}}]}