{"type": "FeatureCollection", "features": [{"type": "Feature", "geometry": {"type": "LineString", "coordinates": [[-9.3424976, 38.8566704], [-9.3421896, 38.856913], [-9.3416309, 38.8574058], [-9.3413203, 38.8577246], [-9.3410478, 38.8580832], [-9.3407696, 38.8585435], [-9.3405151, 38.8590562], [-9.34019, 38.8596749], [-9.339741, 38.8605248], [-9.3393662, 38.8611611], [-9.3390284, 38.8616816], [-9.33848, 38.8624143], [-9.3376661, 38.8634191], [-9.3371894, 38.8640076], [-9.3349302, 38.8668365], [-9.3340063, 38.8679497], [-9.333533, 38.8684286], [-9.3332096, 38.8687145], [-9.3328628, 38.8689694], [-9.332473, 38.8692053], [-9.3323068, 38.8692905], [-9.3320153, 38.8694348], [-9.3317743, 38.8695404], [-9.3314685, 38.8696574], [-9.3312244, 38.8697409], [-9.3307899, 38.8698579], [-9.3303339, 38.8699435]]}, "properties": {"highway": "trunk", "lanes": "2", "maxspeed": "100", "name": "Via de Cintura da \u00c1rea Metropolitana de Lisboa", "oneway": "yes", "ref": "ER19;IC 30"}}]}