{"type": "FeatureCollection", "features": [{"type": "Feature", "geometry": {"type": "LineString", "coordinates": [[-8.5631902, 37.3013733], [-8.5622219, 37.3029395], [-8.5620604, 37.303225], [-8.5619463, 37.3033871], [-8.5618526, 37.3034948], [-8.5617686, 37.3035663], [-8.5616688, 37.3036325], [-8.5615552, 37.3036935], [-8.5611297, 37.3038991], [-8.5607567, 37.3040922], [-8.5605964, 37.3041872], [-8.560495, 37.3042689], [-8.5604303, 37.3043529], [-8.5604121, 37.304435], [-8.5604121, 37.304535], [-8.5604346, 37.3046356], [-8.560736, 37.3054656], [-8.5607526, 37.3055294], [-8.560758, 37.3055871], [-8.5607556, 37.3056439], [-8.5607467, 37.3056913], [-8.5607166, 37.3057727], [-8.5606863, 37.3058334], [-8.5599971, 37.307006], [-8.5595128, 37.307841]]}, "properties": {"highway": "primary", "lanes:backward": "1", "lanes:forward": "1", "maxspeed": "50", "official_ref": "ER 267", "old_ref": "EN 267", "ref": "EN 267;ER 267;ER266", "surface": "asphalt"}}, {"type": "Feature", "geometry": {"type": "LineString", "coordinates": [[-8.5643778, 37.2991255], [-8.5645016, 37.2988974], [-8.5649567, 37.2980109], [-8.5650496, 37.2978326]]}, "properties": {"highway": "primary", "lanes:backward": "1", "lanes:forward": "1", "maxspeed": "50", "official_ref": "ER 267", "old_ref": "EN 267", "ref": "EN 267;ER 267;ER266", "surface": "asphalt"}}, {"type": "Feature", "geometry": {"type": "LineString", "coordinates": [[-8.5556536, 37.3121023], [-8.5556619, 37.3120157], [-8.5556795, 37.3119131]]}, "properties": {"highway": "primary", "lanes": "1", "official_ref": "ER 267", "old_ref": "EN 267", "oneway": "yes", "ref": "EN 267;ER 267;ER266"}}, {"type": "Feature", "geometry": {"type": "LineString", "coordinates": [[-8.5556795, 37.3119131], [-8.5555339, 37.312056]]}, "properties": {"highway": "primary", "lanes": "1", "official_ref": "ER 267", "old_ref": "EN 267", "oneway": "yes", "ref": "EN 267;ER 267;ER266", "source": "survey"}}, {"type": "Feature", "geometry": {"type": "LineString", "coordinates": [[-8.5566437, 37.3105458], [-8.5565817, 37.3106382], [-8.5565392, 37.3106997], [-8.5559442, 37.3115596], [-8.5558472, 37.3116999], [-8.5556795, 37.3119131]]}, "properties": {"highway": "primary", "lanes:backward": "1", "lanes:forward": "1", "maxspeed": "50", "official_ref": "ER 267", "old_ref": "EN 267", "ref": "EN 267;ER 267;ER266"}}, {"type": "Feature", "geometry": {"type": "LineString", "coordinates": [[-8.5567621, 37.3103925], [-8.5566437, 37.3105458]]}, "properties": {"bridge": "yes", "highway": "primary", "lanes:backward": "1", "lanes:forward": "1", "layer": "1", "maxspeed": "50", "official_ref": "ER 267", "old_ref": "EN 267", "ref": "EN 267;ER 267;ER266"}}, {"type": "Feature", "geometry": {"type": "LineString", "coordinates": [[-8.5650496, 37.2978326], [-8.5651495, 37.2976175]]}, "properties": {"highway": "primary", "lanes": "2", "lanes:backward": "1", "lanes:forward": "1", "maxspeed": "50", "official_ref": "ER 267", "old_ref": "EN 267", "ref": "EN 267;ER 267;ER266", "turn:lanes:backward": "through", "turn:lanes:forward": "through;right"}}, {"type": "Feature", "geometry": {"type": "LineString", "coordinates": [[-8.5568635, 37.3102829], [-8.5567621, 37.3103925]]}, "properties": {"highway": "primary", "lanes:backward": "1", "lanes:forward": "1", "maxspeed": "50", "official_ref": "ER 267", "old_ref": "EN 267", "ref": "EN 267;ER 267;ER266"}}, {"type": "Feature", "geometry": {"type": "LineString", "coordinates": [[-8.5595128, 37.307841], [-8.5593982, 37.3080189], [-8.5592861, 37.308173], [-8.5590803, 37.3084092]]}, "properties": {"highway": "primary", "lanes:backward": "1", "lanes:forward": "1", "maxspeed": "70", "official_ref": "ER 267", "old_ref": "EN 267", "ref": "EN 267;ER 267;ER266"}}, {"type": "Feature", "geometry": {"type": "LineString", "coordinates": [[-8.5590803, 37.3084092], [-8.5588634, 37.308626], [-8.5580537, 37.3094476], [-8.5577732, 37.3097086], [-8.5574876, 37.3099031], [-8.5573311, 37.3099899], [-8.5571097, 37.3101006], [-8.5569864, 37.3101768], [-8.5568635, 37.3102829]]}, "properties": {"highway": "primary", "lanes:backward": "1", "lanes:forward": "1", "official_ref": "ER 267", "old_ref": "EN 267", "ref": "EN 267;ER 267;ER266"}}, {"type": "Feature", "geometry": {"type": "LineString", "coordinates": [[-8.5643778, 37.2991255], [-8.5643023, 37.2992975], [-8.5642256, 37.2995388], [-8.5641579, 37.2997312], [-8.5640907, 37.2998995], [-8.5639477, 37.3001451], [-8.5638184, 37.3003524], [-8.5635174, 37.300844], [-8.5631902, 37.3013733]]}, "properties": {"highway": "primary", "lanes:backward": "1", "lanes:forward": "1", "official_ref": "ER 267", "old_ref": "EN 267", "ref": "EN 267;ER 267;ER266", "surface": "asphalt"}}]}