{"type": "FeatureCollection", "features": [{"type": "Feature", "geometry": {"type": "LineString", "coordinates": [[-7.1731834, 38.7740245], [-7.1740023, 38.7770741]]}, "properties": {"bridge": "yes", "bridge:name": "Nova Ponte da Ajuda", "highway": "primary", "layer": "1", "maxspeed": "70", "ref": "EX-105", "source": "Bing", "surface": "asphalt"}}, {"type": "Feature", "geometry": {"type": "LineString", "coordinates": [[-7.1694548, 38.7680194], [-7.170846, 38.7694126], [-7.1711277, 38.7697018], [-7.1712953, 38.769879], [-7.1714766, 38.7700743], [-7.1716681, 38.770315], [-7.1718465, 38.770557], [-7.171982, 38.7707617], [-7.1721025, 38.7709524], [-7.1722155, 38.771149], [-7.172319, 38.7713481], [-7.1723399, 38.7713789], [-7.172379, 38.7714658], [-7.1724779, 38.7716765], [-7.172561, 38.7718791], [-7.1726361, 38.7720742], [-7.1727047, 38.7722707], [-7.1727649, 38.772464], [-7.1728146, 38.7726339], [-7.1730173, 38.7734321], [-7.1731834, 38.7740245]]}, "properties": {"highway": "primary", "lanes": "2", "maxspeed": "90", "name": "Carretera de Olivenza a Elvas", "oneway": "no", "ref": "EX-105", "source": "survey"}}]}