{"type": "FeatureCollection", "features": [{"type": "Feature", "geometry": {"type": "LineString", "coordinates": [[-7.8615187, 40.6523834], [-7.8615594, 40.6526656], [-7.8616343, 40.6529447], [-7.8617217, 40.6533449]]}, "properties": {"destination": "Viseu (norte);S\u00e1t\u00e3o", "destination:ref:to": "EN 229", "highway": "trunk", "lanes": "1", "name": "Antigo Itiner\u00e1rio Principal 5", "old_ref": "IP 5", "oneway": "yes", "ref": "ex-IP 5", "surface": "asphalt", "toll": "no"}}, {"type": "Feature", "geometry": {"type": "LineString", "coordinates": [[-7.9702566, 40.6718911], [-7.9689117, 40.6714988], [-7.9681751, 40.6713012], [-7.9676968, 40.6712167], [-7.9672117, 40.6711536], [-7.9666109, 40.6711301], [-7.9663687, 40.6711306], [-7.9661404, 40.6711383], [-7.9659433, 40.6711475], [-7.9657379, 40.671167], [-7.9654702, 40.6711989], [-7.9652136, 40.6712374], [-7.9649518, 40.671288], [-7.9646881, 40.6713499], [-7.9643757, 40.6714391], [-7.9641755, 40.6715281]]}, "properties": {"highway": "trunk", "lanes": "1", "name": "Antigo Itiner\u00e1rio Principal 5", "old_ref": "IP 5", "oneway": "yes", "ref": "ex-IP 5", "surface": "asphalt", "toll": "no"}}, {"type": "Feature", "geometry": {"type": "LineString", "coordinates": [[-7.9689217, 40.6715591], [-7.9701964, 40.6719383], [-7.9717488, 40.6724223], [-7.9722713, 40.6726095], [-7.9727993, 40.6728128], [-7.9733395, 40.6730422], [-7.9738564, 40.6732732], [-7.9749928, 40.6738021]]}, "properties": {"highway": "trunk", "lanes": "1", "name": "Antigo Itiner\u00e1rio Principal 5", "old_ref": "IP 5", "oneway": "yes", "ref": "ex-IP 5", "surface": "asphalt", "toll": "no"}}, {"type": "Feature", "geometry": {"type": "LineString", "coordinates": [[-7.9681999, 40.6713631], [-7.9689217, 40.6715591]]}, "properties": {"highway": "trunk", "lanes": "1", "name": "Antigo Itiner\u00e1rio Principal 5", "old_ref": "IP 5", "oneway": "yes", "ref": "ex-IP 5", "surface": "asphalt", "toll": "no"}}, {"type": "Feature", "geometry": {"type": "LineString", "coordinates": [[-7.9775575, 40.6748131], [-7.9778145, 40.674874], [-7.9780582, 40.6749178]]}, "properties": {"highway": "trunk", "lanes": "3", "lanes:backward": "2", "lanes:forward": "1", "name": "Antigo Itiner\u00e1rio Principal 5", "old_ref": "IP 5", "oneway": "no", "ref": "ex-IP 5", "surface": "asphalt", "toll": "no", "turn:lanes:backward": "|merge_to_left"}}, {"type": "Feature", "geometry": {"type": "LineString", "coordinates": [[-7.9663853, 40.6711952], [-7.9665471, 40.6711829], [-7.9669082, 40.6711934], [-7.9672209, 40.6712146], [-7.9677089, 40.6712715], [-7.9681999, 40.6713631]]}, "properties": {"highway": "trunk", "lanes": "1", "name": "Antigo Itiner\u00e1rio Principal 5", "old_ref": "IP 5", "oneway": "yes", "ref": "ex-IP 5", "surface": "asphalt", "toll": "no"}}, {"type": "Feature", "geometry": {"type": "LineString", "coordinates": [[-7.9317874, 40.693497], [-7.9315158, 40.6936363], [-7.9312092, 40.6937728]]}, "properties": {"highway": "trunk", "lanes": "2", "name": "Antigo Itiner\u00e1rio Principal 5", "oneway": "yes", "ref": "ex-IP 5", "surface": "asphalt", "toll": "no"}}, {"type": "Feature", "geometry": {"type": "LineString", "coordinates": [[-7.9312092, 40.6937728], [-7.9309255, 40.6938855], [-7.9306134, 40.6939828]]}, "properties": {"bridge": "yes", "highway": "trunk", "lanes": "2", "layer": "1", "name": "Antigo Itiner\u00e1rio Principal 5", "old_ref": "IP 5", "oneway": "yes", "ref": "ex-IP 5", "surface": "asphalt", "toll": "no"}}, {"type": "Feature", "geometry": {"type": "LineString", "coordinates": [[-7.9156141, 40.6930472], [-7.9159508, 40.6930377], [-7.9163195, 40.6930018], [-7.9165317, 40.6929753], [-7.9167268, 40.6929412], [-7.9169433, 40.6928924], [-7.917173, 40.692835], [-7.9174057, 40.6927717], [-7.9179397, 40.6926035], [-7.9184883, 40.6924267], [-7.919093, 40.6922407], [-7.9195272, 40.6921362], [-7.9199517, 40.6920606], [-7.9203316, 40.692026], [-7.9207114, 40.6919914], [-7.9212391, 40.6919882], [-7.9218104, 40.6920305], [-7.9224414, 40.6921392], [-7.9229636, 40.6922772], [-7.9233647, 40.6924242], [-7.9237285, 40.6925748], [-7.9242579, 40.6928443], [-7.9247786, 40.6931297]]}, "properties": {"highway": "trunk", "lanes": "3", "lanes:backward": "1", "lanes:forward": "2", "name": "Antigo Itiner\u00e1rio Principal 5", "old_ref": "IP 5", "oneway": "no", "ref": "ex-IP 5", "surface": "asphalt", "toll": "no"}}, {"type": "Feature", "geometry": {"type": "LineString", "coordinates": [[-7.9153355, 40.6930401], [-7.915057, 40.6930051], [-7.9147664, 40.6929787], [-7.9144621, 40.6929395], [-7.9141751, 40.6928923], [-7.9139198, 40.6928381]]}, "properties": {"highway": "trunk", "lanes": "1", "motorroad": "yes", "name": "Antigo Itiner\u00e1rio Principal 5", "old_ref": "IP 5", "oneway": "yes", "ref": "ex-IP 5", "surface": "asphalt", "toll": "no"}}, {"type": "Feature", "geometry": {"type": "LineString", "coordinates": [[-7.9135876, 40.6928416], [-7.9139545, 40.6929209], [-7.9142497, 40.6929805], [-7.9144528, 40.6930105], [-7.9146878, 40.6930424], [-7.9149897, 40.6930649], [-7.9151798, 40.6930682], [-7.9153355, 40.6930401]]}, "properties": {"highway": "trunk", "lanes": "2", "motorroad": "yes", "name": "Antigo Itiner\u00e1rio Principal 5", "old_ref": "IP 5", "oneway": "yes", "ref": "ex-IP 5", "surface": "asphalt", "toll": "no"}}, {"type": "Feature", "geometry": {"type": "LineString", "coordinates": [[-7.8616809, 40.6516506], [-7.8615975, 40.6513763], [-7.8615008, 40.6511393], [-7.8612973, 40.650709], [-7.8610758, 40.6500951], [-7.8609599, 40.6498913]]}, "properties": {"highway": "trunk", "lanes": "1", "name": "Antigo Itiner\u00e1rio Principal 5", "old_ref": "IP 5", "oneway": "yes", "ref": "ex-IP 5", "source": "Bing", "surface": "asphalt", "toll": "no"}}, {"type": "Feature", "geometry": {"type": "LineString", "coordinates": [[-7.8626636, 40.6581495], [-7.8626351, 40.6580188], [-7.8624683, 40.6570191], [-7.8623382, 40.6562977], [-7.8622448, 40.6557485], [-7.8621313, 40.6550879], [-7.862098, 40.6548728], [-7.8621013, 40.6546981], [-7.8621193, 40.6542206]]}, "properties": {"destination": "ESPANHA;Guarda", "destination:ref": "A 25", "highway": "trunk", "lanes": "1", "name": "Antigo Itiner\u00e1rio Principal 5", "old_ref": "IP 5", "oneway": "yes", "ref": "ex-IP 5", "source": "Bing", "surface": "asphalt", "toll": "no"}}, {"type": "Feature", "geometry": {"type": "LineString", "coordinates": [[-7.8621347, 40.6536123], [-7.862122, 40.6534059], [-7.862078, 40.6531491], [-7.8619245, 40.6525694], [-7.8618744, 40.652367]]}, "properties": {"highway": "trunk", "lanes": "2", "layer": "-1", "name": "Antigo Itiner\u00e1rio Principal 5", "old_ref": "IP 5", "oneway": "yes", "ref": "ex-IP 5", "source": "Bing", "surface": "asphalt", "toll": "no", "tunnel": "yes"}}, {"type": "Feature", "geometry": {"type": "LineString", "coordinates": [[-7.8805384, 40.6800869], [-7.8807361, 40.6801384], [-7.8809544, 40.6802019], [-7.8815361, 40.6803945], [-7.8817906, 40.6804909]]}, "properties": {"highway": "trunk", "lanes": "2", "name": "Antigo Itiner\u00e1rio Principal 5", "old_ref": "IP 5", "oneway": "yes", "ref": "ex-IP 5", "surface": "asphalt", "toll": "no"}}, {"type": "Feature", "geometry": {"type": "LineString", "coordinates": [[-7.8824005, 40.6806141], [-7.8821493, 40.6805246], [-7.8819712, 40.6804586], [-7.8810298, 40.680142], [-7.8806321, 40.6800155]]}, "properties": {"highway": "trunk", "lanes": "2", "name": "Antigo Itiner\u00e1rio Principal 5", "old_ref": "IP 5", "oneway": "yes", "ref": "ex-IP 5", "source": "Bing", "surface": "asphalt", "toll": "no"}}, {"type": "Feature", "geometry": {"type": "LineString", "coordinates": [[-7.8843545, 40.6814727], [-7.8852887, 40.6818878], [-7.8858422, 40.6821195], [-7.8869069, 40.6825632], [-7.8875009, 40.6827913], [-7.8879006, 40.6829221], [-7.8882897, 40.6830461], [-7.8887755, 40.6831685], [-7.889279, 40.6832771], [-7.8901783, 40.6834292], [-7.8909519, 40.6835158], [-7.89214, 40.683626], [-7.8928846, 40.6837192], [-7.893572, 40.6838618]]}, "properties": {"highway": "trunk", "lanes": "3", "lanes:backward": "1", "lanes:forward": "2", "name": "Antigo Itiner\u00e1rio Principal 5", "old_ref": "IP 5", "oneway": "no", "ref": "ex-IP 5", "surface": "asphalt", "toll": "no"}}, {"type": "Feature", "geometry": {"type": "LineString", "coordinates": [[-8.0671736, 40.6449578], [-8.0677077, 40.6450414], [-8.0687524, 40.6452476], [-8.0695328, 40.6454032]]}, "properties": {"highway": "trunk", "lanes": "2", "name": "Antigo Itiner\u00e1rio Principal 5", "old_ref": "IP 5", "oneway": "no", "ref": "ex-IP 5", "surface": "asphalt", "toll": "no"}}, {"type": "Feature", "geometry": {"type": "LineString", "coordinates": [[-8.0629504, 40.6453028], [-8.0639337, 40.6451329], [-8.0643582, 40.6450648], [-8.0647917, 40.6450003], [-8.0652529, 40.6449435], [-8.0656579, 40.6449213], [-8.066347, 40.6449147], [-8.0671736, 40.6449578]]}, "properties": {"highway": "trunk", "lanes": "1", "name": "Antigo Itiner\u00e1rio Principal 5", "old_ref": "IP 5", "oneway": "yes", "ref": "ex-IP 5", "surface": "asphalt", "toll": "no"}}, {"type": "Feature", "geometry": {"type": "LineString", "coordinates": [[-8.0640452, 40.6450088], [-8.0631262, 40.6451677]]}, "properties": {"highway": "trunk", "lanes": "1", "name": "Antigo Itiner\u00e1rio Principal 5", "old_ref": "IP 5", "oneway": "yes", "ref": "ex-IP 5", "source": "Bing", "surface": "asphalt", "toll": "no"}}, {"type": "Feature", "geometry": {"type": "LineString", "coordinates": [[-8.0713767, 40.64581], [-8.0718818, 40.6459153], [-8.0727179, 40.6460826], [-8.0733452, 40.6462248], [-8.0736476, 40.6463074], [-8.0741259, 40.6464519]]}, "properties": {"highway": "trunk", "lanes": "2", "name": "Antigo Itiner\u00e1rio Principal 5", "old_ref": "IP 5", "oneway": "yes", "ref": "ex-IP 5", "surface": "asphalt", "toll": "no"}}, {"type": "Feature", "geometry": {"type": "LineString", "coordinates": [[-8.0756874, 40.6476222], [-8.0755684, 40.6474221], [-8.075502, 40.6473279], [-8.0754052, 40.6472162], [-8.0753097, 40.64712], [-8.0752188, 40.6470312], [-8.0751354, 40.6469508]]}, "properties": {"highway": "trunk", "lanes": "1", "name": "Antigo Itiner\u00e1rio Principal 5", "oneway": "yes", "ref": "ex-IP 5", "surface": "asphalt", "toll": "no"}}, {"type": "Feature", "geometry": {"type": "LineString", "coordinates": [[-8.0849152, 40.6863907], [-8.0854438, 40.6872332], [-8.0859081, 40.6879241], [-8.0864664, 40.6885549], [-8.0868754, 40.6888881], [-8.0875848, 40.6892522], [-8.0882689, 40.6894495], [-8.0887828, 40.6895253], [-8.0893056, 40.6895461], [-8.0897128, 40.6895233], [-8.0900889, 40.689471], [-8.0904934, 40.6893757], [-8.0909471, 40.6892209], [-8.0914456, 40.6889782], [-8.0917959, 40.6887534], [-8.0923073, 40.6883565], [-8.0927739, 40.6879411], [-8.0952131, 40.6857774], [-8.0953984, 40.6856172], [-8.0956177, 40.6854351], [-8.0958408, 40.6852667], [-8.0960314, 40.68514], [-8.0961436, 40.6850687], [-8.0962788, 40.6849908], [-8.0964095, 40.6849229], [-8.096528, 40.6848655], [-8.0966461, 40.6848097], [-8.09678, 40.6847554], [-8.0968861, 40.6847161], [-8.0969542, 40.6846908], [-8.0971181, 40.6846355], [-8.0973068, 40.6845802], [-8.0974636, 40.6845407], [-8.0976807, 40.6844933], [-8.097929, 40.6844509], [-8.0981096, 40.6844292], [-8.0982961, 40.6844119], [-8.0984646, 40.6844009], [-8.0986013, 40.684396], [-8.0987456, 40.6843925], [-8.0989454, 40.6843927], [-8.0991497, 40.6843966], [-8.099325, 40.6844046], [-8.0995641, 40.6844155], [-8.0996028, 40.6844172], [-8.1000079, 40.6844355], [-8.1052422, 40.6847112], [-8.1059755, 40.6847657], [-8.1066673, 40.6848641], [-8.1073486, 40.6850149], [-8.1080386, 40.6852286], [-8.1083605, 40.6853545], [-8.1086824, 40.6854927], [-8.1090335, 40.6856558], [-8.1094498, 40.6858742]]}, "properties": {"highway": "trunk", "lanes": "3", "lanes:backward": "1", "lanes:forward": "2", "name": "Antigo Itiner\u00e1rio Principal 5", "old_ref": "IP 5", "oneway": "no", "ref": "ex-IP 5", "surface": "asphalt", "toll": "no"}}, {"type": "Feature", "geometry": {"type": "LineString", "coordinates": [[-8.0740284, 40.6463392], [-8.073835, 40.6462829], [-8.0735248, 40.6461887], [-8.0731982, 40.6461114], [-8.0727998, 40.6460284], [-8.0724133, 40.6459519], [-8.0711039, 40.6456826], [-8.0705883, 40.645587], [-8.0701092, 40.6454962], [-8.0695328, 40.6454032]]}, "properties": {"highway": "trunk", "lanes": "1", "name": "Antigo Itiner\u00e1rio Principal 5", "old_ref": "IP 5", "oneway": "yes", "ref": "ex-IP 5", "surface": "asphalt", "toll": "no"}}, {"type": "Feature", "geometry": {"type": "LineString", "coordinates": [[-8.0744617, 40.6466067], [-8.0746277, 40.6466969], [-8.0747638, 40.6467857], [-8.0748875, 40.6468704], [-8.0750619, 40.6470089], [-8.0751643, 40.6470989], [-8.0752666, 40.6471944], [-8.0753812, 40.6473165], [-8.0755017, 40.6474441], [-8.0756874, 40.6476222]]}, "properties": {"highway": "trunk", "lanes": "2", "name": "Antigo Itiner\u00e1rio Principal 5", "old_ref": "IP 5", "oneway": "yes", "ref": "ex-IP 5", "surface": "asphalt", "toll": "no"}}, {"type": "Feature", "geometry": {"type": "LineString", "coordinates": [[-8.0745083, 40.6465444], [-8.0741728, 40.6463972]]}, "properties": {"bridge": "yes", "highway": "trunk", "lanes": "2", "layer": "1", "name": "Antigo Itiner\u00e1rio Principal 5", "old_ref": "IP 5", "oneway": "yes", "ref": "ex-IP 5", "surface": "asphalt", "toll": "no"}}, {"type": "Feature", "geometry": {"type": "LineString", "coordinates": [[-8.0741259, 40.6464519], [-8.0744617, 40.6466067]]}, "properties": {"bridge": "yes", "highway": "trunk", "lanes": "2", "layer": "1", "name": "Antigo Itiner\u00e1rio Principal 5", "old_ref": "IP 5", "oneway": "yes", "ref": "ex-IP 5", "surface": "asphalt", "toll": "no"}}, {"type": "Feature", "geometry": {"type": "LineString", "coordinates": [[-7.9037111, 40.6895505], [-7.9043362, 40.6899157], [-7.9051646, 40.6903606], [-7.905839, 40.6906803]]}, "properties": {"highway": "trunk", "lanes": "3", "lanes:backward": "1", "lanes:forward": "2", "name": "Antigo Itiner\u00e1rio Principal 5", "old_ref": "IP 5", "oneway": "no", "ref": "ex-IP 5", "surface": "asphalt", "toll": "no"}}, {"type": "Feature", "geometry": {"type": "LineString", "coordinates": [[-7.9023464, 40.6887631], [-7.9024993, 40.6888477]]}, "properties": {"bridge": "yes", "highway": "trunk", "lanes": "2", "lanes:backward": "1", "layer": "1", "name": "Antigo Itiner\u00e1rio Principal 5", "old_ref": "IP 5", "oneway": "no", "ref": "ex-IP 5", "surface": "asphalt", "toll": "no"}}, {"type": "Feature", "geometry": {"type": "LineString", "coordinates": [[-7.8623434, 40.6629269], [-7.8623165, 40.6631345]]}, "properties": {"bridge": "yes", "highway": "trunk", "lanes": "2", "lanes:backward": "1", "layer": "1", "name": "Antigo Itiner\u00e1rio Principal 5", "old_ref": "IP 5", "oneway": "no", "ref": "ex-IP 5", "surface": "asphalt", "toll": "no"}}, {"type": "Feature", "geometry": {"type": "LineString", "coordinates": [[-7.8627529, 40.6593019], [-7.862762, 40.6596809], [-7.8627415, 40.6600781], [-7.8623434, 40.6629269]]}, "properties": {"highway": "trunk", "lanes": "2", "lanes:backward": "1", "name": "Antigo Itiner\u00e1rio Principal 5", "old_ref": "IP 5", "oneway": "no", "ref": "ex-IP 5", "surface": "asphalt", "toll": "no"}}, {"type": "Feature", "geometry": {"type": "LineString", "coordinates": [[-7.8608621, 40.6729017], [-7.8606837, 40.6727128], [-7.8605228, 40.6725151], [-7.8603464, 40.6722761], [-7.8601794, 40.6720325], [-7.8600611, 40.6718121], [-7.8599662, 40.6715968], [-7.8598754, 40.6713638], [-7.8598335, 40.6712079], [-7.8598002, 40.6710718], [-7.8597574, 40.6708444], [-7.859732, 40.6706061], [-7.8597312, 40.6703721], [-7.8597435, 40.6701173], [-7.8597803, 40.6698807], [-7.8598207, 40.669673], [-7.8598809, 40.6694505], [-7.8599433, 40.6692577], [-7.8600345, 40.6690553], [-7.8601893, 40.6687892], [-7.8603584, 40.6685298], [-7.8604872, 40.668351], [-7.8605747, 40.6682266], [-7.8606548, 40.6681069], [-7.860704, 40.6680254], [-7.8607974, 40.6678535]]}, "properties": {"highway": "trunk", "lanes": "1", "lanes:forward": "1", "maxspeed": "90", "name": "Antigo Itiner\u00e1rio Principal 5", "old_ref": "IP 5", "oneway": "yes", "ref": "ex-IP 5", "surface": "asphalt", "toll": "no"}}, {"type": "Feature", "geometry": {"type": "LineString", "coordinates": [[-7.9869112, 40.6711517], [-7.987289, 40.6709306], [-7.9877078, 40.6706522]]}, "properties": {"highway": "trunk", "lanes": "1", "name": "Antigo Itiner\u00e1rio Principal 5", "old_ref": "IP 5", "oneway": "yes", "ref": "ex-IP 5", "surface": "asphalt", "toll": "no"}}, {"type": "Feature", "geometry": {"type": "LineString", "coordinates": [[-8.0040914, 40.6634974], [-8.0052988, 40.6615498], [-8.0055069, 40.6613], [-8.0056713, 40.6611188], [-8.0058716, 40.6609356], [-8.0061592, 40.6607401], [-8.0064426, 40.6605785], [-8.0065597, 40.6605184], [-8.0069092, 40.6603779], [-8.0070595, 40.6603319], [-8.0072844, 40.6602668], [-8.0074955, 40.660218], [-8.0076942, 40.660183], [-8.0079704, 40.66015], [-8.0082563, 40.6601261], [-8.0085834, 40.6601077], [-8.0089683, 40.6600858], [-8.0092619, 40.6600691], [-8.0097949, 40.6600452], [-8.0101438, 40.6600213], [-8.0105969, 40.6599937], [-8.0112632, 40.6599533], [-8.0115967, 40.6599221], [-8.0120126, 40.6598744], [-8.0123321, 40.659823], [-8.0127815, 40.6597239], [-8.0132158, 40.6596041], [-8.0136231, 40.6594486], [-8.0138813, 40.6593357], [-8.0141397, 40.6592163], [-8.0143829, 40.6590815], [-8.0149109, 40.6587473], [-8.0154633, 40.6583613], [-8.0175789, 40.6568935], [-8.0189216, 40.6559688], [-8.019338, 40.6556985], [-8.0197162, 40.6554991], [-8.0200944, 40.6553118], [-8.0204749, 40.6551615], [-8.0209306, 40.6550099], [-8.0215055, 40.6548619]]}, "properties": {"highway": "trunk", "lanes": "3", "lanes:backward": "1", "lanes:forward": "2", "name": "Antigo Itiner\u00e1rio Principal 5", "old_ref": "IP 5", "oneway": "no", "ref": "ex-IP 5", "surface": "asphalt", "toll": "no"}}, {"type": "Feature", "geometry": {"type": "LineString", "coordinates": [[-7.9900299, 40.668953], [-7.9889193, 40.6697143], [-7.9869112, 40.6711517]]}, "properties": {"highway": "trunk", "lanes": "2", "name": "Antigo Itiner\u00e1rio Principal 5", "old_ref": "IP 5", "oneway": "yes", "ref": "ex-IP 5", "surface": "asphalt", "toll": "no"}}, {"type": "Feature", "geometry": {"type": "LineString", "coordinates": [[-7.9312894, 40.6938356], [-7.9315829, 40.6936968], [-7.931856, 40.6935536], [-7.9323058, 40.6932688], [-7.9326913, 40.6929846], [-7.9332538, 40.6925378], [-7.9332985, 40.6924586]]}, "properties": {"highway": "trunk", "lanes": "2", "name": "Antigo Itiner\u00e1rio Principal 5", "old_ref": "IP 5", "oneway": "yes", "ref": "ex-IP 5", "surface": "asphalt", "toll": "no"}}, {"type": "Feature", "geometry": {"type": "LineString", "coordinates": [[-7.9306134, 40.6939828], [-7.9302073, 40.6941004], [-7.9296798, 40.6941972], [-7.9291123, 40.6942572], [-7.9288319, 40.6942663], [-7.9285636, 40.6942704], [-7.9281653, 40.6942613]]}, "properties": {"highway": "trunk", "lanes": "2", "name": "Antigo Itiner\u00e1rio Principal 5", "old_ref": "IP 5", "oneway": "yes", "ref": "ex-IP 5", "surface": "asphalt", "toll": "no"}}, {"type": "Feature", "geometry": {"type": "LineString", "coordinates": [[-7.9332985, 40.6924586], [-7.9331689, 40.6924965]]}, "properties": {"highway": "trunk", "lanes": "2", "name": "Antigo Itiner\u00e1rio Principal 5", "oneway": "yes", "ref": "ex-IP 5", "surface": "asphalt", "toll": "no"}}, {"type": "Feature", "geometry": {"type": "LineString", "coordinates": [[-7.9331689, 40.6924965], [-7.9326442, 40.6929106], [-7.9322116, 40.6932277], [-7.9319955, 40.6933733], [-7.9317874, 40.693497]]}, "properties": {"highway": "trunk", "lanes": "2", "name": "Antigo Itiner\u00e1rio Principal 5", "old_ref": "IP 5", "oneway": "yes", "ref": "ex-IP 5", "surface": "asphalt", "toll": "no"}}, {"type": "Feature", "geometry": {"type": "LineString", "coordinates": [[-7.928616, 40.6943405], [-7.9291337, 40.6943208], [-7.9296887, 40.6942597], [-7.9300447, 40.6942023], [-7.9304272, 40.6941207]]}, "properties": {"highway": "trunk", "lanes": "1", "name": "Antigo Itiner\u00e1rio Principal 5", "old_ref": "IP 5", "oneway": "yes", "ref": "ex-IP 5", "surface": "asphalt", "toll": "no"}}, {"type": "Feature", "geometry": {"type": "LineString", "coordinates": [[-7.9307028, 40.6940481], [-7.930987, 40.6939566], [-7.9312894, 40.6938356]]}, "properties": {"bridge": "yes", "highway": "trunk", "lanes": "2", "layer": "1", "maxweight:signed": "no", "name": "Antigo Itiner\u00e1rio Principal 5", "old_ref": "IP 5", "oneway": "yes", "ref": "ex-IP 5", "surface": "asphalt", "toll": "no"}}, {"type": "Feature", "geometry": {"type": "LineString", "coordinates": [[-7.9904949, 40.6686305], [-7.9900299, 40.668953]]}, "properties": {"bridge": "viaduct", "highway": "trunk", "lanes": "2", "layer": "1", "name": "Antigo Itiner\u00e1rio Principal 5", "old_ref": "IP 5", "oneway": "yes", "ref": "ex-IP 5", "source": "Bing", "surface": "asphalt", "toll": "no"}}, {"type": "Feature", "geometry": {"type": "LineString", "coordinates": [[-7.992352, 40.667601], [-7.9920844, 40.667693], [-7.9918359, 40.667799]]}, "properties": {"highway": "trunk", "lanes": "1", "name": "Antigo Itiner\u00e1rio Principal 5", "old_ref": "IP 5", "oneway": "yes", "ref": "ex-IP 5", "surface": "asphalt", "toll": "no"}}, {"type": "Feature", "geometry": {"type": "LineString", "coordinates": [[-7.990133, 40.6689725], [-7.9902637, 40.6688931], [-7.9906343, 40.6686414]]}, "properties": {"bridge": "viaduct", "highway": "trunk", "lanes": "1", "layer": "1", "name": "Antigo Itiner\u00e1rio Principal 5", "old_ref": "IP 5", "oneway": "yes", "ref": "ex-IP 5", "source": "Bing", "surface": "asphalt", "toll": "no"}}, {"type": "Feature", "geometry": {"type": "LineString", "coordinates": [[-7.9906343, 40.6686414], [-7.9916607, 40.6679955], [-7.9920873, 40.6677595], [-7.9921951, 40.6676993], [-7.992352, 40.667601]]}, "properties": {"highway": "trunk", "lanes": "1", "name": "Antigo Itiner\u00e1rio Principal 5", "old_ref": "IP 5", "oneway": "yes", "ref": "ex-IP 5", "surface": "asphalt", "toll": "no"}}, {"type": "Feature", "geometry": {"type": "LineString", "coordinates": [[-7.934034, 40.6918932], [-7.9357493, 40.6905649], [-7.9369823, 40.689611], [-7.9373594, 40.6892868], [-7.9376213, 40.6890175], [-7.9378777, 40.6887154], [-7.9380937, 40.68839], [-7.9382285, 40.6881329], [-7.9384035, 40.6877123], [-7.9385276, 40.6871983], [-7.9386287, 40.6862687], [-7.9387169, 40.6856508], [-7.938782, 40.6853716], [-7.9388778, 40.6850635], [-7.9390338, 40.6847153], [-7.9392153, 40.6844068]]}, "properties": {"highway": "trunk", "lanes": "3", "lanes:backward": "2", "lanes:forward": "1", "name": "Antigo Itiner\u00e1rio Principal 5", "old_ref": "IP 5", "oneway": "no", "ref": "ex-IP 5", "surface": "asphalt", "toll": "no"}}, {"type": "Feature", "geometry": {"type": "LineString", "coordinates": [[-7.9780582, 40.6749178], [-7.9783585, 40.6749565], [-7.9786187, 40.674985], [-7.9788653, 40.6750041], [-7.9792258, 40.675015], [-7.9796837, 40.6749959], [-7.979936, 40.6749713], [-7.9804264, 40.6749056], [-7.9807544, 40.67484], [-7.981044, 40.6747687], [-7.9814105, 40.6746567], [-7.9817602, 40.6745308], [-7.9820475, 40.6744083], [-7.982362, 40.6742511], [-7.9826812, 40.6740565], [-7.9833568, 40.6736041], [-7.9848787, 40.672554], [-7.9869112, 40.6711517]]}, "properties": {"highway": "trunk", "lanes": "3", "lanes:backward": "2", "lanes:forward": "1", "name": "Antigo Itiner\u00e1rio Principal 5", "old_ref": "IP 5", "oneway": "no", "ref": "ex-IP 5", "surface": "asphalt", "toll": "no"}}, {"type": "Feature", "geometry": {"type": "LineString", "coordinates": [[-7.9249725, 40.6932318], [-7.9250194, 40.6932588], [-7.9252407, 40.6933863]]}, "properties": {"bridge": "viaduct", "highway": "trunk", "lanes": "2", "lanes:backward": "1", "layer": "1", "maxweight:signed": "no", "name": "Antigo Itiner\u00e1rio Principal 5", "old_ref": "IP 5", "oneway": "no", "ref": "ex-IP 5", "surface": "asphalt", "toll": "no"}}, {"type": "Feature", "geometry": {"type": "LineString", "coordinates": [[-7.9269479, 40.6941018], [-7.9267179, 40.6940376], [-7.9264702, 40.693957], [-7.9261841, 40.6938486], [-7.9258965, 40.6937268], [-7.9252407, 40.6933863]]}, "properties": {"highway": "trunk", "lanes": "2", "lanes:backward": "1", "name": "Antigo Itiner\u00e1rio Principal 5", "old_ref": "IP 5", "oneway": "no", "ref": "ex-IP 5", "surface": "asphalt", "toll": "no"}}, {"type": "Feature", "geometry": {"type": "LineString", "coordinates": [[-7.9067461, 40.6910072], [-7.9073887, 40.691193], [-7.9081181, 40.6913847], [-7.9085762, 40.691499]]}, "properties": {"highway": "trunk", "lanes": "3", "lanes:backward": "1", "lanes:forward": "2", "name": "Antigo Itiner\u00e1rio Principal 5", "old_ref": "IP 5", "oneway": "no", "ref": "ex-IP 5", "surface": "asphalt", "toll": "no"}}, {"type": "Feature", "geometry": {"type": "LineString", "coordinates": [[-8.1149064, 40.6925233], [-8.114763, 40.6926612]]}, "properties": {"bridge": "yes", "highway": "trunk", "lanes": "3", "lanes:backward": "2", "lanes:forward": "1", "layer": "1", "name": "Antigo Itiner\u00e1rio Principal 5", "oneway": "no", "ref": "ex-IP 5", "surface": "asphalt", "toll": "no"}}, {"type": "Feature", "geometry": {"type": "LineString", "coordinates": [[-8.114763, 40.6926612], [-8.1144831, 40.692912], [-8.1140897, 40.6932974], [-8.1139382, 40.6934547], [-8.1136105, 40.6938589], [-8.1133839, 40.6942248], [-8.1132726, 40.694486], [-8.1131814, 40.6948754], [-8.1131765, 40.695224], [-8.1132344, 40.6955793], [-8.1133379, 40.6958531], [-8.113476, 40.6961223], [-8.1139655, 40.6968324], [-8.1156323, 40.6989003], [-8.1161503, 40.6994245], [-8.1166424, 40.6998341], [-8.1170669, 40.7000994], [-8.1176749, 40.7004081], [-8.1181748, 40.7005936], [-8.1187048, 40.7007386], [-8.1193099, 40.7008398], [-8.1198082, 40.7008852], [-8.1203118, 40.700888], [-8.1208461, 40.7008522], [-8.1215074, 40.7007503], [-8.1220998, 40.7005974], [-8.1226987, 40.7004158], [-8.1235737, 40.7001018], [-8.1237897, 40.7000233], [-8.1239981, 40.6999476], [-8.1241933, 40.6998767], [-8.1243613, 40.6998157], [-8.1244958, 40.6997668], [-8.1246271, 40.6997192], [-8.1247197, 40.6996855], [-8.124796, 40.6996578], [-8.1248689, 40.6996313], [-8.1249357, 40.6996071], [-8.1250025, 40.6995828], [-8.1252447, 40.6995038], [-8.1254913, 40.6994272], [-8.1258291, 40.6993535], [-8.126281, 40.6992901]]}, "properties": {"highway": "trunk", "lanes": "3", "lanes:backward": "2", "lanes:forward": "1", "name": "Antigo Itiner\u00e1rio Principal 5", "oneway": "no", "ref": "ex-IP 5", "surface": "asphalt", "toll": "no"}}, {"type": "Feature", "geometry": {"type": "LineString", "coordinates": [[-7.8754474, 40.6787869], [-7.8756449, 40.6788566], [-7.8759605, 40.6789535], [-7.8763097, 40.6790517], [-7.8768835, 40.6791956], [-7.8774604, 40.6793279], [-7.8780344, 40.6794539]]}, "properties": {"highway": "trunk", "lanes": "3", "lanes:backward": "2", "maxspeed": "90", "name": "Antigo Itiner\u00e1rio Principal 5", "old_ref": "IP 5", "oneway": "no", "ref": "ex-IP 5", "surface": "asphalt", "toll": "no"}}, {"type": "Feature", "geometry": {"type": "LineString", "coordinates": [[-7.9426187, 40.6810701], [-7.9430403, 40.6806789]]}, "properties": {"highway": "trunk", "lanes": "3", "lanes:backward": "2", "lanes:forward": "1", "name": "Antigo Itiner\u00e1rio Principal 5", "old_ref": "IP 5", "oneway": "no", "ref": "ex-IP 5", "surface": "asphalt", "toll": "no", "turn:lanes:backward": "|slight_right"}}, {"type": "Feature", "geometry": {"type": "LineString", "coordinates": [[-7.9397487, 40.6837692], [-7.9399424, 40.6835599]]}, "properties": {"highway": "trunk", "lanes": "3", "lanes:backward": "2", "lanes:forward": "1", "name": "Antigo Itiner\u00e1rio Principal 5", "old_ref": "IP 5", "oneway": "no", "ref": "ex-IP 5", "surface": "asphalt", "toll": "no"}}, {"type": "Feature", "geometry": {"type": "LineString", "coordinates": [[-7.9399424, 40.6835599], [-7.9419779, 40.6816721]]}, "properties": {"highway": "trunk", "lanes": "3", "lanes:backward": "2", "lanes:forward": "1", "name": "Antigo Itiner\u00e1rio Principal 5", "old_ref": "IP 5", "oneway": "no", "ref": "ex-IP 5", "surface": "asphalt", "toll": "no"}}, {"type": "Feature", "geometry": {"type": "LineString", "coordinates": [[-7.9445059, 40.6793615], [-7.9449697, 40.6790005], [-7.9456286, 40.6785407], [-7.9461528, 40.6782046], [-7.9467914, 40.6778198], [-7.9482543, 40.6770591], [-7.9497623, 40.6763091], [-7.950467, 40.6759608], [-7.9508332, 40.6757809], [-7.9511222, 40.6756558], [-7.9513991, 40.67555], [-7.9516973, 40.6754547], [-7.9520411, 40.6753621], [-7.952365, 40.6752907], [-7.9526276, 40.6752469], [-7.9529253, 40.6752091], [-7.9533229, 40.6751772], [-7.953577, 40.6751706], [-7.9537467, 40.675168], [-7.9540051, 40.6751755], [-7.9551248, 40.6752413], [-7.9553238, 40.6752535], [-7.9555317, 40.6752622], [-7.9559475, 40.6752794], [-7.9562526, 40.6752723], [-7.9565557, 40.675255], [-7.956948, 40.6752133], [-7.9572732, 40.675159], [-7.9576574, 40.6750779], [-7.9580377, 40.6749773], [-7.9583407, 40.6748699], [-7.9586488, 40.6747458], [-7.9588794, 40.67464], [-7.9591062, 40.6745251], [-7.9593368, 40.674397], [-7.9608467, 40.6734307], [-7.9624775, 40.6723609], [-7.9629249, 40.6720889], [-7.9633464, 40.6718671], [-7.9637364, 40.6716955], [-7.9641755, 40.6715281]]}, "properties": {"highway": "trunk", "lanes": "2", "name": "Antigo Itiner\u00e1rio Principal 5", "old_ref": "IP 5", "oneway": "no", "ref": "ex-IP 5", "surface": "asphalt", "toll": "no"}}, {"type": "Feature", "geometry": {"type": "LineString", "coordinates": [[-7.9419779, 40.6816721], [-7.9426187, 40.6810701]]}, "properties": {"highway": "trunk", "lanes": "2", "name": "Antigo Itiner\u00e1rio Principal 5", "old_ref": "IP 5", "oneway": "no", "ref": "ex-IP 5", "surface": "asphalt", "toll": "no"}}, {"type": "Feature", "geometry": {"type": "LineString", "coordinates": [[-7.9749928, 40.6738021], [-7.976312, 40.674402]]}, "properties": {"highway": "trunk", "lanes": "2", "name": "Antigo Itiner\u00e1rio Principal 5", "old_ref": "IP 5", "oneway": "yes", "ref": "ex-IP 5", "surface": "asphalt", "toll": "no", "turn:lanes": "|merge_to_left"}}, {"type": "Feature", "geometry": {"type": "LineString", "coordinates": [[-7.976312, 40.674402], [-7.9769924, 40.674652]]}, "properties": {"highway": "trunk", "lanes": "1", "name": "Antigo Itiner\u00e1rio Principal 5", "old_ref": "IP 5", "oneway": "yes", "ref": "ex-IP 5", "surface": "asphalt", "toll": "no"}}, {"type": "Feature", "geometry": {"type": "LineString", "coordinates": [[-7.9392153, 40.6844068], [-7.9392918, 40.6842871], [-7.939472, 40.68405], [-7.9397487, 40.6837692]]}, "properties": {"highway": "trunk", "lanes": "4", "lanes:backward": "2", "lanes:forward": "2", "name": "Antigo Itiner\u00e1rio Principal 5", "old_ref": "IP 5", "oneway": "no", "ref": "ex-IP 5", "surface": "asphalt", "toll": "no", "turn:lanes:forward": "through;right|slight_right"}}, {"type": "Feature", "geometry": {"type": "LineString", "coordinates": [[-7.9437745, 40.6799924], [-7.9445059, 40.6793615]]}, "properties": {"highway": "trunk", "lanes": "3", "lanes:backward": "1", "lanes:forward": "1", "name": "Antigo Itiner\u00e1rio Principal 5", "old_ref": "IP 5", "oneway": "no", "ref": "ex-IP 5", "surface": "asphalt", "toll": "no", "turn:lanes:forward": "|merge_to_left"}}, {"type": "Feature", "geometry": {"type": "LineString", "coordinates": [[-7.9430403, 40.6806789], [-7.9437745, 40.6799924]]}, "properties": {"highway": "trunk", "lanes": "4", "lanes:backward": "2", "lanes:forward": "2", "name": "Antigo Itiner\u00e1rio Principal 5", "old_ref": "IP 5", "oneway": "no", "ref": "ex-IP 5", "surface": "asphalt", "turn:lanes:backward": "|slight_right", "turn:lanes:forward": "|merge_to_left"}}, {"type": "Feature", "geometry": {"type": "LineString", "coordinates": [[-7.9658491, 40.6712372], [-7.9663853, 40.6711952]]}, "properties": {"highway": "trunk", "lanes": "2", "name": "Antigo Itiner\u00e1rio Principal 5", "old_ref": "IP 5", "oneway": "yes", "ref": "ex-IP 5", "surface": "asphalt", "toll": "no", "turn:lanes": "through|right"}}, {"type": "Feature", "geometry": {"type": "LineString", "coordinates": [[-7.9650659, 40.6713429], [-7.9654738, 40.6712774], [-7.9658491, 40.6712372]]}, "properties": {"highway": "trunk", "lanes": "2", "name": "Antigo Itiner\u00e1rio Principal 5", "old_ref": "IP 5", "oneway": "yes", "ref": "ex-IP 5", "surface": "asphalt", "toll": "no", "turn:lanes": "through;right|right"}}, {"type": "Feature", "geometry": {"type": "LineString", "coordinates": [[-7.9718324, 40.6723649], [-7.9702566, 40.6718911]]}, "properties": {"highway": "trunk", "lanes": "2", "name": "Antigo Itiner\u00e1rio Principal 5", "old_ref": "IP 5", "oneway": "yes", "ref": "ex-IP 5", "surface": "asphalt", "toll": "no", "turn:lanes": "|merge_to_left"}}, {"type": "Feature", "geometry": {"type": "LineString", "coordinates": [[-7.9641755, 40.6715281], [-7.9646918, 40.6714103], [-7.9650659, 40.6713429]]}, "properties": {"highway": "trunk", "lanes": "1", "name": "Antigo Itiner\u00e1rio Principal 5", "old_ref": "IP 5", "oneway": "yes", "ref": "ex-IP 5", "surface": "asphalt", "toll": "no"}}, {"type": "Feature", "geometry": {"type": "LineString", "coordinates": [[-7.9750613, 40.6737523], [-7.9738472, 40.6731989], [-7.9732496, 40.6729304], [-7.9727712, 40.6727315], [-7.9721563, 40.6724887], [-7.9718324, 40.6723649]]}, "properties": {"highway": "trunk", "lanes": "1", "name": "Antigo Itiner\u00e1rio Principal 5", "old_ref": "IP 5", "oneway": "yes", "ref": "ex-IP 5", "surface": "asphalt", "toll": "no"}}, {"type": "Feature", "geometry": {"type": "LineString", "coordinates": [[-7.9755198, 40.673957], [-7.9750613, 40.6737523]]}, "properties": {"highway": "trunk", "lanes": "2", "name": "Antigo Itiner\u00e1rio Principal 5", "old_ref": "IP 5", "oneway": "yes", "ref": "ex-IP 5", "surface": "asphalt", "toll": "no", "turn:lanes": "through|right"}}, {"type": "Feature", "geometry": {"type": "LineString", "coordinates": [[-7.9761065, 40.6742336], [-7.9755198, 40.673957]]}, "properties": {"highway": "trunk", "lanes": "2", "name": "Antigo Itiner\u00e1rio Principal 5", "old_ref": "IP 5", "oneway": "yes", "ref": "ex-IP 5", "surface": "asphalt", "toll": "no", "turn:lanes": "through;right|right"}}, {"type": "Feature", "geometry": {"type": "LineString", "coordinates": [[-7.9769924, 40.674652], [-7.9761065, 40.6742336]]}, "properties": {"highway": "trunk", "lanes": "1", "name": "Antigo Itiner\u00e1rio Principal 5", "old_ref": "IP 5", "oneway": "yes", "ref": "ex-IP 5", "surface": "asphalt", "toll": "no"}}, {"type": "Feature", "geometry": {"type": "LineString", "coordinates": [[-7.9775575, 40.6748131], [-7.9773048, 40.6747473], [-7.9769924, 40.674652]]}, "properties": {"highway": "trunk", "lanes": "3", "lanes:backward": "1", "lanes:forward": "2", "name": "Antigo Itiner\u00e1rio Principal 5", "old_ref": "IP 5", "oneway": "no", "ref": "ex-IP 5", "surface": "asphalt", "toll": "no", "turn:lanes:forward": "|merge_to_left"}}, {"type": "Feature", "geometry": {"type": "LineString", "coordinates": [[-7.9877078, 40.6706522], [-7.988581, 40.6700525]]}, "properties": {"highway": "trunk", "lanes": "2", "name": "Antigo Itiner\u00e1rio Principal 5", "old_ref": "IP 5", "oneway": "yes", "ref": "ex-IP 5", "surface": "asphalt", "toll": "no", "turn:lanes": "|slight_right"}}, {"type": "Feature", "geometry": {"type": "LineString", "coordinates": [[-7.988581, 40.6700525], [-7.9889175, 40.6698113], [-7.990133, 40.6689725]]}, "properties": {"highway": "trunk", "lanes": "1", "name": "Antigo Itiner\u00e1rio Principal 5", "old_ref": "IP 5", "oneway": "yes", "ref": "ex-IP 5", "surface": "asphalt", "toll": "no"}}, {"type": "Feature", "geometry": {"type": "LineString", "coordinates": [[-7.9918359, 40.667799], [-7.9904949, 40.6686305]]}, "properties": {"highway": "trunk", "lanes": "2", "name": "Antigo Itiner\u00e1rio Principal 5", "old_ref": "IP 5", "oneway": "yes", "ref": "ex-IP 5", "surface": "asphalt", "toll": "no"}}, {"type": "Feature", "geometry": {"type": "LineString", "coordinates": [[-7.992352, 40.667601], [-7.9930869, 40.66728]]}, "properties": {"highway": "trunk", "lanes": "4", "lanes:backward": "3", "lanes:forward": "1", "name": "Antigo Itiner\u00e1rio Principal 5", "old_ref": "IP 5", "oneway": "no", "ref": "ex-IP 5", "surface": "asphalt", "toll": "no", "turn:lanes:backward": "|through;right|slight_right"}}, {"type": "Feature", "geometry": {"type": "LineString", "coordinates": [[-8.0019296, 40.6652437], [-8.0020993, 40.6651705], [-8.0023019, 40.6650754], [-8.0026112, 40.6649106], [-8.0027951, 40.6647996], [-8.0030877, 40.6645935], [-8.0032716, 40.6644414], [-8.0035977, 40.6641306], [-8.0037565, 40.6639626], [-8.0039318, 40.663719], [-8.0040914, 40.6634974]]}, "properties": {"highway": "trunk", "lanes": "2", "name": "Antigo Itiner\u00e1rio Principal 5", "old_ref": "IP 5", "oneway": "no", "ref": "ex-IP 5", "surface": "asphalt", "toll": "no"}}, {"type": "Feature", "geometry": {"type": "LineString", "coordinates": [[-7.9930869, 40.66728], [-7.9961419, 40.6661574], [-7.9965262, 40.6660455], [-7.9969222, 40.6659513], [-7.9972987, 40.6658865], [-7.9977328, 40.6658363], [-7.9983491, 40.6657889], [-8.0000956, 40.6656569], [-8.0004812, 40.6656124], [-8.0008363, 40.6655542], [-8.0008883, 40.6655443], [-8.0010862, 40.6655014], [-8.0012819, 40.6654539], [-8.0014182, 40.6654162], [-8.0019296, 40.6652437]]}, "properties": {"highway": "trunk", "lanes": "3", "lanes:backward": "2", "lanes:forward": "1", "name": "Antigo Itiner\u00e1rio Principal 5", "old_ref": "IP 5", "oneway": "no", "ref": "ex-IP 5", "surface": "asphalt", "toll": "no"}}, {"type": "Feature", "geometry": {"type": "LineString", "coordinates": [[-8.0215055, 40.6548619], [-8.0222064, 40.6547508], [-8.022646, 40.6547071], [-8.0231681, 40.6546855], [-8.0235658, 40.6547028]]}, "properties": {"highway": "trunk", "lanes": "3", "lanes:backward": "1", "lanes:forward": "2", "name": "Antigo Itiner\u00e1rio Principal 5", "old_ref": "IP 5", "oneway": "no", "ref": "ex-IP 5", "surface": "asphalt", "toll": "no", "turn:lanes:forward": "|merge_to_left"}}, {"type": "Feature", "geometry": {"type": "LineString", "coordinates": [[-8.0235658, 40.6547028], [-8.0245829, 40.6547849], [-8.0251261, 40.6548305], [-8.0258181, 40.6548815], [-8.0264481, 40.6548795], [-8.0269055, 40.6548434], [-8.0273998, 40.6547804], [-8.0277648, 40.6547023], [-8.0281018, 40.6546157], [-8.0295811, 40.6541216], [-8.0300837, 40.6539659], [-8.0310605, 40.6537081], [-8.0318247, 40.6535496], [-8.0330888, 40.653331], [-8.0340858, 40.6532111], [-8.0350474, 40.6530985], [-8.0360225, 40.6529778], [-8.0363224, 40.6529261], [-8.0365746, 40.6528704]]}, "properties": {"highway": "trunk", "lanes": "2", "name": "Antigo Itiner\u00e1rio Principal 5", "old_ref": "IP 5", "oneway": "no", "ref": "ex-IP 5", "surface": "asphalt", "toll": "no"}}, {"type": "Feature", "geometry": {"type": "LineString", "coordinates": [[-8.0371213, 40.6527647], [-8.0373788, 40.6526919], [-8.0376346, 40.6526052], [-8.0379993, 40.6524618]]}, "properties": {"highway": "trunk", "lanes": "2", "name": "Antigo Itiner\u00e1rio Principal 5", "old_ref": "IP 5", "oneway": "yes", "ref": "ex-IP 5", "surface": "asphalt", "toll": "no", "turn:lanes": "through;right|slight_right"}}, {"type": "Feature", "geometry": {"type": "LineString", "coordinates": [[-8.0365746, 40.6528704], [-8.0368499, 40.6528242], [-8.0371213, 40.6527647]]}, "properties": {"highway": "trunk", "lanes": "1", "name": "Antigo Itiner\u00e1rio Principal 5", "oneway": "yes", "ref": "ex-IP 5", "surface": "asphalt", "toll": "no"}}, {"type": "Feature", "geometry": {"type": "LineString", "coordinates": [[-8.0412683, 40.6507355], [-8.0421099, 40.6502818], [-8.042871, 40.6498798]]}, "properties": {"highway": "trunk", "lanes": "2", "name": "Antigo Itiner\u00e1rio Principal 5", "old_ref": "IP 5", "oneway": "yes", "ref": "ex-IP 5", "surface": "asphalt", "toll": "no", "turn:lanes": "|merge_to_left"}}, {"type": "Feature", "geometry": {"type": "LineString", "coordinates": [[-8.0420426, 40.6502464], [-8.039229, 40.6517665]]}, "properties": {"highway": "trunk", "lanes": "1", "name": "Antigo Itiner\u00e1rio Principal 5", "old_ref": "IP 5", "oneway": "yes", "ref": "ex-IP 5", "surface": "asphalt", "toll": "no"}}, {"type": "Feature", "geometry": {"type": "LineString", "coordinates": [[-8.039229, 40.6517665], [-8.0385396, 40.6521246], [-8.0381047, 40.6523333], [-8.0376786, 40.6525154]]}, "properties": {"highway": "trunk", "lanes": "2", "name": "Antigo Itiner\u00e1rio Principal 5", "old_ref": "IP 5", "oneway": "yes", "ref": "ex-IP 5", "surface": "asphalt", "toll": "no", "turn:lanes": "|merge_to_left"}}, {"type": "Feature", "geometry": {"type": "LineString", "coordinates": [[-8.0376786, 40.6525154], [-8.0374939, 40.6525853], [-8.0373002, 40.6526487], [-8.0365746, 40.6528704]]}, "properties": {"highway": "trunk", "lanes": "1", "name": "Antigo Itiner\u00e1rio Principal 5", "old_ref": "IP 5", "oneway": "yes", "ref": "ex-IP 5", "surface": "asphalt", "toll": "no"}}, {"type": "Feature", "geometry": {"type": "LineString", "coordinates": [[-8.0379993, 40.6524618], [-8.0383037, 40.6523237], [-8.0386799, 40.6521366], [-8.0392941, 40.6518041], [-8.0405535, 40.6511208], [-8.0412683, 40.6507355]]}, "properties": {"highway": "trunk", "lanes": "1", "name": "Antigo Itiner\u00e1rio Principal 5", "old_ref": "IP 5", "oneway": "yes", "ref": "ex-IP 5", "surface": "asphalt", "toll": "no"}}, {"type": "Feature", "geometry": {"type": "LineString", "coordinates": [[-8.0433426, 40.6495892], [-8.042799, 40.6498414], [-8.0420426, 40.6502464]]}, "properties": {"highway": "trunk", "lanes": "2", "name": "Antigo Itiner\u00e1rio Principal 5", "old_ref": "IP 5", "oneway": "yes", "ref": "ex-IP 5", "surface": "asphalt", "toll": "no"}}, {"type": "Feature", "geometry": {"type": "LineString", "coordinates": [[-8.042871, 40.6498798], [-8.0433426, 40.6495892]]}, "properties": {"highway": "trunk", "lanes": "1", "name": "Antigo Itiner\u00e1rio Principal 5", "oneway": "yes", "ref": "ex-IP 5", "surface": "asphalt", "toll": "no"}}, {"type": "Feature", "geometry": {"type": "LineString", "coordinates": [[-8.0433426, 40.6495892], [-8.0437686, 40.649392], [-8.0442571, 40.6491952], [-8.0447336, 40.6490312], [-8.0450526, 40.648943], [-8.0463041, 40.6486247], [-8.050155, 40.6477019], [-8.0521985, 40.6472053], [-8.0541771, 40.6467467], [-8.055414, 40.6464979], [-8.0570336, 40.6462207]]}, "properties": {"highway": "trunk", "lanes": "2", "name": "Antigo Itiner\u00e1rio Principal 5", "old_ref": "IP 5", "oneway": "no", "ref": "ex-IP 5", "surface": "asphalt", "toll": "no"}}, {"type": "Feature", "geometry": {"type": "LineString", "coordinates": [[-8.0572347, 40.646157], [-8.0570336, 40.6462207]]}, "properties": {"highway": "trunk", "lanes": "1", "name": "Antigo Itiner\u00e1rio Principal 5", "oneway": "yes", "ref": "ex-IP 5", "source": "Bing", "surface": "asphalt", "toll": "no"}}, {"type": "Feature", "geometry": {"type": "LineString", "coordinates": [[-8.0583924, 40.6459611], [-8.0572347, 40.646157]]}, "properties": {"highway": "trunk", "lanes": "2", "name": "Antigo Itiner\u00e1rio Principal 5", "old_ref": "IP 5", "oneway": "yes", "ref": "ex-IP 5", "source": "Bing", "surface": "asphalt", "toll": "no", "turn:lanes": "|merge_to_left"}}, {"type": "Feature", "geometry": {"type": "LineString", "coordinates": [[-8.0572535, 40.646219], [-8.059475, 40.6458549]]}, "properties": {"highway": "trunk", "lanes": "2", "name": "Antigo Itiner\u00e1rio Principal 5", "old_ref": "IP 5", "oneway": "yes", "ref": "ex-IP 5", "surface": "asphalt", "toll": "no", "turn:lanes": "|slight_right"}}, {"type": "Feature", "geometry": {"type": "LineString", "coordinates": [[-8.0570336, 40.6462207], [-8.0572535, 40.646219]]}, "properties": {"highway": "trunk", "lanes": "1", "name": "Antigo Itiner\u00e1rio Principal 5", "oneway": "yes", "ref": "ex-IP 5", "surface": "asphalt", "toll": "no"}}, {"type": "Feature", "geometry": {"type": "LineString", "coordinates": [[-8.0602913, 40.6457153], [-8.062082, 40.6454348]]}, "properties": {"highway": "trunk", "lanes": "2", "name": "Antigo Itiner\u00e1rio Principal 5", "old_ref": "IP 5", "oneway": "yes", "ref": "ex-IP 5", "surface": "asphalt", "toll": "no"}}, {"type": "Feature", "geometry": {"type": "LineString", "coordinates": [[-8.0622396, 40.6453226], [-8.0608066, 40.6455443]]}, "properties": {"highway": "trunk", "lanes": "2", "name": "Antigo Itiner\u00e1rio Principal 5", "old_ref": "IP 5", "oneway": "yes", "ref": "ex-IP 5", "source": "Bing", "surface": "asphalt", "toll": "no", "turn:lanes": "through;right|right"}}, {"type": "Feature", "geometry": {"type": "LineString", "coordinates": [[-8.0601851, 40.64565], [-8.0599564, 40.6457029], [-8.0590479, 40.6458539], [-8.0583924, 40.6459611]]}, "properties": {"highway": "trunk", "lanes": "1", "name": "Antigo Itiner\u00e1rio Principal 5", "old_ref": "IP 5", "oneway": "yes", "ref": "ex-IP 5", "source": "Bing", "surface": "asphalt", "toll": "no"}}, {"type": "Feature", "geometry": {"type": "LineString", "coordinates": [[-8.0654428, 40.6448481], [-8.0647985, 40.6448992], [-8.0640452, 40.6450088]]}, "properties": {"highway": "trunk", "lanes": "2", "name": "Antigo Itiner\u00e1rio Principal 5", "old_ref": "IP 5", "oneway": "yes", "ref": "ex-IP 5", "source": "Bing", "surface": "asphalt", "toll": "no", "turn:lanes": "|slight_right"}}, {"type": "Feature", "geometry": {"type": "LineString", "coordinates": [[-8.062082, 40.6454348], [-8.0629504, 40.6453028]]}, "properties": {"highway": "trunk", "lanes": "2", "name": "Antigo Itiner\u00e1rio Principal 5", "old_ref": "IP 5", "oneway": "yes", "ref": "ex-IP 5", "surface": "asphalt", "toll": "no", "turn:lanes": "left|through"}}, {"type": "Feature", "geometry": {"type": "LineString", "coordinates": [[-8.059475, 40.6458549], [-8.0597282, 40.6458045], [-8.0602913, 40.6457153]]}, "properties": {"highway": "trunk", "lanes": "1", "name": "Antigo Itiner\u00e1rio Principal 5", "old_ref": "IP 5", "oneway": "yes", "ref": "ex-IP 5", "surface": "asphalt", "toll": "no"}}, {"type": "Feature", "geometry": {"type": "LineString", "coordinates": [[-8.0671736, 40.6449578], [-8.0668094, 40.6448941], [-8.0663079, 40.6448501], [-8.0657762, 40.6448386], [-8.0654428, 40.6448481]]}, "properties": {"highway": "trunk", "lanes": "1", "name": "Antigo Itiner\u00e1rio Principal 5", "old_ref": "IP 5", "oneway": "yes", "ref": "ex-IP 5", "source": "Bing", "surface": "asphalt", "toll": "no"}}, {"type": "Feature", "geometry": {"type": "LineString", "coordinates": [[-8.0708911, 40.6457143], [-8.0713767, 40.64581]]}, "properties": {"highway": "trunk", "lanes": "2", "name": "Antigo Itiner\u00e1rio Principal 5", "old_ref": "IP 5", "oneway": "yes", "ref": "ex-IP 5", "surface": "asphalt", "toll": "no", "turn:lanes": "|slight_right"}}, {"type": "Feature", "geometry": {"type": "LineString", "coordinates": [[-8.0695328, 40.6454032], [-8.0703152, 40.645584], [-8.0708911, 40.6457143]]}, "properties": {"highway": "trunk", "lanes": "1", "name": "Antigo Itiner\u00e1rio Principal 5", "old_ref": "IP 5", "oneway": "yes", "ref": "ex-IP 5", "surface": "asphalt", "toll": "no"}}, {"type": "Feature", "geometry": {"type": "LineString", "coordinates": [[-8.0741728, 40.6463972], [-8.0740284, 40.6463392]]}, "properties": {"highway": "trunk", "lanes": "2", "name": "Antigo Itiner\u00e1rio Principal 5", "oneway": "yes", "ref": "ex-IP 5", "surface": "asphalt", "toll": "no"}}, {"type": "Feature", "geometry": {"type": "LineString", "coordinates": [[-8.0751354, 40.6469508], [-8.0749937, 40.6468306], [-8.0747114, 40.64665], [-8.0745083, 40.6465444]]}, "properties": {"highway": "trunk", "lanes": "2", "name": "Antigo Itiner\u00e1rio Principal 5", "old_ref": "IP 5", "oneway": "yes", "ref": "ex-IP 5", "surface": "asphalt", "toll": "no"}}, {"type": "Feature", "geometry": {"type": "LineString", "coordinates": [[-8.0756874, 40.6476222], [-8.0757885, 40.6478015], [-8.0758628, 40.6479724], [-8.07593, 40.6481621], [-8.0760168, 40.6484717], [-8.0760987, 40.6488438], [-8.0761888, 40.6492849], [-8.0763762, 40.6501915]]}, "properties": {"highway": "trunk", "lanes": "3", "lanes:backward": "1", "lanes:forward": "2", "name": "Antigo Itiner\u00e1rio Principal 5", "old_ref": "IP 5", "oneway": "no", "ref": "ex-IP 5", "surface": "asphalt", "toll": "no"}}, {"type": "Feature", "geometry": {"type": "LineString", "coordinates": [[-8.0805085, 40.6551209], [-8.0805795, 40.6552534], [-8.0806464, 40.6554151], [-8.0807116, 40.655632], [-8.0807607, 40.6558916], [-8.0807675, 40.6563022], [-8.080729, 40.6567025], [-8.0806882, 40.6569717], [-8.0793815, 40.6637476], [-8.0793475, 40.6639867], [-8.0793461, 40.6642506], [-8.079377, 40.6644983], [-8.0794465, 40.664758], [-8.0795254, 40.6649808], [-8.0796685, 40.6652764], [-8.0798394, 40.6655334], [-8.0802824, 40.6660829], [-8.0804522, 40.6663449], [-8.0805797, 40.6666207], [-8.0806278, 40.6667524], [-8.0806651, 40.6668836]]}, "properties": {"highway": "trunk", "lanes": "2", "lanes:backward": "1", "name": "Antigo Itiner\u00e1rio Principal 5", "old_ref": "IP 5", "oneway": "no", "ref": "ex-IP 5", "surface": "asphalt", "toll": "no"}}, {"type": "Feature", "geometry": {"type": "LineString", "coordinates": [[-8.1106709, 40.6866151], [-8.1111242, 40.6868917]]}, "properties": {"highway": "trunk", "lanes": "4", "lanes:backward": "2", "lanes:forward": "2", "name": "Antigo Itiner\u00e1rio Principal 5", "oneway": "no", "ref": "ex-IP 5", "surface": "asphalt", "toll": "no"}}, {"type": "Feature", "geometry": {"type": "LineString", "coordinates": [[-8.1111242, 40.6868917], [-8.1120082, 40.687428]]}, "properties": {"highway": "trunk", "lanes": "3", "lanes:backward": "2", "lanes:forward": "1", "name": "Antigo Itiner\u00e1rio Principal 5", "oneway": "no", "ref": "ex-IP 5", "surface": "asphalt", "toll": "no"}}, {"type": "Feature", "geometry": {"type": "LineString", "coordinates": [[-8.0608066, 40.6455443], [-8.0601851, 40.64565]]}, "properties": {"highway": "trunk", "lanes": "2", "name": "Antigo Itiner\u00e1rio Principal 5", "old_ref": "IP 5", "oneway": "yes", "ref": "ex-IP 5", "source": "Bing", "surface": "asphalt", "toll": "no", "turn:lanes": "through|right"}}, {"type": "Feature", "geometry": {"type": "LineString", "coordinates": [[-7.8627358, 40.6586276], [-7.8626636, 40.6581495]]}, "properties": {"highway": "trunk", "lanes": "2", "name": "Antigo Itiner\u00e1rio Principal 5", "old_ref": "IP 5", "oneway": "yes", "ref": "ex-IP 5", "source": "Bing", "surface": "asphalt", "toll": "no", "turn:lanes": "through|slight_right"}}, {"type": "Feature", "geometry": {"type": "LineString", "coordinates": [[-7.8617217, 40.6533449], [-7.8619589, 40.6548789]]}, "properties": {"highway": "trunk", "lanes": "2", "name": "Antigo Itiner\u00e1rio Principal 5", "old_ref": "IP 5", "oneway": "yes", "ref": "ex-IP 5", "surface": "asphalt", "toll": "no"}}, {"type": "Feature", "geometry": {"type": "LineString", "coordinates": [[-7.8618044, 40.6521113], [-7.8616809, 40.6516506]]}, "properties": {"highway": "trunk", "lanes": "2", "name": "Antigo Itiner\u00e1rio Principal 5", "oneway": "yes", "ref": "ex-IP 5", "source": "Bing", "surface": "asphalt", "toll": "no", "turn:lanes": "merge_to_right|"}}, {"type": "Feature", "geometry": {"type": "LineString", "coordinates": [[-7.8618744, 40.652367], [-7.8618044, 40.6521113]]}, "properties": {"highway": "trunk", "lanes": "2", "name": "Antigo Itiner\u00e1rio Principal 5", "oneway": "yes", "ref": "ex-IP 5", "source": "Bing", "surface": "asphalt", "toll": "no"}}, {"type": "Feature", "geometry": {"type": "LineString", "coordinates": [[-7.8621193, 40.6542206], [-7.862128, 40.6539869], [-7.8621347, 40.6536123]]}, "properties": {"highway": "trunk", "lanes": "2", "name": "Antigo Itiner\u00e1rio Principal 5", "old_ref": "IP 5", "oneway": "yes", "ref": "ex-IP 5", "source": "Bing", "surface": "asphalt", "toll": "no"}}, {"type": "Feature", "geometry": {"type": "LineString", "coordinates": [[-7.8619589, 40.6548789], [-7.8623918, 40.6571781]]}, "properties": {"highway": "trunk", "lanes": "3", "name": "Antigo Itiner\u00e1rio Principal 5", "old_ref": "IP 5", "oneway": "yes", "ref": "ex-IP 5", "surface": "asphalt", "toll": "no", "turn:lanes": "||merge_to_left"}}, {"type": "Feature", "geometry": {"type": "LineString", "coordinates": [[-7.8623918, 40.6571781], [-7.8625192, 40.6578954]]}, "properties": {"highway": "trunk", "lanes": "2", "name": "Antigo Itiner\u00e1rio Principal 5", "oneway": "yes", "ref": "ex-IP 5", "surface": "asphalt", "toll": "no"}}, {"type": "Feature", "geometry": {"type": "LineString", "coordinates": [[-7.8625192, 40.6578954], [-7.8626851, 40.6589616]]}, "properties": {"highway": "trunk", "lanes": "2", "name": "Antigo Itiner\u00e1rio Principal 5", "old_ref": "IP 5", "oneway": "yes", "ref": "ex-IP 5", "surface": "asphalt", "toll": "no", "turn:lanes": "|merge_to_left"}}, {"type": "Feature", "geometry": {"type": "LineString", "coordinates": [[-7.8626851, 40.6589616], [-7.8627529, 40.6593019]]}, "properties": {"highway": "trunk", "lanes": "1", "name": "Antigo Itiner\u00e1rio Principal 5", "old_ref": "IP 5", "oneway": "yes", "ref": "ex-IP 5", "surface": "asphalt", "toll": "no"}}, {"type": "Feature", "geometry": {"type": "LineString", "coordinates": [[-7.8627529, 40.6593019], [-7.8627752, 40.6590767], [-7.8627358, 40.6586276]]}, "properties": {"highway": "trunk", "lanes": "1", "name": "Antigo Itiner\u00e1rio Principal 5", "old_ref": "IP 5", "oneway": "yes", "ref": "ex-IP 5", "source": "Bing", "surface": "asphalt", "toll": "no", "turn:lanes": "through;right"}}, {"type": "Feature", "geometry": {"type": "LineString", "coordinates": [[-7.8630004, 40.6741505], [-7.8652667, 40.6747852], [-7.8688397, 40.67576], [-7.8694566, 40.6759354]]}, "properties": {"highway": "trunk", "lanes": "2", "lanes:backward": "1", "maxspeed": "90", "name": "Antigo Itiner\u00e1rio Principal 5", "old_ref": "IP 5", "oneway": "no", "ref": "ex-IP 5", "surface": "asphalt", "toll": "no"}}, {"type": "Feature", "geometry": {"type": "LineString", "coordinates": [[-7.8694566, 40.6759354], [-7.8700448, 40.6761278], [-7.8703345, 40.6762353], [-7.870801, 40.6764369], [-7.8711616, 40.6766089], [-7.8715323, 40.6767868], [-7.8743796, 40.6783053], [-7.874697, 40.6784621], [-7.875025, 40.6786117]]}, "properties": {"highway": "trunk", "lanes": "3", "lanes:backward": "2", "maxspeed": "90", "name": "Antigo Itiner\u00e1rio Principal 5", "old_ref": "IP 5", "oneway": "no", "ref": "ex-IP 5", "surface": "asphalt", "toll": "no"}}, {"type": "Feature", "geometry": {"type": "LineString", "coordinates": [[-7.8627638, 40.6740683], [-7.8630004, 40.6741505]]}, "properties": {"bridge": "yes", "highway": "trunk", "lanes": "2", "lanes:backward": "1", "layer": "1", "maxspeed": "90", "name": "Antigo Itiner\u00e1rio Principal 5", "old_ref": "IP 5", "oneway": "no", "ref": "ex-IP 5", "surface": "asphalt", "toll": "no"}}, {"type": "Feature", "geometry": {"type": "LineString", "coordinates": [[-7.875025, 40.6786117], [-7.8754474, 40.6787869]]}, "properties": {"highway": "trunk", "lanes": "4", "lanes:backward": "2", "maxspeed": "90", "name": "Antigo Itiner\u00e1rio Principal 5", "old_ref": "IP 5", "oneway": "no", "ref": "ex-IP 5", "surface": "asphalt", "toll": "no", "turn:lanes:forward": "|slight_right"}}, {"type": "Feature", "geometry": {"type": "LineString", "coordinates": [[-7.8780344, 40.6794539], [-7.878644, 40.6795876]]}, "properties": {"highway": "trunk", "lanes": "4", "lanes:backward": "2", "maxspeed": "90", "name": "Antigo Itiner\u00e1rio Principal 5", "old_ref": "IP 5", "oneway": "no", "ref": "ex-IP 5", "surface": "asphalt", "toll": "no"}}, {"type": "Feature", "geometry": {"type": "LineString", "coordinates": [[-7.8795529, 40.6797832], [-7.879911, 40.6798679]]}, "properties": {"highway": "trunk", "lanes": "6", "lanes:backward": "3", "maxspeed": "90", "name": "Antigo Itiner\u00e1rio Principal 5", "old_ref": "IP 5", "oneway": "no", "ref": "ex-IP 5", "surface": "asphalt", "toll": "no", "turn:lanes:backward": "||merge_to_left", "turn:lanes:forward": "|through;right|"}}, {"type": "Feature", "geometry": {"type": "LineString", "coordinates": [[-7.8791415, 40.6796908], [-7.8795529, 40.6797832]]}, "properties": {"highway": "trunk", "lanes": "4", "lanes:backward": "2", "maxspeed": "90", "name": "Antigo Itiner\u00e1rio Principal 5", "old_ref": "IP 5", "oneway": "no", "ref": "ex-IP 5", "surface": "asphalt", "toll": "no"}}, {"type": "Feature", "geometry": {"type": "LineString", "coordinates": [[-7.878644, 40.6795876], [-7.8791415, 40.6796908]]}, "properties": {"highway": "trunk", "lanes": "5", "lanes:backward": "2", "maxspeed": "90", "name": "Antigo Itiner\u00e1rio Principal 5", "old_ref": "IP 5", "oneway": "no", "ref": "ex-IP 5", "surface": "asphalt", "toll": "no", "turn:lanes:forward": "||merge_to_left"}}, {"type": "Feature", "geometry": {"type": "LineString", "coordinates": [[-7.879911, 40.6798679], [-7.8800681, 40.6799429], [-7.8801683, 40.6799822], [-7.8805384, 40.6800869]]}, "properties": {"highway": "trunk", "lanes": "3", "name": "Antigo Itiner\u00e1rio Principal 5", "old_ref": "IP 5", "oneway": "yes", "ref": "ex-IP 5", "surface": "asphalt", "toll": "no", "turn:lanes": "|through;right|slight_right"}}, {"type": "Feature", "geometry": {"type": "LineString", "coordinates": [[-7.8817906, 40.6804909], [-7.8831898, 40.6810242], [-7.8843545, 40.6814727]]}, "properties": {"highway": "trunk", "lanes": "2", "name": "Antigo Itiner\u00e1rio Principal 5", "old_ref": "IP 5", "oneway": "yes", "ref": "ex-IP 5", "surface": "asphalt", "toll": "no"}}, {"type": "Feature", "geometry": {"type": "LineString", "coordinates": [[-7.8830696, 40.6808948], [-7.8824005, 40.6806141]]}, "properties": {"highway": "trunk", "lanes": "2", "name": "Antigo Itiner\u00e1rio Principal 5", "old_ref": "IP 5", "oneway": "yes", "ref": "ex-IP 5", "source": "Bing", "surface": "asphalt", "toll": "no", "turn:lanes": "through|slight_right"}}, {"type": "Feature", "geometry": {"type": "LineString", "coordinates": [[-7.8843545, 40.6814727], [-7.8836531, 40.6811425], [-7.8830696, 40.6808948]]}, "properties": {"highway": "trunk", "lanes": "2", "name": "Antigo Itiner\u00e1rio Principal 5", "old_ref": "IP 5", "oneway": "yes", "ref": "ex-IP 5", "source": "Bing", "surface": "asphalt", "toll": "no"}}, {"type": "Feature", "geometry": {"type": "LineString", "coordinates": [[-7.8806321, 40.6800155], [-7.8802551, 40.6799139], [-7.880112, 40.6798878], [-7.879911, 40.6798679]]}, "properties": {"highway": "trunk", "lanes": "3", "name": "Antigo Itiner\u00e1rio Principal 5", "old_ref": "IP 5", "oneway": "yes", "ref": "ex-IP 5", "source": "Bing", "surface": "asphalt", "toll": "no", "turn:lanes": "||merge_to_left"}}, {"type": "Feature", "geometry": {"type": "LineString", "coordinates": [[-7.893572, 40.6838618], [-7.8941824, 40.6840455], [-7.8948309, 40.6843393], [-7.895847, 40.6849205], [-7.899161, 40.6868616], [-7.9015481, 40.6882818], [-7.9023464, 40.6887631]]}, "properties": {"highway": "trunk", "lanes": "2", "lanes:backward": "1", "name": "Antigo Itiner\u00e1rio Principal 5", "old_ref": "IP 5", "oneway": "no", "ref": "ex-IP 5", "surface": "asphalt", "toll": "no"}}, {"type": "Feature", "geometry": {"type": "LineString", "coordinates": [[-7.9031936, 40.6892595], [-7.9037111, 40.6895505]]}, "properties": {"highway": "trunk", "lanes": "4", "lanes:backward": "1", "name": "Antigo Itiner\u00e1rio Principal 5", "old_ref": "IP 5", "oneway": "no", "ref": "ex-IP 5", "surface": "asphalt", "toll": "no", "turn:lanes:forward": "|through|slight_right"}}, {"type": "Feature", "geometry": {"type": "LineString", "coordinates": [[-7.9024993, 40.6888477], [-7.9031936, 40.6892595]]}, "properties": {"highway": "trunk", "lanes": "4", "lanes:backward": "1", "name": "Antigo Itiner\u00e1rio Principal 5", "old_ref": "IP 5", "oneway": "no", "ref": "ex-IP 5", "surface": "asphalt", "toll": "no", "turn:lanes:forward": "|through;right|"}}, {"type": "Feature", "geometry": {"type": "LineString", "coordinates": [[-7.9118698, 40.6923955], [-7.9126457, 40.6925948]]}, "properties": {"highway": "trunk", "lanes": "2", "motorroad": "yes", "name": "Antigo Itiner\u00e1rio Principal 5", "old_ref": "IP 5", "oneway": "yes", "ref": "ex-IP 5", "surface": "asphalt", "toll": "no", "turn:lanes": "|through;right"}}, {"type": "Feature", "geometry": {"type": "LineString", "coordinates": [[-7.9126457, 40.6925948], [-7.9135876, 40.6928416]]}, "properties": {"highway": "trunk", "lanes": "3", "motorroad": "yes", "name": "Antigo Itiner\u00e1rio Principal 5", "old_ref": "IP 5", "oneway": "yes", "ref": "ex-IP 5", "surface": "asphalt", "toll": "no", "turn:lanes": "||slight_right"}}, {"type": "Feature", "geometry": {"type": "LineString", "coordinates": [[-7.9097358, 40.6918032], [-7.9099814, 40.6918934], [-7.9118698, 40.6923955]]}, "properties": {"highway": "trunk", "lanes": "2", "motorroad": "yes", "name": "Antigo Itiner\u00e1rio Principal 5", "old_ref": "IP 5", "oneway": "yes", "ref": "ex-IP 5", "surface": "asphalt", "toll": "no"}}, {"type": "Feature", "geometry": {"type": "LineString", "coordinates": [[-7.9085762, 40.691499], [-7.9097358, 40.6918032]]}, "properties": {"highway": "trunk", "lanes": "4", "lanes:backward": "2", "name": "Antigo Itiner\u00e1rio Principal 5", "old_ref": "IP 5", "oneway": "no", "ref": "ex-IP 5", "surface": "asphalt", "toll": "no", "turn:lanes:backward": "|merge_to_left"}}, {"type": "Feature", "geometry": {"type": "LineString", "coordinates": [[-7.905839, 40.6906803], [-7.9062782, 40.6908568], [-7.9067461, 40.6910072]]}, "properties": {"highway": "trunk", "lanes": "4", "lanes:backward": "1", "lanes:forward": "3", "name": "Antigo Itiner\u00e1rio Principal 5", "old_ref": "IP 5", "oneway": "no", "ref": "ex-IP 5", "surface": "asphalt", "toll": "no", "turn:lanes:forward": "||merge_to_left"}}, {"type": "Feature", "geometry": {"type": "LineString", "coordinates": [[-7.9115939, 40.6922388], [-7.9098669, 40.691808], [-7.9097358, 40.6918032]]}, "properties": {"highway": "trunk", "lanes": "1", "motorroad": "yes", "name": "Antigo Itiner\u00e1rio Principal 5", "old_ref": "IP 5", "oneway": "yes", "ref": "ex-IP 5", "surface": "asphalt", "toll": "no"}}, {"type": "Feature", "geometry": {"type": "LineString", "coordinates": [[-7.9139198, 40.6928381], [-7.9119527, 40.6923355], [-7.9115939, 40.6922388]]}, "properties": {"highway": "trunk", "lanes": "2", "motorroad": "yes", "name": "Antigo Itiner\u00e1rio Principal 5", "old_ref": "IP 5", "oneway": "yes", "ref": "ex-IP 5", "surface": "asphalt", "toll": "no", "turn:lanes": "|slight_right"}}, {"type": "Feature", "geometry": {"type": "LineString", "coordinates": [[-7.9153355, 40.6930401], [-7.9156141, 40.6930472]]}, "properties": {"highway": "trunk", "lanes": "4", "lanes:backward": "1", "lanes:forward": "3", "name": "Antigo Itiner\u00e1rio Principal 5", "old_ref": "IP 5", "oneway": "no", "ref": "ex-IP 5", "surface": "asphalt", "toll": "no", "turn:lanes:forward": "||merge_to_left"}}, {"type": "Feature", "geometry": {"type": "LineString", "coordinates": [[-7.9247786, 40.6931297], [-7.9249725, 40.6932318]]}, "properties": {"highway": "trunk", "lanes": "2", "lanes:backward": "1", "name": "Antigo Itiner\u00e1rio Principal 5", "old_ref": "IP 5", "oneway": "no", "ref": "ex-IP 5", "surface": "asphalt", "toll": "no"}}, {"type": "Feature", "geometry": {"type": "LineString", "coordinates": [[-7.9281653, 40.6942613], [-7.9279198, 40.6942439], [-7.927684, 40.6942181], [-7.9274311, 40.6941828], [-7.9269479, 40.6941018]]}, "properties": {"highway": "trunk", "lanes": "1", "name": "Antigo Itiner\u00e1rio Principal 5", "old_ref": "IP 5", "oneway": "yes", "ref": "ex-IP 5", "surface": "asphalt", "toll": "no"}}, {"type": "Feature", "geometry": {"type": "LineString", "coordinates": [[-7.9283567, 40.694331], [-7.928616, 40.6943405]]}, "properties": {"highway": "trunk", "lanes": "2", "name": "Antigo Itiner\u00e1rio Principal 5", "oneway": "yes", "ref": "ex-IP 5", "surface": "asphalt", "toll": "no", "turn:lanes": "|slight_right"}}, {"type": "Feature", "geometry": {"type": "LineString", "coordinates": [[-7.9269479, 40.6941018], [-7.9272207, 40.694174], [-7.9274703, 40.6942307], [-7.9277653, 40.6942778], [-7.9280541, 40.6943106], [-7.9283567, 40.694331]]}, "properties": {"highway": "trunk", "lanes": "1", "name": "Antigo Itiner\u00e1rio Principal 5", "old_ref": "IP 5", "oneway": "yes", "ref": "ex-IP 5", "surface": "asphalt", "toll": "no"}}, {"type": "Feature", "geometry": {"type": "LineString", "coordinates": [[-7.9304272, 40.6941207], [-7.9307028, 40.6940481]]}, "properties": {"highway": "trunk", "lanes": "2", "name": "Antigo Itiner\u00e1rio Principal 5", "old_ref": "IP 5", "oneway": "yes", "ref": "ex-IP 5", "surface": "asphalt", "toll": "no"}}, {"type": "Feature", "geometry": {"type": "LineString", "coordinates": [[-7.9332985, 40.6924586], [-7.934034, 40.6918932]]}, "properties": {"highway": "trunk", "lanes": "5", "lanes:backward": "3", "lanes:forward": "2", "name": "Antigo Itiner\u00e1rio Principal 5", "old_ref": "IP 5", "oneway": "no", "ref": "ex-IP 5", "surface": "asphalt", "toll": "no", "turn:lanes:backward": "|through|slight_right", "turn:lanes:forward": "|merge_to_left"}}, {"type": "Feature", "geometry": {"type": "LineString", "coordinates": [[-8.1123253, 40.6876306], [-8.1137964, 40.6885441], [-8.1142696, 40.6888807], [-8.1147428, 40.6892509], [-8.1149228, 40.6894045], [-8.1151068, 40.6895897], [-8.1152503, 40.6897872], [-8.1153836, 40.6900001], [-8.1154929, 40.6902243], [-8.1155848, 40.6904989], [-8.115633, 40.6908797], [-8.1156224, 40.6911273], [-8.1155792, 40.691381], [-8.1155121, 40.6916087], [-8.1154124, 40.6918334], [-8.1153146, 40.6920195], [-8.1151842, 40.6922117], [-8.1150353, 40.6923901], [-8.1149064, 40.6925233]]}, "properties": {"highway": "trunk", "lanes": "3", "lanes:backward": "2", "lanes:forward": "1", "name": "Antigo Itiner\u00e1rio Principal 5", "oneway": "no", "ref": "ex-IP 5", "surface": "asphalt", "toll": "no"}}, {"type": "Feature", "geometry": {"type": "LineString", "coordinates": [[-8.1120082, 40.687428], [-8.1123253, 40.6876306]]}, "properties": {"highway": "trunk", "lanes": "3", "lanes:backward": "2", "lanes:forward": "1", "name": "Antigo Itiner\u00e1rio Principal 5", "oneway": "no", "ref": "ex-IP 5", "surface": "asphalt", "toll": "no"}}, {"type": "Feature", "geometry": {"type": "LineString", "coordinates": [[-8.1097765, 40.6860705], [-8.1106709, 40.6866151]]}, "properties": {"highway": "trunk", "lanes": "3", "lanes:backward": "1", "lanes:forward": "2", "name": "Antigo Itiner\u00e1rio Principal 5", "oneway": "no", "ref": "ex-IP 5", "surface": "asphalt", "toll": "no"}}, {"type": "Feature", "geometry": {"type": "LineString", "coordinates": [[-8.1094498, 40.6858742], [-8.1097765, 40.6860705]]}, "properties": {"highway": "trunk", "lanes": "3", "lanes:backward": "1", "lanes:forward": "2", "name": "Antigo Itiner\u00e1rio Principal 5", "oneway": "no", "ref": "ex-IP 5", "surface": "asphalt", "toll": "no"}}, {"type": "Feature", "geometry": {"type": "LineString", "coordinates": [[-8.0806582, 40.6680376], [-8.080433, 40.6686148]]}, "properties": {"highway": "trunk", "lanes": "2", "lanes:backward": "1", "name": "Antigo Itiner\u00e1rio Principal 5", "old_ref": "IP 5", "oneway": "no", "ref": "ex-IP 5", "surface": "asphalt", "toll": "no"}}, {"type": "Feature", "geometry": {"type": "LineString", "coordinates": [[-8.0763762, 40.6501915], [-8.0765284, 40.6509476]]}, "properties": {"highway": "trunk", "lanes": "3", "lanes:backward": "1", "lanes:forward": "2", "name": "Antigo Itiner\u00e1rio Principal 5", "old_ref": "IP 5", "oneway": "no", "ref": "ex-IP 5", "surface": "asphalt", "toll": "no"}}, {"type": "Feature", "geometry": {"type": "LineString", "coordinates": [[-8.0631262, 40.6451677], [-8.0622396, 40.6453226]]}, "properties": {"highway": "trunk", "lanes": "1", "name": "Antigo Itiner\u00e1rio Principal 5", "old_ref": "IP 5", "oneway": "yes", "ref": "ex-IP 5", "source": "Bing", "surface": "asphalt", "toll": "no"}}, {"type": "Feature", "geometry": {"type": "LineString", "coordinates": [[-8.080433, 40.6686148], [-8.079851, 40.6700969], [-8.0795107, 40.6709301], [-8.079381, 40.6712822], [-8.0793053, 40.6715905], [-8.0792574, 40.6719146], [-8.0792506, 40.6722122], [-8.0792667, 40.672491], [-8.0793239, 40.6727442], [-8.0794263, 40.6730734], [-8.0795612, 40.6733933], [-8.0808421, 40.676319], [-8.0813718, 40.6775292]]}, "properties": {"highway": "trunk", "lanes": "3", "lanes:backward": "1", "lanes:forward": "2", "name": "Antigo Itiner\u00e1rio Principal 5", "old_ref": "IP 5", "oneway": "no", "ref": "ex-IP 5", "surface": "asphalt", "toll": "no"}}, {"type": "Feature", "geometry": {"type": "LineString", "coordinates": [[-8.0765284, 40.6509476], [-8.0767246, 40.6517169], [-8.0768238, 40.6519802], [-8.0769288, 40.6521973], [-8.0770862, 40.6524722], [-8.0772997, 40.6527364], [-8.0775257, 40.652964], [-8.0777646, 40.6531448], [-8.0779619, 40.6532869], [-8.0782899, 40.6534797], [-8.0789282, 40.6537624], [-8.0792534, 40.6539179], [-8.0795469, 40.6540967], [-8.0799486, 40.6544105], [-8.0801596, 40.6546283], [-8.0803379, 40.6548532], [-8.0804301, 40.6549919], [-8.0805085, 40.6551209]]}, "properties": {"highway": "trunk", "lanes": "2", "lanes:backward": "1", "name": "Antigo Itiner\u00e1rio Principal 5", "old_ref": "IP 5", "oneway": "no", "ref": "ex-IP 5", "surface": "asphalt", "toll": "no"}}, {"type": "Feature", "geometry": {"type": "LineString", "coordinates": [[-8.0806651, 40.6668836], [-8.0806978, 40.6670522], [-8.0807272, 40.66726], [-8.0807364, 40.6674094], [-8.0807318, 40.6675639], [-8.0807213, 40.6676929], [-8.0806961, 40.6678532], [-8.0806582, 40.6680376]]}, "properties": {"highway": "trunk", "lanes": "2", "lanes:backward": "1", "name": "Antigo Itiner\u00e1rio Principal 5", "old_ref": "IP 5", "oneway": "no", "ref": "ex-IP 5", "surface": "asphalt", "toll": "no"}}, {"type": "Feature", "geometry": {"type": "LineString", "coordinates": [[-8.0813718, 40.6775292], [-8.0821509, 40.6793094], [-8.0822868, 40.679651], [-8.0823922, 40.679991], [-8.0824534, 40.6802732], [-8.0824965, 40.6806513], [-8.0825511, 40.6819685], [-8.0825837, 40.6823018], [-8.082657, 40.6826104], [-8.0827813, 40.6829335], [-8.0829544, 40.6832566], [-8.0834289, 40.6840216], [-8.0849152, 40.6863907]]}, "properties": {"highway": "trunk", "lanes": "3", "lanes:backward": "1", "lanes:forward": "2", "name": "Antigo Itiner\u00e1rio Principal 5", "old_ref": "IP 5", "oneway": "no", "ref": "ex-IP 5", "surface": "asphalt", "toll": "no"}}, {"type": "Feature", "geometry": {"type": "LineString", "coordinates": [[-7.8623165, 40.6631345], [-7.8618755, 40.6656558], [-7.8617183, 40.6661667], [-7.8615032, 40.6667078], [-7.861205, 40.667245], [-7.8607974, 40.6678535]]}, "properties": {"highway": "trunk", "lanes": "2", "lanes:backward": "1", "maxspeed": "90", "name": "Antigo Itiner\u00e1rio Principal 5", "old_ref": "IP 5", "oneway": "no", "ref": "ex-IP 5", "surface": "asphalt", "toll": "no"}}, {"type": "Feature", "geometry": {"type": "LineString", "coordinates": [[-7.8622905, 40.6738776], [-7.8619733, 40.6737027], [-7.8616033, 40.6734767], [-7.8613234, 40.6732797], [-7.8610927, 40.6731022], [-7.8608621, 40.6729017]]}, "properties": {"highway": "trunk", "lanes": "2", "lanes:forward": "1", "maxspeed": "90", "name": "Antigo Itiner\u00e1rio Principal 5", "old_ref": "IP 5", "oneway": "yes", "ref": "ex-IP 5", "surface": "asphalt", "toll": "no"}}, {"type": "Feature", "geometry": {"type": "LineString", "coordinates": [[-7.8622905, 40.6738776], [-7.862479, 40.6739602], [-7.8627638, 40.6740683]]}, "properties": {"highway": "trunk", "lanes": "2", "lanes:backward": "1", "maxspeed": "90", "name": "Antigo Itiner\u00e1rio Principal 5", "old_ref": "IP 5", "oneway": "no", "ref": "ex-IP 5", "surface": "asphalt", "toll": "no"}}, {"type": "Feature", "geometry": {"type": "LineString", "coordinates": [[-7.8607974, 40.6678535], [-7.860662, 40.6679779], [-7.8605849, 40.6680577], [-7.8604827, 40.6681764], [-7.8603731, 40.6683156], [-7.8602473, 40.6684726], [-7.8601401, 40.668621], [-7.8599907, 40.6688727], [-7.8599084, 40.6690316], [-7.8598489, 40.6691685], [-7.8597602, 40.6694567], [-7.859712, 40.6696458], [-7.8596766, 40.6698274], [-7.8596375, 40.6700911], [-7.8596183, 40.6703546], [-7.8596251, 40.6706148], [-7.8596548, 40.6708918], [-7.8596786, 40.6710268], [-7.8597085, 40.671167], [-7.8597429, 40.6712854], [-7.8598026, 40.6714654], [-7.8599197, 40.6717566], [-7.8600521, 40.6720099], [-7.8601884, 40.6722399], [-7.8603123, 40.67242], [-7.8604535, 40.6726038], [-7.860674, 40.6728571], [-7.8609043, 40.673077], [-7.8611673, 40.6732895], [-7.8614053, 40.673454], [-7.861637, 40.6735946], [-7.8618356, 40.673701], [-7.8619922, 40.6737773], [-7.862115, 40.6738239], [-7.8622905, 40.6738776]]}, "properties": {"highway": "trunk", "lanes": "1", "lanes:forward": "1", "maxspeed": "90", "name": "Antigo Itiner\u00e1rio Principal 5", "old_ref": "IP 5", "oneway": "yes", "ref": "ex-IP 5", "surface": "asphalt", "toll": "no"}}]}