{"type": "FeatureCollection", "features": [{"type": "Feature", "geometry": {"type": "LineString", "coordinates": [[-9.2346486, 38.7854002], [-9.2343893, 38.7852943], [-9.2340058, 38.7851953]]}, "properties": {"bridge": "aqueduct", "highway": "trunk", "lanes": "3", "layer": "1", "lit": "yes", "maxspeed": "PT:trunk", "oneway": "yes", "ref": "IC 16", "surface": "asphalt"}}, {"type": "Feature", "geometry": {"type": "LineString", "coordinates": [[-9.2065175, 38.7674018], [-9.2066792, 38.7675296], [-9.2069125, 38.7677139], [-9.207163, 38.7678968], [-9.2073657, 38.7680319], [-9.2076098, 38.7681773], [-9.208041, 38.7683721], [-9.2082607, 38.7684813]]}, "properties": {"bicycle": "no", "destination": "S\u00e3o Br\u00e1s;CREL", "foot": "no", "highway": "trunk", "lanes": "2", "maxspeed": "70", "oneway": "yes", "ref": "IC 16", "surface": "asphalt", "toll": "no"}}, {"type": "Feature", "geometry": {"type": "LineString", "coordinates": [[-9.2305048, 38.7842696], [-9.2304069, 38.7842114], [-9.2299949, 38.7838768], [-9.2297288, 38.7835757], [-9.2294971, 38.7831877], [-9.2293641, 38.7828737], [-9.2292858, 38.7824801], [-9.2292628, 38.7822332]]}, "properties": {"highway": "trunk", "lanes": "3", "lit": "yes", "maxspeed": "80", "oneway": "yes", "ref": "IC 16", "surface": "asphalt", "toll": "no"}}, {"type": "Feature", "geometry": {"type": "LineString", "coordinates": [[-9.2339895, 38.7853269], [-9.2343568, 38.78545], [-9.2346316, 38.7855482]]}, "properties": {"bridge": "aqueduct", "highway": "trunk", "lanes": "3", "layer": "1", "lit": "yes", "maxspeed": "80", "oneway": "yes", "ref": "IC 16", "surface": "asphalt"}}, {"type": "Feature", "geometry": {"type": "LineString", "coordinates": [[-9.2346316, 38.7855482], [-9.2348309, 38.7856435], [-9.2351562, 38.7858436], [-9.2355236, 38.7861384], [-9.2356978, 38.7863176], [-9.2358362, 38.7864947], [-9.2360561, 38.786847]]}, "properties": {"bicycle": "no", "foot": "no", "highway": "trunk", "horse": "no", "lanes": "3", "lit": "yes", "maxspeed": "80", "oneway": "yes", "ref": "IC 16", "surface": "asphalt", "toll": "no"}}, {"type": "Feature", "geometry": {"type": "LineString", "coordinates": [[-9.2292628, 38.7822332], [-9.2292584, 38.7818945]]}, "properties": {"bridge": "viaduct", "highway": "trunk", "lanes": "3", "layer": "1", "lit": "yes", "maxspeed": "80", "oneway": "yes", "ref": "IC 16", "surface": "asphalt", "toll": "no"}}, {"type": "Feature", "geometry": {"type": "LineString", "coordinates": [[-9.2258219, 38.7760475], [-9.2247925, 38.7755992], [-9.2237325, 38.7751952], [-9.2232909, 38.7750179], [-9.2227256, 38.7747535], [-9.222186, 38.774452], [-9.2214912, 38.7740209], [-9.2209913, 38.773626], [-9.2203904, 38.7732513], [-9.2197639, 38.77289], [-9.2192868, 38.7726997], [-9.2186267, 38.7724911], [-9.2182678, 38.7724122]]}, "properties": {"highway": "trunk", "incline": "-7\u00ba", "lanes": "3", "lit": "yes", "maxspeed": "80", "maxspeed:advisory": "60", "oneway": "yes", "ref": "IC 16", "surface": "asphalt", "toll": "no"}}, {"type": "Feature", "geometry": {"type": "LineString", "coordinates": [[-9.2290559, 38.7819116], [-9.2290738, 38.7822466]]}, "properties": {"bridge": "viaduct", "highway": "trunk", "lanes": "4", "layer": "1", "lit": "yes", "maxspeed": "80", "oneway": "yes", "ref": "IC 16", "surface": "asphalt", "toll": "no"}}, {"type": "Feature", "geometry": {"type": "LineString", "coordinates": [[-9.2290738, 38.7822466], [-9.2290939, 38.7825066], [-9.229183, 38.7828969], [-9.2293176, 38.7832342], [-9.2295433, 38.7836351], [-9.2298232, 38.7839638], [-9.2303382, 38.7843749]]}, "properties": {"highway": "trunk", "lanes": "4", "lit": "yes", "maxspeed": "80", "oneway": "yes", "ref": "IC 16", "surface": "asphalt", "toll": "no"}}, {"type": "Feature", "geometry": {"type": "LineString", "coordinates": [[-9.2027583, 38.7636843], [-9.2029984, 38.7640525], [-9.203218, 38.7642871], [-9.2033606, 38.7644123], [-9.203482, 38.7645107], [-9.2038481, 38.7647847], [-9.2041768, 38.7650263], [-9.2043108, 38.7651236]]}, "properties": {"highway": "trunk", "lanes": "3", "maxspeed": "70", "motorroad": "yes", "oneway": "yes", "ref": "IC 16", "surface": "asphalt", "toll": "no"}}, {"type": "Feature", "geometry": {"type": "LineString", "coordinates": [[-9.2016813, 38.7614024], [-9.2012789, 38.7606936], [-9.2012185, 38.7605758], [-9.2012098, 38.760535], [-9.2011761, 38.7603807]]}, "properties": {"highway": "trunk", "lanes": "3", "maxspeed": "50", "motorroad": "yes", "oneway": "yes", "ref": "IC 16", "toll": "no"}}, {"type": "Feature", "geometry": {"type": "LineString", "coordinates": [[-9.2044709, 38.7650158], [-9.2041731, 38.7648129], [-9.2039583, 38.7646563], [-9.2035834, 38.7643685], [-9.2034391, 38.7642423], [-9.2032729, 38.7640852], [-9.2031698, 38.7639645], [-9.2029433, 38.763625]]}, "properties": {"highway": "trunk", "lanes": "3", "maxspeed": "70", "motorroad": "yes", "oneway": "yes", "ref": "IC 16", "surface": "asphalt", "toll": "no"}}, {"type": "Feature", "geometry": {"type": "LineString", "coordinates": [[-9.2007893, 38.7604988], [-9.2009603, 38.760606], [-9.2009932, 38.7606343], [-9.2010818, 38.7607106], [-9.2011971, 38.7609259]]}, "properties": {"destination": "S\u00e3o Br\u00e1s;CREL;CRIL", "highway": "trunk", "lanes": "3", "motorroad": "yes", "oneway": "yes", "ref": "IC 16", "surface": "asphalt", "toll": "no"}}, {"type": "Feature", "geometry": {"type": "LineString", "coordinates": [[-9.2052423, 38.7656712], [-9.2050254, 38.7655013], [-9.2044709, 38.7650158]]}, "properties": {"highway": "trunk", "lanes": "3", "maxspeed": "70", "motorroad": "yes", "oneway": "yes", "ref": "IC 16", "toll": "no", "tunnel": "yes"}}, {"type": "Feature", "geometry": {"type": "LineString", "coordinates": [[-9.2043108, 38.7651236], [-9.2050822, 38.7657591]]}, "properties": {"highway": "trunk", "lanes": "3", "maxspeed": "70", "motorroad": "yes", "oneway": "yes", "ref": "IC 16", "surface": "asphalt", "toll": "no", "tunnel": "yes"}}, {"type": "Feature", "geometry": {"type": "LineString", "coordinates": [[-9.2156835, 38.7722747], [-9.2167141, 38.772359], [-9.2176267, 38.7724461], [-9.2185694, 38.7726288], [-9.2193647, 38.7729109], [-9.220111, 38.7732789], [-9.2213587, 38.7741262]]}, "properties": {"highway": "trunk", "lanes": "4", "lit": "yes", "maxspeed": "80", "oneway": "yes", "ref": "IC 16", "surface": "asphalt", "toll": "no"}}, {"type": "Feature", "geometry": {"type": "LineString", "coordinates": [[-9.2082261, 38.7683153], [-9.2078586, 38.7681621], [-9.2076941, 38.7680868], [-9.2074958, 38.7679734], [-9.207054, 38.7676695], [-9.2066141, 38.767293], [-9.2061635, 38.7667326]]}, "properties": {"bicycle": "no", "destination": "2\u00aa Circular;Benfica;Pontinha", "foot": "no", "highway": "trunk", "lanes": "2", "maxspeed": "70", "oneway": "yes", "ref": "IC 16", "surface": "asphalt", "toll": "no"}}, {"type": "Feature", "geometry": {"type": "LineString", "coordinates": [[-9.2374583, 38.7900173], [-9.2372347, 38.7896572], [-9.2370126, 38.7891764], [-9.2369199, 38.7889473], [-9.236761, 38.7884845], [-9.2366575, 38.7880765], [-9.2363786, 38.7871503], [-9.2362263, 38.7867844]]}, "properties": {"bicycle": "no", "destination:ref": "IC 16", "foot": "no", "highway": "trunk", "horse": "no", "lanes": "3", "lit": "yes", "maxspeed": "PT:trunk", "oneway": "yes", "ref": "IC 16", "surface": "asphalt", "toll": "no"}}, {"type": "Feature", "geometry": {"type": "LineString", "coordinates": [[-9.2061635, 38.7667326], [-9.2052423, 38.7656712]]}, "properties": {"highway": "trunk", "lanes": "3", "maxspeed": "70", "oneway": "yes", "ref": "IC 16", "surface": "asphalt", "toll": "no"}}, {"type": "Feature", "geometry": {"type": "LineString", "coordinates": [[-9.2091353, 38.7686641], [-9.2082261, 38.7683153]]}, "properties": {"bicycle": "no", "foot": "no", "highway": "trunk", "lanes": "3", "lit": "yes", "maxspeed": "70", "oneway": "yes", "ref": "IC 16", "surface": "asphalt", "toll": "no", "turn:lanes": "through|through|right"}}, {"type": "Feature", "geometry": {"type": "LineString", "coordinates": [[-9.2050822, 38.7657591], [-9.2065175, 38.7674018]]}, "properties": {"highway": "trunk", "lanes": "3", "maxspeed": "70", "oneway": "yes", "ref": "IC 16", "surface": "asphalt", "toll": "no", "turn:lanes": "through|through|right"}}, {"type": "Feature", "geometry": {"type": "LineString", "coordinates": [[-9.2082607, 38.7684813], [-9.2092038, 38.768828]]}, "properties": {"bicycle": "no", "foot": "no", "highway": "trunk", "lanes": "3", "lit": "yes", "maxspeed": "70", "oneway": "yes", "placement": "right_of:1", "ref": "IC 16", "surface": "asphalt", "toll": "no", "turn:lanes": "through|through|right"}}, {"type": "Feature", "geometry": {"type": "LineString", "coordinates": [[-9.2122104, 38.7709225], [-9.2118414, 38.7705455], [-9.2115167, 38.7701912]]}, "properties": {"highway": "trunk", "lanes": "3", "lit": "yes", "maxspeed": "70", "oneway": "yes", "ref": "IC 16", "surface": "asphalt", "toll": "no", "turn:lanes": "through|through|right"}}, {"type": "Feature", "geometry": {"type": "LineString", "coordinates": [[-9.2115167, 38.7701912], [-9.2110974, 38.769786], [-9.2106111, 38.7693987], [-9.2102017, 38.7691443], [-9.2099507, 38.7690175], [-9.2096758, 38.7688977], [-9.2091353, 38.7686641]]}, "properties": {"bicycle": "no", "destination": "2\u00aa Circular;Benfica;Pontinha", "foot": "no", "highway": "trunk", "lanes": "2", "lit": "yes", "maxspeed": "70", "oneway": "yes", "ref": "IC 16", "surface": "asphalt", "toll": "no"}}, {"type": "Feature", "geometry": {"type": "LineString", "coordinates": [[-9.2100015, 38.7691836], [-9.2102297, 38.7692923], [-9.2105228, 38.7694831], [-9.2107614, 38.76966], [-9.2109976, 38.7698632], [-9.2115895, 38.7704824], [-9.2116253, 38.7705787]]}, "properties": {"bicycle": "no", "destination": "S\u00e3o Br\u00e1s;CREL", "foot": "no", "highway": "trunk", "lanes": "2", "lit": "yes", "maxspeed": "80", "oneway": "yes", "ref": "IC 16", "surface": "asphalt", "toll": "no"}}, {"type": "Feature", "geometry": {"type": "LineString", "coordinates": [[-9.224738, 38.7757416], [-9.2251216, 38.7758957], [-9.2257157, 38.7761688], [-9.2261449, 38.7764423], [-9.2265703, 38.7767978], [-9.2270128, 38.7773026], [-9.2281908, 38.7789527], [-9.2287118, 38.7797264], [-9.2289193, 38.7801504], [-9.2290293, 38.7805962], [-9.2290758, 38.7811065], [-9.2290559, 38.7819116]]}, "properties": {"highway": "trunk", "lanes": "4", "lit": "yes", "maxspeed": "80", "oneway": "yes", "ref": "IC 16", "surface": "asphalt", "toll": "no"}}, {"type": "Feature", "geometry": {"type": "LineString", "coordinates": [[-9.2213587, 38.7741262], [-9.2220743, 38.7745775]]}, "properties": {"highway": "trunk", "lanes": "5", "lit": "yes", "maxspeed": "80", "oneway": "yes", "ref": "IC 16", "surface": "asphalt", "toll": "no", "turn:lanes": "through|through|through|through|right"}}, {"type": "Feature", "geometry": {"type": "LineString", "coordinates": [[-9.2182678, 38.7724122], [-9.2178692, 38.7723245], [-9.2171666, 38.7722458]]}, "properties": {"highway": "trunk", "incline": "-7\u00ba", "lanes": "4", "lit": "yes", "maxspeed": "80", "oneway": "yes", "placement": "middle_of:2", "ref": "IC 16", "surface": "asphalt", "toll": "no"}}, {"type": "Feature", "geometry": {"type": "LineString", "coordinates": [[-9.2364633, 38.7881026], [-9.2365781, 38.7885112], [-9.2367259, 38.7889768]]}, "properties": {"bicycle": "no", "foot": "no", "highway": "trunk", "horse": "no", "lanes": "3", "lit": "yes", "maxspeed": "80", "oneway": "yes", "ref": "IC 16", "surface": "asphalt", "toll": "no"}}, {"type": "Feature", "geometry": {"type": "LineString", "coordinates": [[-9.2318341, 38.7848091], [-9.2315291, 38.7847357], [-9.2312451, 38.7846437]]}, "properties": {"highway": "trunk", "lanes": "4", "lit": "yes", "maxspeed": "80", "oneway": "yes", "placement": "middle_of:2", "ref": "IC 16", "surface": "asphalt", "toll": "no"}}, {"type": "Feature", "geometry": {"type": "LineString", "coordinates": [[-9.2340058, 38.7851953], [-9.233573, 38.7850925], [-9.2330837, 38.7850151], [-9.2324719, 38.784927], [-9.2318341, 38.7848091]]}, "properties": {"highway": "trunk", "lanes": "3", "lit": "yes", "maxspeed": "80", "oneway": "yes", "ref": "IC 16", "surface": "asphalt"}}, {"type": "Feature", "geometry": {"type": "LineString", "coordinates": [[-9.2303382, 38.7843749], [-9.2307078, 38.7845915], [-9.2310738, 38.7847596], [-9.2314562, 38.7848856]]}, "properties": {"change:lanes": "yes|not_right|not_left|yes", "highway": "trunk", "lanes": "4", "lit": "yes", "maxspeed": "80", "oneway": "yes", "ref": "IC 16", "surface": "asphalt", "toll": "no", "turn:lanes": "through|through|through|right"}}, {"type": "Feature", "geometry": {"type": "LineString", "coordinates": [[-9.2360561, 38.786847], [-9.2361438, 38.7870291], [-9.2362109, 38.7872026], [-9.2364633, 38.7881026]]}, "properties": {"bicycle": "no", "foot": "no", "highway": "trunk", "horse": "no", "lanes": "4", "lit": "yes", "maxspeed": "80", "oneway": "yes", "placement": "middle_of:2", "ref": "IC 16", "surface": "asphalt", "toll": "no"}}, {"type": "Feature", "geometry": {"type": "LineString", "coordinates": [[-9.2356926, 38.7860715], [-9.2352634, 38.7857453], [-9.2349255, 38.7855321], [-9.2346486, 38.7854002]]}, "properties": {"bicycle": "no", "destination": "CRIL", "foot": "no", "highway": "trunk", "horse": "no", "lanes": "3", "lit": "yes", "maxspeed": "PT:trunk", "oneway": "yes", "ref": "IC 16", "surface": "asphalt", "toll": "no"}}, {"type": "Feature", "geometry": {"type": "LineString", "coordinates": [[-9.2362263, 38.7867844], [-9.2359983, 38.786429], [-9.2358428, 38.7862388], [-9.2356926, 38.7860715]]}, "properties": {"bicycle": "no", "foot": "no", "highway": "trunk", "horse": "no", "lanes": "4", "lit": "yes", "maxspeed": "PT:trunk", "oneway": "yes", "placement": "middle_of:2", "ref": "IC 16", "surface": "asphalt", "toll": "no", "turn:lanes": "through|through|through|slight_right"}}, {"type": "Feature", "geometry": {"type": "LineString", "coordinates": [[-9.2369713, 38.7895747], [-9.2370424, 38.7897231], [-9.2372113, 38.789997], [-9.2374316, 38.790325]]}, "properties": {"bicycle": "no", "foot": "no", "highway": "trunk", "horse": "no", "lanes": "3", "lit": "yes", "maxspeed": "60", "oneway": "yes", "ref": "IC 16", "surface": "asphalt", "toll": "no"}}, {"type": "Feature", "geometry": {"type": "LineString", "coordinates": [[-9.2220743, 38.7745775], [-9.2227727, 38.7749522], [-9.2232373, 38.7751684], [-9.2236619, 38.7753451], [-9.224738, 38.7757416]]}, "properties": {"destination": "Belas;CREL", "destination:ref:to": "A 9", "destination:symbol": "motorway", "highway": "trunk", "lanes": "4", "lit": "yes", "maxspeed": "80", "oneway": "yes", "ref": "IC 16", "surface": "asphalt"}}, {"type": "Feature", "geometry": {"type": "LineString", "coordinates": [[-9.2136768, 38.7719665], [-9.2142263, 38.772114], [-9.2146411, 38.7721764], [-9.2150837, 38.7722205], [-9.2156835, 38.7722747]]}, "properties": {"highway": "trunk", "lanes": "5", "lit": "yes", "maxspeed": "80", "oneway": "yes", "placement": "right_of:2", "ref": "IC 16", "surface": "asphalt", "toll": "no", "turn:lanes": "through|through|through|through|right"}}, {"type": "Feature", "geometry": {"type": "LineString", "coordinates": [[-9.2314562, 38.7848856], [-9.2322211, 38.7850349], [-9.2330606, 38.7851522], [-9.2335208, 38.7852317], [-9.2339895, 38.7853269]]}, "properties": {"destination": "CREL", "destination:ref:to": "A 9", "highway": "trunk", "lanes": "3", "lit": "yes", "maxspeed": "80", "oneway": "yes", "ref": "IC 16", "surface": "asphalt"}}, {"type": "Feature", "geometry": {"type": "LineString", "coordinates": [[-9.2116253, 38.7705787], [-9.2117059, 38.7706584], [-9.2119479, 38.7709167], [-9.2124615, 38.7713566], [-9.2130655, 38.7717169]]}, "properties": {"highway": "trunk", "lanes": "4", "lit": "yes", "oneway": "yes", "ref": "IC 16", "surface": "asphalt", "toll": "no"}}, {"type": "Feature", "geometry": {"type": "LineString", "coordinates": [[-9.2171666, 38.7722458], [-9.2157786, 38.7721279], [-9.215136, 38.7720777], [-9.2146915, 38.7720259], [-9.214246, 38.7719548], [-9.2135677, 38.7717594], [-9.2130801, 38.771541], [-9.2126143, 38.7712545], [-9.2122104, 38.7709225]]}, "properties": {"highway": "trunk", "incline": "-7\u00ba", "lanes": "3", "lit": "yes", "maxspeed": "80", "oneway": "yes", "ref": "IC 16", "surface": "asphalt", "toll": "no"}}, {"type": "Feature", "geometry": {"type": "LineString", "coordinates": [[-9.2029433, 38.763625], [-9.2027816, 38.7633401]]}, "properties": {"bridge": "yes", "highway": "trunk", "lanes": "3", "layer": "1", "maxspeed": "70", "motorroad": "yes", "oneway": "yes", "ref": "IC 16", "toll": "no"}}, {"type": "Feature", "geometry": {"type": "LineString", "coordinates": [[-9.202572, 38.7633596], [-9.2027583, 38.7636843]]}, "properties": {"bridge": "yes", "destination": "S\u00e3o Br\u00e1s;CREL;CRIL", "highway": "trunk", "lanes": "3", "layer": "1", "maxspeed": "70", "motorroad": "yes", "oneway": "yes", "ref": "IC 16", "surface": "asphalt", "toll": "no"}}, {"type": "Feature", "geometry": {"type": "LineString", "coordinates": [[-9.2292629, 38.7816005], [-9.2292707, 38.781096], [-9.2292305, 38.7805774], [-9.2291039, 38.7801099], [-9.2290481, 38.7799962]]}, "properties": {"highway": "trunk", "incline": "-7\u00ba", "lanes": "3", "lit": "yes", "maxspeed": "80", "oneway": "yes", "ref": "IC 16", "surface": "asphalt", "toll": "no"}}, {"type": "Feature", "geometry": {"type": "LineString", "coordinates": [[-9.2292584, 38.7818945], [-9.2292629, 38.7816005]]}, "properties": {"highway": "trunk", "lanes": "3", "lit": "yes", "maxspeed": "80", "oneway": "yes", "ref": "IC 16", "surface": "asphalt", "toll": "no"}}, {"type": "Feature", "geometry": {"type": "LineString", "coordinates": [[-9.2312451, 38.7846437], [-9.2309658, 38.784535], [-9.230836, 38.7844664], [-9.2305048, 38.7842696]]}, "properties": {"highway": "trunk", "lanes": "3", "lit": "yes", "maxspeed": "80", "oneway": "yes", "ref": "IC 16", "surface": "asphalt", "toll": "no"}}, {"type": "Feature", "geometry": {"type": "LineString", "coordinates": [[-9.2130655, 38.7717169], [-9.2136768, 38.7719665]]}, "properties": {"highway": "trunk", "lanes": "4", "lit": "yes", "maxspeed": "80", "oneway": "yes", "ref": "IC 16", "surface": "asphalt", "toll": "no"}}, {"type": "Feature", "geometry": {"type": "LineString", "coordinates": [[-9.2092038, 38.768828], [-9.2096436, 38.7690069], [-9.2100015, 38.7691836]]}, "properties": {"bicycle": "no", "destination": "S\u00e3o Br\u00e1s;CREL", "foot": "no", "highway": "trunk", "lanes": "2", "lit": "yes", "maxspeed": "70", "oneway": "yes", "ref": "IC 16", "surface": "asphalt", "toll": "no"}}, {"type": "Feature", "geometry": {"type": "LineString", "coordinates": [[-9.2011971, 38.7609259], [-9.2014983, 38.7614884], [-9.202572, 38.7633596]]}, "properties": {"destination": "S\u00e3o Br\u00e1s;CREL;CRIL", "highway": "trunk", "lanes": "3", "maxspeed": "70", "motorroad": "yes", "oneway": "yes", "ref": "IC 16", "surface": "asphalt", "toll": "no"}}, {"type": "Feature", "geometry": {"type": "LineString", "coordinates": [[-9.2367259, 38.7889768], [-9.2368149, 38.7892268], [-9.2369713, 38.7895747]]}, "properties": {"bicycle": "no", "foot": "no", "highway": "trunk", "horse": "no", "lanes": "3", "lit": "yes", "maxspeed": "60", "oneway": "yes", "ref": "IC 16", "surface": "asphalt", "toll": "no"}}, {"type": "Feature", "geometry": {"type": "LineString", "coordinates": [[-9.238166, 38.7909083], [-9.2377883, 38.7904668], [-9.2374583, 38.7900173]]}, "properties": {"bicycle": "no", "destination:ref": "IC 16", "foot": "no", "highway": "trunk", "horse": "no", "lanes": "3", "lit": "yes", "maxspeed": "PT:rural", "oneway": "yes", "ref": "IC 16", "surface": "asphalt", "toll": "no"}}, {"type": "Feature", "geometry": {"type": "LineString", "coordinates": [[-9.2290481, 38.7799962], [-9.2288909, 38.7796754], [-9.2283599, 38.7789034], [-9.2279006, 38.7782297], [-9.2271882, 38.7772394], [-9.226721, 38.7767058], [-9.2262683, 38.7763353], [-9.2258219, 38.7760475]]}, "properties": {"highway": "trunk", "incline": "-7\u00ba", "lanes": "3", "lit": "yes", "maxspeed": "80", "maxspeed:advisory": "60", "oneway": "yes", "ref": "IC 16", "surface": "asphalt", "toll": "no"}}]}