{"type": "FeatureCollection", "features": [{"type": "Feature", "geometry": {"type": "LineString", "coordinates": [[-9.364678, 38.7833694], [-9.3642908, 38.7832586], [-9.3638653, 38.7831278], [-9.3632983, 38.7829731], [-9.3629908, 38.7828708]]}, "properties": {"bicycle": "no", "highway": "trunk", "lanes": "1", "oneway": "yes", "ref": "IC 19;A 37"}}, {"type": "Feature", "geometry": {"type": "LineString", "coordinates": [[-9.3028933, 38.7658818], [-9.3019706, 38.7658826], [-9.3014193, 38.7658534]]}, "properties": {"bicycle": "no", "highway": "trunk", "lanes": "4", "maxspeed": "100", "oneway": "yes", "placement": "middle_of:2", "ref": "IC 19;A 37"}}, {"type": "Feature", "geometry": {"type": "LineString", "coordinates": [[-9.2040732, 38.7405245], [-9.2057303, 38.7404006]]}, "properties": {"bicycle": "no", "bridge": "yes", "foot": "no", "highway": "trunk", "lanes": "5", "layer": "1", "lit": "yes", "maxspeed": "80", "maxweight:signed": "no", "oneway": "yes", "placement": "right_of:2", "ref": "IC 19;A 37", "surface": "asphalt", "turn:lanes": "through|through|through|right|right"}}, {"type": "Feature", "geometry": {"type": "LineString", "coordinates": [[-9.2040607, 38.7403887], [-9.2038711, 38.7404013]]}, "properties": {"bicycle": "no", "change:lanes": "yes|not_right|no|no", "foot": "no", "highway": "trunk", "lanes": "4", "lit": "yes", "maxspeed": "80", "name": "Avenida Eus\u00e9bio da Silva Ferreira/2\u00aa Circular", "name:etymology:wikidata": "Q162043", "oneway": "yes", "placement": "right_of:2", "ref": "IC 19;A 37", "surface": "asphalt", "turn:lanes": "through|through|through|right"}}, {"type": "Feature", "geometry": {"type": "LineString", "coordinates": [[-9.2140197, 38.7398875], [-9.2131685, 38.7398674], [-9.2123146, 38.7398518], [-9.2113449, 38.7398628]]}, "properties": {"bicycle": "no", "highway": "trunk", "lanes": "3", "lit": "yes", "oneway": "yes", "ref": "IC 19;A 37", "sidewalk": "no", "surface": "asphalt"}}, {"type": "Feature", "geometry": {"type": "LineString", "coordinates": [[-9.2057303, 38.7404006], [-9.2063965, 38.7403424], [-9.2069876, 38.7403106]]}, "properties": {"bicycle": "no", "highway": "trunk", "lanes": "3", "lit": "yes", "maxspeed": "80", "oneway": "yes", "ref": "IC 19;A 37", "surface": "asphalt"}}, {"type": "Feature", "geometry": {"type": "LineString", "coordinates": [[-9.2012169, 38.7407592], [-9.2023518, 38.7406727], [-9.2040732, 38.7405245]]}, "properties": {"foot": "no", "highway": "trunk", "lanes": "4", "lit": "yes", "maxspeed": "80", "oneway": "yes", "ref": "IC 19;A 37", "surface": "asphalt"}}, {"type": "Feature", "geometry": {"type": "LineString", "coordinates": [[-9.2536244, 38.7490946], [-9.2542774, 38.7489977], [-9.2545089, 38.7489448], [-9.2547661, 38.7488886], [-9.2550761, 38.7487867], [-9.256067, 38.748461], [-9.257315, 38.7480401], [-9.2577711, 38.7478953], [-9.2581232, 38.7477919], [-9.2584469, 38.7477149], [-9.2587574, 38.7476665], [-9.2593676, 38.7476294], [-9.259867, 38.7476321], [-9.2606792, 38.7476506]]}, "properties": {"bicycle": "no", "foot": "no", "highway": "trunk", "lanes": "3", "lit": "yes", "maxheight:signed": "no", "maxspeed": "100", "oneway": "yes", "ref": "IC 19;A 37", "sidewalk": "no", "surface": "asphalt"}}, {"type": "Feature", "geometry": {"type": "LineString", "coordinates": [[-9.2326121, 38.7448405], [-9.2336762, 38.7453185], [-9.234114, 38.745514]]}, "properties": {"bicycle": "no", "highway": "trunk", "lanes": "4", "lit": "yes", "maxheight:signed": "no", "maxspeed": "100", "oneway": "yes", "placement": "middle_of:2", "ref": "IC 19;A 37", "surface": "asphalt"}}, {"type": "Feature", "geometry": {"type": "LineString", "coordinates": [[-9.2337361, 38.7452144], [-9.2332121, 38.744985]]}, "properties": {"bicycle": "no", "highway": "trunk", "lanes": "3", "lit": "yes", "oneway": "yes", "ref": "IC 19;A 37", "sidewalk": "no", "surface": "asphalt"}}, {"type": "Feature", "geometry": {"type": "LineString", "coordinates": [[-9.2279791, 38.7426088], [-9.227439, 38.7424064], [-9.2271606, 38.7423126], [-9.2266902, 38.7421664]]}, "properties": {"bicycle": "no", "highway": "trunk", "lanes": "4", "lit": "yes", "oneway": "yes", "placement": "middle_of:2", "ref": "IC 19;A 37", "sidewalk": "no", "surface": "asphalt", "turn:lanes": "through|through|through|right"}}, {"type": "Feature", "geometry": {"type": "LineString", "coordinates": [[-9.3555296, 38.7803042], [-9.3547072, 38.7798761], [-9.3540238, 38.779524]]}, "properties": {"bicycle": "no", "highway": "trunk", "lanes": "3", "oneway": "yes", "ref": "IC 19;A 37"}}, {"type": "Feature", "geometry": {"type": "LineString", "coordinates": [[-9.3557293, 38.7804035], [-9.3555296, 38.7803042]]}, "properties": {"bicycle": "no", "bridge": "yes", "highway": "trunk", "lanes": "3", "layer": "1", "oneway": "yes", "ref": "IC 19;A 37"}}, {"type": "Feature", "geometry": {"type": "LineString", "coordinates": [[-9.3556954, 38.7805124], [-9.3564536, 38.7808901], [-9.3569682, 38.7811199], [-9.3575205, 38.7813464]]}, "properties": {"bicycle": "no", "highway": "trunk", "lanes": "3", "oneway": "yes", "ref": "IC 19;A 37", "surface": "asphalt", "turn:lanes": "through|through;right|right"}}, {"type": "Feature", "geometry": {"type": "LineString", "coordinates": [[-9.3554987, 38.7804053], [-9.3556954, 38.7805124]]}, "properties": {"bicycle": "no", "bridge": "yes", "highway": "trunk", "lanes": "3", "layer": "1", "oneway": "yes", "ref": "IC 19;A 37", "surface": "asphalt"}}, {"type": "Feature", "geometry": {"type": "LineString", "coordinates": [[-9.3360973, 38.7775861], [-9.3365155, 38.7775077]]}, "properties": {"bicycle": "no", "bridge": "yes", "highway": "trunk", "lanes": "4", "layer": "1", "maxspeed": "100", "oneway": "yes", "placement": "middle_of:2", "ref": "IC 19;A 37", "surface": "asphalt"}}, {"type": "Feature", "geometry": {"type": "LineString", "coordinates": [[-9.3362823, 38.7774429], [-9.33588, 38.7775239]]}, "properties": {"bicycle": "no", "bridge": "yes", "highway": "trunk", "lanes": "3", "layer": "1", "maxspeed": "100", "oneway": "yes", "ref": "IC 19;A 37"}}, {"type": "Feature", "geometry": {"type": "LineString", "coordinates": [[-9.329949, 38.7785018], [-9.329399, 38.7785254], [-9.3288147, 38.7785314], [-9.3281211, 38.7785055], [-9.3275564, 38.7784619], [-9.3271677, 38.7784321]]}, "properties": {"bicycle": "no", "highway": "trunk", "lanes": "3", "maxspeed": "100", "oneway": "yes", "ref": "IC 19;A 37"}}, {"type": "Feature", "geometry": {"type": "LineString", "coordinates": [[-9.3381391, 38.7771882], [-9.3420576, 38.7764253], [-9.3426872, 38.7763002], [-9.3432908, 38.7762072], [-9.3435233, 38.7761748], [-9.3439546, 38.7761364], [-9.344332, 38.7761106], [-9.3446158, 38.7761032], [-9.3450097, 38.7761063], [-9.3453728, 38.7761215], [-9.3462636, 38.7762198], [-9.3467334, 38.7763006], [-9.3470047, 38.776362]]}, "properties": {"bicycle": "no", "highway": "trunk", "lanes": "3", "maxheight:signed": "no", "maxspeed": "100", "oneway": "yes", "ref": "IC 19;A 37", "surface": "asphalt"}}, {"type": "Feature", "geometry": {"type": "LineString", "coordinates": [[-9.2272218, 38.7424537], [-9.2279254, 38.7427196], [-9.2286432, 38.7430363]]}, "properties": {"bicycle": "no", "highway": "trunk", "lanes": "3", "lit": "yes", "maxspeed": "100", "oneway": "yes", "placement": "middle_of:2", "ref": "IC 19;A 37", "sidewalk": "no", "surface": "asphalt", "turn:lanes": "through|through|through|right"}}, {"type": "Feature", "geometry": {"type": "LineString", "coordinates": [[-9.2145245, 38.739914], [-9.2140197, 38.7398875]]}, "properties": {"bicycle": "no", "bridge": "yes", "highway": "trunk", "lanes": "3", "layer": "1", "lit": "yes", "oneway": "yes", "ref": "IC 19;A 37", "sidewalk": "no", "surface": "asphalt"}}, {"type": "Feature", "geometry": {"type": "LineString", "coordinates": [[-9.2140103, 38.7400077], [-9.2145037, 38.7400341]]}, "properties": {"bicycle": "no", "bridge": "yes", "highway": "trunk", "lanes": "4", "layer": "1", "lit": "yes", "maxspeed": "100", "oneway": "yes", "placement": "middle_of:2", "ref": "IC 19;A 37", "surface": "asphalt"}}, {"type": "Feature", "geometry": {"type": "LineString", "coordinates": [[-9.2146484, 38.7400445], [-9.2151857, 38.7400763], [-9.2157677, 38.7401452], [-9.2163702, 38.7402663], [-9.2168372, 38.7403587]]}, "properties": {"bicycle": "no", "destination": "Sintra;Amadora", "highway": "trunk", "lanes": "3", "lit": "yes", "maxspeed": "100", "oneway": "yes", "ref": "IC 19;A 37", "surface": "asphalt"}}, {"type": "Feature", "geometry": {"type": "LineString", "coordinates": [[-9.2017297, 38.7405719], [-9.2013881, 38.7406055]]}, "properties": {"change:lanes": "yes|not_right|not_left|yes|yes", "destination:lanes": "aeroporto;Lisboa|aeroporto;Lisboa|aeroporto;Lisboa|SUL;Sete Rios;Campolide|SUL;Sete Rios;Campolide", "destination:ref:to:lanes": "|||A 2|A 2", "destination:street:lanes": "2\u00aa circular;IP 7-Eixo N-S|2\u00aa circular;IP 7-Eixo N-S|2\u00aa circular;IP 7-Eixo N-S||", "foot": "no", "highway": "trunk", "lanes": "5", "lit": "yes", "maxspeed": "80", "oneway": "yes", "ref": "IC 19;A 37", "sidewalk": "no", "surface": "asphalt", "turn:lanes": "through|through|through|right|right"}}, {"type": "Feature", "geometry": {"type": "LineString", "coordinates": [[-9.2002503, 38.7409936], [-9.2005584, 38.7408851], [-9.200855, 38.7408104], [-9.201134, 38.7407656], [-9.2012169, 38.7407592]]}, "properties": {"bridge": "viaduct", "foot": "no", "highway": "trunk", "lanes": "5", "layer": "1", "lit": "yes", "maxspeed": "80", "maxweight:signed": "no", "name": "Avenida Eus\u00e9bio da Silva Ferreira/2\u00aa Circular", "name:etymology:wikidata": "Q162043", "oneway": "yes", "ref": "IC 19;A 37", "surface": "asphalt", "turn:lanes": "through|through|through|through|slight_right"}}, {"type": "Feature", "geometry": {"type": "LineString", "coordinates": [[-9.2236879, 38.7416734], [-9.2241205, 38.7417513]]}, "properties": {"bicycle": "no", "bridge": "viaduct", "highway": "trunk", "lanes": "3", "layer": "1", "lit": "yes", "maxspeed": "100", "oneway": "yes", "ref": "IC 19;A 37", "surface": "asphalt"}}, {"type": "Feature", "geometry": {"type": "LineString", "coordinates": [[-9.2241604, 38.7416384], [-9.2237312, 38.7415583]]}, "properties": {"bicycle": "no", "bridge": "viaduct", "highway": "trunk", "lanes": "3", "layer": "1", "lit": "yes", "oneway": "yes", "ref": "IC 19;A 37", "sidewalk": "no", "surface": "asphalt"}}, {"type": "Feature", "geometry": {"type": "LineString", "coordinates": [[-9.2215873, 38.7411506], [-9.2196345, 38.7407649], [-9.2189139, 38.7406331], [-9.2168618, 38.7402301], [-9.2157735, 38.7400239], [-9.2152003, 38.7399517], [-9.2145245, 38.739914]]}, "properties": {"bicycle": "no", "destination": "Lisboa;2\u00aa Circular;Norte;Aeroporto", "destination:symbol": "motorway;airport", "highway": "trunk", "lanes": "3", "lit": "yes", "maxheight:signed": "no", "oneway": "yes", "placement": "middle_of:2", "ref": "IC 19;A 37", "sidewalk": "no", "surface": "asphalt"}}, {"type": "Feature", "geometry": {"type": "LineString", "coordinates": [[-9.2831691, 38.7490918], [-9.2830479, 38.7490552], [-9.2821002, 38.7487668], [-9.2819753, 38.7487288]]}, "properties": {"bicycle": "no", "bridge": "yes", "foot": "no", "highway": "trunk", "lanes": "3", "layer": "1", "lit": "yes", "maxspeed": "100", "oneway": "yes", "ref": "IC 19;A 37", "surface": "asphalt"}}, {"type": "Feature", "geometry": {"type": "LineString", "coordinates": [[-9.2568117, 38.7480847], [-9.2560069, 38.7483535], [-9.2549384, 38.748698], [-9.2547026, 38.748774], [-9.2542377, 38.7488793], [-9.2535887, 38.7489786], [-9.2520822, 38.7490624], [-9.2506225, 38.7491335]]}, "properties": {"bicycle": "no", "foot": "no", "highway": "trunk", "lanes": "3", "lit": "yes", "maxheight:signed": "no", "maxspeed": "80", "oneway": "yes", "ref": "IC 19;A 37", "sidewalk": "no", "surface": "asphalt"}}, {"type": "Feature", "geometry": {"type": "LineString", "coordinates": [[-9.2818658, 38.7488284], [-9.2820185, 38.7488755], [-9.2829753, 38.7491696], [-9.2830564, 38.7491939]]}, "properties": {"bicycle": "no", "bridge": "yes", "foot": "no", "highway": "trunk", "lanes": "3", "layer": "1", "lit": "yes", "maxspeed": "100", "oneway": "yes", "ref": "IC 19;A 37", "surface": "asphalt"}}, {"type": "Feature", "geometry": {"type": "LineString", "coordinates": [[-9.2853041, 38.750071], [-9.2856186, 38.7502649], [-9.2861758, 38.7506777], [-9.286817, 38.7511874], [-9.2880515, 38.7520703]]}, "properties": {"bicycle": "no", "foot": "no", "highway": "trunk", "lanes": "3", "lit": "yes", "maxheight": "5.6", "maxspeed": "100", "oneway": "yes", "ref": "IC 19;A 37", "surface": "asphalt"}}, {"type": "Feature", "geometry": {"type": "LineString", "coordinates": [[-9.205053, 38.7403217], [-9.2040607, 38.7403887]]}, "properties": {"bicycle": "no", "bridge": "yes", "change:lanes": "yes|not_right|not_left|yes", "foot": "no", "highway": "trunk", "lanes": "4", "layer": "1", "lit": "yes", "maxspeed": "80", "maxweight:signed": "no", "oneway": "yes", "ref": "IC 19;A 37", "sidewalk": "right", "surface": "asphalt", "turn:lanes": "through|through|through|right"}}, {"type": "Feature", "geometry": {"type": "LineString", "coordinates": [[-9.349471, 38.7771889], [-9.3488445, 38.7768826], [-9.3483886, 38.7766921]]}, "properties": {"bicycle": "no", "destination": "Lisboa;Algueir\u00e3o;Rio de Mouro", "highway": "trunk", "lanes": "3", "maxspeed": "100", "oneway": "yes", "ref": "IC 19;A 37", "surface": "asphalt"}}, {"type": "Feature", "geometry": {"type": "LineString", "coordinates": [[-9.2189036, 38.7407632], [-9.2195604, 38.7408834], [-9.2203057, 38.7410336], [-9.2214471, 38.741255]]}, "properties": {"bicycle": "no", "highway": "trunk", "lanes": "4", "lit": "yes", "maxspeed": "100", "oneway": "yes", "ref": "IC 19;A 37", "surface": "asphalt", "turn:lanes": "through|through|through|right"}}, {"type": "Feature", "geometry": {"type": "LineString", "coordinates": [[-9.2214471, 38.741255], [-9.2225191, 38.7414436], [-9.2236879, 38.7416734]]}, "properties": {"bicycle": "no", "destination": "Sintra;Amadora", "highway": "trunk", "lanes": "3", "lit": "yes", "maxspeed": "100", "oneway": "yes", "ref": "IC 19;A 37", "surface": "asphalt"}}, {"type": "Feature", "geometry": {"type": "LineString", "coordinates": [[-9.2114184, 38.7400247], [-9.2123146, 38.7399907], [-9.2131739, 38.7399888], [-9.2140103, 38.7400077]]}, "properties": {"bicycle": "no", "destination": "Sintra;Amadora", "highway": "trunk", "lanes": "3", "lit": "yes", "maxspeed": "100", "oneway": "yes", "ref": "IC 19;A 37", "surface": "asphalt"}}, {"type": "Feature", "geometry": {"type": "LineString", "coordinates": [[-9.2085931, 38.7402146], [-9.2098493, 38.7401096]]}, "properties": {"bicycle": "no", "highway": "trunk", "lanes": "4", "lit": "yes", "maxspeed": "100", "oneway": "yes", "ref": "IC 19;A 37", "surface": "asphalt"}}, {"type": "Feature", "geometry": {"type": "LineString", "coordinates": [[-9.2072309, 38.7401459], [-9.2059552, 38.7402517], [-9.2053914, 38.7402978]]}, "properties": {"bicycle": "no", "highway": "trunk", "lanes": "3", "lit": "yes", "maxspeed": "80", "oneway": "yes", "placement": "right_of:2", "ref": "IC 19;A 37", "sidewalk": "no", "surface": "asphalt"}}, {"type": "Feature", "geometry": {"type": "LineString", "coordinates": [[-9.2113449, 38.7398628], [-9.2098278, 38.7399401], [-9.2081779, 38.7400673]]}, "properties": {"bicycle": "no", "highway": "trunk", "lanes": "4", "lit": "yes", "oneway": "yes", "ref": "IC 19;A 37", "sidewalk": "no", "surface": "asphalt", "turn:lanes": "through|through|through|right"}}, {"type": "Feature", "geometry": {"type": "LineString", "coordinates": [[-9.3336778, 38.7780595], [-9.3360732, 38.777591], [-9.3360973, 38.7775861]]}, "properties": {"bicycle": "no", "destination": "Sintra;Mem Martins;Carcavelos", "highway": "trunk", "lanes": "3", "maxspeed": "100", "oneway": "yes", "ref": "IC 19;A 37", "surface": "asphalt"}}, {"type": "Feature", "geometry": {"type": "LineString", "coordinates": [[-9.2880515, 38.7520703], [-9.2892048, 38.7529614], [-9.2895428, 38.7533044], [-9.2897976, 38.7536725], [-9.2899612, 38.7539675], [-9.2900792, 38.754275], [-9.2901999, 38.7547958], [-9.2903019, 38.7552978], [-9.2904118, 38.7557747], [-9.2905679, 38.7561536], [-9.2907632, 38.7564858], [-9.2910148, 38.756785]]}, "properties": {"bicycle": "no", "foot": "no", "highway": "trunk", "lanes": "3", "lit": "yes", "maxspeed": "80", "oneway": "yes", "ref": "IC 19;A 37", "sidewalk": "no", "surface": "asphalt"}}, {"type": "Feature", "geometry": {"type": "LineString", "coordinates": [[-9.2979396, 38.764143], [-9.2985382, 38.7647248], [-9.2988476, 38.7649889], [-9.2992074, 38.7652581], [-9.2995266, 38.7654561], [-9.2998614, 38.7656233], [-9.3005579, 38.7658458], [-9.3008555, 38.7658952]]}, "properties": {"bicycle": "no", "destination": "Sintra;Cac\u00e9m Poente", "highway": "trunk", "lanes": "3", "lit": "yes", "maxspeed": "80", "oneway": "yes", "ref": "IC 19;A 37"}}, {"type": "Feature", "geometry": {"type": "LineString", "coordinates": [[-9.2943764, 38.7599577], [-9.2948276, 38.7604649], [-9.2956031, 38.7613747], [-9.2960691, 38.7619107]]}, "properties": {"bicycle": "no", "destination": "Sintra;Cac\u00e9m", "highway": "trunk", "lanes": "3", "lit": "yes", "maxspeed": "100", "oneway": "yes", "ref": "IC 19;A 37", "sidewalk": "no", "surface": "asphalt"}}, {"type": "Feature", "geometry": {"type": "LineString", "coordinates": [[-9.3281153, 38.7786157], [-9.3288183, 38.7786362], [-9.3294083, 38.7786349], [-9.3299385, 38.7786136]]}, "properties": {"bicycle": "no", "highway": "trunk", "lanes": "4", "maxspeed": "100", "oneway": "yes", "placement": "middle_of:2", "ref": "IC 19;A 37", "surface": "asphalt"}}, {"type": "Feature", "geometry": {"type": "LineString", "coordinates": [[-9.2967913, 38.7625469], [-9.296205, 38.7618704], [-9.2958728, 38.7614933], [-9.2951352, 38.7606543], [-9.2938533, 38.7591665], [-9.2932878, 38.7585492], [-9.2926274, 38.7579227], [-9.2920506, 38.7574521], [-9.2914563, 38.7569949], [-9.2911253, 38.7567201], [-9.2908624, 38.756398], [-9.2906855, 38.7560877], [-9.2905433, 38.7557391], [-9.2904302, 38.7552725], [-9.2903287, 38.7547477], [-9.2901946, 38.7542185], [-9.2900819, 38.7539026], [-9.2899022, 38.7535868], [-9.2896179, 38.753204], [-9.2892719, 38.752861]]}, "properties": {"bicycle": "no", "highway": "trunk", "lanes": "3", "lit": "yes", "maxspeed": "100", "oneway": "yes", "ref": "IC 19;A 37", "sidewalk": "no", "surface": "asphalt"}}, {"type": "Feature", "geometry": {"type": "LineString", "coordinates": [[-9.2069876, 38.7403106], [-9.2073987, 38.740286], [-9.2085931, 38.7402146]]}, "properties": {"bicycle": "no", "highway": "trunk", "lanes": "3", "lit": "yes", "maxspeed": "100", "oneway": "yes", "ref": "IC 19;A 37", "surface": "asphalt"}}, {"type": "Feature", "geometry": {"type": "LineString", "coordinates": [[-9.3598897, 38.7820587], [-9.3619463, 38.7826642]]}, "properties": {"bicycle": "no", "highway": "trunk", "lanes": "2", "oneway": "yes", "ref": "IC 19;A 37", "surface": "asphalt"}}, {"type": "Feature", "geometry": {"type": "LineString", "coordinates": [[-9.3630954, 38.7829966], [-9.3638794, 38.7832038], [-9.3641094, 38.7832591]]}, "properties": {"bicycle": "no", "destination": "Sintra;Cascais", "destination:ref": "EN 9", "highway": "trunk", "lanes": "1", "oneway": "yes", "ref": "IC 19;A 37"}}, {"type": "Feature", "geometry": {"type": "LineString", "coordinates": [[-9.3619011, 38.7825567], [-9.360753, 38.7822211], [-9.3599254, 38.7819813]]}, "properties": {"bicycle": "no", "highway": "trunk", "lanes": "2", "oneway": "yes", "ref": "IC 19;A 37"}}, {"type": "Feature", "geometry": {"type": "LineString", "coordinates": [[-9.3599254, 38.7819813], [-9.3585523, 38.781564], [-9.358067, 38.7814243], [-9.3575768, 38.7812461], [-9.3570342, 38.7810271], [-9.3565368, 38.780796], [-9.3557293, 38.7804035]]}, "properties": {"bicycle": "no", "highway": "trunk", "lanes": "3", "oneway": "yes", "ref": "IC 19;A 37"}}, {"type": "Feature", "geometry": {"type": "LineString", "coordinates": [[-9.2053914, 38.7402978], [-9.2052354, 38.7403068], [-9.2051201, 38.7403162], [-9.205053, 38.7403217]]}, "properties": {"bicycle": "no", "bridge": "yes", "change:lanes": "yes|not_right|not_left|yes", "foot": "no", "highway": "trunk", "lanes": "4", "layer": "1", "lit": "yes", "maxspeed": "80", "oneway": "yes", "placement": "right_of:2", "ref": "IC 19;A 37", "sidewalk": "right", "surface": "asphalt", "turn:lanes": "through|through|through|right"}}, {"type": "Feature", "geometry": {"type": "LineString", "coordinates": [[-9.2033902, 38.7404374], [-9.2021509, 38.7405305]]}, "properties": {"destination:lanes": "aeroporto;Lisboa|aeroporto;Lisboa|aeroporto;Lisboa;SUL;Sete Rios;Campolide", "destination:ref:to:lanes": "||A 2", "destination:street:lanes": "2\u00aa circular;IP 7-Eixo N-S|2\u00aa circular;IP 7-Eixo N-S|2\u00aa circular;IP 7-Eixo N-S", "foot": "no", "highway": "trunk", "lanes": "3", "lit": "yes", "maxspeed": "80", "oneway": "yes", "ref": "IC 19;A 37", "sidewalk": "no", "surface": "asphalt", "turn:lanes": "through|through|through;right"}}, {"type": "Feature", "geometry": {"type": "LineString", "coordinates": [[-9.2225507, 38.7413343], [-9.2215873, 38.7411506]]}, "properties": {"bicycle": "no", "highway": "trunk", "lanes": "4", "lit": "yes", "oneway": "yes", "placement": "middle_of:2", "ref": "IC 19;A 37", "sidewalk": "no", "surface": "asphalt", "turn:lanes": "through|through|through|right"}}, {"type": "Feature", "geometry": {"type": "LineString", "coordinates": [[-9.2298452, 38.7434442], [-9.2279791, 38.7426088]]}, "properties": {"bicycle": "no", "highway": "trunk", "lanes": "4", "lit": "yes", "maxheight:signed": "no", "oneway": "yes", "placement": "middle_of:2", "ref": "IC 19;A 37", "sidewalk": "no", "surface": "asphalt"}}, {"type": "Feature", "geometry": {"type": "LineString", "coordinates": [[-9.2145037, 38.7400341], [-9.2146484, 38.7400445]]}, "properties": {"bicycle": "no", "highway": "trunk", "lanes": "4", "lit": "yes", "maxspeed": "100", "oneway": "yes", "placement": "middle_of:2", "ref": "IC 19;A 37", "surface": "asphalt"}}, {"type": "Feature", "geometry": {"type": "LineString", "coordinates": [[-9.2326775, 38.7447327], [-9.2317112, 38.7442964]]}, "properties": {"bicycle": "no", "change:lanes": "yes|not_right|not_left|yes", "highway": "trunk", "lanes": "4", "lit": "yes", "oneway": "yes", "placement": "middle_of:2", "ref": "IC 19;A 37", "sidewalk": "no", "surface": "asphalt", "turn:lanes": "through|through|through|right"}}, {"type": "Feature", "geometry": {"type": "LineString", "coordinates": [[-9.2098493, 38.7401096], [-9.2114184, 38.7400247]]}, "properties": {"bicycle": "no", "highway": "trunk", "lanes": "4", "lit": "yes", "maxspeed": "100", "oneway": "yes", "ref": "IC 19;A 37", "surface": "asphalt", "turn:lanes": "through|through|through|right"}}, {"type": "Feature", "geometry": {"type": "LineString", "coordinates": [[-9.2168372, 38.7403587], [-9.2189036, 38.7407632]]}, "properties": {"bicycle": "no", "highway": "trunk", "lanes": "4", "lit": "yes", "maxheight:signed": "no", "maxspeed": "100", "oneway": "yes", "ref": "IC 19;A 37", "surface": "asphalt"}}, {"type": "Feature", "geometry": {"type": "LineString", "coordinates": [[-9.2371069, 38.7464432], [-9.2364147, 38.7462557]]}, "properties": {"bicycle": "no", "change:lanes": "yes|not_right|not_left", "foot": "no", "highway": "trunk", "lanes": "3", "lit": "yes", "maxspeed": "100", "oneway": "yes", "ref": "IC 19;A 37", "sidewalk": "no", "surface": "asphalt"}}, {"type": "Feature", "geometry": {"type": "LineString", "coordinates": [[-9.2265917, 38.7422692], [-9.2272218, 38.7424537]]}, "properties": {"bicycle": "no", "highway": "trunk", "lanes": "3", "lit": "yes", "maxspeed": "100", "oneway": "yes", "ref": "IC 19;A 37", "sidewalk": "no", "surface": "asphalt"}}, {"type": "Feature", "geometry": {"type": "LineString", "coordinates": [[-9.2286432, 38.7430363], [-9.2305271, 38.7438955]]}, "properties": {"bicycle": "no", "change:lanes": "yes|not_right|not_left|yes", "highway": "trunk", "lanes": "4", "lit": "yes", "maxheight": "6", "maxspeed": "100", "oneway": "yes", "placement": "middle_of:2", "ref": "IC 19;A 37", "surface": "asphalt", "turn:lanes": "through|through|through|right"}}, {"type": "Feature", "geometry": {"type": "LineString", "coordinates": [[-9.2332121, 38.744985], [-9.2326775, 38.7447327]]}, "properties": {"bicycle": "no", "highway": "trunk", "lanes": "4", "lit": "yes", "maxheight:signed": "no", "oneway": "yes", "placement": "middle_of:2", "ref": "IC 19;A 37", "sidewalk": "no", "surface": "asphalt"}}, {"type": "Feature", "geometry": {"type": "LineString", "coordinates": [[-9.2241205, 38.7417513], [-9.2261628, 38.7421603], [-9.2265917, 38.7422692]]}, "properties": {"bicycle": "no", "highway": "trunk", "lanes": "3", "lit": "yes", "maxspeed": "100", "oneway": "yes", "ref": "IC 19;A 37", "surface": "asphalt"}}, {"type": "Feature", "geometry": {"type": "LineString", "coordinates": [[-9.2305271, 38.7438955], [-9.2319444, 38.7445332], [-9.2326121, 38.7448405]]}, "properties": {"bicycle": "no", "destination": "Sintra;Queluz;Hospital", "destination:symbol": "hospital", "highway": "trunk", "lanes": "3", "lit": "yes", "maxspeed": "100", "oneway": "yes", "ref": "IC 19;A 37", "surface": "asphalt"}}, {"type": "Feature", "geometry": {"type": "LineString", "coordinates": [[-9.2353478, 38.7459126], [-9.2341885, 38.7454231], [-9.2337361, 38.7452144]]}, "properties": {"bicycle": "no", "destination": "Lisboa;Buraca;Aeroporto", "destination:symbol": "airport", "highway": "trunk", "lanes": "3", "lit": "yes", "maxspeed": "100", "oneway": "yes", "ref": "IC 19;A 37", "sidewalk": "no", "surface": "asphalt"}}, {"type": "Feature", "geometry": {"type": "LineString", "coordinates": [[-9.2237312, 38.7415583], [-9.2227078, 38.7413635], [-9.2225507, 38.7413343]]}, "properties": {"bicycle": "no", "highway": "trunk", "lanes": "3", "lit": "yes", "oneway": "yes", "ref": "IC 19;A 37", "sidewalk": "no", "surface": "asphalt"}}, {"type": "Feature", "geometry": {"type": "LineString", "coordinates": [[-9.2364147, 38.7462557], [-9.2360043, 38.7461395], [-9.2353478, 38.7459126]]}, "properties": {"bicycle": "no", "change:lanes": "yes|not_right|not_left|yes", "highway": "trunk", "lanes": "4", "lit": "yes", "maxheight:signed": "no", "maxspeed": "100", "oneway": "yes", "placement": "middle_of:2", "ref": "IC 19;A 37", "sidewalk": "no", "surface": "asphalt", "turn:lanes": "through|through|through|right"}}, {"type": "Feature", "geometry": {"type": "LineString", "coordinates": [[-9.2266902, 38.7421664], [-9.2261905, 38.7420436], [-9.2241604, 38.7416384]]}, "properties": {"bicycle": "no", "destination": "Lisboa;2\u00aa Circular;Norte;Aeroporto;Alg\u00e9s", "destination:ref:to": "IC 17", "destination:symbol": "motorway;airport", "highway": "trunk", "lanes": "3", "lit": "yes", "oneway": "yes", "ref": "IC 19;A 37", "sidewalk": "no", "surface": "asphalt"}}, {"type": "Feature", "geometry": {"type": "LineString", "coordinates": [[-9.2317112, 38.7442964], [-9.2306029, 38.7437984], [-9.2298452, 38.7434442]]}, "properties": {"bicycle": "no", "highway": "trunk", "lanes": "3", "lit": "yes", "oneway": "yes", "ref": "IC 19;A 37", "sidewalk": "no", "surface": "asphalt"}}, {"type": "Feature", "geometry": {"type": "LineString", "coordinates": [[-9.2429432, 38.7479951], [-9.2434741, 38.7481359]]}, "properties": {"bicycle": "no", "change:lanes": "yes|not_right|not_left|yes", "highway": "trunk", "lanes": "3", "lit": "yes", "maxspeed": "100", "oneway": "yes", "placement": "middle_of:2", "ref": "IC 19;A 37", "surface": "asphalt", "turn:lanes": "through|through|through|right"}}, {"type": "Feature", "geometry": {"type": "LineString", "coordinates": [[-9.244353, 38.7482278], [-9.2429755, 38.7478763]]}, "properties": {"bicycle": "no", "highway": "trunk", "lanes": "4", "lit": "yes", "maxspeed": "100", "oneway": "yes", "placement": "middle_of:2", "ref": "IC 19;A 37", "sidewalk": "no", "surface": "asphalt"}}, {"type": "Feature", "geometry": {"type": "LineString", "coordinates": [[-9.238895, 38.7470112], [-9.2394877, 38.747148]]}, "properties": {"bicycle": "no", "highway": "trunk", "lanes": "4", "lit": "yes", "maxspeed": "100", "oneway": "yes", "placement": "middle_of:2", "ref": "IC 19;A 37", "surface": "asphalt"}}, {"type": "Feature", "geometry": {"type": "LineString", "coordinates": [[-9.250623, 38.7492448], [-9.2521029, 38.749178]]}, "properties": {"bicycle": "no", "highway": "trunk", "lanes": "4", "lit": "yes", "maxspeed": "100", "oneway": "yes", "placement": "middle_of:2", "ref": "IC 19;A 37", "sidewalk": "no", "surface": "asphalt"}}, {"type": "Feature", "geometry": {"type": "LineString", "coordinates": [[-9.2394877, 38.747148], [-9.2411802, 38.747566], [-9.2429432, 38.7479951]]}, "properties": {"bicycle": "no", "highway": "trunk", "lanes": "3", "lit": "yes", "maxspeed": "100", "oneway": "yes", "ref": "IC 19;A 37", "surface": "asphalt"}}, {"type": "Feature", "geometry": {"type": "LineString", "coordinates": [[-9.2429755, 38.7478763], [-9.2412133, 38.7474499], [-9.2395254, 38.7470334], [-9.2371069, 38.7464432]]}, "properties": {"bicycle": "no", "foot": "no", "highway": "trunk", "lanes": "3", "lit": "yes", "maxspeed": "100", "oneway": "yes", "ref": "IC 19;A 37", "sidewalk": "no", "surface": "asphalt"}}, {"type": "Feature", "geometry": {"type": "LineString", "coordinates": [[-9.2506225, 38.7491335], [-9.2492476, 38.7491624], [-9.2482037, 38.7491017], [-9.2471694, 38.7489064], [-9.244353, 38.7482278]]}, "properties": {"bicycle": "no", "destination": "Lisboa;Amadora", "highway": "trunk", "lanes": "3", "lit": "yes", "maxheight:signed": "no", "maxspeed": "100", "oneway": "yes", "ref": "IC 19;A 37", "sidewalk": "no", "surface": "asphalt"}}, {"type": "Feature", "geometry": {"type": "LineString", "coordinates": [[-9.2434741, 38.7481359], [-9.2471866, 38.7490469], [-9.2481822, 38.7492143], [-9.2492492, 38.7492891], [-9.250623, 38.7492448]]}, "properties": {"bicycle": "no", "destination": "Sintra;Queluz", "highway": "trunk", "lanes": "3", "lit": "yes", "maxheight": "5.1", "maxspeed": "100", "oneway": "yes", "ref": "IC 19;A 37", "sidewalk": "no", "surface": "asphalt"}}, {"type": "Feature", "geometry": {"type": "LineString", "coordinates": [[-9.234114, 38.745514], [-9.2351793, 38.7459658], [-9.2359432, 38.7462403], [-9.236353, 38.7463666], [-9.2371069, 38.7465515], [-9.238895, 38.7470112]]}, "properties": {"bicycle": "no", "highway": "trunk", "lanes": "3", "lit": "yes", "maxheight": "5", "maxspeed": "100", "oneway": "yes", "ref": "IC 19;A 37", "surface": "asphalt"}}, {"type": "Feature", "geometry": {"type": "LineString", "coordinates": [[-9.2631832, 38.7476816], [-9.2643311, 38.7476984], [-9.2645415, 38.7477015]]}, "properties": {"bicycle": "no", "foot": "no", "highway": "trunk", "lanes": "4", "lit": "yes", "maxheight:signed": "no", "maxspeed": "100", "oneway": "yes", "placement": "middle_of:2", "ref": "IC 19;A 37", "surface": "asphalt", "turn:lanes": "through|through|through|right"}}, {"type": "Feature", "geometry": {"type": "LineString", "coordinates": [[-9.2725477, 38.7478067], [-9.2740757, 38.7478254]]}, "properties": {"bicycle": "no", "change:lanes": "yes|not_right|not_left|yes", "foot": "no", "highway": "trunk", "lanes": "4", "lit": "yes", "maxheight:signed": "no", "maxspeed": "100", "oneway": "yes", "placement": "middle_of:2", "ref": "IC 19;A 37", "surface": "asphalt"}}, {"type": "Feature", "geometry": {"type": "LineString", "coordinates": [[-9.2740757, 38.7478254], [-9.274944, 38.7478359]]}, "properties": {"bicycle": "no", "change:lanes": "yes|not_right|not_left", "foot": "no", "highway": "trunk", "lanes": "3", "lit": "yes", "maxspeed": "100", "oneway": "yes", "ref": "IC 19;A 37", "surface": "asphalt"}}, {"type": "Feature", "geometry": {"type": "LineString", "coordinates": [[-9.2681924, 38.7476392], [-9.2668479, 38.7476184]]}, "properties": {"bicycle": "no", "change:lanes": "yes|not_right|not_left|yes", "foot": "no", "highway": "trunk", "lanes": "4", "lit": "yes", "maxspeed": "80", "oneway": "yes", "placement": "middle_of:2", "ref": "IC 19;A 37", "sidewalk": "no", "surface": "asphalt", "turn:lanes": "through|through|through|right"}}, {"type": "Feature", "geometry": {"type": "LineString", "coordinates": [[-9.2645415, 38.7477015], [-9.2658048, 38.7477183]]}, "properties": {"bicycle": "no", "foot": "no", "highway": "trunk", "lanes": "3", "lit": "yes", "maxspeed": "100", "oneway": "yes", "ref": "IC 19;A 37", "surface": "asphalt", "turn:lanes": "through|through|through;right"}}, {"type": "Feature", "geometry": {"type": "LineString", "coordinates": [[-9.2694486, 38.7476484], [-9.2681924, 38.7476392]]}, "properties": {"bicycle": "no", "foot": "no", "highway": "trunk", "lanes": "4", "lit": "yes", "maxspeed": "80", "oneway": "yes", "placement": "middle_of:2", "ref": "IC 19;A 37", "sidewalk": "no", "surface": "asphalt", "turn:lanes": "through|through|through|right"}}, {"type": "Feature", "geometry": {"type": "LineString", "coordinates": [[-9.2668479, 38.7476184], [-9.2651332, 38.7475971]]}, "properties": {"bicycle": "no", "destination": "Lisboa;Amadora", "foot": "no", "highway": "trunk", "lanes": "3", "lit": "yes", "maxspeed": "80", "oneway": "yes", "ref": "IC 19;A 37", "sidewalk": "no", "surface": "asphalt"}}, {"type": "Feature", "geometry": {"type": "LineString", "coordinates": [[-9.2606792, 38.7476506], [-9.2631832, 38.7476816]]}, "properties": {"bicycle": "no", "destination": "Sintra;Cac\u00e9m;Massam\u00e1", "foot": "no", "highway": "trunk", "lanes": "3", "lit": "yes", "maxspeed": "100", "oneway": "yes", "ref": "IC 19;A 37", "surface": "asphalt"}}, {"type": "Feature", "geometry": {"type": "LineString", "coordinates": [[-9.2740697, 38.7477164], [-9.2711307, 38.7476705], [-9.2694486, 38.7476484]]}, "properties": {"bicycle": "no", "destination": "Lisboa;Queluz", "foot": "no", "highway": "trunk", "lanes": "3", "lit": "yes", "maxspeed": "80", "oneway": "yes", "ref": "IC 19;A 37", "sidewalk": "no", "surface": "asphalt"}}, {"type": "Feature", "geometry": {"type": "LineString", "coordinates": [[-9.2763838, 38.7477458], [-9.274954, 38.7477285], [-9.2740697, 38.7477164]]}, "properties": {"bicycle": "no", "change:lanes": "yes|not_right|not_left|yes", "foot": "no", "highway": "trunk", "lanes": "4", "lit": "yes", "maxspeed": "100", "oneway": "yes", "placement": "middle_of:2", "ref": "IC 19;A 37", "sidewalk": "no", "surface": "asphalt", "turn:lanes": "through|through|through|right"}}, {"type": "Feature", "geometry": {"type": "LineString", "coordinates": [[-9.2780425, 38.747822], [-9.2776751, 38.7477875], [-9.2769499, 38.74775], [-9.2763838, 38.7477458]]}, "properties": {"bicycle": "no", "foot": "no", "highway": "trunk", "lanes": "4", "lit": "yes", "maxspeed": "100", "oneway": "yes", "placement": "middle_of:2", "ref": "IC 19;A 37", "sidewalk": "no", "surface": "asphalt"}}, {"type": "Feature", "geometry": {"type": "LineString", "coordinates": [[-9.2658048, 38.7477183], [-9.2682244, 38.7477496], [-9.2711503, 38.7477848], [-9.2725477, 38.7478067]]}, "properties": {"bicycle": "no", "foot": "no", "highway": "trunk", "lanes": "3", "lit": "yes", "maxspeed": "100", "oneway": "yes", "ref": "IC 19;A 37", "surface": "asphalt"}}, {"type": "Feature", "geometry": {"type": "LineString", "coordinates": [[-9.2819753, 38.7487288], [-9.2802581, 38.7482192], [-9.2793392, 38.747999], [-9.278417, 38.7478572], [-9.2780425, 38.747822]]}, "properties": {"bicycle": "no", "foot": "no", "highway": "trunk", "lanes": "3", "lit": "yes", "maxspeed": "100", "oneway": "yes", "ref": "IC 19;A 37", "sidewalk": "no", "surface": "asphalt"}}, {"type": "Feature", "geometry": {"type": "LineString", "coordinates": [[-9.2776659, 38.7478991], [-9.2780254, 38.7479273], [-9.2783988, 38.7479675], [-9.2793004, 38.7481099]]}, "properties": {"bicycle": "no", "change:lanes": "yes|not_right|not_left|yes", "foot": "no", "highway": "trunk", "lanes": "4", "lit": "yes", "maxspeed": "100", "oneway": "yes", "placement": "middle_of:2", "ref": "IC 19;A 37", "sidewalk": "no", "surface": "asphalt", "turn:lanes": "through|through|through|right"}}, {"type": "Feature", "geometry": {"type": "LineString", "coordinates": [[-9.2769512, 38.7478687], [-9.2776659, 38.7478991]]}, "properties": {"bicycle": "no", "change:lanes": "yes|not_right|not_left", "foot": "no", "highway": "trunk", "lanes": "3", "lit": "yes", "maxspeed": "100", "oneway": "yes", "ref": "IC 19;A 37", "surface": "asphalt"}}, {"type": "Feature", "geometry": {"type": "LineString", "coordinates": [[-9.2793004, 38.7481099], [-9.2802559, 38.7483481], [-9.2818658, 38.7488284]]}, "properties": {"bicycle": "no", "destination": "Sintra;Cac\u00e9m Nascente", "foot": "no", "highway": "trunk", "lanes": "3", "lit": "yes", "maxspeed": "100", "oneway": "yes", "ref": "IC 19;A 37", "surface": "asphalt"}}, {"type": "Feature", "geometry": {"type": "LineString", "coordinates": [[-9.274944, 38.7478359], [-9.2765841, 38.7478559], [-9.2769512, 38.7478687]]}, "properties": {"bicycle": "no", "foot": "no", "highway": "trunk", "lanes": "3", "lit": "yes", "maxspeed": "100", "oneway": "yes", "ref": "IC 19;A 37", "surface": "asphalt"}}, {"type": "Feature", "geometry": {"type": "LineString", "coordinates": [[-9.2862647, 38.7505965], [-9.2859928, 38.7504072], [-9.2857145, 38.7501903], [-9.2853825, 38.7499708]]}, "properties": {"bicycle": "no", "foot": "no", "highway": "trunk", "lanes": "4", "lit": "yes", "maxspeed": "100", "oneway": "yes", "placement": "middle_of:2", "ref": "IC 19;A 37", "surface": "asphalt", "turn:lanes": "through|through|through|right"}}, {"type": "Feature", "geometry": {"type": "LineString", "coordinates": [[-9.2853825, 38.7499708], [-9.2847155, 38.749632], [-9.2842456, 38.7494402], [-9.2831691, 38.7490918]]}, "properties": {"bicycle": "no", "destination": "Lisboa;Queluz;Norte/Alverca", "destination:ref:to": "A 9", "foot": "no", "highway": "trunk", "lanes": "3", "lit": "yes", "maxspeed": "100", "oneway": "yes", "ref": "IC 19;A 37", "surface": "asphalt"}}, {"type": "Feature", "geometry": {"type": "LineString", "coordinates": [[-9.2830564, 38.7491939], [-9.2841853, 38.7495437], [-9.2849297, 38.7498626], [-9.2853041, 38.750071]]}, "properties": {"bicycle": "no", "foot": "no", "highway": "trunk", "lanes": "3", "lit": "yes", "maxspeed": "100", "oneway": "yes", "ref": "IC 19;A 37", "surface": "asphalt"}}, {"type": "Feature", "geometry": {"type": "LineString", "coordinates": [[-9.3174483, 38.7700238], [-9.316796, 38.7692353], [-9.3164318, 38.7688433], [-9.3158992, 38.7683405], [-9.3153919, 38.7679132], [-9.3148938, 38.7675464], [-9.3142766, 38.767164], [-9.3136248, 38.7668399], [-9.3130267, 38.7665931], [-9.312505, 38.7664279], [-9.3121898, 38.7663505], [-9.3118209, 38.7662543], [-9.3113557, 38.7661717]]}, "properties": {"bicycle": "no", "destination": "Lisboa;Cac\u00e9m;Pa\u00e7o d'Arcos", "destination:ref:to": "EN 249-3", "highway": "trunk", "lanes": "3", "maxspeed": "100", "oneway": "yes", "ref": "IC 19;A 37", "surface": "asphalt"}}, {"type": "Feature", "geometry": {"type": "LineString", "coordinates": [[-9.3086788, 38.7658851], [-9.3075191, 38.7658627]]}, "properties": {"bicycle": "no", "change:lanes": "yes|not_right|no", "destination": "Lisboa;Tercena;Massam\u00e1", "highway": "trunk", "lanes": "3", "maxspeed": "100", "oneway": "yes", "ref": "IC 19;A 37"}}, {"type": "Feature", "geometry": {"type": "LineString", "coordinates": [[-9.3180264, 38.7707693], [-9.3176171, 38.7702414]]}, "properties": {"bicycle": "no", "change:lanes": "yes|not_right|not_left|yes", "highway": "trunk", "lanes": "4", "maxspeed": "100", "oneway": "yes", "placement": "middle_of:2", "ref": "IC 19;A 37", "turn:lanes": "through|through|through|right"}}, {"type": "Feature", "geometry": {"type": "LineString", "coordinates": [[-9.3104411, 38.7661371], [-9.3113267, 38.7662715]]}, "properties": {"bicycle": "no", "change:lanes": "yes|not_right|not_left|yes", "highway": "trunk", "lanes": "4", "maxspeed": "100", "oneway": "yes", "placement": "middle_of:2", "ref": "IC 19;A 37", "surface": "asphalt", "turn:lanes": "through|through|through|right"}}, {"type": "Feature", "geometry": {"type": "LineString", "coordinates": [[-9.2960691, 38.7619107], [-9.2968657, 38.7628245]]}, "properties": {"bicycle": "no", "highway": "trunk", "lanes": "4", "maxspeed": "100", "oneway": "yes", "placement": "middle_of:2", "ref": "IC 19;A 37", "surface": "asphalt"}}, {"type": "Feature", "geometry": {"type": "LineString", "coordinates": [[-9.3170763, 38.7697462], [-9.3173961, 38.7701587]]}, "properties": {"bicycle": "no", "change:lanes": "yes|yes|not_right|no", "destination": "Sintra;Rio de Mouro", "highway": "trunk", "lanes": "4", "maxspeed": "100", "oneway": "yes", "placement": "middle_of:2", "ref": "IC 19;A 37", "surface": "asphalt"}}, {"type": "Feature", "geometry": {"type": "LineString", "coordinates": [[-9.3113267, 38.7662715], [-9.3117795, 38.7663515]]}, "properties": {"bicycle": "no", "change:lanes": "yes|not_right|no|no", "highway": "trunk", "lanes": "4", "maxspeed": "100", "oneway": "yes", "placement": "middle_of:2", "ref": "IC 19;A 37", "surface": "asphalt"}}, {"type": "Feature", "geometry": {"type": "LineString", "coordinates": [[-9.2910148, 38.756785], [-9.2913613, 38.7570705]]}, "properties": {"bicycle": "no", "highway": "trunk", "lanes": "3", "lit": "yes", "maxspeed": "100", "oneway": "yes", "ref": "IC 19;A 37", "sidewalk": "no", "surface": "asphalt"}}, {"type": "Feature", "geometry": {"type": "LineString", "coordinates": [[-9.3176171, 38.7702414], [-9.3174483, 38.7700238]]}, "properties": {"bicycle": "no", "change:lanes": "yes|not_right|not_left|yes", "highway": "trunk", "lanes": "4", "maxspeed": "100", "oneway": "yes", "placement": "middle_of:2", "ref": "IC 19;A 37"}}, {"type": "Feature", "geometry": {"type": "LineString", "coordinates": [[-9.3014193, 38.7658534], [-9.3008796, 38.7657885]]}, "properties": {"bicycle": "no", "highway": "trunk", "lanes": "3", "maxspeed": "100", "oneway": "yes", "ref": "IC 19;A 37"}}, {"type": "Feature", "geometry": {"type": "LineString", "coordinates": [[-9.2977119, 38.7638687], [-9.2979396, 38.764143]]}, "properties": {"bicycle": "no", "change:lanes": "yes|not_right|no|not_left|yes", "highway": "trunk", "lanes": "5", "lit": "yes", "maxspeed": "80", "oneway": "yes", "placement": "middle_of:2", "ref": "IC 19;A 37", "turn:lanes": "none|none|none|through|right"}}, {"type": "Feature", "geometry": {"type": "LineString", "coordinates": [[-9.3075191, 38.7658627], [-9.305326, 38.765874], [-9.3041053, 38.765882]]}, "properties": {"bicycle": "no", "destination": "Lisboa;Tercena;Massam\u00e1", "highway": "trunk", "lanes": "3", "maxspeed": "100", "oneway": "yes", "ref": "IC 19;A 37"}}, {"type": "Feature", "geometry": {"type": "LineString", "coordinates": [[-9.3041053, 38.765882], [-9.3028933, 38.7658818]]}, "properties": {"bicycle": "no", "highway": "trunk", "lanes": "3", "maxspeed": "100", "oneway": "yes", "ref": "IC 19;A 37"}}, {"type": "Feature", "geometry": {"type": "LineString", "coordinates": [[-9.2968657, 38.7628245], [-9.2972091, 38.7632335]]}, "properties": {"bicycle": "no", "highway": "trunk", "lanes": "4", "maxspeed": "100", "oneway": "yes", "placement": "middle_of:2", "ref": "IC 19;A 37", "surface": "asphalt"}}, {"type": "Feature", "geometry": {"type": "LineString", "coordinates": [[-9.2972091, 38.7632335], [-9.2977119, 38.7638687]]}, "properties": {"bicycle": "no", "change:lanes": "yes|not_right|not_left|yes", "highway": "trunk", "lanes": "4", "lit": "yes", "maxspeed": "80", "oneway": "yes", "placement": "middle_of:2", "ref": "IC 19;A 37", "turn:lanes": "through|through|through|through;right"}}, {"type": "Feature", "geometry": {"type": "LineString", "coordinates": [[-9.3184272, 38.7712933], [-9.3180264, 38.7707693]]}, "properties": {"bicycle": "no", "change:lanes": "yes|not_right|no", "highway": "trunk", "lanes": "3", "maxspeed": "100", "oneway": "yes", "ref": "IC 19;A 37"}}, {"type": "Feature", "geometry": {"type": "LineString", "coordinates": [[-9.2974971, 38.7633833], [-9.2969904, 38.7627868], [-9.2967913, 38.7625469]]}, "properties": {"bicycle": "no", "highway": "trunk", "lanes": "4", "maxspeed": "100", "oneway": "yes", "placement": "middle_of:2", "ref": "IC 19;A 37", "surface": "asphalt"}}, {"type": "Feature", "geometry": {"type": "LineString", "coordinates": [[-9.2931638, 38.7585983], [-9.2937053, 38.7592034], [-9.2943764, 38.7599577]]}, "properties": {"bicycle": "no", "change:lanes": "yes|not_right|not_left|yes", "highway": "trunk", "lanes": "4", "lit": "yes", "maxspeed": "100", "oneway": "yes", "placement": "middle_of:2", "ref": "IC 19;A 37", "sidewalk": "no", "surface": "asphalt", "turn:lanes": "through|through|through|right"}}, {"type": "Feature", "geometry": {"type": "LineString", "coordinates": [[-9.2913613, 38.7570705], [-9.2919342, 38.7575143], [-9.2925147, 38.7580022], [-9.2931638, 38.7585983]]}, "properties": {"bicycle": "no", "highway": "trunk", "lanes": "3", "lit": "yes", "maxspeed": "100", "oneway": "yes", "ref": "IC 19;A 37", "sidewalk": "no", "surface": "asphalt", "turn:lanes": "through|through|through;right"}}, {"type": "Feature", "geometry": {"type": "LineString", "coordinates": [[-9.3173961, 38.7701587], [-9.3179001, 38.7708169], [-9.3182992, 38.7713371], [-9.3186217, 38.7717622]]}, "properties": {"bicycle": "no", "highway": "trunk", "lanes": "4", "maxspeed": "100", "oneway": "yes", "placement": "middle_of:2", "ref": "IC 19;A 37", "surface": "asphalt"}}, {"type": "Feature", "geometry": {"type": "LineString", "coordinates": [[-9.3113557, 38.7661717], [-9.3104558, 38.7660284], [-9.3097504, 38.7659521], [-9.3092078, 38.7659055], [-9.3086788, 38.7658851]]}, "properties": {"bicycle": "no", "change:lanes": "yes|not_right|not_left|yes", "highway": "trunk", "lanes": "4", "maxspeed": "100", "oneway": "yes", "placement": "middle_of:2", "ref": "IC 19;A 37", "turn:lanes": "through|through|through|right"}}, {"type": "Feature", "geometry": {"type": "LineString", "coordinates": [[-9.3117795, 38.7663515], [-9.3121481, 38.7664404], [-9.3124247, 38.7665269], [-9.3129749, 38.7666992], [-9.3135672, 38.7669423]]}, "properties": {"bicycle": "no", "change:lanes": "yes|not_right|no", "destination": "Sintra;Rio de Mouro", "highway": "trunk", "lanes": "3", "maxspeed": "100", "oneway": "yes", "placement": "middle_of:2", "ref": "IC 19;A 37", "surface": "asphalt"}}, {"type": "Feature", "geometry": {"type": "LineString", "coordinates": [[-9.3080526, 38.7659741], [-9.3086775, 38.7659939], [-9.309197, 38.7660185], [-9.3097316, 38.7660577], [-9.3104411, 38.7661371]]}, "properties": {"bicycle": "no", "highway": "trunk", "lanes": "4", "maxspeed": "100", "oneway": "yes", "placement": "middle_of:2", "ref": "IC 19;A 37", "surface": "asphalt", "turn:lanes": "through|through|through;right|right"}}, {"type": "Feature", "geometry": {"type": "LineString", "coordinates": [[-9.3019766, 38.7659914], [-9.3028893, 38.765993], [-9.3043551, 38.7659809], [-9.3058291, 38.7659744]]}, "properties": {"bicycle": "no", "highway": "trunk", "lanes": "3", "maxspeed": "100", "oneway": "yes", "ref": "IC 19;A 37", "surface": "asphalt"}}, {"type": "Feature", "geometry": {"type": "LineString", "coordinates": [[-9.3135672, 38.7669423], [-9.3142243, 38.7672686], [-9.3147999, 38.7676245], [-9.3156472, 38.7682755], [-9.3163513, 38.7689374], [-9.3166813, 38.7692934], [-9.3170763, 38.7697462]]}, "properties": {"bicycle": "no", "destination": "Sintra;Rio de Mouro", "highway": "trunk", "lanes": "3", "maxheight": "5.5", "maxspeed": "100", "oneway": "yes", "placement": "middle_of:2", "ref": "IC 19;A 37", "surface": "asphalt"}}, {"type": "Feature", "geometry": {"type": "LineString", "coordinates": [[-9.3008796, 38.7657885], [-9.3005805, 38.7657304], [-9.2999644, 38.7655446], [-9.299608, 38.7653698], [-9.2992823, 38.7651781], [-9.2989531, 38.7649206], [-9.2986107, 38.7646314], [-9.2980726, 38.7641022], [-9.2974971, 38.7633833]]}, "properties": {"bicycle": "no", "highway": "trunk", "lanes": "3", "maxspeed": "100", "oneway": "yes", "ref": "IC 19;A 37"}}, {"type": "Feature", "geometry": {"type": "LineString", "coordinates": [[-9.3211752, 38.7749087], [-9.3205757, 38.7741147]]}, "properties": {"bicycle": "no", "highway": "trunk", "lanes": "4", "maxspeed": "100", "oneway": "yes", "placement": "middle_of:2", "ref": "IC 19;A 37"}}, {"type": "Feature", "geometry": {"type": "LineString", "coordinates": [[-9.3217934, 38.7759036], [-9.3221169, 38.7762554]]}, "properties": {"bicycle": "no", "change:lanes": "yes|not_right|no|no", "highway": "trunk", "lanes": "4", "maxspeed": "100", "oneway": "yes", "placement": "middle_of:2", "ref": "IC 19;A 37", "surface": "asphalt"}}, {"type": "Feature", "geometry": {"type": "LineString", "coordinates": [[-9.3213888, 38.7754039], [-9.3217934, 38.7759036]]}, "properties": {"bicycle": "no", "change:lanes": "yes|not_right|not_left|yes", "highway": "trunk", "lanes": "4", "maxspeed": "100", "oneway": "yes", "placement": "middle_of:2", "ref": "IC 19;A 37", "surface": "asphalt", "turn:lanes": "through|through|through|right"}}, {"type": "Feature", "geometry": {"type": "LineString", "coordinates": [[-9.3210411, 38.7749438], [-9.3213888, 38.7754039]]}, "properties": {"bicycle": "no", "change:lanes": "yes|not_right|no", "highway": "trunk", "lanes": "3", "maxspeed": "100", "oneway": "yes", "placement": "middle_of:2", "ref": "IC 19;A 37", "surface": "asphalt", "turn:lanes": "through|through|through;right"}}, {"type": "Feature", "geometry": {"type": "LineString", "coordinates": [[-9.3253925, 38.7781627], [-9.3257375, 38.7782623]]}, "properties": {"bicycle": "no", "highway": "trunk", "lanes": "4", "maxspeed": "100", "oneway": "yes", "placement": "middle_of:2", "ref": "IC 19;A 37", "surface": "asphalt"}}, {"type": "Feature", "geometry": {"type": "LineString", "coordinates": [[-9.320447, 38.7741691], [-9.3210411, 38.7749438]]}, "properties": {"bicycle": "no", "highway": "trunk", "lanes": "3", "maxspeed": "100", "oneway": "yes", "placement": "middle_of:2", "ref": "IC 19;A 37", "surface": "asphalt", "turn:lanes": "through|through|through;right"}}, {"type": "Feature", "geometry": {"type": "LineString", "coordinates": [[-9.32443, 38.7776852], [-9.3240398, 38.7774944]]}, "properties": {"bicycle": "no", "change:lanes": "yes|not_right|no|no", "highway": "trunk", "lanes": "4", "maxspeed": "100", "oneway": "yes", "placement": "middle_of:2", "ref": "IC 19;A 37"}}, {"type": "Feature", "geometry": {"type": "LineString", "coordinates": [[-9.3240398, 38.7774944], [-9.3237178, 38.7773213], [-9.323423, 38.7771378]]}, "properties": {"bicycle": "no", "change:lanes": "yes|not_right|no", "highway": "trunk", "lanes": "3", "maxspeed": "100", "oneway": "yes", "placement": "middle_of:2", "ref": "IC 19;A 37", "surface": "asphalt"}}, {"type": "Feature", "geometry": {"type": "LineString", "coordinates": [[-9.3246392, 38.7778984], [-9.3249691, 38.7780281], [-9.3253925, 38.7781627]]}, "properties": {"bicycle": "no", "highway": "trunk", "lanes": "4", "maxspeed": "100", "oneway": "yes", "placement": "middle_of:2", "ref": "IC 19;A 37", "surface": "asphalt"}}, {"type": "Feature", "geometry": {"type": "LineString", "coordinates": [[-9.3261352, 38.7782502], [-9.3257831, 38.7781609], [-9.3254511, 38.7780707]]}, "properties": {"bicycle": "no", "change:lanes": "yes|not_right|no", "highway": "trunk", "lanes": "3", "maxspeed": "100", "oneway": "yes", "ref": "IC 19;A 37"}}, {"type": "Feature", "geometry": {"type": "LineString", "coordinates": [[-9.3186217, 38.7717622], [-9.3189745, 38.7722332], [-9.3200206, 38.7735934], [-9.320447, 38.7741691]]}, "properties": {"bicycle": "no", "highway": "trunk", "lanes": "3", "maxspeed": "100", "oneway": "yes", "placement": "middle_of:2", "ref": "IC 19;A 37", "surface": "asphalt"}}, {"type": "Feature", "geometry": {"type": "LineString", "coordinates": [[-9.3254511, 38.7780707], [-9.3250388, 38.7779298], [-9.3246549, 38.7777822], [-9.32443, 38.7776852]]}, "properties": {"bicycle": "no", "change:lanes": "yes|not_right|not_left|yes", "highway": "trunk", "lanes": "4", "maxspeed": "100", "oneway": "yes", "placement": "middle_of:2", "ref": "IC 19;A 37", "turn:lanes": "through|through|through|right"}}, {"type": "Feature", "geometry": {"type": "LineString", "coordinates": [[-9.3205757, 38.7741147], [-9.3200957, 38.7734973], [-9.3190869, 38.7721902], [-9.3184272, 38.7712933]]}, "properties": {"bicycle": "no", "highway": "trunk", "lanes": "3", "maxspeed": "100", "oneway": "yes", "ref": "IC 19;A 37"}}, {"type": "Feature", "geometry": {"type": "LineString", "coordinates": [[-9.323423, 38.7771378], [-9.3227868, 38.776687], [-9.3222032, 38.7761753], [-9.3219074, 38.775844], [-9.3215328, 38.7753639], [-9.3211752, 38.7749087]]}, "properties": {"bicycle": "no", "highway": "trunk", "lanes": "3", "maxspeed": "100", "oneway": "yes", "placement": "middle_of:2", "ref": "IC 19;A 37", "surface": "asphalt"}}, {"type": "Feature", "geometry": {"type": "LineString", "coordinates": [[-9.3221169, 38.7762554], [-9.3222427, 38.7763842], [-9.3223873, 38.7765214], [-9.322663, 38.7767602], [-9.3231853, 38.7771302], [-9.3233251, 38.7772181], [-9.3236481, 38.7774091], [-9.3239629, 38.7775814], [-9.3243307, 38.7777604], [-9.3246392, 38.7778984]]}, "properties": {"bicycle": "no", "destination": "Sintra;Algueir\u00e3o/Mem Martins;Merc\u00eas", "highway": "trunk", "lanes": "3", "maxheight": "5.7", "maxspeed": "100", "oneway": "yes", "placement": "middle_of:2", "ref": "IC 19;A 37", "surface": "asphalt"}}, {"type": "Feature", "geometry": {"type": "LineString", "coordinates": [[-9.3365155, 38.7775077], [-9.3381391, 38.7771882]]}, "properties": {"bicycle": "no", "highway": "trunk", "lanes": "4", "maxspeed": "100", "oneway": "yes", "placement": "middle_of:2", "ref": "IC 19;A 37", "surface": "asphalt"}}, {"type": "Feature", "geometry": {"type": "LineString", "coordinates": [[-9.3324443, 38.7782941], [-9.3329177, 38.7782087]]}, "properties": {"bicycle": "no", "change:lanes": "yes|not_right|no|no", "highway": "trunk", "lanes": "4", "maxspeed": "100", "oneway": "yes", "placement": "middle_of:2", "ref": "IC 19;A 37", "surface": "asphalt"}}, {"type": "Feature", "geometry": {"type": "LineString", "coordinates": [[-9.3329177, 38.7782087], [-9.3336778, 38.7780595]]}, "properties": {"bicycle": "no", "change:lanes": "yes|not_right|no", "destination": "Sintra;Mem Martins;Carcavelos", "highway": "trunk", "lanes": "3", "maxspeed": "100", "oneway": "yes", "placement": "middle_of:2", "ref": "IC 19;A 37", "surface": "asphalt"}}, {"type": "Feature", "geometry": {"type": "LineString", "coordinates": [[-9.3318416, 38.7783962], [-9.3324443, 38.7782941]]}, "properties": {"bicycle": "no", "change:lanes": "yes|not_right|not_left|yes", "highway": "trunk", "lanes": "4", "maxspeed": "100", "oneway": "yes", "placement": "middle_of:2", "ref": "IC 19;A 37", "surface": "asphalt"}}, {"type": "Feature", "geometry": {"type": "LineString", "coordinates": [[-9.3344041, 38.7778018], [-9.3335834, 38.7779668]]}, "properties": {"bicycle": "no", "change:lanes": "yes|not_right|not_left|yes", "highway": "trunk", "lanes": "4", "maxspeed": "100", "oneway": "yes", "placement": "middle_of:2", "ref": "IC 19;A 37", "turn:lanes": "through|through|through|right"}}, {"type": "Feature", "geometry": {"type": "LineString", "coordinates": [[-9.3299385, 38.7786136], [-9.3306705, 38.7785558]]}, "properties": {"bicycle": "no", "change:lanes": "yes|not_right|not_left|yes", "highway": "trunk", "lanes": "4", "maxspeed": "100", "oneway": "yes", "placement": "middle_of:2", "ref": "IC 19;A 37", "surface": "asphalt"}}, {"type": "Feature", "geometry": {"type": "LineString", "coordinates": [[-9.33588, 38.7775239], [-9.3344041, 38.7778018]]}, "properties": {"bicycle": "no", "highway": "trunk", "lanes": "3", "maxspeed": "100", "oneway": "yes", "ref": "IC 19;A 37"}}, {"type": "Feature", "geometry": {"type": "LineString", "coordinates": [[-9.3306705, 38.7785558], [-9.3310181, 38.7785174], [-9.3318416, 38.7783962]]}, "properties": {"bicycle": "no", "change:lanes": "yes|not_right|not_left|yes|yes", "destination:lanes": "Sintra|Sintra|Sintra|Rio de Mouro|Algueir\u00e3o", "highway": "trunk", "lanes": "5", "maxspeed": "100", "oneway": "yes", "placement": "middle_of:2", "ref": "IC 19;A 37", "surface": "asphalt", "turn:lanes": "through|through|through|through|right"}}, {"type": "Feature", "geometry": {"type": "LineString", "coordinates": [[-9.3318239, 38.7782969], [-9.3310024, 38.7784115], [-9.3306538, 38.7784476], [-9.329949, 38.7785018]]}, "properties": {"bicycle": "no", "highway": "trunk", "lanes": "4", "maxspeed": "100", "oneway": "yes", "placement": "middle_of:2", "ref": "IC 19;A 37"}}, {"type": "Feature", "geometry": {"type": "LineString", "coordinates": [[-9.3335834, 38.7779668], [-9.3328899, 38.7781006], [-9.3324092, 38.7781841], [-9.3318239, 38.7782969]]}, "properties": {"bicycle": "no", "highway": "trunk", "lanes": "3", "maxspeed": "100", "oneway": "yes", "ref": "IC 19;A 37"}}, {"type": "Feature", "geometry": {"type": "LineString", "coordinates": [[-9.3257375, 38.7782623], [-9.3261018, 38.7783541], [-9.3267026, 38.7784682]]}, "properties": {"bicycle": "no", "highway": "trunk", "lanes": "3", "maxspeed": "100", "oneway": "yes", "ref": "IC 19;A 37", "surface": "asphalt"}}, {"type": "Feature", "geometry": {"type": "LineString", "coordinates": [[-9.3470047, 38.776362], [-9.3477881, 38.7765879]]}, "properties": {"bicycle": "no", "change:lanes": "yes|not_right|no", "highway": "trunk", "lanes": "3", "maxspeed": "100", "oneway": "yes", "ref": "IC 19;A 37", "surface": "asphalt"}}, {"type": "Feature", "geometry": {"type": "LineString", "coordinates": [[-9.3487715, 38.7769751], [-9.3494044, 38.7772787], [-9.350191, 38.7776765]]}, "properties": {"bicycle": "no", "foot": "no", "highway": "trunk", "lanes": "3", "maxspeed": "100", "oneway": "yes", "ref": "IC 19;A 37", "surface": "asphalt"}}, {"type": "Feature", "geometry": {"type": "LineString", "coordinates": [[-9.3477881, 38.7765879], [-9.3484127, 38.776824]]}, "properties": {"bicycle": "no", "change:lanes": "yes|not_right|not_left|yes", "highway": "trunk", "lanes": "4", "maxspeed": "100", "oneway": "yes", "placement": "middle_of:2", "ref": "IC 19;A 37", "surface": "asphalt", "turn:lanes": "through|through|through|right"}}, {"type": "Feature", "geometry": {"type": "LineString", "coordinates": [[-9.3484127, 38.776824], [-9.3487715, 38.7769751]]}, "properties": {"bicycle": "no", "change:lanes": "yes|not_right|not_left|no", "highway": "trunk", "lanes": "4", "maxspeed": "100", "oneway": "yes", "placement": "middle_of:2", "ref": "IC 19;A 37", "surface": "asphalt"}}, {"type": "Feature", "geometry": {"type": "LineString", "coordinates": [[-9.3483886, 38.7766921], [-9.3478363, 38.7764805], [-9.3470331, 38.7762398], [-9.3462811, 38.7761147]]}, "properties": {"bicycle": "no", "highway": "trunk", "lanes": "4", "maxspeed": "100", "oneway": "yes", "placement": "middle_of:2", "ref": "IC 19;A 37"}}, {"type": "Feature", "geometry": {"type": "LineString", "coordinates": [[-9.3539438, 38.7796122], [-9.3546386, 38.7799756], [-9.3554987, 38.7804053]]}, "properties": {"bicycle": "no", "highway": "trunk", "lanes": "3", "maxspeed": "100", "oneway": "yes", "ref": "IC 19;A 37", "surface": "asphalt"}}, {"type": "Feature", "geometry": {"type": "LineString", "coordinates": [[-9.3462811, 38.7761147], [-9.345393, 38.7760169], [-9.3450452, 38.776004], [-9.3448244, 38.7759991], [-9.3444787, 38.7760026], [-9.3441022, 38.7760169], [-9.3436893, 38.7760503], [-9.3433443, 38.776092], [-9.3425879, 38.7762108], [-9.3419369, 38.7763332], [-9.3380894, 38.7770775], [-9.3362823, 38.7774429]]}, "properties": {"bicycle": "no", "highway": "trunk", "lanes": "3", "maxspeed": "100", "oneway": "yes", "ref": "IC 19;A 37"}}, {"type": "Feature", "geometry": {"type": "LineString", "coordinates": [[-9.3507382, 38.7778331], [-9.3499387, 38.7774183]]}, "properties": {"bicycle": "no", "change:lanes": "yes|not_right|not_left|yes", "foot": "no", "highway": "trunk", "lanes": "4", "maxspeed": "100", "oneway": "yes", "placement": "middle_of:2", "ref": "IC 19;A 37", "surface": "asphalt", "turn:lanes": "through|through|through|right"}}, {"type": "Feature", "geometry": {"type": "LineString", "coordinates": [[-9.3524735, 38.7787263], [-9.3521932, 38.7785779]]}, "properties": {"bicycle": "no", "change:lanes": "yes|not_right|no|no", "highway": "trunk", "lanes": "4", "oneway": "yes", "placement": "middle_of:2", "ref": "IC 19;A 37"}}, {"type": "Feature", "geometry": {"type": "LineString", "coordinates": [[-9.3540238, 38.779524], [-9.3533908, 38.7791988]]}, "properties": {"bicycle": "no", "change:lanes": "yes|not_right|no", "highway": "trunk", "lanes": "3", "oneway": "yes", "ref": "IC 19;A 37", "turn:lanes": "through|through|through;right"}}, {"type": "Feature", "geometry": {"type": "LineString", "coordinates": [[-9.3533908, 38.7791988], [-9.3524735, 38.7787263]]}, "properties": {"bicycle": "no", "change:lanes": "yes|not_right|not_left|yes", "highway": "trunk", "lanes": "4", "oneway": "yes", "placement": "middle_of:2", "ref": "IC 19;A 37", "turn:lanes": "through|through|through|right"}}, {"type": "Feature", "geometry": {"type": "LineString", "coordinates": [[-9.3499387, 38.7774183], [-9.349471, 38.7771889]]}, "properties": {"bicycle": "no", "change:lanes": "yes|not_right|no", "destination": "Lisboa;Algueir\u00e3o;Rio de Mouro", "highway": "trunk", "lanes": "3", "maxspeed": "100", "oneway": "yes", "ref": "IC 19;A 37", "surface": "asphalt"}}, {"type": "Feature", "geometry": {"type": "LineString", "coordinates": [[-9.3508928, 38.7780469], [-9.3525151, 38.7788728]]}, "properties": {"bicycle": "no", "highway": "trunk", "lanes": "3", "maxspeed": "100", "oneway": "yes", "ref": "IC 19;A 37", "surface": "asphalt"}}, {"type": "Feature", "geometry": {"type": "LineString", "coordinates": [[-9.350191, 38.7776765], [-9.3508928, 38.7780469]]}, "properties": {"bicycle": "no", "highway": "trunk", "lanes": "4", "maxspeed": "100", "oneway": "yes", "placement": "middle_of:2", "ref": "IC 19;A 37", "surface": "asphalt", "turn:lanes": "through|through|through|right"}}, {"type": "Feature", "geometry": {"type": "LineString", "coordinates": [[-9.3521932, 38.7785779], [-9.351537, 38.7782469], [-9.3507382, 38.7778331]]}, "properties": {"bicycle": "no", "highway": "trunk", "lanes": "3", "maxspeed": "100", "oneway": "yes", "ref": "IC 19;A 37"}}, {"type": "Feature", "geometry": {"type": "LineString", "coordinates": [[-9.3525151, 38.7788728], [-9.3533318, 38.7792971], [-9.3539438, 38.7796122]]}, "properties": {"bicycle": "no", "highway": "trunk", "lanes": "4", "maxspeed": "100", "oneway": "yes", "placement": "middle_of:2", "ref": "IC 19;A 37", "surface": "asphalt"}}, {"type": "Feature", "geometry": {"type": "LineString", "coordinates": [[-9.3619463, 38.7826642], [-9.3630954, 38.7829966]]}, "properties": {"bicycle": "no", "highway": "trunk", "lanes": "2", "maxheight": "5.3", "oneway": "yes", "ref": "IC 19;A 37", "surface": "asphalt", "turn:lanes": "through|right"}}, {"type": "Feature", "geometry": {"type": "LineString", "coordinates": [[-9.3629908, 38.7828708], [-9.3619011, 38.7825567]]}, "properties": {"bicycle": "no", "highway": "trunk", "lanes": "2", "oneway": "yes", "ref": "IC 19;A 37", "turn:lanes": "through|through;right"}}, {"type": "Feature", "geometry": {"type": "LineString", "coordinates": [[-9.3641094, 38.7832591], [-9.3642062, 38.7832847], [-9.364277, 38.7833035], [-9.364678, 38.7833694]]}, "properties": {"bicycle": "no", "highway": "trunk", "lanes": "1", "oneway": "yes", "ref": "IC 19;A 37"}}, {"type": "Feature", "geometry": {"type": "LineString", "coordinates": [[-9.3575205, 38.7813464], [-9.358008, 38.7815205], [-9.3584772, 38.7816627], [-9.3598897, 38.7820587]]}, "properties": {"bicycle": "no", "change:lanes": "yes|not_right|no", "highway": "trunk", "lanes": "3", "oneway": "yes", "ref": "IC 19;A 37", "surface": "asphalt"}}, {"type": "Feature", "geometry": {"type": "LineString", "coordinates": [[-9.3271677, 38.7784321], [-9.3267254, 38.7783694]]}, "properties": {"bicycle": "no", "bridge": "yes", "highway": "trunk", "lanes": "3", "layer": "1", "maxspeed": "100", "maxweight:signed": "no", "oneway": "yes", "ref": "IC 19;A 37"}}, {"type": "Feature", "geometry": {"type": "LineString", "coordinates": [[-9.3267254, 38.7783694], [-9.3264197, 38.7783039], [-9.3261352, 38.7782502]]}, "properties": {"bicycle": "no", "highway": "trunk", "lanes": "3", "maxspeed": "100", "oneway": "yes", "ref": "IC 19;A 37"}}, {"type": "Feature", "geometry": {"type": "LineString", "coordinates": [[-9.3267026, 38.7784682], [-9.3271446, 38.7785318]]}, "properties": {"bicycle": "no", "bridge": "yes", "highway": "trunk", "lanes": "3", "layer": "1", "maxspeed": "100", "maxweight:signed": "no", "oneway": "yes", "ref": "IC 19;A 37", "surface": "asphalt"}}, {"type": "Feature", "geometry": {"type": "LineString", "coordinates": [[-9.3271446, 38.7785318], [-9.3275244, 38.7785743], [-9.3281153, 38.7786157]]}, "properties": {"bicycle": "no", "highway": "trunk", "lanes": "3", "maxspeed": "100", "oneway": "yes", "ref": "IC 19;A 37", "surface": "asphalt"}}, {"type": "Feature", "geometry": {"type": "LineString", "coordinates": [[-9.2021509, 38.7405305], [-9.2017297, 38.7405719]]}, "properties": {"change:lanes": "yes|yes|not_right|not_left|yes", "destination:lanes": "aeroporto;Lisboa|aeroporto;Lisboa|aeroporto;Lisboa|SUL;Sete Rios;Campolide|SUL;Sete Rios;Campolide", "destination:ref:to:lanes": "|||A 2|A 2", "destination:street:lanes": "2\u00aa circular;IP 7-Eixo N-S|2\u00aa circular;IP 7-Eixo N-S|2\u00aa circular;IP 7-Eixo N-S||", "foot": "no", "highway": "trunk", "lanes": "5", "lit": "yes", "maxspeed": "80", "oneway": "yes", "ref": "IC 19;A 37", "sidewalk": "no", "surface": "asphalt", "turn:lanes": "through|through|through|right|right"}}, {"type": "Feature", "geometry": {"type": "LineString", "coordinates": [[-9.2013881, 38.7406055], [-9.2010814, 38.7406357]]}, "properties": {"change:lanes": "yes|not_right|not_left|yes|yes", "destination:lanes": "aeroporto;Lisboa|aeroporto;Lisboa|aeroporto;Lisboa|SUL;Sete Rios;Campolide|SUL;Sete Rios;Campolide", "destination:ref:to:lanes": "|||A 2|A 2", "destination:street:lanes": "2\u00aa circular;IP 7-Eixo N-S|2\u00aa circular;IP 7-Eixo N-S|2\u00aa circular;IP 7-Eixo N-S||", "foot": "no", "highway": "trunk", "lanes": "5", "lit": "yes", "maxspeed": "80", "oneway": "yes", "ref": "IC 19;A 37", "sidewalk": "no", "surface": "asphalt", "turn:lanes": "through|through|through|right|right"}}, {"type": "Feature", "geometry": {"type": "LineString", "coordinates": [[-9.2587377, 38.747556], [-9.2584803, 38.7475903], [-9.2581824, 38.747656], [-9.2578197, 38.7477441], [-9.2568117, 38.7480847]]}, "properties": {"bicycle": "no", "foot": "no", "highway": "trunk", "lanes": "3", "lit": "yes", "maxspeed": "80", "oneway": "yes", "ref": "IC 19;A 37", "sidewalk": "no", "surface": "asphalt"}}, {"type": "Feature", "geometry": {"type": "LineString", "coordinates": [[-9.2651332, 38.7475971], [-9.2644451, 38.7475873], [-9.2628284, 38.747567], [-9.2622901, 38.7475557], [-9.2606806, 38.74754], [-9.2598742, 38.7475299], [-9.2592752, 38.7475165], [-9.2587377, 38.747556]]}, "properties": {"bicycle": "no", "foot": "no", "highway": "trunk", "lanes": "3", "lit": "yes", "maxheight:signed": "no", "maxspeed": "80", "oneway": "yes", "ref": "IC 19;A 37", "sidewalk": "no", "surface": "asphalt"}}, {"type": "Feature", "geometry": {"type": "LineString", "coordinates": [[-9.2521029, 38.749178], [-9.2536244, 38.7490946]]}, "properties": {"bicycle": "no", "highway": "trunk", "lanes": "3", "lit": "yes", "maxspeed": "100", "oneway": "yes", "ref": "IC 19;A 37", "sidewalk": "no", "surface": "asphalt"}}, {"type": "Feature", "geometry": {"type": "LineString", "coordinates": [[-9.2038711, 38.7404013], [-9.2033902, 38.7404374]]}, "properties": {"change:lanes": "yes|not_right|no", "foot": "no", "highway": "trunk", "lanes": "3", "lit": "yes", "maxspeed": "80", "oneway": "yes", "ref": "IC 19;A 37", "sidewalk": "no", "surface": "asphalt"}}, {"type": "Feature", "geometry": {"type": "LineString", "coordinates": [[-9.2081779, 38.7400673], [-9.2072309, 38.7401459]]}, "properties": {"bicycle": "no", "highway": "trunk", "lanes": "3", "lit": "yes", "oneway": "yes", "placement": "right_of:2", "ref": "IC 19;A 37", "sidewalk": "no", "surface": "asphalt"}}, {"type": "Feature", "geometry": {"type": "LineString", "coordinates": [[-9.2892719, 38.752861], [-9.2879549, 38.7518423], [-9.2868812, 38.7510648], [-9.2862647, 38.7505965]]}, "properties": {"bicycle": "no", "foot": "no", "highway": "trunk", "lanes": "3", "lit": "yes", "maxspeed": "100", "oneway": "yes", "ref": "IC 19;A 37", "surface": "asphalt"}}, {"type": "Feature", "geometry": {"type": "LineString", "coordinates": [[-9.3008555, 38.7658952], [-9.3013972, 38.7659579], [-9.3019766, 38.7659914]]}, "properties": {"bicycle": "no", "highway": "trunk", "lanes": "3", "maxspeed": "100", "oneway": "yes", "ref": "IC 19;A 37", "surface": "asphalt"}}, {"type": "Feature", "geometry": {"type": "LineString", "coordinates": [[-9.3058291, 38.7659744], [-9.3075314, 38.765967], [-9.3080526, 38.7659741]]}, "properties": {"bicycle": "no", "highway": "trunk", "lanes": "3", "maxspeed": "100", "oneway": "yes", "ref": "IC 19;A 37", "surface": "asphalt"}}]}