{"type": "FeatureCollection", "features": [{"type": "Feature", "geometry": {"type": "LineString", "coordinates": [[-8.669304, 41.4996287], [-8.6675727, 41.4993952], [-8.6668825, 41.4993452], [-8.6662044, 41.4993277], [-8.6656353, 41.4993492], [-8.6651494, 41.4993901], [-8.6647192, 41.4994395], [-8.6641629, 41.4995354], [-8.6636573, 41.4996544], [-8.6631883, 41.4997948], [-8.6625595, 41.5000017], [-8.6617824, 41.5003074]]}, "properties": {"highway": "motorway", "lanes": "2", "maxheight": "5.17", "maxspeed": "120", "minspeed": "50", "name": "Autoestrada do Baixo Minho", "oneway": "yes", "ref": "A 11;IC 14", "surface": "asphalt", "toll": "yes"}}, {"type": "Feature", "geometry": {"type": "LineString", "coordinates": [[-8.7404193, 41.4896868], [-8.7409194, 41.4894322], [-8.7416819, 41.4891622], [-8.7423089, 41.4890278]]}, "properties": {"destination": "Porto;P\u00f3voa de Varzim;F\u00e3o;Ap\u00falia", "destination:ref": "A 28;A 28;N 13;N 13", "highway": "motorway", "lanes": "2", "maxspeed": "80", "oneway": "yes", "ref": "A 11;IC 14", "surface": "asphalt", "toll": "yes"}}, {"type": "Feature", "geometry": {"type": "LineString", "coordinates": [[-8.7427076, 41.4889492], [-8.7432691, 41.488849]]}, "properties": {"bridge": "yes", "highway": "motorway", "lanes": "2", "layer": "1", "maxspeed": "80", "oneway": "yes", "ref": "A 11;IC 14", "surface": "asphalt", "toll": "yes", "turn:lanes": "through|through;right"}}, {"type": "Feature", "geometry": {"type": "LineString", "coordinates": [[-8.6198376, 41.5071612], [-8.6191944, 41.5077519], [-8.6179924, 41.5089929], [-8.6170511, 41.5098698], [-8.6164209, 41.510388], [-8.615022, 41.5114837]]}, "properties": {"highway": "motorway", "lanes": "2", "maxspeed": "120", "minspeed": "50", "name": "Autoestrada do Baixo Minho", "oneway": "yes", "ref": "A 11;IC 14", "surface": "asphalt", "toll": "yes"}}, {"type": "Feature", "geometry": {"type": "LineString", "coordinates": [[-8.6093091, 41.515821], [-8.6096981, 41.5155241]]}, "properties": {"bridge": "yes", "highway": "motorway", "lanes": "2", "layer": "1", "maxspeed": "120", "minspeed": "50", "name": "Autoestrada do Baixo Minho", "oneway": "yes", "ref": "A 11;IC 14", "surface": "asphalt", "toll": "yes"}}, {"type": "Feature", "geometry": {"type": "LineString", "coordinates": [[-8.5993673, 41.5211241], [-8.5947508, 41.5232312], [-8.5937236, 41.5236125], [-8.5926749, 41.5238662], [-8.5915963, 41.5240254], [-8.5892098, 41.5241557], [-8.5883671, 41.5242434]]}, "properties": {"highway": "motorway", "lanes": "2", "lit": "no", "maxheight": "7.23", "maxspeed": "120", "minspeed": "50", "name": "Autoestrada do Baixo Minho", "oneway": "yes", "ref": "A 11;IC 14", "surface": "asphalt", "toll": "yes"}}, {"type": "Feature", "geometry": {"type": "LineString", "coordinates": [[-8.6214744, 41.5060576], [-8.6218462, 41.5058238], [-8.6222957, 41.5055646], [-8.6227806, 41.5053087], [-8.6233566, 41.5050269], [-8.6239161, 41.5047831], [-8.6243377, 41.5046155], [-8.6247854, 41.5044512], [-8.6251861, 41.5043152], [-8.6256654, 41.5041633], [-8.6260955, 41.5040458], [-8.6265473, 41.5039348], [-8.6271152, 41.5038172]]}, "properties": {"highway": "motorway", "lanes": "2", "lit": "no", "maxspeed": "120", "minspeed": "50", "name": "Autoestrada do Baixo Minho", "oneway": "yes", "ref": "A 11;IC 14", "surface": "asphalt", "toll": "yes"}}, {"type": "Feature", "geometry": {"type": "LineString", "coordinates": [[-8.4854823, 41.5311837], [-8.4848793, 41.5311453], [-8.4843713, 41.531131]]}, "properties": {"bridge": "yes", "highway": "motorway", "lanes": "2", "layer": "1", "lit": "no", "maxspeed": "120", "minspeed": "50", "name": "Autoestrada do Baixo Minho", "oneway": "yes", "ref": "A 11;IC 14", "surface": "asphalt", "toll": "yes"}}, {"type": "Feature", "geometry": {"type": "LineString", "coordinates": [[-8.4844614, 41.5312623], [-8.484999, 41.5312743], [-8.4855741, 41.5313169]]}, "properties": {"bridge": "yes", "highway": "motorway", "lanes": "2", "layer": "1", "lit": "no", "maxspeed": "120", "minspeed": "50", "name": "Autoestrada do Baixo Minho", "oneway": "yes", "ref": "A 11;IC 14", "surface": "asphalt", "toll": "yes"}}, {"type": "Feature", "geometry": {"type": "LineString", "coordinates": [[-8.5602896, 41.5335505], [-8.5608643, 41.5336613], [-8.5611117, 41.533709], [-8.5617181, 41.5337879], [-8.5622124, 41.5338232], [-8.5627371, 41.533847], [-8.5633777, 41.5338417], [-8.5637806, 41.5338277], [-8.5643224, 41.5337774], [-8.5649071, 41.5336904], [-8.5652817, 41.5336206], [-8.5657276, 41.5335183], [-8.5661947, 41.5333866], [-8.5665667, 41.5332667], [-8.5669029, 41.5331386], [-8.5674818, 41.532888], [-8.5678811, 41.5326821], [-8.5682747, 41.5324499], [-8.5686677, 41.5321945], [-8.5690287, 41.5319456], [-8.5699203, 41.5313254]]}, "properties": {"highway": "motorway", "lanes": "2", "lit": "no", "maxheight": "6.49", "maxspeed": "120", "minspeed": "50", "name": "Autoestrada do Baixo Minho", "oneway": "yes", "ref": "A 11;IC 14", "surface": "asphalt", "toll": "yes"}}, {"type": "Feature", "geometry": {"type": "LineString", "coordinates": [[-8.4843713, 41.531131], [-8.4839336, 41.5311554], [-8.4834132, 41.5311924], [-8.4821331, 41.5312965], [-8.4812107, 41.5313212], [-8.4806031, 41.5313003], [-8.4800426, 41.5312516], [-8.4789243, 41.5311013]]}, "properties": {"highway": "motorway", "lanes": "2", "lit": "no", "maxspeed": "120", "minspeed": "50", "name": "Autoestrada do Baixo Minho", "oneway": "yes", "ref": "A 11;IC 14", "surface": "asphalt", "toll": "yes"}}, {"type": "Feature", "geometry": {"type": "LineString", "coordinates": [[-8.4650918, 41.5321157], [-8.4636893, 41.5324075], [-8.4629352, 41.5325369], [-8.4621588, 41.5326282], [-8.4612934, 41.5326924], [-8.460537, 41.5326987], [-8.4598167, 41.5326867], [-8.4591996, 41.5326399], [-8.4581527, 41.5325112], [-8.4560919, 41.5321969]]}, "properties": {"highway": "motorway", "lanes": "2", "lit": "no", "maxheight": "6.75", "maxspeed": "120", "minspeed": "50", "name": "Autoestrada do Baixo Minho", "oneway": "yes", "ref": "A 11;IC 14", "surface": "asphalt", "toll": "yes"}}, {"type": "Feature", "geometry": {"type": "LineString", "coordinates": [[-8.4789243, 41.5311013], [-8.4777512, 41.5309308]]}, "properties": {"bridge": "yes", "highway": "motorway", "lanes": "2", "layer": "1", "lit": "no", "maxspeed": "120", "minspeed": "50", "name": "Autoestrada do Baixo Minho", "oneway": "yes", "ref": "A 11;IC 14", "surface": "asphalt", "toll": "yes"}}, {"type": "Feature", "geometry": {"type": "LineString", "coordinates": [[-8.4773237, 41.5310002], [-8.478602, 41.5311797]]}, "properties": {"bridge": "yes", "highway": "motorway", "lanes": "2", "layer": "1", "lit": "no", "maxspeed": "120", "minspeed": "50", "name": "Autoestrada do Baixo Minho", "oneway": "yes", "ref": "A 11;IC 14", "surface": "asphalt", "toll": "yes"}}, {"type": "Feature", "geometry": {"type": "LineString", "coordinates": [[-8.478602, 41.5311797], [-8.4800057, 41.5313703], [-8.4807043, 41.5314292], [-8.4814331, 41.5314511], [-8.4823269, 41.5314077], [-8.4827753, 41.5313644], [-8.483706, 41.5312892], [-8.4844614, 41.5312623]]}, "properties": {"highway": "motorway", "lanes": "2", "lit": "no", "maxspeed": "120", "minspeed": "50", "name": "Autoestrada do Baixo Minho", "oneway": "yes", "ref": "A 11;IC 14", "surface": "asphalt", "toll": "yes"}}, {"type": "Feature", "geometry": {"type": "LineString", "coordinates": [[-8.6894254, 41.4954888], [-8.6889614, 41.4955317]]}, "properties": {"bridge": "yes", "highway": "motorway", "lanes": "2", "layer": "1", "lit": "no", "maxspeed": "120", "minspeed": "50", "name": "Autoestrada do Baixo Minho", "oneway": "yes", "ref": "A 11;IC 14", "surface": "asphalt", "toll": "yes"}}, {"type": "Feature", "geometry": {"type": "LineString", "coordinates": [[-8.7379411, 41.4911719], [-8.7372372, 41.491649], [-8.736448, 41.4921562]]}, "properties": {"highway": "motorway", "lanes": "2", "maxspeed": "60", "name": "Autoestrada do Baixo Minho", "oneway": "yes", "ref": "A 11;IC 14", "surface": "asphalt", "toll": "yes"}}, {"type": "Feature", "geometry": {"type": "LineString", "coordinates": [[-8.6985432, 41.4954276], [-8.6991447, 41.4954186], [-8.7001964, 41.4953599], [-8.7007312, 41.4953103]]}, "properties": {"change:lanes": "no|not_left|yes", "destination:lanes": "Esposende;Porto;Viana do Castelo|Esposende;Porto;Viana do Castelo|Vila Seca;Barqueiros", "destination:ref:lanes": "A 11;A 28;A 28|A 11;A 28;A 28|N 205", "highway": "motorway", "lanes": "3", "maxheight": "5.48", "maxspeed": "120", "minspeed": "50", "name": "Autoestrada do Baixo Minho", "oneway": "yes", "placement": "right_of:1", "ref": "A 11;IC 14", "surface": "asphalt", "toll": "yes", "turn:lanes": "through|through|right"}}, {"type": "Feature", "geometry": {"type": "LineString", "coordinates": [[-8.6889601, 41.495655], [-8.6894085, 41.4956081]]}, "properties": {"bridge": "yes", "highway": "motorway", "lanes": "2", "layer": "1", "lit": "no", "maxspeed": "120", "minspeed": "50", "name": "Autoestrada do Baixo Minho", "oneway": "yes", "ref": "A 11;IC 14", "surface": "asphalt", "toll": "yes"}}, {"type": "Feature", "geometry": {"type": "LineString", "coordinates": [[-8.459174, 41.5327645], [-8.4597648, 41.5328059], [-8.4605539, 41.5328241], [-8.4612881, 41.5328143], [-8.4622429, 41.5327483], [-8.4629915, 41.5326504], [-8.4637014, 41.5325271], [-8.4649119, 41.5322779]]}, "properties": {"highway": "motorway", "lanes": "2", "lit": "no", "maxspeed": "120", "minspeed": "50", "name": "Autoestrada do Baixo Minho", "oneway": "yes", "ref": "A 11;IC 14", "surface": "asphalt", "toll": "yes"}}, {"type": "Feature", "geometry": {"type": "LineString", "coordinates": [[-8.6095947, 41.5154359], [-8.6092087, 41.5157236]]}, "properties": {"bridge": "yes", "highway": "motorway", "lanes": "3", "layer": "1", "lit": "yes", "maxspeed": "120", "minspeed": "50", "name": "Autoestrada do Baixo Minho", "oneway": "yes", "placement": "right_of:1", "ref": "A 11;IC 14", "surface": "asphalt", "toll": "yes", "turn:lanes": "||merge_to_left"}}, {"type": "Feature", "geometry": {"type": "LineString", "coordinates": [[-8.7048841, 41.4943228], [-8.7032765, 41.4947463], [-8.7026882, 41.4948789], [-8.7021157, 41.4949986], [-8.701451, 41.4950975]]}, "properties": {"highway": "motorway", "lanes": "2", "lit": "yes", "maxheight": "6.22", "maxspeed": "120", "minspeed": "50", "name": "Autoestrada do Baixo Minho", "oneway": "yes", "ref": "A 11;IC 14", "surface": "asphalt", "toll": "yes"}}, {"type": "Feature", "geometry": {"type": "LineString", "coordinates": [[-8.7137753, 41.4922107], [-8.7147452, 41.4921786], [-8.715522, 41.4922152], [-8.7162709, 41.4923232], [-8.717082, 41.4925115], [-8.7176258, 41.4926966]]}, "properties": {"highway": "motorway", "lanes": "2", "lit": "no", "maxheight": "5.58", "maxspeed": "120", "minspeed": "50", "name": "Autoestrada do Baixo Minho", "oneway": "yes", "ref": "A 11;IC 14", "surface": "asphalt", "toll": "yes"}}, {"type": "Feature", "geometry": {"type": "LineString", "coordinates": [[-8.7073096, 41.4937881], [-8.7115408, 41.4926611]]}, "properties": {"bridge": "viaduct", "highway": "motorway", "lanes": "2", "layer": "1", "lit": "no", "maxspeed": "120", "minspeed": "50", "name": "Autoestrada do Baixo Minho", "oneway": "yes", "ref": "A 11;IC 14", "surface": "asphalt", "toll": "yes"}}, {"type": "Feature", "geometry": {"type": "LineString", "coordinates": [[-8.7072107, 41.4937131], [-8.7056867, 41.4941097]]}, "properties": {"change:lanes": "no|no", "highway": "motorway", "lanes": "2", "lit": "no", "maxspeed": "120", "minspeed": "50", "name": "Autoestrada do Baixo Minho", "oneway": "yes", "ref": "A 11;IC 14", "surface": "asphalt", "toll": "yes", "turn:lanes": "through|through;right"}}, {"type": "Feature", "geometry": {"type": "LineString", "coordinates": [[-8.7114838, 41.4925752], [-8.71046, 41.4928478], [-8.7072107, 41.4937131]]}, "properties": {"bridge": "viaduct", "highway": "motorway", "lanes": "2", "layer": "1", "lit": "no", "maxspeed": "120", "minspeed": "50", "name": "Autoestrada do Baixo Minho", "oneway": "yes", "ref": "A 11;IC 14", "surface": "asphalt", "toll": "yes"}}, {"type": "Feature", "geometry": {"type": "LineString", "coordinates": [[-8.6542058, 41.5033514], [-8.6537207, 41.5034705]]}, "properties": {"bridge": "yes", "highway": "motorway", "lanes": "3", "layer": "1", "maxspeed": "120", "minspeed": "50", "name": "Autoestrada do Baixo Minho", "oneway": "yes", "placement": "right_of:1", "ref": "A 11;IC 14", "surface": "asphalt", "toll": "yes"}}, {"type": "Feature", "geometry": {"type": "LineString", "coordinates": [[-8.6536903, 41.5036096], [-8.6541525, 41.5034922]]}, "properties": {"bridge": "yes", "highway": "motorway", "lanes": "2", "layer": "1", "maxspeed": "120", "minspeed": "50", "name": "Autoestrada do Baixo Minho", "oneway": "yes", "ref": "A 11;IC 14", "surface": "asphalt", "toll": "yes"}}, {"type": "Feature", "geometry": {"type": "LineString", "coordinates": [[-8.6656916, 41.4994757], [-8.6662402, 41.4994599], [-8.6668101, 41.4994657], [-8.6675407, 41.4995176], [-8.6700199, 41.4998448], [-8.6710204, 41.4999338], [-8.6716649, 41.4999619], [-8.6724355, 41.4999637]]}, "properties": {"highway": "motorway", "lanes": "2", "lit": "no", "maxheight": "5.44", "maxspeed": "120", "minspeed": "50", "name": "Autoestrada do Baixo Minho", "oneway": "yes", "ref": "A 11;IC 14", "surface": "asphalt", "toll": "yes"}}, {"type": "Feature", "geometry": {"type": "LineString", "coordinates": [[-8.7290192, 41.4962999], [-8.7283719, 41.4963404], [-8.7277806, 41.4963373], [-8.7271974, 41.4962709], [-8.72646, 41.496121], [-8.7257294, 41.4958905], [-8.7199278, 41.4934988]]}, "properties": {"highway": "motorway", "lanes": "2", "lit": "no", "maxheight": "5.36", "maxspeed": "120", "minspeed": "50", "name": "Autoestrada do Baixo Minho", "oneway": "yes", "ref": "A 11;IC 14", "surface": "asphalt", "toll": "yes"}}, {"type": "Feature", "geometry": {"type": "LineString", "coordinates": [[-8.7310813, 41.4957159], [-8.7308179, 41.4958328], [-8.7304708, 41.4959698], [-8.7301294, 41.4960794], [-8.7297853, 41.4961682], [-8.7293815, 41.4962469], [-8.7290192, 41.4962999]]}, "properties": {"bridge": "viaduct", "highway": "motorway", "lanes": "2", "layer": "1", "lit": "no", "maxspeed": "120", "minspeed": "50", "name": "Autoestrada do Baixo Minho", "oneway": "yes", "ref": "A 11;IC 14", "surface": "asphalt", "toll": "yes"}}, {"type": "Feature", "geometry": {"type": "LineString", "coordinates": [[-8.7290464, 41.4963821], [-8.7294141, 41.4963324], [-8.7298121, 41.4962548], [-8.7301595, 41.4961672], [-8.7304951, 41.496062], [-8.7308866, 41.4959105], [-8.7311484, 41.4957891]]}, "properties": {"bridge": "viaduct", "highway": "motorway", "lanes": "2", "layer": "1", "lit": "no", "maxspeed": "120", "minspeed": "50", "name": "Autoestrada do Baixo Minho", "oneway": "yes", "ref": "A 11;IC 14", "surface": "asphalt", "toll": "yes"}}, {"type": "Feature", "geometry": {"type": "LineString", "coordinates": [[-8.7311484, 41.4957891], [-8.7321348, 41.4952061], [-8.7323149, 41.4950865]]}, "properties": {"highway": "motorway", "lanes": "2", "lit": "no", "maxheight": "5.57", "maxspeed": "120", "minspeed": "50", "name": "Autoestrada do Baixo Minho", "oneway": "yes", "ref": "A 11;IC 14", "surface": "asphalt", "toll": "yes"}}, {"type": "Feature", "geometry": {"type": "LineString", "coordinates": [[-8.5921857, 41.5240767], [-8.5926777, 41.5240054], [-8.593743, 41.523757], [-8.5948291, 41.5233603], [-8.5987856, 41.5215529]]}, "properties": {"highway": "motorway", "lanes": "3", "lit": "no", "maxspeed": "120", "minspeed": "50", "name": "Autoestrada do Baixo Minho", "oneway": "yes", "placement": "right_of:1", "ref": "A 11;IC 14", "surface": "asphalt", "toll": "yes"}}, {"type": "Feature", "geometry": {"type": "LineString", "coordinates": [[-8.587172, 41.5245959], [-8.588327, 41.5243724]]}, "properties": {"bridge": "yes", "highway": "motorway", "lanes": "2", "layer": "1", "lit": "no", "maxspeed": "120", "minspeed": "50", "name": "Autoestrada do Baixo Minho", "oneway": "yes", "ref": "A 11;IC 14", "surface": "asphalt", "toll": "yes"}}, {"type": "Feature", "geometry": {"type": "LineString", "coordinates": [[-8.5883671, 41.5242434], [-8.5872191, 41.5244591]]}, "properties": {"bridge": "yes", "highway": "motorway", "lanes": "2", "layer": "1", "lit": "no", "maxspeed": "120", "minspeed": "50", "name": "Autoestrada do Baixo Minho", "oneway": "yes", "ref": "A 11;IC 14", "surface": "asphalt", "toll": "yes"}}, {"type": "Feature", "geometry": {"type": "LineString", "coordinates": [[-8.5481828, 41.5336089], [-8.547283, 41.5335394], [-8.5469251, 41.5335267], [-8.5465168, 41.533521], [-8.5459326, 41.5335404], [-8.5453188, 41.5335814], [-8.5448568, 41.5336548], [-8.54414, 41.5337916], [-8.5432895, 41.5340024], [-8.5421395, 41.5344426], [-8.5411358, 41.5350034], [-8.5403638, 41.5354907], [-8.5397964, 41.5358273]]}, "properties": {"highway": "motorway", "lanes": "3", "lit": "no", "maxspeed": "120", "minspeed": "50", "name": "Autoestrada do Baixo Minho", "oneway": "yes", "placement": "right_of:1", "ref": "A 11;IC 14", "surface": "asphalt", "toll": "yes"}}, {"type": "Feature", "geometry": {"type": "LineString", "coordinates": [[-8.6289297, 41.5035679], [-8.6359092, 41.5027951], [-8.6365224, 41.5027637], [-8.6372468, 41.5027642], [-8.6379114, 41.5028129], [-8.6385193, 41.5028916], [-8.6391149, 41.5029911]]}, "properties": {"highway": "motorway", "lanes": "2", "lit": "no", "maxspeed": "120", "minspeed": "50", "name": "Autoestrada do Baixo Minho", "oneway": "yes", "ref": "A 11;IC 14", "surface": "asphalt", "toll": "yes"}}, {"type": "Feature", "geometry": {"type": "LineString", "coordinates": [[-8.6289187, 41.5034442], [-8.6270764, 41.5037039]]}, "properties": {"bridge": "viaduct", "highway": "motorway", "lanes": "2", "layer": "1", "lit": "no", "maxspeed": "120", "minspeed": "50", "name": "Autoestrada do Baixo Minho", "oneway": "yes", "ref": "A 11;IC 14", "surface": "asphalt", "toll": "yes"}}, {"type": "Feature", "geometry": {"type": "LineString", "coordinates": [[-8.6271152, 41.5038172], [-8.6289297, 41.5035679]]}, "properties": {"bridge": "viaduct", "highway": "motorway", "lanes": "2", "layer": "1", "lit": "no", "maxspeed": "120", "minspeed": "50", "name": "Autoestrada do Baixo Minho", "oneway": "yes", "ref": "A 11;IC 14", "surface": "asphalt", "toll": "yes"}}, {"type": "Feature", "geometry": {"type": "LineString", "coordinates": [[-8.6537207, 41.5034705], [-8.6533639, 41.5035584], [-8.6526578, 41.5037095], [-8.6519082, 41.5038272], [-8.6502699, 41.5039604], [-8.6460777, 41.5042088], [-8.6453391, 41.5042174], [-8.6448816, 41.5042069], [-8.6444071, 41.5041798], [-8.6439439, 41.5041289], [-8.6435267, 41.5040633]]}, "properties": {"highway": "motorway", "lanes": "3", "lit": "no", "maxspeed": "120", "minspeed": "50", "name": "Autoestrada do Baixo Minho", "oneway": "yes", "placement": "right_of:1", "ref": "A 11;IC 14", "surface": "asphalt", "toll": "yes"}}, {"type": "Feature", "geometry": {"type": "LineString", "coordinates": [[-8.5490663, 41.5337945], [-8.5492721, 41.5338093]]}, "properties": {"bridge": "yes", "highway": "motorway", "lanes": "2", "layer": "1", "lit": "no", "maxspeed": "120", "minspeed": "50", "name": "Autoestrada do Baixo Minho", "oneway": "yes", "ref": "A 11;IC 14", "surface": "asphalt", "toll": "yes"}}, {"type": "Feature", "geometry": {"type": "LineString", "coordinates": [[-8.5493988, 41.5336979], [-8.5491967, 41.5336841]]}, "properties": {"bridge": "yes", "highway": "motorway", "lanes": "2", "layer": "1", "lit": "no", "maxspeed": "120", "minspeed": "50", "name": "Autoestrada do Baixo Minho", "oneway": "yes", "ref": "A 11;IC 14", "surface": "asphalt", "toll": "yes"}}, {"type": "Feature", "geometry": {"type": "LineString", "coordinates": [[-8.5599697, 41.5333469], [-8.5593193, 41.5332181], [-8.5588525, 41.5331327], [-8.5583504, 41.5330762], [-8.5576337, 41.5330075], [-8.5565834, 41.5329956], [-8.5558976, 41.5330487], [-8.5552118, 41.5331249]]}, "properties": {"highway": "motorway", "lanes": "2", "lit": "no", "maxheight": "12.82", "maxspeed": "120", "minspeed": "50", "name": "Autoestrada do Baixo Minho", "oneway": "yes", "ref": "A 11;IC 14", "surface": "asphalt", "toll": "yes"}}, {"type": "Feature", "geometry": {"type": "LineString", "coordinates": [[-8.538138, 41.5368979], [-8.5391282, 41.5364215], [-8.5404908, 41.5356164], [-8.5412646, 41.5351403], [-8.5422442, 41.5345903], [-8.5433729, 41.5341267], [-8.5443948, 41.5338654], [-8.5448597, 41.5337844], [-8.545489, 41.5336961], [-8.546132, 41.533651], [-8.5466951, 41.5336405], [-8.5473137, 41.5336663], [-8.5479212, 41.5337119], [-8.5490663, 41.5337945]]}, "properties": {"highway": "motorway", "lanes": "2", "lit": "no", "maxspeed": "120", "minspeed": "50", "name": "Autoestrada do Baixo Minho", "oneway": "yes", "ref": "A 11;IC 14", "surface": "asphalt", "toll": "yes"}}, {"type": "Feature", "geometry": {"type": "LineString", "coordinates": [[-8.5099557, 41.5373055], [-8.5094381, 41.5373151]]}, "properties": {"bridge": "yes", "highway": "motorway", "lanes": "2", "layer": "1", "lit": "no", "maxspeed": "120", "minspeed": "50", "name": "Autoestrada do Baixo Minho", "oneway": "yes", "ref": "A 11;IC 14", "surface": "asphalt", "toll": "yes"}}, {"type": "Feature", "geometry": {"type": "LineString", "coordinates": [[-8.4929912, 41.5343528], [-8.4900471, 41.5326766], [-8.4893424, 41.5322951], [-8.4885478, 41.5319189], [-8.4876718, 41.5316117], [-8.4868335, 41.5313904], [-8.4859957, 41.531239], [-8.4854823, 41.5311837]]}, "properties": {"highway": "motorway", "lanes": "2", "lit": "no", "maxspeed": "120", "minspeed": "50", "name": "Autoestrada do Baixo Minho", "oneway": "yes", "ref": "A 11;IC 14", "surface": "asphalt", "toll": "yes"}}, {"type": "Feature", "geometry": {"type": "LineString", "coordinates": [[-8.5094475, 41.5374507], [-8.5099689, 41.5374429]]}, "properties": {"bridge": "yes", "highway": "motorway", "lanes": "2", "layer": "1", "lit": "no", "maxspeed": "120", "minspeed": "50", "name": "Autoestrada do Baixo Minho", "oneway": "yes", "ref": "A 11;IC 14", "surface": "asphalt", "toll": "yes"}}, {"type": "Feature", "geometry": {"type": "LineString", "coordinates": [[-8.5017863, 41.5375098], [-8.5020237, 41.5375411], [-8.5023197, 41.5375713], [-8.5026807, 41.5376019], [-8.5030048, 41.5376127], [-8.5034741, 41.5376186], [-8.5039155, 41.5376069]]}, "properties": {"highway": "motorway", "lanes": "3", "lit": "no", "maxspeed": "120", "minspeed": "50", "name": "Autoestrada do Baixo Minho", "oneway": "yes", "placement": "right_of:1", "ref": "A 11;IC 14", "surface": "asphalt", "toll": "yes", "turn:lanes": "||merge_to_left"}}, {"type": "Feature", "geometry": {"type": "LineString", "coordinates": [[-8.4777512, 41.5309308], [-8.4753001, 41.5305902], [-8.4744856, 41.5305167], [-8.4736797, 41.5304935], [-8.4730394, 41.5305151], [-8.472594, 41.530558], [-8.4719201, 41.5306507]]}, "properties": {"highway": "motorway", "lanes": "2", "lit": "no", "maxspeed": "120", "minspeed": "50", "name": "Autoestrada do Baixo Minho", "oneway": "yes", "ref": "A 11;IC 14", "surface": "asphalt", "toll": "yes"}}, {"type": "Feature", "geometry": {"type": "LineString", "coordinates": [[-8.7423089, 41.4890278], [-8.7427076, 41.4889492]]}, "properties": {"highway": "motorway", "lanes": "2", "maxspeed": "80", "oneway": "yes", "ref": "A 11;IC 14", "surface": "asphalt", "toll": "yes", "turn:lanes": "through|through;right"}}, {"type": "Feature", "geometry": {"type": "LineString", "coordinates": [[-8.7381971, 41.4911374], [-8.7396543, 41.4901545], [-8.7404193, 41.4896868]]}, "properties": {"highway": "motorway", "lanes": "2", "maxheight": "5.39", "maxspeed": "120", "minspeed": "50", "name": "Autoestrada do Baixo Minho", "oneway": "yes", "ref": "A 11;IC 14", "surface": "asphalt", "toll": "yes", "turn:lanes": "through|through;right"}}, {"type": "Feature", "geometry": {"type": "LineString", "coordinates": [[-8.7352174, 41.4931584], [-8.7365797, 41.4922534]]}, "properties": {"highway": "motorway", "lanes": "2", "maxspeed": "60", "name": "Autoestrada do Baixo Minho", "oneway": "yes", "ref": "A 11;IC 14", "surface": "asphalt", "toll": "yes"}}, {"type": "Feature", "geometry": {"type": "LineString", "coordinates": [[-8.7342932, 41.4937723], [-8.7352174, 41.4931584]]}, "properties": {"highway": "motorway", "lanes": "2", "maxspeed": "80", "minspeed": "50", "name": "Autoestrada do Baixo Minho", "oneway": "yes", "ref": "A 11;IC 14", "surface": "asphalt", "toll": "yes"}}, {"type": "Feature", "geometry": {"type": "LineString", "coordinates": [[-8.7365797, 41.4922534], [-8.7370263, 41.4919389], [-8.7373269, 41.4917272], [-8.7376447, 41.4915118], [-8.7381971, 41.4911374]]}, "properties": {"highway": "motorway", "lanes": "2", "maxspeed": "120", "minspeed": "50", "name": "Autoestrada do Baixo Minho", "oneway": "yes", "ref": "A 11;IC 14", "surface": "asphalt", "toll": "yes"}}, {"type": "Feature", "geometry": {"type": "LineString", "coordinates": [[-8.7389425, 41.4904932], [-8.7379411, 41.4911719]]}, "properties": {"highway": "motorway", "lanes": "2", "maxheight": "5.39", "maxspeed": "80", "minspeed": "50", "name": "Autoestrada do Baixo Minho", "oneway": "yes", "ref": "A 11;IC 14", "surface": "asphalt", "toll": "yes"}}, {"type": "Feature", "geometry": {"type": "LineString", "coordinates": [[-8.736448, 41.4921562], [-8.7355961, 41.4927352], [-8.7350301, 41.4931199], [-8.7341246, 41.4937353]]}, "properties": {"highway": "motorway", "lanes": "2", "maxspeed": "120", "minspeed": "50", "name": "Autoestrada do Baixo Minho", "oneway": "yes", "ref": "A 11;IC 14", "surface": "asphalt", "toll": "yes"}}, {"type": "Feature", "geometry": {"type": "LineString", "coordinates": [[-8.7410986, 41.4890393], [-8.740588, 41.4893779], [-8.7389425, 41.4904932]]}, "properties": {"highway": "motorway", "lanes": "2", "maxspeed": "120", "minspeed": "50", "name": "Autoestrada do Baixo Minho", "oneway": "yes", "ref": "A 11;IC 14", "surface": "asphalt", "toll": "yes"}}, {"type": "Feature", "geometry": {"type": "LineString", "coordinates": [[-8.7047017, 41.4945016], [-8.7073096, 41.4937881]]}, "properties": {"highway": "motorway", "lanes": "2", "maxspeed": "120", "minspeed": "50", "name": "Autoestrada do Baixo Minho", "oneway": "yes", "ref": "A 11;IC 14", "surface": "asphalt", "toll": "yes"}}, {"type": "Feature", "geometry": {"type": "LineString", "coordinates": [[-8.7007312, 41.4953103], [-8.7015112, 41.4952142]]}, "properties": {"change:lanes": "no|no", "destination": "Esposende;Porto;Viana do Castelo", "destination:ref": "A 11;A 28;A 28", "highway": "motorway", "lanes": "2", "maxspeed": "120", "minspeed": "50", "name": "Autoestrada do Baixo Minho", "oneway": "yes", "ref": "A 11;IC 14", "surface": "asphalt", "toll": "yes"}}, {"type": "Feature", "geometry": {"type": "LineString", "coordinates": [[-8.697563, 41.4954423], [-8.6985432, 41.4954276]]}, "properties": {"change:lanes": "no|no", "highway": "motorway", "lanes": "2", "lit": "no", "maxspeed": "120", "minspeed": "50", "name": "Autoestrada do Baixo Minho", "oneway": "yes", "ref": "A 11;IC 14", "surface": "asphalt", "toll": "yes", "turn:lanes": "through|through;right"}}, {"type": "Feature", "geometry": {"type": "LineString", "coordinates": [[-8.6954239, 41.4954599], [-8.697563, 41.4954423]]}, "properties": {"highway": "motorway", "lanes": "2", "lit": "no", "maxspeed": "120", "name": "Autoestrada do Baixo Minho", "oneway": "yes", "ref": "A 11;IC 14", "surface": "asphalt", "toll": "yes", "turn:lanes": "through|through;right"}}, {"type": "Feature", "geometry": {"type": "LineString", "coordinates": [[-8.6894085, 41.4956081], [-8.6909272, 41.4955205], [-8.6954239, 41.4954599]]}, "properties": {"highway": "motorway", "lanes": "2", "lit": "no", "maxspeed": "120", "minspeed": "50", "name": "Autoestrada do Baixo Minho", "oneway": "yes", "ref": "A 11;IC 14", "surface": "asphalt", "toll": "yes"}}, {"type": "Feature", "geometry": {"type": "LineString", "coordinates": [[-8.698832, 41.495298], [-8.6908964, 41.4953997], [-8.6894254, 41.4954888]]}, "properties": {"highway": "motorway", "lanes": "2", "lit": "no", "maxspeed": "120", "minspeed": "50", "name": "Autoestrada do Baixo Minho", "oneway": "yes", "ref": "A 11;IC 14", "surface": "asphalt", "toll": "yes"}}, {"type": "Feature", "geometry": {"type": "LineString", "coordinates": [[-8.7015112, 41.4952142], [-8.7022533, 41.4951013], [-8.7030521, 41.4949355], [-8.7033429, 41.4948727]]}, "properties": {"highway": "motorway", "lanes": "2", "maxspeed": "120", "minspeed": "50", "name": "Autoestrada do Baixo Minho", "oneway": "yes", "ref": "A 11;IC 14", "surface": "asphalt", "toll": "yes"}}, {"type": "Feature", "geometry": {"type": "LineString", "coordinates": [[-8.701451, 41.4950975], [-8.700327, 41.4952247], [-8.6995652, 41.495273], [-8.698832, 41.495298]]}, "properties": {"highway": "motorway", "lanes": "3", "maxheight": "6.65", "maxspeed": "120", "minspeed": "50", "name": "Autoestrada do Baixo Minho", "oneway": "yes", "placement": "right_of:1", "ref": "A 11;IC 14", "surface": "asphalt", "toll": "yes", "turn:lanes": "||merge_to_left"}}, {"type": "Feature", "geometry": {"type": "LineString", "coordinates": [[-8.7056867, 41.4941097], [-8.7048841, 41.4943228]]}, "properties": {"change:lanes": "no|no", "destination": "Braga;Barcelos", "destination:ref": "A 11", "highway": "motorway", "lanes": "2", "lit": "yes", "maxspeed": "120", "minspeed": "50", "name": "Autoestrada do Baixo Minho", "oneway": "yes", "ref": "A 11;IC 14", "surface": "asphalt", "toll": "yes"}}, {"type": "Feature", "geometry": {"type": "LineString", "coordinates": [[-8.7033429, 41.4948727], [-8.7047017, 41.4945016]]}, "properties": {"highway": "motorway", "lanes": "3", "maxheight": "5.64", "maxspeed": "120", "minspeed": "50", "name": "Autoestrada do Baixo Minho", "oneway": "yes", "placement": "right_of:1", "ref": "A 11;IC 14", "surface": "asphalt", "toll": "yes", "turn:lanes": "||merge_to_left"}}, {"type": "Feature", "geometry": {"type": "LineString", "coordinates": [[-8.6541525, 41.5034922], [-8.6549215, 41.5032664], [-8.6553839, 41.5031127], [-8.6557405, 41.5029855]]}, "properties": {"highway": "motorway", "lanes": "2", "maxspeed": "120", "minspeed": "50", "name": "Autoestrada do Baixo Minho", "oneway": "yes", "ref": "A 11;IC 14", "surface": "asphalt", "toll": "yes"}}, {"type": "Feature", "geometry": {"type": "LineString", "coordinates": [[-8.6571438, 41.5022485], [-8.6558419, 41.502804], [-8.6549209, 41.5031433], [-8.6542058, 41.5033514]]}, "properties": {"highway": "motorway", "lanes": "3", "maxspeed": "120", "minspeed": "50", "name": "Autoestrada do Baixo Minho", "oneway": "yes", "placement": "right_of:1", "ref": "A 11;IC 14", "surface": "asphalt", "toll": "yes"}}, {"type": "Feature", "geometry": {"type": "LineString", "coordinates": [[-8.6603764, 41.5010404], [-8.6620572, 41.5003154]]}, "properties": {"highway": "motorway", "lanes": "3", "maxspeed": "120", "minspeed": "50", "name": "Autoestrada do Baixo Minho", "oneway": "yes", "placement": "right_of:1", "ref": "A 11;IC 14", "surface": "asphalt", "toll": "yes", "turn:lanes": "||merge_to_left"}}, {"type": "Feature", "geometry": {"type": "LineString", "coordinates": [[-8.6575837, 41.5022088], [-8.6603764, 41.5010404]]}, "properties": {"highway": "motorway", "lanes": "2", "maxspeed": "120", "minspeed": "50", "name": "Autoestrada do Baixo Minho", "oneway": "yes", "ref": "A 11;IC 14", "surface": "asphalt", "toll": "yes"}}, {"type": "Feature", "geometry": {"type": "LineString", "coordinates": [[-8.6562784, 41.5027722], [-8.6569406, 41.5024813]]}, "properties": {"change:lanes": "no|not_left|yes", "highway": "motorway", "lanes": "3", "maxspeed": "120", "minspeed": "50", "name": "Autoestrada do Baixo Minho", "oneway": "yes", "placement": "right_of:1", "ref": "A 11;IC 14", "surface": "asphalt", "toll": "yes", "turn:lanes": "||right"}}, {"type": "Feature", "geometry": {"type": "LineString", "coordinates": [[-8.6569406, 41.5024813], [-8.6575837, 41.5022088]]}, "properties": {"change:lanes": "no|no", "highway": "motorway", "lanes": "2", "maxspeed": "120", "minspeed": "50", "name": "Autoestrada do Baixo Minho", "oneway": "yes", "ref": "A 11;IC 14", "surface": "asphalt", "toll": "yes"}}, {"type": "Feature", "geometry": {"type": "LineString", "coordinates": [[-8.6557405, 41.5029855], [-8.6562784, 41.5027722]]}, "properties": {"highway": "motorway", "lanes": "3", "maxspeed": "120", "minspeed": "50", "name": "Autoestrada do Baixo Minho", "oneway": "yes", "placement": "right_of:1", "ref": "A 11;IC 14", "surface": "asphalt", "toll": "yes", "turn:lanes": "||right"}}, {"type": "Feature", "geometry": {"type": "LineString", "coordinates": [[-8.6598696, 41.5010977], [-8.6571438, 41.5022485]]}, "properties": {"highway": "motorway", "lanes": "2", "maxspeed": "120", "minspeed": "50", "name": "Autoestrada do Baixo Minho", "oneway": "yes", "ref": "A 11;IC 14", "surface": "asphalt", "toll": "yes"}}, {"type": "Feature", "geometry": {"type": "LineString", "coordinates": [[-8.6611538, 41.5005616], [-8.6598696, 41.5010977]]}, "properties": {"change:lanes": "no|no", "highway": "motorway", "lanes": "2", "maxspeed": "120", "minspeed": "50", "name": "Autoestrada do Baixo Minho", "oneway": "yes", "ref": "A 11;IC 14", "surface": "asphalt", "toll": "yes"}}, {"type": "Feature", "geometry": {"type": "LineString", "coordinates": [[-8.6617824, 41.5003074], [-8.6611538, 41.5005616]]}, "properties": {"destination:lanes": "||\u00c1rea de Servi\u00e7o Barcelos Sul", "highway": "motorway", "lanes": "3", "maxspeed": "120", "minspeed": "50", "name": "Autoestrada do Baixo Minho", "oneway": "yes", "placement": "right_of:1", "ref": "A 11;IC 14", "surface": "asphalt", "toll": "yes", "turn:lanes": "||right"}}, {"type": "Feature", "geometry": {"type": "LineString", "coordinates": [[-8.6402441, 41.5031506], [-8.6397648, 41.5030113], [-8.6391051, 41.5028565], [-8.6385097, 41.5027576], [-8.6380597, 41.5027021], [-8.6375928, 41.5026617], [-8.6368138, 41.5026354], [-8.6358806, 41.5026723], [-8.6289187, 41.5034442]]}, "properties": {"highway": "motorway", "lanes": "2", "lit": "no", "maxspeed": "120", "minspeed": "50", "name": "Autoestrada do Baixo Minho", "oneway": "yes", "placement": "right_of:1", "ref": "A 11;IC 14", "surface": "asphalt", "toll": "yes"}}, {"type": "Feature", "geometry": {"type": "LineString", "coordinates": [[-8.6127608, 41.5131169], [-8.6117194, 41.5138887]]}, "properties": {"change:lanes": "no|not_left|yes", "destination:lanes": "Braga;Guimar\u00e3es|Braga;Guimar\u00e3es|Barcelos;Est\u00e1dio", "destination:ref:lanes": "A 11|A 11|N 103", "highway": "motorway", "lanes": "3", "maxheight": "5.34", "maxspeed": "120", "minspeed": "50", "name": "Autoestrada do Baixo Minho", "oneway": "yes", "placement": "right_of:1", "ref": "A 11;IC 14", "surface": "asphalt", "toll": "yes", "turn:lanes": "through|through|right"}}, {"type": "Feature", "geometry": {"type": "LineString", "coordinates": [[-8.6115675, 41.5141763], [-8.6126983, 41.5133258]]}, "properties": {"highway": "motorway", "lanes": "3", "maxspeed": "120", "minspeed": "50", "name": "Autoestrada do Baixo Minho", "oneway": "yes", "placement": "right_of:1", "ref": "A 11;IC 14", "surface": "asphalt", "toll": "yes", "turn:lanes": "||merge_to_left"}}, {"type": "Feature", "geometry": {"type": "LineString", "coordinates": [[-8.6096981, 41.5155241], [-8.6115675, 41.5141763]]}, "properties": {"highway": "motorway", "lanes": "2", "maxspeed": "120", "minspeed": "50", "name": "Autoestrada do Baixo Minho", "oneway": "yes", "ref": "A 11;IC 14", "surface": "asphalt", "toll": "yes"}}, {"type": "Feature", "geometry": {"type": "LineString", "coordinates": [[-8.6087269, 41.5162476], [-8.6093091, 41.515821]]}, "properties": {"destination": "Porto;Viana do Castelo;Esposende", "destination:ref": "A 11;A 28;A 28", "highway": "motorway", "lanes": "3", "maxspeed": "120", "minspeed": "50", "name": "Autoestrada do Baixo Minho", "oneway": "yes", "placement": "right_of:1", "ref": "A 11;IC 14", "surface": "asphalt", "toll": "yes", "turn:lanes": "||merge_to_left"}}, {"type": "Feature", "geometry": {"type": "LineString", "coordinates": [[-8.6075012, 41.5171655], [-8.6081012, 41.5167487]]}, "properties": {"change:lanes": "no|not_left|yes", "destination:lanes": "Porto;Viana do Castelo;Esposende|Porto;Viana do Castelo;Esposende|Barcelos;Est\u00e1dio", "destination:ref:lanes": "A 11;A 28;A 28|A 11;A 28;A 28|N 103", "highway": "motorway", "lanes": "3", "maxspeed": "120", "minspeed": "50", "name": "Autoestrada do Baixo Minho", "oneway": "yes", "placement": "right_of:1", "ref": "A 11;IC 14", "surface": "asphalt", "toll": "yes", "turn:lanes": "through|through|through;right"}}, {"type": "Feature", "geometry": {"type": "LineString", "coordinates": [[-8.6061824, 41.5180321], [-8.6071759, 41.517398], [-8.607313, 41.5173071], [-8.6075012, 41.5171655]]}, "properties": {"highway": "motorway", "lanes": "3", "lit": "no", "maxspeed": "120", "minspeed": "50", "name": "Autoestrada do Baixo Minho", "oneway": "yes", "placement": "right_of:1", "ref": "A 11;IC 14", "surface": "asphalt", "toll": "yes", "turn:lanes": "through|through|through;right"}}, {"type": "Feature", "geometry": {"type": "LineString", "coordinates": [[-8.6092087, 41.5157236], [-8.6082798, 41.5164285]]}, "properties": {"highway": "motorway", "lanes": "3", "lit": "yes", "maxspeed": "120", "minspeed": "50", "name": "Autoestrada do Baixo Minho", "oneway": "yes", "placement": "right_of:1", "ref": "A 11;IC 14", "surface": "asphalt", "toll": "yes", "turn:lanes": "||merge_to_left"}}, {"type": "Feature", "geometry": {"type": "LineString", "coordinates": [[-8.6081012, 41.5167487], [-8.6084653, 41.5164374], [-8.6087269, 41.5162476]]}, "properties": {"change:lanes": "no|not_left|yes", "destination": "Porto;Viana do Castelo;Esposende", "destination:ref": "A 11;A 28;A 28", "highway": "motorway", "lanes": "3", "maxspeed": "120", "minspeed": "50", "name": "Autoestrada do Baixo Minho", "oneway": "yes", "placement": "right_of:1", "ref": "A 11;IC 14", "surface": "asphalt", "toll": "yes", "turn:lanes": "||merge_to_left"}}, {"type": "Feature", "geometry": {"type": "LineString", "coordinates": [[-8.6109047, 41.5144886], [-8.6095947, 41.5154359]]}, "properties": {"highway": "motorway", "lanes": "2", "lit": "yes", "maxspeed": "120", "minspeed": "50", "name": "Autoestrada do Baixo Minho", "oneway": "yes", "ref": "A 11;IC 14", "surface": "asphalt", "toll": "yes"}}, {"type": "Feature", "geometry": {"type": "LineString", "coordinates": [[-8.6117194, 41.5138887], [-8.6109047, 41.5144886]]}, "properties": {"change:lanes": "no|no", "destination": "Braga;Guimar\u00e3es", "destination:ref": "A 11", "highway": "motorway", "lanes": "2", "lit": "yes", "maxspeed": "120", "minspeed": "50", "name": "Autoestrada do Baixo Minho", "oneway": "yes", "ref": "A 11;IC 14", "surface": "asphalt", "toll": "yes"}}, {"type": "Feature", "geometry": {"type": "LineString", "coordinates": [[-8.6133736, 41.5126531], [-8.6127608, 41.5131169]]}, "properties": {"change:lanes": "no|no", "highway": "motorway", "lanes": "2", "maxspeed": "120", "minspeed": "50", "name": "Autoestrada do Baixo Minho", "oneway": "yes", "ref": "A 11;IC 14", "surface": "asphalt", "toll": "yes", "turn:lanes": "through|through;right"}}, {"type": "Feature", "geometry": {"type": "LineString", "coordinates": [[-8.615022, 41.5114837], [-8.6133736, 41.5126531]]}, "properties": {"highway": "motorway", "lanes": "2", "lit": "no", "maxspeed": "120", "minspeed": "50", "name": "Autoestrada do Baixo Minho", "oneway": "yes", "ref": "A 11;IC 14", "surface": "asphalt", "toll": "yes", "turn:lanes": "through|through;right"}}, {"type": "Feature", "geometry": {"type": "LineString", "coordinates": [[-8.5094381, 41.5373151], [-8.5039026, 41.537467], [-8.5029607, 41.5374604]]}, "properties": {"highway": "motorway", "lanes": "2", "lit": "no", "maxheight": "5.66", "maxspeed": "120", "minspeed": "50", "name": "Autoestrada do Baixo Minho", "oneway": "yes", "ref": "A 11;IC 14", "surface": "asphalt", "toll": "yes"}}, {"type": "Feature", "geometry": {"type": "LineString", "coordinates": [[-8.5039155, 41.5376069], [-8.5094475, 41.5374507]]}, "properties": {"highway": "motorway", "lanes": "2", "lit": "no", "maxspeed": "120", "minspeed": "50", "name": "Autoestrada do Baixo Minho", "oneway": "yes", "ref": "A 11;IC 14", "surface": "asphalt", "toll": "yes"}}, {"type": "Feature", "geometry": {"type": "LineString", "coordinates": [[-8.5099689, 41.5374429], [-8.5137226, 41.5373389]]}, "properties": {"highway": "motorway", "lanes": "2", "lit": "no", "maxspeed": "120", "minspeed": "50", "name": "Autoestrada do Baixo Minho", "oneway": "yes", "ref": "A 11;IC 14", "surface": "asphalt", "toll": "yes"}}, {"type": "Feature", "geometry": {"type": "LineString", "coordinates": [[-8.5189117, 41.537345], [-8.5175212, 41.5372424], [-8.5161865, 41.537166], [-8.5148757, 41.5371741]]}, "properties": {"highway": "motorway", "lanes": "2", "lit": "no", "maxheight": "5.79", "maxspeed": "120", "minspeed": "50", "name": "Autoestrada do Baixo Minho", "oneway": "yes", "ref": "A 11;IC 14", "surface": "asphalt", "toll": "yes"}}, {"type": "Feature", "geometry": {"type": "LineString", "coordinates": [[-8.5137226, 41.5373389], [-8.51617, 41.5373372], [-8.517835, 41.5374258]]}, "properties": {"highway": "motorway", "lanes": "3", "lit": "no", "maxheight": "6.56", "maxspeed": "120", "minspeed": "50", "name": "Autoestrada do Baixo Minho", "oneway": "yes", "placement": "right_of:1", "ref": "A 11;IC 14", "surface": "asphalt", "toll": "yes"}}, {"type": "Feature", "geometry": {"type": "LineString", "coordinates": [[-8.5491967, 41.5336841], [-8.5481828, 41.5336089]]}, "properties": {"highway": "motorway", "lanes": "2", "lit": "no", "maxspeed": "120", "minspeed": "50", "name": "Autoestrada do Baixo Minho", "oneway": "yes", "ref": "A 11;IC 14", "surface": "asphalt", "toll": "yes"}}, {"type": "Feature", "geometry": {"type": "LineString", "coordinates": [[-8.5492721, 41.5338093], [-8.5496627, 41.5338346], [-8.5500647, 41.5338564]]}, "properties": {"highway": "motorway", "lanes": "2", "lit": "no", "maxspeed": "120", "minspeed": "50", "name": "Autoestrada do Baixo Minho", "oneway": "yes", "ref": "A 11;IC 14", "surface": "asphalt", "toll": "yes"}}, {"type": "Feature", "geometry": {"type": "LineString", "coordinates": [[-8.5500647, 41.5338564], [-8.5504536, 41.5338663], [-8.5508831, 41.5338569], [-8.5513592, 41.5338268], [-8.5518406, 41.5337696], [-8.552958, 41.5336123], [-8.554385, 41.5333814], [-8.5556037, 41.5332144], [-8.5566244, 41.5331398], [-8.557225, 41.5331357], [-8.5579394, 41.5331734], [-8.5590589, 41.5333171]]}, "properties": {"highway": "motorway", "lanes": "3", "lit": "no", "maxheight": "13.60", "maxspeed": "120", "minspeed": "50", "name": "Autoestrada do Baixo Minho", "oneway": "yes", "placement": "right_of:1", "ref": "A 11;IC 14", "surface": "asphalt", "toll": "yes"}}, {"type": "Feature", "geometry": {"type": "LineString", "coordinates": [[-8.588327, 41.5243724], [-8.5892243, 41.524276], [-8.5916166, 41.5241516], [-8.5921857, 41.5240767]]}, "properties": {"highway": "motorway", "lanes": "2", "lit": "no", "maxheight": "7.16", "maxspeed": "120", "minspeed": "50", "name": "Autoestrada do Baixo Minho", "oneway": "yes", "placement": "right_of:1", "ref": "A 11;IC 14", "surface": "asphalt", "toll": "yes"}}, {"type": "Feature", "geometry": {"type": "LineString", "coordinates": [[-8.4995544, 41.5369849], [-8.500283, 41.5371903], [-8.5008192, 41.5373267], [-8.5011756, 41.5374035], [-8.5015144, 41.5374655], [-8.5017863, 41.5375098]]}, "properties": {"highway": "motorway", "lanes": "2", "maxspeed": "120", "minspeed": "50", "name": "Autoestrada do Baixo Minho", "oneway": "yes", "ref": "A 11;IC 14", "surface": "asphalt", "toll": "yes"}}, {"type": "Feature", "geometry": {"type": "LineString", "coordinates": [[-8.4953407, 41.535731], [-8.4966274, 41.5361377]]}, "properties": {"change:lanes": "no|no", "destination": "Barcelos;Viana do Castelo;Esposende", "destination:ref": "A 11;A 28;A 28", "highway": "motorway", "lanes": "2", "maxspeed": "120", "minspeed": "50", "name": "Autoestrada do Baixo Minho", "oneway": "yes", "ref": "A 11;IC 14", "surface": "asphalt", "toll": "yes"}}, {"type": "Feature", "geometry": {"type": "LineString", "coordinates": [[-8.4936265, 41.5349317], [-8.4941527, 41.5352135], [-8.4944871, 41.535386], [-8.4948087, 41.535534], [-8.4950705, 41.5356405], [-8.4953407, 41.535731]]}, "properties": {"change:lanes": "no|not_left|yes", "destination:lanes": "Barcelos;Viana do Castelo;Esposende|Barcelos;Viana do Castelo;Esposende|Porto;Valen\u00e7a;Martim;Cabreiros", "destination:ref:lanes": "A 11;A 28;A 28|A 11;A 28;A 28|A 3;A 3;N 103;N 103", "highway": "motorway", "lanes": "3", "maxheight": "5.9", "maxspeed": "120", "minspeed": "50", "name": "Autoestrada do Baixo Minho", "oneway": "yes", "placement": "right_of:1", "ref": "A 11;IC 14", "surface": "asphalt", "toll": "yes", "turn:lanes": "through|through|right"}}, {"type": "Feature", "geometry": {"type": "LineString", "coordinates": [[-8.4919839, 41.5339566], [-8.4925342, 41.5342812], [-8.4936265, 41.5349317]]}, "properties": {"change:lanes": "no|no", "highway": "motorway", "lanes": "2", "lit": "no", "maxspeed": "120", "minspeed": "50", "name": "Autoestrada do Baixo Minho", "oneway": "yes", "ref": "A 11;IC 14", "surface": "asphalt", "toll": "yes", "turn:lanes": "through|through;right"}}, {"type": "Feature", "geometry": {"type": "LineString", "coordinates": [[-8.4903181, 41.5329911], [-8.4906708, 41.5331965], [-8.4919839, 41.5339566]]}, "properties": {"highway": "motorway", "lanes": "2", "lit": "no", "maxspeed": "120", "minspeed": "50", "name": "Autoestrada do Baixo Minho", "oneway": "yes", "ref": "A 11;IC 14", "surface": "asphalt", "toll": "yes", "turn:lanes": "through|through;right"}}, {"type": "Feature", "geometry": {"type": "LineString", "coordinates": [[-8.4855741, 41.5313169], [-8.48599, 41.5313649], [-8.4868077, 41.5315161], [-8.4876258, 41.5317238], [-8.4884763, 41.5320317], [-8.4892403, 41.5323864], [-8.4898576, 41.532714], [-8.4903181, 41.5329911]]}, "properties": {"highway": "motorway", "lanes": "2", "lit": "no", "maxspeed": "120", "minspeed": "50", "name": "Autoestrada do Baixo Minho", "oneway": "yes", "ref": "A 11;IC 14", "surface": "asphalt", "toll": "yes"}}, {"type": "Feature", "geometry": {"type": "LineString", "coordinates": [[-8.4949242, 41.5353782], [-8.4946288, 41.5352417], [-8.4943387, 41.5351033], [-8.4939239, 41.5348841], [-8.4929912, 41.5343528]]}, "properties": {"highway": "motorway", "lanes": "3", "lit": "yes", "maxheight": "6.25", "maxspeed": "120", "minspeed": "50", "name": "Autoestrada do Baixo Minho", "oneway": "yes", "placement": "right_of:1", "ref": "A 11;IC 14", "surface": "asphalt", "toll": "yes", "turn:lanes": "||merge_to_left"}}, {"type": "Feature", "geometry": {"type": "LineString", "coordinates": [[-8.4974018, 41.5362156], [-8.4969024, 41.5360733], [-8.4962093, 41.5358596], [-8.4956164, 41.5356579], [-8.4952536, 41.5355215], [-8.4949242, 41.5353782]]}, "properties": {"highway": "motorway", "lanes": "2", "lit": "yes", "maxspeed": "120", "minspeed": "50", "name": "Autoestrada do Baixo Minho", "oneway": "yes", "ref": "A 11;IC 14", "surface": "asphalt", "toll": "yes"}}, {"type": "Feature", "geometry": {"type": "LineString", "coordinates": [[-8.4980237, 41.5363951], [-8.4974018, 41.5362156]]}, "properties": {"destination": "Guimar\u00e3es;Braga", "destination:ref": "A 11", "highway": "motorway", "lanes": "2", "maxspeed": "120", "minspeed": "50", "name": "Autoestrada do Baixo Minho", "oneway": "yes", "ref": "A 11;IC 14", "surface": "asphalt", "toll": "yes"}}, {"type": "Feature", "geometry": {"type": "LineString", "coordinates": [[-8.5002476, 41.5370468], [-8.4980237, 41.5363951]]}, "properties": {"change:lanes": "no|not_left|yes", "destination:lanes": "Guimar\u00e3es;Braga|Guimar\u00e3es;Braga|Porto;Valen\u00e7a;Martins;Cabreiros", "destination:ref:lanes": "A 11|A 11|A 3;A 3;N 103;N 103", "highway": "motorway", "lanes": "3", "maxheight": "5.94", "maxspeed": "120", "minspeed": "50", "name": "Autoestrada do Baixo Minho", "oneway": "yes", "placement": "right_of:1", "ref": "A 11;IC 14", "surface": "asphalt", "toll": "yes", "turn:lanes": "through|through|right"}}, {"type": "Feature", "geometry": {"type": "LineString", "coordinates": [[-8.5009396, 41.5372166], [-8.5002476, 41.5370468]]}, "properties": {"change:lanes": "no|no", "highway": "motorway", "lanes": "2", "lit": "yes", "maxspeed": "120", "minspeed": "50", "name": "Autoestrada do Baixo Minho", "oneway": "yes", "ref": "A 11;IC 14", "surface": "asphalt", "toll": "yes", "turn:lanes": "through|through;right"}}, {"type": "Feature", "geometry": {"type": "LineString", "coordinates": [[-8.5029607, 41.5374604], [-8.5026527, 41.5374518], [-8.5023263, 41.5374298], [-8.502012, 41.5373957], [-8.5016555, 41.5373459], [-8.5013466, 41.537294], [-8.5009396, 41.5372166]]}, "properties": {"highway": "motorway", "lanes": "2", "maxspeed": "120", "minspeed": "50", "name": "Autoestrada do Baixo Minho", "oneway": "yes", "ref": "A 11;IC 14", "surface": "asphalt", "toll": "yes", "turn:lanes": "through|through;right"}}, {"type": "Feature", "geometry": {"type": "LineString", "coordinates": [[-8.4661468, 41.5320105], [-8.4665863, 41.5319299], [-8.4672453, 41.5318009], [-8.4680038, 41.5316399]]}, "properties": {"highway": "motorway", "lanes": "2", "lit": "yes", "maxspeed": "60", "minspeed": "50", "name": "Autoestrada do Baixo Minho", "oneway": "yes", "ref": "A 11;IC 14", "surface": "asphalt", "toll": "yes"}}, {"type": "Feature", "geometry": {"type": "LineString", "coordinates": [[-8.4649119, 41.5322779], [-8.4655882, 41.5321314]]}, "properties": {"highway": "motorway", "lanes": "2", "lit": "no", "maxspeed": "80", "minspeed": "50", "name": "Autoestrada do Baixo Minho", "oneway": "yes", "ref": "A 11;IC 14", "surface": "asphalt", "toll": "yes"}}, {"type": "Feature", "geometry": {"type": "LineString", "coordinates": [[-8.4719496, 41.5307697], [-8.4726364, 41.5306742], [-8.4730766, 41.530633], [-8.4736812, 41.5306132], [-8.4745038, 41.5306416], [-8.4752822, 41.5307108], [-8.4773237, 41.5310002]]}, "properties": {"highway": "motorway", "lanes": "2", "lit": "no", "maxspeed": "120", "minspeed": "50", "name": "Autoestrada do Baixo Minho", "oneway": "yes", "ref": "A 11;IC 14", "surface": "asphalt", "toll": "yes"}}, {"type": "Feature", "geometry": {"type": "LineString", "coordinates": [[-8.4694664, 41.5311231], [-8.4692521, 41.5311248], [-8.468721, 41.5312274], [-8.4679106, 41.5314064]]}, "properties": {"highway": "motorway", "lanes": "2", "lit": "yes", "maxheight:signed": "no", "maxspeed": "60", "minspeed": "50", "name": "Autoestrada do Baixo Minho", "oneway": "yes", "ref": "A 11;IC 14", "surface": "asphalt", "toll": "yes"}}, {"type": "Feature", "geometry": {"type": "LineString", "coordinates": [[-8.4719201, 41.5306507], [-8.4712232, 41.5307819], [-8.4694664, 41.5311231]]}, "properties": {"highway": "motorway", "lanes": "2", "lit": "yes", "maxspeed": "80", "minspeed": "50", "name": "Autoestrada do Baixo Minho", "oneway": "yes", "ref": "A 11;IC 14", "surface": "asphalt", "toll": "yes"}}, {"type": "Feature", "geometry": {"type": "LineString", "coordinates": [[-8.4679106, 41.5314064], [-8.4676628, 41.5314542], [-8.4671214, 41.531577], [-8.466868, 41.5316401], [-8.4666577, 41.5316924], [-8.4664977, 41.5317391], [-8.4664173, 41.5317852], [-8.466142, 41.5318638], [-8.4659088, 41.5319303], [-8.4650918, 41.5321157]]}, "properties": {"highway": "motorway", "lanes": "2", "lit": "yes", "maxspeed": "120", "minspeed": "50", "name": "Autoestrada do Baixo Minho", "oneway": "yes", "ref": "A 11;IC 14", "surface": "asphalt", "toll": "yes"}}, {"type": "Feature", "geometry": {"type": "LineString", "coordinates": [[-8.5259268, 41.5379847], [-8.5246604, 41.5378692]]}, "properties": {"highway": "motorway", "lanes": "3", "lit": "no", "maxheight": "5.33", "maxspeed": "120", "minspeed": "50", "name": "Autoestrada do Baixo Minho", "oneway": "yes", "placement": "right_of:1", "ref": "A 11;IC 14", "surface": "asphalt", "toll": "yes", "turn:lanes": "||merge_to_left"}}, {"type": "Feature", "geometry": {"type": "LineString", "coordinates": [[-8.6435267, 41.5040633], [-8.6430659, 41.5039717], [-8.6426314, 41.5038653], [-8.6421048, 41.5037153], [-8.6402441, 41.5031506]]}, "properties": {"highway": "motorway", "lanes": "3", "lit": "no", "maxheight": "11.8", "maxspeed": "120", "minspeed": "50", "name": "Autoestrada do Baixo Minho", "oneway": "yes", "placement": "right_of:1", "ref": "A 11;IC 14", "surface": "asphalt", "toll": "yes", "turn:lanes": "||merge_to_left"}}, {"type": "Feature", "geometry": {"type": "LineString", "coordinates": [[-8.5590589, 41.5333171], [-8.5602896, 41.5335505]]}, "properties": {"highway": "motorway", "lanes": "3", "lit": "no", "maxspeed": "120", "minspeed": "50", "name": "Autoestrada do Baixo Minho", "oneway": "yes", "placement": "right_of:1", "ref": "A 11;IC 14", "surface": "asphalt", "toll": "yes", "turn:lanes": "||merge_to_left"}}, {"type": "Feature", "geometry": {"type": "LineString", "coordinates": [[-8.5242974, 41.5379899], [-8.5255954, 41.5381072]]}, "properties": {"highway": "motorway", "lanes": "3", "lit": "no", "maxheight": "5.33", "maxspeed": "120", "minspeed": "50", "name": "Autoestrada do Baixo Minho", "oneway": "yes", "placement": "right_of:1", "ref": "A 11;IC 14", "surface": "asphalt", "toll": "yes", "turn:lanes": "||merge_to_left"}}, {"type": "Feature", "geometry": {"type": "LineString", "coordinates": [[-8.6082798, 41.5164285], [-8.6075346, 41.5169574], [-8.6069175, 41.5173945], [-8.6063852, 41.517745], [-8.605842, 41.5180742], [-8.6053068, 41.5183621], [-8.6047713, 41.5186296], [-8.6042166, 41.5188942], [-8.5993673, 41.5211241]]}, "properties": {"highway": "motorway", "lanes": "2", "lit": "no", "maxheight": "5.61", "maxspeed": "120", "minspeed": "50", "name": "Autoestrada do Baixo Minho", "oneway": "yes", "ref": "A 11;IC 14", "surface": "asphalt", "toll": "yes"}}, {"type": "Feature", "geometry": {"type": "LineString", "coordinates": [[-8.5872191, 41.5244591], [-8.5866737, 41.5246008], [-8.586155, 41.5247733], [-8.5852057, 41.5251598], [-8.5818967, 41.5265683]]}, "properties": {"highway": "motorway", "lanes": "2", "lit": "no", "maxheight": "6.07", "maxspeed": "120", "minspeed": "50", "name": "Autoestrada do Baixo Minho", "oneway": "yes", "ref": "A 11;IC 14", "surface": "asphalt", "toll": "yes"}}, {"type": "Feature", "geometry": {"type": "LineString", "coordinates": [[-8.5818967, 41.5265683], [-8.5798077, 41.5273552], [-8.577605, 41.5280883], [-8.5737867, 41.5292033], [-8.572847, 41.5295299]]}, "properties": {"highway": "motorway", "lanes": "2", "lit": "no", "maxheight": "6.24", "maxspeed": "120", "minspeed": "50", "name": "Autoestrada do Baixo Minho", "oneway": "yes", "ref": "A 11;IC 14", "surface": "asphalt", "toll": "yes"}}, {"type": "Feature", "geometry": {"type": "LineString", "coordinates": [[-8.5711315, 41.5303485], [-8.5707133, 41.5306003], [-8.5702752, 41.530873], [-8.5685916, 41.532083], [-8.5681609, 41.5323589], [-8.5677454, 41.5325899], [-8.5672758, 41.5328292], [-8.5668498, 41.5330266], [-8.5663851, 41.5332017], [-8.5658626, 41.5333578], [-8.5653172, 41.5334904], [-8.5648371, 41.5335792], [-8.5641147, 41.5336752], [-8.5635715, 41.533713], [-8.5630593, 41.5337276]]}, "properties": {"highway": "motorway", "lanes": "2", "lit": "no", "maxheight": "7.34", "maxspeed": "120", "minspeed": "50", "name": "Autoestrada do Baixo Minho", "oneway": "yes", "ref": "A 11;IC 14", "surface": "asphalt", "toll": "yes"}}, {"type": "Feature", "geometry": {"type": "LineString", "coordinates": [[-8.4526327, 41.5316827], [-8.4520902, 41.5316109], [-8.4510741, 41.531529], [-8.450164, 41.5314928], [-8.4494103, 41.5314873], [-8.4484542, 41.5315178]]}, "properties": {"highway": "motorway", "lanes": "2", "lit": "no", "maxspeed": "120", "minspeed": "50", "name": "Autoestrada do Baixo Minho", "oneway": "yes", "ref": "A 11;IC 14", "surface": "asphalt", "toll": "yes"}}, {"type": "Feature", "geometry": {"type": "LineString", "coordinates": [[-8.4560919, 41.5321969], [-8.4536005, 41.531817]]}, "properties": {"highway": "motorway", "lanes": "2", "lit": "no", "maxspeed": "120", "minspeed": "50", "name": "Autoestrada do Baixo Minho", "oneway": "yes", "ref": "A 11;IC 14", "surface": "asphalt", "toll": "yes"}}, {"type": "Feature", "geometry": {"type": "LineString", "coordinates": [[-8.447675, 41.5316497], [-8.448437, 41.5316282], [-8.4493981, 41.5316053], [-8.4501628, 41.5316133], [-8.4510572, 41.531648]]}, "properties": {"highway": "motorway", "lanes": "2", "lit": "no", "maxspeed": "120", "minspeed": "50", "name": "Autoestrada do Baixo Minho", "oneway": "yes", "ref": "A 11;IC 14", "surface": "asphalt", "toll": "yes"}}, {"type": "Feature", "geometry": {"type": "LineString", "coordinates": [[-8.4510572, 41.531648], [-8.4520556, 41.5317319], [-8.453268, 41.5318889], [-8.4535118, 41.531926]]}, "properties": {"highway": "motorway", "lanes": "2", "lit": "no", "maxheight": "7.57", "maxspeed": "120", "minspeed": "50", "name": "Autoestrada do Baixo Minho", "oneway": "yes", "ref": "A 11;IC 14", "surface": "asphalt", "toll": "yes"}}, {"type": "Feature", "geometry": {"type": "LineString", "coordinates": [[-8.4535118, 41.531926], [-8.4541616, 41.5320249], [-8.4544277, 41.532066]]}, "properties": {"highway": "motorway", "lanes": "2", "lit": "no", "maxspeed": "120", "minspeed": "50", "name": "Autoestrada do Baixo Minho", "oneway": "yes", "ref": "A 11;IC 14", "surface": "asphalt", "toll": "yes"}}, {"type": "Feature", "geometry": {"type": "LineString", "coordinates": [[-8.4544277, 41.532066], [-8.4574129, 41.5325268], [-8.4581444, 41.5326349], [-8.459174, 41.5327645]]}, "properties": {"highway": "motorway", "lanes": "2", "lit": "no", "maxheight": "6.12", "maxspeed": "120", "minspeed": "50", "name": "Autoestrada do Baixo Minho", "oneway": "yes", "ref": "A 11;IC 14", "surface": "asphalt", "toll": "yes"}}, {"type": "Feature", "geometry": {"type": "LineString", "coordinates": [[-8.4966274, 41.5361377], [-8.4982217, 41.5366041]]}, "properties": {"highway": "motorway", "lanes": "2", "maxheight": "6.3", "maxspeed": "120", "minspeed": "50", "name": "Autoestrada do Baixo Minho", "oneway": "yes", "ref": "A 11;IC 14", "surface": "asphalt", "toll": "yes"}}, {"type": "Feature", "geometry": {"type": "LineString", "coordinates": [[-8.517835, 41.5374258], [-8.518379, 41.5374548], [-8.5242974, 41.5379899]]}, "properties": {"highway": "motorway", "lanes": "3", "lit": "no", "maxspeed": "120", "minspeed": "50", "name": "Autoestrada do Baixo Minho", "oneway": "yes", "placement": "right_of:1", "ref": "A 11;IC 14", "surface": "asphalt", "toll": "yes"}}, {"type": "Feature", "geometry": {"type": "LineString", "coordinates": [[-8.5255954, 41.5381072], [-8.5293224, 41.5384442], [-8.5308013, 41.5384903], [-8.5323087, 41.5384212], [-8.533513, 41.5382636]]}, "properties": {"highway": "motorway", "lanes": "2", "lit": "no", "maxspeed": "120", "minspeed": "50", "name": "Autoestrada do Baixo Minho", "oneway": "yes", "ref": "A 11;IC 14", "surface": "asphalt", "toll": "yes"}}, {"type": "Feature", "geometry": {"type": "LineString", "coordinates": [[-8.533513, 41.5382636], [-8.5347275, 41.5380354], [-8.5356141, 41.5378082], [-8.5368342, 41.5374354], [-8.538138, 41.5368979]]}, "properties": {"highway": "motorway", "lanes": "2", "lit": "no", "maxheight": "5.84", "maxspeed": "120", "minspeed": "50", "name": "Autoestrada do Baixo Minho", "oneway": "yes", "ref": "A 11;IC 14", "surface": "asphalt", "toll": "yes"}}, {"type": "Feature", "geometry": {"type": "LineString", "coordinates": [[-8.5397964, 41.5358273], [-8.5390208, 41.5362873], [-8.5380433, 41.5367635], [-8.5367802, 41.5372805], [-8.5362412, 41.5374626], [-8.5355761, 41.5376608], [-8.5346733, 41.53789]]}, "properties": {"highway": "motorway", "lanes": "3", "lit": "no", "maxheight": "6.8", "maxspeed": "120", "minspeed": "50", "name": "Autoestrada do Baixo Minho", "oneway": "yes", "placement": "right_of:1", "ref": "A 11;IC 14", "surface": "asphalt", "toll": "yes"}}, {"type": "Feature", "geometry": {"type": "LineString", "coordinates": [[-8.5346733, 41.53789], [-8.5340841, 41.5380105], [-8.5335233, 41.5381067], [-8.5329453, 41.5381869], [-8.5323633, 41.538255], [-8.530915, 41.53834], [-8.5294583, 41.5383067], [-8.5259268, 41.5379847]]}, "properties": {"highway": "motorway", "lanes": "3", "lit": "no", "maxspeed": "120", "minspeed": "50", "name": "Autoestrada do Baixo Minho", "oneway": "yes", "placement": "right_of:1", "ref": "A 11;IC 14", "surface": "asphalt", "toll": "yes"}}, {"type": "Feature", "geometry": {"type": "LineString", "coordinates": [[-8.5729246, 41.5296351], [-8.573897, 41.529302], [-8.5749406, 41.5289948], [-8.5763549, 41.5285849], [-8.5782515, 41.5280117], [-8.579391, 41.5276333], [-8.5807006, 41.5271874]]}, "properties": {"highway": "motorway", "lanes": "2", "lit": "no", "maxheight": "6.03", "maxspeed": "120", "minspeed": "50", "name": "Autoestrada do Baixo Minho", "oneway": "yes", "ref": "A 11;IC 14", "surface": "asphalt", "toll": "yes"}}, {"type": "Feature", "geometry": {"type": "LineString", "coordinates": [[-8.5807006, 41.5271874], [-8.5821941, 41.5266091], [-8.5832649, 41.526162], [-8.5843415, 41.5256906], [-8.5854921, 41.5251876], [-8.5864403, 41.5248161], [-8.587172, 41.5245959]]}, "properties": {"highway": "motorway", "lanes": "2", "lit": "no", "maxheight": "6.37", "maxspeed": "120", "minspeed": "50", "name": "Autoestrada do Baixo Minho", "oneway": "yes", "ref": "A 11;IC 14", "surface": "asphalt", "toll": "yes"}}, {"type": "Feature", "geometry": {"type": "LineString", "coordinates": [[-8.5987856, 41.5215529], [-8.6033599, 41.5194633], [-8.6042182, 41.5190585], [-8.6050603, 41.518647], [-8.60564, 41.5183472], [-8.6061824, 41.5180321]]}, "properties": {"highway": "motorway", "lanes": "3", "lit": "no", "maxheight": "5.48", "maxspeed": "120", "minspeed": "50", "name": "Autoestrada do Baixo Minho", "oneway": "yes", "placement": "right_of:1", "ref": "A 11;IC 14", "surface": "asphalt", "toll": "yes"}}, {"type": "Feature", "geometry": {"type": "LineString", "coordinates": [[-8.5246604, 41.5378692], [-8.5189117, 41.537345]]}, "properties": {"highway": "motorway", "lanes": "2", "lit": "no", "maxspeed": "120", "minspeed": "50", "name": "Autoestrada do Baixo Minho", "oneway": "yes", "ref": "A 11;IC 14", "surface": "asphalt", "toll": "yes"}}, {"type": "Feature", "geometry": {"type": "LineString", "coordinates": [[-8.5148757, 41.5371741], [-8.5139509, 41.5371799], [-8.5099557, 41.5373055]]}, "properties": {"highway": "motorway", "lanes": "2", "lit": "no", "maxspeed": "120", "minspeed": "50", "name": "Autoestrada do Baixo Minho", "oneway": "yes", "ref": "A 11;IC 14", "surface": "asphalt", "toll": "yes"}}, {"type": "Feature", "geometry": {"type": "LineString", "coordinates": [[-8.4989875, 41.5368244], [-8.4995544, 41.5369849]]}, "properties": {"highway": "motorway", "lanes": "2", "maxheight": "7.97", "maxspeed": "120", "minspeed": "50", "name": "Autoestrada do Baixo Minho", "oneway": "yes", "ref": "A 11;IC 14", "surface": "asphalt", "toll": "yes"}}, {"type": "Feature", "geometry": {"type": "LineString", "coordinates": [[-8.4536005, 41.531817], [-8.4532954, 41.5317705], [-8.4526327, 41.5316827]]}, "properties": {"highway": "motorway", "lanes": "2", "lit": "no", "maxheight": "7.44", "maxspeed": "120", "minspeed": "50", "name": "Autoestrada do Baixo Minho", "oneway": "yes", "ref": "A 11;IC 14", "surface": "asphalt", "toll": "yes"}}, {"type": "Feature", "geometry": {"type": "LineString", "coordinates": [[-8.7341246, 41.4937353], [-8.7320704, 41.4951314], [-8.7310813, 41.4957159]]}, "properties": {"highway": "motorway", "lanes": "2", "lit": "no", "maxheight": "5.93", "maxspeed": "120", "minspeed": "50", "name": "Autoestrada do Baixo Minho", "oneway": "yes", "ref": "A 11;IC 14", "surface": "asphalt", "toll": "yes"}}, {"type": "Feature", "geometry": {"type": "LineString", "coordinates": [[-8.7323149, 41.4950865], [-8.7342932, 41.4937723]]}, "properties": {"highway": "motorway", "lanes": "2", "lit": "no", "maxspeed": "120", "minspeed": "50", "name": "Autoestrada do Baixo Minho", "oneway": "yes", "ref": "A 11;IC 14", "surface": "asphalt", "toll": "yes"}}, {"type": "Feature", "geometry": {"type": "LineString", "coordinates": [[-8.6889614, 41.4955317], [-8.6879808, 41.4956608], [-8.6874712, 41.4957473], [-8.6869517, 41.4958417], [-8.6855896, 41.4961586], [-8.684295, 41.49654], [-8.6800593, 41.4980046], [-8.6771517, 41.4989788], [-8.67634, 41.4992396], [-8.6758837, 41.4993624], [-8.6752333, 41.4995083]]}, "properties": {"highway": "motorway", "lanes": "2", "lit": "no", "maxheight": "5.66", "maxspeed": "120", "minspeed": "50", "name": "Autoestrada do Baixo Minho", "oneway": "yes", "ref": "A 11;IC 14", "surface": "asphalt", "toll": "yes"}}, {"type": "Feature", "geometry": {"type": "LineString", "coordinates": [[-8.6724355, 41.4999637], [-8.6733547, 41.4999036], [-8.6742286, 41.4998111], [-8.6752167, 41.4996437], [-8.6756087, 41.4995602], [-8.6762898, 41.499385], [-8.6772805, 41.4990728], [-8.680248, 41.4980717]]}, "properties": {"highway": "motorway", "lanes": "2", "lit": "no", "maxheight": "5.82", "maxspeed": "120", "minspeed": "50", "name": "Autoestrada do Baixo Minho", "oneway": "yes", "ref": "A 11;IC 14", "surface": "asphalt", "toll": "yes"}}, {"type": "Feature", "geometry": {"type": "LineString", "coordinates": [[-8.680248, 41.4980717], [-8.6843772, 41.4966556], [-8.6855671, 41.4962925], [-8.6870152, 41.4959549], [-8.687415, 41.495881], [-8.6877286, 41.4958275], [-8.6884886, 41.4957151], [-8.6889601, 41.495655]]}, "properties": {"highway": "motorway", "lanes": "2", "lit": "no", "maxspeed": "120", "minspeed": "50", "name": "Autoestrada do Baixo Minho", "oneway": "yes", "ref": "A 11;IC 14", "surface": "asphalt", "toll": "yes"}}, {"type": "Feature", "geometry": {"type": "LineString", "coordinates": [[-8.6620572, 41.5003154], [-8.6626326, 41.5001115], [-8.6631191, 41.4999447], [-8.6636295, 41.4998], [-8.6641801, 41.4996733], [-8.6645967, 41.4995967], [-8.665061, 41.4995315], [-8.6656916, 41.4994757]]}, "properties": {"highway": "motorway", "lanes": "2", "maxheight": "6.58", "maxspeed": "120", "minspeed": "50", "name": "Autoestrada do Baixo Minho", "oneway": "yes", "ref": "A 11;IC 14", "surface": "asphalt", "toll": "yes"}}, {"type": "Feature", "geometry": {"type": "LineString", "coordinates": [[-8.6416529, 41.5037266], [-8.6421865, 41.5038858], [-8.6426189, 41.5040037], [-8.6431099, 41.504119], [-8.6435062, 41.5041947], [-8.6440997, 41.5042814], [-8.6446418, 41.5043328], [-8.6451581, 41.504351], [-8.6456367, 41.5043489], [-8.6460914, 41.5043354], [-8.6466646, 41.504302]]}, "properties": {"highway": "motorway", "lanes": "2", "lit": "no", "maxheight": "8.6", "maxspeed": "120", "minspeed": "50", "name": "Autoestrada do Baixo Minho", "oneway": "yes", "ref": "A 11;IC 14", "surface": "asphalt", "toll": "yes"}}, {"type": "Feature", "geometry": {"type": "LineString", "coordinates": [[-8.6466646, 41.504302], [-8.6479282, 41.5042285], [-8.6502787, 41.5040888], [-8.6519417, 41.5039454], [-8.6526725, 41.5038245], [-8.6533505, 41.5036882], [-8.6536903, 41.5036096]]}, "properties": {"highway": "motorway", "lanes": "2", "lit": "no", "maxspeed": "120", "minspeed": "50", "name": "Autoestrada do Baixo Minho", "oneway": "yes", "ref": "A 11;IC 14", "surface": "asphalt", "toll": "yes"}}, {"type": "Feature", "geometry": {"type": "LineString", "coordinates": [[-8.6270764, 41.5037039], [-8.6264216, 41.5038423], [-8.6257279, 41.5040091], [-8.6250154, 41.5042351], [-8.6244762, 41.5044247], [-8.6239706, 41.5046214], [-8.6234025, 41.5048624], [-8.6229459, 41.5050782]]}, "properties": {"highway": "motorway", "lanes": "2", "lit": "no", "maxspeed": "120", "minspeed": "50", "name": "Autoestrada do Baixo Minho", "oneway": "yes", "ref": "A 11;IC 14", "surface": "asphalt", "toll": "yes"}}, {"type": "Feature", "geometry": {"type": "LineString", "coordinates": [[-8.6229459, 41.5050782], [-8.622673, 41.5052155], [-8.6221196, 41.5055214], [-8.621596, 41.5058284], [-8.6211077, 41.506142], [-8.6206576, 41.506463], [-8.6201002, 41.50692], [-8.6198376, 41.5071612]]}, "properties": {"highway": "motorway", "lanes": "2", "lit": "no", "maxheight": "5.75", "maxspeed": "120", "minspeed": "50", "name": "Autoestrada do Baixo Minho", "oneway": "yes", "ref": "A 11;IC 14", "surface": "asphalt", "toll": "yes"}}, {"type": "Feature", "geometry": {"type": "LineString", "coordinates": [[-8.612875, 41.5131956], [-8.6143119, 41.5121368], [-8.6153761, 41.5113792], [-8.6164514, 41.5105384], [-8.617295, 41.5098608], [-8.6178323, 41.5093503], [-8.6187133, 41.5084598], [-8.6193282, 41.5078202], [-8.62021, 41.5070134], [-8.6207778, 41.5065425], [-8.6214744, 41.5060576]]}, "properties": {"highway": "motorway", "lanes": "2", "lit": "no", "maxheight": "6.75", "maxspeed": "120", "minspeed": "50", "name": "Autoestrada do Baixo Minho", "oneway": "yes", "ref": "A 11;IC 14", "surface": "asphalt", "toll": "yes"}}, {"type": "Feature", "geometry": {"type": "LineString", "coordinates": [[-8.6126983, 41.5133258], [-8.612875, 41.5131956]]}, "properties": {"highway": "motorway", "lanes": "2", "maxheight": "5.28", "maxspeed": "120", "minspeed": "50", "oneway": "yes", "ref": "A 11;IC 14", "surface": "asphalt", "toll": "yes"}}, {"type": "Feature", "geometry": {"type": "LineString", "coordinates": [[-8.4694664, 41.5311231], [-8.4692788, 41.5311962], [-8.4685922, 41.5313451], [-8.4679485, 41.5314868], [-8.4676994, 41.5315402], [-8.4666756, 41.5317596], [-8.4665417, 41.5317852], [-8.4664173, 41.5317852]]}, "properties": {"highway": "motorway", "lanes": "2", "lit": "yes", "maxheight:signed": "no", "minspeed": "50", "name": "Autoestrada do Baixo Minho", "oneway": "yes", "ref": "A 11;IC 14", "surface": "asphalt", "toll": "yes"}}, {"type": "Feature", "geometry": {"type": "LineString", "coordinates": [[-8.4661468, 41.5320105], [-8.4662786, 41.531954], [-8.4665243, 41.5318914], [-8.4679758, 41.5315717], [-8.4693078, 41.5312854], [-8.469512, 41.5313001]]}, "properties": {"highway": "motorway", "lanes": "1", "lit": "yes", "minspeed": "50", "name": "Autoestrada do Baixo Minho", "oneway": "yes", "ref": "A 11;IC 14", "surface": "asphalt", "toll": "yes"}}, {"type": "Feature", "geometry": {"type": "LineString", "coordinates": [[-8.4661468, 41.5320105], [-8.4663471, 41.5320132], [-8.4666, 41.5319824], [-8.4673716, 41.5318396], [-8.4680238, 41.5317113], [-8.4685279, 41.5315926], [-8.4691424, 41.5314461], [-8.4693758, 41.5313905], [-8.469512, 41.5313001]]}, "properties": {"highway": "motorway", "lanes": "1", "lit": "yes", "minspeed": "50", "name": "Autoestrada do Baixo Minho", "oneway": "yes", "ref": "A 11;IC 14", "surface": "asphalt", "toll": "yes"}}, {"type": "Feature", "geometry": {"type": "LineString", "coordinates": [[-8.5699203, 41.5313254], [-8.5704088, 41.5309766], [-8.5709074, 41.5306315], [-8.5713579, 41.5303715], [-8.5718236, 41.5301152], [-8.5729246, 41.5296351]]}, "properties": {"highway": "motorway", "lanes": "2", "lit": "no", "maxspeed": "120", "minspeed": "50", "name": "Autoestrada do Baixo Minho", "oneway": "yes", "ref": "A 11;IC 14", "surface": "asphalt", "toll": "yes"}}, {"type": "Feature", "geometry": {"type": "LineString", "coordinates": [[-8.6752333, 41.4995083], [-8.6747163, 41.4996099], [-8.6742, 41.499695], [-8.6732823, 41.4997891], [-8.6724229, 41.4998312], [-8.67174, 41.4998373], [-8.6710696, 41.4998079], [-8.6699804, 41.4997199], [-8.669304, 41.4996287]]}, "properties": {"highway": "motorway", "lanes": "2", "lit": "no", "maxheight": "5.99", "maxspeed": "120", "minspeed": "50", "name": "Autoestrada do Baixo Minho", "oneway": "yes", "ref": "A 11;IC 14", "surface": "asphalt", "toll": "yes"}}, {"type": "Feature", "geometry": {"type": "LineString", "coordinates": [[-8.7176258, 41.4926966], [-8.7182871, 41.4929216], [-8.7192901, 41.4933572], [-8.721259, 41.4941667]]}, "properties": {"highway": "motorway", "lanes": "2", "lit": "no", "maxheight": "5.33", "maxspeed": "120", "minspeed": "50", "name": "Autoestrada do Baixo Minho", "oneway": "yes", "ref": "A 11;IC 14", "surface": "asphalt", "toll": "yes"}}, {"type": "Feature", "geometry": {"type": "LineString", "coordinates": [[-8.721259, 41.4941667], [-8.7256718, 41.495981], [-8.7264323, 41.4962083], [-8.7271722, 41.4963626], [-8.7277825, 41.4964191], [-8.7283428, 41.4964364], [-8.7290464, 41.4963821]]}, "properties": {"highway": "motorway", "lanes": "2", "lit": "no", "maxspeed": "120", "minspeed": "50", "name": "Autoestrada do Baixo Minho", "oneway": "yes", "ref": "A 11;IC 14", "surface": "asphalt", "toll": "yes"}}, {"type": "Feature", "geometry": {"type": "LineString", "coordinates": [[-8.4982217, 41.5366041], [-8.4989875, 41.5368244]]}, "properties": {"highway": "motorway", "lanes": "2", "maxspeed": "120", "minspeed": "50", "name": "Autoestrada do Baixo Minho", "oneway": "yes", "ref": "A 11;IC 14", "surface": "asphalt", "toll": "yes"}}, {"type": "Feature", "geometry": {"type": "LineString", "coordinates": [[-8.6391149, 41.5029911], [-8.6396713, 41.5031173], [-8.6402244, 41.503273], [-8.6410673, 41.5035358], [-8.6416529, 41.5037266]]}, "properties": {"highway": "motorway", "lanes": "2", "lit": "no", "maxheight": "9.14", "maxspeed": "120", "minspeed": "50", "name": "Autoestrada do Baixo Minho", "oneway": "yes", "ref": "A 11;IC 14", "surface": "asphalt", "toll": "yes"}}, {"type": "Feature", "geometry": {"type": "LineString", "coordinates": [[-8.7115408, 41.4926611], [-8.7128569, 41.4923394], [-8.7137753, 41.4922107]]}, "properties": {"highway": "motorway", "lanes": "2", "lit": "no", "maxspeed": "120", "minspeed": "50", "name": "Autoestrada do Baixo Minho", "oneway": "yes", "ref": "A 11;IC 14", "surface": "asphalt", "toll": "yes"}}, {"type": "Feature", "geometry": {"type": "LineString", "coordinates": [[-8.7199278, 41.4934988], [-8.7183541, 41.4928501], [-8.7171162, 41.4924222], [-8.7162931, 41.4922323], [-8.7154987, 41.4921188]]}, "properties": {"highway": "motorway", "lanes": "2", "lit": "no", "maxheight": "5.27", "maxspeed": "120", "minspeed": "50", "name": "Autoestrada do Baixo Minho", "oneway": "yes", "ref": "A 11;IC 14", "surface": "asphalt", "toll": "yes"}}, {"type": "Feature", "geometry": {"type": "LineString", "coordinates": [[-8.7154987, 41.4921188], [-8.7147314, 41.492077], [-8.7137731, 41.4921134], [-8.7128467, 41.4922442], [-8.7114838, 41.4925752]]}, "properties": {"highway": "motorway", "lanes": "2", "lit": "no", "maxspeed": "120", "minspeed": "50", "name": "Autoestrada do Baixo Minho", "oneway": "yes", "ref": "A 11;IC 14", "surface": "asphalt", "toll": "yes"}}, {"type": "Feature", "geometry": {"type": "LineString", "coordinates": [[-8.572847, 41.5295299], [-8.5717168, 41.5300283], [-8.5711315, 41.5303485]]}, "properties": {"highway": "motorway", "lanes": "2", "lit": "no", "maxspeed": "120", "minspeed": "50", "name": "Autoestrada do Baixo Minho", "oneway": "yes", "ref": "A 11;IC 14", "surface": "asphalt", "toll": "yes"}}, {"type": "Feature", "geometry": {"type": "LineString", "coordinates": [[-8.4680038, 41.5316399], [-8.4688487, 41.5314503], [-8.469512, 41.5313001], [-8.4698553, 41.5312212], [-8.4700471, 41.5311772], [-8.4712167, 41.5309053], [-8.4719496, 41.5307697]]}, "properties": {"highway": "motorway", "lanes": "2", "lit": "yes", "maxspeed": "120", "minspeed": "50", "name": "Autoestrada do Baixo Minho", "oneway": "yes", "ref": "A 11;IC 14", "surface": "asphalt", "toll": "yes"}}, {"type": "Feature", "geometry": {"type": "LineString", "coordinates": [[-8.4655882, 41.5321314], [-8.4661468, 41.5320105]]}, "properties": {"highway": "motorway", "lanes": "2", "lit": "yes", "maxspeed": "80", "minspeed": "50", "name": "Autoestrada do Baixo Minho", "oneway": "yes", "ref": "A 11;IC 14", "surface": "asphalt", "toll": "yes"}}, {"type": "Feature", "geometry": {"type": "LineString", "coordinates": [[-8.4467218, 41.5316846], [-8.4471492, 41.5316645], [-8.447675, 41.5316497]]}, "properties": {"highway": "motorway", "lanes": "2", "lit": "yes", "maxspeed": "120", "minspeed": "50", "name": "Autoestrada do Baixo Minho", "oneway": "yes", "ref": "A 11;IC 14", "surface": "asphalt", "toll": "yes"}}, {"type": "Feature", "geometry": {"type": "LineString", "coordinates": [[-8.5630593, 41.5337276], [-8.5623885, 41.5337128], [-8.561669, 41.5336464], [-8.5610326, 41.5335573], [-8.5599697, 41.5333469]]}, "properties": {"highway": "motorway", "lanes": "2", "lit": "no", "maxspeed": "120", "minspeed": "50", "name": "Autoestrada do Baixo Minho", "oneway": "yes", "ref": "A 11;IC 14", "surface": "asphalt", "toll": "yes"}}, {"type": "Feature", "geometry": {"type": "LineString", "coordinates": [[-8.5552118, 41.5331249], [-8.5534075, 41.5333992], [-8.5524085, 41.5335498], [-8.5516683, 41.5336498], [-8.5511117, 41.5337041], [-8.5506627, 41.5337234], [-8.5503496, 41.5337303], [-8.5499641, 41.5337266], [-8.549673, 41.533715], [-8.5493988, 41.5336979]]}, "properties": {"highway": "motorway", "lanes": "2", "lit": "no", "maxspeed": "120", "minspeed": "50", "name": "Autoestrada do Baixo Minho", "oneway": "yes", "ref": "A 11;IC 14", "surface": "asphalt", "toll": "yes"}}]}