{"type": "FeatureCollection", "features": [{"type": "Feature", "geometry": {"type": "LineString", "coordinates": [[-8.2914554, 41.0892267], [-8.2914364, 41.0891327], [-8.2914683, 41.0889866]]}, "properties": {"highway": "trunk", "lanes": "1", "old_name": "N106", "oneway": "yes", "ref": "EN 224;IC 35"}}, {"type": "Feature", "geometry": {"type": "LineString", "coordinates": [[-8.2771096, 41.0613261], [-8.2768986, 41.0615028], [-8.2766701, 41.061662], [-8.2764351, 41.061794], [-8.2761783, 41.0618977], [-8.2759459, 41.0619752], [-8.275693, 41.0620426], [-8.2754213, 41.0620911], [-8.2751589, 41.0621163], [-8.2748206, 41.0621236], [-8.2738999, 41.0621098], [-8.2734329, 41.0620966], [-8.2729278, 41.0620731], [-8.2726089, 41.0620279], [-8.2722792, 41.0619495], [-8.2720162, 41.0618633], [-8.2717492, 41.0617504], [-8.2707356, 41.0613096]]}, "properties": {"bicycle": "no", "highway": "trunk", "lanes": "3", "lanes:backward": "2", "lanes:forward": "1", "maxspeed": "60", "name": "Variante \u00e0 EN224", "oneway": "no", "ref": "EN 224;IC 35", "ref_1": "IC35", "ref_2": "EN224"}}, {"type": "Feature", "geometry": {"type": "LineString", "coordinates": [[-8.2965701, 41.0816903], [-8.2939011, 41.0781866], [-8.2937904, 41.078052], [-8.2936241, 41.0778781], [-8.2935007, 41.0777629], [-8.2932271, 41.0775688], [-8.2929403, 41.0773907]]}, "properties": {"bridge": "yes", "bridge:name": "Nova Ponte Hintze Ribeiro", "highway": "trunk", "lanes": "1", "layer": "1", "maxspeed": "80", "name": "Variante \u00e0 EN224", "oneway": "yes", "ref": "EN 224;IC 35", "ref_1": "IC 35", "ref_2": "EN 224", "surface": "asphalt"}}, {"type": "Feature", "geometry": {"type": "LineString", "coordinates": [[-8.266932, 41.0603474], [-8.2666426, 41.0602598], [-8.2664863, 41.0602279], [-8.2662876, 41.0602007], [-8.2660075, 41.0601935], [-8.2657313, 41.0602154], [-8.2655353, 41.0602549], [-8.2653204, 41.0603212], [-8.2651413, 41.0603949], [-8.264941, 41.0604979], [-8.2646951, 41.060638], [-8.2644313, 41.0607903], [-8.2638577, 41.0611171], [-8.2632772, 41.0614457]]}, "properties": {"bicycle": "no", "highway": "trunk", "lanes": "2", "name": "Variante \u00e0 EN224", "oneway": "no", "ref": "EN 224;IC 35"}}, {"type": "Feature", "geometry": {"type": "LineString", "coordinates": [[-8.2929403, 41.0773907], [-8.292707, 41.0772596], [-8.2920774, 41.0769065], [-8.2918016, 41.0767455]]}, "properties": {"highway": "trunk", "lanes": "2", "name": "Variante \u00e0 EN224", "oneway": "yes", "ref": "EN 224;IC 35", "ref_1": "IC35", "ref_2": "EN224"}}, {"type": "Feature", "geometry": {"type": "LineString", "coordinates": [[-8.2918016, 41.0767455], [-8.2913572, 41.0764791], [-8.2908326, 41.0761358], [-8.2906665, 41.0760046], [-8.2904925, 41.0758556], [-8.2902751, 41.0755933], [-8.2901129, 41.0753101], [-8.2898756, 41.0748271], [-8.2897215, 41.074547], [-8.289504, 41.0742667], [-8.2894283, 41.074196], [-8.2892548, 41.0740342], [-8.2889227, 41.0737957], [-8.2885945, 41.073593], [-8.2884363, 41.0734887], [-8.2882584, 41.0733486], [-8.2880765, 41.0731936], [-8.2879006, 41.0730129], [-8.287707, 41.0727338], [-8.2875664, 41.0724006], [-8.2874715, 41.0720012], [-8.2873592, 41.0715396]]}, "properties": {"bicycle": "no", "highway": "trunk", "lanes": "2", "name": "Variante \u00e0 EN224", "oneway": "yes", "ref": "EN 224;IC 35", "ref_1": "IC35", "ref_2": "EN224"}}, {"type": "Feature", "geometry": {"type": "LineString", "coordinates": [[-8.2960306, 41.0834381], [-8.2964295, 41.0830358], [-8.2965402, 41.0828838], [-8.2966272, 41.0827377], [-8.2967024, 41.0825291], [-8.29673, 41.0823234], [-8.2967271, 41.0821989], [-8.2967063, 41.0820611], [-8.2966351, 41.0818346], [-8.2965701, 41.0816903]]}, "properties": {"highway": "trunk", "lanes": "1", "maxspeed": "80", "name": "Variante \u00e0 EN224", "old_name": "N106", "oneway": "yes", "ref": "EN 224;IC 35", "ref_1": "IC35", "ref_2": "EN224", "surface": "asphalt"}}, {"type": "Feature", "geometry": {"type": "LineString", "coordinates": [[-8.2914683, 41.0889866], [-8.2913854, 41.089061], [-8.2913084, 41.0891301], [-8.2912522, 41.0891608]]}, "properties": {"highway": "trunk", "lanes": "1", "oneway": "yes", "ref": "EN 224;IC 35"}}, {"type": "Feature", "geometry": {"type": "LineString", "coordinates": [[-8.2914683, 41.0889866], [-8.2915911, 41.0888416], [-8.2917635, 41.088675], [-8.2920844, 41.0883879], [-8.292446, 41.0880334], [-8.2926746, 41.087722], [-8.2928177, 41.0874615], [-8.2929635, 41.0871624], [-8.2934482, 41.0860923], [-8.293632, 41.0857381], [-8.2938518, 41.0853839], [-8.2940793, 41.0851258], [-8.2943137, 41.0848937], [-8.2950721, 41.0842037]]}, "properties": {"highway": "trunk", "lanes": "3", "lanes:backward": "2", "lanes:forward": "1", "maxspeed": "80", "old_name": "N106", "ref": "EN 224;IC 35", "surface": "asphalt"}}, {"type": "Feature", "geometry": {"type": "LineString", "coordinates": [[-8.2873592, 41.0715396], [-8.2872702, 41.0710047], [-8.2871515, 41.0705284], [-8.2870285, 41.0702174], [-8.2869025, 41.0699641], [-8.2867462, 41.0697235], [-8.2863646, 41.0691662], [-8.2857735, 41.0683365], [-8.2849066, 41.0671006], [-8.2843356, 41.0663019], [-8.2842543, 41.0661881], [-8.2839968, 41.065774], [-8.2838972, 41.0655417], [-8.2838407, 41.0652591], [-8.2838233, 41.0649584], [-8.2838423, 41.0647191], [-8.2840397, 41.0635802], [-8.2841436, 41.0630623], [-8.2841907, 41.06279], [-8.2842014, 41.0625036], [-8.2841587, 41.0621688], [-8.2840979, 41.0619648], [-8.2840263, 41.0617246], [-8.28376, 41.0609497], [-8.2834976, 41.0602947]]}, "properties": {"bicycle": "no", "highway": "trunk", "lanes": "3", "lanes:backward": "1", "lanes:forward": "2", "name": "Variante \u00e0 EN224", "oneway": "no", "ref": "EN 224;IC 35", "ref_1": "IC35", "ref_2": "EN224"}}, {"type": "Feature", "geometry": {"type": "LineString", "coordinates": [[-8.2873592, 41.0715396], [-8.2873656, 41.0717718], [-8.2874201, 41.0720608], [-8.2875029, 41.0724058], [-8.2876386, 41.0727336], [-8.2878358, 41.0730227], [-8.2880646, 41.0732711], [-8.288203, 41.0734052], [-8.2883371, 41.0735098], [-8.2889889, 41.0739263], [-8.2892232, 41.0741058], [-8.2894475, 41.0743145], [-8.2896463, 41.0745696], [-8.2898085, 41.074851], [-8.2899508, 41.0751968], [-8.2901643, 41.0755843], [-8.2903779, 41.0758675], [-8.2906626, 41.0761239], [-8.2915417, 41.0766823], [-8.292873, 41.0774414]]}, "properties": {"bicycle": "no", "highway": "trunk", "lanes": "1", "name": "Variante \u00e0 EN224", "oneway": "yes", "ref": "EN 224;IC 35", "ref_1": "IC35", "ref_2": "EN224"}}, {"type": "Feature", "geometry": {"type": "LineString", "coordinates": [[-8.2632772, 41.0614457], [-8.2631627, 41.0614817], [-8.2630777, 41.0614951], [-8.2629664, 41.0614993]]}, "properties": {"highway": "trunk", "lanes": "1", "name": "Variante \u00e0 EN224", "oneway": "yes", "ref": "EN 224;IC 35"}}, {"type": "Feature", "geometry": {"type": "LineString", "coordinates": [[-8.2631263, 41.0616631], [-8.2631607, 41.0615906], [-8.2631826, 41.0615621], [-8.2632181, 41.061516], [-8.2632772, 41.0614457]]}, "properties": {"highway": "trunk", "lanes": "1", "name": "Variante \u00e0 EN224", "oneway": "yes", "ref": "EN 224;IC 35"}}, {"type": "Feature", "geometry": {"type": "LineString", "coordinates": [[-8.2834976, 41.0602947], [-8.2833704, 41.0599831], [-8.2832523, 41.0598084], [-8.2831388, 41.0596714], [-8.2830025, 41.0595447], [-8.2828565, 41.0594229]]}, "properties": {"bicycle": "no", "highway": "trunk", "lanes": "2", "name": "Variante \u00e0 EN224", "oneway": "yes", "ref": "EN 224;IC 35", "ref_1": "IC35", "ref_2": "EN224", "turn:lanes": "through|through;right"}}, {"type": "Feature", "geometry": {"type": "LineString", "coordinates": [[-8.2795413, 41.0593529], [-8.2798229, 41.0592227], [-8.2801136, 41.0591097], [-8.2803907, 41.0590378], [-8.2805769, 41.0590001], [-8.2807995, 41.0589795], [-8.2811038, 41.058959]]}, "properties": {"bicycle": "no", "highway": "trunk", "lanes": "1", "name": "Variante \u00e0 EN224", "oneway": "yes", "ref": "EN 224;IC 35", "ref_1": "Ic35", "ref_2": "EN224"}}, {"type": "Feature", "geometry": {"type": "LineString", "coordinates": [[-8.2965506, 41.0818472], [-8.2965629, 41.0818777], [-8.2966066, 41.0820582], [-8.2966238, 41.0822227], [-8.2966197, 41.0823615], [-8.2965795, 41.0826022], [-8.2964749, 41.0828388], [-8.2963247, 41.0830349], [-8.2960672, 41.0832895], [-8.295355, 41.0839198], [-8.2950721, 41.0842037]]}, "properties": {"highway": "trunk", "lanes": "2", "maxspeed": "80", "name": "Variante \u00e0 EN224", "old_name": "N106", "oneway": "yes", "ref": "EN 224;IC 35", "ref_1": "IC35", "ref_2": "EN224", "source": "Bing", "surface": "asphalt"}}, {"type": "Feature", "geometry": {"type": "LineString", "coordinates": [[-8.292873, 41.0774414], [-8.2932985, 41.0777346], [-8.2934373, 41.0778392], [-8.2935783, 41.0779511], [-8.2936983, 41.0780821], [-8.296492, 41.081702]]}, "properties": {"bridge": "yes", "bridge:name": "Nova Ponte Hintze Ribeiro", "highway": "trunk", "lanes": "1", "layer": "1", "maxspeed": "80", "name": "Variante \u00e0 EN224", "oneway": "yes", "ref": "EN 224;IC 35", "ref_1": "IC 35", "ref_2": "EN 224", "surface": "asphalt"}}, {"type": "Feature", "geometry": {"type": "LineString", "coordinates": [[-8.2984045, 41.1862834], [-8.2982714, 41.186027], [-8.2981638, 41.185761], [-8.2980369, 41.185361], [-8.2979019, 41.1849197], [-8.2977922, 41.1843781], [-8.297673, 41.1838079], [-8.2972584, 41.1815963], [-8.296802, 41.1793471]]}, "properties": {"highway": "trunk", "lanes": "2", "oneway": "no", "ref": "IC 35", "surface": "asphalt"}}, {"type": "Feature", "geometry": {"type": "LineString", "coordinates": [[-8.2965294, 41.178667], [-8.2964786, 41.1787012], [-8.2964447, 41.1787457], [-8.2964313, 41.178796], [-8.2964396, 41.1788469], [-8.2964687, 41.1788932], [-8.2965158, 41.1789303], [-8.296576, 41.1789543], [-8.2966451, 41.1789628], [-8.2967142, 41.178954], [-8.2967757, 41.1789289], [-8.2968183, 41.1788954], [-8.2968465, 41.1788541], [-8.2968577, 41.1788084], [-8.2968527, 41.1787671], [-8.2968339, 41.1787282], [-8.2968024, 41.1786941], [-8.2967603, 41.1786673], [-8.2967074, 41.1786488], [-8.2966499, 41.1786416], [-8.2965918, 41.1786466], [-8.2965294, 41.178667]]}, "properties": {"highway": "trunk", "junction": "roundabout", "lanes": "2", "ref": "IC 35", "surface": "asphalt"}}, {"type": "Feature", "geometry": {"type": "LineString", "coordinates": [[-8.2820487, 41.059008], [-8.281926, 41.0589693], [-8.2816671, 41.0589145], [-8.2814627, 41.0588905], [-8.2811538, 41.0588665], [-8.2808449, 41.0588768], [-8.2806132, 41.0589042], [-8.2803634, 41.0589521], [-8.280159, 41.0590172], [-8.2799773, 41.059096], [-8.2798093, 41.0591748], [-8.2796503, 41.0592604], [-8.2795413, 41.0593529]]}, "properties": {"bicycle": "no", "highway": "trunk", "lanes": "2", "name": "Variante \u00e0 EN224", "oneway": "yes", "ref": "EN 224;IC 35", "ref_1": "IC35", "ref_2": "EN224", "turn:lanes": "|merge_to_left"}}, {"type": "Feature", "geometry": {"type": "LineString", "coordinates": [[-8.282329, 41.059218], [-8.2824211, 41.0592638], [-8.2826391, 41.0593837], [-8.2828253, 41.059531], [-8.2829934, 41.0596817], [-8.283116, 41.0597981], [-8.2832251, 41.0599283], [-8.2833205, 41.0600516], [-8.2834976, 41.0602947]]}, "properties": {"bicycle": "no", "highway": "trunk", "lanes": "1", "name": "Variante \u00e0 EN224", "oneway": "yes", "ref": "EN 224;IC 35", "ref_1": "Ic35", "ref_2": "EN224"}}, {"type": "Feature", "geometry": {"type": "LineString", "coordinates": [[-8.3015909, 41.1910793], [-8.3022884, 41.1922166], [-8.3027139, 41.1928862], [-8.3027528, 41.1929585], [-8.3027951, 41.1930459], [-8.3028326, 41.1931368]]}, "properties": {"highway": "trunk", "lanes": "2", "oneway": "no", "ref": "IC 35", "surface": "asphalt"}}, {"type": "Feature", "geometry": {"type": "LineString", "coordinates": [[-8.3015909, 41.1910793], [-8.3012134, 41.1904955]]}, "properties": {"highway": "trunk", "lanes": "2", "layer": "-1", "oneway": "no", "ref": "IC 35", "surface": "asphalt", "tunnel": "yes"}}, {"type": "Feature", "geometry": {"type": "LineString", "coordinates": [[-8.3012134, 41.1904955], [-8.3004164, 41.1892799]]}, "properties": {"highway": "trunk", "lanes": "2", "oneway": "no", "ref": "IC 35", "surface": "asphalt"}}, {"type": "Feature", "geometry": {"type": "LineString", "coordinates": [[-8.3004164, 41.1892799], [-8.2997104, 41.1882459], [-8.2989306, 41.1870992], [-8.2984045, 41.1862834]]}, "properties": {"bridge": "yes", "highway": "trunk", "lanes": "2", "layer": "1", "oneway": "no", "ref": "IC 35", "surface": "asphalt"}}, {"type": "Feature", "geometry": {"type": "LineString", "coordinates": [[-8.3031367, 41.1935789], [-8.302985, 41.1934061], [-8.3028326, 41.1931368]]}, "properties": {"highway": "trunk", "lanes": "1", "oneway": "yes", "ref": "IC 35", "surface": "asphalt"}}, {"type": "Feature", "geometry": {"type": "LineString", "coordinates": [[-8.3028326, 41.1931368], [-8.3028857, 41.193412], [-8.302891, 41.1935217], [-8.3029006, 41.1935974]]}, "properties": {"highway": "trunk", "lanes": "1", "oneway": "yes", "ref": "IC 35", "surface": "asphalt"}}, {"type": "Feature", "geometry": {"type": "LineString", "coordinates": [[-8.296576, 41.1789543], [-8.2966773, 41.179087], [-8.2967484, 41.1792071], [-8.296802, 41.1793471]]}, "properties": {"highway": "trunk", "lanes": "1", "oneway": "yes", "ref": "IC 35", "surface": "asphalt"}}, {"type": "Feature", "geometry": {"type": "LineString", "coordinates": [[-8.2968183, 41.1788954], [-8.2968074, 41.1790709], [-8.2968034, 41.1792041], [-8.296802, 41.1793471]]}, "properties": {"highway": "trunk", "lanes": "1", "oneway": "yes", "ref": "IC 35", "surface": "asphalt"}}, {"type": "Feature", "geometry": {"type": "LineString", "coordinates": [[-8.2823818, 41.0591386], [-8.2822303, 41.0590652], [-8.2820487, 41.059008]]}, "properties": {"bicycle": "no", "highway": "trunk", "lanes": "2", "name": "Variante \u00e0 EN224", "oneway": "yes", "ref": "EN 224;IC 35", "ref_1": "IC35", "ref_2": "EN224"}}, {"type": "Feature", "geometry": {"type": "LineString", "coordinates": [[-8.2828565, 41.0594229], [-8.2828299, 41.0594008], [-8.2826437, 41.0592707], [-8.2824847, 41.0591885], [-8.2823818, 41.0591386]]}, "properties": {"bicycle": "no", "highway": "trunk", "lanes": "2", "name": "Variante \u00e0 EN224", "oneway": "yes", "ref": "EN 224;IC 35", "ref_1": "IC35", "ref_2": "EN224"}}, {"type": "Feature", "geometry": {"type": "LineString", "coordinates": [[-8.2795413, 41.0593529], [-8.2793699, 41.0594618], [-8.2791126, 41.0596484], [-8.2788651, 41.0598473], [-8.2781454, 41.0604587], [-8.2771096, 41.0613261]]}, "properties": {"bicycle": "no", "highway": "trunk", "lanes": "2", "maxspeed": "60", "name": "Variante \u00e0 EN224", "oneway": "no", "ref": "EN 224;IC 35", "ref_1": "IC35", "ref_2": "EN224"}}, {"type": "Feature", "geometry": {"type": "LineString", "coordinates": [[-8.296492, 41.081702], [-8.2965506, 41.0818472]]}, "properties": {"highway": "trunk", "lanes": "1", "maxspeed": "80", "name": "Variante \u00e0 EN224", "old_name": "N106", "oneway": "yes", "ref": "EN 224;IC 35", "ref_1": "IC35", "ref_2": "EN224", "source": "Bing", "surface": "asphalt"}}, {"type": "Feature", "geometry": {"type": "LineString", "coordinates": [[-8.2707356, 41.0613096], [-8.2702354, 41.0611114], [-8.2699333, 41.0610231], [-8.2696453, 41.0609572], [-8.2693622, 41.0609157], [-8.2689549, 41.0608615], [-8.268522, 41.0608043], [-8.2681342, 41.060724], [-8.267769, 41.0606186], [-8.266932, 41.0603474]]}, "properties": {"bicycle": "no", "highway": "trunk", "lanes": "3", "lanes:backward": "2", "lanes:forward": "1", "name": "Variante \u00e0 EN224", "oneway": "no", "ref": "EN 224;IC 35"}}, {"type": "Feature", "geometry": {"type": "LineString", "coordinates": [[-8.2811038, 41.058959], [-8.2813173, 41.0589727], [-8.2814581, 41.058983], [-8.2817397, 41.0590172], [-8.2819714, 41.0590823], [-8.2822076, 41.0591576], [-8.282329, 41.059218]]}, "properties": {"bicycle": "no", "highway": "trunk", "lanes": "2", "name": "Variante \u00e0 EN224", "oneway": "yes", "ref": "EN 224;IC 35", "ref_1": "Ic35", "ref_2": "EN224"}}, {"type": "Feature", "geometry": {"type": "LineString", "coordinates": [[-8.2950721, 41.0842037], [-8.2958954, 41.0835575]]}, "properties": {"highway": "trunk", "lanes": "1", "maxspeed": "80", "name": "Variante \u00e0 EN224", "old_name": "N106", "oneway": "yes", "ref": "EN 224;IC 35", "ref_1": "IC35", "ref_2": "EN224", "surface": "asphalt"}}, {"type": "Feature", "geometry": {"type": "LineString", "coordinates": [[-8.2958954, 41.0835575], [-8.2959582, 41.0835082], [-8.2960306, 41.0834381]]}, "properties": {"highway": "trunk", "lanes": "2", "maxspeed": "80", "name": "Variante \u00e0 EN224", "old_name": "N106", "oneway": "yes", "ref": "EN 224;IC 35", "ref_1": "IC35", "ref_2": "EN224", "surface": "asphalt"}}, {"type": "Feature", "geometry": {"type": "MultiPolygon", "coordinates": [[[[-8.2968577, 41.1788084], [-8.2968527, 41.1787671], [-8.2968339, 41.1787282], [-8.2968024, 41.1786941], [-8.2967603, 41.1786673], [-8.2967074, 41.1786488], [-8.2966499, 41.1786416], [-8.2965918, 41.1786466], [-8.2965294, 41.178667], [-8.2964786, 41.1787012], [-8.2964447, 41.1787457], [-8.2964313, 41.178796], [-8.2964396, 41.1788469], [-8.2964687, 41.1788932], [-8.2965158, 41.1789303], [-8.296576, 41.1789543], [-8.2966451, 41.1789628], [-8.2967142, 41.178954], [-8.2967757, 41.1789289], [-8.2968183, 41.1788954], [-8.2968465, 41.1788541], [-8.2968577, 41.1788084]]]]}, "properties": {"highway": "trunk", "junction": "roundabout", "lanes": "2", "ref": "IC 35", "surface": "asphalt"}}]}