{"type": "FeatureCollection", "features": [{"type": "Feature", "geometry": {"type": "LineString", "coordinates": [[-8.7455904, 39.7380088], [-8.745855, 39.737929], [-8.7460764, 39.7378524], [-8.7465589, 39.7376848]]}, "properties": {"access": "yes", "bicycle": "no", "cycleway": "no", "foot": "no", "highway": "trunk", "lanes": "4", "lit": "yes", "oneway": "yes", "ref": "IC 36", "smoothness": "excellent", "surface": "asphalt", "toll": "no"}}, {"type": "Feature", "geometry": {"type": "LineString", "coordinates": [[-8.7643697, 39.740051], [-8.7642301, 39.7400049], [-8.7634647, 39.7397423], [-8.7625488, 39.7394299], [-8.7622659, 39.7393448], [-8.7619931, 39.7392765], [-8.7617259, 39.7392217], [-8.761421, 39.7391792], [-8.7611351, 39.7391519], [-8.7609261, 39.7391469], [-8.7605623, 39.7391564], [-8.7600895, 39.7391883], [-8.7594643, 39.7392455], [-8.7591197, 39.7392708], [-8.758914, 39.7392801], [-8.7587025, 39.7392794], [-8.7584313, 39.7392689], [-8.7582371, 39.7392518], [-8.7579363, 39.73921], [-8.757666, 39.7391548], [-8.757402, 39.7390802], [-8.7572018, 39.7390106], [-8.757003, 39.7389297], [-8.7567668, 39.7388182], [-8.756531, 39.7386887], [-8.7563301, 39.7385502], [-8.7558756, 39.7382091], [-8.7552397, 39.7377337], [-8.75455, 39.7372105], [-8.7543829, 39.7371003], [-8.754139, 39.7369649], [-8.7539125, 39.7368542], [-8.7537087, 39.7367673], [-8.7534439, 39.7366815], [-8.75317, 39.7366138], [-8.7528415, 39.7365662], [-8.752593, 39.736551], [-8.7523349, 39.736544], [-8.7520475, 39.7365523], [-8.7505429, 39.7366621], [-8.7498899, 39.7367078], [-8.7495957, 39.7367356], [-8.7492658, 39.7367803], [-8.749045, 39.7368227], [-8.7487936, 39.7368836], [-8.7485445, 39.7369467], [-8.748268, 39.737029], [-8.747842, 39.7371686], [-8.747248, 39.73736], [-8.7469033, 39.7374669], [-8.7465865, 39.7375585], [-8.7459863, 39.7377428]]}, "properties": {"bicycle": "no", "foot": "no", "highway": "trunk", "lanes": "2", "lit": "no", "maxspeed:type": "PT:rural", "oneway": "yes", "ref": "IC 36", "sidewalk": "no", "smoothness": "excellent", "surface": "asphalt", "toll": "yes"}}, {"type": "Feature", "geometry": {"type": "LineString", "coordinates": [[-8.770077, 39.737692], [-8.76911, 39.7387507], [-8.7688699, 39.7390705]]}, "properties": {"cycleway": "no", "highway": "motorway", "lanes": "3", "lit": "yes", "maxspeed": "80", "oneway": "yes", "ref": "A 8;IC 36", "smoothness": "excellent", "surface": "asphalt", "toll": "no", "turn:lanes": "through|through|slight_right"}}, {"type": "Feature", "geometry": {"type": "LineString", "coordinates": [[-8.8287488, 39.7290627], [-8.8286167, 39.7290539], [-8.828452, 39.7290436], [-8.8282376, 39.7290223], [-8.8280509, 39.7289956], [-8.827804, 39.7289544], [-8.8276161, 39.7289122], [-8.8273471, 39.7288395], [-8.8270809, 39.7287562], [-8.8267843, 39.7286605], [-8.8264625, 39.7285474], [-8.8248562, 39.7279482]]}, "properties": {"highway": "motorway", "lanes": "2", "maxspeed": "120", "name": "Circular Sul de Leiria", "oneway": "yes", "ref": "A 8;IC 36", "smoothness": "excellent", "surface": "asphalt", "toll": "yes"}}, {"type": "Feature", "geometry": {"type": "LineString", "coordinates": [[-8.8265189, 39.7286682], [-8.8270163, 39.7288369], [-8.8272455, 39.7289134], [-8.8274682, 39.7289814], [-8.8276615, 39.7290287], [-8.8278541, 39.729076]]}, "properties": {"highway": "motorway", "lanes": "3", "maxspeed": "120", "maxspeed:advisory": "100", "name": "Circular Sul de Leiria", "oneway": "yes", "ref": "A 8;IC 36", "surface": "asphalt", "toll": "yes", "turn:lanes": "through|through|slight_right"}}, {"type": "Feature", "geometry": {"type": "LineString", "coordinates": [[-8.8309287, 39.7287738], [-8.8305363, 39.7288759], [-8.8302204, 39.7289474], [-8.8299696, 39.7289932], [-8.8297811, 39.7290162], [-8.8295881, 39.7290369], [-8.8294277, 39.7290513], [-8.8291447, 39.7290653], [-8.8289133, 39.7290662], [-8.8287488, 39.7290627]]}, "properties": {"highway": "motorway", "lanes": "3", "maxspeed": "120", "name": "Circular Sul de Leiria", "oneway": "yes", "ref": "A 8;IC 36", "smoothness": "excellent", "surface": "asphalt", "toll": "yes", "turn:lanes": "none|none|merge_to_left"}}, {"type": "Feature", "geometry": {"type": "LineString", "coordinates": [[-8.7962894, 39.723643], [-8.7874136, 39.7263731]]}, "properties": {"bridge": "yes", "highway": "motorway", "lanes": "2", "layer": "1", "maxspeed": "120", "name": "Circular Sul de Leiria", "oneway": "yes", "ref": "A 8;IC 36", "smoothness": "excellent", "surface": "asphalt", "toll": "yes"}}, {"type": "Feature", "geometry": {"type": "LineString", "coordinates": [[-8.7963097, 39.7237443], [-8.7969794, 39.7235547]]}, "properties": {"highway": "motorway", "lanes": "3", "maxspeed": "120", "name": "Circular Sul de Leiria", "oneway": "yes", "ref": "A 8;IC 36", "source": "bing", "surface": "asphalt", "toll": "yes", "turn:lanes": "through|through|slight_right"}}, {"type": "Feature", "geometry": {"type": "LineString", "coordinates": [[-8.7874712, 39.7264466], [-8.7897011, 39.7258159], [-8.7916345, 39.7252247], [-8.7935321, 39.7246238]]}, "properties": {"bridge": "yes", "highway": "motorway", "lanes": "2", "layer": "1", "maxspeed": "120", "name": "Circular Sul de Leiria", "oneway": "yes", "ref": "A 8;IC 36", "surface": "asphalt", "toll": "yes"}}, {"type": "Feature", "geometry": {"type": "LineString", "coordinates": [[-8.8209681, 39.7265843], [-8.8248049, 39.7280298]]}, "properties": {"bridge": "viaduct", "highway": "motorway", "lanes": "2", "layer": "1", "maxspeed": "120", "name": "Circular Sul de Leiria", "oneway": "yes", "ref": "A 8;IC 36", "source": "bing", "surface": "asphalt", "toll": "yes"}}, {"type": "Feature", "geometry": {"type": "LineString", "coordinates": [[-8.8248049, 39.7280298], [-8.8256748, 39.7283428], [-8.8261287, 39.728511], [-8.8265189, 39.7286682]]}, "properties": {"highway": "motorway", "lanes": "2", "maxspeed": "120", "name": "Circular Sul de Leiria", "oneway": "yes", "ref": "A 8;IC 36", "surface": "asphalt", "toll": "yes", "turn:lanes": "through|through;slight_right"}}, {"type": "Feature", "geometry": {"type": "LineString", "coordinates": [[-8.8248562, 39.7279482], [-8.821024, 39.7264989]]}, "properties": {"bridge": "viaduct", "highway": "motorway", "lanes": "2", "layer": "1", "maxspeed": "120", "name": "Circular Sul de Leiria", "oneway": "yes", "ref": "A 8;IC 36", "smoothness": "excellent", "source": "bing", "surface": "asphalt", "toll": "yes"}}, {"type": "Feature", "geometry": {"type": "LineString", "coordinates": [[-8.821024, 39.7264989], [-8.8205324, 39.7263143], [-8.820051, 39.7261319], [-8.8197146, 39.7259985], [-8.819427, 39.7258787], [-8.819164, 39.7257571], [-8.8188394, 39.7255959], [-8.8185237, 39.725421], [-8.8181561, 39.7251962], [-8.817825, 39.72497], [-8.8172793, 39.7245425], [-8.8168504, 39.7241908], [-8.8165437, 39.7239279]]}, "properties": {"highway": "motorway", "lanes": "2", "maxspeed": "120", "name": "Circular Sul de Leiria", "oneway": "yes", "ref": "A 8;IC 36", "smoothness": "excellent", "surface": "asphalt", "toll": "yes"}}, {"type": "Feature", "geometry": {"type": "LineString", "coordinates": [[-8.8164698, 39.7239999], [-8.816803, 39.7242759], [-8.8171846, 39.7245888], [-8.8175003, 39.7248461], [-8.8178158, 39.7250799], [-8.8181702, 39.7253154], [-8.8184825, 39.7255065], [-8.8187989, 39.7256848], [-8.8191421, 39.7258505], [-8.8194502, 39.7259912], [-8.8198493, 39.7261533], [-8.8204776, 39.7263937], [-8.8209681, 39.7265843]]}, "properties": {"highway": "motorway", "lanes": "2", "maxspeed": "120", "name": "Circular Sul de Leiria", "oneway": "yes", "ref": "A 8;IC 36", "surface": "asphalt", "toll": "yes"}}, {"type": "Feature", "geometry": {"type": "LineString", "coordinates": [[-8.7874136, 39.7263731], [-8.7863108, 39.726695], [-8.7849891, 39.7270611], [-8.7830362, 39.7275477], [-8.7821846, 39.7277419], [-8.7809848, 39.7280006], [-8.7797969, 39.7282449], [-8.7792282, 39.7283613], [-8.7786241, 39.7284928], [-8.7783596, 39.7285572], [-8.7781226, 39.72862], [-8.7777327, 39.7287433], [-8.7773168, 39.7288872], [-8.7770353, 39.7290012], [-8.7766629, 39.7291676], [-8.7763789, 39.7293079], [-8.7759929, 39.7295165], [-8.7756975, 39.7296887], [-8.7754874, 39.7298236], [-8.774997, 39.7301827], [-8.7748877, 39.730267], [-8.7747744, 39.7303588], [-8.7744323, 39.7306697], [-8.7741571, 39.730946], [-8.7739012, 39.731235], [-8.7736431, 39.7315725], [-8.7734047, 39.7319191]]}, "properties": {"highway": "motorway", "lanes": "2", "maxspeed": "120", "name": "Circular Sul de Leiria", "oneway": "yes", "ref": "A 8;IC 36", "smoothness": "excellent", "surface": "asphalt", "toll": "yes"}}, {"type": "Feature", "geometry": {"type": "LineString", "coordinates": [[-8.8066973, 39.7221673], [-8.8046528, 39.7223477]]}, "properties": {"highway": "motorway", "lanes": "2", "layer": "-1", "maxspeed": "120", "name": "Circular Sul de Leiria", "oneway": "yes", "ref": "A 8;IC 36", "smoothness": "excellent", "source": "bing", "surface": "asphalt", "toll": "yes", "tunnel": "yes"}}, {"type": "Feature", "geometry": {"type": "LineString", "coordinates": [[-8.8152031, 39.7230491], [-8.8147127, 39.7228016], [-8.8144427, 39.72268], [-8.8141323, 39.72255], [-8.813825, 39.7224384], [-8.8134641, 39.722318], [-8.8131855, 39.7222396], [-8.8127154, 39.7221245]]}, "properties": {"bridge": "viaduct", "highway": "motorway", "lanes": "2", "layer": "1", "maxspeed": "120", "name": "Circular Sul de Leiria", "oneway": "yes", "ref": "A 8;IC 36", "smoothness": "excellent", "source": "bing", "surface": "asphalt", "toll": "yes"}}, {"type": "Feature", "geometry": {"type": "LineString", "coordinates": [[-8.812679, 39.7222124], [-8.8130489, 39.7223025], [-8.8133908, 39.7223957], [-8.8137372, 39.7225073], [-8.8140733, 39.7226325], [-8.8143758, 39.7227561], [-8.8146653, 39.7228912], [-8.814859, 39.7229816], [-8.8151133, 39.7231089]]}, "properties": {"bridge": "viaduct", "highway": "motorway", "lanes": "2", "layer": "1", "maxspeed": "120", "name": "Circular Sul de Leiria", "oneway": "yes", "ref": "A 8;IC 36", "source": "bing", "surface": "asphalt", "toll": "yes"}}, {"type": "Feature", "geometry": {"type": "LineString", "coordinates": [[-8.8127154, 39.7221245], [-8.8120791, 39.7220056], [-8.8118109, 39.7219671], [-8.811331, 39.7219161], [-8.8109554, 39.7218926], [-8.8105218, 39.7218846], [-8.8100473, 39.7218937], [-8.8095882, 39.7219147], [-8.8086469, 39.7219878], [-8.8066973, 39.7221673]]}, "properties": {"highway": "motorway", "lanes": "2", "maxspeed": "120", "name": "Circular Sul de Leiria", "oneway": "yes", "ref": "A 8;IC 36", "smoothness": "excellent", "surface": "asphalt", "toll": "yes"}}, {"type": "Feature", "geometry": {"type": "LineString", "coordinates": [[-8.8067168, 39.7222703], [-8.8087274, 39.7220752], [-8.8096325, 39.7220021], [-8.809901, 39.7219837], [-8.8102103, 39.7219732], [-8.810476, 39.7219722], [-8.8107274, 39.7219733], [-8.8111145, 39.7219914], [-8.8113722, 39.7220082], [-8.8116455, 39.7220341], [-8.811916, 39.7220717], [-8.812219, 39.7221219], [-8.812679, 39.7222124]]}, "properties": {"highway": "motorway", "lanes": "2", "maxspeed": "120", "name": "Circular Sul de Leiria", "oneway": "yes", "ref": "A 8;IC 36", "surface": "asphalt", "toll": "yes"}}, {"type": "Feature", "geometry": {"type": "LineString", "coordinates": [[-8.8028048, 39.7225107], [-8.8016095, 39.7226239]]}, "properties": {"highway": "motorway", "lanes": "3", "maxspeed": "120", "name": "Circular Sul de Leiria", "oneway": "yes", "ref": "A 8;IC 36", "smoothness": "excellent", "surface": "asphalt", "toll": "yes", "turn:lanes": "none|none|slight_right"}}, {"type": "Feature", "geometry": {"type": "LineString", "coordinates": [[-8.7687832, 39.7394474], [-8.768971, 39.7391111], [-8.7692305, 39.7387959], [-8.7694312, 39.73857], [-8.7696452, 39.738327], [-8.7701932, 39.7377294], [-8.7708953, 39.7369865], [-8.7713701, 39.7364248], [-8.7716871, 39.7360168], [-8.7718137, 39.7358237], [-8.7719572, 39.7355947], [-8.7720918, 39.7353555], [-8.7723595, 39.7348348]]}, "properties": {"cycleway": "no", "highway": "motorway", "lanes": "2", "lit": "yes", "maxspeed": "120", "name": "Circular Sul de Leiria", "oneway": "yes", "ref": "A 8;IC 36", "surface": "asphalt", "toll": "yes"}}, {"type": "Feature", "geometry": {"type": "LineString", "coordinates": [[-8.7727165, 39.7334085], [-8.7725827, 39.7337947], [-8.7724528, 39.7341568], [-8.7722259, 39.734794]]}, "properties": {"highway": "motorway", "lanes": "3", "maxspeed": "80", "name": "Circular Sul de Leiria", "oneway": "yes", "ref": "A 8;IC 36", "smoothness": "excellent", "surface": "asphalt", "toll": "yes", "turn:lanes": "none|none|slight_right"}}, {"type": "Feature", "geometry": {"type": "LineString", "coordinates": [[-8.8165437, 39.7239279], [-8.8162893, 39.7237275], [-8.816167, 39.7236423], [-8.8160427, 39.7235542], [-8.8158641, 39.7234337], [-8.8155647, 39.7232465], [-8.8153484, 39.7231239], [-8.8152031, 39.7230491]]}, "properties": {"highway": "motorway", "lanes": "2", "maxspeed": "120", "name": "Circular Sul de Leiria", "oneway": "yes", "ref": "A 8;IC 36", "smoothness": "excellent", "surface": "asphalt", "toll": "yes"}}, {"type": "Feature", "geometry": {"type": "LineString", "coordinates": [[-8.8151133, 39.7231089], [-8.8153469, 39.7232358], [-8.8155516, 39.7233524], [-8.8158191, 39.723518], [-8.8161012, 39.7237159], [-8.8162565, 39.7238358], [-8.8164698, 39.7239999]]}, "properties": {"highway": "motorway", "lanes": "2", "maxspeed": "120", "name": "Circular Sul de Leiria", "oneway": "yes", "ref": "A 8;IC 36", "surface": "asphalt", "toll": "yes"}}, {"type": "Feature", "geometry": {"type": "LineString", "coordinates": [[-8.7645487, 39.740201], [-8.7649408, 39.7403154], [-8.7652392, 39.7403899], [-8.7655265, 39.7404557]]}, "properties": {"bicycle": "no", "foot": "no", "highway": "trunk", "lanes": "2", "lit": "yes", "oneway": "yes", "ref": "IC 36", "smoothness": "excellent", "surface": "asphalt", "toll": "no", "turn:lanes": "through|right"}}, {"type": "Feature", "geometry": {"type": "LineString", "coordinates": [[-8.7734047, 39.7319191], [-8.7732879, 39.7321049], [-8.7731399, 39.7323776], [-8.7730449, 39.7325734], [-8.7729435, 39.7328077], [-8.7728265, 39.7331018], [-8.7727165, 39.7334085]]}, "properties": {"highway": "motorway", "lanes": "2", "maxspeed": "100", "name": "Circular Sul de Leiria", "oneway": "yes", "ref": "A 8;IC 36", "smoothness": "excellent", "surface": "asphalt", "toll": "yes", "turn:lanes": "through|through;slight_right"}}, {"type": "Feature", "geometry": {"type": "LineString", "coordinates": [[-8.799051, 39.7229302], [-8.7983888, 39.7230549], [-8.7977687, 39.7232054], [-8.7973911, 39.72331], [-8.7967278, 39.7235105]]}, "properties": {"highway": "motorway", "lanes": "3", "maxspeed": "120", "name": "Circular Sul de Leiria", "oneway": "yes", "ref": "A 8;IC 36", "smoothness": "excellent", "surface": "asphalt", "toll": "yes", "turn:lanes": "none|none|merge_to_left"}}, {"type": "Feature", "geometry": {"type": "LineString", "coordinates": [[-8.802832, 39.7226322], [-8.8035739, 39.7225604]]}, "properties": {"highway": "motorway", "lanes": "3", "layer": "-1", "maxspeed": "120", "name": "Circular Sul de Leiria", "oneway": "yes", "ref": "A 8;IC 36", "source": "bing", "surface": "asphalt", "toll": "yes", "tunnel": "yes", "turn:lanes": "none|none|merge_to_left"}}, {"type": "Feature", "geometry": {"type": "LineString", "coordinates": [[-8.7465589, 39.7376848], [-8.7478965, 39.7372385], [-8.7483385, 39.737093], [-8.7485154, 39.7370402], [-8.7487181, 39.7369855], [-8.7489182, 39.7369357], [-8.7491182, 39.7368919], [-8.7493921, 39.7368471], [-8.7497172, 39.7368062], [-8.7501748, 39.7367664], [-8.7506375, 39.7367364], [-8.7519749, 39.7366398], [-8.7522311, 39.7366298], [-8.7525134, 39.736627], [-8.7527126, 39.7366401], [-8.7529355, 39.7366614], [-8.7531803, 39.7367072], [-8.7534467, 39.7367677], [-8.7537112, 39.73686], [-8.7539682, 39.7369666], [-8.7542091, 39.7371018], [-8.7544835, 39.7372743], [-8.7551812, 39.7377996], [-8.7557948, 39.7382716], [-8.7560678, 39.738476], [-8.7563333, 39.7386633], [-8.7564773, 39.7387565], [-8.7566287, 39.7388411], [-8.7567894, 39.7389228], [-8.7569278, 39.7389902], [-8.7570931, 39.7390619], [-8.7572548, 39.7391222], [-8.7574331, 39.7391754], [-8.7576041, 39.7392228], [-8.7577671, 39.739261], [-8.7579264, 39.7392934], [-8.7582226, 39.7393369], [-8.7584336, 39.7393524], [-8.7586247, 39.7393588], [-8.7588588, 39.7393622], [-8.7591207, 39.739354], [-8.7594006, 39.7393369], [-8.7597067, 39.7393099], [-8.7602019, 39.7392599], [-8.7604216, 39.7392449], [-8.7606487, 39.7392357], [-8.7608865, 39.7392337], [-8.7611544, 39.7392413], [-8.761344, 39.739256], [-8.7615787, 39.7392848], [-8.7617967, 39.7393206], [-8.7621702, 39.7394053], [-8.7623836, 39.7394686], [-8.7634731, 39.739834], [-8.7643443, 39.7401306], [-8.7645487, 39.740201]]}, "properties": {"cycleway:both": "no", "foot": "no", "highway": "trunk", "lanes": "2", "lit": "no", "oneway": "yes", "ref": "IC 36", "sidewalk": "no", "smoothness": "excellent", "surface": "asphalt", "toll": "no"}}, {"type": "Feature", "geometry": {"type": "LineString", "coordinates": [[-8.7723595, 39.7348348], [-8.7724239, 39.7346936], [-8.772514, 39.7344625], [-8.7727822, 39.7336345], [-8.7728906, 39.7333084], [-8.7730022, 39.7329683]]}, "properties": {"cycleway": "no", "highway": "motorway", "lanes": "3", "maxspeed": "120", "name": "Circular Sul de Leiria", "oneway": "yes", "ref": "A 8;IC 36", "surface": "asphalt", "toll": "yes", "turn:lanes": "none|none|merge_to_left"}}, {"type": "Feature", "geometry": {"type": "LineString", "coordinates": [[-8.7730022, 39.7329683], [-8.7730699, 39.7327772], [-8.7731706, 39.7325559], [-8.7732905, 39.7323178], [-8.7734092, 39.732108], [-8.7735857, 39.7318368], [-8.7737407, 39.7316077], [-8.7738691, 39.7314488], [-8.7740057, 39.7312786], [-8.7741443, 39.7311068], [-8.7743348, 39.7309109], [-8.7745563, 39.7306886], [-8.7747325, 39.7305265], [-8.7749088, 39.7303705], [-8.7751935, 39.7301498], [-8.7756071, 39.7298529], [-8.7759966, 39.7296126], [-8.7764061, 39.7293898], [-8.7767764, 39.7292103], [-8.7772688, 39.7290007], [-8.7776755, 39.7288512], [-8.7781832, 39.7286922], [-8.7785755, 39.7285934], [-8.7792087, 39.7284513], [-8.7798488, 39.7283231], [-8.7810306, 39.7280786], [-8.7822271, 39.7278216], [-8.7830778, 39.7276331], [-8.7850661, 39.7271312], [-8.786356, 39.7267746], [-8.7874712, 39.7264466]]}, "properties": {"cycleway": "no", "highway": "motorway", "lanes": "2", "maxspeed": "120", "name": "Circular Sul de Leiria", "oneway": "yes", "ref": "A 8;IC 36", "surface": "asphalt", "toll": "yes"}}, {"type": "Feature", "geometry": {"type": "LineString", "coordinates": [[-8.7722259, 39.734794], [-8.7721164, 39.7350724], [-8.7719653, 39.7353586], [-8.7718409, 39.735573], [-8.7716354, 39.7358981], [-8.7714507, 39.736162], [-8.7711051, 39.7365738], [-8.7707864, 39.7369402], [-8.770077, 39.737692]]}, "properties": {"highway": "motorway", "lanes": "2", "maxspeed": "80", "name": "Circular Sul de Leiria", "oneway": "yes", "ref": "A 8;IC 36", "smoothness": "excellent", "surface": "asphalt", "toll": "yes"}}, {"type": "Feature", "geometry": {"type": "LineString", "coordinates": [[-8.7935321, 39.7246238], [-8.795404, 39.7240311]]}, "properties": {"bridge": "yes", "highway": "motorway", "lanes": "2", "layer": "1", "maxspeed": "120", "name": "Circular Sul de Leiria", "oneway": "yes", "ref": "A 8;IC 36", "surface": "asphalt", "toll": "yes", "turn:lanes": "through|through|slight_right"}}, {"type": "Feature", "geometry": {"type": "LineString", "coordinates": [[-8.795404, 39.7240311], [-8.7963097, 39.7237443]]}, "properties": {"bridge": "yes", "highway": "motorway", "lanes": "3", "layer": "1", "maxspeed": "120", "name": "Circular Sul de Leiria", "oneway": "yes", "ref": "A 8;IC 36", "surface": "asphalt", "toll": "yes", "turn:lanes": "through|through|slight_right"}}, {"type": "Feature", "geometry": {"type": "LineString", "coordinates": [[-8.7969794, 39.7235547], [-8.7973707, 39.7234166], [-8.79774, 39.723318], [-8.7982802, 39.7231817], [-8.7987611, 39.7230811], [-8.7989962, 39.7230335], [-8.7993972, 39.7229686], [-8.7998305, 39.7229069], [-8.8002996, 39.7228537], [-8.8005561, 39.7228251], [-8.8011692, 39.7227743]]}, "properties": {"highway": "motorway", "lanes": "2", "maxspeed": "120", "name": "Circular Sul de Leiria", "oneway": "yes", "ref": "A 8;IC 36", "source": "bing", "surface": "asphalt", "toll": "yes"}}, {"type": "Feature", "geometry": {"type": "LineString", "coordinates": [[-8.7967278, 39.7235105], [-8.7962894, 39.723643]]}, "properties": {"highway": "motorway", "lanes": "2", "maxspeed": "120", "name": "Circular Sul de Leiria", "oneway": "yes", "ref": "A 8;IC 36", "smoothness": "excellent", "surface": "asphalt", "toll": "yes"}}, {"type": "Feature", "geometry": {"type": "LineString", "coordinates": [[-8.8011692, 39.7227743], [-8.802832, 39.7226322]]}, "properties": {"highway": "motorway", "lanes": "3", "maxspeed": "120", "name": "Circular Sul de Leiria", "oneway": "yes", "ref": "A 8;IC 36", "source": "bing", "surface": "asphalt", "toll": "yes", "turn:lanes": "none|none|merge_to_left"}}, {"type": "Feature", "geometry": {"type": "LineString", "coordinates": [[-8.8035739, 39.7225604], [-8.8067168, 39.7222703]]}, "properties": {"highway": "motorway", "lanes": "2", "layer": "-1", "maxspeed": "120", "name": "Circular Sul de Leiria", "oneway": "yes", "ref": "A 8;IC 36", "source": "bing", "surface": "asphalt", "toll": "yes", "tunnel": "yes"}}, {"type": "Feature", "geometry": {"type": "LineString", "coordinates": [[-8.8016095, 39.7226239], [-8.80049, 39.7227488], [-8.7999906, 39.7228076], [-8.7995103, 39.7228676], [-8.799051, 39.7229302]]}, "properties": {"highway": "motorway", "lanes": "2", "maxspeed": "120", "name": "Circular Sul de Leiria", "oneway": "yes", "ref": "A 8;IC 36", "smoothness": "excellent", "surface": "asphalt", "toll": "yes"}}, {"type": "Feature", "geometry": {"type": "LineString", "coordinates": [[-8.8046528, 39.7223477], [-8.8028048, 39.7225107]]}, "properties": {"highway": "motorway", "lanes": "2", "layer": "-1", "maxspeed": "120", "name": "Circular Sul de Leiria", "oneway": "yes", "ref": "A 8;IC 36", "smoothness": "excellent", "source": "bing", "surface": "asphalt", "toll": "yes", "tunnel": "yes", "turn:lanes": "through|through;slight_right"}}, {"type": "Feature", "geometry": {"type": "LineString", "coordinates": [[-8.7459863, 39.7377428], [-8.7457912, 39.7378027], [-8.7455439, 39.737889]]}, "properties": {"bicycle": "no", "foot": "no", "highway": "trunk", "lanes": "2", "lit": "yes", "oneway": "yes", "payment:via_verde:lanes": "only|no", "ref": "IC 36", "smoothness": "excellent", "surface": "asphalt", "toll": "yes"}}, {"type": "Feature", "geometry": {"type": "LineString", "coordinates": [[-8.7659757, 39.740456], [-8.7656589, 39.740403], [-8.7653566, 39.7403421], [-8.7650264, 39.740259], [-8.7647413, 39.7401737], [-8.7643697, 39.740051]]}, "properties": {"bicycle": "no", "foot": "no", "highway": "trunk", "lanes": "2", "lit": "yes", "maxspeed:type": "PT:rural", "oneway": "yes", "ref": "IC 36", "smoothness": "excellent", "surface": "asphalt", "toll": "yes"}}]}