{"type": "FeatureCollection", "features": [{"type": "Feature", "geometry": {"type": "LineString", "coordinates": [[-9.1011356, 38.7893803], [-9.1010313, 38.7894901], [-9.1007089, 38.7898351], [-9.1004647, 38.7901452], [-9.100307, 38.7904708], [-9.1001314, 38.7910415]]}, "properties": {"bridge": "yes", "foot": "no", "highway": "trunk", "lanes": "3", "layer": "1", "lit": "yes", "maxspeed": "80", "name": "Viaduto da Matinha", "oneway": "yes", "ref": "IC2"}}, {"type": "Feature", "geometry": {"type": "LineString", "coordinates": [[-9.0870148, 38.848295], [-9.0869139, 38.8482416], [-9.0866759, 38.8481371], [-9.0864292, 38.8480724], [-9.0860778, 38.8480243], [-9.0845762, 38.8480858], [-9.0844254, 38.8480781], [-9.084276, 38.8480607], [-9.0841757, 38.8480435], [-9.084068, 38.8480258], [-9.0839064, 38.8479898], [-9.0837847, 38.847959], [-9.0836931, 38.8479324], [-9.0836043, 38.8479004], [-9.083519, 38.8478632], [-9.0834568, 38.8478316], [-9.0833971, 38.8477972], [-9.0832728, 38.8477341], [-9.0831713, 38.8476855], [-9.0830739, 38.8476319], [-9.082981, 38.8475737], [-9.0829111, 38.8475246], [-9.0828445, 38.8474728], [-9.0827149, 38.8473665], [-9.0825993, 38.8472615], [-9.0824906, 38.8471522], [-9.0823888, 38.8470389], [-9.0821109, 38.8467732], [-9.0818794, 38.8465735]]}, "properties": {"foot": "no", "highway": "trunk", "lanes": "2", "lit": "yes", "maxspeed": "80", "oneway": "yes", "ref": "IC2", "surface": "asphalt"}}, {"type": "Feature", "geometry": {"type": "LineString", "coordinates": [[-9.1015254, 38.7892837], [-9.1016652, 38.7891956], [-9.1018355, 38.7891062], [-9.1019787, 38.7890345], [-9.1022338, 38.7889236], [-9.1027023, 38.7887306], [-9.1033437, 38.7884893]]}, "properties": {"bridge": "viaduct", "foot": "no", "highway": "trunk", "lanes": "3", "layer": "1", "lit": "yes", "maxspeed": "80", "name": "Viaduto da Matinha", "oneway": "yes", "ref": "IC2", "surface": "asphalt", "turn:lanes": "through|through;right|through;right"}}, {"type": "Feature", "geometry": {"type": "LineString", "coordinates": [[-9.100283, 38.7910685], [-9.1004769, 38.7904845], [-9.1006353, 38.790195], [-9.1007154, 38.7900696], [-9.1008082, 38.7899439], [-9.100893, 38.7898364], [-9.1010141, 38.7897075], [-9.1011464, 38.7895759], [-9.1012805, 38.7894608], [-9.1014105, 38.7893585], [-9.1015254, 38.7892837]]}, "properties": {"bridge": "yes", "foot": "no", "highway": "trunk", "lanes": "3", "layer": "1", "lit": "yes", "maxspeed": "80", "name": "Viaduto da Matinha", "oneway": "yes", "ref": "IC2", "surface": "asphalt"}}, {"type": "Feature", "geometry": {"type": "LineString", "coordinates": [[-9.0989171, 38.7955544], [-9.0986877, 38.7962556], [-9.098569, 38.7965224], [-9.0984191, 38.7967639], [-9.0982466, 38.7969954], [-9.0980443, 38.7972396], [-9.0977209, 38.7975624], [-9.0972126, 38.797981], [-9.0967638, 38.7982591], [-9.0963539, 38.7984839], [-9.0958609, 38.7987328]]}, "properties": {"bridge": "yes", "foot": "no", "highway": "trunk", "lanes": "2", "layer": "1", "lit": "yes", "maxspeed": "80", "name": "Viaduto sobre o Rio Tranc\u00e3o", "oneway": "yes", "ref": "IC2", "surface": "asphalt"}}, {"type": "Feature", "geometry": {"type": "LineString", "coordinates": [[-9.0958609, 38.7987328], [-9.0941754, 38.7996379], [-9.0938251, 38.7998735], [-9.0934964, 38.8001131], [-9.0932424, 38.8003282], [-9.0929722, 38.8005967], [-9.0927771, 38.8008283], [-9.0925914, 38.8010743], [-9.0924197, 38.8013582], [-9.0922623, 38.801671], [-9.0921501, 38.8019565], [-9.092048, 38.8022562], [-9.0918426, 38.802999]]}, "properties": {"foot": "no", "highway": "trunk", "lanes": "2", "level": "-1", "lit": "yes", "maxspeed": "80", "oneway": "yes", "ref": "IC2", "source": "bing", "surface": "asphalt"}}, {"type": "Feature", "geometry": {"type": "LineString", "coordinates": [[-9.0992259, 38.7947939], [-9.0993674, 38.7944098]]}, "properties": {"highway": "trunk", "lanes": "2", "lit": "yes", "maxspeed": "80", "minspeed": "40", "oneway": "yes", "ref": "IC2", "surface": "asphalt"}}, {"type": "Feature", "geometry": {"type": "LineString", "coordinates": [[-9.0959301, 38.7988123], [-9.0965044, 38.7985125], [-9.0968768, 38.7983059], [-9.0972478, 38.798065], [-9.0976685, 38.7977246], [-9.0979146, 38.7975045], [-9.0981509, 38.7972848], [-9.0983454, 38.797036], [-9.0985222, 38.79679], [-9.0986512, 38.7965316], [-9.0987705, 38.7962801], [-9.0990352, 38.7955719]]}, "properties": {"bridge": "yes", "foot": "no", "highway": "trunk", "lanes": "2", "layer": "1", "lit": "yes", "maxspeed": "80", "minspeed": "40", "name": "Viaduto sobre o Rio Tranc\u00e3o", "oneway": "yes", "ref": "IC2", "surface": "asphalt"}}, {"type": "Feature", "geometry": {"type": "LineString", "coordinates": [[-9.1054298, 38.7749239], [-9.1054329, 38.7752982], [-9.1054228, 38.7756386], [-9.105398, 38.7765919], [-9.105378, 38.7776317], [-9.1053598, 38.7779398], [-9.1053461, 38.7781511], [-9.105319, 38.7784473]]}, "properties": {"highway": "trunk", "lanes": "3", "lit": "no", "oneway": "yes", "ref": "IC2", "surface": "asphalt"}}, {"type": "Feature", "geometry": {"type": "LineString", "coordinates": [[-8.4556042, 40.4601287], [-8.4555719, 40.4601635], [-8.4555492, 40.4602024], [-8.4555368, 40.4602439], [-8.4555354, 40.4602865], [-8.4555449, 40.4603285], [-8.4555651, 40.4603682], [-8.4555953, 40.4604044], [-8.4556342, 40.4604354], [-8.4556805, 40.4604599], [-8.4557321, 40.4604771], [-8.4557864, 40.4604861], [-8.4558419, 40.4604869], [-8.4558966, 40.4604795], [-8.4559483, 40.4604642], [-8.4559952, 40.4604415], [-8.4560354, 40.4604124], [-8.4560675, 40.4603777], [-8.4560901, 40.460339], [-8.4561024, 40.4602976], [-8.4561039, 40.4602552], [-8.4560945, 40.4602134], [-8.4560746, 40.4601738], [-8.4560446, 40.4601376], [-8.4560058, 40.4601065], [-8.4559602, 40.4600821], [-8.4559092, 40.4600648], [-8.4558547, 40.4600555], [-8.455799, 40.4600544], [-8.455744, 40.4600616], [-8.4556919, 40.4600769], [-8.4556447, 40.4600995], [-8.4556042, 40.4601287]]}, "properties": {"highway": "primary", "junction": "roundabout", "lanes": "2", "maxspeed": "50", "ref": "IC2;EN 1;EN 235", "surface": "asphalt"}}, {"type": "Feature", "geometry": {"type": "LineString", "coordinates": [[-9.1001314, 38.7910415], [-9.0998335, 38.7920273], [-9.0997316, 38.7922519]]}, "properties": {"highway": "trunk", "lanes": "3", "lit": "yes", "maxspeed": "80", "oneway": "yes", "ref": "IC2"}}, {"type": "Feature", "geometry": {"type": "LineString", "coordinates": [[-9.1045426, 38.7880031], [-9.104802, 38.7878228], [-9.1049283, 38.7877347], [-9.1050485, 38.7876416], [-9.1052174, 38.7874945], [-9.1053415, 38.7873578], [-9.1054577, 38.7872184], [-9.1055439, 38.7870818], [-9.1056189, 38.786951], [-9.1056822, 38.7868027], [-9.1057399, 38.7866269], [-9.1057686, 38.7865078], [-9.1057901, 38.7863838], [-9.1058049, 38.7862516], [-9.1058166, 38.7859925], [-9.1058109, 38.7858693], [-9.105797, 38.7857317], [-9.1057853, 38.7855661]]}, "properties": {"destination": "Lisboa;2\u00aa Circular;Zona Portu\u00e1ria;Esta\u00e7\u00e3o Oriente", "destination:symbol": "centre;harbour;train_station", "highway": "trunk", "lanes": "2", "lit": "yes", "maxspeed": "80", "oneway": "yes", "ref": "IC2", "surface": "asphalt"}}, {"type": "Feature", "geometry": {"type": "LineString", "coordinates": [[-9.1037889, 38.7881644], [-9.1032481, 38.788371]]}, "properties": {"bicycle": "no", "bridge": "viaduct", "foot": "no", "highway": "trunk", "lanes": "4", "layer": "2", "maxspeed": "80", "name": "Viaduto da Matinha", "oneway": "yes", "placement": "right_of:1", "ref": "IC2", "surface": "asphalt", "turn:lanes": "through|through|through;right|right"}}, {"type": "Feature", "geometry": {"type": "LineString", "coordinates": [[-9.0738892, 38.8399753], [-9.0737655, 38.8402522], [-9.0736469, 38.8406678], [-9.0735999, 38.8411113], [-9.073634, 38.841584], [-9.0738057, 38.8420921], [-9.0741233, 38.8425868], [-9.0744752, 38.843008], [-9.0749644, 38.8434157], [-9.0768276, 38.844927], [-9.0773918, 38.8453682], [-9.0778628, 38.8456235], [-9.0785307, 38.8458599], [-9.079023, 38.8459587], [-9.0795029, 38.845996]]}, "properties": {"bridge": "yes", "foot": "no", "highway": "trunk", "lanes": "3", "layer": "1", "maxspeed": "80", "minspeed": "40", "name": "Viaduto de Santa Iria da Az\u00f3ia", "oneway": "yes", "ref": "IC2", "surface": "asphalt"}}, {"type": "Feature", "geometry": {"type": "LineString", "coordinates": [[-9.0794905, 38.8459111], [-9.0790552, 38.8458605], [-9.0785607, 38.8457676], [-9.0779036, 38.8455311], [-9.0774706, 38.8452951], [-9.0769168, 38.8448338], [-9.0751704, 38.8433823], [-9.074458, 38.8427673], [-9.0741318, 38.8423662], [-9.0739087, 38.8419651], [-9.0737799, 38.8414904], [-9.073737, 38.8411094], [-9.0737714, 38.8406815], [-9.0738959, 38.8402624], [-9.0742152, 38.8395644]]}, "properties": {"bridge": "yes", "foot": "no", "highway": "trunk", "lanes": "2", "layer": "1", "lit": "yes", "maxspeed": "80", "name": "Viaduto de Santa Iria da Az\u00f3ia", "oneway": "yes", "ref": "IC2", "surface": "asphalt"}}, {"type": "Feature", "geometry": {"type": "LineString", "coordinates": [[-9.0813468, 38.8463607], [-9.0816652, 38.8465446], [-9.0819093, 38.8467233], [-9.0825453, 38.8473666], [-9.0826566, 38.8474697], [-9.0827739, 38.8475687], [-9.0828696, 38.847643], [-9.082972, 38.8477118], [-9.0830804, 38.8477747], [-9.0831492, 38.84781], [-9.0832199, 38.8478428], [-9.0833635, 38.8479056], [-9.0835109, 38.8479628], [-9.083684, 38.8480214], [-9.0838603, 38.8480738], [-9.0839919, 38.8481084], [-9.0841259, 38.8481368], [-9.0842619, 38.8481589], [-9.0844242, 38.8481767], [-9.0845878, 38.8481855], [-9.0847518, 38.8481853], [-9.0858624, 38.8481233], [-9.0861415, 38.8481256]]}, "properties": {"foot": "no", "highway": "trunk", "lanes": "3", "lit": "yes", "maxspeed": "80", "minspeed": "40", "oneway": "yes", "ref": "IC2", "surface": "asphalt"}}, {"type": "Feature", "geometry": {"type": "LineString", "coordinates": [[-9.0775588, 38.833209], [-9.0779974, 38.832524], [-9.0783076, 38.8320781]]}, "properties": {"foot": "no", "highway": "trunk", "lanes": "2", "lit": "yes", "maxspeed": "80", "oneway": "yes", "ref": "IC2", "source": "bing", "surface": "asphalt"}}, {"type": "Feature", "geometry": {"type": "LineString", "coordinates": [[-9.0749447, 38.8380217], [-9.075128, 38.8376527], [-9.0761522, 38.8355909], [-9.0775588, 38.833209]]}, "properties": {"bridge": "yes", "foot": "no", "highway": "trunk", "lanes": "2", "layer": "1", "lit": "yes", "maxspeed": "80", "name": "Viaduto de Santa Iria da Az\u00f3ia", "oneway": "yes", "ref": "IC2", "surface": "asphalt"}}, {"type": "Feature", "geometry": {"type": "LineString", "coordinates": [[-9.0774497, 38.8331722], [-9.0760444, 38.8355516], [-9.0748369, 38.8379827]]}, "properties": {"bridge": "yes", "foot": "no", "highway": "trunk", "lanes": "2", "layer": "1", "lit": "yes", "maxspeed": "80", "name": "Viaduto de Santa Iria da Az\u00f3ia", "oneway": "yes", "ref": "IC2", "surface": "asphalt"}}, {"type": "Feature", "geometry": {"type": "LineString", "coordinates": [[-9.0806683, 38.828863], [-9.0815124, 38.8277612], [-9.0820844, 38.8269717], [-9.082811, 38.8259018], [-9.0833325, 38.825096], [-9.0838001, 38.824339], [-9.0843442, 38.8234045], [-9.0848293, 38.8225201], [-9.0853647, 38.8214745], [-9.0859297, 38.8202867], [-9.0863921, 38.8192208], [-9.0867797, 38.8182767], [-9.0872195, 38.8170781], [-9.090957, 38.8064082], [-9.0914021, 38.8049858], [-9.0917219, 38.8038573], [-9.0918842, 38.8032721]]}, "properties": {"foot": "no", "highway": "trunk", "lanes": "2", "lit": "yes", "maxspeed": "80", "minspeed": "40", "oneway": "yes", "ref": "IC2", "source": "bing", "surface": "asphalt"}}, {"type": "Feature", "geometry": {"type": "LineString", "coordinates": [[-9.0917875, 38.8031975], [-9.0916093, 38.8038381], [-9.0912897, 38.8049654], [-9.0908454, 38.8063857], [-9.0900419, 38.8086797], [-9.0871085, 38.8170539], [-9.0866693, 38.8182507], [-9.0862838, 38.819199], [-9.0858732, 38.820147], [-9.0852691, 38.8214391], [-9.0847227, 38.8224858], [-9.0842481, 38.8233652], [-9.0836957, 38.8243009], [-9.0834792, 38.8246775], [-9.0832418, 38.8250536], [-9.083042, 38.8253796], [-9.0827085, 38.8258606], [-9.0819832, 38.8269286], [-9.0814127, 38.8277161], [-9.0805631, 38.8288278]]}, "properties": {"foot": "no", "highway": "trunk", "lanes": "2", "lit": "yes", "maxspeed": "80", "oneway": "yes", "ref": "IC2", "source": "bing", "surface": "asphalt"}}, {"type": "Feature", "geometry": {"type": "LineString", "coordinates": [[-9.0805376, 38.8290335], [-9.0806683, 38.828863]]}, "properties": {"bridge": "yes", "foot": "no", "highway": "trunk", "lanes": "2", "layer": "1", "lit": "yes", "maxspeed": "80", "minspeed": "40", "oneway": "yes", "ref": "IC2", "source": "bing", "surface": "asphalt"}}, {"type": "Feature", "geometry": {"type": "LineString", "coordinates": [[-9.0805631, 38.8288278], [-9.0804325, 38.8289983]]}, "properties": {"bridge": "yes", "foot": "no", "highway": "trunk", "lanes": "2", "layer": "1", "lit": "yes", "maxspeed": "80", "oneway": "yes", "ref": "IC2", "source": "bing", "surface": "asphalt"}}, {"type": "Feature", "geometry": {"type": "LineString", "coordinates": [[-9.0918426, 38.802999], [-9.0917875, 38.8031975]]}, "properties": {"bridge": "yes", "foot": "no", "highway": "trunk", "lanes": "2", "layer": "1", "lit": "yes", "maxspeed": "80", "oneway": "yes", "ref": "IC2", "source": "bing", "surface": "asphalt"}}, {"type": "Feature", "geometry": {"type": "LineString", "coordinates": [[-9.0918842, 38.8032721], [-9.0919393, 38.8030735]]}, "properties": {"bridge": "yes", "foot": "no", "highway": "trunk", "lanes": "2", "layer": "1", "lit": "yes", "maxspeed": "80", "minspeed": "40", "oneway": "yes", "ref": "IC2", "source": "bing", "surface": "asphalt"}}, {"type": "Feature", "geometry": {"type": "LineString", "coordinates": [[-9.0804325, 38.8289983], [-9.0792218, 38.8305756], [-9.0786985, 38.8313278]]}, "properties": {"foot": "no", "highway": "trunk", "lanes": "2", "lit": "yes", "maxspeed": "80", "oneway": "yes", "ref": "IC2", "source": "bing", "surface": "asphalt"}}, {"type": "Feature", "geometry": {"type": "LineString", "coordinates": [[-9.0919393, 38.8030735], [-9.0920455, 38.802674], [-9.09216, 38.8022777], [-9.0922574, 38.8019774], [-9.0923686, 38.8016924], [-9.0925209, 38.8013874], [-9.0926867, 38.8011126], [-9.0928441, 38.8009035], [-9.0930692, 38.8006366], [-9.0933021, 38.8004066], [-9.0935807, 38.8001654], [-9.0939029, 38.7999347], [-9.0942461, 38.7997091], [-9.0959301, 38.7988123]]}, "properties": {"foot": "no", "highway": "trunk", "lanes": "2", "lit": "yes", "maxspeed": "80", "minspeed": "40", "oneway": "yes", "ref": "IC2", "source": "bing", "surface": "asphalt"}}, {"type": "Feature", "geometry": {"type": "LineString", "coordinates": [[-9.105319, 38.7784473], [-9.1051272, 38.7797563], [-9.1051018, 38.7801013], [-9.1050991, 38.7802565]]}, "properties": {"highway": "trunk", "lanes": "4", "lit": "yes", "maxspeed": "80", "oneway": "yes", "ref": "IC2", "surface": "asphalt"}}, {"type": "Feature", "geometry": {"type": "LineString", "coordinates": [[-9.1057015, 38.7859996], [-9.105695, 38.7862561], [-9.1056834, 38.786334], [-9.1056623, 38.7864585], [-9.1056388, 38.7865659], [-9.1056289, 38.7866111], [-9.1055895, 38.7867381], [-9.1055348, 38.7868625], [-9.1054724, 38.7869916], [-9.1053867, 38.7871327], [-9.1052849, 38.7872679], [-9.1051465, 38.787426], [-9.1050005, 38.7875588], [-9.1048515, 38.7876775], [-9.1046876, 38.7877862], [-9.1045327, 38.7878758], [-9.1045208, 38.7878814]]}, "properties": {"bicycle": "no", "highway": "trunk", "lanes": "2", "lit": "yes", "oneway": "yes", "ref": "IC2", "surface": "asphalt"}}, {"type": "Feature", "geometry": {"type": "LineString", "coordinates": [[-9.1054066, 38.7791428], [-9.1053918, 38.7789408], [-9.105436, 38.7785544], [-9.1054683, 38.7782329], [-9.105488, 38.7779655], [-9.1054962, 38.7778546]]}, "properties": {"change:lanes": "yes|not_right|no", "foot": "no", "highway": "trunk", "lanes": "3", "lit": "yes", "maxheight": "default", "maxspeed": "80", "oneway": "yes", "ref": "IC2", "sidewalk": "no", "surface": "asphalt"}}, {"type": "Feature", "geometry": {"type": "LineString", "coordinates": [[-9.1054605, 38.7815944], [-9.1053419, 38.7807349], [-9.1053017, 38.7804087], [-9.1053043, 38.780094], [-9.1053258, 38.7797657], [-9.1054066, 38.7791428]]}, "properties": {"bicycle": "no", "foot": "no", "highway": "trunk", "lanes": "5", "lit": "yes", "maxspeed": "80", "maxspeed:type": "sign", "oneway": "yes", "ref": "IC2", "sidewalk": "no", "surface": "asphalt", "turn:lanes": "through|through|through|slight_right|slight_right"}}, {"type": "Feature", "geometry": {"type": "LineString", "coordinates": [[-9.1052372, 38.7813275], [-9.1053744, 38.7818365], [-9.1054035, 38.7819886], [-9.1054267, 38.7821687], [-9.105452, 38.7823544], [-9.1054771, 38.7825573], [-9.1054931, 38.7827046], [-9.1055127, 38.7829174], [-9.1055278, 38.7831739], [-9.1055505, 38.7835741], [-9.1055876, 38.7841612]]}, "properties": {"destination": "Alverca;Sacav\u00e9m", "highway": "trunk", "lanes": "2", "lit": "yes", "maxspeed": "80", "oneway": "yes", "ref": "IC2", "surface": "asphalt"}}, {"type": "Feature", "geometry": {"type": "LineString", "coordinates": [[-9.1057853, 38.7855661], [-9.1056776, 38.7836538]]}, "properties": {"highway": "trunk", "lanes": "4", "lit": "yes", "maxspeed": "80", "oneway": "yes", "placement": "right_of:1", "ref": "IC2", "surface": "asphalt", "turn:lanes": "through|through|through|merge_to_left"}}, {"type": "Feature", "geometry": {"type": "LineString", "coordinates": [[-9.1056776, 38.7836538], [-9.1056424, 38.7829888], [-9.1055733, 38.7823041], [-9.1054605, 38.7815944]]}, "properties": {"highway": "trunk", "lanes": "3", "lit": "yes", "maxspeed": "80", "oneway": "yes", "ref": "IC2", "surface": "asphalt"}}, {"type": "Feature", "geometry": {"type": "LineString", "coordinates": [[-9.1055876, 38.7841612], [-9.1056016, 38.7844371], [-9.1056413, 38.7850981], [-9.1056771, 38.7856577], [-9.1056947, 38.7858776], [-9.1057015, 38.7859996]]}, "properties": {"bicycle": "no", "highway": "trunk", "lanes": "3", "lit": "yes", "maxspeed": "80", "oneway": "yes", "ref": "IC2", "surface": "asphalt"}}, {"type": "Feature", "geometry": {"type": "LineString", "coordinates": [[-9.1032481, 38.788371], [-9.1023918, 38.7886945]]}, "properties": {"bridge": "viaduct", "change:lanes": "yes|not_right|not_left|yes", "foot": "no", "highway": "trunk", "lanes": "4", "layer": "1", "maxspeed": "80", "name": "Viaduto da Matinha", "oneway": "yes", "placement": "right_of:1", "ref": "IC2", "turn:lanes": "through|through|through;right|right"}}, {"type": "Feature", "geometry": {"type": "LineString", "coordinates": [[-9.1033437, 38.7884893], [-9.1038728, 38.7882899]]}, "properties": {"bridge": "viaduct", "foot": "no", "highway": "trunk", "lanes": "4", "layer": "2", "lit": "yes", "maxspeed": "80", "name": "Viaduto da Matinha", "oneway": "yes", "placement": "middle_of:2", "ref": "IC2", "surface": "asphalt", "turn:lanes": "through|through|slight_right|slight_right"}}, {"type": "Feature", "geometry": {"type": "LineString", "coordinates": [[-9.1041805, 38.788164], [-9.1044743, 38.7880335]]}, "properties": {"change:lanes": "yes|not_right|not_left|yes", "highway": "trunk", "lanes": "4", "lit": "yes", "maxspeed": "80", "oneway": "yes", "placement": "middle_of:2", "ref": "IC2", "surface": "asphalt"}}, {"type": "Feature", "geometry": {"type": "LineString", "coordinates": [[-9.1038728, 38.7882899], [-9.1041805, 38.788164]]}, "properties": {"highway": "trunk", "lanes": "4", "lit": "yes", "maxspeed": "80", "oneway": "yes", "placement": "middle_of:2", "ref": "IC2", "surface": "asphalt", "turn:lanes": "through|through|slight_right|slight_right"}}, {"type": "Feature", "geometry": {"type": "LineString", "coordinates": [[-9.1040325, 38.7880674], [-9.1037889, 38.7881644]]}, "properties": {"highway": "trunk", "lanes": "4", "lit": "yes", "maxspeed": "80", "oneway": "yes", "placement": "right_of:1", "ref": "IC2", "surface": "asphalt"}}, {"type": "Feature", "geometry": {"type": "LineString", "coordinates": [[-9.1021191, 38.7887718], [-9.1018581, 38.7889296], [-9.1016469, 38.7890431], [-9.1015042, 38.7891285], [-9.1013522, 38.7892244], [-9.1012475, 38.7892944], [-9.1011356, 38.7893803]]}, "properties": {"bridge": "viaduct", "foot": "no", "highway": "trunk", "lanes": "3", "layer": "2", "lit": "yes", "maxspeed": "80", "name": "Viaduto da Matinha", "oneway": "yes", "ref": "IC2", "surface": "asphalt"}}, {"type": "Feature", "geometry": {"type": "LineString", "coordinates": [[-9.1051707, 38.7809454], [-9.1052372, 38.7813275]]}, "properties": {"change:lanes": "no|no|not_left|yes", "highway": "trunk", "lanes": "4", "lit": "yes", "maxspeed": "80", "oneway": "yes", "ref": "IC2", "surface": "asphalt"}}, {"type": "Feature", "geometry": {"type": "LineString", "coordinates": [[-9.1050991, 38.7802565], [-9.1050981, 38.7804148], [-9.1051293, 38.7807098], [-9.1051707, 38.7809454]]}, "properties": {"change:lanes": "no|not_left|yes|yes", "highway": "trunk", "lanes": "4", "lit": "yes", "maxspeed": "80", "oneway": "yes", "ref": "IC2", "surface": "asphalt"}}, {"type": "Feature", "geometry": {"type": "LineString", "coordinates": [[-9.0742152, 38.8395644], [-9.0743709, 38.8392247]]}, "properties": {"bridge": "yes", "foot": "no", "highway": "trunk", "lanes": "3", "layer": "1", "lit": "yes", "maxspeed": "80", "name": "Viaduto de Santa Iria da Az\u00f3ia", "oneway": "yes", "placement": "right_of:1", "ref": "IC2", "surface": "asphalt", "turn:lanes": "through|through|slight_right"}}, {"type": "Feature", "geometry": {"type": "LineString", "coordinates": [[-9.0748369, 38.8379827], [-9.0743714, 38.838959], [-9.0741236, 38.8394504]]}, "properties": {"bridge": "yes", "foot": "no", "highway": "trunk", "lanes": "2", "layer": "1", "lit": "yes", "maxspeed": "80", "name": "Viaduto de Santa Iria da Az\u00f3ia", "oneway": "yes", "ref": "IC2", "surface": "asphalt"}}, {"type": "Feature", "geometry": {"type": "LineString", "coordinates": [[-9.0743709, 38.8392247], [-9.0745273, 38.8389417], [-9.0747513, 38.8384997], [-9.0749447, 38.8380217]]}, "properties": {"bridge": "yes", "foot": "no", "highway": "trunk", "lanes": "2", "layer": "1", "lit": "yes", "maxspeed": "80", "name": "Viaduto de Santa Iria da Az\u00f3ia", "oneway": "yes", "ref": "IC2", "surface": "asphalt"}}, {"type": "Feature", "geometry": {"type": "LineString", "coordinates": [[-9.0861415, 38.8481256], [-9.0866142, 38.8481998], [-9.0869146, 38.8483126], [-9.0873653, 38.8485674], [-9.0874323, 38.8486364], [-9.0874511, 38.8486928], [-9.0874685, 38.8487931]]}, "properties": {"foot": "no", "highway": "trunk", "lanes": "1", "lit": "yes", "maxspeed": "60", "oneway": "yes", "ref": "IC2", "surface": "asphalt"}}, {"type": "Feature", "geometry": {"type": "LineString", "coordinates": [[-9.1023918, 38.7886945], [-9.1021191, 38.7887718]]}, "properties": {"bridge": "viaduct", "change:lanes": "yes|not_right|no|no", "foot": "no", "highway": "trunk", "lanes": "4", "layer": "2", "maxspeed": "80", "name": "Viaduto da Matinha", "oneway": "yes", "placement": "right_of:1", "ref": "IC2", "surface": "asphalt", "turn:lanes": "|||right"}}, {"type": "Feature", "geometry": {"type": "LineString", "coordinates": [[-9.0990539, 38.7948489], [-9.0989171, 38.7955544]]}, "properties": {"foot": "no", "highway": "trunk", "lanes": "2", "lit": "yes", "maxspeed": "80", "oneway": "yes", "ref": "IC2", "surface": "asphalt"}}, {"type": "Feature", "geometry": {"type": "LineString", "coordinates": [[-9.0990352, 38.7955719], [-9.0992259, 38.7947939]]}, "properties": {"foot": "no", "highway": "trunk", "lanes": "2", "lit": "yes", "maxspeed": "80", "minspeed": "40", "oneway": "yes", "ref": "IC2", "surface": "asphalt"}}, {"type": "Feature", "geometry": {"type": "LineString", "coordinates": [[-9.0999255, 38.7923821], [-9.0999928, 38.7920383], [-9.100283, 38.7910685]]}, "properties": {"highway": "trunk", "lanes": "3", "lit": "yes", "maxspeed": "80", "oneway": "yes", "ref": "IC2", "surface": "asphalt"}}, {"type": "Feature", "geometry": {"type": "LineString", "coordinates": [[-9.0997316, 38.7922519], [-9.0996851, 38.7925371], [-9.0994102, 38.7935426], [-9.0990539, 38.7948489]]}, "properties": {"highway": "trunk", "lanes": "4", "lit": "yes", "maxspeed": "80", "oneway": "yes", "ref": "IC2", "surface": "asphalt", "turn:lanes": "through|through|right|right"}}, {"type": "Feature", "geometry": {"type": "LineString", "coordinates": [[-9.1054962, 38.7778546], [-9.1055044, 38.7777427], [-9.1055182, 38.7773813], [-9.1055259, 38.7770108]]}, "properties": {"highway": "trunk", "lanes": "3", "lit": "yes", "maxspeed": "80", "oneway": "yes", "ref": "IC2", "surface": "asphalt"}}, {"type": "Feature", "geometry": {"type": "LineString", "coordinates": [[-9.105549, 38.7756663], [-9.1055597, 38.7753063], [-9.1055465, 38.7749141]]}, "properties": {"foot": "no", "highway": "trunk", "lanes": "2", "lit": "yes", "maxspeed": "80", "oneway": "yes", "ref": "IC2", "sidewalk": "no", "surface": "asphalt"}}, {"type": "Feature", "geometry": {"type": "LineString", "coordinates": [[-9.1055259, 38.7770108], [-9.1055336, 38.7766438], [-9.1055382, 38.7760317], [-9.105549, 38.7756663]]}, "properties": {"highway": "trunk", "lanes": "3", "lit": "yes", "maxspeed": "80", "oneway": "yes", "ref": "IC2", "surface": "asphalt", "turn:lanes": "through|through|merge_to_left"}}, {"type": "Feature", "geometry": {"type": "LineString", "coordinates": [[-9.0993674, 38.7944098], [-9.0999255, 38.7923821]]}, "properties": {"highway": "trunk", "lanes": "4", "lit": "yes", "maxspeed": "80", "oneway": "yes", "ref": "IC2", "surface": "asphalt", "turn:lanes": "through|through|through;right|right"}}, {"type": "Feature", "geometry": {"type": "LineString", "coordinates": [[-9.0814122, 38.8462771], [-9.0811909, 38.846177], [-9.0808364, 38.8460591], [-9.0805633, 38.8460005], [-9.080257, 38.8459597], [-9.0799244, 38.8459297], [-9.0794905, 38.8459111]]}, "properties": {"bridge": "yes", "foot": "no", "highway": "trunk", "lanes": "2", "layer": "1", "lit": "yes", "maxspeed": "80", "name": "Viaduto de Santa Iria da Az\u00f3ia", "oneway": "yes", "ref": "IC2", "surface": "asphalt"}}, {"type": "Feature", "geometry": {"type": "LineString", "coordinates": [[-9.0795029, 38.845996], [-9.0799041, 38.8460274], [-9.080161, 38.8460407], [-9.0804314, 38.8460746], [-9.0806688, 38.8461184], [-9.0808925, 38.8461747], [-9.0810714, 38.8462364], [-9.0813468, 38.8463607]]}, "properties": {"bridge": "yes", "foot": "no", "highway": "trunk", "lanes": "3", "layer": "1", "lit": "yes", "maxspeed": "80", "minspeed": "40", "name": "Viaduto de Santa Iria da Az\u00f3ia", "oneway": "yes", "ref": "IC2", "surface": "asphalt"}}, {"type": "Feature", "geometry": {"type": "LineString", "coordinates": [[-9.0818794, 38.8465735], [-9.0816394, 38.8464036], [-9.0814122, 38.8462771]]}, "properties": {"foot": "no", "highway": "trunk", "lanes": "2", "lit": "yes", "maxspeed": "80", "oneway": "yes", "ref": "IC2", "surface": "asphalt"}}, {"type": "Feature", "geometry": {"type": "LineString", "coordinates": [[-9.1044495, 38.7879151], [-9.1043456, 38.7879643], [-9.1040325, 38.7880674]]}, "properties": {"bicycle": "no", "highway": "trunk", "lanes": "2", "lit": "yes", "maxspeed": "80", "oneway": "yes", "ref": "IC2", "surface": "asphalt"}}, {"type": "Feature", "geometry": {"type": "LineString", "coordinates": [[-9.1045208, 38.7878814], [-9.1044495, 38.7879151]]}, "properties": {"bicycle": "no", "highway": "trunk", "lanes": "2", "lit": "yes", "maxspeed": "80", "oneway": "yes", "ref": "IC2", "surface": "asphalt"}}, {"type": "Feature", "geometry": {"type": "LineString", "coordinates": [[-9.0741236, 38.8394504], [-9.0738892, 38.8399753]]}, "properties": {"bridge": "yes", "foot": "no", "highway": "trunk", "lanes": "3", "layer": "1", "maxspeed": "80", "name": "Viaduto de Santa Iria da Az\u00f3ia", "oneway": "yes", "ref": "IC2", "surface": "asphalt"}}, {"type": "Feature", "geometry": {"type": "LineString", "coordinates": [[-9.0877166, 38.8484714], [-9.0875262, 38.8484902], [-9.0874323, 38.8484881], [-9.0873035, 38.8484442], [-9.0872157, 38.8484014], [-9.0870148, 38.848295]]}, "properties": {"highway": "trunk", "lanes": "2", "lit": "yes", "maxspeed": "50", "oneway": "yes", "ref": "IC2", "surface": "asphalt"}}, {"type": "Feature", "geometry": {"type": "LineString", "coordinates": [[-9.0793714, 38.8305556], [-9.0805376, 38.8290335]]}, "properties": {"foot": "no", "highway": "trunk", "lanes": "2", "lit": "yes", "maxspeed": "80", "oneway": "yes", "ref": "IC2", "source": "bing", "surface": "asphalt"}}, {"type": "Feature", "geometry": {"type": "LineString", "coordinates": [[-9.1044743, 38.7880335], [-9.1045371, 38.7880055], [-9.1045426, 38.7880031]]}, "properties": {"change:lanes": "yes|not_right|not_left|yes", "highway": "trunk", "lanes": "4", "lit": "yes", "maxspeed": "80", "oneway": "yes", "placement": "middle_of:2", "ref": "IC2", "surface": "asphalt"}}, {"type": "Feature", "geometry": {"type": "LineString", "coordinates": [[-9.0786985, 38.8313278], [-9.0778952, 38.8324824], [-9.0774497, 38.8331722]]}, "properties": {"foot": "no", "highway": "trunk", "lanes": "2", "lit": "yes", "maxspeed": "80", "oneway": "yes", "ref": "IC2", "source": "bing", "surface": "asphalt"}}, {"type": "Feature", "geometry": {"type": "LineString", "coordinates": [[-9.0783076, 38.8320781], [-9.0793221, 38.83062], [-9.0793714, 38.8305556]]}, "properties": {"foot": "no", "highway": "trunk", "lanes": "2", "lit": "yes", "maxspeed": "80", "oneway": "yes", "ref": "IC2", "source": "bing", "surface": "asphalt"}}, {"type": "Feature", "geometry": {"type": "MultiPolygon", "coordinates": [[[[-8.4561039, 40.4602552], [-8.4560945, 40.4602134], [-8.4560746, 40.4601738], [-8.4560446, 40.4601376], [-8.4560058, 40.4601065], [-8.4559602, 40.4600821], [-8.4559092, 40.4600648], [-8.4558547, 40.4600555], [-8.455799, 40.4600544], [-8.455744, 40.4600616], [-8.4556919, 40.4600769], [-8.4556447, 40.4600995], [-8.4556042, 40.4601287], [-8.4555719, 40.4601635], [-8.4555492, 40.4602024], [-8.4555368, 40.4602439], [-8.4555354, 40.4602865], [-8.4555449, 40.4603285], [-8.4555651, 40.4603682], [-8.4555953, 40.4604044], [-8.4556342, 40.4604354], [-8.4556805, 40.4604599], [-8.4557321, 40.4604771], [-8.4557864, 40.4604861], [-8.4558419, 40.4604869], [-8.4558966, 40.4604795], [-8.4559483, 40.4604642], [-8.4559952, 40.4604415], [-8.4560354, 40.4604124], [-8.4560675, 40.4603777], [-8.4560901, 40.460339], [-8.4561024, 40.4602976], [-8.4561039, 40.4602552]]]]}, "properties": {"highway": "primary", "junction": "roundabout", "lanes": "2", "maxspeed": "50", "ref": "IC2;EN 1;EN 235", "surface": "asphalt"}}]}