{"type": "FeatureCollection", "features": [{"type": "Feature", "geometry": {"type": "LineString", "coordinates": [[-8.4302198, 40.1902293], [-8.4303404, 40.190364]]}, "properties": {"change:lanes": "no|no", "cycleway:both": "no", "highway": "trunk", "lanes": "2", "lit": "yes", "maxspeed": "60", "old_ref": "EN 1", "oneway": "yes", "ref": "IC3", "source": "bing", "surface": "asphalt", "turn:lanes": "through|right"}}, {"type": "Feature", "geometry": {"type": "LineString", "coordinates": [[-8.4301133, 40.1901029], [-8.4302198, 40.1902293]]}, "properties": {"cycleway:both": "no", "highway": "trunk", "lanes": "2", "lit": "yes", "maxspeed": "60", "old_ref": "EN 1", "oneway": "yes", "ref": "IC3", "source": "bing", "surface": "asphalt", "turn:lanes": "through|right"}}]}