{"type": "FeatureCollection", "features": [{"type": "Feature", "geometry": {"type": "LineString", "coordinates": [[-8.6392449, 41.5380696], [-8.6394518, 41.5383775]]}, "properties": {"highway": "primary", "lanes:backward": "1", "lanes:forward": "2", "maxspeed": "90", "oneway": "no", "ref": "N 103", "source": "bing", "surface": "asphalt"}}, {"type": "Feature", "geometry": {"type": "LineString", "coordinates": [[-8.6380308, 41.5339088], [-8.6380487, 41.5339558], [-8.6380169, 41.534179], [-8.638006, 41.5344385], [-8.638015, 41.5346631], [-8.6380274, 41.5348181]]}, "properties": {"destination": "Viana do Castelo", "highway": "primary", "lanes": "1", "oneway": "yes", "ref": "N 103", "source": "bing", "surface": "asphalt"}}]}