{"type": "FeatureCollection", "features": [{"type": "Feature", "geometry": {"type": "Point", "coordinates": [-6.5563607, 41.742769]}, "properties": {"distance": "537", "highway": "milestone", "ref": "N-122;E-82"}}, {"type": "Feature", "geometry": {"type": "LineString", "coordinates": [[-6.5602003, 41.7432524], [-6.5595383, 41.7432667], [-6.559291, 41.7432599], [-6.5588884, 41.7432631]]}, "properties": {"hazmat": "designated", "highway": "motorway", "int_ref": "E 82", "lanes": "2", "loc_name": "Carretera de Zamora a Portugal", "name": "Carretera Zaragoza a Portugal", "oneway": "yes", "ref": "N-122", "source": "ITACyL", "source:date": "2009", "surface": "asphalt"}}, {"type": "Feature", "geometry": {"type": "LineString", "coordinates": [[-6.5602113, 41.7433208], [-6.5605746, 41.7432976], [-6.5608947, 41.7432601], [-6.5611486, 41.7432282], [-6.5613016, 41.7432067], [-6.5615684, 41.7431631], [-6.5618088, 41.7431137], [-6.5620934, 41.7430516], [-6.5623698, 41.7429853], [-6.5625903, 41.7429265], [-6.562816, 41.7428581], [-6.5632013, 41.7427295], [-6.5635586, 41.7425963], [-6.5639018, 41.7424509], [-6.5657814, 41.741591]]}, "properties": {"bridge": "viaduct", "bridge:name": "Puente internacional de Quintanilha / Ponte Internacional de Quintanilha", "bridge:name:es": "Puente internacional de Quintanilha", "bridge:name:pt": "Ponte Internacional de Quintanilha", "hazmat": "designated", "highway": "motorway", "int_ref": "E 82", "lanes": "2", "layer": "1", "loc_name": "Carretera de Zamora a Portugal", "name": "Carretera Zaragoza a Portugal", "oneway": "yes", "ref": "N-122", "source": "ITACyL", "source:date": "2009", "surface": "asphalt"}}, {"type": "Feature", "geometry": {"type": "LineString", "coordinates": [[-6.5588884, 41.7432631], [-6.5585669, 41.7432345], [-6.5582398, 41.7431997], [-6.557828, 41.7431356], [-6.5573613, 41.7430428], [-6.5568212, 41.7429026], [-6.5563607, 41.742769], [-6.555691, 41.7425352], [-6.5551239, 41.7422898], [-6.5547998, 41.742125], [-6.5544766, 41.7419488], [-6.5538436, 41.7415936], [-6.5528698, 41.7410707], [-6.5524824, 41.7408921], [-6.5520571, 41.7407176], [-6.5516871, 41.7405889], [-6.5512933, 41.7404777], [-6.5509643, 41.7404018], [-6.5506773, 41.7403468], [-6.5503538, 41.7402996], [-6.5500402, 41.7402667], [-6.5497385, 41.7402487], [-6.5494595, 41.7402397], [-6.5491762, 41.7402414], [-6.5488172, 41.7402577], [-6.5484551, 41.7402907], [-6.5480573, 41.7403419], [-6.5475592, 41.7404268], [-6.5470565, 41.740529], [-6.5451338, 41.7409727], [-6.5429729, 41.7414632]]}, "properties": {"hazmat": "designated", "highway": "trunk", "int_ref": "E 82", "lanes": "3", "lanes:backward": "1", "lanes:forward": "2", "loc_name": "Carretera de Zamora a Portugal", "name": "Carretera Zaragoza a Portugal por Zamora", "ref": "N-122", "source": "ITACyL", "source:date": "2009", "surface": "asphalt"}}, {"type": "Feature", "geometry": {"type": "LineString", "coordinates": [[-6.5588884, 41.7432631], [-6.5592503, 41.7433223], [-6.5592717, 41.743323], [-6.5595271, 41.7433314], [-6.5598929, 41.7433325], [-6.5602113, 41.7433208]]}, "properties": {"hazmat": "designated", "highway": "motorway", "int_ref": "E 82", "lanes": "2", "loc_name": "Carretera de Zamora a Portugal", "name": "Carretera Zaragoza a Portugal", "oneway": "yes", "ref": "N-122", "source": "ITACyL", "source:date": "2009", "surface": "asphalt"}}, {"type": "Feature", "geometry": {"type": "LineString", "coordinates": [[-6.5655875, 41.7415913], [-6.563856, 41.7423797], [-6.5635224, 41.7425222], [-6.5631712, 41.7426548], [-6.5627433, 41.7427975], [-6.5623297, 41.7429169], [-6.5620726, 41.7429815], [-6.5618023, 41.7430395], [-6.5615422, 41.7430896], [-6.5612731, 41.7431344], [-6.5607955, 41.7432016], [-6.5605628, 41.7432243], [-6.5602003, 41.7432524]]}, "properties": {"bridge": "viaduct", "bridge:name": "Puente internacional de Quintanilha / Ponte Internacional de Quintanilha", "bridge:name:es": "Puente internacional de Quintanilha", "bridge:name:pt": "Ponte Internacional de Quintanilha", "hazmat": "designated", "highway": "motorway", "int_ref": "E 82", "lanes": "2", "layer": "1", "loc_name": "Carretera de Zamora a Portugal", "name": "Carretera Zaragoza a Portugal", "oneway": "yes", "ref": "N-122", "source": "ITACyL", "source:date": "2009", "surface": "asphalt"}}]}