{"type": "FeatureCollection", "features": [{"type": "Feature", "geometry": {"type": "LineString", "coordinates": [[-8.573864, 41.7470419], [-8.5739741, 41.7470321], [-8.5744301, 41.7469915], [-8.5747535, 41.7470027], [-8.5755457, 41.7471103], [-8.5758112, 41.7471707], [-8.5760061, 41.7472508], [-8.577093, 41.747835], [-8.577602, 41.748198], [-8.5776318, 41.7482288], [-8.5787032, 41.7493356], [-8.5793034, 41.7499557], [-8.5794112, 41.7501603], [-8.5794391, 41.7502133], [-8.5795811, 41.7505604], [-8.5799532, 41.7515547], [-8.5801127, 41.7519108], [-8.5803457, 41.7523372], [-8.5806142, 41.7527551], [-8.580691, 41.7528655], [-8.5809797, 41.7532581], [-8.5815392, 41.7540416], [-8.5817907, 41.7543119], [-8.5819787, 41.7544207], [-8.5821652, 41.7545056], [-8.5823816, 41.7545702], [-8.5829275, 41.7546647]]}, "properties": {"highway": "primary", "lanes": "2", "ref": "N 201", "surface": "asphalt"}}, {"type": "Feature", "geometry": {"type": "LineString", "coordinates": [[-8.5829275, 41.7546647], [-8.5832753, 41.7547181]]}, "properties": {"highway": "primary", "lanes": "2", "ref": "N 201", "surface": "asphalt"}}, {"type": "Feature", "geometry": {"type": "LineString", "coordinates": [[-8.5832753, 41.7547181], [-8.58396, 41.7548347], [-8.5843925, 41.7548992], [-8.5846569, 41.7549632], [-8.5848881, 41.7550624]]}, "properties": {"highway": "primary", "lanes": "2", "ref": "N 201", "surface": "asphalt"}}]}