{"type": "FeatureCollection", "features": [{"type": "Feature", "geometry": {"type": "LineString", "coordinates": [[-9.2046434, 38.6635442], [-9.2045584, 38.6635022], [-9.2045009, 38.6634691], [-9.2044532, 38.6634432], [-9.2044109, 38.663415], [-9.2043758, 38.6633865], [-9.2043557, 38.6633712], [-9.2043121, 38.6633246], [-9.2042799, 38.663289], [-9.2042477, 38.6632534], [-9.2042148, 38.663221], [-9.2041833, 38.6631947], [-9.2041451, 38.6631678], [-9.204103, 38.6631425], [-9.2039757, 38.6630699], [-9.2034933, 38.6627917], [-9.2034021, 38.6627435], [-9.2033217, 38.6627016], [-9.20326, 38.6626681], [-9.2031822, 38.6626262], [-9.2030856, 38.6625697], [-9.2030121, 38.6625224], [-9.2029434, 38.6624734], [-9.202868, 38.6624204]]}, "properties": {"highway": "primary", "oneway": "yes", "ref": "N 377-1", "surface": "asphalt"}}, {"type": "Feature", "geometry": {"type": "LineString", "coordinates": [[-9.202539, 38.6620588], [-9.2024762, 38.6619422], [-9.2024365, 38.6618639], [-9.2024043, 38.6617948], [-9.2023722, 38.6617152], [-9.202348, 38.6616356], [-9.2023319, 38.6615623], [-9.2023212, 38.6614953], [-9.2023132, 38.6614408]]}, "properties": {"highway": "primary", "oneway": "yes", "ref": "N 377-1", "surface": "asphalt"}}, {"type": "Feature", "geometry": {"type": "LineString", "coordinates": [[-9.202868, 38.6624204], [-9.2029519, 38.6624895], [-9.2030323, 38.6625562], [-9.2031104, 38.6626146], [-9.2032197, 38.662687], [-9.2033492, 38.6627717], [-9.2035523, 38.6629006], [-9.2036844, 38.6629807], [-9.2038316, 38.6630645], [-9.2039272, 38.663119], [-9.2039905, 38.6631571], [-9.2040539, 38.6632034], [-9.2041156, 38.6632562], [-9.2041562, 38.6632961], [-9.2041853, 38.6633278], [-9.2042095, 38.6633634], [-9.2042344, 38.663415], [-9.2042489, 38.6634442], [-9.2042618, 38.6635275], [-9.2042582, 38.6635895]]}, "properties": {"highway": "primary", "oneway": "yes", "ref": "N 377-1", "surface": "asphalt"}}, {"type": "Feature", "geometry": {"type": "LineString", "coordinates": [[-9.202539, 38.6620588], [-9.2025796, 38.6621162], [-9.2026189, 38.6621697], [-9.2026699, 38.6622325], [-9.2027188, 38.6622858]]}, "properties": {"highway": "primary", "lanes": "2", "ref": "N 377-1", "surface": "asphalt"}}, {"type": "Feature", "geometry": {"type": "LineString", "coordinates": [[-9.2022461, 38.6613487], [-9.2022541, 38.6614199], [-9.2022649, 38.6614911], [-9.2022808, 38.661549], [-9.2023051, 38.6616461], [-9.2023319, 38.6617325], [-9.202407, 38.6618555], [-9.2024687, 38.6619518], [-9.202539, 38.6620588]]}, "properties": {"highway": "primary", "oneway": "yes", "ref": "N 377-1", "surface": "asphalt"}}, {"type": "Feature", "geometry": {"type": "LineString", "coordinates": [[-9.2027188, 38.6622858], [-9.2027664, 38.662333], [-9.2028154, 38.6623758], [-9.202868, 38.6624204]]}, "properties": {"highway": "primary", "lanes": "2", "ref": "N 377-1", "surface": "asphalt"}}]}