{"type": "FeatureCollection", "features": [{"type": "Feature", "geometry": {"type": "LineString", "coordinates": [[-7.306009, 39.3512067], [-7.3053717, 39.3507975], [-7.3053317, 39.3507722]]}, "properties": {"highway": "trunk", "name": "Carretera de Trujillo a Portugal por Valencia de Alc\u00e1ntara", "ref": "N-521"}}, {"type": "Feature", "geometry": {"type": "LineString", "coordinates": [[-7.3028512, 39.3492067], [-7.3020998, 39.348735], [-7.3013446, 39.3482528], [-7.3003606, 39.3476244], [-7.2993445, 39.3469281], [-7.2990025, 39.3465992], [-7.298944, 39.3465434], [-7.2983983, 39.3460226], [-7.2983645, 39.3459928], [-7.2981627, 39.3458155], [-7.297883, 39.3456222], [-7.2967654, 39.344924]]}, "properties": {"highway": "trunk", "lanes": "2", "maxspeed": "60", "name": "Carretera de Trujillo a Portugal por Valencia de Alc\u00e1ntara", "oneway": "no", "ref": "N-521"}}, {"type": "Feature", "geometry": {"type": "LineString", "coordinates": [[-7.2967654, 39.344924], [-7.2957831, 39.344303], [-7.2950117, 39.3438354], [-7.2936772, 39.3432033], [-7.2924449, 39.3427276], [-7.2909174, 39.3421721], [-7.290494, 39.3420181], [-7.289751, 39.3418068], [-7.2887773, 39.3417011]]}, "properties": {"highway": "trunk", "lanes": "2", "maxspeed": "90", "name": "Carretera de Trujillo a Portugal por Valencia de Alc\u00e1ntara", "oneway": "no", "ref": "N-521"}}, {"type": "Feature", "geometry": {"type": "LineString", "coordinates": [[-7.3053317, 39.3507722], [-7.3052681, 39.3507201], [-7.3050889, 39.3505737], [-7.3050285, 39.350527], [-7.304964, 39.3504801], [-7.3048663, 39.3504132], [-7.3048229, 39.3503859], [-7.3036519, 39.3496499], [-7.3035803, 39.3496062], [-7.3034916, 39.3495551], [-7.3033087, 39.349453], [-7.3031524, 39.3493689], [-7.3028512, 39.3492067]]}, "properties": {"highway": "trunk", "name": "Carretera de Trujillo a Portugal por Valencia de Alc\u00e1ntara", "oneway": "yes", "ref": "N-521"}}, {"type": "Feature", "geometry": {"type": "LineString", "coordinates": [[-7.3028512, 39.3492067], [-7.3031556, 39.3494173], [-7.3032578, 39.349488], [-7.303486, 39.3496339], [-7.3035007, 39.3496431], [-7.30453, 39.3502913], [-7.3050529, 39.3506206], [-7.3053317, 39.3507722]]}, "properties": {"highway": "trunk", "name": "Carretera de Trujillo a Portugal por Valencia de Alc\u00e1ntara", "oneway": "yes", "ref": "N-521"}}]}