{"type": "FeatureCollection", "features": [{"type": "Feature", "geometry": {"type": "LineString", "coordinates": [[-8.6482855, 42.0375166], [-8.6482087, 42.0376663], [-8.6481749, 42.0377373], [-8.6479895, 42.0381396], [-8.6479115, 42.0383226], [-8.6478805, 42.038399], [-8.6478563, 42.0386033], [-8.6478814, 42.0387881], [-8.6478903, 42.0388536]]}, "properties": {"bicycle": "yes", "foot": "yes", "highway": "trunk", "lane_markings": "no", "name": "Avenida de Portugal", "oneway": "yes", "ref": "N-551"}}, {"type": "Feature", "geometry": {"type": "LineString", "coordinates": [[-8.6478704, 42.041006], [-8.6482961, 42.0410527], [-8.6485157, 42.0410572], [-8.6487486, 42.0409953], [-8.6489612, 42.0408562], [-8.6490166, 42.040822], [-8.6490792, 42.040768], [-8.6492563, 42.0406268], [-8.6497169, 42.040267], [-8.6500228, 42.0400542], [-8.6504221, 42.0398463], [-8.6520733, 42.0391705], [-8.6523518, 42.0390565], [-8.6527743, 42.0388815], [-8.6532401, 42.0386885], [-8.6533876, 42.0386274], [-8.6540138, 42.038368], [-8.6543724, 42.038241], [-8.654733, 42.0381452], [-8.6552424, 42.0380649]]}, "properties": {"cycleway:both": "no", "highway": "primary", "lanes": "2", "maxheight": "4.9", "maxspeed": "50", "name": "Estrada da Guarda", "old_ref": "C-550", "ref": "N-551", "ref_old": "PO-552", "smoothness": "good", "source": "datos oficiales", "surface": "asphalt"}}, {"type": "Feature", "geometry": {"type": "LineString", "coordinates": [[-8.6478903, 42.0388536], [-8.6479079, 42.0387893], [-8.6479457, 42.0386512], [-8.6480995, 42.0384597], [-8.6481492, 42.0383998], [-8.648267, 42.0382633], [-8.6484541, 42.037858], [-8.6484608, 42.0377579], [-8.6484268, 42.0376841], [-8.6483102, 42.0374685]]}, "properties": {"highway": "trunk", "name": "Avenida de Portugal", "oneway": "yes", "ref": "N-551"}}, {"type": "Feature", "geometry": {"type": "LineString", "coordinates": [[-8.6484268, 42.0376841], [-8.6483555, 42.0376541], [-8.6482087, 42.0376663]]}, "properties": {"highway": "trunk", "name": "Avenida de Portugal", "oneway": "yes", "ref": "N-551", "source": "PNOA"}}, {"type": "Feature", "geometry": {"type": "LineString", "coordinates": [[-8.6478903, 42.0388536], [-8.6479297, 42.0407267], [-8.6479023, 42.0408557]]}, "properties": {"bicycle": "yes", "foot": "yes", "highway": "trunk", "lane_markings": "no", "lit": "yes", "name": "Avenida de Portugal", "ref": "N-551", "sidewalk": "both", "sidewalk:both:surface": "paving_stones", "surface": "asphalt"}}, {"type": "Feature", "geometry": {"type": "LineString", "coordinates": [[-8.656281, 42.0379158], [-8.6563783, 42.0379006]]}, "properties": {"cycleway:both": "no", "highway": "primary", "lanes": "2", "old_ref": "PO-552", "ref": "N-551", "smoothness": "good", "source": "datos oficiales", "surface": "asphalt"}}, {"type": "Feature", "geometry": {"type": "LineString", "coordinates": [[-8.6585735, 42.0370003], [-8.6585427, 42.037005], [-8.6585135, 42.0370138], [-8.6584736, 42.037035], [-8.6584433, 42.0370637], [-8.6584251, 42.0370976]]}, "properties": {"cycleway:right": "no", "highway": "primary", "junction": "roundabout", "lanes": "2", "old_ref": "PO-552", "ref": "N-551", "smoothness": "good", "surface": "asphalt"}}, {"type": "Feature", "geometry": {"type": "LineString", "coordinates": [[-8.6575447, 42.0377306], [-8.657598, 42.0377006], [-8.6576785, 42.0376595], [-8.6577729, 42.0376045], [-8.65788, 42.0375323], [-8.6579607, 42.0374769]]}, "properties": {"cycleway:both": "no", "highway": "primary", "maxheight": "default", "maxheight:signed": "no", "maxspeed:backward": "40", "old_ref": "PO-552", "ref": "N-551", "surface": "asphalt"}}, {"type": "Feature", "geometry": {"type": "LineString", "coordinates": [[-8.6591325, 42.036695], [-8.6589436, 42.0368276], [-8.6588119, 42.0369006], [-8.6587007, 42.0369526], [-8.6585735, 42.0370003]]}, "properties": {"cycleway:right": "no", "highway": "primary", "maxspeed": "50", "old_ref": "PO-552", "oneway": "yes", "ref": "N-551", "surface": "asphalt"}}, {"type": "Feature", "geometry": {"type": "LineString", "coordinates": [[-8.6552424, 42.0380649], [-8.6556053, 42.0380077], [-8.656281, 42.0379158]]}, "properties": {"cycleway:both": "no", "highway": "primary", "lanes": "2", "maxspeed": "50", "name": "Estrada da Guarda", "old_ref": "C-550", "ref": "N-551", "ref_old": "PO-552", "smoothness": "good", "source": "datos oficiales", "surface": "asphalt"}}, {"type": "Feature", "geometry": {"type": "LineString", "coordinates": [[-8.6587595, 42.0370952], [-8.6587903, 42.037048], [-8.6588186, 42.0370143], [-8.6589539, 42.036886], [-8.6591325, 42.036695]]}, "properties": {"cycleway:right": "no", "highway": "primary", "old_ref": "PO-552", "oneway": "yes", "ref": "N-551", "surface": "asphalt"}}, {"type": "Feature", "geometry": {"type": "LineString", "coordinates": [[-8.6584251, 42.0370976], [-8.6583823, 42.0371215], [-8.6582605, 42.0372145], [-8.6580621, 42.0373857], [-8.6579607, 42.0374769]]}, "properties": {"cycleway:right": "no", "highway": "primary", "lanes": "2", "maxspeed": "50", "old_ref": "PO-552", "oneway": "yes", "ref": "N-551", "smoothness": "excellent", "surface": "asphalt"}}, {"type": "Feature", "geometry": {"type": "LineString", "coordinates": [[-8.6579607, 42.0374769], [-8.6582253, 42.0373161], [-8.6583014, 42.0372725], [-8.6583574, 42.0372489], [-8.6584065, 42.0372364], [-8.6584368, 42.0372308], [-8.658481, 42.0372251]]}, "properties": {"cycleway:right": "no", "highway": "primary", "lanes": "1", "old_ref": "PO-552", "oneway": "yes", "ref": "N-551", "smoothness": "excellent", "surface": "asphalt"}}, {"type": "Feature", "geometry": {"type": "LineString", "coordinates": [[-8.6467853, 42.0362891], [-8.6482629, 42.0374311]]}, "properties": {"bridge": "yes", "description": "Designada por Pelayo Mancebo de \u00c1greda", "highway": "primary", "historic": "bridge", "lane_markings": "no", "layer": "1", "maxweight": "3.5", "name": "Ponte Vella Internacional Tui-Valen\u00e7a", "name:es": "Puente Viejo Internacional Tui-Valen\u00e7a", "name:gl": "Ponte Vella Internacional Tui-Valen\u00e7a", "name:pt": "Ponte Velha Internacional Tui-Valen\u00e7a", "ref": "N-551", "short_name": "Ponte Internacional", "source": "datos oficiales", "start_date": "1884-10-10", "surface": "asphalt", "tourism": "attraction", "vehicle": "yes", "wikimedia_commons": "File:Puente_internacional.jpg"}}, {"type": "Feature", "geometry": {"type": "LineString", "coordinates": [[-8.6479023, 42.0408557], [-8.6478704, 42.041006]]}, "properties": {"highway": "trunk", "name": "Avenida de Portugal", "ref": "N-551"}}, {"type": "Feature", "geometry": {"type": "LineString", "coordinates": [[-8.6607656, 42.0347809], [-8.66064, 42.0349707], [-8.6605323, 42.0351328], [-8.6604577, 42.0352544], [-8.6602922, 42.0355244], [-8.66026, 42.035577], [-8.660075, 42.035822], [-8.65985, 42.036052], [-8.659699, 42.0361867], [-8.6596366, 42.0362427], [-8.6591325, 42.036695]]}, "properties": {"highway": "primary", "lanes": "2", "maxspeed": "50", "old_ref": "PO-552", "oneway": "no", "ref": "N-551"}}, {"type": "Feature", "geometry": {"type": "LineString", "coordinates": [[-8.6483102, 42.0374685], [-8.6482855, 42.0375166]]}, "properties": {"highway": "trunk", "name": "Avenida de Portugal", "oneway": "yes", "ref": "N-551"}}, {"type": "Feature", "geometry": {"type": "LineString", "coordinates": [[-8.6482629, 42.0374311], [-8.6483102, 42.0374685]]}, "properties": {"bridge": "yes", "description": "Designada por Pelayo Mancebo de \u00c1greda", "highway": "primary", "historic": "bridge", "lane_markings": "no", "layer": "1", "maxweight": "3.5", "name": "Ponte Vella Internacional Tui-Valen\u00e7a", "name:es": "Puente Viejo Internacional Tui-Valen\u00e7a", "name:gl": "Ponte Vella Internacional Tui-Valen\u00e7a", "name:pt": "Ponte Velha Internacional Tui-Valen\u00e7a", "ref": "N-551", "short_name": "Ponte Internacional", "source": "datos oficiales", "start_date": "1884-10-10", "surface": "asphalt", "tourism": "attraction", "vehicle": "yes", "wikimedia_commons": "File:Puente_internacional.jpg"}}, {"type": "Feature", "geometry": {"type": "LineString", "coordinates": [[-8.6575447, 42.0377306], [-8.6573665, 42.0377667], [-8.6572323, 42.0377906], [-8.6571461, 42.0378024], [-8.6570559, 42.0378111]]}, "properties": {"cycleway:right": "no", "highway": "primary", "lanes": "2", "lit": "yes", "maxspeed": "40", "oneway": "yes", "ref": "N-551", "surface": "asphalt"}}, {"type": "Feature", "geometry": {"type": "LineString", "coordinates": [[-8.6572045, 42.0379882], [-8.6572527, 42.0379352], [-8.6573008, 42.0378913], [-8.657376, 42.0378395], [-8.6574716, 42.0377777], [-8.6575447, 42.0377306]]}, "properties": {"cycleway:right": "no", "highway": "primary", "lanes": "1", "lit": "yes", "maxspeed": "40", "oneway": "yes", "ref": "N-551", "sidewalk": "no", "surface": "asphalt"}}, {"type": "Feature", "geometry": {"type": "LineString", "coordinates": [[-8.6563783, 42.0379006], [-8.6564903, 42.03791], [-8.6566172, 42.037929], [-8.6567148, 42.0379557], [-8.6567903, 42.0379787], [-8.6568767, 42.0380103]]}, "properties": {"cycleway:right": "no", "highway": "primary", "lanes": "2", "lit": "yes", "maxspeed": "40", "oneway": "yes", "ref": "N-551", "sidewalk": "no", "surface": "asphalt"}}, {"type": "Feature", "geometry": {"type": "LineString", "coordinates": [[-8.6569373, 42.0378309], [-8.6567261, 42.0378548], [-8.6563783, 42.0379006]]}, "properties": {"cycleway:right": "no", "highway": "primary", "lanes": "1", "lit": "yes", "maxspeed": "40", "oneway": "yes", "ref": "N-551", "surface": "asphalt"}}, {"type": "Feature", "geometry": {"type": "LineString", "coordinates": [[-8.6612183, 42.0340991], [-8.66116, 42.03419], [-8.6610688, 42.0343245], [-8.6607656, 42.0347809]]}, "properties": {"highway": "primary", "lanes": "2", "maxspeed": "50", "oneway": "no", "ref": "N-551", "surface": "asphalt"}}, {"type": "Feature", "geometry": {"type": "LineString", "coordinates": [[-8.658481, 42.0372251], [-8.6585047, 42.0372377], [-8.6585309, 42.0372471], [-8.6585841, 42.0372554], [-8.6586382, 42.0372511], [-8.6586877, 42.0372344], [-8.6587042, 42.0372252], [-8.6587192, 42.0372145], [-8.6587385, 42.0371959], [-8.6587528, 42.0371749], [-8.6587618, 42.0371524], [-8.658765, 42.037129], [-8.6587638, 42.037112], [-8.6587595, 42.0370952]]}, "properties": {"cycleway:right": "no", "highway": "primary", "junction": "roundabout", "lanes": "2", "old_ref": "PO-552", "ref": "N-551", "smoothness": "good", "surface": "asphalt"}}, {"type": "Feature", "geometry": {"type": "LineString", "coordinates": [[-8.6587595, 42.0370952], [-8.6587405, 42.0370617], [-8.6587095, 42.0370334], [-8.6586691, 42.0370128], [-8.6586225, 42.0370014], [-8.6585735, 42.0370003]]}, "properties": {"cycleway:right": "no", "highway": "primary", "junction": "roundabout", "lanes": "2", "old_ref": "PO-552", "ref": "N-551", "smoothness": "good", "surface": "asphalt"}}, {"type": "Feature", "geometry": {"type": "LineString", "coordinates": [[-8.6584251, 42.0370976], [-8.6584204, 42.0371326], [-8.6584288, 42.0371672], [-8.6584495, 42.0371988], [-8.658481, 42.0372251]]}, "properties": {"cycleway:right": "no", "highway": "primary", "junction": "roundabout", "lanes": "2", "old_ref": "PO-552", "ref": "N-551", "smoothness": "good", "surface": "asphalt"}}]}