{"type": "FeatureCollection", "features": [{"type": "Feature", "geometry": {"type": "LineString", "coordinates": [[-7.9992914, 37.1028992], [-7.9991961, 37.1028411], [-7.9991451, 37.1028047], [-7.9990901, 37.1027513], [-7.9990421, 37.1026931], [-7.9988773, 37.1024532]]}, "properties": {"destination": "Faro;aeroporto", "destination:ref": "A 22", "highway": "trunk", "lanes": "2", "lit": "yes", "oneway": "yes", "ref": "N125-4", "turn:lanes": "through|through"}}, {"type": "Feature", "geometry": {"type": "LineString", "coordinates": [[-7.9986911, 37.1023767], [-7.9987513, 37.1024637], [-7.9988242, 37.1025658], [-7.99898, 37.1027979], [-7.9990302, 37.1029144], [-7.9990245, 37.1030076]]}, "properties": {"highway": "trunk", "lanes": "2", "lit": "yes", "oneway": "yes", "ref": "N125-4", "turn:lanes": "through|through"}}, {"type": "Feature", "geometry": {"type": "LineString", "coordinates": [[-7.9991658, 37.1032327], [-7.9992367, 37.1032406], [-7.9993069, 37.1032298], [-7.999369, 37.1032015], [-7.9994163, 37.1031587], [-7.9994391, 37.1031192], [-7.999449, 37.1030765], [-7.9994451, 37.1030321], [-7.9994271, 37.10299], [-7.9993964, 37.1029528]]}, "properties": {"highway": "primary", "junction": "roundabout", "lanes": "2", "lit": "yes", "ref": "N125-4"}}, {"type": "Feature", "geometry": {"type": "LineString", "coordinates": [[-7.9993964, 37.1029528], [-7.9993488, 37.1029199], [-7.9992914, 37.1028992], [-7.9992226, 37.1028926], [-7.9991547, 37.1029034], [-7.9990944, 37.1029308], [-7.9990479, 37.1029718], [-7.9990245, 37.1030076], [-7.9990142, 37.1030465], [-7.9990129, 37.103071], [-7.9990274, 37.1031291], [-7.9990655, 37.1031799], [-7.9991227, 37.1032177], [-7.9991455, 37.1032256], [-7.9991658, 37.1032327]]}, "properties": {"highway": "primary", "junction": "roundabout", "lanes": "2", "lit": "yes", "ref": "N125-4"}}]}