{"type": "FeatureCollection", "features": [{"type": "Feature", "geometry": {"type": "LineString", "coordinates": [[-8.6794858, 41.3800241], [-8.6794175, 41.3800716], [-8.6794, 41.3800844], [-8.6793442, 41.3801252], [-8.6792338, 41.3801881], [-8.6789346, 41.3803121]]}, "properties": {"highway": "primary", "name": "Rua Alberto Ferreira da Costa", "oneway": "yes", "ref": "N306", "surface": "asphalt"}}, {"type": "Feature", "geometry": {"type": "LineString", "coordinates": [[-8.6789346, 41.3803121], [-8.6792234, 41.38023], [-8.6793622, 41.3802092], [-8.6794348, 41.380195]]}, "properties": {"highway": "primary", "name": "Rua Alberto Ferreira da Costa", "oneway": "yes", "ref": "N306", "surface": "asphalt"}}, {"type": "Feature", "geometry": {"type": "LineString", "coordinates": [[-8.6794348, 41.380195], [-8.6795287, 41.3801843], [-8.6796693, 41.3801829]]}, "properties": {"highway": "primary", "name": "Rua Alberto Ferreira da Costa", "oneway": "yes", "ref": "N306", "surface": "asphalt"}}]}