{"type": "FeatureCollection", "features": [{"type": "Feature", "geometry": {"type": "LineString", "coordinates": [[-17.0642558, 32.675073], [-17.0642791, 32.6750265], [-17.0642904, 32.674984]]}, "properties": {"highway": "primary", "junction": "roundabout", "lanes": "1", "lit": "yes", "maxspeed": "50", "name": "Rotunda Sul da Ribeira Brava", "ref": "VE 3", "surface": "asphalt"}}, {"type": "Feature", "geometry": {"type": "LineString", "coordinates": [[-17.2398972, 32.8086478], [-17.2398027, 32.8086331]]}, "properties": {"highway": "primary", "junction": "roundabout", "lanes": "2", "lit": "yes", "maxspeed": "50", "name": "Rotunda do Sal\u00e3o", "ref": "VE 3", "smoothness": "excellent", "surface": "asphalt"}}]}