{"type": "FeatureCollection", "features": [{"type": "Feature", "geometry": {"type": "LineString", "coordinates": [[-17.2086444, 32.737449], [-17.2086611, 32.737435], [-17.2086811, 32.7374173]]}, "properties": {"highway": "primary", "lanes": "2", "lit": "yes", "maxspeed": "50", "ref": "VE 7", "surface": "asphalt"}}, {"type": "Feature", "geometry": {"type": "LineString", "coordinates": [[-17.2241066, 32.7533883], [-17.2237313, 32.7534298], [-17.2234941, 32.7534503], [-17.2233352, 32.7534674], [-17.2232005, 32.7534806], [-17.2229107, 32.7535038], [-17.2225846, 32.7535271], [-17.2222099, 32.7535244], [-17.2218228, 32.7534866], [-17.2215006, 32.753432], [-17.2211835, 32.7533417], [-17.220885, 32.7532409], [-17.220609, 32.7531337], [-17.2203518, 32.7530119], [-17.2199272, 32.7527347], [-17.2194926, 32.752386], [-17.2191355, 32.7520205], [-17.2185935, 32.7514114], [-17.2180741, 32.7508316], [-17.2169615, 32.7496179], [-17.2159012, 32.7484203], [-17.2148092, 32.7471675], [-17.2128811, 32.7449422], [-17.2103568, 32.7420092], [-17.209063, 32.7405408], [-17.2080191, 32.739295], [-17.2079372, 32.7391812], [-17.2078804, 32.7390756], [-17.2078298, 32.738909], [-17.2078243, 32.7387667], [-17.2078422, 32.7386294], [-17.2078868, 32.7384487], [-17.2079292, 32.7383329], [-17.2079856, 32.7382394], [-17.2080253, 32.7381785], [-17.2080828, 32.7380929], [-17.2081823, 32.7379625], [-17.2082801, 32.7378403], [-17.2084074, 32.7376906], [-17.2085423, 32.737543], [-17.2086444, 32.737449]]}, "properties": {"headlight": "required", "highway": "primary", "lanes": "2", "layer": "-1", "length": "2511", "lit": "yes", "name": "T\u00fanel Jardim do Mar / Paul do Mar", "oneway": "no", "ref": "VE 7", "surface": "asphalt", "tunnel": "yes", "tunnel:name": "T\u00fanel Jardim do Mar - Pa\u00fal do Mar"}}, {"type": "Feature", "geometry": {"type": "LineString", "coordinates": [[-17.2247819, 32.7534296], [-17.2246733, 32.7534012], [-17.2245614, 32.7533806], [-17.224471, 32.753374], [-17.2243357, 32.7533756], [-17.2241066, 32.7533883]]}, "properties": {"highway": "primary", "lanes": "2", "lit": "yes", "mapillary": "506340230536753", "ref": "VE 7", "surface": "asphalt", "survey:date": "2018-01-28"}}]}