{"type": "FeatureCollection", "features": [{"type": "Feature", "geometry": {"type": "LineString", "coordinates": [[-16.8585629, 32.6485952], [-16.8584505, 32.648676], [-16.858326, 32.6487444], [-16.8582107, 32.6487854], [-16.8580428, 32.648816], [-16.8558895, 32.6491441], [-16.8550945, 32.6492423], [-16.854862, 32.6492898], [-16.8546461, 32.6493541], [-16.8543576, 32.6494721], [-16.8538956, 32.6497839]]}, "properties": {"alt_name": "ER 102", "headlight": "required", "highway": "primary", "lanes": "2", "lanes:backward": "1", "lanes:forward": "1", "layer": "-1", "maxspeed": "50", "name": "Via Expresso 5", "ref": "VE5", "source:maxspeed": "sign", "surface": "asphalt", "tunnel": "yes", "tunnel:name": "T\u00fanel do Cabe\u00e7o da Cancela", "turn:lanes:backward": "through", "turn:lanes:forward": "through"}}, {"type": "Feature", "geometry": {"type": "LineString", "coordinates": [[-16.852173, 32.6511193], [-16.8514629, 32.6514399], [-16.8513406, 32.6515072], [-16.8512329, 32.6515741], [-16.8511358, 32.6516384], [-16.851041, 32.6517052], [-16.8509627, 32.6517762], [-16.8508903, 32.6518515], [-16.8508243, 32.6519309], [-16.850765, 32.6520139], [-16.8507164, 32.6520934], [-16.8506738, 32.6521753], [-16.8506376, 32.6522594], [-16.8506078, 32.6523452], [-16.8505873, 32.6524385], [-16.850574, 32.6525327], [-16.8505681, 32.6526275], [-16.8505695, 32.6527223], [-16.8505804, 32.6528323], [-16.8506011, 32.6529412], [-16.8506316, 32.6530486], [-16.8511455, 32.6544034]]}, "properties": {"alt_name": "ER 102", "highway": "primary", "lanes": "3", "lanes:backward": "1", "lanes:forward": "2", "name": "Via Expresso 5", "ref": "VE5", "surface": "asphalt", "turn:lanes:backward": "through", "turn:lanes:forward": "through|through"}}, {"type": "Feature", "geometry": {"type": "LineString", "coordinates": [[-16.8511455, 32.6544034], [-16.8512245, 32.6546856], [-16.851761, 32.6571301], [-16.8517895, 32.6573665], [-16.8517729, 32.657522], [-16.8517372, 32.6576364], [-16.8516917, 32.6577296]]}, "properties": {"alt_name": "ER 102", "headlight": "required", "highway": "primary", "lanes": "3", "lanes:backward": "1", "lanes:forward": "2", "layer": "-1", "name": "Via Expresso 5", "ref": "VE5", "surface": "asphalt", "tunnel": "yes", "tunnel:name": "T\u00fanel das Eiras", "turn:lanes:backward": "through", "turn:lanes:forward": "through|through"}}, {"type": "Feature", "geometry": {"type": "LineString", "coordinates": [[-16.8516917, 32.6577296], [-16.8516302, 32.6578505]]}, "properties": {"alt_name": "ER 102", "highway": "primary", "lanes": "3", "lanes:backward": "1", "lanes:forward": "2", "name": "Via Expresso 5", "ref": "VE5", "surface": "asphalt", "turn:lanes:backward": "through", "turn:lanes:forward": "through|through;right"}}, {"type": "Feature", "geometry": {"type": "LineString", "coordinates": [[-16.8511867, 32.6670332], [-16.851294, 32.6677101]]}, "properties": {"alt_name": "ER 102", "highway": "primary", "lanes": "3", "lanes:backward": "1", "lanes:forward": "2", "name": "Via Expresso 5", "ref": "VE5", "surface": "asphalt", "turn:lanes:backward": "through", "turn:lanes:forward": "through|through"}}, {"type": "Feature", "geometry": {"type": "LineString", "coordinates": [[-16.851294, 32.6677101], [-16.8513395, 32.6680741], [-16.8513443, 32.6683327], [-16.8513201, 32.6685077], [-16.8512745, 32.6686646], [-16.8512262, 32.668843], [-16.8511206, 32.6690471], [-16.8508494, 32.6694617], [-16.8504766, 32.6698116], [-16.8497261, 32.6705164], [-16.8490094, 32.6712375], [-16.8488283, 32.6714723], [-16.8486889, 32.6717037], [-16.8485574, 32.6719543], [-16.8484808, 32.6722055], [-16.8483818, 32.6726193], [-16.8483013, 32.6730295], [-16.8482471, 32.67323], [-16.8482101, 32.6733999]]}, "properties": {"alt_name": "ER 102", "headlight": "required", "highway": "primary", "lanes": "3", "lanes:backward": "1", "lanes:forward": "2", "layer": "-2", "name": "Via Expresso 5", "ref": "VE5", "surface": "asphalt", "tunnel": "yes", "tunnel:name": "T\u00fanel da Nogueira", "turn:lanes:backward": "through", "turn:lanes:forward": "through|through"}}, {"type": "Feature", "geometry": {"type": "LineString", "coordinates": [[-16.8481407, 32.6736835], [-16.8479593, 32.6744278], [-16.8477742, 32.675154]]}, "properties": {"alt_name": "ER 102", "bridge": "yes", "highway": "primary", "lanes": "3", "lanes:backward": "1", "lanes:forward": "2", "layer": "1", "name": "Via Expresso 5", "oneway": "no", "ref": "VE5", "surface": "asphalt", "turn:lanes:backward": "through", "turn:lanes:forward": "through|through"}}, {"type": "Feature", "geometry": {"type": "LineString", "coordinates": [[-16.8477742, 32.675154], [-16.8476885, 32.6755046], [-16.8475972, 32.6758919], [-16.8475235, 32.6762588], [-16.8474148, 32.6768243]]}, "properties": {"alt_name": "ER 102", "bridge": "yes", "highway": "primary", "lanes": "3", "lanes:backward": "1", "lanes:forward": "2", "layer": "1", "name": "Via Expresso 5", "oneway": "no", "ref": "VE5", "surface": "asphalt", "turn:lanes:backward": "through", "turn:lanes:forward": "through|through"}}, {"type": "Feature", "geometry": {"type": "LineString", "coordinates": [[-16.8585629, 32.6485952], [-16.8586172, 32.6485659], [-16.8586673, 32.64854], [-16.8587336, 32.6485166]]}, "properties": {"alt_name": "ER 102", "highway": "primary", "lanes": "2", "lit": "yes", "maxspeed": "50", "name": "Via Expresso 5", "oneway": "yes", "ref": "VE5", "source:maxspeed": "sign", "surface": "asphalt"}}, {"type": "Feature", "geometry": {"type": "LineString", "coordinates": [[-16.8509304, 32.6591783], [-16.8508438, 32.6594072], [-16.8507867, 32.6596349], [-16.8507555, 32.6599337], [-16.8511867, 32.6670332]]}, "properties": {"alt_name": "ER 102", "headlight": "required", "highway": "primary", "lanes": "3", "lanes:backward": "1", "lanes:forward": "2", "layer": "-1", "name": "Via Expresso 5", "ref": "VE5", "surface": "asphalt", "tunnel": "yes", "tunnel:name": "T\u00fanel do Pomar", "turn:lanes:backward": "through", "turn:lanes:forward": "through|through"}}, {"type": "Feature", "geometry": {"type": "LineString", "coordinates": [[-16.8509607, 32.6591222], [-16.8509304, 32.6591783]]}, "properties": {"alt_name": "ER 102", "highway": "primary", "lanes": "3", "lanes:backward": "1", "lanes:forward": "2", "name": "Via Expresso 5", "ref": "VE5", "turn:lanes:backward": "through;slight_right", "turn:lanes:forward": "through|through"}}, {"type": "Feature", "geometry": {"type": "LineString", "coordinates": [[-16.8516302, 32.6578505], [-16.85138, 32.6582622], [-16.8511414, 32.658702], [-16.8509607, 32.6591222]]}, "properties": {"alt_name": "ER 102", "highway": "primary", "lanes": "2", "lanes:forward": "2", "name": "Via Expresso 5", "oneway": "yes", "ref": "VE5", "surface": "asphalt", "turn:lanes:forward": "through|through"}}, {"type": "Feature", "geometry": {"type": "LineString", "coordinates": [[-16.8474148, 32.6768243], [-16.8474095, 32.6768932], [-16.8474282, 32.6769677], [-16.8474529, 32.6770584]]}, "properties": {"alt_name": "ER 102", "destination:backward": "Cancela;Funchal", "highway": "primary", "lanes": "3", "lanes:backward": "1", "lanes:forward": "2", "name": "Via Expresso 5", "oneway": "no", "ref": "VE5", "turn:lanes:backward": "through", "turn:lanes:forward": "through|through;right"}}, {"type": "Feature", "geometry": {"type": "LineString", "coordinates": [[-16.8538956, 32.6497839], [-16.8534861, 32.650095], [-16.8528206, 32.6507503], [-16.8525274, 32.6509428], [-16.852173, 32.6511193]]}, "properties": {"alt_name": "ER 102", "highway": "primary", "lanes": "2", "lanes:backward": "1", "lanes:forward": "1", "name": "Via Expresso 5", "ref": "VE5", "surface": "asphalt", "turn:lanes:backward": "through", "turn:lanes:forward": "through"}}, {"type": "Feature", "geometry": {"type": "LineString", "coordinates": [[-16.8509607, 32.6591222], [-16.8512292, 32.6587159], [-16.8514529, 32.6582908], [-16.8516302, 32.6578505]]}, "properties": {"alt_name": "ER 102", "highway": "primary", "lanes": "1", "name": "Via Expresso 5", "oneway": "yes", "ref": "VE5", "surface": "asphalt"}}, {"type": "Feature", "geometry": {"type": "LineString", "coordinates": [[-16.8482101, 32.6733999], [-16.8481407, 32.6736835]]}, "properties": {"alt_name": "ER 102", "highway": "primary", "lanes": "3", "lanes:backward": "1", "lanes:forward": "2", "name": "Via Expresso 5", "oneway": "no", "ref": "VE5", "surface": "asphalt", "turn:lanes:backward": "through", "turn:lanes:forward": "through|through"}}]}