{"type": "FeatureCollection", "features": [{"type": "Feature", "geometry": {"type": "LineString", "coordinates": [[-9.1810875, 38.8012806], [-9.1808702, 38.8012796], [-9.1806033, 38.8012813], [-9.1804129, 38.8012854], [-9.180252, 38.8012941], [-9.1800937, 38.8013084], [-9.1799515, 38.8013297], [-9.179796, 38.8013586], [-9.1796565, 38.8013903], [-9.1795197, 38.8014279], [-9.179391, 38.8014673], [-9.1792515, 38.8015199], [-9.1791147, 38.8015763], [-9.1789699, 38.8016411], [-9.1787714, 38.8017435], [-9.1785783, 38.8018498], [-9.1784227, 38.8019376], [-9.1783579, 38.8019743]]}, "properties": {"highway": "primary", "lanes": "1", "name": "Variante Longitudinal da Ramada", "oneway": "yes", "ref": "VLR", "surface": "asphalt"}}, {"type": "Feature", "geometry": {"type": "LineString", "coordinates": [[-9.1784405, 38.8020061], [-9.1786625, 38.8018684], [-9.1787982, 38.8017958], [-9.1789779, 38.8017017], [-9.1791362, 38.8016262], [-9.179289, 38.8015659], [-9.1794822, 38.8015007], [-9.1796592, 38.8014467], [-9.1797855, 38.8014153], [-9.1798522, 38.8014024], [-9.1799483, 38.8013866], [-9.1800308, 38.8013751], [-9.1801618, 38.8013593], [-9.180245, 38.8013522], [-9.1803592, 38.8013451], [-9.180447, 38.8013413], [-9.1806108, 38.8013369], [-9.1807696, 38.801338], [-9.1809225, 38.8013401], [-9.1810668, 38.8013452], [-9.1812491, 38.8013535], [-9.1814065, 38.8013616], [-9.1815152, 38.8013669], [-9.1819511, 38.8013883]]}, "properties": {"highway": "primary", "lanes": "1", "name": "Variante Longitudinal da Ramada", "oneway": "yes", "ref": "VLR", "surface": "asphalt"}}, {"type": "Feature", "geometry": {"type": "LineString", "coordinates": [[-9.1819511, 38.8013883], [-9.1827343, 38.8014008], [-9.1829892, 38.8014071], [-9.1831581, 38.8014123], [-9.1833097, 38.8014207], [-9.1834813, 38.8014364], [-9.1836892, 38.8014611], [-9.1838837, 38.8014907], [-9.1841063, 38.8015283], [-9.1843222, 38.8015677], [-9.1845073, 38.8016036], [-9.1846949, 38.8016411]]}, "properties": {"highway": "primary", "lanes": "2", "name": "Variante Longitudinal da Ramada", "oneway": "yes", "ref": "VLR", "surface": "asphalt"}}, {"type": "Feature", "geometry": {"type": "LineString", "coordinates": [[-9.1838314, 38.8014037], [-9.1837013, 38.8013848], [-9.1835698, 38.8013692], [-9.183429, 38.8013548], [-9.1832936, 38.8013444], [-9.1831528, 38.801336], [-9.1829985, 38.8013305], [-9.1828403, 38.8013256], [-9.1825359, 38.80132], [-9.18199, 38.8013127], [-9.1817982, 38.8013075], [-9.1815434, 38.8013002], [-9.1812712, 38.8012908], [-9.1810875, 38.8012806]]}, "properties": {"highway": "primary", "lanes": "2", "name": "Variante Longitudinal da Ramada", "oneway": "yes", "ref": "VLR", "surface": "asphalt"}}, {"type": "Feature", "geometry": {"type": "LineString", "coordinates": [[-9.1783579, 38.8019743], [-9.1777351, 38.8023395]]}, "properties": {"highway": "primary", "lanes": "2", "name": "Variante Longitudinal da Ramada", "oneway": "yes", "ref": "VLR", "surface": "asphalt"}}, {"type": "Feature", "geometry": {"type": "LineString", "coordinates": [[-9.1780337, 38.8022389], [-9.1784405, 38.8020061]]}, "properties": {"highway": "primary", "lanes": "2", "name": "Variante Longitudinal da Ramada", "oneway": "yes", "ref": "VLR", "surface": "asphalt"}}]}