{"type": "FeatureCollection", "features": [{"type": "Feature", "geometry": {"type": "LineString", "coordinates": [[-16.9690952, 32.6569645], [-16.9692218, 32.6572087], [-16.9692712, 32.657324], [-16.9693172, 32.6574802], [-16.9693734, 32.6577238], [-16.9694218, 32.6579265], [-16.9695335, 32.6584258], [-16.9695975, 32.6587249], [-16.9696299, 32.6588998], [-16.9696511, 32.6590398], [-16.9696581, 32.6591574], [-16.969653, 32.6592659], [-16.9696379, 32.6593638], [-16.9696104, 32.6594545], [-16.9695737, 32.6595568], [-16.9695341, 32.6596399], [-16.9694642, 32.6597608], [-16.9693744, 32.6598806]]}, "properties": {"bicycle": "no", "bridge": "yes", "foot": "no", "headlight": "required", "highway": "trunk", "lanes": "2", "layer": "1", "lit": "yes", "maxspeed": "100", "motor_vehicle": "designated", "motorroad": "yes", "name": "Via R\u00e1pida 2", "ref": "VR2", "surface": "asphalt"}}, {"type": "Feature", "geometry": {"type": "LineString", "coordinates": [[-16.9683029, 32.6557194], [-16.9682376, 32.6556174], [-16.9681479, 32.6555052], [-16.9680834, 32.6553962], [-16.9680252, 32.6552877], [-16.9679712, 32.6551535], [-16.9678629, 32.6549092], [-16.967838, 32.6548299]]}, "properties": {"bicycle": "no", "foot": "no", "headlight": "required", "highway": "trunk", "lanes": "1", "lit": "yes", "maxspeed": "100", "motor_vehicle": "designated", "motorroad": "yes", "name": "Via R\u00e1pida 2", "oneway": "yes", "ref": "VR2", "surface": "asphalt"}}, {"type": "Feature", "geometry": {"type": "LineString", "coordinates": [[-16.9688485, 32.6637211], [-16.968965, 32.6639112], [-16.9690829, 32.6641816], [-16.9692432, 32.6646329], [-16.9699151, 32.6666902]]}, "properties": {"bicycle": "no", "foot": "no", "headlight": "required", "highway": "trunk", "lanes": "2", "layer": "-1", "lit": "yes", "maxspeed": "100", "motor_vehicle": "designated", "motorroad": "yes", "name": "Via R\u00e1pida 2", "oneway": "yes", "ref": "VR2", "start_date": "2017-04-25", "surface": "asphalt", "tunnel": "yes", "tunnel:name": "T\u00fanel do Ribeiro Real"}}, {"type": "Feature", "geometry": {"type": "LineString", "coordinates": [[-16.9680297, 32.6626663], [-16.9682769, 32.6629285], [-16.9684468, 32.6631312], [-16.9685946, 32.663333], [-16.9687386, 32.663547], [-16.9688485, 32.6637211]]}, "properties": {"bicycle": "no", "foot": "no", "headlight": "required", "highway": "trunk", "lanes": "2", "lit": "yes", "maxspeed": "100", "motor_vehicle": "designated", "motorroad": "yes", "name": "Via R\u00e1pida 2", "oneway": "yes", "ref": "VR2", "surface": "asphalt"}}, {"type": "Feature", "geometry": {"type": "LineString", "coordinates": [[-16.9699151, 32.6666902], [-16.9701499, 32.6674447]]}, "properties": {"bicycle": "no", "cutting": "right", "foot": "no", "headlight": "required", "highway": "trunk", "lanes": "2", "lit": "yes", "maxspeed": "100", "motor_vehicle": "designated", "motorroad": "yes", "name": "Via R\u00e1pida 2", "oneway": "yes", "ref": "VR2", "surface": "asphalt", "turn:lanes": "through|slight_right"}}, {"type": "Feature", "geometry": {"type": "LineString", "coordinates": [[-16.9772565, 32.6684534], [-16.9770703, 32.6684485], [-16.9768904, 32.66846], [-16.9767053, 32.6684845], [-16.9765328, 32.6685235], [-16.9763881, 32.668567], [-16.9762785, 32.6686068], [-16.9761233, 32.6686764], [-16.976007, 32.6687342], [-16.9758402, 32.6688454], [-16.9751728, 32.6693566], [-16.9748309, 32.6695928]]}, "properties": {"bicycle": "no", "foot": "no", "headlight": "required", "highway": "trunk", "lanes": "2", "lit": "yes", "maxheight": "default", "maxspeed": "100", "motor_vehicle": "designated", "motorroad": "yes", "name": "Via R\u00e1pida 2", "ref": "VR2", "surface": "asphalt"}}, {"type": "Feature", "geometry": {"type": "LineString", "coordinates": [[-16.9779287, 32.6684029], [-16.9778427, 32.6684271], [-16.9777541, 32.6684434], [-16.9776779, 32.6684512], [-16.9776012, 32.6684535], [-16.9774002, 32.6684592]]}, "properties": {"bicycle": "no", "destination": "Funchal;Ribeira Brava;C\u00e2mara de Lobos", "destination:ref": "VR1", "foot": "no", "headlight": "required", "highway": "trunk", "lanes": "1", "lit": "yes", "maxspeed": "100", "motor_vehicle": "designated", "motorroad": "yes", "name": "Via R\u00e1pida 2", "oneway": "yes", "ref": "VR2", "surface": "asphalt"}}, {"type": "Feature", "geometry": {"type": "LineString", "coordinates": [[-16.9774002, 32.6684592], [-16.9772565, 32.6684534]]}, "properties": {"bicycle": "no", "foot": "no", "headlight": "required", "highway": "trunk", "lanes": "2", "lit": "yes", "maxspeed": "100", "motor_vehicle": "designated", "motorroad": "yes", "name": "Via R\u00e1pida 2", "ref": "VR2", "surface": "asphalt"}}, {"type": "Feature", "geometry": {"type": "LineString", "coordinates": [[-16.9683588, 32.6628877], [-16.9679948, 32.6625224], [-16.9678583, 32.66236], [-16.9677947, 32.6622722], [-16.9677397, 32.6621804], [-16.9676934, 32.6620853], [-16.9676583, 32.6619936], [-16.9676313, 32.6619], [-16.9676127, 32.661805], [-16.9676024, 32.6617091], [-16.9675997, 32.6616004], [-16.9676204, 32.6614705], [-16.9676401, 32.6613637], [-16.9676704, 32.6612693], [-16.9677166, 32.6611644], [-16.9677559, 32.6610886], [-16.9678255, 32.6609917], [-16.9679124, 32.6608821], [-16.9680709, 32.6607378], [-16.9681842, 32.6606571], [-16.968326, 32.6605699], [-16.9686132, 32.6604247], [-16.9687694, 32.6603176]]}, "properties": {"bicycle": "no", "destination": "Funchal;Aeroporto;C\u00e2mara de Lobos", "destination:ref:to": "VR1;R113", "destination:symbol": "airport", "foot": "no", "headlight": "required", "highway": "trunk", "lanes": "1", "lit": "yes", "maxspeed": "100", "motor_vehicle": "designated", "motorroad": "yes", "name": "Via R\u00e1pida 2", "oneway": "yes", "ref": "VR2", "surface": "asphalt"}}, {"type": "Feature", "geometry": {"type": "LineString", "coordinates": [[-16.9687694, 32.6603176], [-16.9685933, 32.6603816], [-16.9683797, 32.6604795], [-16.9682283, 32.6605638], [-16.9681308, 32.6606237], [-16.9680442, 32.6606883], [-16.9679467, 32.6607659], [-16.9678464, 32.660868], [-16.9677818, 32.6609433], [-16.9677164, 32.661046], [-16.9676605, 32.66115], [-16.9676125, 32.6612583], [-16.9675818, 32.6613542], [-16.9675542, 32.6614586], [-16.9675416, 32.6615983], [-16.967543, 32.661708], [-16.967555, 32.6618173], [-16.9675756, 32.6619181], [-16.9676051, 32.6620172], [-16.9676435, 32.6621142], [-16.9676896, 32.6622068], [-16.9677438, 32.6622961], [-16.9678058, 32.6623818], [-16.9680297, 32.6626663]]}, "properties": {"bicycle": "no", "foot": "no", "headlight": "required", "highway": "trunk", "lanes": "1", "lit": "yes", "maxspeed": "70", "motor_vehicle": "designated", "motorroad": "yes", "name": "Via R\u00e1pida 2", "oneway": "yes", "ref": "VR2", "sidewalk": "no", "surface": "asphalt"}}, {"type": "Feature", "geometry": {"type": "LineString", "coordinates": [[-16.9693744, 32.6598806], [-16.9692757, 32.6599866], [-16.969174, 32.6600717]]}, "properties": {"bicycle": "no", "bridge": "yes", "foot": "no", "headlight": "required", "highway": "trunk", "lanes": "2", "layer": "1", "lit": "yes", "maxspeed": "100", "motor_vehicle": "designated", "motorroad": "yes", "name": "Via R\u00e1pida 2", "ref": "VR2", "surface": "asphalt"}}, {"type": "Feature", "geometry": {"type": "LineString", "coordinates": [[-16.9703845, 32.6680924], [-16.9704578, 32.6683158], [-16.9705992, 32.6686438], [-16.9706607, 32.6687655], [-16.9707304, 32.668884], [-16.9708081, 32.6689988], [-16.9708866, 32.669101], [-16.9709714, 32.6691996], [-16.9710623, 32.6692942], [-16.9711573, 32.6693839], [-16.9712577, 32.6694692], [-16.9713633, 32.66955], [-16.9714739, 32.6696259], [-16.9716046, 32.6697057], [-16.9717408, 32.6697788], [-16.9718819, 32.6698448], [-16.9720274, 32.6699037], [-16.9721558, 32.6699513], [-16.972335, 32.6700058], [-16.9725652, 32.6700527], [-16.9729039, 32.6700826]]}, "properties": {"bicycle": "no", "cutting": "right", "foot": "no", "headlight": "required", "highway": "trunk", "lanes": "1", "lit": "yes", "maxspeed": "100", "motor_vehicle": "designated", "motorroad": "yes", "name": "Via R\u00e1pida 2", "oneway": "yes", "ref": "VR2", "surface": "asphalt"}}, {"type": "Feature", "geometry": {"type": "LineString", "coordinates": [[-16.9690015, 32.6636569], [-16.968891, 32.6634928], [-16.9687178, 32.6632833], [-16.9685458, 32.6630903], [-16.9683588, 32.6628877]]}, "properties": {"bicycle": "no", "foot": "no", "headlight": "required", "highway": "trunk", "lanes": "2", "lit": "yes", "maxspeed": "100", "motor_vehicle": "designated", "motorroad": "yes", "name": "Via R\u00e1pida 2", "oneway": "yes", "ref": "VR2", "surface": "asphalt", "turn:lanes": "through|slight_right"}}, {"type": "Feature", "geometry": {"type": "LineString", "coordinates": [[-16.9748309, 32.6695928], [-16.9747291, 32.6696567], [-16.9746071, 32.6697224], [-16.9744711, 32.6697924], [-16.9743635, 32.6698381], [-16.9742061, 32.6699061], [-16.9740128, 32.6699656]]}, "properties": {"bicycle": "no", "bridge": "yes", "foot": "no", "headlight": "required", "highway": "trunk", "lanes": "2", "layer": "1", "lit": "yes", "maxspeed": "100", "motor_vehicle": "designated", "motorroad": "yes", "name": "Via R\u00e1pida 2", "ref": "VR2", "surface": "asphalt"}}, {"type": "Feature", "geometry": {"type": "LineString", "coordinates": [[-16.9699086, 32.6660713], [-16.9693739, 32.6644384], [-16.9692488, 32.6640919], [-16.9691721, 32.6639098], [-16.9690838, 32.663766], [-16.9690015, 32.6636569]]}, "properties": {"bicycle": "no", "foot": "no", "headlight": "required", "highway": "trunk", "lanes": "2", "layer": "-1", "lit": "yes", "maxspeed": "100", "motor_vehicle": "designated", "motorroad": "yes", "name": "Via R\u00e1pida 2", "oneway": "yes", "ref": "VR2", "start_date": "2017-04-25", "surface": "asphalt", "tunnel": "yes", "tunnel:name": "T\u00fanel do Ribeiro Real"}}, {"type": "Feature", "geometry": {"type": "LineString", "coordinates": [[-16.970241, 32.6672529], [-16.9699086, 32.6660713]]}, "properties": {"bicycle": "no", "foot": "no", "headlight": "required", "highway": "trunk", "lanes": "2", "lit": "yes", "maxspeed": "100", "motor_vehicle": "designated", "motorroad": "yes", "name": "Via R\u00e1pida 2", "oneway": "yes", "ref": "VR2", "surface": "asphalt"}}, {"type": "Feature", "geometry": {"type": "LineString", "coordinates": [[-16.9729039, 32.6700826], [-16.9726095, 32.6700126], [-16.9723639, 32.6699564], [-16.9721715, 32.6698984], [-16.9720466, 32.6698576], [-16.9719098, 32.6697996], [-16.9717768, 32.6697357], [-16.971648, 32.6696658], [-16.9715238, 32.6695903], [-16.9714096, 32.669513], [-16.9713002, 32.6694308], [-16.9711959, 32.6693441], [-16.9710969, 32.669253], [-16.9710093, 32.669156], [-16.9709273, 32.6690555], [-16.9708512, 32.6689517], [-16.9707811, 32.6688451], [-16.9707172, 32.6687358], [-16.9706596, 32.668624], [-16.9705236, 32.6683001], [-16.9704505, 32.6680762]]}, "properties": {"bicycle": "no", "cutting": "right", "foot": "no", "headlight": "required", "highway": "trunk", "lanes": "1", "lit": "yes", "maxspeed": "100", "motor_vehicle": "designated", "motorroad": "yes", "name": "Via R\u00e1pida 2", "oneway": "yes", "ref": "VR2", "surface": "asphalt"}}, {"type": "Feature", "geometry": {"type": "LineString", "coordinates": [[-16.969174, 32.6600717], [-16.9690416, 32.6601673], [-16.9688906, 32.6602531], [-16.9687694, 32.6603176]]}, "properties": {"bicycle": "no", "bridge": "yes", "foot": "no", "headlight": "required", "highway": "trunk", "lanes": "2", "layer": "1", "lit": "yes", "maxspeed": "100", "motor_vehicle": "designated", "motorroad": "yes", "name": "Via R\u00e1pida 2", "ref": "VR2", "surface": "asphalt"}}, {"type": "Feature", "geometry": {"type": "LineString", "coordinates": [[-16.9774002, 32.6684592], [-16.9776535, 32.6685246], [-16.9777133, 32.6685464], [-16.9777702, 32.6685732], [-16.9778118, 32.6685972], [-16.9778535, 32.668623]]}, "properties": {"bicycle": "no", "foot": "no", "headlight": "required", "highway": "trunk", "lanes": "1", "lit": "yes", "maxspeed": "100", "motor_vehicle": "designated", "motorroad": "yes", "name": "Via R\u00e1pida 2", "oneway": "yes", "ref": "VR2", "surface": "asphalt"}}, {"type": "Feature", "geometry": {"type": "LineString", "coordinates": [[-16.9675733, 32.6549711], [-16.9676463, 32.6550203], [-16.9677435, 32.6550784], [-16.9678073, 32.6551362], [-16.9678591, 32.6552125], [-16.9679352, 32.6553251], [-16.9680193, 32.6554529], [-16.9681115, 32.6555592], [-16.9682117, 32.6556427], [-16.9683029, 32.6557194]]}, "properties": {"bicycle": "no", "destination": "Estreito de C\u00e2mara de Lobos;Jardim da Serra", "foot": "no", "headlight": "required", "highway": "trunk", "lanes": "1", "lit": "yes", "maxspeed": "100", "motor_vehicle": "designated", "motorroad": "yes", "name": "Via R\u00e1pida 2", "oneway": "yes", "ref": "VR2", "surface": "asphalt"}}, {"type": "Feature", "geometry": {"type": "LineString", "coordinates": [[-16.9683029, 32.6557194], [-16.9684083, 32.655836], [-16.9684952, 32.6559608], [-16.9686294, 32.6561691], [-16.9687904, 32.6564339], [-16.9689871, 32.6567767], [-16.9690952, 32.6569645]]}, "properties": {"bicycle": "no", "foot": "no", "headlight": "required", "highway": "trunk", "lanes": "2", "lit": "yes", "maxspeed": "100", "motor_vehicle": "designated", "motorroad": "yes", "name": "Via R\u00e1pida 2", "ref": "VR2", "surface": "asphalt"}}, {"type": "Feature", "geometry": {"type": "LineString", "coordinates": [[-16.9740128, 32.6699656], [-16.9738649, 32.6700058], [-16.9737364, 32.6700336], [-16.9735284, 32.670065], [-16.9732827, 32.6700845], [-16.9730515, 32.6700822], [-16.9729039, 32.6700826]]}, "properties": {"bicycle": "no", "cutting": "both", "foot": "no", "headlight": "required", "highway": "trunk", "lanes": "2", "lit": "yes", "maxspeed": "100", "motor_vehicle": "designated", "motorroad": "yes", "name": "Via R\u00e1pida 2", "ref": "VR2", "surface": "asphalt"}}, {"type": "Feature", "geometry": {"type": "LineString", "coordinates": [[-16.9701499, 32.6674447], [-16.9703351, 32.6679353], [-16.9703845, 32.6680924]]}, "properties": {"bicycle": "no", "foot": "no", "headlight": "required", "highway": "trunk", "lanes": "1", "lit": "yes", "maxspeed": "100", "motor_vehicle": "designated", "motorroad": "yes", "name": "Via R\u00e1pida 2", "oneway": "yes", "ref": "VR2", "surface": "asphalt"}}, {"type": "Feature", "geometry": {"type": "LineString", "coordinates": [[-16.9704505, 32.6680762], [-16.9704098, 32.6679444], [-16.970241, 32.6672529]]}, "properties": {"bicycle": "no", "foot": "no", "headlight": "required", "highway": "trunk", "lanes": "1", "lit": "yes", "maxspeed": "100", "motor_vehicle": "designated", "motorroad": "yes", "name": "Via R\u00e1pida 2", "oneway": "yes", "ref": "VR2", "surface": "asphalt"}}]}