{"type": "FeatureCollection", "features": [{"type": "Feature", "geometry": {"type": "Point", "coordinates": [-8.6577815, 41.2183366]}, "properties": {"distance": "1", "highway": "milestone", "ref": "VRI"}}, {"type": "Feature", "geometry": {"type": "Point", "coordinates": [-8.657591, 41.2184305]}, "properties": {"distance": "1", "highway": "milestone", "ref": "VRI"}}, {"type": "Feature", "geometry": {"type": "LineString", "coordinates": [[-8.6514432, 41.2048355], [-8.6514901, 41.2049713]]}, "properties": {"bridge": "yes", "highway": "motorway", "lanes": "4", "layer": "1", "lit": "yes", "maxspeed": "100", "minspeed": "50", "name": "Via Regional Interior", "oneway": "yes", "ref": "VRI", "surface": "asphalt"}}, {"type": "Feature", "geometry": {"type": "LineString", "coordinates": [[-8.65184, 41.2054744], [-8.6517227, 41.2051735], [-8.6516388, 41.2049375]]}, "properties": {"highway": "motorway", "lanes": "3", "lit": "yes", "name": "Via Regional Interior", "oneway": "yes", "ref": "VRI", "surface": "asphalt"}}, {"type": "Feature", "geometry": {"type": "LineString", "coordinates": [[-8.6680598, 41.2238757], [-8.6679326, 41.2238454], [-8.6678164, 41.2238207], [-8.6675779, 41.223788], [-8.6673774, 41.2237727], [-8.6672183, 41.2237662]]}, "properties": {"destination": "Porto;Matosinhos;Leix\u00f5es", "highway": "motorway", "lanes": "4", "lit": "yes", "name": "Via Regional Interior", "oneway": "yes", "ref": "VRI", "surface": "asphalt", "toll": "no"}}, {"type": "Feature", "geometry": {"type": "LineString", "coordinates": [[-8.6647526, 41.2237036], [-8.6643451, 41.2236828], [-8.6639657, 41.2236355], [-8.6634759, 41.223531]]}, "properties": {"destination": "Porto;Matosinhos;Leix\u00f5es", "destination:ref": "VRI", "highway": "motorway", "lanes": "4", "lit": "yes", "name": "Via Regional Interior", "oneway": "yes", "ref": "VRI", "source": "bing", "surface": "asphalt", "toll": "no", "turn:lanes": "|||merge_to_left"}}, {"type": "Feature", "geometry": {"type": "LineString", "coordinates": [[-8.6545373, 41.2148599], [-8.6540703, 41.2141908]]}, "properties": {"highway": "motorway", "lanes": "3", "lit": "no", "maxspeed": "100", "name": "Via Regional Interior", "oneway": "yes", "ref": "VRI", "surface": "asphalt"}}, {"type": "Feature", "geometry": {"type": "LineString", "coordinates": [[-8.6525924, 41.2115609], [-8.652678, 41.2117514]]}, "properties": {"bridge": "yes", "highway": "motorway", "lanes": "3", "layer": "1", "lit": "yes", "maxspeed": "100", "name": "Via Regional Interior", "oneway": "yes", "ref": "VRI", "source": "Bing", "surface": "asphalt"}}, {"type": "Feature", "geometry": {"type": "LineString", "coordinates": [[-8.6540703, 41.2141908], [-8.6538979, 41.2138944]]}, "properties": {"bridge": "yes", "highway": "motorway", "lanes": "3", "layer": "1", "lit": "no", "maxspeed": "100", "name": "Via Regional Interior", "oneway": "yes", "ref": "VRI", "surface": "asphalt"}}, {"type": "Feature", "geometry": {"type": "LineString", "coordinates": [[-8.6543161, 41.2149408], [-8.6550486, 41.2157859]]}, "properties": {"bridge": "yes", "highway": "motorway", "lanes": "3", "layer": "1", "lit": "no", "maxspeed": "100", "name": "Via Regional Interior", "oneway": "yes", "ref": "VRI", "surface": "asphalt"}}, {"type": "Feature", "geometry": {"type": "LineString", "coordinates": [[-8.6530074, 41.2118547], [-8.6528814, 41.211568]]}, "properties": {"bridge": "yes", "highway": "motorway", "lanes": "4", "layer": "1", "lit": "yes", "maxspeed": "100", "name": "Via Regional Interior", "oneway": "yes", "ref": "VRI", "surface": "asphalt", "turn:lanes": "through|through|through|slight_right"}}, {"type": "Feature", "geometry": {"type": "LineString", "coordinates": [[-8.653581, 41.2137595], [-8.6537651, 41.2141169]]}, "properties": {"bridge": "yes", "highway": "motorway", "lanes": "3", "layer": "1", "lit": "no", "maxspeed": "100", "name": "Via Regional Interior", "oneway": "yes", "ref": "VRI", "surface": "asphalt"}}, {"type": "Feature", "geometry": {"type": "LineString", "coordinates": [[-8.6551177, 41.2155434], [-8.6545373, 41.2148599]]}, "properties": {"bridge": "yes", "highway": "motorway", "lanes": "3", "layer": "1", "lit": "no", "maxspeed": "100", "name": "Via Regional Interior", "oneway": "yes", "ref": "VRI", "surface": "asphalt"}}, {"type": "Feature", "geometry": {"type": "LineString", "coordinates": [[-8.6534889, 41.2129487], [-8.6530074, 41.2118547]]}, "properties": {"highway": "motorway", "lanes": "4", "lit": "no", "maxspeed": "100", "name": "Via Regional Interior", "oneway": "yes", "ref": "VRI", "surface": "asphalt"}}, {"type": "Feature", "geometry": {"type": "LineString", "coordinates": [[-8.6550486, 41.2157859], [-8.6567486, 41.2175427]]}, "properties": {"highway": "motorway", "lanes": "3", "lit": "no", "maxspeed": "100", "name": "Via Regional Interior", "oneway": "yes", "ref": "VRI", "surface": "asphalt"}}, {"type": "Feature", "geometry": {"type": "LineString", "coordinates": [[-8.6526977, 41.2111717], [-8.6524984, 41.2107642], [-8.6523084, 41.2103512], [-8.6520786, 41.2098436], [-8.6519931, 41.2095981], [-8.6518947, 41.209293], [-8.6518225, 41.2090078], [-8.6517909, 41.2088663], [-8.6517605, 41.2087065], [-8.6517412, 41.2085138], [-8.6517243, 41.2081546]]}, "properties": {"highway": "motorway", "lanes": "3", "lit": "yes", "maxheight:signed": "no", "name": "Via Regional Interior", "oneway": "yes", "ref": "VRI", "source": "Bing", "surface": "asphalt"}}, {"type": "Feature", "geometry": {"type": "LineString", "coordinates": [[-8.6537651, 41.2141169], [-8.6543161, 41.2149408]]}, "properties": {"highway": "motorway", "lanes": "3", "lit": "no", "maxspeed": "100", "name": "Via Regional Interior", "oneway": "yes", "ref": "VRI", "surface": "asphalt"}}, {"type": "Feature", "geometry": {"type": "LineString", "coordinates": [[-8.6514672, 41.2078773], [-8.6514555, 41.2083074], [-8.6515223, 41.208847], [-8.6516083, 41.2092305], [-8.651801, 41.2098132]]}, "properties": {"highway": "motorway", "lanes": "4", "lit": "yes", "maxheight:signed": "no", "maxspeed": "100", "minspeed": "50", "name": "Via Regional Interior", "oneway": "yes", "ref": "VRI", "source": "Bing", "surface": "asphalt", "turn:lanes": "through|through|through|slight_right"}}, {"type": "Feature", "geometry": {"type": "LineString", "coordinates": [[-8.6569297, 41.217433], [-8.6566176, 41.2171216], [-8.6551177, 41.2155434]]}, "properties": {"highway": "motorway", "lanes": "3", "lit": "no", "maxspeed": "100", "name": "Via Regional Interior", "oneway": "yes", "ref": "VRI", "surface": "asphalt"}}, {"type": "Feature", "geometry": {"type": "LineString", "coordinates": [[-8.6610392, 41.2220617], [-8.6614041, 41.2224028], [-8.6626189, 41.2236959], [-8.6628618, 41.2239767]]}, "properties": {"highway": "motorway", "lanes": "3", "lit": "yes", "name": "Via Regional Interior", "oneway": "yes", "ref": "VRI", "surface": "asphalt"}}, {"type": "Feature", "geometry": {"type": "LineString", "coordinates": [[-8.6567486, 41.2175427], [-8.657591, 41.2184305], [-8.6585629, 41.2194547]]}, "properties": {"bridge": "yes", "highway": "motorway", "lanes": "4", "layer": "1", "lit": "no", "name": "Via Regional Interior", "oneway": "yes", "ref": "VRI", "surface": "asphalt"}}, {"type": "Feature", "geometry": {"type": "LineString", "coordinates": [[-8.6587384, 41.2193516], [-8.6577815, 41.2183366], [-8.6569297, 41.217433]]}, "properties": {"bridge": "yes", "highway": "motorway", "lanes": "4", "layer": "1", "lit": "no", "maxspeed": "100", "name": "Via Regional Interior", "oneway": "yes", "ref": "VRI", "surface": "asphalt"}}, {"type": "Feature", "geometry": {"type": "LineString", "coordinates": [[-8.6528579, 41.212168], [-8.653581, 41.2137595]]}, "properties": {"highway": "motorway", "lanes": "4", "lit": "no", "maxspeed": "100", "name": "Via Regional Interior", "oneway": "yes", "ref": "VRI", "surface": "asphalt", "turn:lanes": "|||merge_to_left"}}, {"type": "Feature", "geometry": {"type": "LineString", "coordinates": [[-8.6608006, 41.2215433], [-8.6603107, 41.2210582], [-8.6587384, 41.2193516]]}, "properties": {"highway": "motorway", "lanes": "4", "lit": "no", "maxspeed": "100", "name": "Via Regional Interior", "oneway": "yes", "ref": "VRI", "source": "bing", "surface": "asphalt"}}, {"type": "Feature", "geometry": {"type": "LineString", "coordinates": [[-8.6683366, 41.2239764], [-8.6680598, 41.2238757]]}, "properties": {"destination": "Porto;Matosinhos;Leix\u00f5es", "destination:ref": "VRI", "highway": "motorway", "lanes": "4", "lit": "yes", "maxspeed": "60", "name": "Via Regional Interior", "oneway": "yes", "ref": "VRI", "surface": "asphalt", "toll": "no"}}, {"type": "Feature", "geometry": {"type": "LineString", "coordinates": [[-8.6517142, 41.2076236], [-8.6517229, 41.2074282], [-8.6518729, 41.2062253], [-8.6518757, 41.2057989], [-8.65184, 41.2054744]]}, "properties": {"highway": "motorway", "lanes": "5", "lit": "yes", "name": "Via Regional Interior", "oneway": "yes", "ref": "VRI", "source": "Bing", "surface": "asphalt", "turn:lanes": "slight_left|slight_left|slight_left|slight_right|slight_right"}}, {"type": "Feature", "geometry": {"type": "LineString", "coordinates": [[-8.6514901, 41.2049713], [-8.651633, 41.205522], [-8.6516609, 41.205925], [-8.651655, 41.2062704], [-8.6515182, 41.2073859]]}, "properties": {"highway": "motorway", "lanes": "4", "lit": "yes", "maxspeed": "100", "minspeed": "50", "name": "Via Regional Interior", "oneway": "yes", "ref": "VRI", "source": "Bing", "surface": "asphalt", "turn:lanes": "merge_to_right|||"}}, {"type": "Feature", "geometry": {"type": "LineString", "coordinates": [[-8.6516388, 41.2049375], [-8.6515922, 41.2048064]]}, "properties": {"bridge": "yes", "highway": "motorway", "lanes": "3", "layer": "1", "lit": "yes", "name": "Via Regional Interior", "oneway": "yes", "ref": "VRI", "surface": "asphalt"}}, {"type": "Feature", "geometry": {"type": "LineString", "coordinates": [[-8.6591973, 41.220131], [-8.6604234, 41.2214532]]}, "properties": {"highway": "motorway", "lanes": "5", "lit": "yes", "name": "Via Regional Interior", "oneway": "yes", "ref": "VRI", "surface": "asphalt", "turn:lanes": "through|through|through|through|slight_right"}}, {"type": "Feature", "geometry": {"type": "LineString", "coordinates": [[-8.6585629, 41.2194547], [-8.6591973, 41.220131]]}, "properties": {"highway": "motorway", "lanes": "4", "lit": "yes", "name": "Via Regional Interior", "oneway": "yes", "ref": "VRI", "surface": "asphalt"}}, {"type": "Feature", "geometry": {"type": "LineString", "coordinates": [[-8.652678, 41.2117514], [-8.6528579, 41.212168]]}, "properties": {"highway": "motorway", "lanes": "3", "lit": "yes", "maxspeed": "100", "name": "Via Regional Interior", "oneway": "yes", "ref": "VRI", "surface": "asphalt"}}, {"type": "Feature", "geometry": {"type": "LineString", "coordinates": [[-8.6538979, 41.2138944], [-8.6534889, 41.2129487]]}, "properties": {"highway": "motorway", "lanes": "3", "lit": "no", "maxspeed": "100", "name": "Via Regional Interior", "oneway": "yes", "ref": "VRI", "surface": "asphalt"}}, {"type": "Feature", "geometry": {"type": "LineString", "coordinates": [[-8.6528814, 41.211568], [-8.6526977, 41.2111717]]}, "properties": {"highway": "motorway", "lanes": "4", "lit": "yes", "maxspeed": "100", "name": "Via Regional Interior", "oneway": "yes", "ref": "VRI", "source": "Bing", "surface": "asphalt", "turn:lanes": "through|through|through|slight_right"}}, {"type": "Feature", "geometry": {"type": "LineString", "coordinates": [[-8.6634759, 41.223531], [-8.6631811, 41.2234428], [-8.6627787, 41.2232843], [-8.6624127, 41.223078], [-8.6620724, 41.2227867]]}, "properties": {"destination": "Porto;Matosinhos;Leix\u00f5es", "destination:ref": "VRI", "highway": "motorway", "lanes": "3", "lit": "yes", "name": "Via Regional Interior", "oneway": "yes", "ref": "VRI", "source": "bing", "surface": "asphalt", "toll": "no"}}, {"type": "Feature", "geometry": {"type": "LineString", "coordinates": [[-8.6620724, 41.2227867], [-8.6612236, 41.2219541]]}, "properties": {"destination": "Porto;Matosinhos;Leix\u00f5es", "destination:ref": "VRI", "highway": "motorway", "lanes": "4", "lit": "yes", "maxspeed": "100", "name": "Via Regional Interior", "oneway": "yes", "ref": "VRI", "source": "bing", "surface": "asphalt", "toll": "no"}}, {"type": "Feature", "geometry": {"type": "LineString", "coordinates": [[-8.6639233, 41.2250912], [-8.664969, 41.2261891]]}, "properties": {"highway": "motorway", "lanes": "4", "lit": "yes", "maxheight:signed": "no", "maxspeed": "80", "name": "Via Regional Interior", "oneway": "yes", "ref": "VRI", "surface": "asphalt", "turn:lanes": "slight_left|slight_left|through|through"}}, {"type": "Feature", "geometry": {"type": "LineString", "coordinates": [[-8.6628618, 41.2239767], [-8.6639233, 41.2250912]]}, "properties": {"highway": "motorway", "lanes": "4", "lit": "yes", "maxheight:signed": "no", "name": "Via Regional Interior", "oneway": "yes", "ref": "VRI", "surface": "asphalt", "turn:lanes": "slight_left|slight_left|through|through"}}, {"type": "Feature", "geometry": {"type": "LineString", "coordinates": [[-8.6604234, 41.2214532], [-8.6610392, 41.2220617]]}, "properties": {"highway": "motorway", "lanes": "4", "lit": "yes", "name": "Via Regional Interior", "oneway": "yes", "ref": "VRI", "surface": "asphalt", "turn:lanes": "through|through|through|slight_right"}}, {"type": "Feature", "geometry": {"type": "LineString", "coordinates": [[-8.6612236, 41.2219541], [-8.6608006, 41.2215433]]}, "properties": {"highway": "motorway", "lanes": "5", "lit": "yes", "maxspeed": "100", "name": "Via Regional Interior", "oneway": "yes", "ref": "VRI", "source": "bing", "surface": "asphalt", "toll": "no"}}, {"type": "Feature", "geometry": {"type": "LineString", "coordinates": [[-8.6517243, 41.2081546], [-8.6517165, 41.2080636], [-8.6517139, 41.2078232], [-8.6517142, 41.2076236]]}, "properties": {"highway": "motorway", "lanes": "4", "lit": "yes", "name": "Via Regional Interior", "oneway": "yes", "ref": "VRI", "source": "Bing", "surface": "asphalt"}}, {"type": "Feature", "geometry": {"type": "LineString", "coordinates": [[-8.651801, 41.2098132], [-8.652198, 41.2106614], [-8.6523974, 41.2111594], [-8.6525924, 41.2115609]]}, "properties": {"highway": "motorway", "lanes": "3", "lit": "yes", "maxspeed": "100", "minspeed": "50", "name": "Via Regional Interior", "oneway": "yes", "ref": "VRI", "source": "Bing", "surface": "asphalt"}}, {"type": "Feature", "geometry": {"type": "LineString", "coordinates": [[-8.6515182, 41.2073859], [-8.6514672, 41.2078773]]}, "properties": {"highway": "motorway", "lanes": "3", "lit": "yes", "maxspeed": "100", "minspeed": "50", "name": "Via Regional Interior", "oneway": "yes", "ref": "VRI", "source": "Bing", "surface": "asphalt"}}, {"type": "Feature", "geometry": {"type": "LineString", "coordinates": [[-8.6672183, 41.2237662], [-8.6647526, 41.2237036]]}, "properties": {"destination": "Porto;Matosinhos;Leix\u00f5es", "highway": "motorway", "lanes": "4", "lit": "yes", "name": "Via Regional Interior", "oneway": "yes", "ref": "VRI", "source": "bing", "surface": "asphalt", "toll": "no", "turn:lanes": "through|through|through|through;slight_right"}}]}